[
  {
    "pincode": "110006",
    "officename": "Baratooti S.O",
    "officeType": "S.O",
    "Deliverystatus": "Non-Delivery",
    "divisionname": "Delhi North",
    "regionname": "Delhi",
    "circlename": "Delhi",
    "Taluk": "",
    "Districtname": "North Delhi",
    "statename": "DELHI"
  },
  {
    "pincode": "110006",
    "officename": "Chandni Chowk S.O",
    "officeType": "S.O",
    "Deliverystatus": "Non-Delivery",
    "divisionname": "Delhi North",
    "regionname": "Delhi",
    "circlename": "Delhi",
    "Taluk": "Delhi",
    "Districtname": "North Delhi",
    "statename": "DELHI"
  },
  {
    "pincode": "110006",
    "officename": "Chawri Bazar S.O",
    "officeType": "S.O",
    "Deliverystatus": "Non-Delivery",
    "divisionname": "Delhi North",
    "regionname": "Delhi",
    "circlename": "Delhi",
    "Taluk": "Delhi",
    "Districtname": "North Delhi",
    "statename": "DELHI"
  },
  {
    "pincode": "110006",
    "officename": "Dareeba S.O",
    "officeType": "S.O",
    "Deliverystatus": "Non-Delivery",
    "divisionname": "Delhi North",
    "regionname": "Delhi",
    "circlename": "Delhi",
    "Taluk": "Delhi",
    "Districtname": "North Delhi",
    "statename": "DELHI"
  },
  {
    "pincode": "110006",
    "officename": "Delhi G.P.O.",
    "officeType": "H.O",
    "Deliverystatus": "Delivery",
    "divisionname": "Delhi GPO",
    "regionname": "Delhi",
    "circlename": "Delhi",
    "Taluk": "Delhi",
    "Districtname": "North Delhi",
    "statename": "DELHI"
  },
  {
    "pincode": "110006",
    "officename": "Delhi Sadar Bazar S.O",
    "officeType": "S.O",
    "Deliverystatus": "Non-Delivery",
    "divisionname": "Delhi North",
    "regionname": "Delhi",
    "circlename": "Delhi",
    "Taluk": "Delhi",
    "Districtname": "North Delhi",
    "statename": "DELHI"
  },
  {
    "pincode": "110006",
    "officename": "Hauz Qazi S.O",
    "officeType": "S.O",
    "Deliverystatus": "Non-Delivery",
    "divisionname": "New Delhi Central",
    "regionname": "Delhi",
    "circlename": "Delhi",
    "Taluk": "Delhi",
    "Districtname": "Central Delhi",
    "statename": "DELHI"
  },
  {
    "pincode": "110006",
    "officename": "Jama Masjid S.O",
    "officeType": "S.O",
    "Deliverystatus": "Non-Delivery",
    "divisionname": "New Delhi Central",
    "regionname": "Delhi",
    "circlename": "Delhi",
    "Taluk": "Delhi",
    "Districtname": "Central Delhi",
    "statename": "DELHI"
  },
  {
    "pincode": "110006",
    "officename": "S.T. Road S.O",
    "officeType": "S.O",
    "Deliverystatus": "Non-Delivery",
    "divisionname": "Delhi North",
    "regionname": "Delhi",
    "circlename": "Delhi",
    "Taluk": "Delhi",
    "Districtname": "North Delhi",
    "statename": "DELHI"
  }
]
