[
  {
    "pincode": "110036",
    "officename": "Alipur S.O",
    "officeType": "S.O",
    "Deliverystatus": "Delivery",
    "divisionname": "Delhi North",
    "regionname": "Delhi",
    "circlename": "Delhi",
    "Taluk": "Delhi",
    "Districtname": "North West Delhi",
    "statename": "DELHI"
  },
  {
    "pincode": "110036",
    "officename": "Bakhtawar Pur B.O",
    "officeType": "B.O",
    "Deliverystatus": "Delivery",
    "divisionname": "Delhi North",
    "regionname": "Delhi",
    "circlename": "Delhi",
    "Taluk": "Delhi",
    "Districtname": "North West Delhi",
    "statename": "DELHI"
  },
  {
    "pincode": "110036",
    "officename": "Bakoli B.O",
    "officeType": "B.O",
    "Deliverystatus": "Non-Delivery",
    "divisionname": "Delhi North",
    "regionname": "Delhi",
    "circlename": "Delhi",
    "Taluk": "Delhi",
    "Districtname": "North West Delhi",
    "statename": "DELHI"
  },
  {
    "pincode": "110036",
    "officename": "Hiranki B.O",
    "officeType": "B.O",
    "Deliverystatus": "Non-Delivery",
    "divisionname": "Delhi North",
    "regionname": "Delhi",
    "circlename": "Delhi",
    "Taluk": "Delhi",
    "Districtname": "North West Delhi",
    "statename": "DELHI"
  },
  {
    "pincode": "110036",
    "officename": "Kadipur B.O",
    "officeType": "B.O",
    "Deliverystatus": "Delivery",
    "divisionname": "Delhi North",
    "regionname": "Delhi",
    "circlename": "Delhi",
    "Taluk": "Delhi",
    "Districtname": "North West Delhi",
    "statename": "DELHI"
  },
  {
    "pincode": "110036",
    "officename": "Khampur B.O",
    "officeType": "B.O",
    "Deliverystatus": "Delivery",
    "divisionname": "Delhi North",
    "regionname": "Delhi",
    "circlename": "Delhi",
    "Taluk": "Delhi",
    "Districtname": "North West Delhi",
    "statename": "DELHI"
  },
  {
    "pincode": "110036",
    "officename": "Mukhmelpur B.O",
    "officeType": "B.O",
    "Deliverystatus": "Non-Delivery",
    "divisionname": "Delhi North",
    "regionname": "Delhi",
    "circlename": "Delhi",
    "Taluk": "",
    "Districtname": "North West Delhi",
    "statename": "DELHI"
  },
  {
    "pincode": "110036",
    "officename": "Nangal Poona B.O",
    "officeType": "B.O",
    "Deliverystatus": "Non-Delivery",
    "divisionname": "Delhi North",
    "regionname": "Delhi",
    "circlename": "Delhi",
    "Taluk": "Delhi",
    "Districtname": "North West Delhi",
    "statename": "DELHI"
  },
  {
    "pincode": "110036",
    "officename": "Palla B.O",
    "officeType": "B.O",
    "Deliverystatus": "Delivery",
    "divisionname": "Delhi North",
    "regionname": "Delhi",
    "circlename": "Delhi",
    "Taluk": "Delhi",
    "Districtname": "North West Delhi",
    "statename": "DELHI"
  },
  {
    "pincode": "110036",
    "officename": "Tajpur Kalan B.O",
    "officeType": "B.O",
    "Deliverystatus": "Delivery",
    "divisionname": "Delhi North",
    "regionname": "Delhi",
    "circlename": "Delhi",
    "Taluk": "Delhi",
    "Districtname": "North West Delhi",
    "statename": "DELHI"
  }
]
