[
  {
    "pincode": "110019",
    "officename": "Alaknanda S.O",
    "officeType": "S.O",
    "Deliverystatus": "Non-Delivery",
    "divisionname": "New Delhi South",
    "regionname": "Delhi",
    "circlename": "Delhi",
    "Taluk": "New Delhi",
    "Districtname": "South Delhi",
    "statename": "DELHI"
  },
  {
    "pincode": "110019",
    "officename": "Ali B.O",
    "officeType": "B.O",
    "Deliverystatus": "Non-Delivery",
    "divisionname": "New Delhi South",
    "regionname": "Delhi",
    "circlename": "Delhi",
    "Taluk": "New Delhi",
    "Districtname": "South Delhi",
    "statename": "DELHI"
  },
  {
    "pincode": "110019",
    "officename": "Chittranjan Park S.O",
    "officeType": "S.O",
    "Deliverystatus": "Non-Delivery",
    "divisionname": "New Delhi South",
    "regionname": "Delhi",
    "circlename": "Delhi",
    "Taluk": "New Delhi",
    "Districtname": "South Delhi",
    "statename": "DELHI"
  },
  {
    "pincode": "110019",
    "officename": "Kalkaji H.O",
    "officeType": "H.O",
    "Deliverystatus": "Delivery",
    "divisionname": "New Delhi South",
    "regionname": "Delhi",
    "circlename": "Delhi",
    "Taluk": "New Delhi",
    "Districtname": "South Delhi",
    "statename": "DELHI"
  },
  {
    "pincode": "110019",
    "officename": "Lal Kuan B.O",
    "officeType": "B.O",
    "Deliverystatus": "Non-Delivery",
    "divisionname": "New Delhi South",
    "regionname": "Delhi",
    "circlename": "Delhi",
    "Taluk": "New Delhi",
    "Districtname": "South Delhi",
    "statename": "DELHI"
  },
  {
    "pincode": "110019",
    "officename": "Nehru Place S.O",
    "officeType": "S.O",
    "Deliverystatus": "Non-Delivery",
    "divisionname": "New Delhi South",
    "regionname": "Delhi",
    "circlename": "Delhi",
    "Taluk": "New Delhi",
    "Districtname": "South Delhi",
    "statename": "DELHI"
  },
  {
    "pincode": "110019",
    "officename": "Tehkhand B.O",
    "officeType": "B.O",
    "Deliverystatus": "Non-Delivery",
    "divisionname": "New Delhi South",
    "regionname": "Delhi",
    "circlename": "Delhi",
    "Taluk": "New Delhi",
    "Districtname": "South Delhi",
    "statename": "DELHI"
  },
  {
    "pincode": "110019",
    "officename": "Tugalkabad B.O",
    "officeType": "B.O",
    "Deliverystatus": "Non-Delivery",
    "divisionname": "New Delhi South",
    "regionname": "Delhi",
    "circlename": "Delhi",
    "Taluk": "New Delhi",
    "Districtname": "South Delhi",
    "statename": "DELHI"
  }
]
