[
  {
    "pincode": "110010",
    "officename": "505 A B Workshop S.O",
    "officeType": "S.O",
    "Deliverystatus": "Non-Delivery",
    "divisionname": "New Delhi South West",
    "regionname": "Delhi",
    "circlename": "Delhi",
    "Taluk": "",
    "Districtname": "South West Delhi",
    "statename": "DELHI"
  },
  {
    "pincode": "110010",
    "officename": "A F Palam S.O",
    "officeType": "S.O",
    "Deliverystatus": "Non-Delivery",
    "divisionname": "New Delhi South West",
    "regionname": "Delhi",
    "circlename": "Delhi",
    "Taluk": "",
    "Districtname": "South West Delhi",
    "statename": "DELHI"
  },
  {
    "pincode": "110010",
    "officename": "Aps Colony B.O",
    "officeType": "B.O",
    "Deliverystatus": "Non-Delivery",
    "divisionname": "New Delhi South West",
    "regionname": "Delhi",
    "circlename": "Delhi",
    "Taluk": "",
    "Districtname": "South West Delhi",
    "statename": "DELHI"
  },
  {
    "pincode": "110010",
    "officename": "Bazar Road S.O",
    "officeType": "S.O",
    "Deliverystatus": "Non-Delivery",
    "divisionname": "New Delhi South West",
    "regionname": "Delhi",
    "circlename": "Delhi",
    "Taluk": "",
    "Districtname": "South West Delhi",
    "statename": "DELHI"
  },
  {
    "pincode": "110010",
    "officename": "C.V.D. S.O",
    "officeType": "S.O",
    "Deliverystatus": "Non-Delivery",
    "divisionname": "New Delhi South West",
    "regionname": "Delhi",
    "circlename": "Delhi",
    "Taluk": "",
    "Districtname": "South West Delhi",
    "statename": "DELHI"
  },
  {
    "pincode": "110010",
    "officename": "COD S.O (South West Delhi)",
    "officeType": "S.O",
    "Deliverystatus": "Non-Delivery",
    "divisionname": "New Delhi South West",
    "regionname": "Delhi",
    "circlename": "Delhi",
    "Taluk": "",
    "Districtname": "South West Delhi",
    "statename": "DELHI"
  },
  {
    "pincode": "110010",
    "officename": "Delhi Cantt S.O",
    "officeType": "S.O",
    "Deliverystatus": "Delivery",
    "divisionname": "New Delhi South West",
    "regionname": "Delhi",
    "circlename": "Delhi",
    "Taluk": "",
    "Districtname": "South West Delhi",
    "statename": "DELHI"
  },
  {
    "pincode": "110010",
    "officename": "Dhaula Kuan S.O",
    "officeType": "S.O",
    "Deliverystatus": "Non-Delivery",
    "divisionname": "New Delhi South West",
    "regionname": "Delhi",
    "circlename": "Delhi",
    "Taluk": "",
    "Districtname": "South West Delhi",
    "statename": "DELHI"
  },
  {
    "pincode": "110010",
    "officename": "Kirby Place S.O",
    "officeType": "S.O",
    "Deliverystatus": "Non-Delivery",
    "divisionname": "New Delhi South West",
    "regionname": "Delhi",
    "circlename": "Delhi",
    "Taluk": "",
    "Districtname": "South West Delhi",
    "statename": "DELHI"
  },
  {
    "pincode": "110010",
    "officename": "Pinto Park S.O",
    "officeType": "S.O",
    "Deliverystatus": "Non-Delivery",
    "divisionname": "New Delhi South West",
    "regionname": "Delhi",
    "circlename": "Delhi",
    "Taluk": "",
    "Districtname": "South West Delhi",
    "statename": "DELHI"
  },
  {
    "pincode": "110010",
    "officename": "R R Hospital S.O",
    "officeType": "S.O",
    "Deliverystatus": "Non-Delivery",
    "divisionname": "New Delhi South West",
    "regionname": "Delhi",
    "circlename": "Delhi",
    "Taluk": "",
    "Districtname": "South West Delhi",
    "statename": "DELHI"
  },
  {
    "pincode": "110010",
    "officename": "Signal Enclave S.O",
    "officeType": "S.O",
    "Deliverystatus": "Non-Delivery",
    "divisionname": "New Delhi South West",
    "regionname": "Delhi",
    "circlename": "Delhi",
    "Taluk": "",
    "Districtname": "South West Delhi",
    "statename": "DELHI"
  },
  {
    "pincode": "110010",
    "officename": "Station Road S.O (South West Delhi)",
    "officeType": "S.O",
    "Deliverystatus": "Non-Delivery",
    "divisionname": "New Delhi South West",
    "regionname": "Delhi",
    "circlename": "Delhi",
    "Taluk": "",
    "Districtname": "South West Delhi",
    "statename": "DELHI"
  },
  {
    "pincode": "110010",
    "officename": "Subroto Park S.O",
    "officeType": "S.O",
    "Deliverystatus": "Non-Delivery",
    "divisionname": "New Delhi South West",
    "regionname": "Delhi",
    "circlename": "Delhi",
    "Taluk": "",
    "Districtname": "South West Delhi",
    "statename": "DELHI"
  }
]
