[
  {
    "pincode": "110017",
    "officename": "Distt. Court Complex, Saket S.O",
    "officeType": "S.O",
    "Deliverystatus": "Non-Delivery",
    "divisionname": "New Delhi South",
    "regionname": "Delhi",
    "circlename": "Delhi",
    "Taluk": "",
    "Districtname": "South Delhi",
    "statename": "DELHI"
  },
  {
    "pincode": "110017",
    "officename": "MMTC/STC Colony S.O",
    "officeType": "S.O",
    "Deliverystatus": "Non-Delivery",
    "divisionname": "New Delhi South",
    "regionname": "Delhi",
    "circlename": "Delhi",
    "Taluk": "New Delhi",
    "Districtname": "South Delhi",
    "statename": "DELHI"
  },
  {
    "pincode": "110017",
    "officename": "Malviya Nagar S.O (South Delhi)",
    "officeType": "S.O",
    "Deliverystatus": "Delivery",
    "divisionname": "New Delhi South",
    "regionname": "Delhi",
    "circlename": "Delhi",
    "Taluk": "New Delhi",
    "Districtname": "South Delhi",
    "statename": "DELHI"
  },
  {
    "pincode": "110017",
    "officename": "Panchsheel Enclave S.O",
    "officeType": "S.O",
    "Deliverystatus": "Non-Delivery",
    "divisionname": "New Delhi South",
    "regionname": "Delhi",
    "circlename": "Delhi",
    "Taluk": "New Delhi",
    "Districtname": "South Delhi",
    "statename": "DELHI"
  },
  {
    "pincode": "110017",
    "officename": "Pushp Vihar S.O",
    "officeType": "S.O",
    "Deliverystatus": "Non-Delivery",
    "divisionname": "New Delhi South",
    "regionname": "Delhi",
    "circlename": "Delhi",
    "Taluk": "New Delhi",
    "Districtname": "South Delhi",
    "statename": "DELHI"
  },
  {
    "pincode": "110017",
    "officename": "Saket S.O (South Delhi)",
    "officeType": "S.O",
    "Deliverystatus": "Non-Delivery",
    "divisionname": "New Delhi South",
    "regionname": "Delhi",
    "circlename": "Delhi",
    "Taluk": "New Delhi",
    "Districtname": "South Delhi",
    "statename": "DELHI"
  },
  {
    "pincode": "110017",
    "officename": "Sarvodya Enclave S.O",
    "officeType": "S.O",
    "Deliverystatus": "Non-Delivery",
    "divisionname": "New Delhi South",
    "regionname": "Delhi",
    "circlename": "Delhi",
    "Taluk": "New Delhi",
    "Districtname": "South Delhi",
    "statename": "DELHI"
  },
  {
    "pincode": "110017",
    "officename": "South Malviya Nagar S.O",
    "officeType": "S.O",
    "Deliverystatus": "Non-Delivery",
    "divisionname": "New Delhi South",
    "regionname": "Delhi",
    "circlename": "Delhi",
    "Taluk": "New Delhi",
    "Districtname": "South Delhi",
    "statename": "DELHI"
  }
]
