[
  {
    "pincode": "110062",
    "officename": "Air Force Station Tugalkabad S.O",
    "officeType": "S.O",
    "Deliverystatus": "Non-Delivery",
    "divisionname": "New Delhi South",
    "regionname": "Delhi",
    "circlename": "Delhi",
    "Taluk": "New Delhi",
    "Districtname": "South Delhi",
    "statename": "DELHI"
  },
  {
    "pincode": "110062",
    "officename": "BSF Camp Tigri S.O",
    "officeType": "S.O",
    "Deliverystatus": "Non-Delivery",
    "divisionname": "New Delhi South",
    "regionname": "Delhi",
    "circlename": "Delhi",
    "Taluk": "New Delhi",
    "Districtname": "South Delhi",
    "statename": "DELHI"
  },
  {
    "pincode": "110062",
    "officename": "Dakshinpuri Phase-I S.O",
    "officeType": "S.O",
    "Deliverystatus": "Non-Delivery",
    "divisionname": "New Delhi South",
    "regionname": "Delhi",
    "circlename": "Delhi",
    "Taluk": "New Delhi",
    "Districtname": "South Delhi",
    "statename": "DELHI"
  },
  {
    "pincode": "110062",
    "officename": "Dakshinpuri Phase-II S.O",
    "officeType": "S.O",
    "Deliverystatus": "Non-Delivery",
    "divisionname": "New Delhi South",
    "regionname": "Delhi",
    "circlename": "Delhi",
    "Taluk": "New Delhi",
    "Districtname": "South Delhi",
    "statename": "DELHI"
  },
  {
    "pincode": "110062",
    "officename": "Dakshinpuri Phase-III S.O",
    "officeType": "S.O",
    "Deliverystatus": "Non-Delivery",
    "divisionname": "New Delhi South",
    "regionname": "Delhi",
    "circlename": "Delhi",
    "Taluk": "New Delhi",
    "Districtname": "South Delhi",
    "statename": "DELHI"
  },
  {
    "pincode": "110062",
    "officename": "Deoli B.O",
    "officeType": "B.O",
    "Deliverystatus": "Non-Delivery",
    "divisionname": "New Delhi South",
    "regionname": "Delhi",
    "circlename": "Delhi",
    "Taluk": "New Delhi",
    "Districtname": "South Delhi",
    "statename": "DELHI"
  },
  {
    "pincode": "110062",
    "officename": "Dr. Ambedkar Nagar S.O (South Delhi)",
    "officeType": "S.O",
    "Deliverystatus": "Non-Delivery",
    "divisionname": "New Delhi South",
    "regionname": "Delhi",
    "circlename": "Delhi",
    "Taluk": "New Delhi",
    "Districtname": "South Delhi",
    "statename": "DELHI"
  },
  {
    "pincode": "110062",
    "officename": "Hamdard Nagar S.O",
    "officeType": "S.O",
    "Deliverystatus": "Non-Delivery",
    "divisionname": "New Delhi South",
    "regionname": "Delhi",
    "circlename": "Delhi",
    "Taluk": "New Delhi",
    "Districtname": "South Delhi",
    "statename": "DELHI"
  },
  {
    "pincode": "110062",
    "officename": "Khanpur S.O (South Delhi)",
    "officeType": "S.O",
    "Deliverystatus": "Non-Delivery",
    "divisionname": "New Delhi South",
    "regionname": "Delhi",
    "circlename": "Delhi",
    "Taluk": "New Delhi",
    "Districtname": "South Delhi",
    "statename": "DELHI"
  },
  {
    "pincode": "110062",
    "officename": "Pushpa Bhawan S.O",
    "officeType": "S.O",
    "Deliverystatus": "Delivery",
    "divisionname": "New Delhi South",
    "regionname": "Delhi",
    "circlename": "Delhi",
    "Taluk": "New Delhi",
    "Districtname": "South Delhi",
    "statename": "DELHI"
  },
  {
    "pincode": "110062",
    "officename": "Talimabad S.O",
    "officeType": "S.O",
    "Deliverystatus": "Non-Delivery",
    "divisionname": "New Delhi South",
    "regionname": "Delhi",
    "circlename": "Delhi",
    "Taluk": "New Delhi",
    "Districtname": "South Delhi",
    "statename": "DELHI"
  }
]
