[
  {
    "pincode": "110022",
    "officename": "R K Puram Sect-1 S.O",
    "officeType": "S.O",
    "Deliverystatus": "Non-Delivery",
    "divisionname": "New Delhi South West",
    "regionname": "Delhi",
    "circlename": "Delhi",
    "Taluk": "",
    "Districtname": "South West Delhi",
    "statename": "DELHI"
  },
  {
    "pincode": "110022",
    "officename": "R K Puram Sect-12 S.O",
    "officeType": "S.O",
    "Deliverystatus": "Non-Delivery",
    "divisionname": "New Delhi South West",
    "regionname": "Delhi",
    "circlename": "Delhi",
    "Taluk": "",
    "Districtname": "South West Delhi",
    "statename": "DELHI"
  },
  {
    "pincode": "110022",
    "officename": "R K Puram Sect-3 S.O",
    "officeType": "S.O",
    "Deliverystatus": "Non-Delivery",
    "divisionname": "New Delhi South West",
    "regionname": "Delhi",
    "circlename": "Delhi",
    "Taluk": "",
    "Districtname": "South West Delhi",
    "statename": "DELHI"
  },
  {
    "pincode": "110022",
    "officename": "R K Puram Sect-4 S.O",
    "officeType": "S.O",
    "Deliverystatus": "Non-Delivery",
    "divisionname": "New Delhi South West",
    "regionname": "Delhi",
    "circlename": "Delhi",
    "Taluk": "",
    "Districtname": "South West Delhi",
    "statename": "DELHI"
  },
  {
    "pincode": "110022",
    "officename": "R K Puram Sect-5 S.O",
    "officeType": "S.O",
    "Deliverystatus": "Delivery",
    "divisionname": "New Delhi South West",
    "regionname": "Delhi",
    "circlename": "Delhi",
    "Taluk": "",
    "Districtname": "South West Delhi",
    "statename": "DELHI"
  },
  {
    "pincode": "110022",
    "officename": "R K Puram Sect-8 S.O",
    "officeType": "S.O",
    "Deliverystatus": "Non-Delivery",
    "divisionname": "New Delhi South West",
    "regionname": "Delhi",
    "circlename": "Delhi",
    "Taluk": "",
    "Districtname": "South West Delhi",
    "statename": "DELHI"
  },
  {
    "pincode": "110022",
    "officename": "R K Puram Sect7 S.O",
    "officeType": "S.O",
    "Deliverystatus": "Non-Delivery",
    "divisionname": "New Delhi South West",
    "regionname": "Delhi",
    "circlename": "Delhi",
    "Taluk": "",
    "Districtname": "South West Delhi",
    "statename": "DELHI"
  },
  {
    "pincode": "110022",
    "officename": "R K Puram Sector - 6 Postal SB S.O",
    "officeType": "S.O",
    "Deliverystatus": "Non-Delivery",
    "divisionname": "New Delhi South West",
    "regionname": "Delhi",
    "circlename": "Delhi",
    "Taluk": "",
    "Districtname": "South West Delhi",
    "statename": "DELHI"
  }
]
