[
  {
    "pincode": "110092",
    "officename": "Anand Vihar S.O",
    "officeType": "S.O",
    "Deliverystatus": "Non-Delivery",
    "divisionname": "Delhi East",
    "regionname": "Delhi",
    "circlename": "Delhi",
    "Taluk": "",
    "Districtname": "East Delhi",
    "statename": "DELHI"
  },
  {
    "pincode": "110092",
    "officename": "IP Extension S.O",
    "officeType": "S.O",
    "Deliverystatus": "Non-Delivery",
    "divisionname": "Delhi East",
    "regionname": "Delhi",
    "circlename": "Delhi",
    "Taluk": "",
    "Districtname": "East Delhi",
    "statename": "DELHI"
  },
  {
    "pincode": "110092",
    "officename": "Laxmi Nagar S.O (East Delhi)",
    "officeType": "S.O",
    "Deliverystatus": "Delivery",
    "divisionname": "Delhi East",
    "regionname": "Delhi",
    "circlename": "Delhi",
    "Taluk": "",
    "Districtname": "East Delhi",
    "statename": "DELHI"
  },
  {
    "pincode": "110092",
    "officename": "Mandawali Fazalpur S.O",
    "officeType": "S.O",
    "Deliverystatus": "Non-Delivery",
    "divisionname": "Delhi East",
    "regionname": "Delhi",
    "circlename": "Delhi",
    "Taluk": "",
    "Districtname": "East Delhi",
    "statename": "DELHI"
  },
  {
    "pincode": "110092",
    "officename": "Nirman Vihar S.O",
    "officeType": "S.O",
    "Deliverystatus": "Non-Delivery",
    "divisionname": "Delhi East",
    "regionname": "Delhi",
    "circlename": "Delhi",
    "Taluk": "",
    "Districtname": "East Delhi",
    "statename": "DELHI"
  },
  {
    "pincode": "110092",
    "officename": "Shakarpur S.O",
    "officeType": "S.O",
    "Deliverystatus": "Non-Delivery",
    "divisionname": "Delhi East",
    "regionname": "Delhi",
    "circlename": "Delhi",
    "Taluk": "",
    "Districtname": "East Delhi",
    "statename": "DELHI"
  },
  {
    "pincode": "110092",
    "officename": "Surajmal Vihar S.O",
    "officeType": "S.O",
    "Deliverystatus": "Non-Delivery",
    "divisionname": "Delhi East",
    "regionname": "Delhi",
    "circlename": "Delhi",
    "Taluk": "",
    "Districtname": "East Delhi",
    "statename": "DELHI"
  },
  {
    "pincode": "110092",
    "officename": "Yozna Vihar S.O",
    "officeType": "S.O",
    "Deliverystatus": "Non-Delivery",
    "divisionname": "Delhi East",
    "regionname": "Delhi",
    "circlename": "Delhi",
    "Taluk": "",
    "Districtname": "East Delhi",
    "statename": "DELHI"
  }
]
