[
  {
    "pincode": "110081",
    "officename": "Chand Pur B.O",
    "officeType": "B.O",
    "Deliverystatus": "Delivery",
    "divisionname": "Delhi North",
    "regionname": "Delhi",
    "circlename": "Delhi",
    "Taluk": "Delhi",
    "Districtname": "North West Delhi",
    "statename": "DELHI"
  },
  {
    "pincode": "110081",
    "officename": "Gheora B.O",
    "officeType": "B.O",
    "Deliverystatus": "Delivery",
    "divisionname": "Delhi North",
    "regionname": "Delhi",
    "circlename": "Delhi",
    "Taluk": "Delhi",
    "Districtname": "North West Delhi",
    "statename": "DELHI"
  },
  {
    "pincode": "110081",
    "officename": "Jaunti B.O",
    "officeType": "B.O",
    "Deliverystatus": "Delivery",
    "divisionname": "Delhi North",
    "regionname": "Delhi",
    "circlename": "Delhi",
    "Taluk": "Delhi",
    "Districtname": "North West Delhi",
    "statename": "DELHI"
  },
  {
    "pincode": "110081",
    "officename": "Kanjhawla S.O",
    "officeType": "S.O",
    "Deliverystatus": "Delivery",
    "divisionname": "Delhi North",
    "regionname": "Delhi",
    "circlename": "Delhi",
    "Taluk": "Delhi",
    "Districtname": "North West Delhi",
    "statename": "DELHI"
  },
  {
    "pincode": "110081",
    "officename": "Karala B.O",
    "officeType": "B.O",
    "Deliverystatus": "Delivery",
    "divisionname": "Delhi North",
    "regionname": "Delhi",
    "circlename": "Delhi",
    "Taluk": "Delhi",
    "Districtname": "North West Delhi",
    "statename": "DELHI"
  },
  {
    "pincode": "110081",
    "officename": "Lad Pur B.O",
    "officeType": "B.O",
    "Deliverystatus": "Delivery",
    "divisionname": "Delhi North",
    "regionname": "Delhi",
    "circlename": "Delhi",
    "Taluk": "Delhi",
    "Districtname": "North West Delhi",
    "statename": "DELHI"
  },
  {
    "pincode": "110081",
    "officename": "Majra Dabas B.O",
    "officeType": "B.O",
    "Deliverystatus": "Delivery",
    "divisionname": "Delhi North",
    "regionname": "Delhi",
    "circlename": "Delhi",
    "Taluk": "Delhi",
    "Districtname": "North West Delhi",
    "statename": "DELHI"
  },
  {
    "pincode": "110081",
    "officename": "Mubarak Pur Dabas B.O",
    "officeType": "B.O",
    "Deliverystatus": "Delivery",
    "divisionname": "Delhi North",
    "regionname": "Delhi",
    "circlename": "Delhi",
    "Taluk": "Delhi",
    "Districtname": "North West Delhi",
    "statename": "DELHI"
  },
  {
    "pincode": "110081",
    "officename": "Nizampur B.O",
    "officeType": "B.O",
    "Deliverystatus": "Delivery",
    "divisionname": "Delhi North",
    "regionname": "Delhi",
    "circlename": "Delhi",
    "Taluk": "Delhi",
    "Districtname": "North West Delhi",
    "statename": "DELHI"
  },
  {
    "pincode": "110081",
    "officename": "Punjab Khor B.O",
    "officeType": "B.O",
    "Deliverystatus": "Delivery",
    "divisionname": "Delhi North",
    "regionname": "Delhi",
    "circlename": "Delhi",
    "Taluk": "Delhi",
    "Districtname": "North West Delhi",
    "statename": "DELHI"
  },
  {
    "pincode": "110081",
    "officename": "Rani Khera B.O",
    "officeType": "B.O",
    "Deliverystatus": "Delivery",
    "divisionname": "Delhi North",
    "regionname": "Delhi",
    "circlename": "Delhi",
    "Taluk": "Delhi",
    "Districtname": "North West Delhi",
    "statename": "DELHI"
  }
]
