[
  {
    "pincode": "110001",
    "officename": "Baroda House S.O",
    "officeType": "S.O",
    "Deliverystatus": "Non-Delivery",
    "divisionname": "New Delhi Central",
    "regionname": "Delhi",
    "circlename": "Delhi",
    "Taluk": "New Delhi",
    "Districtname": "Central Delhi",
    "statename": "DELHI"
  },
  {
    "pincode": "110001",
    "officename": "Bengali Market S.O",
    "officeType": "S.O",
    "Deliverystatus": "Non-Delivery",
    "divisionname": "New Delhi Central",
    "regionname": "Delhi",
    "circlename": "Delhi",
    "Taluk": "New Delhi",
    "Districtname": "Central Delhi",
    "statename": "DELHI"
  },
  {
    "pincode": "110001",
    "officename": "Bhagat Singh Market S.O",
    "officeType": "S.O",
    "Deliverystatus": "Non-Delivery",
    "divisionname": "New Delhi Central",
    "regionname": "Delhi",
    "circlename": "Delhi",
    "Taluk": "New Delhi",
    "Districtname": "Central Delhi",
    "statename": "DELHI"
  },
  {
    "pincode": "110001",
    "officename": "Connaught Place S.O",
    "officeType": "S.O",
    "Deliverystatus": "Non-Delivery",
    "divisionname": "New Delhi Central",
    "regionname": "Delhi",
    "circlename": "Delhi",
    "Taluk": "New Delhi",
    "Districtname": "Central Delhi",
    "statename": "DELHI"
  },
  {
    "pincode": "110001",
    "officename": "Constitution House S.O",
    "officeType": "S.O",
    "Deliverystatus": "Non-Delivery",
    "divisionname": "New Delhi Central",
    "regionname": "Delhi",
    "circlename": "Delhi",
    "Taluk": "New Delhi",
    "Districtname": "Central Delhi",
    "statename": "DELHI"
  },
  {
    "pincode": "110001",
    "officename": "Election Commission S.O",
    "officeType": "S.O",
    "Deliverystatus": "Non-Delivery",
    "divisionname": "New Delhi Central",
    "regionname": "Delhi",
    "circlename": "Delhi",
    "Taluk": "New Delhi",
    "Districtname": "Central Delhi",
    "statename": "DELHI"
  },
  {
    "pincode": "110001",
    "officename": "Janpath S.O",
    "officeType": "S.O",
    "Deliverystatus": "Non-Delivery",
    "divisionname": "New Delhi Central",
    "regionname": "Delhi",
    "circlename": "Delhi",
    "Taluk": "New Delhi",
    "Districtname": "Central Delhi",
    "statename": "DELHI"
  },
  {
    "pincode": "110001",
    "officename": "Krishi Bhawan S.O",
    "officeType": "S.O",
    "Deliverystatus": "Non-Delivery",
    "divisionname": "New Delhi Central",
    "regionname": "Delhi",
    "circlename": "Delhi",
    "Taluk": "New Delhi",
    "Districtname": "Central Delhi",
    "statename": "DELHI"
  },
  {
    "pincode": "110001",
    "officename": "Lady Harding Medical College S.O",
    "officeType": "S.O",
    "Deliverystatus": "Non-Delivery",
    "divisionname": "New Delhi Central",
    "regionname": "Delhi",
    "circlename": "Delhi",
    "Taluk": "New Delhi",
    "Districtname": "Central Delhi",
    "statename": "DELHI"
  },
  {
    "pincode": "110001",
    "officename": "New Delhi G.P.O.",
    "officeType": "H.O",
    "Deliverystatus": "Delivery",
    "divisionname": "New Delhi GPO",
    "regionname": "Delhi",
    "circlename": "Delhi",
    "Taluk": "New Delhi",
    "Districtname": "New Delhi",
    "statename": "DELHI"
  },
  {
    "pincode": "110001",
    "officename": "North Avenue S.O",
    "officeType": "S.O",
    "Deliverystatus": "Non-Delivery",
    "divisionname": "New Delhi Central",
    "regionname": "Delhi",
    "circlename": "Delhi",
    "Taluk": "New Delhi",
    "Districtname": "Central Delhi",
    "statename": "DELHI"
  },
  {
    "pincode": "110001",
    "officename": "Parliament House S.O",
    "officeType": "S.O",
    "Deliverystatus": "Non-Delivery",
    "divisionname": "New Delhi Central",
    "regionname": "Delhi",
    "circlename": "Delhi",
    "Taluk": "New Delhi",
    "Districtname": "Central Delhi",
    "statename": "DELHI"
  },
  {
    "pincode": "110001",
    "officename": "Patiala House S.O",
    "officeType": "S.O",
    "Deliverystatus": "Non-Delivery",
    "divisionname": "New Delhi Central",
    "regionname": "Delhi",
    "circlename": "Delhi",
    "Taluk": "New Delhi",
    "Districtname": "Central Delhi",
    "statename": "DELHI"
  },
  {
    "pincode": "110001",
    "officename": "Pragati Maidan Camp S.O",
    "officeType": "S.O",
    "Deliverystatus": "Non-Delivery",
    "divisionname": "New Delhi Central",
    "regionname": "Delhi",
    "circlename": "Delhi",
    "Taluk": "New Delhi",
    "Districtname": "Central Delhi",
    "statename": "DELHI"
  },
  {
    "pincode": "110001",
    "officename": "Pragati Maidan S.O",
    "officeType": "S.O",
    "Deliverystatus": "Non-Delivery",
    "divisionname": "New Delhi Central",
    "regionname": "Delhi",
    "circlename": "Delhi",
    "Taluk": "New Delhi",
    "Districtname": "Central Delhi",
    "statename": "DELHI"
  },
  {
    "pincode": "110001",
    "officename": "Rail Bhawan S.O",
    "officeType": "S.O",
    "Deliverystatus": "Non-Delivery",
    "divisionname": "New Delhi Central",
    "regionname": "Delhi",
    "circlename": "Delhi",
    "Taluk": "New Delhi",
    "Districtname": "Central Delhi",
    "statename": "DELHI"
  },
  {
    "pincode": "110001",
    "officename": "Sansad Marg H.O",
    "officeType": "H.O",
    "Deliverystatus": "Non-Delivery",
    "divisionname": "New Delhi Central",
    "regionname": "Delhi",
    "circlename": "Delhi",
    "Taluk": "New Delhi",
    "Districtname": "Central Delhi",
    "statename": "DELHI"
  },
  {
    "pincode": "110001",
    "officename": "Sansadiya Soudh S.O",
    "officeType": "S.O",
    "Deliverystatus": "Non-Delivery",
    "divisionname": "New Delhi Central",
    "regionname": "Delhi",
    "circlename": "Delhi",
    "Taluk": "New Delhi",
    "Districtname": "Central Delhi",
    "statename": "DELHI"
  },
  {
    "pincode": "110001",
    "officename": "Secretariat North S.O",
    "officeType": "S.O",
    "Deliverystatus": "Non-Delivery",
    "divisionname": "New Delhi Central",
    "regionname": "Delhi",
    "circlename": "Delhi",
    "Taluk": "New Delhi",
    "Districtname": "Central Delhi",
    "statename": "DELHI"
  },
  {
    "pincode": "110001",
    "officename": "Shastri Bhawan S.O",
    "officeType": "S.O",
    "Deliverystatus": "Non-Delivery",
    "divisionname": "New Delhi Central",
    "regionname": "Delhi",
    "circlename": "Delhi",
    "Taluk": "New Delhi",
    "Districtname": "Central Delhi",
    "statename": "DELHI"
  },
  {
    "pincode": "110001",
    "officename": "Supreme Court S.O",
    "officeType": "S.O",
    "Deliverystatus": "Non-Delivery",
    "divisionname": "New Delhi Central",
    "regionname": "Delhi",
    "circlename": "Delhi",
    "Taluk": "New Delhi",
    "Districtname": "Central Delhi",
    "statename": "DELHI"
  }
]
