[
  {
    "pincode": "110043",
    "officename": "Baprola B.O",
    "officeType": "B.O",
    "Deliverystatus": "Non-Delivery",
    "divisionname": "New Delhi West",
    "regionname": "Delhi",
    "circlename": "Delhi",
    "Taluk": "New Delhi",
    "Districtname": "South West Delhi",
    "statename": "DELHI"
  },
  {
    "pincode": "110043",
    "officename": "D C Nangli Sakravati B.O",
    "officeType": "B.O",
    "Deliverystatus": "Non-Delivery",
    "divisionname": "New Delhi West",
    "regionname": "Delhi",
    "circlename": "Delhi",
    "Taluk": "New Delhi",
    "Districtname": "South West Delhi",
    "statename": "DELHI"
  },
  {
    "pincode": "110043",
    "officename": "Daulatpur B.O",
    "officeType": "B.O",
    "Deliverystatus": "Delivery",
    "divisionname": "New Delhi West",
    "regionname": "Delhi",
    "circlename": "Delhi",
    "Taluk": "New Delhi",
    "Districtname": "South West Delhi",
    "statename": "DELHI"
  },
  {
    "pincode": "110043",
    "officename": "Dichaun Kalan B.O",
    "officeType": "B.O",
    "Deliverystatus": "Delivery",
    "divisionname": "New Delhi West",
    "regionname": "Delhi",
    "circlename": "Delhi",
    "Taluk": "New Delhi",
    "Districtname": "South West Delhi",
    "statename": "DELHI"
  },
  {
    "pincode": "110043",
    "officename": "Dindarpur B.O",
    "officeType": "B.O",
    "Deliverystatus": "Non-Delivery",
    "divisionname": "New Delhi West",
    "regionname": "Delhi",
    "circlename": "Delhi",
    "Taluk": "New Delhi",
    "Districtname": "South West Delhi",
    "statename": "DELHI"
  },
  {
    "pincode": "110043",
    "officename": "Jhatikara B.O",
    "officeType": "B.O",
    "Deliverystatus": "Delivery",
    "divisionname": "New Delhi West",
    "regionname": "Delhi",
    "circlename": "Delhi",
    "Taluk": "New Delhi",
    "Districtname": "South West Delhi",
    "statename": "DELHI"
  },
  {
    "pincode": "110043",
    "officename": "Mitraon B.O",
    "officeType": "B.O",
    "Deliverystatus": "Delivery",
    "divisionname": "New Delhi West",
    "regionname": "Delhi",
    "circlename": "Delhi",
    "Taluk": "New Delhi",
    "Districtname": "South West Delhi",
    "statename": "DELHI"
  },
  {
    "pincode": "110043",
    "officename": "Najafgarh S.O",
    "officeType": "S.O",
    "Deliverystatus": "Delivery",
    "divisionname": "New Delhi West",
    "regionname": "Delhi",
    "circlename": "Delhi",
    "Taluk": "New Delhi",
    "Districtname": "South West Delhi",
    "statename": "DELHI"
  },
  {
    "pincode": "110043",
    "officename": "Pandwala Kalan B.O",
    "officeType": "B.O",
    "Deliverystatus": "Delivery",
    "divisionname": "New Delhi West",
    "regionname": "Delhi",
    "circlename": "Delhi",
    "Taluk": "New Delhi",
    "Districtname": "South West Delhi",
    "statename": "DELHI"
  },
  {
    "pincode": "110043",
    "officename": "Papravat B.O",
    "officeType": "B.O",
    "Deliverystatus": "Non-Delivery",
    "divisionname": "New Delhi West",
    "regionname": "Delhi",
    "circlename": "Delhi",
    "Taluk": "New Delhi",
    "Districtname": "South West Delhi",
    "statename": "DELHI"
  },
  {
    "pincode": "110043",
    "officename": "Rewla Khanpur B.O",
    "officeType": "B.O",
    "Deliverystatus": "Non-Delivery",
    "divisionname": "New Delhi West",
    "regionname": "Delhi",
    "circlename": "Delhi",
    "Taluk": "New Delhi",
    "Districtname": "South West Delhi",
    "statename": "DELHI"
  },
  {
    "pincode": "110043",
    "officename": "Surehra B.O",
    "officeType": "B.O",
    "Deliverystatus": "Non-Delivery",
    "divisionname": "New Delhi West",
    "regionname": "Delhi",
    "circlename": "Delhi",
    "Taluk": "New Delhi",
    "Districtname": "South West Delhi",
    "statename": "DELHI"
  },
  {
    "pincode": "110043",
    "officename": "Tilangpur Kotla B.O",
    "officeType": "B.O",
    "Deliverystatus": "Delivery",
    "divisionname": "New Delhi West",
    "regionname": "Delhi",
    "circlename": "Delhi",
    "Taluk": "New Delhi",
    "Districtname": "South West Delhi",
    "statename": "DELHI"
  }
]
