[
  {
    "pincode": "121106",
    "officename": "Ali Meo B.O",
    "officeType": "B.O",
    "Deliverystatus": "Delivery",
    "divisionname": "Faridabad",
    "regionname": "Ambala  HQ",
    "circlename": "Haryana",
    "Taluk": "Hodal",
    "Districtname": "Faridabad",
    "statename": "HARYANA"
  },
  {
    "pincode": "121106",
    "officename": "Andhop B.O",
    "officeType": "B.O",
    "Deliverystatus": "Delivery",
    "divisionname": "Faridabad",
    "regionname": "Ambala  HQ",
    "circlename": "Haryana",
    "Taluk": "Hodal",
    "Districtname": "Faridabad",
    "statename": "HARYANA"
  },
  {
    "pincode": "121106",
    "officename": "Banchari B.O",
    "officeType": "B.O",
    "Deliverystatus": "Delivery",
    "divisionname": "Faridabad",
    "regionname": "Ambala  HQ",
    "circlename": "Haryana",
    "Taluk": "Hodal",
    "Districtname": "Faridabad",
    "statename": "HARYANA"
  },
  {
    "pincode": "121106",
    "officename": "Gorota B.O",
    "officeType": "B.O",
    "Deliverystatus": "Delivery",
    "divisionname": "Faridabad",
    "regionname": "Ambala  HQ",
    "circlename": "Haryana",
    "Taluk": "Hodal",
    "Districtname": "Faridabad",
    "statename": "HARYANA"
  },
  {
    "pincode": "121106",
    "officename": "Hodal S.O",
    "officeType": "S.O",
    "Deliverystatus": "Delivery",
    "divisionname": "Faridabad",
    "regionname": "Ambala  HQ",
    "circlename": "Haryana",
    "Taluk": "Hodal",
    "Districtname": "Faridabad",
    "statename": "HARYANA"
  },
  {
    "pincode": "121106",
    "officename": "Khaika B.O",
    "officeType": "B.O",
    "Deliverystatus": "Delivery",
    "divisionname": "Faridabad",
    "regionname": "Ambala  HQ",
    "circlename": "Haryana",
    "Taluk": "Hodal",
    "Districtname": "Faridabad",
    "statename": "HARYANA"
  },
  {
    "pincode": "121106",
    "officename": "Khambi B.O",
    "officeType": "B.O",
    "Deliverystatus": "Delivery",
    "divisionname": "Faridabad",
    "regionname": "Ambala  HQ",
    "circlename": "Haryana",
    "Taluk": "Hodal",
    "Districtname": "Faridabad",
    "statename": "HARYANA"
  },
  {
    "pincode": "121106",
    "officename": "Lohina B.O",
    "officeType": "B.O",
    "Deliverystatus": "Delivery",
    "divisionname": "Faridabad",
    "regionname": "Ambala  HQ",
    "circlename": "Haryana",
    "Taluk": "Hodal",
    "Districtname": "Faridabad",
    "statename": "HARYANA"
  },
  {
    "pincode": "121106",
    "officename": "Marraoli B.O",
    "officeType": "B.O",
    "Deliverystatus": "Delivery",
    "divisionname": "Faridabad",
    "regionname": "Ambala  HQ",
    "circlename": "Haryana",
    "Taluk": "Hodal",
    "Districtname": "Faridabad",
    "statename": "HARYANA"
  },
  {
    "pincode": "121106",
    "officename": "Sondh B.O",
    "officeType": "B.O",
    "Deliverystatus": "Delivery",
    "divisionname": "Faridabad",
    "regionname": "Ambala  HQ",
    "circlename": "Haryana",
    "Taluk": "Hodal",
    "Districtname": "Faridabad",
    "statename": "HARYANA"
  }
]
