[
  {
    "pincode": "122001",
    "officename": "Arjun Nagar S.O",
    "officeType": "S.O",
    "Deliverystatus": "Non-Delivery",
    "divisionname": "Gurgaon",
    "regionname": "Ambala  HQ",
    "circlename": "Haryana",
    "Taluk": "Arjun Nagar",
    "Districtname": "Gurgaon",
    "statename": "HARYANA"
  },
  {
    "pincode": "122001",
    "officename": "Basai Road S.O",
    "officeType": "S.O",
    "Deliverystatus": "Non-Delivery",
    "divisionname": "Gurgaon",
    "regionname": "Ambala  HQ",
    "circlename": "Haryana",
    "Taluk": "Basai Road",
    "Districtname": "Gurgaon",
    "statename": "HARYANA"
  },
  {
    "pincode": "122001",
    "officename": "Gurgaon H.O",
    "officeType": "H.O",
    "Deliverystatus": "Delivery",
    "divisionname": "Gurgaon",
    "regionname": "Ambala  HQ",
    "circlename": "Haryana",
    "Taluk": "Sadar Bazar",
    "Districtname": "Gurgaon",
    "statename": "HARYANA"
  },
  {
    "pincode": "122001",
    "officename": "Gurgaon Kty. S.O",
    "officeType": "S.O",
    "Deliverystatus": "Non-Delivery",
    "divisionname": "Gurgaon",
    "regionname": "Ambala  HQ",
    "circlename": "Haryana",
    "Taluk": "Gurgaon Kty.",
    "Districtname": "Gurgaon",
    "statename": "HARYANA"
  },
  {
    "pincode": "122001",
    "officename": "Gurgaon Sector 17 S.O",
    "officeType": "S.O",
    "Deliverystatus": "Non-Delivery",
    "divisionname": "Gurgaon",
    "regionname": "Ambala  HQ",
    "circlename": "Haryana",
    "Taluk": "Sector-17",
    "Districtname": "Gurgaon",
    "statename": "HARYANA"
  },
  {
    "pincode": "122001",
    "officename": "Gurgaon South City I S.O",
    "officeType": "S.O",
    "Deliverystatus": "Non-Delivery",
    "divisionname": "Gurgaon",
    "regionname": "Ambala  HQ",
    "circlename": "Haryana",
    "Taluk": "",
    "Districtname": "Gurgaon",
    "statename": "HARYANA"
  },
  {
    "pincode": "122001",
    "officename": "Khandsa Road S.O",
    "officeType": "S.O",
    "Deliverystatus": "Non-Delivery",
    "divisionname": "Gurgaon",
    "regionname": "Ambala  HQ",
    "circlename": "Haryana",
    "Taluk": "Gurgaon",
    "Districtname": "Gurgaon",
    "statename": "HARYANA"
  },
  {
    "pincode": "122001",
    "officename": "Mini Sectt. S.O",
    "officeType": "S.O",
    "Deliverystatus": "Non-Delivery",
    "divisionname": "Gurgaon",
    "regionname": "Ambala  HQ",
    "circlename": "Haryana",
    "Taluk": "Mini Sectt.",
    "Districtname": "Gurgaon",
    "statename": "HARYANA"
  },
  {
    "pincode": "122001",
    "officename": "New Colony S.O (Gurgaon)",
    "officeType": "S.O",
    "Deliverystatus": "Non-Delivery",
    "divisionname": "Gurgaon",
    "regionname": "Ambala  HQ",
    "circlename": "Haryana",
    "Taluk": "New Colony",
    "Districtname": "Gurgaon",
    "statename": "HARYANA"
  },
  {
    "pincode": "122001",
    "officename": "Shivaji Nagar S.O (Gurgaon)",
    "officeType": "S.O",
    "Deliverystatus": "Non-Delivery",
    "divisionname": "Gurgaon",
    "regionname": "Ambala  HQ",
    "circlename": "Haryana",
    "Taluk": "Shivaji Nagar",
    "Districtname": "Gurgaon",
    "statename": "HARYANA"
  },
  {
    "pincode": "122001",
    "officename": "Sohna Adda S.O",
    "officeType": "S.O",
    "Deliverystatus": "Non-Delivery",
    "divisionname": "Gurgaon",
    "regionname": "Ambala  HQ",
    "circlename": "Haryana",
    "Taluk": "Sohna Adda",
    "Districtname": "Gurgaon",
    "statename": "HARYANA"
  },
  {
    "pincode": "122001",
    "officename": "Urban Estate S.O (Gurgaon)",
    "officeType": "S.O",
    "Deliverystatus": "Non-Delivery",
    "divisionname": "Gurgaon",
    "regionname": "Ambala  HQ",
    "circlename": "Haryana",
    "Taluk": "Urban Estate",
    "Districtname": "Gurgaon",
    "statename": "HARYANA"
  }
]
