[
  {
    "pincode": "122103",
    "officename": "Bhirauti B.O",
    "officeType": "B.O",
    "Deliverystatus": "Delivery",
    "divisionname": "Gurgaon",
    "regionname": "Ambala  HQ",
    "circlename": "Haryana",
    "Taluk": "",
    "Districtname": "Gurgaon",
    "statename": "HARYANA"
  },
  {
    "pincode": "122103",
    "officename": "Chapera B.O",
    "officeType": "B.O",
    "Deliverystatus": "Delivery",
    "divisionname": "Gurgaon",
    "regionname": "Ambala  HQ",
    "circlename": "Haryana",
    "Taluk": "",
    "Districtname": "Gurgaon",
    "statename": "HARYANA"
  },
  {
    "pincode": "122103",
    "officename": "Daulah B.O",
    "officeType": "B.O",
    "Deliverystatus": "Delivery",
    "divisionname": "Gurgaon",
    "regionname": "Ambala  HQ",
    "circlename": "Haryana",
    "Taluk": "",
    "Districtname": "Gurgaon",
    "statename": "HARYANA"
  },
  {
    "pincode": "122103",
    "officename": "Ghasera B.O",
    "officeType": "B.O",
    "Deliverystatus": "Delivery",
    "divisionname": "Gurgaon",
    "regionname": "Ambala  HQ",
    "circlename": "Haryana",
    "Taluk": "",
    "Districtname": "Gurgaon",
    "statename": "HARYANA"
  },
  {
    "pincode": "122103",
    "officename": "Ghungola B.O",
    "officeType": "B.O",
    "Deliverystatus": "Delivery",
    "divisionname": "Gurgaon",
    "regionname": "Ambala  HQ",
    "circlename": "Haryana",
    "Taluk": "",
    "Districtname": "Gurgaon",
    "statename": "HARYANA"
  },
  {
    "pincode": "122103",
    "officename": "Indir Mewat B.O",
    "officeType": "B.O",
    "Deliverystatus": "Delivery",
    "divisionname": "Gurgaon",
    "regionname": "Ambala  HQ",
    "circlename": "Haryana",
    "Taluk": "",
    "Districtname": "Gurgaon",
    "statename": "HARYANA"
  },
  {
    "pincode": "122103",
    "officename": "KherliLala B.O",
    "officeType": "B.O",
    "Deliverystatus": "Delivery",
    "divisionname": "Gurgaon",
    "regionname": "Ambala  HQ",
    "circlename": "Haryana",
    "Taluk": "Sohna",
    "Districtname": "Gurgaon",
    "statename": "HARYANA"
  },
  {
    "pincode": "122103",
    "officename": "Kiranj B.O",
    "officeType": "B.O",
    "Deliverystatus": "Delivery",
    "divisionname": "Gurgaon",
    "regionname": "Ambala  HQ",
    "circlename": "Haryana",
    "Taluk": "",
    "Districtname": "Gurgaon",
    "statename": "HARYANA"
  },
  {
    "pincode": "122103",
    "officename": "Rewasan B.O",
    "officeType": "B.O",
    "Deliverystatus": "Delivery",
    "divisionname": "Gurgaon",
    "regionname": "Ambala  HQ",
    "circlename": "Haryana",
    "Taluk": "",
    "Districtname": "Gurgaon",
    "statename": "HARYANA"
  },
  {
    "pincode": "122103",
    "officename": "Rojka Meo B.O",
    "officeType": "B.O",
    "Deliverystatus": "Delivery",
    "divisionname": "Gurgaon",
    "regionname": "Ambala  HQ",
    "circlename": "Haryana",
    "Taluk": "",
    "Districtname": "Gurgaon",
    "statename": "HARYANA"
  },
  {
    "pincode": "122103",
    "officename": "Sohna S.O",
    "officeType": "S.O",
    "Deliverystatus": "Delivery",
    "divisionname": "Gurgaon",
    "regionname": "Ambala  HQ",
    "circlename": "Haryana",
    "Taluk": "Sohna",
    "Districtname": "Gurgaon",
    "statename": "HARYANA"
  }
]
