[
  {
    "pincode": "122107",
    "officename": "Akhera B.O",
    "officeType": "B.O",
    "Deliverystatus": "Delivery",
    "divisionname": "Gurgaon",
    "regionname": "Ambala  HQ",
    "circlename": "Haryana",
    "Taluk": "",
    "Districtname": "Gurgaon",
    "statename": "HARYANA"
  },
  {
    "pincode": "122107",
    "officename": "Ferozepur Namak B.O",
    "officeType": "B.O",
    "Deliverystatus": "Delivery",
    "divisionname": "Gurgaon",
    "regionname": "Ambala  HQ",
    "circlename": "Haryana",
    "Taluk": "",
    "Districtname": "Gurgaon",
    "statename": "HARYANA"
  },
  {
    "pincode": "122107",
    "officename": "Kurthala B.O",
    "officeType": "B.O",
    "Deliverystatus": "Delivery",
    "divisionname": "Gurgaon",
    "regionname": "Ambala  HQ",
    "circlename": "Haryana",
    "Taluk": "",
    "Districtname": "Gurgaon",
    "statename": "HARYANA"
  },
  {
    "pincode": "122107",
    "officename": "Malab B.O",
    "officeType": "B.O",
    "Deliverystatus": "Delivery",
    "divisionname": "Gurgaon",
    "regionname": "Ambala  HQ",
    "circlename": "Haryana",
    "Taluk": "",
    "Districtname": "Gurgaon",
    "statename": "HARYANA"
  },
  {
    "pincode": "122107",
    "officename": "Nuh S.O",
    "officeType": "S.O",
    "Deliverystatus": "Delivery",
    "divisionname": "Gurgaon",
    "regionname": "Ambala  HQ",
    "circlename": "Haryana",
    "Taluk": "Nuh",
    "Districtname": "Gurgaon",
    "statename": "HARYANA"
  },
  {
    "pincode": "122107",
    "officename": "Sudaka B.O",
    "officeType": "B.O",
    "Deliverystatus": "Delivery",
    "divisionname": "Gurgaon",
    "regionname": "Ambala  HQ",
    "circlename": "Haryana",
    "Taluk": "",
    "Districtname": "Gurgaon",
    "statename": "HARYANA"
  },
  {
    "pincode": "122107",
    "officename": "Tain B.O",
    "officeType": "B.O",
    "Deliverystatus": "Delivery",
    "divisionname": "Gurgaon",
    "regionname": "Ambala  HQ",
    "circlename": "Haryana",
    "Taluk": "",
    "Districtname": "Gurgaon",
    "statename": "HARYANA"
  },
  {
    "pincode": "122107",
    "officename": "Tapkan B.O",
    "officeType": "B.O",
    "Deliverystatus": "Delivery",
    "divisionname": "Gurgaon",
    "regionname": "Ambala  HQ",
    "circlename": "Haryana",
    "Taluk": "",
    "Districtname": "Gurgaon",
    "statename": "HARYANA"
  },
  {
    "pincode": "122107",
    "officename": "Ujina B.O",
    "officeType": "B.O",
    "Deliverystatus": "Delivery",
    "divisionname": "Gurgaon",
    "regionname": "Ambala  HQ",
    "circlename": "Haryana",
    "Taluk": "",
    "Districtname": "Gurgaon",
    "statename": "HARYANA"
  }
]
