[
  {
    "pincode": "122502",
    "officename": "Cheelarh B.O",
    "officeType": "B.O",
    "Deliverystatus": "Delivery",
    "divisionname": "Gurgaon",
    "regionname": "Ambala  HQ",
    "circlename": "Haryana",
    "Taluk": "",
    "Districtname": "Gurgaon",
    "statename": "HARYANA"
  },
  {
    "pincode": "122502",
    "officename": "Jagat B.O",
    "officeType": "B.O",
    "Deliverystatus": "Delivery",
    "divisionname": "Gurgaon",
    "regionname": "Ambala  HQ",
    "circlename": "Haryana",
    "Taluk": "",
    "Districtname": "Gurgaon",
    "statename": "HARYANA"
  },
  {
    "pincode": "122502",
    "officename": "Jaitpur B.O",
    "officeType": "B.O",
    "Deliverystatus": "Delivery",
    "divisionname": "Gurgaon",
    "regionname": "Ambala  HQ",
    "circlename": "Haryana",
    "Taluk": "",
    "Districtname": "Gurgaon",
    "statename": "HARYANA"
  },
  {
    "pincode": "122502",
    "officename": "Jant B.O",
    "officeType": "B.O",
    "Deliverystatus": "Delivery",
    "divisionname": "Gurgaon",
    "regionname": "Ambala  HQ",
    "circlename": "Haryana",
    "Taluk": "",
    "Districtname": "Gurgaon",
    "statename": "HARYANA"
  },
  {
    "pincode": "122502",
    "officename": "Kakoria B.O",
    "officeType": "B.O",
    "Deliverystatus": "Delivery",
    "divisionname": "Gurgaon",
    "regionname": "Ambala  HQ",
    "circlename": "Haryana",
    "Taluk": "",
    "Districtname": "Gurgaon",
    "statename": "HARYANA"
  },
  {
    "pincode": "122502",
    "officename": "Khalilpur S.O",
    "officeType": "S.O",
    "Deliverystatus": "Delivery",
    "divisionname": "Gurgaon",
    "regionname": "Ambala  HQ",
    "circlename": "Haryana",
    "Taluk": "Khalilpur",
    "Districtname": "Gurgaon",
    "statename": "HARYANA"
  },
  {
    "pincode": "122502",
    "officename": "Mirpur B.O",
    "officeType": "B.O",
    "Deliverystatus": "Delivery",
    "divisionname": "Gurgaon",
    "regionname": "Ambala  HQ",
    "circlename": "Haryana",
    "Taluk": "",
    "Districtname": "Gurgaon",
    "statename": "HARYANA"
  },
  {
    "pincode": "122502",
    "officename": "Pahari B.O",
    "officeType": "B.O",
    "Deliverystatus": "Delivery",
    "divisionname": "Gurgaon",
    "regionname": "Ambala  HQ",
    "circlename": "Haryana",
    "Taluk": "",
    "Districtname": "Gurgaon",
    "statename": "HARYANA"
  },
  {
    "pincode": "122502",
    "officename": "Ramgarh B.O",
    "officeType": "B.O",
    "Deliverystatus": "Delivery",
    "divisionname": "Gurgaon",
    "regionname": "Ambala  HQ",
    "circlename": "Haryana",
    "Taluk": "",
    "Districtname": "Gurgaon",
    "statename": "HARYANA"
  },
  {
    "pincode": "122502",
    "officename": "Sherpur B.O",
    "officeType": "B.O",
    "Deliverystatus": "Delivery",
    "divisionname": "Gurgaon",
    "regionname": "Ambala  HQ",
    "circlename": "Haryana",
    "Taluk": "",
    "Districtname": "Gurgaon",
    "statename": "HARYANA"
  },
  {
    "pincode": "122502",
    "officename": "Tatarpur B.O",
    "officeType": "B.O",
    "Deliverystatus": "Delivery",
    "divisionname": "Gurgaon",
    "regionname": "Ambala  HQ",
    "circlename": "Haryana",
    "Taluk": "",
    "Districtname": "Gurgaon",
    "statename": "HARYANA"
  },
  {
    "pincode": "122502",
    "officename": "Turkiawas B.O",
    "officeType": "B.O",
    "Deliverystatus": "Delivery",
    "divisionname": "Gurgaon",
    "regionname": "Ambala  HQ",
    "circlename": "Haryana",
    "Taluk": "",
    "Districtname": "Gurgaon",
    "statename": "HARYANA"
  }
]
