[
  {
    "pincode": "123034",
    "officename": "Bawania S.O",
    "officeType": "S.O",
    "Deliverystatus": "Delivery",
    "divisionname": "Gurgaon",
    "regionname": "Ambala  HQ",
    "circlename": "Haryana",
    "Taluk": "Bawania",
    "Districtname": "Mahendragarh",
    "statename": "HARYANA"
  },
  {
    "pincode": "123034",
    "officename": "Bhojawas B.O",
    "officeType": "B.O",
    "Deliverystatus": "Delivery",
    "divisionname": "Gurgaon",
    "regionname": "Ambala  HQ",
    "circlename": "Haryana",
    "Taluk": "Bhojawas",
    "Districtname": "Rewari",
    "statename": "HARYANA"
  },
  {
    "pincode": "123034",
    "officename": "Bhucholi B.O",
    "officeType": "B.O",
    "Deliverystatus": "Delivery",
    "divisionname": "Gurgaon",
    "regionname": "Ambala  HQ",
    "circlename": "Haryana",
    "Taluk": "Mahendergarh",
    "Districtname": "Mahendragarh",
    "statename": "HARYANA"
  },
  {
    "pincode": "123034",
    "officename": "Dewas B.O",
    "officeType": "B.O",
    "Deliverystatus": "Delivery",
    "divisionname": "Gurgaon",
    "regionname": "Ambala  HQ",
    "circlename": "Haryana",
    "Taluk": "Dewas",
    "Districtname": "Rewari",
    "statename": "HARYANA"
  },
  {
    "pincode": "123034",
    "officename": "Dhana B.O",
    "officeType": "B.O",
    "Deliverystatus": "Delivery",
    "divisionname": "Gurgaon",
    "regionname": "Ambala  HQ",
    "circlename": "Haryana",
    "Taluk": "Dhana",
    "Districtname": "Rewari",
    "statename": "HARYANA"
  },
  {
    "pincode": "123034",
    "officename": "Jhagroli B.O",
    "officeType": "B.O",
    "Deliverystatus": "Delivery",
    "divisionname": "Gurgaon",
    "regionname": "Ambala  HQ",
    "circlename": "Haryana",
    "Taluk": "Jhagroli",
    "Districtname": "Rewari",
    "statename": "HARYANA"
  },
  {
    "pincode": "123034",
    "officename": "Pathera B.O",
    "officeType": "B.O",
    "Deliverystatus": "Delivery",
    "divisionname": "Gurgaon",
    "regionname": "Ambala  HQ",
    "circlename": "Haryana",
    "Taluk": "Pathera",
    "Districtname": "Rewari",
    "statename": "HARYANA"
  },
  {
    "pincode": "123034",
    "officename": "Sundrah B.O",
    "officeType": "B.O",
    "Deliverystatus": "Delivery",
    "divisionname": "Gurgaon",
    "regionname": "Ambala  HQ",
    "circlename": "Haryana",
    "Taluk": "Sundrah",
    "Districtname": "Rewari",
    "statename": "HARYANA"
  }
]
