[
  {
    "pincode": "123001",
    "officename": "Azamabad Mukhota B.O",
    "officeType": "B.O",
    "Deliverystatus": "Delivery",
    "divisionname": "Gurgaon",
    "regionname": "Ambala  HQ",
    "circlename": "Haryana",
    "Taluk": "Azamabad Mukhota",
    "Districtname": "Mahendragarh",
    "statename": "HARYANA"
  },
  {
    "pincode": "123001",
    "officename": "Barkoda B.O",
    "officeType": "B.O",
    "Deliverystatus": "Delivery",
    "divisionname": "Gurgaon",
    "regionname": "Ambala  HQ",
    "circlename": "Haryana",
    "Taluk": "Barkoda",
    "Districtname": "Mahendragarh",
    "statename": "HARYANA"
  },
  {
    "pincode": "123001",
    "officename": "Bashirpur B.O",
    "officeType": "B.O",
    "Deliverystatus": "Delivery",
    "divisionname": "Gurgaon",
    "regionname": "Ambala  HQ",
    "circlename": "Haryana",
    "Taluk": "Bashirpur",
    "Districtname": "Mahendragarh",
    "statename": "HARYANA"
  },
  {
    "pincode": "123001",
    "officename": "Bhushan Kalan B.O",
    "officeType": "B.O",
    "Deliverystatus": "Delivery",
    "divisionname": "Gurgaon",
    "regionname": "Ambala  HQ",
    "circlename": "Haryana",
    "Taluk": "Bhushan Kalan",
    "Districtname": "Mahendragarh",
    "statename": "HARYANA"
  },
  {
    "pincode": "123001",
    "officename": "Chillro B.O",
    "officeType": "B.O",
    "Deliverystatus": "Delivery",
    "divisionname": "Gurgaon",
    "regionname": "Ambala  HQ",
    "circlename": "Haryana",
    "Taluk": "Chillro",
    "Districtname": "Mahendragarh",
    "statename": "HARYANA"
  },
  {
    "pincode": "123001",
    "officename": "Dhanota B.O",
    "officeType": "B.O",
    "Deliverystatus": "Delivery",
    "divisionname": "Gurgaon",
    "regionname": "Ambala  HQ",
    "circlename": "Haryana",
    "Taluk": "Dhanota",
    "Districtname": "Mahendragarh",
    "statename": "HARYANA"
  },
  {
    "pincode": "123001",
    "officename": "Dharson B.O",
    "officeType": "B.O",
    "Deliverystatus": "Delivery",
    "divisionname": "Gurgaon",
    "regionname": "Ambala  HQ",
    "circlename": "Haryana",
    "Taluk": "Dharson",
    "Districtname": "Mahendragarh",
    "statename": "HARYANA"
  },
  {
    "pincode": "123001",
    "officename": "Dhor Kalan B.O",
    "officeType": "B.O",
    "Deliverystatus": "Delivery",
    "divisionname": "Gurgaon",
    "regionname": "Ambala  HQ",
    "circlename": "Haryana",
    "Taluk": "Dhor Kalan",
    "Districtname": "Mahendragarh",
    "statename": "HARYANA"
  },
  {
    "pincode": "123001",
    "officename": "Dochana B.O",
    "officeType": "B.O",
    "Deliverystatus": "Delivery",
    "divisionname": "Gurgaon",
    "regionname": "Ambala  HQ",
    "circlename": "Haryana",
    "Taluk": "Dochana",
    "Districtname": "Mahendragarh",
    "statename": "HARYANA"
  },
  {
    "pincode": "123001",
    "officename": "Dublana B.O",
    "officeType": "B.O",
    "Deliverystatus": "Delivery",
    "divisionname": "Gurgaon",
    "regionname": "Ambala  HQ",
    "circlename": "Haryana",
    "Taluk": "Narnaul",
    "Districtname": "Mahendragarh",
    "statename": "HARYANA"
  },
  {
    "pincode": "123001",
    "officename": "Hamidpur B.O",
    "officeType": "B.O",
    "Deliverystatus": "Delivery",
    "divisionname": "Gurgaon",
    "regionname": "Ambala  HQ",
    "circlename": "Haryana",
    "Taluk": "Hamidpur",
    "Districtname": "Mahendragarh",
    "statename": "HARYANA"
  },
  {
    "pincode": "123001",
    "officename": "Hudina B.O",
    "officeType": "B.O",
    "Deliverystatus": "Delivery",
    "divisionname": "Gurgaon",
    "regionname": "Ambala  HQ",
    "circlename": "Haryana",
    "Taluk": "Hudina",
    "Districtname": "Mahendragarh",
    "statename": "HARYANA"
  },
  {
    "pincode": "123001",
    "officename": "Kamania B.O",
    "officeType": "B.O",
    "Deliverystatus": "Delivery",
    "divisionname": "Gurgaon",
    "regionname": "Ambala  HQ",
    "circlename": "Haryana",
    "Taluk": "Kamania",
    "Districtname": "Mahendragarh",
    "statename": "HARYANA"
  },
  {
    "pincode": "123001",
    "officename": "Kanwi B.O",
    "officeType": "B.O",
    "Deliverystatus": "Delivery",
    "divisionname": "Gurgaon",
    "regionname": "Ambala  HQ",
    "circlename": "Haryana",
    "Taluk": "Kanwi",
    "Districtname": "Mahendragarh",
    "statename": "HARYANA"
  },
  {
    "pincode": "123001",
    "officename": "Karota B.O",
    "officeType": "B.O",
    "Deliverystatus": "Delivery",
    "divisionname": "Gurgaon",
    "regionname": "Ambala  HQ",
    "circlename": "Haryana",
    "Taluk": "Karota",
    "Districtname": "Mahendragarh",
    "statename": "HARYANA"
  },
  {
    "pincode": "123001",
    "officename": "Koriawas B.O",
    "officeType": "B.O",
    "Deliverystatus": "Delivery",
    "divisionname": "Gurgaon",
    "regionname": "Ambala  HQ",
    "circlename": "Haryana",
    "Taluk": "Koriawas",
    "Districtname": "Mahendragarh",
    "statename": "HARYANA"
  },
  {
    "pincode": "123001",
    "officename": "Krishan Nagar B.O",
    "officeType": "B.O",
    "Deliverystatus": "Delivery",
    "divisionname": "Gurgaon",
    "regionname": "Ambala  HQ",
    "circlename": "Haryana",
    "Taluk": "Krishan Nagar",
    "Districtname": "Mahendragarh",
    "statename": "HARYANA"
  },
  {
    "pincode": "123001",
    "officename": "Kultazpur B.O",
    "officeType": "B.O",
    "Deliverystatus": "Delivery",
    "divisionname": "Gurgaon",
    "regionname": "Ambala  HQ",
    "circlename": "Haryana",
    "Taluk": "Kultazpur",
    "Districtname": "Mahendragarh",
    "statename": "HARYANA"
  },
  {
    "pincode": "123001",
    "officename": "Madhana Kalan B.O",
    "officeType": "B.O",
    "Deliverystatus": "Delivery",
    "divisionname": "Gurgaon",
    "regionname": "Ambala  HQ",
    "circlename": "Haryana",
    "Taluk": "Madhana Kalan",
    "Districtname": "Mahendragarh",
    "statename": "HARYANA"
  },
  {
    "pincode": "123001",
    "officename": "Mandi B.O",
    "officeType": "B.O",
    "Deliverystatus": "Delivery",
    "divisionname": "Gurgaon",
    "regionname": "Ambala  HQ",
    "circlename": "Haryana",
    "Taluk": "Mandi",
    "Districtname": "Mahendragarh",
    "statename": "HARYANA"
  },
  {
    "pincode": "123001",
    "officename": "Mini Sectt.Narnaul S.O",
    "officeType": "S.O",
    "Deliverystatus": "Non-Delivery",
    "divisionname": "Gurgaon",
    "regionname": "Ambala  HQ",
    "circlename": "Haryana",
    "Taluk": "Narnaul",
    "Districtname": "Mahendragarh",
    "statename": "HARYANA"
  },
  {
    "pincode": "123001",
    "officename": "Nangal Katha B.O",
    "officeType": "B.O",
    "Deliverystatus": "Delivery",
    "divisionname": "Gurgaon",
    "regionname": "Ambala  HQ",
    "circlename": "Haryana",
    "Taluk": "Nagal Katha",
    "Districtname": "Mahendragarh",
    "statename": "HARYANA"
  },
  {
    "pincode": "123001",
    "officename": "Narnaul City S.O",
    "officeType": "S.O",
    "Deliverystatus": "Non-Delivery",
    "divisionname": "Gurgaon",
    "regionname": "Ambala  HQ",
    "circlename": "Haryana",
    "Taluk": "Narnaul",
    "Districtname": "Mahendragarh",
    "statename": "HARYANA"
  },
  {
    "pincode": "123001",
    "officename": "Narnaul H.O",
    "officeType": "H.O",
    "Deliverystatus": "Delivery",
    "divisionname": "Gurgaon",
    "regionname": "Ambala  HQ",
    "circlename": "Haryana",
    "Taluk": "Civil Line",
    "Districtname": "Mahendragarh",
    "statename": "HARYANA"
  },
  {
    "pincode": "123001",
    "officename": "Narnaul Kty. S.O",
    "officeType": "S.O",
    "Deliverystatus": "Non-Delivery",
    "divisionname": "Gurgaon",
    "regionname": "Ambala  HQ",
    "circlename": "Haryana",
    "Taluk": "Narnaul",
    "Districtname": "Mahendragarh",
    "statename": "HARYANA"
  },
  {
    "pincode": "123001",
    "officename": "Neerpur B.O",
    "officeType": "B.O",
    "Deliverystatus": "Delivery",
    "divisionname": "Gurgaon",
    "regionname": "Ambala  HQ",
    "circlename": "Haryana",
    "Taluk": "Neerpur",
    "Districtname": "Mahendragarh",
    "statename": "HARYANA"
  },
  {
    "pincode": "123001",
    "officename": "Nizampur R.S. B.O",
    "officeType": "B.O",
    "Deliverystatus": "Non-Delivery",
    "divisionname": "Gurgaon",
    "regionname": "Ambala  HQ",
    "circlename": "Haryana",
    "Taluk": "Nizampur R.s.",
    "Districtname": "Mahendragarh",
    "statename": "HARYANA"
  }
]
