[
  {
    "pincode": "123027",
    "officename": "Baghot B.O",
    "officeType": "B.O",
    "Deliverystatus": "Non-Delivery",
    "divisionname": "Gurgaon",
    "regionname": "Ambala  HQ",
    "circlename": "Haryana",
    "Taluk": "Baghot",
    "Districtname": "Mahendragarh",
    "statename": "HARYANA"
  },
  {
    "pincode": "123027",
    "officename": "Bharaf B.O",
    "officeType": "B.O",
    "Deliverystatus": "Non-Delivery",
    "divisionname": "Gurgaon",
    "regionname": "Ambala  HQ",
    "circlename": "Haryana",
    "Taluk": "Bharaf",
    "Districtname": "Mahendragarh",
    "statename": "HARYANA"
  },
  {
    "pincode": "123027",
    "officename": "Chitrauli B.O",
    "officeType": "B.O",
    "Deliverystatus": "Delivery",
    "divisionname": "Gurgaon",
    "regionname": "Ambala  HQ",
    "circlename": "Haryana",
    "Taluk": "Chitrauli",
    "Districtname": "Mahendragarh",
    "statename": "HARYANA"
  },
  {
    "pincode": "123027",
    "officename": "Dhanaunda B.O",
    "officeType": "B.O",
    "Deliverystatus": "Delivery",
    "divisionname": "Gurgaon",
    "regionname": "Ambala  HQ",
    "circlename": "Haryana",
    "Taluk": "Dhanaunda",
    "Districtname": "Mahendragarh",
    "statename": "HARYANA"
  },
  {
    "pincode": "123027",
    "officename": "Gurha B.O",
    "officeType": "B.O",
    "Deliverystatus": "Delivery",
    "divisionname": "Gurgaon",
    "regionname": "Ambala  HQ",
    "circlename": "Haryana",
    "Taluk": "Gurha",
    "Districtname": "Mahendragarh",
    "statename": "HARYANA"
  },
  {
    "pincode": "123027",
    "officename": "Kakrola B.O",
    "officeType": "B.O",
    "Deliverystatus": "Non-Delivery",
    "divisionname": "Gurgaon",
    "regionname": "Ambala  HQ",
    "circlename": "Haryana",
    "Taluk": "Kakrola",
    "Districtname": "Mahendragarh",
    "statename": "HARYANA"
  },
  {
    "pincode": "123027",
    "officename": "Kanina Mandi B.O",
    "officeType": "B.O",
    "Deliverystatus": "Non-Delivery",
    "divisionname": "Gurgaon",
    "regionname": "Ambala  HQ",
    "circlename": "Haryana",
    "Taluk": "Kanina Mandi",
    "Districtname": "Mahendragarh",
    "statename": "HARYANA"
  },
  {
    "pincode": "123027",
    "officename": "Kanina S.O",
    "officeType": "S.O",
    "Deliverystatus": "Delivery",
    "divisionname": "Gurgaon",
    "regionname": "Ambala  HQ",
    "circlename": "Haryana",
    "Taluk": "Kanina",
    "Districtname": "Mahendragarh",
    "statename": "HARYANA"
  },
  {
    "pincode": "123027",
    "officename": "Kheri B.O",
    "officeType": "B.O",
    "Deliverystatus": "Delivery",
    "divisionname": "Gurgaon",
    "regionname": "Ambala  HQ",
    "circlename": "Haryana",
    "Taluk": "Kheri",
    "Districtname": "Mahendragarh",
    "statename": "HARYANA"
  },
  {
    "pincode": "123027",
    "officename": "Kotia B.O",
    "officeType": "B.O",
    "Deliverystatus": "Delivery",
    "divisionname": "Gurgaon",
    "regionname": "Ambala  HQ",
    "circlename": "Haryana",
    "Taluk": "Kotia",
    "Districtname": "Mahendragarh",
    "statename": "HARYANA"
  },
  {
    "pincode": "123027",
    "officename": "Nautana B.O",
    "officeType": "B.O",
    "Deliverystatus": "Non-Delivery",
    "divisionname": "Gurgaon",
    "regionname": "Ambala  HQ",
    "circlename": "Haryana",
    "Taluk": "Nautana",
    "Districtname": "Mahendragarh",
    "statename": "HARYANA"
  },
  {
    "pincode": "123027",
    "officename": "Pota B.O",
    "officeType": "B.O",
    "Deliverystatus": "Non-Delivery",
    "divisionname": "Gurgaon",
    "regionname": "Ambala  HQ",
    "circlename": "Haryana",
    "Taluk": "Pota",
    "Districtname": "Mahendragarh",
    "statename": "HARYANA"
  },
  {
    "pincode": "123027",
    "officename": "Rambas B.O",
    "officeType": "B.O",
    "Deliverystatus": "Delivery",
    "divisionname": "Gurgaon",
    "regionname": "Ambala  HQ",
    "circlename": "Haryana",
    "Taluk": "Rambas",
    "Districtname": "Mahendragarh",
    "statename": "HARYANA"
  },
  {
    "pincode": "123027",
    "officename": "Rasoolpur B.O",
    "officeType": "B.O",
    "Deliverystatus": "Delivery",
    "divisionname": "Gurgaon",
    "regionname": "Ambala  HQ",
    "circlename": "Haryana",
    "Taluk": "Rasoolpur",
    "Districtname": "Mahendragarh",
    "statename": "HARYANA"
  },
  {
    "pincode": "123027",
    "officename": "Sehlong B.O",
    "officeType": "B.O",
    "Deliverystatus": "Non-Delivery",
    "divisionname": "Gurgaon",
    "regionname": "Ambala  HQ",
    "circlename": "Haryana",
    "Taluk": "Sehlong",
    "Districtname": "Mahendragarh",
    "statename": "HARYANA"
  },
  {
    "pincode": "123027",
    "officename": "Siana B.O",
    "officeType": "B.O",
    "Deliverystatus": "Non-Delivery",
    "divisionname": "Gurgaon",
    "regionname": "Ambala  HQ",
    "circlename": "Haryana",
    "Taluk": "Siana",
    "Districtname": "Mahendragarh",
    "statename": "HARYANA"
  },
  {
    "pincode": "123027",
    "officename": "Sihore B.O",
    "officeType": "B.O",
    "Deliverystatus": "Delivery",
    "divisionname": "Gurgaon",
    "regionname": "Ambala  HQ",
    "circlename": "Haryana",
    "Taluk": "Sihore",
    "Districtname": "Mahendragarh",
    "statename": "HARYANA"
  }
]
