[
  {
    "pincode": "123106",
    "officename": "Bhatsana B.O",
    "officeType": "B.O",
    "Deliverystatus": "Delivery",
    "divisionname": "Gurgaon",
    "regionname": "Ambala  HQ",
    "circlename": "Haryana",
    "Taluk": "Bhatsana",
    "Districtname": "Rewari",
    "statename": "HARYANA"
  },
  {
    "pincode": "123106",
    "officename": "Dharuhera S.O",
    "officeType": "S.O",
    "Deliverystatus": "Delivery",
    "divisionname": "Gurgaon",
    "regionname": "Ambala  HQ",
    "circlename": "Haryana",
    "Taluk": "Dharuhera",
    "Districtname": "Rewari",
    "statename": "HARYANA"
  },
  {
    "pincode": "123106",
    "officename": "Dunderwas B.O",
    "officeType": "B.O",
    "Deliverystatus": "Delivery",
    "divisionname": "Gurgaon",
    "regionname": "Ambala  HQ",
    "circlename": "Haryana",
    "Taluk": "Dunderwas",
    "Districtname": "Rewari",
    "statename": "HARYANA"
  },
  {
    "pincode": "123106",
    "officename": "Dungerwas B.O",
    "officeType": "B.O",
    "Deliverystatus": "Delivery",
    "divisionname": "Gurgaon",
    "regionname": "Ambala  HQ",
    "circlename": "Haryana",
    "Taluk": "",
    "Districtname": "Gurgaon",
    "statename": "HARYANA"
  },
  {
    "pincode": "123106",
    "officename": "Kharkhara B.O",
    "officeType": "B.O",
    "Deliverystatus": "Non-Delivery",
    "divisionname": "Gurgaon",
    "regionname": "Ambala  HQ",
    "circlename": "Haryana",
    "Taluk": "Kharkhara",
    "Districtname": "Rewari",
    "statename": "HARYANA"
  },
  {
    "pincode": "123106",
    "officename": "Maheshwari B.O",
    "officeType": "B.O",
    "Deliverystatus": "Delivery",
    "divisionname": "Gurgaon",
    "regionname": "Ambala  HQ",
    "circlename": "Haryana",
    "Taluk": "Maheshwari",
    "Districtname": "Rewari",
    "statename": "HARYANA"
  },
  {
    "pincode": "123106",
    "officename": "Masani B.O",
    "officeType": "B.O",
    "Deliverystatus": "Delivery",
    "divisionname": "Gurgaon",
    "regionname": "Ambala  HQ",
    "circlename": "Haryana",
    "Taluk": "Masani",
    "Districtname": "Rewari",
    "statename": "HARYANA"
  },
  {
    "pincode": "123106",
    "officename": "Nand Rampurbass B.O",
    "officeType": "B.O",
    "Deliverystatus": "Delivery",
    "divisionname": "Gurgaon",
    "regionname": "Ambala  HQ",
    "circlename": "Haryana",
    "Taluk": "Nand Rampurbas",
    "Districtname": "Rewari",
    "statename": "HARYANA"
  },
  {
    "pincode": "123106",
    "officename": "Raliawas B.O",
    "officeType": "B.O",
    "Deliverystatus": "Delivery",
    "divisionname": "Gurgaon",
    "regionname": "Ambala  HQ",
    "circlename": "Haryana",
    "Taluk": "Raliawas",
    "Districtname": "Rewari",
    "statename": "HARYANA"
  }
]
