[
  {
    "pincode": "123302",
    "officename": "Bhakli B.O",
    "officeType": "B.O",
    "Deliverystatus": "Delivery",
    "divisionname": "Gurgaon",
    "regionname": "Ambala  HQ",
    "circlename": "Haryana",
    "Taluk": "Bhakli",
    "Districtname": "Rewari",
    "statename": "HARYANA"
  },
  {
    "pincode": "123302",
    "officename": "Burthala B.O",
    "officeType": "B.O",
    "Deliverystatus": "Delivery",
    "divisionname": "Gurgaon",
    "regionname": "Ambala  HQ",
    "circlename": "Haryana",
    "Taluk": "Bhrthala",
    "Districtname": "Rewari",
    "statename": "HARYANA"
  },
  {
    "pincode": "123302",
    "officename": "Gugodh B.O",
    "officeType": "B.O",
    "Deliverystatus": "Delivery",
    "divisionname": "Gurgaon",
    "regionname": "Ambala  HQ",
    "circlename": "Haryana",
    "Taluk": "Gugodh",
    "Districtname": "Rewari",
    "statename": "HARYANA"
  },
  {
    "pincode": "123302",
    "officename": "Jhal B.O",
    "officeType": "B.O",
    "Deliverystatus": "Non-Delivery",
    "divisionname": "Gurgaon",
    "regionname": "Ambala  HQ",
    "circlename": "Haryana",
    "Taluk": "Jhal",
    "Districtname": "Rewari",
    "statename": "HARYANA"
  },
  {
    "pincode": "123302",
    "officename": "Juddi B.O",
    "officeType": "B.O",
    "Deliverystatus": "Non-Delivery",
    "divisionname": "Gurgaon",
    "regionname": "Ambala  HQ",
    "circlename": "Haryana",
    "Taluk": "Juddi",
    "Districtname": "Rewari",
    "statename": "HARYANA"
  },
  {
    "pincode": "123302",
    "officename": "Karnawas B.O",
    "officeType": "B.O",
    "Deliverystatus": "Non-Delivery",
    "divisionname": "Gurgaon",
    "regionname": "Ambala  HQ",
    "circlename": "Haryana",
    "Taluk": "Karnawas",
    "Districtname": "Rewari",
    "statename": "HARYANA"
  },
  {
    "pincode": "123302",
    "officename": "Kosli R S B.O",
    "officeType": "B.O",
    "Deliverystatus": "Non-Delivery",
    "divisionname": "Gurgaon",
    "regionname": "Ambala  HQ",
    "circlename": "Haryana",
    "Taluk": "Kosli R S",
    "Districtname": "Rewari",
    "statename": "HARYANA"
  },
  {
    "pincode": "123302",
    "officename": "Kosli S.O",
    "officeType": "S.O",
    "Deliverystatus": "Delivery",
    "divisionname": "Gurgaon",
    "regionname": "Ambala  HQ",
    "circlename": "Haryana",
    "Taluk": "Kosli",
    "Districtname": "Rewari",
    "statename": "HARYANA"
  },
  {
    "pincode": "123302",
    "officename": "Lula Ahir B.O",
    "officeType": "B.O",
    "Deliverystatus": "Non-Delivery",
    "divisionname": "Gurgaon",
    "regionname": "Ambala  HQ",
    "circlename": "Haryana",
    "Taluk": "Lula Ahir",
    "Districtname": "Rewari",
    "statename": "HARYANA"
  },
  {
    "pincode": "123302",
    "officename": "Sadat Nagar B.O",
    "officeType": "B.O",
    "Deliverystatus": "Non-Delivery",
    "divisionname": "Gurgaon",
    "regionname": "Ambala  HQ",
    "circlename": "Haryana",
    "Taluk": "Sadat Nagar",
    "Districtname": "Rewari",
    "statename": "HARYANA"
  },
  {
    "pincode": "123302",
    "officename": "Shyam Nagar B.O",
    "officeType": "B.O",
    "Deliverystatus": "Non-Delivery",
    "divisionname": "Gurgaon",
    "regionname": "Ambala  HQ",
    "circlename": "Haryana",
    "Taluk": "Shayam Nagar",
    "Districtname": "Rewari",
    "statename": "HARYANA"
  },
  {
    "pincode": "123302",
    "officename": "Surethi B.O",
    "officeType": "B.O",
    "Deliverystatus": "Non-Delivery",
    "divisionname": "Gurgaon",
    "regionname": "Ambala  HQ",
    "circlename": "Haryana",
    "Taluk": "Surethi",
    "Districtname": "Rewari",
    "statename": "HARYANA"
  },
  {
    "pincode": "123302",
    "officename": "Tumna B.O",
    "officeType": "B.O",
    "Deliverystatus": "Non-Delivery",
    "divisionname": "Gurgaon",
    "regionname": "Ambala  HQ",
    "circlename": "Haryana",
    "Taluk": "Tumna",
    "Districtname": "Rewari",
    "statename": "HARYANA"
  }
]
