[
  {
    "pincode": "123401",
    "officename": "B B Ashram B.O",
    "officeType": "B.O",
    "Deliverystatus": "Delivery",
    "divisionname": "Gurgaon",
    "regionname": "Ambala  HQ",
    "circlename": "Haryana",
    "Taluk": "B B Ashram",
    "Districtname": "Rewari",
    "statename": "HARYANA"
  },
  {
    "pincode": "123401",
    "officename": "Bikaner B.O",
    "officeType": "B.O",
    "Deliverystatus": "Delivery",
    "divisionname": "Gurgaon",
    "regionname": "Ambala  HQ",
    "circlename": "Haryana",
    "Taluk": "Bikaner",
    "Districtname": "Rewari",
    "statename": "HARYANA"
  },
  {
    "pincode": "123401",
    "officename": "Bithwana B.O",
    "officeType": "B.O",
    "Deliverystatus": "Delivery",
    "divisionname": "Gurgaon",
    "regionname": "Ambala  HQ",
    "circlename": "Haryana",
    "Taluk": "Bithwana",
    "Districtname": "Rewari",
    "statename": "HARYANA"
  },
  {
    "pincode": "123401",
    "officename": "Boria Kamalpur B.O",
    "officeType": "B.O",
    "Deliverystatus": "Delivery",
    "divisionname": "Gurgaon",
    "regionname": "Ambala  HQ",
    "circlename": "Haryana",
    "Taluk": "Boria Kamalpur",
    "Districtname": "Rewari",
    "statename": "HARYANA"
  },
  {
    "pincode": "123401",
    "officename": "Budhpur B.O",
    "officeType": "B.O",
    "Deliverystatus": "Delivery",
    "divisionname": "Gurgaon",
    "regionname": "Ambala  HQ",
    "circlename": "Haryana",
    "Taluk": "Budhpur",
    "Districtname": "Rewari",
    "statename": "HARYANA"
  },
  {
    "pincode": "123401",
    "officename": "Dehlawas Gulabpur B.O",
    "officeType": "B.O",
    "Deliverystatus": "Delivery",
    "divisionname": "Gurgaon",
    "regionname": "Ambala  HQ",
    "circlename": "Haryana",
    "Taluk": "Dehlawas Gulabpur",
    "Districtname": "Rewari",
    "statename": "HARYANA"
  },
  {
    "pincode": "123401",
    "officename": "Garhi Bolni B.O",
    "officeType": "B.O",
    "Deliverystatus": "Delivery",
    "divisionname": "Gurgaon",
    "regionname": "Ambala  HQ",
    "circlename": "Haryana",
    "Taluk": "Garhi Bolni",
    "Districtname": "Rewari",
    "statename": "HARYANA"
  },
  {
    "pincode": "123401",
    "officename": "Gokal Bazar Rewari S.O",
    "officeType": "S.O",
    "Deliverystatus": "Non-Delivery",
    "divisionname": "Gurgaon",
    "regionname": "Ambala  HQ",
    "circlename": "Haryana",
    "Taluk": "Rewari",
    "Districtname": "Rewari",
    "statename": "HARYANA"
  },
  {
    "pincode": "123401",
    "officename": "Gokalgarh B.O",
    "officeType": "B.O",
    "Deliverystatus": "Non-Delivery",
    "divisionname": "Gurgaon",
    "regionname": "Ambala  HQ",
    "circlename": "Haryana",
    "Taluk": "Gokalgarh",
    "Districtname": "Rewari",
    "statename": "HARYANA"
  },
  {
    "pincode": "123401",
    "officename": "Jatusa R.S. B.O",
    "officeType": "B.O",
    "Deliverystatus": "Delivery",
    "divisionname": "Gurgaon",
    "regionname": "Ambala  HQ",
    "circlename": "Haryana",
    "Taluk": "Jatusana Rs",
    "Districtname": "Rewari",
    "statename": "HARYANA"
  },
  {
    "pincode": "123401",
    "officename": "Kankarwali Rewari S.O",
    "officeType": "S.O",
    "Deliverystatus": "Non-Delivery",
    "divisionname": "Gurgaon",
    "regionname": "Ambala  HQ",
    "circlename": "Haryana",
    "Taluk": "Gurgaon",
    "Districtname": "Gurgaon",
    "statename": "HARYANA"
  },
  {
    "pincode": "123401",
    "officename": "Karnawas B.O",
    "officeType": "B.O",
    "Deliverystatus": "Non-Delivery",
    "divisionname": "Gurgaon",
    "regionname": "Ambala  HQ",
    "circlename": "Haryana",
    "Taluk": "Karnawas",
    "Districtname": "Rewari",
    "statename": "HARYANA"
  },
  {
    "pincode": "123401",
    "officename": "Khandora B.O",
    "officeType": "B.O",
    "Deliverystatus": "Non-Delivery",
    "divisionname": "Gurgaon",
    "regionname": "Ambala  HQ",
    "circlename": "Haryana",
    "Taluk": "Khandora",
    "Districtname": "Rewari",
    "statename": "HARYANA"
  },
  {
    "pincode": "123401",
    "officename": "Majra Gurdas B.O",
    "officeType": "B.O",
    "Deliverystatus": "Delivery",
    "divisionname": "Gurgaon",
    "regionname": "Ambala  HQ",
    "circlename": "Haryana",
    "Taluk": "Majra Gurdas",
    "Districtname": "Rewari",
    "statename": "HARYANA"
  },
  {
    "pincode": "123401",
    "officename": "Majra Sheoraj B.O",
    "officeType": "B.O",
    "Deliverystatus": "Delivery",
    "divisionname": "Gurgaon",
    "regionname": "Ambala  HQ",
    "circlename": "Haryana",
    "Taluk": "Majra Sheoraj  majra Sheoraj",
    "Districtname": "Rewari",
    "statename": "HARYANA"
  },
  {
    "pincode": "123401",
    "officename": "Mastapur B.O",
    "officeType": "B.O",
    "Deliverystatus": "Delivery",
    "divisionname": "Gurgaon",
    "regionname": "Ambala  HQ",
    "circlename": "Haryana",
    "Taluk": "Mastapur",
    "Districtname": "Rewari",
    "statename": "HARYANA"
  },
  {
    "pincode": "123401",
    "officename": "Model Town  Rewari S.O",
    "officeType": "S.O",
    "Deliverystatus": "Non-Delivery",
    "divisionname": "Gurgaon",
    "regionname": "Ambala  HQ",
    "circlename": "Haryana",
    "Taluk": "Rewari",
    "Districtname": "Rewari",
    "statename": "HARYANA"
  },
  {
    "pincode": "123401",
    "officename": "Mohanpur B.O",
    "officeType": "B.O",
    "Deliverystatus": "Delivery",
    "divisionname": "Gurgaon",
    "regionname": "Ambala  HQ",
    "circlename": "Haryana",
    "Taluk": "Mohanpur",
    "Districtname": "Rewari",
    "statename": "HARYANA"
  },
  {
    "pincode": "123401",
    "officename": "Musepur B.O",
    "officeType": "B.O",
    "Deliverystatus": "Delivery",
    "divisionname": "Gurgaon",
    "regionname": "Ambala  HQ",
    "circlename": "Haryana",
    "Taluk": "Musepur",
    "Districtname": "Rewari",
    "statename": "HARYANA"
  },
  {
    "pincode": "123401",
    "officename": "Nangal Pathani B.O",
    "officeType": "B.O",
    "Deliverystatus": "Non-Delivery",
    "divisionname": "Gurgaon",
    "regionname": "Ambala  HQ",
    "circlename": "Haryana",
    "Taluk": "Nangal Pathani",
    "Districtname": "Rewari",
    "statename": "HARYANA"
  },
  {
    "pincode": "123401",
    "officename": "Nangli Godha B.O",
    "officeType": "B.O",
    "Deliverystatus": "Delivery",
    "divisionname": "Gurgaon",
    "regionname": "Ambala  HQ",
    "circlename": "Haryana",
    "Taluk": "Nangli Godha",
    "Districtname": "Rewari",
    "statename": "HARYANA"
  },
  {
    "pincode": "123401",
    "officename": "New Anaz Mandi Rewari S.O",
    "officeType": "S.O",
    "Deliverystatus": "Non-Delivery",
    "divisionname": "Gurgaon",
    "regionname": "Ambala  HQ",
    "circlename": "Haryana",
    "Taluk": "New Anaz Mandi Rewari",
    "Districtname": "Rewari",
    "statename": "HARYANA"
  },
  {
    "pincode": "123401",
    "officename": "Rewari S.O",
    "officeType": "S.O",
    "Deliverystatus": "Delivery",
    "divisionname": "Gurgaon",
    "regionname": "Ambala  HQ",
    "circlename": "Haryana",
    "Taluk": "Rewari",
    "Districtname": "Rewari",
    "statename": "HARYANA"
  },
  {
    "pincode": "123401",
    "officename": "Rohrai B.O",
    "officeType": "B.O",
    "Deliverystatus": "Delivery",
    "divisionname": "Gurgaon",
    "regionname": "Ambala  HQ",
    "circlename": "Haryana",
    "Taluk": "Rohrai",
    "Districtname": "Rewari",
    "statename": "HARYANA"
  },
  {
    "pincode": "123401",
    "officename": "Saharanwas B.O",
    "officeType": "B.O",
    "Deliverystatus": "Delivery",
    "divisionname": "Gurgaon",
    "regionname": "Ambala  HQ",
    "circlename": "Haryana",
    "Taluk": "Saharanwas",
    "Districtname": "Rewari",
    "statename": "HARYANA"
  },
  {
    "pincode": "123401",
    "officename": "Sangwari B.O",
    "officeType": "B.O",
    "Deliverystatus": "Delivery",
    "divisionname": "Gurgaon",
    "regionname": "Ambala  HQ",
    "circlename": "Haryana",
    "Taluk": "Sangwari",
    "Districtname": "Rewari",
    "statename": "HARYANA"
  },
  {
    "pincode": "123401",
    "officename": "Sulkha B.O",
    "officeType": "B.O",
    "Deliverystatus": "Delivery",
    "divisionname": "Gurgaon",
    "regionname": "Ambala  HQ",
    "circlename": "Haryana",
    "Taluk": "Sulkha",
    "Districtname": "Rewari",
    "statename": "HARYANA"
  },
  {
    "pincode": "123401",
    "officename": "Tehsil Road Rewari S.O",
    "officeType": "S.O",
    "Deliverystatus": "Non-Delivery",
    "divisionname": "Gurgaon",
    "regionname": "Ambala  HQ",
    "circlename": "Haryana",
    "Taluk": "Rewari",
    "Districtname": "Rewari",
    "statename": "HARYANA"
  }
]
