[
  {
    "pincode": "123411",
    "officename": "Baldhan Kalan B.O",
    "officeType": "B.O",
    "Deliverystatus": "Delivery",
    "divisionname": "Gurgaon",
    "regionname": "Ambala  HQ",
    "circlename": "Haryana",
    "Taluk": "Rewari",
    "Districtname": "Rewari",
    "statename": "HARYANA"
  },
  {
    "pincode": "123411",
    "officename": "Buroli B.O",
    "officeType": "B.O",
    "Deliverystatus": "Delivery",
    "divisionname": "Gurgaon",
    "regionname": "Ambala  HQ",
    "circlename": "Haryana",
    "Taluk": "Buroli",
    "Districtname": "Rewari",
    "statename": "HARYANA"
  },
  {
    "pincode": "123411",
    "officename": "Dahina S.O",
    "officeType": "S.O",
    "Deliverystatus": "Delivery",
    "divisionname": "Gurgaon",
    "regionname": "Ambala  HQ",
    "circlename": "Haryana",
    "Taluk": "Dahina",
    "Districtname": "Mahendragarh",
    "statename": "HARYANA"
  },
  {
    "pincode": "123411",
    "officename": "Dakhora B.O",
    "officeType": "B.O",
    "Deliverystatus": "Non-Delivery",
    "divisionname": "Gurgaon",
    "regionname": "Ambala  HQ",
    "circlename": "Haryana",
    "Taluk": "Dakhora",
    "Districtname": "Rewari",
    "statename": "HARYANA"
  },
  {
    "pincode": "123411",
    "officename": "Daroli B.O",
    "officeType": "B.O",
    "Deliverystatus": "Delivery",
    "divisionname": "Gurgaon",
    "regionname": "Ambala  HQ",
    "circlename": "Haryana",
    "Taluk": "Daroli",
    "Districtname": "Rewari",
    "statename": "HARYANA"
  },
  {
    "pincode": "123411",
    "officename": "Gothra B.O",
    "officeType": "B.O",
    "Deliverystatus": "Non-Delivery",
    "divisionname": "Gurgaon",
    "regionname": "Ambala  HQ",
    "circlename": "Haryana",
    "Taluk": "Gothera",
    "Districtname": "Rewari",
    "statename": "HARYANA"
  },
  {
    "pincode": "123411",
    "officename": "Kanwali B.O",
    "officeType": "B.O",
    "Deliverystatus": "Delivery",
    "divisionname": "Gurgaon",
    "regionname": "Ambala  HQ",
    "circlename": "Haryana",
    "Taluk": "Kanwali",
    "Districtname": "Rewari",
    "statename": "HARYANA"
  },
  {
    "pincode": "123411",
    "officename": "Lisan B.O",
    "officeType": "B.O",
    "Deliverystatus": "Non-Delivery",
    "divisionname": "Gurgaon",
    "regionname": "Ambala  HQ",
    "circlename": "Haryana",
    "Taluk": "Lisan",
    "Districtname": "Rewari",
    "statename": "HARYANA"
  },
  {
    "pincode": "123411",
    "officename": "Motla Kalan B.O",
    "officeType": "B.O",
    "Deliverystatus": "Delivery",
    "divisionname": "Gurgaon",
    "regionname": "Ambala  HQ",
    "circlename": "Haryana",
    "Taluk": "Motla Kalan",
    "Districtname": "Rewari",
    "statename": "HARYANA"
  },
  {
    "pincode": "123411",
    "officename": "Mundi B.O",
    "officeType": "B.O",
    "Deliverystatus": "Delivery",
    "divisionname": "Gurgaon",
    "regionname": "Ambala  HQ",
    "circlename": "Haryana",
    "Taluk": "Mundi",
    "Districtname": "Rewari",
    "statename": "HARYANA"
  },
  {
    "pincode": "123411",
    "officename": "Nimoth B.O",
    "officeType": "B.O",
    "Deliverystatus": "Delivery",
    "divisionname": "Gurgaon",
    "regionname": "Ambala  HQ",
    "circlename": "Haryana",
    "Taluk": "Nimoth",
    "Districtname": "Rewari",
    "statename": "HARYANA"
  },
  {
    "pincode": "123411",
    "officename": "Rampuri B.O",
    "officeType": "B.O",
    "Deliverystatus": "Delivery",
    "divisionname": "Gurgaon",
    "regionname": "Ambala  HQ",
    "circlename": "Haryana",
    "Taluk": "Rampuri",
    "Districtname": "Rewari",
    "statename": "HARYANA"
  },
  {
    "pincode": "123411",
    "officename": "Siha B.O",
    "officeType": "B.O",
    "Deliverystatus": "Non-Delivery",
    "divisionname": "Gurgaon",
    "regionname": "Ambala  HQ",
    "circlename": "Haryana",
    "Taluk": "Siha",
    "Districtname": "Rewari",
    "statename": "HARYANA"
  },
  {
    "pincode": "123411",
    "officename": "Zainabad B.O",
    "officeType": "B.O",
    "Deliverystatus": "Non-Delivery",
    "divisionname": "Gurgaon",
    "regionname": "Ambala  HQ",
    "circlename": "Haryana",
    "Taluk": "Zainabad",
    "Districtname": "Rewari",
    "statename": "HARYANA"
  }
]
