[
  {
    "pincode": "123501",
    "officename": "Asalwas B.O",
    "officeType": "B.O",
    "Deliverystatus": "Delivery",
    "divisionname": "Gurgaon",
    "regionname": "Ambala  HQ",
    "circlename": "Haryana",
    "Taluk": "Bawal",
    "Districtname": "Mahendragarh",
    "statename": "HARYANA"
  },
  {
    "pincode": "123501",
    "officename": "Baghthala B.O",
    "officeType": "B.O",
    "Deliverystatus": "Delivery",
    "divisionname": "Gurgaon",
    "regionname": "Ambala  HQ",
    "circlename": "Haryana",
    "Taluk": "Baghthala",
    "Districtname": "Rewari",
    "statename": "HARYANA"
  },
  {
    "pincode": "123501",
    "officename": "Banipur B.O",
    "officeType": "B.O",
    "Deliverystatus": "Non-Delivery",
    "divisionname": "Gurgaon",
    "regionname": "Ambala  HQ",
    "circlename": "Haryana",
    "Taluk": "Banipur",
    "Districtname": "Rewari",
    "statename": "HARYANA"
  },
  {
    "pincode": "123501",
    "officename": "Bawal S.O",
    "officeType": "S.O",
    "Deliverystatus": "Delivery",
    "divisionname": "Gurgaon",
    "regionname": "Ambala  HQ",
    "circlename": "Haryana",
    "Taluk": "Bawal",
    "Districtname": "Mahendragarh",
    "statename": "HARYANA"
  },
  {
    "pincode": "123501",
    "officename": "Gujar Majra B.O",
    "officeType": "B.O",
    "Deliverystatus": "Delivery",
    "divisionname": "Gurgaon",
    "regionname": "Ambala  HQ",
    "circlename": "Haryana",
    "Taluk": "Gujar Majra",
    "Districtname": "Rewari",
    "statename": "HARYANA"
  },
  {
    "pincode": "123501",
    "officename": "Jaisinghpur Khera B.O",
    "officeType": "B.O",
    "Deliverystatus": "Delivery",
    "divisionname": "Gurgaon",
    "regionname": "Ambala  HQ",
    "circlename": "Haryana",
    "Taluk": "Jaisinghpur Khera",
    "Districtname": "Rewari",
    "statename": "HARYANA"
  },
  {
    "pincode": "123501",
    "officename": "Jhabuwa B.O",
    "officeType": "B.O",
    "Deliverystatus": "Delivery",
    "divisionname": "Gurgaon",
    "regionname": "Ambala  HQ",
    "circlename": "Haryana",
    "Taluk": "Jhabuwa",
    "Districtname": "Rewari",
    "statename": "HARYANA"
  },
  {
    "pincode": "123501",
    "officename": "Naichana B.O",
    "officeType": "B.O",
    "Deliverystatus": "Delivery",
    "divisionname": "Gurgaon",
    "regionname": "Ambala  HQ",
    "circlename": "Haryana",
    "Taluk": "Naichana",
    "Districtname": "Rewari",
    "statename": "HARYANA"
  },
  {
    "pincode": "123501",
    "officename": "Nangal B.O",
    "officeType": "B.O",
    "Deliverystatus": "Delivery",
    "divisionname": "Gurgaon",
    "regionname": "Ambala  HQ",
    "circlename": "Haryana",
    "Taluk": "Nangal",
    "Districtname": "Rewari",
    "statename": "HARYANA"
  },
  {
    "pincode": "123501",
    "officename": "Nangal Shahbazpur B.O",
    "officeType": "B.O",
    "Deliverystatus": "Delivery",
    "divisionname": "Gurgaon",
    "regionname": "Ambala  HQ",
    "circlename": "Haryana",
    "Taluk": "Bawal",
    "Districtname": "Mahendragarh",
    "statename": "HARYANA"
  },
  {
    "pincode": "123501",
    "officename": "Nangal Teju B.O",
    "officeType": "B.O",
    "Deliverystatus": "Delivery",
    "divisionname": "Gurgaon",
    "regionname": "Ambala  HQ",
    "circlename": "Haryana",
    "Taluk": "Nangal Teju",
    "Districtname": "Rewari",
    "statename": "HARYANA"
  },
  {
    "pincode": "123501",
    "officename": "Pranpura B.O",
    "officeType": "B.O",
    "Deliverystatus": "Delivery",
    "divisionname": "Gurgaon",
    "regionname": "Ambala  HQ",
    "circlename": "Haryana",
    "Taluk": "Pranpura",
    "Districtname": "Rewari",
    "statename": "HARYANA"
  },
  {
    "pincode": "123501",
    "officename": "Suthana B.O",
    "officeType": "B.O",
    "Deliverystatus": "Delivery",
    "divisionname": "Gurgaon",
    "regionname": "Ambala  HQ",
    "circlename": "Haryana",
    "Taluk": "Suthana",
    "Districtname": "Rewari",
    "statename": "HARYANA"
  }
]
