[
  {
    "pincode": "124103",
    "officename": "Arya Nagar Jhajjar S.O",
    "officeType": "S.O",
    "Deliverystatus": "Non-Delivery",
    "divisionname": "Rohtak",
    "regionname": "Ambala  HQ",
    "circlename": "Haryana",
    "Taluk": "Jhajjar",
    "Districtname": "Jhajjar",
    "statename": "HARYANA"
  },
  {
    "pincode": "124103",
    "officename": "Dadanpur B.O",
    "officeType": "B.O",
    "Deliverystatus": "Delivery",
    "divisionname": "Rohtak",
    "regionname": "Ambala  HQ",
    "circlename": "Haryana",
    "Taluk": "Jhajjar",
    "Districtname": "Jhajjar",
    "statename": "HARYANA"
  },
  {
    "pincode": "124103",
    "officename": "Dadri Toe B.O",
    "officeType": "B.O",
    "Deliverystatus": "Delivery",
    "divisionname": "Rohtak",
    "regionname": "Ambala  HQ",
    "circlename": "Haryana",
    "Taluk": "Jhajjar",
    "Districtname": "Jhajjar",
    "statename": "HARYANA"
  },
  {
    "pincode": "124103",
    "officename": "Dawla Raiya B.O",
    "officeType": "B.O",
    "Deliverystatus": "Delivery",
    "divisionname": "Rohtak",
    "regionname": "Ambala  HQ",
    "circlename": "Haryana",
    "Taluk": "Jhajjar",
    "Districtname": "Jhajjar",
    "statename": "HARYANA"
  },
  {
    "pincode": "124103",
    "officename": "Gawalison B.O",
    "officeType": "B.O",
    "Deliverystatus": "Delivery",
    "divisionname": "Rohtak",
    "regionname": "Ambala  HQ",
    "circlename": "Haryana",
    "Taluk": "Jhajjar",
    "Districtname": "Jhajjar",
    "statename": "HARYANA"
  },
  {
    "pincode": "124103",
    "officename": "Gudha B.O",
    "officeType": "B.O",
    "Deliverystatus": "Delivery",
    "divisionname": "Rohtak",
    "regionname": "Ambala  HQ",
    "circlename": "Haryana",
    "Taluk": "Jhajjar",
    "Districtname": "Jhajjar",
    "statename": "HARYANA"
  },
  {
    "pincode": "124103",
    "officename": "Gurukul Jhajjar B.O",
    "officeType": "B.O",
    "Deliverystatus": "Delivery",
    "divisionname": "Rohtak",
    "regionname": "Ambala  HQ",
    "circlename": "Haryana",
    "Taluk": "Jhajjar",
    "Districtname": "Jhajjar",
    "statename": "HARYANA"
  },
  {
    "pincode": "124103",
    "officename": "Hasanpur B.O",
    "officeType": "B.O",
    "Deliverystatus": "Delivery",
    "divisionname": "Rohtak",
    "regionname": "Ambala  HQ",
    "circlename": "Haryana",
    "Taluk": "Jhajjar",
    "Districtname": "Jhajjar",
    "statename": "HARYANA"
  },
  {
    "pincode": "124103",
    "officename": "Jahazgarh B.O",
    "officeType": "B.O",
    "Deliverystatus": "Delivery",
    "divisionname": "Rohtak",
    "regionname": "Ambala  HQ",
    "circlename": "Haryana",
    "Taluk": "Jhajjar",
    "Districtname": "Jhajjar",
    "statename": "HARYANA"
  },
  {
    "pincode": "124103",
    "officename": "Jhajjar S.O",
    "officeType": "S.O",
    "Deliverystatus": "Delivery",
    "divisionname": "Rohtak",
    "regionname": "Ambala  HQ",
    "circlename": "Haryana",
    "Taluk": "Jhajjar",
    "Districtname": "Jhajjar",
    "statename": "HARYANA"
  },
  {
    "pincode": "124103",
    "officename": "Jondhi B.O",
    "officeType": "B.O",
    "Deliverystatus": "Delivery",
    "divisionname": "Rohtak",
    "regionname": "Ambala  HQ",
    "circlename": "Haryana",
    "Taluk": "Jondhi",
    "Districtname": "Jhajjar",
    "statename": "HARYANA"
  },
  {
    "pincode": "124103",
    "officename": "Khatiwas B.O",
    "officeType": "B.O",
    "Deliverystatus": "Delivery",
    "divisionname": "Rohtak",
    "regionname": "Ambala  HQ",
    "circlename": "Haryana",
    "Taluk": "Jahjjar",
    "Districtname": "Jhajjar",
    "statename": "HARYANA"
  },
  {
    "pincode": "124103",
    "officename": "Kheri Kumar B.O",
    "officeType": "B.O",
    "Deliverystatus": "Delivery",
    "divisionname": "Rohtak",
    "regionname": "Ambala  HQ",
    "circlename": "Haryana",
    "Taluk": "Jhajajr",
    "Districtname": "Jhajjar",
    "statename": "HARYANA"
  },
  {
    "pincode": "124103",
    "officename": "M.P.Majra B.O",
    "officeType": "B.O",
    "Deliverystatus": "Delivery",
    "divisionname": "Rohtak",
    "regionname": "Ambala  HQ",
    "circlename": "Haryana",
    "Taluk": "Jhajjar",
    "Districtname": "Jhajjar",
    "statename": "HARYANA"
  },
  {
    "pincode": "124103",
    "officename": "Palra B.O",
    "officeType": "B.O",
    "Deliverystatus": "Delivery",
    "divisionname": "Rohtak",
    "regionname": "Ambala  HQ",
    "circlename": "Haryana",
    "Taluk": "Jhajjar",
    "Districtname": "Jhajjar",
    "statename": "HARYANA"
  },
  {
    "pincode": "124103",
    "officename": "Silani B.O",
    "officeType": "B.O",
    "Deliverystatus": "Delivery",
    "divisionname": "Rohtak",
    "regionname": "Ambala  HQ",
    "circlename": "Haryana",
    "Taluk": "Jhajjar",
    "Districtname": "Jhajjar",
    "statename": "HARYANA"
  },
  {
    "pincode": "124103",
    "officename": "Sulodha B.O",
    "officeType": "B.O",
    "Deliverystatus": "Delivery",
    "divisionname": "Rohtak",
    "regionname": "Ambala  HQ",
    "circlename": "Haryana",
    "Taluk": "Jhajjar",
    "Districtname": "Jhajjar",
    "statename": "HARYANA"
  },
  {
    "pincode": "124103",
    "officename": "Talao B.O",
    "officeType": "B.O",
    "Deliverystatus": "Delivery",
    "divisionname": "Rohtak",
    "regionname": "Ambala  HQ",
    "circlename": "Haryana",
    "Taluk": "Jhajjar",
    "Districtname": "Jhajjar",
    "statename": "HARYANA"
  },
  {
    "pincode": "124103",
    "officename": "Utlodha B.O",
    "officeType": "B.O",
    "Deliverystatus": "Delivery",
    "divisionname": "Rohtak",
    "regionname": "Ambala  HQ",
    "circlename": "Haryana",
    "Taluk": "Jhajjar",
    "Districtname": "Jhajjar",
    "statename": "HARYANA"
  },
  {
    "pincode": "124103",
    "officename": "Yakubpur B.O",
    "officeType": "B.O",
    "Deliverystatus": "Delivery",
    "divisionname": "Rohtak",
    "regionname": "Ambala  HQ",
    "circlename": "Haryana",
    "Taluk": "Jhajjr",
    "Districtname": "Jhajjar",
    "statename": "HARYANA"
  }
]
