[
  {
    "pincode": "124105",
    "officename": "Badli S.O (Jhajjar)",
    "officeType": "S.O",
    "Deliverystatus": "Delivery",
    "divisionname": "Rohtak",
    "regionname": "Ambala  HQ",
    "circlename": "Haryana",
    "Taluk": "Jhajjar",
    "Districtname": "Jhajjar",
    "statename": "HARYANA"
  },
  {
    "pincode": "124105",
    "officename": "Badsa B.O",
    "officeType": "B.O",
    "Deliverystatus": "Delivery",
    "divisionname": "Rohtak",
    "regionname": "Ambala  HQ",
    "circlename": "Haryana",
    "Taluk": "Jhajjar",
    "Districtname": "Jhajjar",
    "statename": "HARYANA"
  },
  {
    "pincode": "124105",
    "officename": "Bamnaula B.O",
    "officeType": "B.O",
    "Deliverystatus": "Delivery",
    "divisionname": "Rohtak",
    "regionname": "Ambala  HQ",
    "circlename": "Haryana",
    "Taluk": "Jhajjar",
    "Districtname": "Jhajjar",
    "statename": "HARYANA"
  },
  {
    "pincode": "124105",
    "officename": "Deverkhana B.O",
    "officeType": "B.O",
    "Deliverystatus": "Delivery",
    "divisionname": "Rohtak",
    "regionname": "Ambala  HQ",
    "circlename": "Haryana",
    "Taluk": "Jhajjar",
    "Districtname": "Jhajjar",
    "statename": "HARYANA"
  },
  {
    "pincode": "124105",
    "officename": "Kheri Jat B.O",
    "officeType": "B.O",
    "Deliverystatus": "Delivery",
    "divisionname": "Rohtak",
    "regionname": "Ambala  HQ",
    "circlename": "Haryana",
    "Taluk": "Jhajjar",
    "Districtname": "Jhajjar",
    "statename": "HARYANA"
  },
  {
    "pincode": "124105",
    "officename": "Ladpur B.O",
    "officeType": "B.O",
    "Deliverystatus": "Delivery",
    "divisionname": "Rohtak",
    "regionname": "Ambala  HQ",
    "circlename": "Haryana",
    "Taluk": "Bahadurgarh",
    "Districtname": "Jhajjar",
    "statename": "HARYANA"
  },
  {
    "pincode": "124105",
    "officename": "Pelpa B.O",
    "officeType": "B.O",
    "Deliverystatus": "Delivery",
    "divisionname": "Rohtak",
    "regionname": "Ambala  HQ",
    "circlename": "Haryana",
    "Taluk": "Jhajjar",
    "Districtname": "Jhajjar",
    "statename": "HARYANA"
  },
  {
    "pincode": "124105",
    "officename": "Sondhi B.O",
    "officeType": "B.O",
    "Deliverystatus": "Delivery",
    "divisionname": "Rohtak",
    "regionname": "Ambala  HQ",
    "circlename": "Haryana",
    "Taluk": "Jhajjar",
    "Districtname": "Jhajjar",
    "statename": "HARYANA"
  }
]
