[
  {
    "pincode": "124109",
    "officename": "Bhindawas B.O",
    "officeType": "B.O",
    "Deliverystatus": "Delivery",
    "divisionname": "Rohtak",
    "regionname": "Ambala  HQ",
    "circlename": "Haryana",
    "Taluk": "Jhajjar",
    "Districtname": "Jhajjar",
    "statename": "HARYANA"
  },
  {
    "pincode": "124109",
    "officename": "Bilochpura B.O",
    "officeType": "B.O",
    "Deliverystatus": "Delivery",
    "divisionname": "Rohtak",
    "regionname": "Ambala  HQ",
    "circlename": "Haryana",
    "Taluk": "Jhajjar",
    "Districtname": "Jhajjar",
    "statename": "HARYANA"
  },
  {
    "pincode": "124109",
    "officename": "Darauli B.O",
    "officeType": "B.O",
    "Deliverystatus": "Delivery",
    "divisionname": "Rohtak",
    "regionname": "Ambala  HQ",
    "circlename": "Haryana",
    "Taluk": "Jhajjar",
    "Districtname": "Jhajjar",
    "statename": "HARYANA"
  },
  {
    "pincode": "124109",
    "officename": "Dhakla S.O",
    "officeType": "S.O",
    "Deliverystatus": "Delivery",
    "divisionname": "Rohtak",
    "regionname": "Ambala  HQ",
    "circlename": "Haryana",
    "Taluk": "Jhajjar",
    "Districtname": "Jhajjar",
    "statename": "HARYANA"
  },
  {
    "pincode": "124109",
    "officename": "Kasni B.O",
    "officeType": "B.O",
    "Deliverystatus": "Delivery",
    "divisionname": "Rohtak",
    "regionname": "Ambala  HQ",
    "circlename": "Haryana",
    "Taluk": "Jhajar",
    "Districtname": "Jhajjar",
    "statename": "HARYANA"
  },
  {
    "pincode": "124109",
    "officename": "Khetawas B.O",
    "officeType": "B.O",
    "Deliverystatus": "Delivery",
    "divisionname": "Rohtak",
    "regionname": "Ambala  HQ",
    "circlename": "Haryana",
    "Taluk": "Jhajjar",
    "Districtname": "Jhajjar",
    "statename": "HARYANA"
  },
  {
    "pincode": "124109",
    "officename": "Niwada B.O",
    "officeType": "B.O",
    "Deliverystatus": "Delivery",
    "divisionname": "Rohtak",
    "regionname": "Ambala  HQ",
    "circlename": "Haryana",
    "Taluk": "Jhajjar",
    "Districtname": "Jhajjar",
    "statename": "HARYANA"
  },
  {
    "pincode": "124109",
    "officename": "Samaspur Majra B.O",
    "officeType": "B.O",
    "Deliverystatus": "Delivery",
    "divisionname": "Rohtak",
    "regionname": "Ambala  HQ",
    "circlename": "Haryana",
    "Taluk": "Jhajjr",
    "Districtname": "Jhajjar",
    "statename": "HARYANA"
  },
  {
    "pincode": "124109",
    "officename": "Silani B.O",
    "officeType": "B.O",
    "Deliverystatus": "Delivery",
    "divisionname": "Rohtak",
    "regionname": "Ambala  HQ",
    "circlename": "Haryana",
    "Taluk": "Jhajjar",
    "Districtname": "Jhajjar",
    "statename": "HARYANA"
  },
  {
    "pincode": "124109",
    "officename": "Subana B.O",
    "officeType": "B.O",
    "Deliverystatus": "Delivery",
    "divisionname": "Rohtak",
    "regionname": "Ambala  HQ",
    "circlename": "Haryana",
    "Taluk": "Jhajjar",
    "Districtname": "Jhajjar",
    "statename": "HARYANA"
  },
  {
    "pincode": "124109",
    "officename": "Surheti B.O",
    "officeType": "B.O",
    "Deliverystatus": "Delivery",
    "divisionname": "Rohtak",
    "regionname": "Ambala  HQ",
    "circlename": "Haryana",
    "Taluk": "Jhajjar",
    "Districtname": "Jhajjar",
    "statename": "HARYANA"
  },
  {
    "pincode": "124109",
    "officename": "Tumbaheri B.O",
    "officeType": "B.O",
    "Deliverystatus": "Delivery",
    "divisionname": "Rohtak",
    "regionname": "Ambala  HQ",
    "circlename": "Haryana",
    "Taluk": "",
    "Districtname": "Jhajjar",
    "statename": "HARYANA"
  }
]
