[
  {
    "pincode": "124514",
    "officename": "Bainsi B.O",
    "officeType": "B.O",
    "Deliverystatus": "Delivery",
    "divisionname": "Rohtak",
    "regionname": "Ambala  HQ",
    "circlename": "Haryana",
    "Taluk": "Mehem",
    "Districtname": "Rohtak",
    "statename": "HARYANA"
  },
  {
    "pincode": "124514",
    "officename": "Bhagwatipur B.O",
    "officeType": "B.O",
    "Deliverystatus": "Delivery",
    "divisionname": "Rohtak",
    "regionname": "Ambala  HQ",
    "circlename": "Haryana",
    "Taluk": "Mehem",
    "Districtname": "Rohtak",
    "statename": "HARYANA"
  },
  {
    "pincode": "124514",
    "officename": "Chandi B.O",
    "officeType": "B.O",
    "Deliverystatus": "Delivery",
    "divisionname": "Rohtak",
    "regionname": "Ambala  HQ",
    "circlename": "Haryana",
    "Taluk": "Mehem",
    "Districtname": "Rohtak",
    "statename": "HARYANA"
  },
  {
    "pincode": "124514",
    "officename": "Chiri B.O",
    "officeType": "B.O",
    "Deliverystatus": "Delivery",
    "divisionname": "Rohtak",
    "regionname": "Ambala  HQ",
    "circlename": "Haryana",
    "Taluk": "Rohtak",
    "Districtname": "Rohtak",
    "statename": "HARYANA"
  },
  {
    "pincode": "124514",
    "officename": "Gharauthi B.O",
    "officeType": "B.O",
    "Deliverystatus": "Delivery",
    "divisionname": "Rohtak",
    "regionname": "Ambala  HQ",
    "circlename": "Haryana",
    "Taluk": "",
    "Districtname": "Rohtak",
    "statename": "HARYANA"
  },
  {
    "pincode": "124514",
    "officename": "Gugaheri B.O",
    "officeType": "B.O",
    "Deliverystatus": "Delivery",
    "divisionname": "Rohtak",
    "regionname": "Ambala  HQ",
    "circlename": "Haryana",
    "Taluk": "Mehem",
    "Districtname": "Rohtak",
    "statename": "HARYANA"
  },
  {
    "pincode": "124514",
    "officename": "Kharainti B.O",
    "officeType": "B.O",
    "Deliverystatus": "Delivery",
    "divisionname": "Rohtak",
    "regionname": "Ambala  HQ",
    "circlename": "Haryana",
    "Taluk": "Mehem",
    "Districtname": "Rohtak",
    "statename": "HARYANA"
  },
  {
    "pincode": "124514",
    "officename": "Lakhan Majra S.O",
    "officeType": "S.O",
    "Deliverystatus": "Delivery",
    "divisionname": "Rohtak",
    "regionname": "Ambala  HQ",
    "circlename": "Haryana",
    "Taluk": "Mehem",
    "Districtname": "Rohtak",
    "statename": "HARYANA"
  },
  {
    "pincode": "124514",
    "officename": "Nandal B.O",
    "officeType": "B.O",
    "Deliverystatus": "Delivery",
    "divisionname": "Rohtak",
    "regionname": "Ambala  HQ",
    "circlename": "Haryana",
    "Taluk": "Mehem",
    "Districtname": "Rohtak",
    "statename": "HARYANA"
  },
  {
    "pincode": "124514",
    "officename": "Nidana B.O",
    "officeType": "B.O",
    "Deliverystatus": "Delivery",
    "divisionname": "Rohtak",
    "regionname": "Ambala  HQ",
    "circlename": "Haryana",
    "Taluk": "Mehem",
    "Districtname": "Rohtak",
    "statename": "HARYANA"
  },
  {
    "pincode": "124514",
    "officename": "Samargopalpur B.O",
    "officeType": "B.O",
    "Deliverystatus": "Delivery",
    "divisionname": "Rohtak",
    "regionname": "Ambala  HQ",
    "circlename": "Haryana",
    "Taluk": "Rohtak",
    "Districtname": "Rohtak",
    "statename": "HARYANA"
  },
  {
    "pincode": "124514",
    "officename": "Sunderpur B.O",
    "officeType": "B.O",
    "Deliverystatus": "Delivery",
    "divisionname": "Rohtak",
    "regionname": "Ambala  HQ",
    "circlename": "Haryana",
    "Taluk": "Rohtak",
    "Districtname": "Rohtak",
    "statename": "HARYANA"
  },
  {
    "pincode": "124514",
    "officename": "Titauli B.O",
    "officeType": "B.O",
    "Deliverystatus": "Delivery",
    "divisionname": "Rohtak",
    "regionname": "Ambala  HQ",
    "circlename": "Haryana",
    "Taluk": "Rohtak",
    "Districtname": "Rohtak",
    "statename": "HARYANA"
  }
]
