[
  {
    "pincode": "124501",
    "officename": "Atail B.O",
    "officeType": "B.O",
    "Deliverystatus": "Delivery",
    "divisionname": "Rohtak",
    "regionname": "Ambala  HQ",
    "circlename": "Haryana",
    "Taluk": "Rohtak",
    "Districtname": "Rohtak",
    "statename": "HARYANA"
  },
  {
    "pincode": "124501",
    "officename": "Bhaproda B.O",
    "officeType": "B.O",
    "Deliverystatus": "Delivery",
    "divisionname": "Rohtak",
    "regionname": "Ambala  HQ",
    "circlename": "Haryana",
    "Taluk": "Rohtak",
    "Districtname": "Rohtak",
    "statename": "HARYANA"
  },
  {
    "pincode": "124501",
    "officename": "Bhasro Kalan B.O",
    "officeType": "B.O",
    "Deliverystatus": "Delivery",
    "divisionname": "Rohtak",
    "regionname": "Ambala  HQ",
    "circlename": "Haryana",
    "Taluk": "Rohtak",
    "Districtname": "Rohtak",
    "statename": "HARYANA"
  },
  {
    "pincode": "124501",
    "officename": "Chuliyana B.O",
    "officeType": "B.O",
    "Deliverystatus": "Delivery",
    "divisionname": "Rohtak",
    "regionname": "Ambala  HQ",
    "circlename": "Haryana",
    "Taluk": "Rohtak",
    "Districtname": "Rohtak",
    "statename": "HARYANA"
  },
  {
    "pincode": "124501",
    "officename": "Dehkora B.O",
    "officeType": "B.O",
    "Deliverystatus": "Delivery",
    "divisionname": "Rohtak",
    "regionname": "Ambala  HQ",
    "circlename": "Haryana",
    "Taluk": "Rohtak",
    "Districtname": "Rohtak",
    "statename": "HARYANA"
  },
  {
    "pincode": "124501",
    "officename": "Gandhra B.O",
    "officeType": "B.O",
    "Deliverystatus": "Delivery",
    "divisionname": "Rohtak",
    "regionname": "Ambala  HQ",
    "circlename": "Haryana",
    "Taluk": "Rohtak",
    "Districtname": "Rohtak",
    "statename": "HARYANA"
  },
  {
    "pincode": "124501",
    "officename": "Garhi B.O",
    "officeType": "B.O",
    "Deliverystatus": "Delivery",
    "divisionname": "Rohtak",
    "regionname": "Ambala  HQ",
    "circlename": "Haryana",
    "Taluk": "",
    "Districtname": "Rohtak",
    "statename": "HARYANA"
  },
  {
    "pincode": "124501",
    "officename": "Gijhi B.O",
    "officeType": "B.O",
    "Deliverystatus": "Delivery",
    "divisionname": "Rohtak",
    "regionname": "Ambala  HQ",
    "circlename": "Haryana",
    "Taluk": "Rohtak",
    "Districtname": "Rohtak",
    "statename": "HARYANA"
  },
  {
    "pincode": "124501",
    "officename": "Ismaila B.O",
    "officeType": "B.O",
    "Deliverystatus": "Delivery",
    "divisionname": "Rohtak",
    "regionname": "Ambala  HQ",
    "circlename": "Haryana",
    "Taluk": "Rohtak",
    "Districtname": "Rohtak",
    "statename": "HARYANA"
  },
  {
    "pincode": "124501",
    "officename": "Kharhar B.O",
    "officeType": "B.O",
    "Deliverystatus": "Delivery",
    "divisionname": "Rohtak",
    "regionname": "Ambala  HQ",
    "circlename": "Haryana",
    "Taluk": "Rohtak",
    "Districtname": "Rohtak",
    "statename": "HARYANA"
  },
  {
    "pincode": "124501",
    "officename": "Kultana B.O",
    "officeType": "B.O",
    "Deliverystatus": "Delivery",
    "divisionname": "Rohtak",
    "regionname": "Ambala  HQ",
    "circlename": "Haryana",
    "Taluk": "Rohtak",
    "Districtname": "Rohtak",
    "statename": "HARYANA"
  },
  {
    "pincode": "124501",
    "officename": "Loharheri B.O",
    "officeType": "B.O",
    "Deliverystatus": "Delivery",
    "divisionname": "Rohtak",
    "regionname": "Ambala  HQ",
    "circlename": "Haryana",
    "Taluk": "Rohtak",
    "Districtname": "Rohtak",
    "statename": "HARYANA"
  },
  {
    "pincode": "124501",
    "officename": "Matan B.O",
    "officeType": "B.O",
    "Deliverystatus": "Delivery",
    "divisionname": "Rohtak",
    "regionname": "Ambala  HQ",
    "circlename": "Haryana",
    "Taluk": "Rohtak",
    "Districtname": "Rohtak",
    "statename": "HARYANA"
  },
  {
    "pincode": "124501",
    "officename": "Nanaud B.O",
    "officeType": "B.O",
    "Deliverystatus": "Delivery",
    "divisionname": "Rohtak",
    "regionname": "Ambala  HQ",
    "circlename": "Haryana",
    "Taluk": "Rohtak",
    "Districtname": "Rohtak",
    "statename": "HARYANA"
  },
  {
    "pincode": "124501",
    "officename": "Naya Bans B.O",
    "officeType": "B.O",
    "Deliverystatus": "Delivery",
    "divisionname": "Rohtak",
    "regionname": "Ambala  HQ",
    "circlename": "Haryana",
    "Taluk": "Rohtak",
    "Districtname": "Rohtak",
    "statename": "HARYANA"
  },
  {
    "pincode": "124501",
    "officename": "Rohad B.O",
    "officeType": "B.O",
    "Deliverystatus": "Delivery",
    "divisionname": "Rohtak",
    "regionname": "Ambala  HQ",
    "circlename": "Haryana",
    "Taluk": "Rohtak",
    "Districtname": "Rohtak",
    "statename": "HARYANA"
  },
  {
    "pincode": "124501",
    "officename": "Sampla S.O",
    "officeType": "S.O",
    "Deliverystatus": "Delivery",
    "divisionname": "Rohtak",
    "regionname": "Ambala  HQ",
    "circlename": "Haryana",
    "Taluk": "Bahadurgarh",
    "Districtname": "Jhajjar",
    "statename": "HARYANA"
  }
]
