[
  {
    "pincode": "125033",
    "officename": "A.F. Hansi B.O",
    "officeType": "B.O",
    "Deliverystatus": "Delivery",
    "divisionname": "Hissar",
    "regionname": "Ambala  HQ",
    "circlename": "Haryana",
    "Taluk": "Hansi",
    "Districtname": "Hisar",
    "statename": "HARYANA"
  },
  {
    "pincode": "125033",
    "officename": "Anaj Mandi Hansi S.O",
    "officeType": "S.O",
    "Deliverystatus": "Non-Delivery",
    "divisionname": "Hissar",
    "regionname": "Ambala  HQ",
    "circlename": "Haryana",
    "Taluk": "Hansi",
    "Districtname": "Hisar",
    "statename": "HARYANA"
  },
  {
    "pincode": "125033",
    "officename": "Barwala Road Hansi S.O",
    "officeType": "S.O",
    "Deliverystatus": "Non-Delivery",
    "divisionname": "Hissar",
    "regionname": "Ambala  HQ",
    "circlename": "Haryana",
    "Taluk": "Hansi",
    "Districtname": "Hisar",
    "statename": "HARYANA"
  },
  {
    "pincode": "125033",
    "officename": "Bhatla B.O",
    "officeType": "B.O",
    "Deliverystatus": "Delivery",
    "divisionname": "Hissar",
    "regionname": "Ambala  HQ",
    "circlename": "Haryana",
    "Taluk": "Hansi",
    "Districtname": "Hisar",
    "statename": "HARYANA"
  },
  {
    "pincode": "125033",
    "officename": "Bhatol Jattan B.O",
    "officeType": "B.O",
    "Deliverystatus": "Delivery",
    "divisionname": "Hissar",
    "regionname": "Ambala  HQ",
    "circlename": "Haryana",
    "Taluk": "Hansi",
    "Districtname": "Hisar",
    "statename": "HARYANA"
  },
  {
    "pincode": "125033",
    "officename": "Chanot B.O",
    "officeType": "B.O",
    "Deliverystatus": "Delivery",
    "divisionname": "Hissar",
    "regionname": "Ambala  HQ",
    "circlename": "Haryana",
    "Taluk": "Hansi",
    "Districtname": "Hisar",
    "statename": "HARYANA"
  },
  {
    "pincode": "125033",
    "officename": "Dhana Kalan B.O",
    "officeType": "B.O",
    "Deliverystatus": "Delivery",
    "divisionname": "Hissar",
    "regionname": "Ambala  HQ",
    "circlename": "Haryana",
    "Taluk": "Hansi",
    "Districtname": "Hisar",
    "statename": "HARYANA"
  },
  {
    "pincode": "125033",
    "officename": "Dhana Khurd B.O",
    "officeType": "B.O",
    "Deliverystatus": "Delivery",
    "divisionname": "Hissar",
    "regionname": "Ambala  HQ",
    "circlename": "Haryana",
    "Taluk": "Hansi",
    "Districtname": "Hisar",
    "statename": "HARYANA"
  },
  {
    "pincode": "125033",
    "officename": "Dhanderi B.O",
    "officeType": "B.O",
    "Deliverystatus": "Delivery",
    "divisionname": "Hissar",
    "regionname": "Ambala  HQ",
    "circlename": "Haryana",
    "Taluk": "Hansi",
    "Districtname": "Hisar",
    "statename": "HARYANA"
  },
  {
    "pincode": "125033",
    "officename": "Dhani Peeranwali B.O",
    "officeType": "B.O",
    "Deliverystatus": "Delivery",
    "divisionname": "Hissar",
    "regionname": "Ambala  HQ",
    "circlename": "Haryana",
    "Taluk": "Hansi",
    "Districtname": "Hisar",
    "statename": "HARYANA"
  },
  {
    "pincode": "125033",
    "officename": "Garhi B.O",
    "officeType": "B.O",
    "Deliverystatus": "Delivery",
    "divisionname": "Hissar",
    "regionname": "Ambala  HQ",
    "circlename": "Haryana",
    "Taluk": "Hansi",
    "Districtname": "Hisar",
    "statename": "HARYANA"
  },
  {
    "pincode": "125033",
    "officename": "Ghirai B.O",
    "officeType": "B.O",
    "Deliverystatus": "Delivery",
    "divisionname": "Hissar",
    "regionname": "Ambala  HQ",
    "circlename": "Haryana",
    "Taluk": "Hansi",
    "Districtname": "Hisar",
    "statename": "HARYANA"
  },
  {
    "pincode": "125033",
    "officename": "Hansi City S.O",
    "officeType": "S.O",
    "Deliverystatus": "Non-Delivery",
    "divisionname": "Hissar",
    "regionname": "Ambala  HQ",
    "circlename": "Haryana",
    "Taluk": "Hansi",
    "Districtname": "Hisar",
    "statename": "HARYANA"
  },
  {
    "pincode": "125033",
    "officename": "Hansi S.O",
    "officeType": "S.O",
    "Deliverystatus": "Delivery",
    "divisionname": "Hissar",
    "regionname": "Ambala  HQ",
    "circlename": "Haryana",
    "Taluk": "Hansi",
    "Districtname": "Hisar",
    "statename": "HARYANA"
  },
  {
    "pincode": "125033",
    "officename": "Hazampur B.O",
    "officeType": "B.O",
    "Deliverystatus": "Delivery",
    "divisionname": "Hissar",
    "regionname": "Ambala  HQ",
    "circlename": "Haryana",
    "Taluk": "Hansi",
    "Districtname": "Hisar",
    "statename": "HARYANA"
  },
  {
    "pincode": "125033",
    "officename": "Jamauri B.O",
    "officeType": "B.O",
    "Deliverystatus": "Delivery",
    "divisionname": "Hissar",
    "regionname": "Ambala  HQ",
    "circlename": "Haryana",
    "Taluk": "Hansi",
    "Districtname": "Hisar",
    "statename": "HARYANA"
  },
  {
    "pincode": "125033",
    "officename": "Kharkari B.O",
    "officeType": "B.O",
    "Deliverystatus": "Delivery",
    "divisionname": "Hissar",
    "regionname": "Ambala  HQ",
    "circlename": "Haryana",
    "Taluk": "Hansi",
    "Districtname": "Hisar",
    "statename": "HARYANA"
  },
  {
    "pincode": "125033",
    "officename": "Kharkhara B.O",
    "officeType": "B.O",
    "Deliverystatus": "Delivery",
    "divisionname": "Hissar",
    "regionname": "Ambala  HQ",
    "circlename": "Haryana",
    "Taluk": "Hansi",
    "Districtname": "Hisar",
    "statename": "HARYANA"
  },
  {
    "pincode": "125033",
    "officename": "Khokha B.O",
    "officeType": "B.O",
    "Deliverystatus": "Delivery",
    "divisionname": "Hissar",
    "regionname": "Ambala  HQ",
    "circlename": "Haryana",
    "Taluk": "Hansi",
    "Districtname": "Hisar",
    "statename": "HARYANA"
  },
  {
    "pincode": "125033",
    "officename": "Kulana B.O",
    "officeType": "B.O",
    "Deliverystatus": "Delivery",
    "divisionname": "Hissar",
    "regionname": "Ambala  HQ",
    "circlename": "Haryana",
    "Taluk": "Hansi",
    "Districtname": "Hisar",
    "statename": "HARYANA"
  },
  {
    "pincode": "125033",
    "officename": "Kumbha B.O",
    "officeType": "B.O",
    "Deliverystatus": "Delivery",
    "divisionname": "Hissar",
    "regionname": "Ambala  HQ",
    "circlename": "Haryana",
    "Taluk": "Hansi",
    "Districtname": "Hisar",
    "statename": "HARYANA"
  },
  {
    "pincode": "125033",
    "officename": "Mehanda B.O",
    "officeType": "B.O",
    "Deliverystatus": "Delivery",
    "divisionname": "Hissar",
    "regionname": "Ambala  HQ",
    "circlename": "Haryana",
    "Taluk": "Hansi",
    "Districtname": "Hisar",
    "statename": "HARYANA"
  },
  {
    "pincode": "125033",
    "officename": "Mini Secretariat Hansi S.O",
    "officeType": "S.O",
    "Deliverystatus": "Non-Delivery",
    "divisionname": "Hissar",
    "regionname": "Ambala  HQ",
    "circlename": "Haryana",
    "Taluk": "Hisar",
    "Districtname": "Hisar",
    "statename": "HARYANA"
  },
  {
    "pincode": "125033",
    "officename": "Petwar B.O",
    "officeType": "B.O",
    "Deliverystatus": "Delivery",
    "divisionname": "Hissar",
    "regionname": "Ambala  HQ",
    "circlename": "Haryana",
    "Taluk": "Hansi",
    "Districtname": "Hisar",
    "statename": "HARYANA"
  },
  {
    "pincode": "125033",
    "officename": "Puthimangal Khan B.O",
    "officeType": "B.O",
    "Deliverystatus": "Delivery",
    "divisionname": "Hissar",
    "regionname": "Ambala  HQ",
    "circlename": "Haryana",
    "Taluk": "Hansi",
    "Districtname": "Hisar",
    "statename": "HARYANA"
  },
  {
    "pincode": "125033",
    "officename": "Shaikhpura B.O",
    "officeType": "B.O",
    "Deliverystatus": "Delivery",
    "divisionname": "Hissar",
    "regionname": "Ambala  HQ",
    "circlename": "Haryana",
    "Taluk": "Hansi",
    "Districtname": "Hisar",
    "statename": "HARYANA"
  },
  {
    "pincode": "125033",
    "officename": "Sindher B.O",
    "officeType": "B.O",
    "Deliverystatus": "Delivery",
    "divisionname": "Hissar",
    "regionname": "Ambala  HQ",
    "circlename": "Haryana",
    "Taluk": "Hansi",
    "Districtname": "Hisar",
    "statename": "HARYANA"
  },
  {
    "pincode": "125033",
    "officename": "Sorkhi B.O",
    "officeType": "B.O",
    "Deliverystatus": "Delivery",
    "divisionname": "Hissar",
    "regionname": "Ambala  HQ",
    "circlename": "Haryana",
    "Taluk": "Hansi",
    "Districtname": "Hisar",
    "statename": "HARYANA"
  },
  {
    "pincode": "125033",
    "officename": "Sultanpur B.O",
    "officeType": "B.O",
    "Deliverystatus": "Delivery",
    "divisionname": "Hissar",
    "regionname": "Ambala  HQ",
    "circlename": "Haryana",
    "Taluk": "Hansi",
    "Districtname": "Hisar",
    "statename": "HARYANA"
  },
  {
    "pincode": "125033",
    "officename": "T C Hansi S.O",
    "officeType": "S.O",
    "Deliverystatus": "Non-Delivery",
    "divisionname": "Hissar",
    "regionname": "Ambala  HQ",
    "circlename": "Haryana",
    "Taluk": "Hansi",
    "Districtname": "Hisar",
    "statename": "HARYANA"
  },
  {
    "pincode": "125033",
    "officename": "Thurana B.O",
    "officeType": "B.O",
    "Deliverystatus": "Delivery",
    "divisionname": "Hissar",
    "regionname": "Ambala  HQ",
    "circlename": "Haryana",
    "Taluk": "Hansi",
    "Districtname": "Hisar",
    "statename": "HARYANA"
  },
  {
    "pincode": "125033",
    "officename": "Umra B.O",
    "officeType": "B.O",
    "Deliverystatus": "Delivery",
    "divisionname": "Hissar",
    "regionname": "Ambala  HQ",
    "circlename": "Haryana",
    "Taluk": "Hansi",
    "Districtname": "Hisar",
    "statename": "HARYANA"
  }
]
