[
  {
    "pincode": "125050",
    "officename": "Ahlisadar B.O",
    "officeType": "B.O",
    "Deliverystatus": "Delivery",
    "divisionname": "Hissar",
    "regionname": "Ambala  HQ",
    "circlename": "Haryana",
    "Taluk": "Fatehabad",
    "Districtname": "Fatehabad",
    "statename": "HARYANA"
  },
  {
    "pincode": "125050",
    "officename": "Bangaon B.O",
    "officeType": "B.O",
    "Deliverystatus": "Delivery",
    "divisionname": "Hissar",
    "regionname": "Ambala  HQ",
    "circlename": "Haryana",
    "Taluk": "Fatehabad",
    "Districtname": "Fatehabad",
    "statename": "HARYANA"
  },
  {
    "pincode": "125050",
    "officename": "Banwali B.O",
    "officeType": "B.O",
    "Deliverystatus": "Delivery",
    "divisionname": "Hissar",
    "regionname": "Ambala  HQ",
    "circlename": "Haryana",
    "Taluk": "Fatehabad",
    "Districtname": "Fatehabad",
    "statename": "HARYANA"
  },
  {
    "pincode": "125050",
    "officename": "Bhirrana B.O",
    "officeType": "B.O",
    "Deliverystatus": "Delivery",
    "divisionname": "Hissar",
    "regionname": "Ambala  HQ",
    "circlename": "Haryana",
    "Taluk": "Fatehabad",
    "Districtname": "Fatehabad",
    "statename": "HARYANA"
  },
  {
    "pincode": "125050",
    "officename": "Bhodia Bishnoian B.O",
    "officeType": "B.O",
    "Deliverystatus": "Delivery",
    "divisionname": "Hissar",
    "regionname": "Ambala  HQ",
    "circlename": "Haryana",
    "Taluk": "Fatehabad",
    "Districtname": "Fatehabad",
    "statename": "HARYANA"
  },
  {
    "pincode": "125050",
    "officename": "Bhodia Khera B.O",
    "officeType": "B.O",
    "Deliverystatus": "Delivery",
    "divisionname": "Hissar",
    "regionname": "Ambala  HQ",
    "circlename": "Haryana",
    "Taluk": "Fatehabad",
    "Districtname": "Fatehabad",
    "statename": "HARYANA"
  },
  {
    "pincode": "125050",
    "officename": "Bhuthan Kalan B.O",
    "officeType": "B.O",
    "Deliverystatus": "Delivery",
    "divisionname": "Hissar",
    "regionname": "Ambala  HQ",
    "circlename": "Haryana",
    "Taluk": "Fatehabad",
    "Districtname": "Fatehabad",
    "statename": "HARYANA"
  },
  {
    "pincode": "125050",
    "officename": "Bighar B.O",
    "officeType": "B.O",
    "Deliverystatus": "Delivery",
    "divisionname": "Hissar",
    "regionname": "Ambala  HQ",
    "circlename": "Haryana",
    "Taluk": "Fatehabad",
    "Districtname": "Fatehabad",
    "statename": "HARYANA"
  },
  {
    "pincode": "125050",
    "officename": "Daryapur B.O",
    "officeType": "B.O",
    "Deliverystatus": "Delivery",
    "divisionname": "Hissar",
    "regionname": "Ambala  HQ",
    "circlename": "Haryana",
    "Taluk": "Fatehabad",
    "Districtname": "Fatehabad",
    "statename": "HARYANA"
  },
  {
    "pincode": "125050",
    "officename": "Dhand B.O",
    "officeType": "B.O",
    "Deliverystatus": "Delivery",
    "divisionname": "Hissar",
    "regionname": "Ambala  HQ",
    "circlename": "Haryana",
    "Taluk": "Fatehabad",
    "Districtname": "Fatehabad",
    "statename": "HARYANA"
  },
  {
    "pincode": "125050",
    "officename": "Dhani Majra B.O",
    "officeType": "B.O",
    "Deliverystatus": "Delivery",
    "divisionname": "Hissar",
    "regionname": "Ambala  HQ",
    "circlename": "Haryana",
    "Taluk": "Fatehabad",
    "Districtname": "Fatehabad",
    "statename": "HARYANA"
  },
  {
    "pincode": "125050",
    "officename": "Fatehabad S.O (Fatehabad)",
    "officeType": "S.O",
    "Deliverystatus": "Delivery",
    "divisionname": "Hissar",
    "regionname": "Ambala  HQ",
    "circlename": "Haryana",
    "Taluk": "Fatehabad",
    "Districtname": "Fatehabad",
    "statename": "HARYANA"
  },
  {
    "pincode": "125050",
    "officename": "Fatehabd Kty S.O",
    "officeType": "S.O",
    "Deliverystatus": "Non-Delivery",
    "divisionname": "Hissar",
    "regionname": "Ambala  HQ",
    "circlename": "Haryana",
    "Taluk": "Fatehabad",
    "Districtname": "Fatehabad",
    "statename": "HARYANA"
  },
  {
    "pincode": "125050",
    "officename": "Gillan Khera B.O",
    "officeType": "B.O",
    "Deliverystatus": "Delivery",
    "divisionname": "Hissar",
    "regionname": "Ambala  HQ",
    "circlename": "Haryana",
    "Taluk": "Fatehabad",
    "Districtname": "Fatehabad",
    "statename": "HARYANA"
  },
  {
    "pincode": "125050",
    "officename": "Hajrawan Kalan B.O",
    "officeType": "B.O",
    "Deliverystatus": "Delivery",
    "divisionname": "Hissar",
    "regionname": "Ambala  HQ",
    "circlename": "Haryana",
    "Taluk": "Fatehabad",
    "Districtname": "Fatehabad",
    "statename": "HARYANA"
  },
  {
    "pincode": "125050",
    "officename": "Hajrawan Khurd B.O",
    "officeType": "B.O",
    "Deliverystatus": "Delivery",
    "divisionname": "Hissar",
    "regionname": "Ambala  HQ",
    "circlename": "Haryana",
    "Taluk": "Fatehabad",
    "Districtname": "Fatehabad",
    "statename": "HARYANA"
  },
  {
    "pincode": "125050",
    "officename": "Jhalnia B.O",
    "officeType": "B.O",
    "Deliverystatus": "Delivery",
    "divisionname": "Hissar",
    "regionname": "Ambala  HQ",
    "circlename": "Haryana",
    "Taluk": "Fatehabad",
    "Districtname": "Fatehabad",
    "statename": "HARYANA"
  },
  {
    "pincode": "125050",
    "officename": "Karnoli B.O",
    "officeType": "B.O",
    "Deliverystatus": "Delivery",
    "divisionname": "Hissar",
    "regionname": "Ambala  HQ",
    "circlename": "Haryana",
    "Taluk": "Fatehabad",
    "Districtname": "Fatehabad",
    "statename": "HARYANA"
  },
  {
    "pincode": "125050",
    "officename": "Khairati Khera B.O",
    "officeType": "B.O",
    "Deliverystatus": "Delivery",
    "divisionname": "Hissar",
    "regionname": "Ambala  HQ",
    "circlename": "Haryana",
    "Taluk": "Fatehabad",
    "Districtname": "Fatehabad",
    "statename": "HARYANA"
  },
  {
    "pincode": "125050",
    "officename": "Kukranwali B.O",
    "officeType": "B.O",
    "Deliverystatus": "Delivery",
    "divisionname": "Hissar",
    "regionname": "Ambala  HQ",
    "circlename": "Haryana",
    "Taluk": "Fatehabad",
    "Districtname": "Fatehabad",
    "statename": "HARYANA"
  },
  {
    "pincode": "125050",
    "officename": "Munawali B.O",
    "officeType": "B.O",
    "Deliverystatus": "Delivery",
    "divisionname": "Hissar",
    "regionname": "Ambala  HQ",
    "circlename": "Haryana",
    "Taluk": "Fatehabad",
    "Districtname": "Fatehabad",
    "statename": "HARYANA"
  },
  {
    "pincode": "125050",
    "officename": "Nai Mandi Fatehabad S.O",
    "officeType": "S.O",
    "Deliverystatus": "Non-Delivery",
    "divisionname": "Hissar",
    "regionname": "Ambala  HQ",
    "circlename": "Haryana",
    "Taluk": "Fatehabad",
    "Districtname": "Fatehabad",
    "statename": "HARYANA"
  },
  {
    "pincode": "125050",
    "officename": "Nakhatia B.O",
    "officeType": "B.O",
    "Deliverystatus": "Delivery",
    "divisionname": "Hissar",
    "regionname": "Ambala  HQ",
    "circlename": "Haryana",
    "Taluk": "Fatehabad",
    "Districtname": "Fatehabad",
    "statename": "HARYANA"
  },
  {
    "pincode": "125050",
    "officename": "Ratta Tibba B.O",
    "officeType": "B.O",
    "Deliverystatus": "Delivery",
    "divisionname": "Hissar",
    "regionname": "Ambala  HQ",
    "circlename": "Haryana",
    "Taluk": "Fatehabad",
    "Districtname": "Fatehabad",
    "statename": "HARYANA"
  },
  {
    "pincode": "125050",
    "officename": "Thori B.O",
    "officeType": "B.O",
    "Deliverystatus": "Delivery",
    "divisionname": "Hissar",
    "regionname": "Ambala  HQ",
    "circlename": "Haryana",
    "Taluk": "Fatehabad",
    "Districtname": "Fatehabad",
    "statename": "HARYANA"
  }
]
