[
  {
    "pincode": "125060",
    "officename": "Baidwala B.O",
    "officeType": "B.O",
    "Deliverystatus": "Delivery",
    "divisionname": "Hissar",
    "regionname": "Ambala  HQ",
    "circlename": "Haryana",
    "Taluk": "Sirsa",
    "Districtname": "Sirsa",
    "statename": "HARYANA"
  },
  {
    "pincode": "125060",
    "officename": "Bajekan B.O",
    "officeType": "B.O",
    "Deliverystatus": "Delivery",
    "divisionname": "Hissar",
    "regionname": "Ambala  HQ",
    "circlename": "Haryana",
    "Taluk": "Sirsa",
    "Districtname": "Sirsa",
    "statename": "HARYANA"
  },
  {
    "pincode": "125060",
    "officename": "Bharokhan B.O",
    "officeType": "B.O",
    "Deliverystatus": "Delivery",
    "divisionname": "Hissar",
    "regionname": "Ambala  HQ",
    "circlename": "Haryana",
    "Taluk": "Sirsa",
    "Districtname": "Sirsa",
    "statename": "HARYANA"
  },
  {
    "pincode": "125060",
    "officename": "Darbi B.O",
    "officeType": "B.O",
    "Deliverystatus": "Delivery",
    "divisionname": "Hissar",
    "regionname": "Ambala  HQ",
    "circlename": "Haryana",
    "Taluk": "Sirsa",
    "Districtname": "Sirsa",
    "statename": "HARYANA"
  },
  {
    "pincode": "125060",
    "officename": "Furwain Kalan B.O",
    "officeType": "B.O",
    "Deliverystatus": "Delivery",
    "divisionname": "Hissar",
    "regionname": "Ambala  HQ",
    "circlename": "Haryana",
    "Taluk": "Sirsa",
    "Districtname": "Sirsa",
    "statename": "HARYANA"
  },
  {
    "pincode": "125060",
    "officename": "Moriwala B.O",
    "officeType": "B.O",
    "Deliverystatus": "Delivery",
    "divisionname": "Hissar",
    "regionname": "Ambala  HQ",
    "circlename": "Haryana",
    "Taluk": "Sirsa",
    "Districtname": "Sirsa",
    "statename": "HARYANA"
  },
  {
    "pincode": "125060",
    "officename": "Nozadela Kalan B.O",
    "officeType": "B.O",
    "Deliverystatus": "Delivery",
    "divisionname": "Hissar",
    "regionname": "Ambala  HQ",
    "circlename": "Haryana",
    "Taluk": "Sirsa",
    "Districtname": "Sirsa",
    "statename": "HARYANA"
  },
  {
    "pincode": "125060",
    "officename": "Nozia Khera B.O",
    "officeType": "B.O",
    "Deliverystatus": "Delivery",
    "divisionname": "Hissar",
    "regionname": "Ambala  HQ",
    "circlename": "Haryana",
    "Taluk": "Sirsa",
    "Districtname": "Sirsa",
    "statename": "HARYANA"
  },
  {
    "pincode": "125060",
    "officename": "Phulkan B.O",
    "officeType": "B.O",
    "Deliverystatus": "Delivery",
    "divisionname": "Hissar",
    "regionname": "Ambala  HQ",
    "circlename": "Haryana",
    "Taluk": "Sirsa",
    "Districtname": "Sirsa",
    "statename": "HARYANA"
  },
  {
    "pincode": "125060",
    "officename": "Sikander Pur S.O",
    "officeType": "S.O",
    "Deliverystatus": "Delivery",
    "divisionname": "Hissar",
    "regionname": "Ambala  HQ",
    "circlename": "Haryana",
    "Taluk": "Sirsa",
    "Districtname": "Sirsa",
    "statename": "HARYANA"
  }
]
