[
  {
    "pincode": "125051",
    "officename": "Aharwan B.O",
    "officeType": "B.O",
    "Deliverystatus": "Delivery",
    "divisionname": "Hissar",
    "regionname": "Ambala  HQ",
    "circlename": "Haryana",
    "Taluk": "Rattia",
    "Districtname": "Fatehabad",
    "statename": "HARYANA"
  },
  {
    "pincode": "125051",
    "officename": "Alika B.O",
    "officeType": "B.O",
    "Deliverystatus": "Delivery",
    "divisionname": "Hissar",
    "regionname": "Ambala  HQ",
    "circlename": "Haryana",
    "Taluk": "Rattia",
    "Districtname": "Fatehabad",
    "statename": "HARYANA"
  },
  {
    "pincode": "125051",
    "officename": "Ayalki B.O",
    "officeType": "B.O",
    "Deliverystatus": "Delivery",
    "divisionname": "Hissar",
    "regionname": "Ambala  HQ",
    "circlename": "Haryana",
    "Taluk": "Rattia",
    "Districtname": "Fatehabad",
    "statename": "HARYANA"
  },
  {
    "pincode": "125051",
    "officename": "Badalgarh B.O",
    "officeType": "B.O",
    "Deliverystatus": "Delivery",
    "divisionname": "Hissar",
    "regionname": "Ambala  HQ",
    "circlename": "Haryana",
    "Taluk": "Rattia",
    "Districtname": "Fatehabad",
    "statename": "HARYANA"
  },
  {
    "pincode": "125051",
    "officename": "Bahmanwala B.O",
    "officeType": "B.O",
    "Deliverystatus": "Delivery",
    "divisionname": "Hissar",
    "regionname": "Ambala  HQ",
    "circlename": "Haryana",
    "Taluk": "Rattia",
    "Districtname": "Fatehabad",
    "statename": "HARYANA"
  },
  {
    "pincode": "125051",
    "officename": "Baliala B.O",
    "officeType": "B.O",
    "Deliverystatus": "Delivery",
    "divisionname": "Hissar",
    "regionname": "Ambala  HQ",
    "circlename": "Haryana",
    "Taluk": "Rattia",
    "Districtname": "Fatehabad",
    "statename": "HARYANA"
  },
  {
    "pincode": "125051",
    "officename": "Biranbadi B.O",
    "officeType": "B.O",
    "Deliverystatus": "Delivery",
    "divisionname": "Hissar",
    "regionname": "Ambala  HQ",
    "circlename": "Haryana",
    "Taluk": "Rattia",
    "Districtname": "Fatehabad",
    "statename": "HARYANA"
  },
  {
    "pincode": "125051",
    "officename": "Bora B.O",
    "officeType": "B.O",
    "Deliverystatus": "Delivery",
    "divisionname": "Hissar",
    "regionname": "Ambala  HQ",
    "circlename": "Haryana",
    "Taluk": "Rattia",
    "Districtname": "Fatehabad",
    "statename": "HARYANA"
  },
  {
    "pincode": "125051",
    "officename": "Chandoh Kalan B.O",
    "officeType": "B.O",
    "Deliverystatus": "Delivery",
    "divisionname": "Hissar",
    "regionname": "Ambala  HQ",
    "circlename": "Haryana",
    "Taluk": "Rattia",
    "Districtname": "Fatehabad",
    "statename": "HARYANA"
  },
  {
    "pincode": "125051",
    "officename": "Chimmon B.O",
    "officeType": "B.O",
    "Deliverystatus": "Delivery",
    "divisionname": "Hissar",
    "regionname": "Ambala  HQ",
    "circlename": "Haryana",
    "Taluk": "Rattia",
    "Districtname": "Fatehabad",
    "statename": "HARYANA"
  },
  {
    "pincode": "125051",
    "officename": "Ganda B.O",
    "officeType": "B.O",
    "Deliverystatus": "Delivery",
    "divisionname": "Hissar",
    "regionname": "Ambala  HQ",
    "circlename": "Haryana",
    "Taluk": "Rattia",
    "Districtname": "Fatehabad",
    "statename": "HARYANA"
  },
  {
    "pincode": "125051",
    "officename": "Gurusar B.O",
    "officeType": "B.O",
    "Deliverystatus": "Delivery",
    "divisionname": "Hissar",
    "regionname": "Ambala  HQ",
    "circlename": "Haryana",
    "Taluk": "Rattia",
    "Districtname": "Fatehabad",
    "statename": "HARYANA"
  },
  {
    "pincode": "125051",
    "officename": "Hamzapur B.O",
    "officeType": "B.O",
    "Deliverystatus": "Delivery",
    "divisionname": "Hissar",
    "regionname": "Ambala  HQ",
    "circlename": "Haryana",
    "Taluk": "Rattia",
    "Districtname": "Fatehabad",
    "statename": "HARYANA"
  },
  {
    "pincode": "125051",
    "officename": "Hanspur B.O",
    "officeType": "B.O",
    "Deliverystatus": "Delivery",
    "divisionname": "Hissar",
    "regionname": "Ambala  HQ",
    "circlename": "Haryana",
    "Taluk": "Rattia",
    "Districtname": "Fatehabad",
    "statename": "HARYANA"
  },
  {
    "pincode": "125051",
    "officename": "Haroli B.O",
    "officeType": "B.O",
    "Deliverystatus": "Delivery",
    "divisionname": "Hissar",
    "regionname": "Ambala  HQ",
    "circlename": "Haryana",
    "Taluk": "Rattia",
    "Districtname": "Fatehabad",
    "statename": "HARYANA"
  },
  {
    "pincode": "125051",
    "officename": "Hassanga B.O",
    "officeType": "B.O",
    "Deliverystatus": "Delivery",
    "divisionname": "Hissar",
    "regionname": "Ambala  HQ",
    "circlename": "Haryana",
    "Taluk": "Rattia",
    "Districtname": "Fatehabad",
    "statename": "HARYANA"
  },
  {
    "pincode": "125051",
    "officename": "Jallopur B.O",
    "officeType": "B.O",
    "Deliverystatus": "Delivery",
    "divisionname": "Hissar",
    "regionname": "Ambala  HQ",
    "circlename": "Haryana",
    "Taluk": "Rattia",
    "Districtname": "Fatehabad",
    "statename": "HARYANA"
  },
  {
    "pincode": "125051",
    "officename": "Kamana B.O",
    "officeType": "B.O",
    "Deliverystatus": "Delivery",
    "divisionname": "Hissar",
    "regionname": "Ambala  HQ",
    "circlename": "Haryana",
    "Taluk": "Rattia",
    "Districtname": "Fatehabad",
    "statename": "HARYANA"
  },
  {
    "pincode": "125051",
    "officename": "Khunan B.O",
    "officeType": "B.O",
    "Deliverystatus": "Delivery",
    "divisionname": "Hissar",
    "regionname": "Ambala  HQ",
    "circlename": "Haryana",
    "Taluk": "Rattia",
    "Districtname": "Fatehabad",
    "statename": "HARYANA"
  },
  {
    "pincode": "125051",
    "officename": "Laduwas B.O",
    "officeType": "B.O",
    "Deliverystatus": "Delivery",
    "divisionname": "Hissar",
    "regionname": "Ambala  HQ",
    "circlename": "Haryana",
    "Taluk": "Rattia",
    "Districtname": "Fatehabad",
    "statename": "HARYANA"
  },
  {
    "pincode": "125051",
    "officename": "Lali B.O",
    "officeType": "B.O",
    "Deliverystatus": "Delivery",
    "divisionname": "Hissar",
    "regionname": "Ambala  HQ",
    "circlename": "Haryana",
    "Taluk": "Rattia",
    "Districtname": "Fatehabad",
    "statename": "HARYANA"
  },
  {
    "pincode": "125051",
    "officename": "Marh B.O",
    "officeType": "B.O",
    "Deliverystatus": "Delivery",
    "divisionname": "Hissar",
    "regionname": "Ambala  HQ",
    "circlename": "Haryana",
    "Taluk": "Rattia",
    "Districtname": "Hisar",
    "statename": "HARYANA"
  },
  {
    "pincode": "125051",
    "officename": "Mehmra B.O",
    "officeType": "B.O",
    "Deliverystatus": "Delivery",
    "divisionname": "Hissar",
    "regionname": "Ambala  HQ",
    "circlename": "Haryana",
    "Taluk": "Rattia",
    "Districtname": "Fatehabad",
    "statename": "HARYANA"
  },
  {
    "pincode": "125051",
    "officename": "Mirana B.O",
    "officeType": "B.O",
    "Deliverystatus": "Delivery",
    "divisionname": "Hissar",
    "regionname": "Ambala  HQ",
    "circlename": "Haryana",
    "Taluk": "Rattia",
    "Districtname": "Fatehabad",
    "statename": "HARYANA"
  },
  {
    "pincode": "125051",
    "officename": "Mohmadpur Sotter B.O",
    "officeType": "B.O",
    "Deliverystatus": "Delivery",
    "divisionname": "Hissar",
    "regionname": "Ambala  HQ",
    "circlename": "Haryana",
    "Taluk": "Rattia",
    "Districtname": "Fatehabad",
    "statename": "HARYANA"
  },
  {
    "pincode": "125051",
    "officename": "Nagpur B.O",
    "officeType": "B.O",
    "Deliverystatus": "Delivery",
    "divisionname": "Hissar",
    "regionname": "Ambala  HQ",
    "circlename": "Haryana",
    "Taluk": "Rattia",
    "Districtname": "Fatehabad",
    "statename": "HARYANA"
  },
  {
    "pincode": "125051",
    "officename": "Nangal B.O",
    "officeType": "B.O",
    "Deliverystatus": "Delivery",
    "divisionname": "Hissar",
    "regionname": "Ambala  HQ",
    "circlename": "Haryana",
    "Taluk": "Rattia",
    "Districtname": "Fatehabad",
    "statename": "HARYANA"
  },
  {
    "pincode": "125051",
    "officename": "Nathwan B.O",
    "officeType": "B.O",
    "Deliverystatus": "Delivery",
    "divisionname": "Hissar",
    "regionname": "Ambala  HQ",
    "circlename": "Haryana",
    "Taluk": "Rattia",
    "Districtname": "Fatehabad",
    "statename": "HARYANA"
  },
  {
    "pincode": "125051",
    "officename": "Palsar B.O",
    "officeType": "B.O",
    "Deliverystatus": "Delivery",
    "divisionname": "Hissar",
    "regionname": "Ambala  HQ",
    "circlename": "Haryana",
    "Taluk": "Rattia",
    "Districtname": "Hisar",
    "statename": "HARYANA"
  },
  {
    "pincode": "125051",
    "officename": "Phullan B.O",
    "officeType": "B.O",
    "Deliverystatus": "Delivery",
    "divisionname": "Hissar",
    "regionname": "Ambala  HQ",
    "circlename": "Haryana",
    "Taluk": "Rattia",
    "Districtname": "Fatehabad",
    "statename": "HARYANA"
  },
  {
    "pincode": "125051",
    "officename": "Pilchhian B.O",
    "officeType": "B.O",
    "Deliverystatus": "Delivery",
    "divisionname": "Hissar",
    "regionname": "Ambala  HQ",
    "circlename": "Haryana",
    "Taluk": "Rattia",
    "Districtname": "Fatehabad",
    "statename": "HARYANA"
  },
  {
    "pincode": "125051",
    "officename": "Ratta Khera B.O",
    "officeType": "B.O",
    "Deliverystatus": "Delivery",
    "divisionname": "Hissar",
    "regionname": "Ambala  HQ",
    "circlename": "Haryana",
    "Taluk": "Rattia",
    "Districtname": "Fatehabad",
    "statename": "HARYANA"
  },
  {
    "pincode": "125051",
    "officename": "Rattia S.O",
    "officeType": "S.O",
    "Deliverystatus": "Delivery",
    "divisionname": "Hissar",
    "regionname": "Ambala  HQ",
    "circlename": "Haryana",
    "Taluk": "Tohana",
    "Districtname": "Fatehabad",
    "statename": "HARYANA"
  },
  {
    "pincode": "125051",
    "officename": "Sheikhpur Sotter B.O",
    "officeType": "B.O",
    "Deliverystatus": "Delivery",
    "divisionname": "Hissar",
    "regionname": "Ambala  HQ",
    "circlename": "Haryana",
    "Taluk": "Rattia",
    "Districtname": "Fatehabad",
    "statename": "HARYANA"
  }
]
