[
  {
    "pincode": "125047",
    "officename": "Agroha S.O",
    "officeType": "S.O",
    "Deliverystatus": "Delivery",
    "divisionname": "Hissar",
    "regionname": "Ambala  HQ",
    "circlename": "Haryana",
    "Taluk": "Hisar",
    "Districtname": "Hisar",
    "statename": "HARYANA"
  },
  {
    "pincode": "125047",
    "officename": "Bhoda B.O",
    "officeType": "B.O",
    "Deliverystatus": "Delivery",
    "divisionname": "Hissar",
    "regionname": "Ambala  HQ",
    "circlename": "Haryana",
    "Taluk": "Hisar",
    "Districtname": "Hisar",
    "statename": "HARYANA"
  },
  {
    "pincode": "125047",
    "officename": "Chikanwas B.O",
    "officeType": "B.O",
    "Deliverystatus": "Delivery",
    "divisionname": "Hissar",
    "regionname": "Ambala  HQ",
    "circlename": "Haryana",
    "Taluk": "Hisar",
    "Districtname": "Hisar",
    "statename": "HARYANA"
  },
  {
    "pincode": "125047",
    "officename": "Gorakhpur B.O",
    "officeType": "B.O",
    "Deliverystatus": "Delivery",
    "divisionname": "Hissar",
    "regionname": "Ambala  HQ",
    "circlename": "Haryana",
    "Taluk": "Hisar",
    "Districtname": "Hisar",
    "statename": "HARYANA"
  },
  {
    "pincode": "125047",
    "officename": "Kirmara B.O",
    "officeType": "B.O",
    "Deliverystatus": "Delivery",
    "divisionname": "Hissar",
    "regionname": "Ambala  HQ",
    "circlename": "Haryana",
    "Taluk": "Hisar",
    "Districtname": "Hisar",
    "statename": "HARYANA"
  },
  {
    "pincode": "125047",
    "officename": "Kuleri B.O",
    "officeType": "B.O",
    "Deliverystatus": "Delivery",
    "divisionname": "Hissar",
    "regionname": "Ambala  HQ",
    "circlename": "Haryana",
    "Taluk": "Hisar",
    "Districtname": "Hisar",
    "statename": "HARYANA"
  },
  {
    "pincode": "125047",
    "officename": "Kumaharia B.O",
    "officeType": "B.O",
    "Deliverystatus": "Delivery",
    "divisionname": "Hissar",
    "regionname": "Ambala  HQ",
    "circlename": "Haryana",
    "Taluk": "",
    "Districtname": "Hisar",
    "statename": "HARYANA"
  },
  {
    "pincode": "125047",
    "officename": "Landhari B.O",
    "officeType": "B.O",
    "Deliverystatus": "Delivery",
    "divisionname": "Hissar",
    "regionname": "Ambala  HQ",
    "circlename": "Haryana",
    "Taluk": "Hisar",
    "Districtname": "Hisar",
    "statename": "HARYANA"
  },
  {
    "pincode": "125047",
    "officename": "Nangthala B.O",
    "officeType": "B.O",
    "Deliverystatus": "Delivery",
    "divisionname": "Hissar",
    "regionname": "Ambala  HQ",
    "circlename": "Haryana",
    "Taluk": "Hisar",
    "Districtname": "Hisar",
    "statename": "HARYANA"
  },
  {
    "pincode": "125047",
    "officename": "Sandol B.O",
    "officeType": "B.O",
    "Deliverystatus": "Delivery",
    "divisionname": "Hissar",
    "regionname": "Ambala  HQ",
    "circlename": "Haryana",
    "Taluk": "Hisar",
    "Districtname": "Hisar",
    "statename": "HARYANA"
  },
  {
    "pincode": "125047",
    "officename": "Shamukh B.O",
    "officeType": "B.O",
    "Deliverystatus": "Delivery",
    "divisionname": "Hissar",
    "regionname": "Ambala  HQ",
    "circlename": "Haryana",
    "Taluk": "Hisar",
    "Districtname": "Hisar",
    "statename": "HARYANA"
  },
  {
    "pincode": "125047",
    "officename": "Siwani Bolan B.O",
    "officeType": "B.O",
    "Deliverystatus": "Delivery",
    "divisionname": "Hissar",
    "regionname": "Ambala  HQ",
    "circlename": "Haryana",
    "Taluk": "Hisar",
    "Districtname": "Hisar",
    "statename": "HARYANA"
  },
  {
    "pincode": "125047",
    "officename": "Thaska B.O",
    "officeType": "B.O",
    "Deliverystatus": "Delivery",
    "divisionname": "Hissar",
    "regionname": "Ambala  HQ",
    "circlename": "Haryana",
    "Taluk": "Hisar",
    "Districtname": "Hisar",
    "statename": "HARYANA"
  }
]
