[
  {
    "pincode": "125113",
    "officename": "Bithmara B.O",
    "officeType": "B.O",
    "Deliverystatus": "Delivery",
    "divisionname": "Hissar",
    "regionname": "Ambala  HQ",
    "circlename": "Haryana",
    "Taluk": "Hisar",
    "Districtname": "Fatehabad",
    "statename": "HARYANA"
  },
  {
    "pincode": "125113",
    "officename": "Bobua B.O",
    "officeType": "B.O",
    "Deliverystatus": "Delivery",
    "divisionname": "Hissar",
    "regionname": "Ambala  HQ",
    "circlename": "Haryana",
    "Taluk": "Hisar",
    "Districtname": "Hisar",
    "statename": "HARYANA"
  },
  {
    "pincode": "125113",
    "officename": "Bosti B.O",
    "officeType": "B.O",
    "Deliverystatus": "Delivery",
    "divisionname": "Hissar",
    "regionname": "Ambala  HQ",
    "circlename": "Haryana",
    "Taluk": "Hisar",
    "Districtname": "Fatehabad",
    "statename": "HARYANA"
  },
  {
    "pincode": "125113",
    "officename": "Bowan B.O",
    "officeType": "B.O",
    "Deliverystatus": "Delivery",
    "divisionname": "Hissar",
    "regionname": "Ambala  HQ",
    "circlename": "Haryana",
    "Taluk": "Hisar",
    "Districtname": "Fatehabad",
    "statename": "HARYANA"
  },
  {
    "pincode": "125113",
    "officename": "Chamar Khera B.O",
    "officeType": "B.O",
    "Deliverystatus": "Delivery",
    "divisionname": "Hissar",
    "regionname": "Ambala  HQ",
    "circlename": "Haryana",
    "Taluk": "Hisar",
    "Districtname": "Hisar",
    "statename": "HARYANA"
  },
  {
    "pincode": "125113",
    "officename": "Hassangarh B.O",
    "officeType": "B.O",
    "Deliverystatus": "Delivery",
    "divisionname": "Hissar",
    "regionname": "Ambala  HQ",
    "circlename": "Haryana",
    "Taluk": "Hisar",
    "Districtname": "Hisar",
    "statename": "HARYANA"
  },
  {
    "pincode": "125113",
    "officename": "Kaller Bhaini B.O",
    "officeType": "B.O",
    "Deliverystatus": "Delivery",
    "divisionname": "Hissar",
    "regionname": "Ambala  HQ",
    "circlename": "Haryana",
    "Taluk": "Hisar",
    "Districtname": "Hisar",
    "statename": "HARYANA"
  },
  {
    "pincode": "125113",
    "officename": "Kumba Khera B.O",
    "officeType": "B.O",
    "Deliverystatus": "Delivery",
    "divisionname": "Hissar",
    "regionname": "Ambala  HQ",
    "circlename": "Haryana",
    "Taluk": "Hisar",
    "Districtname": "Hisar",
    "statename": "HARYANA"
  },
  {
    "pincode": "125113",
    "officename": "Litani B.O",
    "officeType": "B.O",
    "Deliverystatus": "Delivery",
    "divisionname": "Hissar",
    "regionname": "Ambala  HQ",
    "circlename": "Haryana",
    "Taluk": "Hisar",
    "Districtname": "Hisar",
    "statename": "HARYANA"
  },
  {
    "pincode": "125113",
    "officename": "Parbhuwala B.O",
    "officeType": "B.O",
    "Deliverystatus": "Delivery",
    "divisionname": "Hissar",
    "regionname": "Ambala  HQ",
    "circlename": "Haryana",
    "Taluk": "Hisar",
    "Districtname": "Hisar",
    "statename": "HARYANA"
  },
  {
    "pincode": "125113",
    "officename": "Sahu B.O",
    "officeType": "B.O",
    "Deliverystatus": "Delivery",
    "divisionname": "Hissar",
    "regionname": "Ambala  HQ",
    "circlename": "Haryana",
    "Taluk": "Hisar",
    "Districtname": "Hisar",
    "statename": "HARYANA"
  },
  {
    "pincode": "125113",
    "officename": "Saniana B.O",
    "officeType": "B.O",
    "Deliverystatus": "Delivery",
    "divisionname": "Hissar",
    "regionname": "Ambala  HQ",
    "circlename": "Haryana",
    "Taluk": "Hisar",
    "Districtname": "Hisar",
    "statename": "HARYANA"
  },
  {
    "pincode": "125113",
    "officename": "Surewala B.O",
    "officeType": "B.O",
    "Deliverystatus": "Delivery",
    "divisionname": "Hissar",
    "regionname": "Ambala  HQ",
    "circlename": "Haryana",
    "Taluk": "Hisar",
    "Districtname": "Hisar",
    "statename": "HARYANA"
  },
  {
    "pincode": "125113",
    "officename": "Uklana Mandi S.O",
    "officeType": "S.O",
    "Deliverystatus": "Delivery",
    "divisionname": "Hissar",
    "regionname": "Ambala  HQ",
    "circlename": "Haryana",
    "Taluk": "Hisar",
    "Districtname": "Hisar",
    "statename": "HARYANA"
  }
]
