[
  {
    "pincode": "125110",
    "officename": "Chadiwal B.O",
    "officeType": "B.O",
    "Deliverystatus": "Delivery",
    "divisionname": "Hissar",
    "regionname": "Ambala  HQ",
    "circlename": "Haryana",
    "Taluk": "Sirsa",
    "Districtname": "Sirsa",
    "statename": "HARYANA"
  },
  {
    "pincode": "125110",
    "officename": "Chaharwala B.O",
    "officeType": "B.O",
    "Deliverystatus": "Delivery",
    "divisionname": "Hissar",
    "regionname": "Ambala  HQ",
    "circlename": "Haryana",
    "Taluk": "Sirsa",
    "Districtname": "Sirsa",
    "statename": "HARYANA"
  },
  {
    "pincode": "125110",
    "officename": "Chopta Nathu Sari S.O",
    "officeType": "S.O",
    "Deliverystatus": "Delivery",
    "divisionname": "Hissar",
    "regionname": "Ambala  HQ",
    "circlename": "Haryana",
    "Taluk": "Sirsa",
    "Districtname": "Sirsa",
    "statename": "HARYANA"
  },
  {
    "pincode": "125110",
    "officename": "Darba Kalan B.O",
    "officeType": "B.O",
    "Deliverystatus": "Delivery",
    "divisionname": "Hissar",
    "regionname": "Ambala  HQ",
    "circlename": "Haryana",
    "Taluk": "Sirsa",
    "Districtname": "Sirsa",
    "statename": "HARYANA"
  },
  {
    "pincode": "125110",
    "officename": "Gussiana B.O",
    "officeType": "B.O",
    "Deliverystatus": "Delivery",
    "divisionname": "Hissar",
    "regionname": "Ambala  HQ",
    "circlename": "Haryana",
    "Taluk": "Sirsa",
    "Districtname": "Sirsa",
    "statename": "HARYANA"
  },
  {
    "pincode": "125110",
    "officename": "Hanziran B.O",
    "officeType": "B.O",
    "Deliverystatus": "Delivery",
    "divisionname": "Hissar",
    "regionname": "Ambala  HQ",
    "circlename": "Haryana",
    "Taluk": "Sirsa",
    "Districtname": "Sirsa",
    "statename": "HARYANA"
  },
  {
    "pincode": "125110",
    "officename": "Jamal B.O",
    "officeType": "B.O",
    "Deliverystatus": "Delivery",
    "divisionname": "Hissar",
    "regionname": "Ambala  HQ",
    "circlename": "Haryana",
    "Taluk": "Sirsa",
    "Districtname": "Sirsa",
    "statename": "HARYANA"
  },
  {
    "pincode": "125110",
    "officename": "Kagdana B.O",
    "officeType": "B.O",
    "Deliverystatus": "Delivery",
    "divisionname": "Hissar",
    "regionname": "Ambala  HQ",
    "circlename": "Haryana",
    "Taluk": "Sirsa",
    "Districtname": "Sirsa",
    "statename": "HARYANA"
  },
  {
    "pincode": "125110",
    "officename": "Ludesar B.O",
    "officeType": "B.O",
    "Deliverystatus": "Delivery",
    "divisionname": "Hissar",
    "regionname": "Ambala  HQ",
    "circlename": "Haryana",
    "Taluk": "Sirsa",
    "Districtname": "Sirsa",
    "statename": "HARYANA"
  },
  {
    "pincode": "125110",
    "officename": "Makhosarani B.O",
    "officeType": "B.O",
    "Deliverystatus": "Delivery",
    "divisionname": "Hissar",
    "regionname": "Ambala  HQ",
    "circlename": "Haryana",
    "Taluk": "Sirsa",
    "Districtname": "Sirsa",
    "statename": "HARYANA"
  },
  {
    "pincode": "125110",
    "officename": "Nathusari Kalan B.O",
    "officeType": "B.O",
    "Deliverystatus": "Delivery",
    "divisionname": "Hissar",
    "regionname": "Ambala  HQ",
    "circlename": "Haryana",
    "Taluk": "Sirsa",
    "Districtname": "Sirsa",
    "statename": "HARYANA"
  },
  {
    "pincode": "125110",
    "officename": "Rupawas B.O",
    "officeType": "B.O",
    "Deliverystatus": "Delivery",
    "divisionname": "Hissar",
    "regionname": "Ambala  HQ",
    "circlename": "Haryana",
    "Taluk": "Sirsa",
    "Districtname": "Sirsa",
    "statename": "HARYANA"
  },
  {
    "pincode": "125110",
    "officename": "Sahuwala -ii B.O",
    "officeType": "B.O",
    "Deliverystatus": "Delivery",
    "divisionname": "Hissar",
    "regionname": "Ambala  HQ",
    "circlename": "Haryana",
    "Taluk": "Sirsa",
    "Districtname": "Sirsa",
    "statename": "HARYANA"
  },
  {
    "pincode": "125110",
    "officename": "Shakar Mandori B.O",
    "officeType": "B.O",
    "Deliverystatus": "Delivery",
    "divisionname": "Hissar",
    "regionname": "Ambala  HQ",
    "circlename": "Haryana",
    "Taluk": "Sirsa",
    "Districtname": "Sirsa",
    "statename": "HARYANA"
  },
  {
    "pincode": "125110",
    "officename": "Sherpura B.O",
    "officeType": "B.O",
    "Deliverystatus": "Delivery",
    "divisionname": "Hissar",
    "regionname": "Ambala  HQ",
    "circlename": "Haryana",
    "Taluk": "Sirsa",
    "Districtname": "Sirsa",
    "statename": "HARYANA"
  }
]
