[
  {
    "pincode": "125102",
    "officename": "Amritsar Kalan B.O",
    "officeType": "B.O",
    "Deliverystatus": "Delivery",
    "divisionname": "Hissar",
    "regionname": "Ambala  HQ",
    "circlename": "Haryana",
    "Taluk": "Sirsa",
    "Districtname": "Sirsa",
    "statename": "HARYANA"
  },
  {
    "pincode": "125102",
    "officename": "Barawala Khurd B.O",
    "officeType": "B.O",
    "Deliverystatus": "Delivery",
    "divisionname": "Hissar",
    "regionname": "Ambala  HQ",
    "circlename": "Haryana",
    "Taluk": "Sirsa",
    "Districtname": "Sirsa",
    "statename": "HARYANA"
  },
  {
    "pincode": "125102",
    "officename": "Ellenabad S.O",
    "officeType": "S.O",
    "Deliverystatus": "Delivery",
    "divisionname": "Hissar",
    "regionname": "Ambala  HQ",
    "circlename": "Haryana",
    "Taluk": "Sirsa",
    "Districtname": "Sirsa",
    "statename": "HARYANA"
  },
  {
    "pincode": "125102",
    "officename": "Khari Sureran B.O",
    "officeType": "B.O",
    "Deliverystatus": "Delivery",
    "divisionname": "Hissar",
    "regionname": "Ambala  HQ",
    "circlename": "Haryana",
    "Taluk": "Sirsa",
    "Districtname": "Sirsa",
    "statename": "HARYANA"
  },
  {
    "pincode": "125102",
    "officename": "Mamera Kalan B.O",
    "officeType": "B.O",
    "Deliverystatus": "Delivery",
    "divisionname": "Hissar",
    "regionname": "Ambala  HQ",
    "circlename": "Haryana",
    "Taluk": "Sirsa",
    "Districtname": "Sirsa",
    "statename": "HARYANA"
  },
  {
    "pincode": "125102",
    "officename": "Mauju Khera B.O",
    "officeType": "B.O",
    "Deliverystatus": "Delivery",
    "divisionname": "Hissar",
    "regionname": "Ambala  HQ",
    "circlename": "Haryana",
    "Taluk": "Sirsa",
    "Districtname": "Sirsa",
    "statename": "HARYANA"
  },
  {
    "pincode": "125102",
    "officename": "Mirzapur B.O",
    "officeType": "B.O",
    "Deliverystatus": "Delivery",
    "divisionname": "Hissar",
    "regionname": "Ambala  HQ",
    "circlename": "Haryana",
    "Taluk": "Sirsa",
    "Districtname": "Sirsa",
    "statename": "HARYANA"
  },
  {
    "pincode": "125102",
    "officename": "Mithanpura B.O",
    "officeType": "B.O",
    "Deliverystatus": "Delivery",
    "divisionname": "Hissar",
    "regionname": "Ambala  HQ",
    "circlename": "Haryana",
    "Taluk": "Sirsa",
    "Districtname": "Sirsa",
    "statename": "HARYANA"
  },
  {
    "pincode": "125102",
    "officename": "Poharkan B.O",
    "officeType": "B.O",
    "Deliverystatus": "Delivery",
    "divisionname": "Hissar",
    "regionname": "Ambala  HQ",
    "circlename": "Haryana",
    "Taluk": "Hisar",
    "Districtname": "Sirsa",
    "statename": "HARYANA"
  },
  {
    "pincode": "125102",
    "officename": "Talwara Khurd B.O",
    "officeType": "B.O",
    "Deliverystatus": "Delivery",
    "divisionname": "Hissar",
    "regionname": "Ambala  HQ",
    "circlename": "Haryana",
    "Taluk": "Sirsa",
    "Districtname": "Sirsa",
    "statename": "HARYANA"
  }
]
