[
  {
    "pincode": "125106",
    "officename": "Akanwali B.O",
    "officeType": "B.O",
    "Deliverystatus": "Delivery",
    "divisionname": "Hissar",
    "regionname": "Ambala  HQ",
    "circlename": "Haryana",
    "Taluk": "Tohana",
    "Districtname": "Fatehabad",
    "statename": "HARYANA"
  },
  {
    "pincode": "125106",
    "officename": "Degoh B.O",
    "officeType": "B.O",
    "Deliverystatus": "Delivery",
    "divisionname": "Hissar",
    "regionname": "Ambala  HQ",
    "circlename": "Haryana",
    "Taluk": "Tohana",
    "Districtname": "Fatehabad",
    "statename": "HARYANA"
  },
  {
    "pincode": "125106",
    "officename": "Dharsul Kalan S.O",
    "officeType": "S.O",
    "Deliverystatus": "Delivery",
    "divisionname": "Hissar",
    "regionname": "Ambala  HQ",
    "circlename": "Haryana",
    "Taluk": "Tohana",
    "Districtname": "Fatehabad",
    "statename": "HARYANA"
  },
  {
    "pincode": "125106",
    "officename": "Diwana B.O",
    "officeType": "B.O",
    "Deliverystatus": "Delivery",
    "divisionname": "Hissar",
    "regionname": "Ambala  HQ",
    "circlename": "Haryana",
    "Taluk": "Tohana",
    "Districtname": "Fatehabad",
    "statename": "HARYANA"
  },
  {
    "pincode": "125106",
    "officename": "Handalwala B.O",
    "officeType": "B.O",
    "Deliverystatus": "Delivery",
    "divisionname": "Hissar",
    "regionname": "Ambala  HQ",
    "circlename": "Haryana",
    "Taluk": "Tohana",
    "Districtname": "Fatehabad",
    "statename": "HARYANA"
  },
  {
    "pincode": "125106",
    "officename": "Karandi B.O",
    "officeType": "B.O",
    "Deliverystatus": "Delivery",
    "divisionname": "Hissar",
    "regionname": "Ambala  HQ",
    "circlename": "Haryana",
    "Taluk": "Tohana",
    "Districtname": "Fatehabad",
    "statename": "HARYANA"
  },
  {
    "pincode": "125106",
    "officename": "Kullan B.O",
    "officeType": "B.O",
    "Deliverystatus": "Delivery",
    "divisionname": "Hissar",
    "regionname": "Ambala  HQ",
    "circlename": "Haryana",
    "Taluk": "Tohana",
    "Districtname": "Fatehabad",
    "statename": "HARYANA"
  },
  {
    "pincode": "125106",
    "officename": "Lehraian B.O",
    "officeType": "B.O",
    "Deliverystatus": "Delivery",
    "divisionname": "Hissar",
    "regionname": "Ambala  HQ",
    "circlename": "Haryana",
    "Taluk": "Tohana",
    "Districtname": "Fatehabad",
    "statename": "HARYANA"
  },
  {
    "pincode": "125106",
    "officename": "Manghera B.O",
    "officeType": "B.O",
    "Deliverystatus": "Delivery",
    "divisionname": "Hissar",
    "regionname": "Ambala  HQ",
    "circlename": "Haryana",
    "Taluk": "Tohana",
    "Districtname": "Fatehabad",
    "statename": "HARYANA"
  },
  {
    "pincode": "125106",
    "officename": "Musa Khera B.O",
    "officeType": "B.O",
    "Deliverystatus": "Delivery",
    "divisionname": "Hissar",
    "regionname": "Ambala  HQ",
    "circlename": "Haryana",
    "Taluk": "Tohana",
    "Districtname": "Fatehabad",
    "statename": "HARYANA"
  },
  {
    "pincode": "125106",
    "officename": "Nanheri B.O",
    "officeType": "B.O",
    "Deliverystatus": "Delivery",
    "divisionname": "Hissar",
    "regionname": "Ambala  HQ",
    "circlename": "Haryana",
    "Taluk": "Tohana",
    "Districtname": "Fatehabad",
    "statename": "HARYANA"
  },
  {
    "pincode": "125106",
    "officename": "Ratta Theh B.O",
    "officeType": "B.O",
    "Deliverystatus": "Delivery",
    "divisionname": "Hissar",
    "regionname": "Ambala  HQ",
    "circlename": "Haryana",
    "Taluk": "Tohana",
    "Districtname": "Fatehabad",
    "statename": "HARYANA"
  },
  {
    "pincode": "125106",
    "officename": "Shakarpura B.O",
    "officeType": "B.O",
    "Deliverystatus": "Delivery",
    "divisionname": "Hissar",
    "regionname": "Ambala  HQ",
    "circlename": "Haryana",
    "Taluk": "Tohana",
    "Districtname": "Fatehabad",
    "statename": "HARYANA"
  }
]
