[
  {
    "pincode": "125121",
    "officename": "Badhawar B.O",
    "officeType": "B.O",
    "Deliverystatus": "Delivery",
    "divisionname": "Hissar",
    "regionname": "Ambala  HQ",
    "circlename": "Haryana",
    "Taluk": "Hisar",
    "Districtname": "Hisar",
    "statename": "HARYANA"
  },
  {
    "pincode": "125121",
    "officename": "Banbhori B.O",
    "officeType": "B.O",
    "Deliverystatus": "Delivery",
    "divisionname": "Hissar",
    "regionname": "Ambala  HQ",
    "circlename": "Haryana",
    "Taluk": "Hisar",
    "Districtname": "Hisar",
    "statename": "HARYANA"
  },
  {
    "pincode": "125121",
    "officename": "Barwala Mandi S.O",
    "officeType": "S.O",
    "Deliverystatus": "Non-Delivery",
    "divisionname": "Hissar",
    "regionname": "Ambala  HQ",
    "circlename": "Haryana",
    "Taluk": "Hisar",
    "Districtname": "Hisar",
    "statename": "HARYANA"
  },
  {
    "pincode": "125121",
    "officename": "Barwala S.O (Hisar)",
    "officeType": "S.O",
    "Deliverystatus": "Delivery",
    "divisionname": "Hissar",
    "regionname": "Ambala  HQ",
    "circlename": "Haryana",
    "Taluk": "Hisar",
    "Districtname": "Hisar",
    "statename": "HARYANA"
  },
  {
    "pincode": "125121",
    "officename": "Bhaini Badshahpur B.O",
    "officeType": "B.O",
    "Deliverystatus": "Delivery",
    "divisionname": "Hissar",
    "regionname": "Ambala  HQ",
    "circlename": "Haryana",
    "Taluk": "Hisar",
    "Districtname": "Hisar",
    "statename": "HARYANA"
  },
  {
    "pincode": "125121",
    "officename": "Biana Khera B.O",
    "officeType": "B.O",
    "Deliverystatus": "Delivery",
    "divisionname": "Hissar",
    "regionname": "Ambala  HQ",
    "circlename": "Haryana",
    "Taluk": "Hisar",
    "Districtname": "Hisar",
    "statename": "HARYANA"
  },
  {
    "pincode": "125121",
    "officename": "Bugana B.O",
    "officeType": "B.O",
    "Deliverystatus": "Delivery",
    "divisionname": "Hissar",
    "regionname": "Ambala  HQ",
    "circlename": "Haryana",
    "Taluk": "Hisar",
    "Districtname": "Hisar",
    "statename": "HARYANA"
  },
  {
    "pincode": "125121",
    "officename": "Daulatpur B.O",
    "officeType": "B.O",
    "Deliverystatus": "Delivery",
    "divisionname": "Hissar",
    "regionname": "Ambala  HQ",
    "circlename": "Haryana",
    "Taluk": "Hisar",
    "Districtname": "Hisar",
    "statename": "HARYANA"
  },
  {
    "pincode": "125121",
    "officename": "Daultpur B.O",
    "officeType": "B.O",
    "Deliverystatus": "Delivery",
    "divisionname": "Hissar",
    "regionname": "Ambala  HQ",
    "circlename": "Haryana",
    "Taluk": "",
    "Districtname": "Hisar",
    "statename": "HARYANA"
  },
  {
    "pincode": "125121",
    "officename": "Dhadh B.O",
    "officeType": "B.O",
    "Deliverystatus": "Delivery",
    "divisionname": "Hissar",
    "regionname": "Ambala  HQ",
    "circlename": "Haryana",
    "Taluk": "Hisar",
    "Districtname": "Hisar",
    "statename": "HARYANA"
  },
  {
    "pincode": "125121",
    "officename": "Dhani Khan Bahadur B.O",
    "officeType": "B.O",
    "Deliverystatus": "Delivery",
    "divisionname": "Hissar",
    "regionname": "Ambala  HQ",
    "circlename": "Haryana",
    "Taluk": "Hisar",
    "Districtname": "Hisar",
    "statename": "HARYANA"
  },
  {
    "pincode": "125121",
    "officename": "Faridpur B.O",
    "officeType": "B.O",
    "Deliverystatus": "Delivery",
    "divisionname": "Hissar",
    "regionname": "Ambala  HQ",
    "circlename": "Haryana",
    "Taluk": "Hisar",
    "Districtname": "Hisar",
    "statename": "HARYANA"
  },
  {
    "pincode": "125121",
    "officename": "Gaibipur B.O",
    "officeType": "B.O",
    "Deliverystatus": "Delivery",
    "divisionname": "Hissar",
    "regionname": "Ambala  HQ",
    "circlename": "Haryana",
    "Taluk": "Hisar",
    "Districtname": "Hisar",
    "statename": "HARYANA"
  },
  {
    "pincode": "125121",
    "officename": "Gurana B.O",
    "officeType": "B.O",
    "Deliverystatus": "Delivery",
    "divisionname": "Hissar",
    "regionname": "Ambala  HQ",
    "circlename": "Haryana",
    "Taluk": "Hisar",
    "Districtname": "Hisar",
    "statename": "HARYANA"
  },
  {
    "pincode": "125121",
    "officename": "Jeora B.O",
    "officeType": "B.O",
    "Deliverystatus": "Delivery",
    "divisionname": "Hissar",
    "regionname": "Ambala  HQ",
    "circlename": "Haryana",
    "Taluk": "Hisar",
    "Districtname": "Hisar",
    "statename": "HARYANA"
  },
  {
    "pincode": "125121",
    "officename": "Kharak Punia B.O",
    "officeType": "B.O",
    "Deliverystatus": "Delivery",
    "divisionname": "Hissar",
    "regionname": "Ambala  HQ",
    "circlename": "Haryana",
    "Taluk": "Hisar",
    "Districtname": "Hisar",
    "statename": "HARYANA"
  },
  {
    "pincode": "125121",
    "officename": "Kharkara B.O",
    "officeType": "B.O",
    "Deliverystatus": "Delivery",
    "divisionname": "Hissar",
    "regionname": "Ambala  HQ",
    "circlename": "Haryana",
    "Taluk": "Hisar",
    "Districtname": "Hisar",
    "statename": "HARYANA"
  },
  {
    "pincode": "125121",
    "officename": "Khedar B.O",
    "officeType": "B.O",
    "Deliverystatus": "Delivery",
    "divisionname": "Hissar",
    "regionname": "Ambala  HQ",
    "circlename": "Haryana",
    "Taluk": "Hisar",
    "Districtname": "Hisar",
    "statename": "HARYANA"
  },
  {
    "pincode": "125121",
    "officename": "Matloda B.O",
    "officeType": "B.O",
    "Deliverystatus": "Delivery",
    "divisionname": "Hissar",
    "regionname": "Ambala  HQ",
    "circlename": "Haryana",
    "Taluk": "Hisar",
    "Districtname": "Hisar",
    "statename": "HARYANA"
  },
  {
    "pincode": "125121",
    "officename": "Panihari B.O",
    "officeType": "B.O",
    "Deliverystatus": "Delivery",
    "divisionname": "Hissar",
    "regionname": "Ambala  HQ",
    "circlename": "Haryana",
    "Taluk": "Hisar",
    "Districtname": "Hisar",
    "statename": "HARYANA"
  },
  {
    "pincode": "125121",
    "officename": "Rajli B.O",
    "officeType": "B.O",
    "Deliverystatus": "Delivery",
    "divisionname": "Hissar",
    "regionname": "Ambala  HQ",
    "circlename": "Haryana",
    "Taluk": "Hisar",
    "Districtname": "Hisar",
    "statename": "HARYANA"
  },
  {
    "pincode": "125121",
    "officename": "Sandlana B.O",
    "officeType": "B.O",
    "Deliverystatus": "Delivery",
    "divisionname": "Hissar",
    "regionname": "Ambala  HQ",
    "circlename": "Haryana",
    "Taluk": "Hisar",
    "Districtname": "Hisar",
    "statename": "HARYANA"
  },
  {
    "pincode": "125121",
    "officename": "Sarhera B.O",
    "officeType": "B.O",
    "Deliverystatus": "Delivery",
    "divisionname": "Hissar",
    "regionname": "Ambala  HQ",
    "circlename": "Haryana",
    "Taluk": "Hisar",
    "Districtname": "Hisar",
    "statename": "HARYANA"
  },
  {
    "pincode": "125121",
    "officename": "Sarsod B.O",
    "officeType": "B.O",
    "Deliverystatus": "Delivery",
    "divisionname": "Hissar",
    "regionname": "Ambala  HQ",
    "circlename": "Haryana",
    "Taluk": "Hisar",
    "Districtname": "Hisar",
    "statename": "HARYANA"
  }
]
