[
  {
    "pincode": "125120",
    "officename": "Chander Kalan B.O",
    "officeType": "B.O",
    "Deliverystatus": "Delivery",
    "divisionname": "Hissar",
    "regionname": "Ambala  HQ",
    "circlename": "Haryana",
    "Taluk": "Tohana",
    "Districtname": "Fatehabad",
    "statename": "HARYANA"
  },
  {
    "pincode": "125120",
    "officename": "Dangra B.O",
    "officeType": "B.O",
    "Deliverystatus": "Delivery",
    "divisionname": "Hissar",
    "regionname": "Ambala  HQ",
    "circlename": "Haryana",
    "Taluk": "Tohana",
    "Districtname": "Fatehabad",
    "statename": "HARYANA"
  },
  {
    "pincode": "125120",
    "officename": "Fatehpuri B.O",
    "officeType": "B.O",
    "Deliverystatus": "Delivery",
    "divisionname": "Hissar",
    "regionname": "Ambala  HQ",
    "circlename": "Haryana",
    "Taluk": "Tohana",
    "Districtname": "Fatehabad",
    "statename": "HARYANA"
  },
  {
    "pincode": "125120",
    "officename": "Gajuwala B.O",
    "officeType": "B.O",
    "Deliverystatus": "Delivery",
    "divisionname": "Hissar",
    "regionname": "Ambala  HQ",
    "circlename": "Haryana",
    "Taluk": "Tohana",
    "Districtname": "Hisar",
    "statename": "HARYANA"
  },
  {
    "pincode": "125120",
    "officename": "Inda Chhoi B.O",
    "officeType": "B.O",
    "Deliverystatus": "Delivery",
    "divisionname": "Hissar",
    "regionname": "Ambala  HQ",
    "circlename": "Haryana",
    "Taluk": "Tohana",
    "Districtname": "Fatehabad",
    "statename": "HARYANA"
  },
  {
    "pincode": "125120",
    "officename": "Jamalpur Sheikhan B.O",
    "officeType": "B.O",
    "Deliverystatus": "Delivery",
    "divisionname": "Hissar",
    "regionname": "Ambala  HQ",
    "circlename": "Haryana",
    "Taluk": "Tohana",
    "Districtname": "Fatehabad",
    "statename": "HARYANA"
  },
  {
    "pincode": "125120",
    "officename": "Kanheri B.O",
    "officeType": "B.O",
    "Deliverystatus": "Delivery",
    "divisionname": "Hissar",
    "regionname": "Ambala  HQ",
    "circlename": "Haryana",
    "Taluk": "Tohana",
    "Districtname": "Fatehabad",
    "statename": "HARYANA"
  },
  {
    "pincode": "125120",
    "officename": "Kudni B.O",
    "officeType": "B.O",
    "Deliverystatus": "Delivery",
    "divisionname": "Hissar",
    "regionname": "Ambala  HQ",
    "circlename": "Haryana",
    "Taluk": "Tohana",
    "Districtname": "Fatehabad",
    "statename": "HARYANA"
  },
  {
    "pincode": "125120",
    "officename": "Lalauda B.O",
    "officeType": "B.O",
    "Deliverystatus": "Delivery",
    "divisionname": "Hissar",
    "regionname": "Ambala  HQ",
    "circlename": "Haryana",
    "Taluk": "Tohana",
    "Districtname": "Fatehabad",
    "statename": "HARYANA"
  },
  {
    "pincode": "125120",
    "officename": "Nangla B.O",
    "officeType": "B.O",
    "Deliverystatus": "Delivery",
    "divisionname": "Hissar",
    "regionname": "Ambala  HQ",
    "circlename": "Haryana",
    "Taluk": "Tohana",
    "Districtname": "Fatehabad",
    "statename": "HARYANA"
  },
  {
    "pincode": "125120",
    "officename": "Partan B.O",
    "officeType": "B.O",
    "Deliverystatus": "Delivery",
    "divisionname": "Hissar",
    "regionname": "Ambala  HQ",
    "circlename": "Haryana",
    "Taluk": "Tohana",
    "Districtname": "Fatehabad",
    "statename": "HARYANA"
  },
  {
    "pincode": "125120",
    "officename": "Pirthala B.O",
    "officeType": "B.O",
    "Deliverystatus": "Delivery",
    "divisionname": "Hissar",
    "regionname": "Ambala  HQ",
    "circlename": "Haryana",
    "Taluk": "Tohana",
    "Districtname": "Fatehabad",
    "statename": "HARYANA"
  },
  {
    "pincode": "125120",
    "officename": "Rainwali B.O",
    "officeType": "B.O",
    "Deliverystatus": "Delivery",
    "divisionname": "Hissar",
    "regionname": "Ambala  HQ",
    "circlename": "Haryana",
    "Taluk": "Tohana",
    "Districtname": "Fatehabad",
    "statename": "HARYANA"
  },
  {
    "pincode": "125120",
    "officename": "Samain B.O",
    "officeType": "B.O",
    "Deliverystatus": "Delivery",
    "divisionname": "Hissar",
    "regionname": "Ambala  HQ",
    "circlename": "Haryana",
    "Taluk": "Tohana",
    "Districtname": "Fatehabad",
    "statename": "HARYANA"
  },
  {
    "pincode": "125120",
    "officename": "Tohana Mandi S.O",
    "officeType": "S.O",
    "Deliverystatus": "Delivery",
    "divisionname": "Hissar",
    "regionname": "Ambala  HQ",
    "circlename": "Haryana",
    "Taluk": "Tohana",
    "Districtname": "Fatehabad",
    "statename": "HARYANA"
  },
  {
    "pincode": "125120",
    "officename": "Tohana S.O",
    "officeType": "S.O",
    "Deliverystatus": "Non-Delivery",
    "divisionname": "Hissar",
    "regionname": "Ambala  HQ",
    "circlename": "Haryana",
    "Taluk": "Tohana",
    "Districtname": "Fatehabad",
    "statename": "HARYANA"
  }
]
