[
  {
    "pincode": "125112",
    "officename": "Balak B.O",
    "officeType": "B.O",
    "Deliverystatus": "Delivery",
    "divisionname": "Hissar",
    "regionname": "Ambala  HQ",
    "circlename": "Haryana",
    "Taluk": "Hisar",
    "Districtname": "Hisar",
    "statename": "HARYANA"
  },
  {
    "pincode": "125112",
    "officename": "Dahman B.O",
    "officeType": "B.O",
    "Deliverystatus": "Delivery",
    "divisionname": "Hissar",
    "regionname": "Ambala  HQ",
    "circlename": "Haryana",
    "Taluk": "Hisar",
    "Districtname": "Hisar",
    "statename": "HARYANA"
  },
  {
    "pincode": "125112",
    "officename": "Kanoh Punia B.O",
    "officeType": "B.O",
    "Deliverystatus": "Delivery",
    "divisionname": "Hissar",
    "regionname": "Ambala  HQ",
    "circlename": "Haryana",
    "Taluk": "Hisar",
    "Districtname": "Hisar",
    "statename": "HARYANA"
  },
  {
    "pincode": "125112",
    "officename": "Khairi B.O",
    "officeType": "B.O",
    "Deliverystatus": "Delivery",
    "divisionname": "Hissar",
    "regionname": "Ambala  HQ",
    "circlename": "Haryana",
    "Taluk": "Hisar",
    "Districtname": "Hisar",
    "statename": "HARYANA"
  },
  {
    "pincode": "125112",
    "officename": "Kinala B.O",
    "officeType": "B.O",
    "Deliverystatus": "Delivery",
    "divisionname": "Hissar",
    "regionname": "Ambala  HQ",
    "circlename": "Haryana",
    "Taluk": "Hisar",
    "Districtname": "Hisar",
    "statename": "HARYANA"
  },
  {
    "pincode": "125112",
    "officename": "Kirori B.O",
    "officeType": "B.O",
    "Deliverystatus": "Delivery",
    "divisionname": "Hissar",
    "regionname": "Ambala  HQ",
    "circlename": "Haryana",
    "Taluk": "Hisar",
    "Districtname": "Hisar",
    "statename": "HARYANA"
  },
  {
    "pincode": "125112",
    "officename": "Nehla B.O",
    "officeType": "B.O",
    "Deliverystatus": "Delivery",
    "divisionname": "Hissar",
    "regionname": "Ambala  HQ",
    "circlename": "Haryana",
    "Taluk": "Hisar",
    "Districtname": "Hisar",
    "statename": "HARYANA"
  },
  {
    "pincode": "125112",
    "officename": "Pabra S.O",
    "officeType": "S.O",
    "Deliverystatus": "Delivery",
    "divisionname": "Hissar",
    "regionname": "Ambala  HQ",
    "circlename": "Haryana",
    "Taluk": "Hisar",
    "Districtname": "Hisar",
    "statename": "HARYANA"
  }
]
