[
  {
    "pincode": "126101",
    "officename": "Budda Khera Lather B.O",
    "officeType": "B.O",
    "Deliverystatus": "Delivery",
    "divisionname": "Karnal",
    "regionname": "Ambala  HQ",
    "circlename": "Haryana",
    "Taluk": "Jind",
    "Districtname": "Jind",
    "statename": "HARYANA"
  },
  {
    "pincode": "126101",
    "officename": "Deorer B.O",
    "officeType": "B.O",
    "Deliverystatus": "Delivery",
    "divisionname": "Karnal",
    "regionname": "Ambala  HQ",
    "circlename": "Haryana",
    "Taluk": "Jind",
    "Districtname": "Jind",
    "statename": "HARYANA"
  },
  {
    "pincode": "126101",
    "officename": "Fateh Garh B.O",
    "officeType": "B.O",
    "Deliverystatus": "Delivery",
    "divisionname": "Karnal",
    "regionname": "Ambala  HQ",
    "circlename": "Haryana",
    "Taluk": "Jind",
    "Districtname": "Jind",
    "statename": "HARYANA"
  },
  {
    "pincode": "126101",
    "officename": "Hathwala B.O",
    "officeType": "B.O",
    "Deliverystatus": "Delivery",
    "divisionname": "Karnal",
    "regionname": "Ambala  HQ",
    "circlename": "Haryana",
    "Taluk": "Jind",
    "Districtname": "Jind",
    "statename": "HARYANA"
  },
  {
    "pincode": "126101",
    "officename": "Julana S.O",
    "officeType": "S.O",
    "Deliverystatus": "Delivery",
    "divisionname": "Karnal",
    "regionname": "Ambala  HQ",
    "circlename": "Haryana",
    "Taluk": "Jind",
    "Districtname": "Jind",
    "statename": "HARYANA"
  },
  {
    "pincode": "126101",
    "officename": "Karsaula B.O",
    "officeType": "B.O",
    "Deliverystatus": "Delivery",
    "divisionname": "Karnal",
    "regionname": "Ambala  HQ",
    "circlename": "Haryana",
    "Taluk": "Jind",
    "Districtname": "Jind",
    "statename": "HARYANA"
  },
  {
    "pincode": "126101",
    "officename": "Kerela B.O",
    "officeType": "B.O",
    "Deliverystatus": "Delivery",
    "divisionname": "Karnal",
    "regionname": "Ambala  HQ",
    "circlename": "Haryana",
    "Taluk": "Jind",
    "Districtname": "Jind",
    "statename": "HARYANA"
  },
  {
    "pincode": "126101",
    "officename": "Kila Zaffargarh B.O",
    "officeType": "B.O",
    "Deliverystatus": "Delivery",
    "divisionname": "Karnal",
    "regionname": "Ambala  HQ",
    "circlename": "Haryana",
    "Taluk": "Jind",
    "Districtname": "Jind",
    "statename": "HARYANA"
  },
  {
    "pincode": "126101",
    "officename": "Lajwan Kalan B.O",
    "officeType": "B.O",
    "Deliverystatus": "Delivery",
    "divisionname": "Karnal",
    "regionname": "Ambala  HQ",
    "circlename": "Haryana",
    "Taluk": "Jind",
    "Districtname": "Jind",
    "statename": "HARYANA"
  },
  {
    "pincode": "126101",
    "officename": "Malwi B.O",
    "officeType": "B.O",
    "Deliverystatus": "Delivery",
    "divisionname": "Karnal",
    "regionname": "Ambala  HQ",
    "circlename": "Haryana",
    "Taluk": "Jind  jind",
    "Districtname": "Jind",
    "statename": "HARYANA"
  },
  {
    "pincode": "126101",
    "officename": "Mehrara B.O",
    "officeType": "B.O",
    "Deliverystatus": "Delivery",
    "divisionname": "Karnal",
    "regionname": "Ambala  HQ",
    "circlename": "Haryana",
    "Taluk": "Jind",
    "Districtname": "Jind",
    "statename": "HARYANA"
  },
  {
    "pincode": "126101",
    "officename": "Nandgarh B.O",
    "officeType": "B.O",
    "Deliverystatus": "Delivery",
    "divisionname": "Karnal",
    "regionname": "Ambala  HQ",
    "circlename": "Haryana",
    "Taluk": "Jind",
    "Districtname": "Jind",
    "statename": "HARYANA"
  },
  {
    "pincode": "126101",
    "officename": "Pauli B.O",
    "officeType": "B.O",
    "Deliverystatus": "Delivery",
    "divisionname": "Karnal",
    "regionname": "Ambala  HQ",
    "circlename": "Haryana",
    "Taluk": "Jind",
    "Districtname": "Jind",
    "statename": "HARYANA"
  }
]
