[
  {
    "pincode": "126114",
    "officename": "Baroli B.O",
    "officeType": "B.O",
    "Deliverystatus": "Delivery",
    "divisionname": "Karnal",
    "regionname": "Ambala  HQ",
    "circlename": "Haryana",
    "Taluk": "Safidon",
    "Districtname": "Jind",
    "statename": "HARYANA"
  },
  {
    "pincode": "126114",
    "officename": "Bishanpura B.O",
    "officeType": "B.O",
    "Deliverystatus": "Delivery",
    "divisionname": "Karnal",
    "regionname": "Ambala  HQ",
    "circlename": "Haryana",
    "Taluk": "Safidon",
    "Districtname": "Jind",
    "statename": "HARYANA"
  },
  {
    "pincode": "126114",
    "officename": "Buana B.O",
    "officeType": "B.O",
    "Deliverystatus": "Delivery",
    "divisionname": "Karnal",
    "regionname": "Ambala  HQ",
    "circlename": "Haryana",
    "Taluk": "Safidon",
    "Districtname": "Jind",
    "statename": "HARYANA"
  },
  {
    "pincode": "126114",
    "officename": "Dhigana B.O",
    "officeType": "B.O",
    "Deliverystatus": "Delivery",
    "divisionname": "Karnal",
    "regionname": "Ambala  HQ",
    "circlename": "Haryana",
    "Taluk": "Safidon",
    "Districtname": "Jind",
    "statename": "HARYANA"
  },
  {
    "pincode": "126114",
    "officename": "Garhwali B.O",
    "officeType": "B.O",
    "Deliverystatus": "Delivery",
    "divisionname": "Karnal",
    "regionname": "Ambala  HQ",
    "circlename": "Haryana",
    "Taluk": "Safidon",
    "Districtname": "Jind",
    "statename": "HARYANA"
  },
  {
    "pincode": "126114",
    "officename": "Gatauli B.O",
    "officeType": "B.O",
    "Deliverystatus": "Delivery",
    "divisionname": "Karnal",
    "regionname": "Ambala  HQ",
    "circlename": "Haryana",
    "Taluk": "Safidon",
    "Districtname": "Jind",
    "statename": "HARYANA"
  },
  {
    "pincode": "126114",
    "officename": "Kinana B.O",
    "officeType": "B.O",
    "Deliverystatus": "Delivery",
    "divisionname": "Karnal",
    "regionname": "Ambala  HQ",
    "circlename": "Haryana",
    "Taluk": "Safidon",
    "Districtname": "Jind",
    "statename": "HARYANA"
  },
  {
    "pincode": "126114",
    "officename": "Nidana B.O",
    "officeType": "B.O",
    "Deliverystatus": "Delivery",
    "divisionname": "Karnal",
    "regionname": "Ambala  HQ",
    "circlename": "Haryana",
    "Taluk": "Safidon",
    "Districtname": "Jind",
    "statename": "HARYANA"
  },
  {
    "pincode": "126114",
    "officename": "Shamlo Kalan S.O",
    "officeType": "S.O",
    "Deliverystatus": "Delivery",
    "divisionname": "Karnal",
    "regionname": "Ambala  HQ",
    "circlename": "Haryana",
    "Taluk": "Safidon",
    "Districtname": "Jind",
    "statename": "HARYANA"
  }
]
