[
  {
    "pincode": "126152",
    "officename": "Badanpur B.O",
    "officeType": "B.O",
    "Deliverystatus": "Delivery",
    "divisionname": "Karnal",
    "regionname": "Ambala  HQ",
    "circlename": "Haryana",
    "Taluk": "Jind",
    "Districtname": "Jind",
    "statename": "HARYANA"
  },
  {
    "pincode": "126152",
    "officename": "Bikhiwala B.O",
    "officeType": "B.O",
    "Deliverystatus": "Delivery",
    "divisionname": "Karnal",
    "regionname": "Ambala  HQ",
    "circlename": "Haryana",
    "Taluk": "Jind",
    "Districtname": "Jind",
    "statename": "HARYANA"
  },
  {
    "pincode": "126152",
    "officename": "Dhanoda Kalan S.O",
    "officeType": "S.O",
    "Deliverystatus": "Delivery",
    "divisionname": "Karnal",
    "regionname": "Ambala  HQ",
    "circlename": "Haryana",
    "Taluk": "Jind",
    "Districtname": "Jind",
    "statename": "HARYANA"
  },
  {
    "pincode": "126152",
    "officename": "Durjanpur B.O",
    "officeType": "B.O",
    "Deliverystatus": "Delivery",
    "divisionname": "Karnal",
    "regionname": "Ambala  HQ",
    "circlename": "Haryana",
    "Taluk": "Jind",
    "Districtname": "Jind",
    "statename": "HARYANA"
  },
  {
    "pincode": "126152",
    "officename": "Jajanwala B.O",
    "officeType": "B.O",
    "Deliverystatus": "Delivery",
    "divisionname": "Karnal",
    "regionname": "Ambala  HQ",
    "circlename": "Haryana",
    "Taluk": "Jind",
    "Districtname": "Jind",
    "statename": "HARYANA"
  },
  {
    "pincode": "126152",
    "officename": "Mangalpur B.O",
    "officeType": "B.O",
    "Deliverystatus": "Delivery",
    "divisionname": "Karnal",
    "regionname": "Ambala  HQ",
    "circlename": "Haryana",
    "Taluk": "Jind",
    "Districtname": "Jind",
    "statename": "HARYANA"
  },
  {
    "pincode": "126152",
    "officename": "Sachha Khera B.O",
    "officeType": "B.O",
    "Deliverystatus": "Delivery",
    "divisionname": "Karnal",
    "regionname": "Ambala  HQ",
    "circlename": "Haryana",
    "Taluk": "Jind",
    "Districtname": "Jind",
    "statename": "HARYANA"
  },
  {
    "pincode": "126152",
    "officename": "Sainthali B.O",
    "officeType": "B.O",
    "Deliverystatus": "Delivery",
    "divisionname": "Karnal",
    "regionname": "Ambala  HQ",
    "circlename": "Haryana",
    "Taluk": "Jind",
    "Districtname": "Jind",
    "statename": "HARYANA"
  }
]
