[
  {
    "pincode": "127043",
    "officename": "Bhariwas B.O",
    "officeType": "B.O",
    "Deliverystatus": "Delivery",
    "divisionname": "Bhiwani",
    "regionname": "Ambala  HQ",
    "circlename": "Haryana",
    "Taluk": "Bhiwani",
    "Districtname": "Bhiwani",
    "statename": "HARYANA"
  },
  {
    "pincode": "127043",
    "officename": "Bhera B.O",
    "officeType": "B.O",
    "Deliverystatus": "Delivery",
    "divisionname": "Bhiwani",
    "regionname": "Ambala  HQ",
    "circlename": "Haryana",
    "Taluk": "Bhiwani",
    "Districtname": "Bhiwani",
    "statename": "HARYANA"
  },
  {
    "pincode": "127043",
    "officename": "Bhushan B.O",
    "officeType": "B.O",
    "Deliverystatus": "Delivery",
    "divisionname": "Bhiwani",
    "regionname": "Ambala  HQ",
    "circlename": "Haryana",
    "Taluk": "Bhiwani",
    "Districtname": "Bhiwani",
    "statename": "HARYANA"
  },
  {
    "pincode": "127043",
    "officename": "Isharwal B.O",
    "officeType": "B.O",
    "Deliverystatus": "Delivery",
    "divisionname": "Bhiwani",
    "regionname": "Ambala  HQ",
    "circlename": "Haryana",
    "Taluk": "Bhiwani",
    "Districtname": "Bhiwani",
    "statename": "HARYANA"
  },
  {
    "pincode": "127043",
    "officename": "Jhully B.O",
    "officeType": "B.O",
    "Deliverystatus": "Delivery",
    "divisionname": "Bhiwani",
    "regionname": "Ambala  HQ",
    "circlename": "Haryana",
    "Taluk": "Bhiwani",
    "Districtname": "Bhiwani",
    "statename": "HARYANA"
  },
  {
    "pincode": "127043",
    "officename": "Mandhan B.O",
    "officeType": "B.O",
    "Deliverystatus": "Delivery",
    "divisionname": "Bhiwani",
    "regionname": "Ambala  HQ",
    "circlename": "Haryana",
    "Taluk": "Bhiwani",
    "Districtname": "Bhiwani",
    "statename": "HARYANA"
  },
  {
    "pincode": "127043",
    "officename": "Mandholi Kalan B.O",
    "officeType": "B.O",
    "Deliverystatus": "Delivery",
    "divisionname": "Bhiwani",
    "regionname": "Ambala  HQ",
    "circlename": "Haryana",
    "Taluk": "Bhiwani",
    "Districtname": "Bhiwani",
    "statename": "HARYANA"
  },
  {
    "pincode": "127043",
    "officename": "Rodhan S.O",
    "officeType": "S.O",
    "Deliverystatus": "Delivery",
    "divisionname": "Bhiwani",
    "regionname": "Ambala  HQ",
    "circlename": "Haryana",
    "Taluk": "Bhiwani",
    "Districtname": "Bhiwani",
    "statename": "HARYANA"
  },
  {
    "pincode": "127043",
    "officename": "Sandawa B.O",
    "officeType": "B.O",
    "Deliverystatus": "Delivery",
    "divisionname": "Bhiwani",
    "regionname": "Ambala  HQ",
    "circlename": "Haryana",
    "Taluk": "Bhiwani",
    "Districtname": "Bhiwani",
    "statename": "HARYANA"
  }
]
