[
  {
    "pincode": "127030",
    "officename": "Asalwas Marheta B.O",
    "officeType": "B.O",
    "Deliverystatus": "Delivery",
    "divisionname": "Bhiwani",
    "regionname": "Ambala  HQ",
    "circlename": "Haryana",
    "Taluk": "Biwani",
    "Districtname": "Bhiwani",
    "statename": "HARYANA"
  },
  {
    "pincode": "127030",
    "officename": "Bhangarh B.O",
    "officeType": "B.O",
    "Deliverystatus": "Delivery",
    "divisionname": "Bhiwani",
    "regionname": "Ambala  HQ",
    "circlename": "Haryana",
    "Taluk": "Bhiwani",
    "Districtname": "Bhiwani",
    "statename": "HARYANA"
  },
  {
    "pincode": "127030",
    "officename": "Dandama B.O",
    "officeType": "B.O",
    "Deliverystatus": "Delivery",
    "divisionname": "Bhiwani",
    "regionname": "Ambala  HQ",
    "circlename": "Haryana",
    "Taluk": "Bhiwani",
    "Districtname": "Bhiwani",
    "statename": "HARYANA"
  },
  {
    "pincode": "127030",
    "officename": "Dhabdhani B.O",
    "officeType": "B.O",
    "Deliverystatus": "Delivery",
    "divisionname": "Bhiwani",
    "regionname": "Ambala  HQ",
    "circlename": "Haryana",
    "Taluk": "Bhiwani",
    "Districtname": "Bhiwani",
    "statename": "HARYANA"
  },
  {
    "pincode": "127030",
    "officename": "Golagarh B.O",
    "officeType": "B.O",
    "Deliverystatus": "Delivery",
    "divisionname": "Bhiwani",
    "regionname": "Ambala  HQ",
    "circlename": "Haryana",
    "Taluk": "Bhiwani",
    "Districtname": "Bhiwani",
    "statename": "HARYANA"
  },
  {
    "pincode": "127030",
    "officename": "Golpura B.O",
    "officeType": "B.O",
    "Deliverystatus": "Delivery",
    "divisionname": "Bhiwani",
    "regionname": "Ambala  HQ",
    "circlename": "Haryana",
    "Taluk": "Bhiwani",
    "Districtname": "Bhiwani",
    "statename": "HARYANA"
  },
  {
    "pincode": "127030",
    "officename": "Jui Khurd S.O",
    "officeType": "S.O",
    "Deliverystatus": "Delivery",
    "divisionname": "Bhiwani",
    "regionname": "Ambala  HQ",
    "circlename": "Haryana",
    "Taluk": "Bhiwani",
    "Districtname": "Bhiwani",
    "statename": "HARYANA"
  },
  {
    "pincode": "127030",
    "officename": "Pohkarwas B.O",
    "officeType": "B.O",
    "Deliverystatus": "Delivery",
    "divisionname": "Bhiwani",
    "regionname": "Ambala  HQ",
    "circlename": "Haryana",
    "Taluk": "Bhiwani",
    "Districtname": "Bhiwani",
    "statename": "HARYANA"
  },
  {
    "pincode": "127030",
    "officename": "Umarwas B.O",
    "officeType": "B.O",
    "Deliverystatus": "Delivery",
    "divisionname": "Bhiwani",
    "regionname": "Ambala  HQ",
    "circlename": "Haryana",
    "Taluk": "Bhiwani",
    "Districtname": "Bhiwani",
    "statename": "HARYANA"
  }
]
