[
  {
    "pincode": "127029",
    "officename": "Chandawas B.O",
    "officeType": "B.O",
    "Deliverystatus": "Delivery",
    "divisionname": "Bhiwani",
    "regionname": "Ambala  HQ",
    "circlename": "Haryana",
    "Taluk": "Bhiwani",
    "Districtname": "Bhiwani",
    "statename": "HARYANA"
  },
  {
    "pincode": "127029",
    "officename": "Devrala B.O",
    "officeType": "B.O",
    "Deliverystatus": "Delivery",
    "divisionname": "Bhiwani",
    "regionname": "Ambala  HQ",
    "circlename": "Haryana",
    "Taluk": "Bhiwani",
    "Districtname": "Bhiwani",
    "statename": "HARYANA"
  },
  {
    "pincode": "127029",
    "officename": "Hetampura B.O",
    "officeType": "B.O",
    "Deliverystatus": "Delivery",
    "divisionname": "Bhiwani",
    "regionname": "Ambala  HQ",
    "circlename": "Haryana",
    "Taluk": "Bhiwani",
    "Districtname": "Bhiwani",
    "statename": "HARYANA"
  },
  {
    "pincode": "127029",
    "officename": "Kairu S.O",
    "officeType": "S.O",
    "Deliverystatus": "Delivery",
    "divisionname": "Bhiwani",
    "regionname": "Ambala  HQ",
    "circlename": "Haryana",
    "Taluk": "Bhiwani",
    "Districtname": "Bhiwani",
    "statename": "HARYANA"
  },
  {
    "pincode": "127029",
    "officename": "Kusumbhi B.O",
    "officeType": "B.O",
    "Deliverystatus": "Delivery",
    "divisionname": "Bhiwani",
    "regionname": "Ambala  HQ",
    "circlename": "Haryana",
    "Taluk": "Bhiwani",
    "Districtname": "Bhiwani",
    "statename": "HARYANA"
  },
  {
    "pincode": "127029",
    "officename": "Leghan B.O",
    "officeType": "B.O",
    "Deliverystatus": "Delivery",
    "divisionname": "Bhiwani",
    "regionname": "Ambala  HQ",
    "circlename": "Haryana",
    "Taluk": "Bhiwani",
    "Districtname": "Bhiwani",
    "statename": "HARYANA"
  },
  {
    "pincode": "127029",
    "officename": "Lohani B.O",
    "officeType": "B.O",
    "Deliverystatus": "Delivery",
    "divisionname": "Bhiwani",
    "regionname": "Ambala  HQ",
    "circlename": "Haryana",
    "Taluk": "Bhiwani",
    "Districtname": "Bhiwani",
    "statename": "HARYANA"
  },
  {
    "pincode": "127029",
    "officename": "Mansarbass B.O",
    "officeType": "B.O",
    "Deliverystatus": "Delivery",
    "divisionname": "Bhiwani",
    "regionname": "Ambala  HQ",
    "circlename": "Haryana",
    "Taluk": "Bhiwani",
    "Districtname": "Bhiwani",
    "statename": "HARYANA"
  },
  {
    "pincode": "127029",
    "officename": "Sungarpur B.O",
    "officeType": "B.O",
    "Deliverystatus": "Delivery",
    "divisionname": "Bhiwani",
    "regionname": "Ambala  HQ",
    "circlename": "Haryana",
    "Taluk": "Bhiwani",
    "Districtname": "Bhiwani",
    "statename": "HARYANA"
  }
]
