[
  {
    "pincode": "127306",
    "officename": "Charkhi  Dadri Hsg-ii S.O",
    "officeType": "S.O",
    "Deliverystatus": "Delivery",
    "divisionname": "Bhiwani",
    "regionname": "Ambala  HQ",
    "circlename": "Haryana",
    "Taluk": "Dadri",
    "Districtname": "Bhiwani",
    "statename": "HARYANA"
  },
  {
    "pincode": "127306",
    "officename": "Charkhi B.O",
    "officeType": "B.O",
    "Deliverystatus": "Delivery",
    "divisionname": "Bhiwani",
    "regionname": "Ambala  HQ",
    "circlename": "Haryana",
    "Taluk": "Charkhi Dadri",
    "Districtname": "Bhiwani",
    "statename": "HARYANA"
  },
  {
    "pincode": "127306",
    "officename": "Charkhi Dadri City S.O",
    "officeType": "S.O",
    "Deliverystatus": "Non-Delivery",
    "divisionname": "Bhiwani",
    "regionname": "Ambala  HQ",
    "circlename": "Haryana",
    "Taluk": "Dadri",
    "Districtname": "Bhiwani",
    "statename": "HARYANA"
  },
  {
    "pincode": "127306",
    "officename": "Dhadhi Mandola B.O",
    "officeType": "B.O",
    "Deliverystatus": "Delivery",
    "divisionname": "Bhiwani",
    "regionname": "Ambala  HQ",
    "circlename": "Haryana",
    "Taluk": "Charkhi Dadri",
    "Districtname": "Bhiwani",
    "statename": "HARYANA"
  },
  {
    "pincode": "127306",
    "officename": "Dhani Phogat B.O",
    "officeType": "B.O",
    "Deliverystatus": "Delivery",
    "divisionname": "Bhiwani",
    "regionname": "Ambala  HQ",
    "circlename": "Haryana",
    "Taluk": "Dadri",
    "Districtname": "Bhiwani",
    "statename": "HARYANA"
  },
  {
    "pincode": "127306",
    "officename": "Ghasola B.O",
    "officeType": "B.O",
    "Deliverystatus": "Delivery",
    "divisionname": "Bhiwani",
    "regionname": "Ambala  HQ",
    "circlename": "Haryana",
    "Taluk": "Charkhi Dadri",
    "Districtname": "Bhiwani",
    "statename": "HARYANA"
  },
  {
    "pincode": "127306",
    "officename": "Imlota B.O",
    "officeType": "B.O",
    "Deliverystatus": "Delivery",
    "divisionname": "Bhiwani",
    "regionname": "Ambala  HQ",
    "circlename": "Haryana",
    "Taluk": "Charkhi Dadri",
    "Districtname": "Bhiwani",
    "statename": "HARYANA"
  },
  {
    "pincode": "127306",
    "officename": "Janta College Charkhi Dadri S.O",
    "officeType": "S.O",
    "Deliverystatus": "Non-Delivery",
    "divisionname": "Bhiwani",
    "regionname": "Ambala  HQ",
    "circlename": "Haryana",
    "Taluk": "Dadri",
    "Districtname": "Bhiwani",
    "statename": "HARYANA"
  },
  {
    "pincode": "127306",
    "officename": "Kalyana B.O",
    "officeType": "B.O",
    "Deliverystatus": "Delivery",
    "divisionname": "Bhiwani",
    "regionname": "Ambala  HQ",
    "circlename": "Haryana",
    "Taluk": "Dadri",
    "Districtname": "Bhiwani",
    "statename": "HARYANA"
  },
  {
    "pincode": "127306",
    "officename": "Kheri Bura B.O",
    "officeType": "B.O",
    "Deliverystatus": "Delivery",
    "divisionname": "Bhiwani",
    "regionname": "Ambala  HQ",
    "circlename": "Haryana",
    "Taluk": "Dadri",
    "Districtname": "Bhiwani",
    "statename": "HARYANA"
  },
  {
    "pincode": "127306",
    "officename": "Mankawas B.O",
    "officeType": "B.O",
    "Deliverystatus": "Delivery",
    "divisionname": "Bhiwani",
    "regionname": "Ambala  HQ",
    "circlename": "Haryana",
    "Taluk": "Charkhi Dadri",
    "Districtname": "Bhiwani",
    "statename": "HARYANA"
  },
  {
    "pincode": "127306",
    "officename": "Neemli B.O",
    "officeType": "B.O",
    "Deliverystatus": "Delivery",
    "divisionname": "Bhiwani",
    "regionname": "Ambala  HQ",
    "circlename": "Haryana",
    "Taluk": "Charkhi Dadri",
    "Districtname": "Bhiwani",
    "statename": "HARYANA"
  },
  {
    "pincode": "127306",
    "officename": "Paitawas Kalan B.O",
    "officeType": "B.O",
    "Deliverystatus": "Delivery",
    "divisionname": "Bhiwani",
    "regionname": "Ambala  HQ",
    "circlename": "Haryana",
    "Taluk": "Charkhi Dadri",
    "Districtname": "Bhiwani",
    "statename": "HARYANA"
  },
  {
    "pincode": "127306",
    "officename": "Rawaldhi B.O",
    "officeType": "B.O",
    "Deliverystatus": "Delivery",
    "divisionname": "Bhiwani",
    "regionname": "Ambala  HQ",
    "circlename": "Haryana",
    "Taluk": "Charkhi Dadri",
    "Districtname": "Bhiwani",
    "statename": "HARYANA"
  },
  {
    "pincode": "127306",
    "officename": "Samaspur B.O",
    "officeType": "B.O",
    "Deliverystatus": "Delivery",
    "divisionname": "Bhiwani",
    "regionname": "Ambala  HQ",
    "circlename": "Haryana",
    "Taluk": "Charkhi Dadri",
    "Districtname": "Bhiwani",
    "statename": "HARYANA"
  },
  {
    "pincode": "127306",
    "officename": "Sarupgarh B.O",
    "officeType": "B.O",
    "Deliverystatus": "Delivery",
    "divisionname": "Bhiwani",
    "regionname": "Ambala  HQ",
    "circlename": "Haryana",
    "Taluk": "Charkhi Dadri",
    "Districtname": "Bhiwani",
    "statename": "HARYANA"
  }
]
