[
  {
    "pincode": "127308",
    "officename": "Arya Nagar B.O",
    "officeType": "B.O",
    "Deliverystatus": "Delivery",
    "divisionname": "Bhiwani",
    "regionname": "Ambala  HQ",
    "circlename": "Haryana",
    "Taluk": "Dadri",
    "Districtname": "Bhiwani",
    "statename": "HARYANA"
  },
  {
    "pincode": "127308",
    "officename": "Badhara S.O",
    "officeType": "S.O",
    "Deliverystatus": "Delivery",
    "divisionname": "Bhiwani",
    "regionname": "Ambala  HQ",
    "circlename": "Haryana",
    "Taluk": "Badhara",
    "Districtname": "Bhiwani",
    "statename": "HARYANA"
  },
  {
    "pincode": "127308",
    "officename": "Badrai B.O",
    "officeType": "B.O",
    "Deliverystatus": "Delivery",
    "divisionname": "Bhiwani",
    "regionname": "Ambala  HQ",
    "circlename": "Haryana",
    "Taluk": "Dadri",
    "Districtname": "Bhiwani",
    "statename": "HARYANA"
  },
  {
    "pincode": "127308",
    "officename": "Berla B.O",
    "officeType": "B.O",
    "Deliverystatus": "Delivery",
    "divisionname": "Bhiwani",
    "regionname": "Ambala  HQ",
    "circlename": "Haryana",
    "Taluk": "Dadri",
    "Districtname": "Bhiwani",
    "statename": "HARYANA"
  },
  {
    "pincode": "127308",
    "officename": "Chandwas B.O",
    "officeType": "B.O",
    "Deliverystatus": "Delivery",
    "divisionname": "Bhiwani",
    "regionname": "Ambala  HQ",
    "circlename": "Haryana",
    "Taluk": "Dadri",
    "Districtname": "Bhiwani",
    "statename": "HARYANA"
  },
  {
    "pincode": "127308",
    "officename": "Dagroli B.O",
    "officeType": "B.O",
    "Deliverystatus": "Delivery",
    "divisionname": "Bhiwani",
    "regionname": "Ambala  HQ",
    "circlename": "Haryana",
    "Taluk": "Dadri",
    "Districtname": "Bhiwani",
    "statename": "HARYANA"
  },
  {
    "pincode": "127308",
    "officename": "Dalawas B.O",
    "officeType": "B.O",
    "Deliverystatus": "Delivery",
    "divisionname": "Bhiwani",
    "regionname": "Ambala  HQ",
    "circlename": "Haryana",
    "Taluk": "Dadri",
    "Districtname": "Bhiwani",
    "statename": "HARYANA"
  },
  {
    "pincode": "127308",
    "officename": "Gopi B.O",
    "officeType": "B.O",
    "Deliverystatus": "Delivery",
    "divisionname": "Bhiwani",
    "regionname": "Ambala  HQ",
    "circlename": "Haryana",
    "Taluk": "Dadri",
    "Districtname": "Bhiwani",
    "statename": "HARYANA"
  },
  {
    "pincode": "127308",
    "officename": "Harodi B.O",
    "officeType": "B.O",
    "Deliverystatus": "Delivery",
    "divisionname": "Bhiwani",
    "regionname": "Ambala  HQ",
    "circlename": "Haryana",
    "Taluk": "Dadri",
    "Districtname": "Bhiwani",
    "statename": "HARYANA"
  },
  {
    "pincode": "127308",
    "officename": "Jewali B.O",
    "officeType": "B.O",
    "Deliverystatus": "Delivery",
    "divisionname": "Bhiwani",
    "regionname": "Ambala  HQ",
    "circlename": "Haryana",
    "Taluk": "Dadri",
    "Districtname": "Bhiwani",
    "statename": "HARYANA"
  },
  {
    "pincode": "127308",
    "officename": "Kadma B.O",
    "officeType": "B.O",
    "Deliverystatus": "Delivery",
    "divisionname": "Bhiwani",
    "regionname": "Ambala  HQ",
    "circlename": "Haryana",
    "Taluk": "Dadri",
    "Districtname": "Bhiwani",
    "statename": "HARYANA"
  },
  {
    "pincode": "127308",
    "officename": "Kakroli Sardara B.O",
    "officeType": "B.O",
    "Deliverystatus": "Delivery",
    "divisionname": "Bhiwani",
    "regionname": "Ambala  HQ",
    "circlename": "Haryana",
    "Taluk": "Dadri",
    "Districtname": "Bhiwani",
    "statename": "HARYANA"
  },
  {
    "pincode": "127308",
    "officename": "Kari Dharani B.O",
    "officeType": "B.O",
    "Deliverystatus": "Delivery",
    "divisionname": "Bhiwani",
    "regionname": "Ambala  HQ",
    "circlename": "Haryana",
    "Taluk": "Dadri",
    "Districtname": "Bhiwani",
    "statename": "HARYANA"
  },
  {
    "pincode": "127308",
    "officename": "Kario Baniawalij B.O",
    "officeType": "B.O",
    "Deliverystatus": "Delivery",
    "divisionname": "Bhiwani",
    "regionname": "Ambala  HQ",
    "circlename": "Haryana",
    "Taluk": "Dadri",
    "Districtname": "Bhiwani",
    "statename": "HARYANA"
  },
  {
    "pincode": "127308",
    "officename": "Lad B.O",
    "officeType": "B.O",
    "Deliverystatus": "Delivery",
    "divisionname": "Bhiwani",
    "regionname": "Ambala  HQ",
    "circlename": "Haryana",
    "Taluk": "Dadri",
    "Districtname": "Bhiwani",
    "statename": "HARYANA"
  },
  {
    "pincode": "127308",
    "officename": "Mandhi Harya B.O",
    "officeType": "B.O",
    "Deliverystatus": "Delivery",
    "divisionname": "Bhiwani",
    "regionname": "Ambala  HQ",
    "circlename": "Haryana",
    "Taluk": "Dadri",
    "Districtname": "Bhiwani",
    "statename": "HARYANA"
  },
  {
    "pincode": "127308",
    "officename": "Nandha B.O",
    "officeType": "B.O",
    "Deliverystatus": "Delivery",
    "divisionname": "Bhiwani",
    "regionname": "Ambala  HQ",
    "circlename": "Haryana",
    "Taluk": "Dadri",
    "Districtname": "Bhiwani",
    "statename": "HARYANA"
  }
]
