[
  {
    "pincode": "131101",
    "officename": "Ahulana(Gannur) B.O",
    "officeType": "B.O",
    "Deliverystatus": "Delivery",
    "divisionname": "Sonepat",
    "regionname": "Ambala  HQ",
    "circlename": "Haryana",
    "Taluk": "",
    "Districtname": "Sonipat",
    "statename": "HARYANA"
  },
  {
    "pincode": "131101",
    "officename": "Bali Qutubpur B.O",
    "officeType": "B.O",
    "Deliverystatus": "Delivery",
    "divisionname": "Sonepat",
    "regionname": "Ambala  HQ",
    "circlename": "Haryana",
    "Taluk": "Ganaur",
    "Districtname": "Sonipat",
    "statename": "HARYANA"
  },
  {
    "pincode": "131101",
    "officename": "Bari B.O",
    "officeType": "B.O",
    "Deliverystatus": "Delivery",
    "divisionname": "Sonepat",
    "regionname": "Ambala  HQ",
    "circlename": "Haryana",
    "Taluk": "Ganaur",
    "Districtname": "Sonipat",
    "statename": "HARYANA"
  },
  {
    "pincode": "131101",
    "officename": "Bega B.O",
    "officeType": "B.O",
    "Deliverystatus": "Delivery",
    "divisionname": "Sonepat",
    "regionname": "Ambala  HQ",
    "circlename": "Haryana",
    "Taluk": "Ganaur",
    "Districtname": "Sonipat",
    "statename": "HARYANA"
  },
  {
    "pincode": "131101",
    "officename": "Datauli B.O",
    "officeType": "B.O",
    "Deliverystatus": "Delivery",
    "divisionname": "Sonepat",
    "regionname": "Ambala  HQ",
    "circlename": "Haryana",
    "Taluk": "",
    "Districtname": "Sonipat",
    "statename": "HARYANA"
  },
  {
    "pincode": "131101",
    "officename": "Ganaur City S.O",
    "officeType": "S.O",
    "Deliverystatus": "Non-Delivery",
    "divisionname": "Sonepat",
    "regionname": "Ambala  HQ",
    "circlename": "Haryana",
    "Taluk": "Ganaur",
    "Districtname": "Sonipat",
    "statename": "HARYANA"
  },
  {
    "pincode": "131101",
    "officename": "Ganaur S.O",
    "officeType": "S.O",
    "Deliverystatus": "Delivery",
    "divisionname": "Sonepat",
    "regionname": "Ambala  HQ",
    "circlename": "Haryana",
    "Taluk": "",
    "Districtname": "Sonipat",
    "statename": "HARYANA"
  },
  {
    "pincode": "131101",
    "officename": "Garhi Rajlu B.O",
    "officeType": "B.O",
    "Deliverystatus": "Delivery",
    "divisionname": "Sonepat",
    "regionname": "Ambala  HQ",
    "circlename": "Haryana",
    "Taluk": "Ganaur",
    "Districtname": "Sonipat",
    "statename": "HARYANA"
  },
  {
    "pincode": "131101",
    "officename": "Ghasauli B.O",
    "officeType": "B.O",
    "Deliverystatus": "Delivery",
    "divisionname": "Sonepat",
    "regionname": "Ambala  HQ",
    "circlename": "Haryana",
    "Taluk": "Ganaur",
    "Districtname": "Sonipat",
    "statename": "HARYANA"
  },
  {
    "pincode": "131101",
    "officename": "Gumar B.O",
    "officeType": "B.O",
    "Deliverystatus": "Delivery",
    "divisionname": "Sonepat",
    "regionname": "Ambala  HQ",
    "circlename": "Haryana",
    "Taluk": "Ganaur",
    "Districtname": "Sonipat",
    "statename": "HARYANA"
  },
  {
    "pincode": "131101",
    "officename": "Kheri Gujjar B.O",
    "officeType": "B.O",
    "Deliverystatus": "Delivery",
    "divisionname": "Sonepat",
    "regionname": "Ambala  HQ",
    "circlename": "Haryana",
    "Taluk": "Ganaur",
    "Districtname": "Sonipat",
    "statename": "HARYANA"
  },
  {
    "pincode": "131101",
    "officename": "Khizarpur Ahir B.O",
    "officeType": "B.O",
    "Deliverystatus": "Delivery",
    "divisionname": "Sonepat",
    "regionname": "Ambala  HQ",
    "circlename": "Haryana",
    "Taluk": "",
    "Districtname": "Sonipat",
    "statename": "HARYANA"
  },
  {
    "pincode": "131101",
    "officename": "Khubru B.O",
    "officeType": "B.O",
    "Deliverystatus": "Delivery",
    "divisionname": "Sonepat",
    "regionname": "Ambala  HQ",
    "circlename": "Haryana",
    "Taluk": "Ganaur",
    "Districtname": "Sonipat",
    "statename": "HARYANA"
  },
  {
    "pincode": "131101",
    "officename": "Panchi Gujjaran B.O",
    "officeType": "B.O",
    "Deliverystatus": "Delivery",
    "divisionname": "Sonepat",
    "regionname": "Ambala  HQ",
    "circlename": "Haryana",
    "Taluk": "Ganaur",
    "Districtname": "Sonipat",
    "statename": "HARYANA"
  },
  {
    "pincode": "131101",
    "officename": "Rajpur B.O",
    "officeType": "B.O",
    "Deliverystatus": "Delivery",
    "divisionname": "Sonepat",
    "regionname": "Ambala  HQ",
    "circlename": "Haryana",
    "Taluk": "",
    "Districtname": "Sonipat",
    "statename": "HARYANA"
  },
  {
    "pincode": "131101",
    "officename": "Sheikhpura B.O",
    "officeType": "B.O",
    "Deliverystatus": "Delivery",
    "divisionname": "Sonepat",
    "regionname": "Ambala  HQ",
    "circlename": "Haryana",
    "Taluk": "",
    "Districtname": "Sonipat",
    "statename": "HARYANA"
  }
]
