[
  {
    "pincode": "132041",
    "officename": "Bibi Pur Jattan B.O",
    "officeType": "B.O",
    "Deliverystatus": "Delivery",
    "divisionname": "Karnal",
    "regionname": "Ambala  HQ",
    "circlename": "Haryana",
    "Taluk": "Indri",
    "Districtname": "Karnal",
    "statename": "HARYANA"
  },
  {
    "pincode": "132041",
    "officename": "Darar B.O",
    "officeType": "B.O",
    "Deliverystatus": "Delivery",
    "divisionname": "Karnal",
    "regionname": "Ambala  HQ",
    "circlename": "Haryana",
    "Taluk": "Karnal",
    "Districtname": "Karnal",
    "statename": "HARYANA"
  },
  {
    "pincode": "132041",
    "officename": "Garhi Jattan B.O",
    "officeType": "B.O",
    "Deliverystatus": "Delivery",
    "divisionname": "Karnal",
    "regionname": "Ambala  HQ",
    "circlename": "Haryana",
    "Taluk": "Indri",
    "Districtname": "Karnal",
    "statename": "HARYANA"
  },
  {
    "pincode": "132041",
    "officename": "Hanori B.O",
    "officeType": "B.O",
    "Deliverystatus": "Delivery",
    "divisionname": "Karnal",
    "regionname": "Ambala  HQ",
    "circlename": "Haryana",
    "Taluk": "Indri",
    "Districtname": "Karnal",
    "statename": "HARYANA"
  },
  {
    "pincode": "132041",
    "officename": "Indri S.O",
    "officeType": "S.O",
    "Deliverystatus": "Delivery",
    "divisionname": "Karnal",
    "regionname": "Ambala  HQ",
    "circlename": "Haryana",
    "Taluk": "Indri",
    "Districtname": "Karnal",
    "statename": "HARYANA"
  },
  {
    "pincode": "132041",
    "officename": "Indri Town S.O",
    "officeType": "S.O",
    "Deliverystatus": "Non-Delivery",
    "divisionname": "Karnal",
    "regionname": "Ambala  HQ",
    "circlename": "Haryana",
    "Taluk": "Indri",
    "Districtname": "Karnal",
    "statename": "HARYANA"
  },
  {
    "pincode": "132041",
    "officename": "Johar Majra B.O",
    "officeType": "B.O",
    "Deliverystatus": "Delivery",
    "divisionname": "Karnal",
    "regionname": "Ambala  HQ",
    "circlename": "Haryana",
    "Taluk": "Indri",
    "Districtname": "Karnal",
    "statename": "HARYANA"
  },
  {
    "pincode": "132041",
    "officename": "Khanpur B.O",
    "officeType": "B.O",
    "Deliverystatus": "Delivery",
    "divisionname": "Karnal",
    "regionname": "Ambala  HQ",
    "circlename": "Haryana",
    "Taluk": "Indri",
    "Districtname": "Karnal",
    "statename": "HARYANA"
  },
  {
    "pincode": "132041",
    "officename": "Khera B.O",
    "officeType": "B.O",
    "Deliverystatus": "Delivery",
    "divisionname": "Karnal",
    "regionname": "Ambala  HQ",
    "circlename": "Haryana",
    "Taluk": "Indri",
    "Districtname": "Karnal",
    "statename": "HARYANA"
  },
  {
    "pincode": "132041",
    "officename": "Kheri Bhutan B.O",
    "officeType": "B.O",
    "Deliverystatus": "Delivery",
    "divisionname": "Karnal",
    "regionname": "Ambala  HQ",
    "circlename": "Haryana",
    "Taluk": "Indri",
    "Districtname": "Karnal",
    "statename": "HARYANA"
  },
  {
    "pincode": "132041",
    "officename": "Kheri Man Singh B.O",
    "officeType": "B.O",
    "Deliverystatus": "Delivery",
    "divisionname": "Karnal",
    "regionname": "Ambala  HQ",
    "circlename": "Haryana",
    "Taluk": "Indri",
    "Districtname": "Karnal",
    "statename": "HARYANA"
  },
  {
    "pincode": "132041",
    "officename": "Muradhgarh B.O",
    "officeType": "B.O",
    "Deliverystatus": "Delivery",
    "divisionname": "Karnal",
    "regionname": "Ambala  HQ",
    "circlename": "Haryana",
    "Taluk": "Indri",
    "Districtname": "Karnal",
    "statename": "HARYANA"
  },
  {
    "pincode": "132041",
    "officename": "Nagla Roran B.O",
    "officeType": "B.O",
    "Deliverystatus": "Delivery",
    "divisionname": "Karnal",
    "regionname": "Ambala  HQ",
    "circlename": "Haryana",
    "Taluk": "Indri",
    "Districtname": "Karnal",
    "statename": "HARYANA"
  },
  {
    "pincode": "132041",
    "officename": "Pathera B.O",
    "officeType": "B.O",
    "Deliverystatus": "Delivery",
    "divisionname": "Karnal",
    "regionname": "Ambala  HQ",
    "circlename": "Haryana",
    "Taluk": "Indri]",
    "Districtname": "Karnal",
    "statename": "HARYANA"
  },
  {
    "pincode": "132041",
    "officename": "Sanghowa B.O",
    "officeType": "B.O",
    "Deliverystatus": "Delivery",
    "divisionname": "Karnal",
    "regionname": "Ambala  HQ",
    "circlename": "Haryana",
    "Taluk": "Karnal",
    "Districtname": "Karnal",
    "statename": "HARYANA"
  }
]
