[
  {
    "pincode": "132001",
    "officename": "Canal Colony B.O",
    "officeType": "B.O",
    "Deliverystatus": "Delivery",
    "divisionname": "Karnal",
    "regionname": "Ambala  HQ",
    "circlename": "Haryana",
    "Taluk": "Karnal",
    "Districtname": "Karnal",
    "statename": "HARYANA"
  },
  {
    "pincode": "132001",
    "officename": "Cssri B.O",
    "officeType": "B.O",
    "Deliverystatus": "Delivery",
    "divisionname": "Karnal",
    "regionname": "Ambala  HQ",
    "circlename": "Haryana",
    "Taluk": "Karnal",
    "Districtname": "Karnal",
    "statename": "HARYANA"
  },
  {
    "pincode": "132001",
    "officename": "Jundla B.O",
    "officeType": "B.O",
    "Deliverystatus": "Non-Delivery",
    "divisionname": "Karnal",
    "regionname": "Ambala  HQ",
    "circlename": "Haryana",
    "Taluk": "Karnal",
    "Districtname": "Karnal",
    "statename": "HARYANA"
  },
  {
    "pincode": "132001",
    "officename": "Kanral Industrial Area S.O",
    "officeType": "S.O",
    "Deliverystatus": "Non-Delivery",
    "divisionname": "Karnal",
    "regionname": "Ambala  HQ",
    "circlename": "Haryana",
    "Taluk": "Karnal",
    "Districtname": "Karnal",
    "statename": "HARYANA"
  },
  {
    "pincode": "132001",
    "officename": "Karnal City S.O",
    "officeType": "S.O",
    "Deliverystatus": "Non-Delivery",
    "divisionname": "Karnal",
    "regionname": "Ambala  HQ",
    "circlename": "Haryana",
    "Taluk": "Karnal",
    "Districtname": "Karnal",
    "statename": "HARYANA"
  },
  {
    "pincode": "132001",
    "officename": "Karnal GBS S.O",
    "officeType": "S.O",
    "Deliverystatus": "Non-Delivery",
    "divisionname": "Karnal",
    "regionname": "Ambala  HQ",
    "circlename": "Haryana",
    "Taluk": "Karnal",
    "Districtname": "Karnal",
    "statename": "HARYANA"
  },
  {
    "pincode": "132001",
    "officename": "Karnal H.O",
    "officeType": "H.O",
    "Deliverystatus": "Delivery",
    "divisionname": "Karnal",
    "regionname": "Ambala  HQ",
    "circlename": "Haryana",
    "Taluk": "Karnal",
    "Districtname": "Karnal",
    "statename": "HARYANA"
  },
  {
    "pincode": "132001",
    "officename": "Karnal HBC S.O",
    "officeType": "S.O",
    "Deliverystatus": "Non-Delivery",
    "divisionname": "Karnal",
    "regionname": "Ambala  HQ",
    "circlename": "Haryana",
    "Taluk": "Karnal",
    "Districtname": "Karnal",
    "statename": "HARYANA"
  },
  {
    "pincode": "132001",
    "officename": "Karnal Kutchery S.O",
    "officeType": "S.O",
    "Deliverystatus": "Non-Delivery",
    "divisionname": "Karnal",
    "regionname": "Ambala  HQ",
    "circlename": "Haryana",
    "Taluk": "Karnal",
    "Districtname": "Karnal",
    "statename": "HARYANA"
  },
  {
    "pincode": "132001",
    "officename": "Karnal Model Town S.O",
    "officeType": "S.O",
    "Deliverystatus": "Non-Delivery",
    "divisionname": "Karnal",
    "regionname": "Ambala  HQ",
    "circlename": "Haryana",
    "Taluk": "Karnal",
    "Districtname": "Karnal",
    "statename": "HARYANA"
  },
  {
    "pincode": "132001",
    "officename": "Karnal NDRI S.O",
    "officeType": "S.O",
    "Deliverystatus": "Non-Delivery",
    "divisionname": "Karnal",
    "regionname": "Ambala  HQ",
    "circlename": "Haryana",
    "Taluk": "Karnal",
    "Districtname": "Karnal",
    "statename": "HARYANA"
  },
  {
    "pincode": "132001",
    "officename": "Karnal New Prem Nagar S.O",
    "officeType": "S.O",
    "Deliverystatus": "Non-Delivery",
    "divisionname": "Karnal",
    "regionname": "Ambala  HQ",
    "circlename": "Haryana",
    "Taluk": "Karnal",
    "Districtname": "Karnal",
    "statename": "HARYANA"
  },
  {
    "pincode": "132001",
    "officename": "Karnal Partap Pura S.O",
    "officeType": "S.O",
    "Deliverystatus": "Non-Delivery",
    "divisionname": "Karnal",
    "regionname": "Ambala  HQ",
    "circlename": "Haryana",
    "Taluk": "Karnal",
    "Districtname": "Karnal",
    "statename": "HARYANA"
  },
  {
    "pincode": "132001",
    "officename": "Karnal Railway Road S.O",
    "officeType": "S.O",
    "Deliverystatus": "Non-Delivery",
    "divisionname": "Karnal",
    "regionname": "Ambala  HQ",
    "circlename": "Haryana",
    "Taluk": "Karnal",
    "Districtname": "Karnal",
    "statename": "HARYANA"
  },
  {
    "pincode": "132001",
    "officename": "Karnal Ram Nagar S.O",
    "officeType": "S.O",
    "Deliverystatus": "Non-Delivery",
    "divisionname": "Karnal",
    "regionname": "Ambala  HQ",
    "circlename": "Haryana",
    "Taluk": "Karnal",
    "Districtname": "Karnal",
    "statename": "HARYANA"
  },
  {
    "pincode": "132001",
    "officename": "Karnal Sadar Bazar S.O",
    "officeType": "S.O",
    "Deliverystatus": "Non-Delivery",
    "divisionname": "Karnal",
    "regionname": "Ambala  HQ",
    "circlename": "Haryana",
    "Taluk": "Karnal",
    "Districtname": "Karnal",
    "statename": "HARYANA"
  },
  {
    "pincode": "132001",
    "officename": "Karnal Sector-6 S.O",
    "officeType": "S.O",
    "Deliverystatus": "Non-Delivery",
    "divisionname": "Karnal",
    "regionname": "Ambala  HQ",
    "circlename": "Haryana",
    "Taluk": "Karnal",
    "Districtname": "Karnal",
    "statename": "HARYANA"
  },
  {
    "pincode": "132001",
    "officename": "Mini sectt- sector-12 Kanral S.O",
    "officeType": "S.O",
    "Deliverystatus": "Non-Delivery",
    "divisionname": "Karnal",
    "regionname": "Ambala  HQ",
    "circlename": "Haryana",
    "Taluk": "Karnal",
    "Districtname": "Karnal",
    "statename": "HARYANA"
  },
  {
    "pincode": "132001",
    "officename": "Sector 4 Karnal S.O",
    "officeType": "S.O",
    "Deliverystatus": "Non-Delivery",
    "divisionname": "Karnal",
    "regionname": "Ambala  HQ",
    "circlename": "Haryana",
    "Taluk": "Karnal",
    "Districtname": "Karnal",
    "statename": "HARYANA"
  },
  {
    "pincode": "132001",
    "officename": "Sector-8 Karnal S.O",
    "officeType": "S.O",
    "Deliverystatus": "Non-Delivery",
    "divisionname": "Karnal",
    "regionname": "Ambala  HQ",
    "circlename": "Haryana",
    "Taluk": "Karnal",
    "Districtname": "Karnal",
    "statename": "HARYANA"
  }
]
