[
  {
    "pincode": "132039",
    "officename": "Ardhana B.O",
    "officeType": "B.O",
    "Deliverystatus": "Delivery",
    "divisionname": "Karnal",
    "regionname": "Ambala  HQ",
    "circlename": "Haryana",
    "Taluk": "Assandh",
    "Districtname": "Karnal",
    "statename": "HARYANA"
  },
  {
    "pincode": "132039",
    "officename": "Assandh S.O",
    "officeType": "S.O",
    "Deliverystatus": "Delivery",
    "divisionname": "Karnal",
    "regionname": "Ambala  HQ",
    "circlename": "Haryana",
    "Taluk": "Assandh",
    "Districtname": "Karnal",
    "statename": "HARYANA"
  },
  {
    "pincode": "132039",
    "officename": "Bahari B.O",
    "officeType": "B.O",
    "Deliverystatus": "Delivery",
    "divisionname": "Karnal",
    "regionname": "Ambala  HQ",
    "circlename": "Haryana",
    "Taluk": "Assandh",
    "Districtname": "Karnal",
    "statename": "HARYANA"
  },
  {
    "pincode": "132039",
    "officename": "Bandarala B.O",
    "officeType": "B.O",
    "Deliverystatus": "Delivery",
    "divisionname": "Karnal",
    "regionname": "Ambala  HQ",
    "circlename": "Haryana",
    "Taluk": "Assandh",
    "Districtname": "Karnal",
    "statename": "HARYANA"
  },
  {
    "pincode": "132039",
    "officename": "Bilona B.O",
    "officeType": "B.O",
    "Deliverystatus": "Delivery",
    "divisionname": "Karnal",
    "regionname": "Ambala  HQ",
    "circlename": "Haryana",
    "Taluk": "Assandh",
    "Districtname": "Karnal",
    "statename": "HARYANA"
  },
  {
    "pincode": "132039",
    "officename": "Chochra B.O",
    "officeType": "B.O",
    "Deliverystatus": "Delivery",
    "divisionname": "Karnal",
    "regionname": "Ambala  HQ",
    "circlename": "Haryana",
    "Taluk": "Assandh",
    "Districtname": "Karnal",
    "statename": "HARYANA"
  },
  {
    "pincode": "132039",
    "officename": "Jai Singh Pura B.O",
    "officeType": "B.O",
    "Deliverystatus": "Delivery",
    "divisionname": "Karnal",
    "regionname": "Ambala  HQ",
    "circlename": "Haryana",
    "Taluk": "Assandh",
    "Districtname": "Karnal",
    "statename": "HARYANA"
  },
  {
    "pincode": "132039",
    "officename": "Jalmana B.O",
    "officeType": "B.O",
    "Deliverystatus": "Delivery",
    "divisionname": "Karnal",
    "regionname": "Ambala  HQ",
    "circlename": "Haryana",
    "Taluk": "Assandh",
    "Districtname": "Karnal",
    "statename": "HARYANA"
  },
  {
    "pincode": "132039",
    "officename": "Karsa Chor B.O",
    "officeType": "B.O",
    "Deliverystatus": "Delivery",
    "divisionname": "Karnal",
    "regionname": "Ambala  HQ",
    "circlename": "Haryana",
    "Taluk": "Assandh",
    "Districtname": "Karnal",
    "statename": "HARYANA"
  },
  {
    "pincode": "132039",
    "officename": "Kheri Sarf Ali B.O",
    "officeType": "B.O",
    "Deliverystatus": "Delivery",
    "divisionname": "Karnal",
    "regionname": "Ambala  HQ",
    "circlename": "Haryana",
    "Taluk": "Assandh",
    "Districtname": "Karnal",
    "statename": "HARYANA"
  },
  {
    "pincode": "132039",
    "officename": "Mardanheri B.O",
    "officeType": "B.O",
    "Deliverystatus": "Delivery",
    "divisionname": "Karnal",
    "regionname": "Ambala  HQ",
    "circlename": "Haryana",
    "Taluk": "Assandh",
    "Districtname": "Karnal",
    "statename": "HARYANA"
  },
  {
    "pincode": "132039",
    "officename": "Popran B.O",
    "officeType": "B.O",
    "Deliverystatus": "Delivery",
    "divisionname": "Karnal",
    "regionname": "Ambala  HQ",
    "circlename": "Haryana",
    "Taluk": "Assandh",
    "Districtname": "Karnal",
    "statename": "HARYANA"
  },
  {
    "pincode": "132039",
    "officename": "Rahra B.O",
    "officeType": "B.O",
    "Deliverystatus": "Delivery",
    "divisionname": "Karnal",
    "regionname": "Ambala  HQ",
    "circlename": "Haryana",
    "Taluk": "Assandh",
    "Districtname": "Karnal",
    "statename": "HARYANA"
  },
  {
    "pincode": "132039",
    "officename": "Thal B.O",
    "officeType": "B.O",
    "Deliverystatus": "Delivery",
    "divisionname": "Karnal",
    "regionname": "Ambala  HQ",
    "circlename": "Haryana",
    "Taluk": "Assandh",
    "Districtname": "Karnal",
    "statename": "HARYANA"
  },
  {
    "pincode": "132039",
    "officename": "Uplana B.O",
    "officeType": "B.O",
    "Deliverystatus": "Delivery",
    "divisionname": "Karnal",
    "regionname": "Ambala  HQ",
    "circlename": "Haryana",
    "Taluk": "Assandh",
    "Districtname": "Karnal",
    "statename": "HARYANA"
  }
]
