[
  {
    "pincode": "132104",
    "officename": "Babail B.O",
    "officeType": "B.O",
    "Deliverystatus": "Delivery",
    "divisionname": "Karnal",
    "regionname": "Ambala  HQ",
    "circlename": "Haryana",
    "Taluk": "Panipat",
    "Districtname": "Panipat",
    "statename": "HARYANA"
  },
  {
    "pincode": "132104",
    "officename": "Bapoli B.O",
    "officeType": "B.O",
    "Deliverystatus": "Delivery",
    "divisionname": "Karnal",
    "regionname": "Ambala  HQ",
    "circlename": "Haryana",
    "Taluk": "Panipat",
    "Districtname": "Panipat",
    "statename": "HARYANA"
  },
  {
    "pincode": "132104",
    "officename": "Barana B.O",
    "officeType": "B.O",
    "Deliverystatus": "Delivery",
    "divisionname": "Karnal",
    "regionname": "Ambala  HQ",
    "circlename": "Haryana",
    "Taluk": "Panipat",
    "Districtname": "Panipat",
    "statename": "HARYANA"
  },
  {
    "pincode": "132104",
    "officename": "Chandoli B.O",
    "officeType": "B.O",
    "Deliverystatus": "Delivery",
    "divisionname": "Karnal",
    "regionname": "Ambala  HQ",
    "circlename": "Haryana",
    "Taluk": "Panipat",
    "Districtname": "Panipat",
    "statename": "HARYANA"
  },
  {
    "pincode": "132104",
    "officename": "Chhajpur Kalan B.O",
    "officeType": "B.O",
    "Deliverystatus": "Delivery",
    "divisionname": "Karnal",
    "regionname": "Ambala  HQ",
    "circlename": "Haryana",
    "Taluk": "Panipat",
    "Districtname": "Panipat",
    "statename": "HARYANA"
  },
  {
    "pincode": "132104",
    "officename": "Garhi Basic B.O",
    "officeType": "B.O",
    "Deliverystatus": "Delivery",
    "divisionname": "Karnal",
    "regionname": "Ambala  HQ",
    "circlename": "Haryana",
    "Taluk": "Panipat",
    "Districtname": "Panipat",
    "statename": "HARYANA"
  },
  {
    "pincode": "132104",
    "officename": "Goela Kalan B.O",
    "officeType": "B.O",
    "Deliverystatus": "Delivery",
    "divisionname": "Karnal",
    "regionname": "Ambala  HQ",
    "circlename": "Haryana",
    "Taluk": "Panipat",
    "Districtname": "Panipat",
    "statename": "HARYANA"
  },
  {
    "pincode": "132104",
    "officename": "Jalalpur B.O",
    "officeType": "B.O",
    "Deliverystatus": "Delivery",
    "divisionname": "Karnal",
    "regionname": "Ambala  HQ",
    "circlename": "Haryana",
    "Taluk": "Panipat",
    "Districtname": "Panipat",
    "statename": "HARYANA"
  },
  {
    "pincode": "132104",
    "officename": "Kurar B.O",
    "officeType": "B.O",
    "Deliverystatus": "Delivery",
    "divisionname": "Karnal",
    "regionname": "Ambala  HQ",
    "circlename": "Haryana",
    "Taluk": "Panipat",
    "Districtname": "Panipat",
    "statename": "HARYANA"
  },
  {
    "pincode": "132104",
    "officename": "Nanhera B.O",
    "officeType": "B.O",
    "Deliverystatus": "Delivery",
    "divisionname": "Karnal",
    "regionname": "Ambala  HQ",
    "circlename": "Haryana",
    "Taluk": "Panipat",
    "Districtname": "Panipat",
    "statename": "HARYANA"
  },
  {
    "pincode": "132104",
    "officename": "Noorwala B.O",
    "officeType": "B.O",
    "Deliverystatus": "Delivery",
    "divisionname": "Karnal",
    "regionname": "Ambala  HQ",
    "circlename": "Haryana",
    "Taluk": "Panipat",
    "Districtname": "Panipat",
    "statename": "HARYANA"
  },
  {
    "pincode": "132104",
    "officename": "PPT Camp No. 2 B.O",
    "officeType": "B.O",
    "Deliverystatus": "Delivery",
    "divisionname": "Karnal",
    "regionname": "Ambala  HQ",
    "circlename": "Haryana",
    "Taluk": "Panipat",
    "Districtname": "Panipat",
    "statename": "HARYANA"
  },
  {
    "pincode": "132104",
    "officename": "PPT Kathery (U) B.O",
    "officeType": "B.O",
    "Deliverystatus": "Delivery",
    "divisionname": "Karnal",
    "regionname": "Ambala  HQ",
    "circlename": "Haryana",
    "Taluk": "Panipat",
    "Districtname": "Panipat",
    "statename": "HARYANA"
  },
  {
    "pincode": "132104",
    "officename": "Panipat Khadi Ashram S.O",
    "officeType": "S.O",
    "Deliverystatus": "Delivery",
    "divisionname": "Karnal",
    "regionname": "Ambala  HQ",
    "circlename": "Haryana",
    "Taluk": "Panipat",
    "Districtname": "Panipat",
    "statename": "HARYANA"
  },
  {
    "pincode": "132104",
    "officename": "Rajkheri B.O",
    "officeType": "B.O",
    "Deliverystatus": "Delivery",
    "divisionname": "Karnal",
    "regionname": "Ambala  HQ",
    "circlename": "Haryana",
    "Taluk": "Panipat",
    "Districtname": "Panipat",
    "statename": "HARYANA"
  },
  {
    "pincode": "132104",
    "officename": "Risalu B.O",
    "officeType": "B.O",
    "Deliverystatus": "Delivery",
    "divisionname": "Karnal",
    "regionname": "Ambala  HQ",
    "circlename": "Haryana",
    "Taluk": "Panipat",
    "Districtname": "Panipat",
    "statename": "HARYANA"
  },
  {
    "pincode": "132104",
    "officename": "Sanauli Khurd B.O",
    "officeType": "B.O",
    "Deliverystatus": "Delivery",
    "divisionname": "Karnal",
    "regionname": "Ambala  HQ",
    "circlename": "Haryana",
    "Taluk": "Panipat",
    "Districtname": "Panipat",
    "statename": "HARYANA"
  },
  {
    "pincode": "132104",
    "officename": "Ugra Kheri B.O",
    "officeType": "B.O",
    "Deliverystatus": "Delivery",
    "divisionname": "Karnal",
    "regionname": "Ambala  HQ",
    "circlename": "Haryana",
    "Taluk": "Panipat",
    "Districtname": "Panipat",
    "statename": "HARYANA"
  }
]
