[
  {
    "pincode": "132113",
    "officename": "Adyana B.O",
    "officeType": "B.O",
    "Deliverystatus": "Delivery",
    "divisionname": "Karnal",
    "regionname": "Ambala  HQ",
    "circlename": "Haryana",
    "Taluk": "Panipat",
    "Districtname": "Panipat",
    "statename": "HARYANA"
  },
  {
    "pincode": "132113",
    "officename": "Allupur B.O",
    "officeType": "B.O",
    "Deliverystatus": "Delivery",
    "divisionname": "Karnal",
    "regionname": "Ambala  HQ",
    "circlename": "Haryana",
    "Taluk": "Panipat",
    "Districtname": "Panipat",
    "statename": "HARYANA"
  },
  {
    "pincode": "132113",
    "officename": "Atula B.O",
    "officeType": "B.O",
    "Deliverystatus": "Delivery",
    "divisionname": "Karnal",
    "regionname": "Ambala  HQ",
    "circlename": "Haryana",
    "Taluk": "Panipat",
    "Districtname": "Panipat",
    "statename": "HARYANA"
  },
  {
    "pincode": "132113",
    "officename": "Bhandari B.O",
    "officeType": "B.O",
    "Deliverystatus": "Delivery",
    "divisionname": "Karnal",
    "regionname": "Ambala  HQ",
    "circlename": "Haryana",
    "Taluk": "Panipat",
    "Districtname": "Panipat",
    "statename": "HARYANA"
  },
  {
    "pincode": "132113",
    "officename": "Joshi B.O",
    "officeType": "B.O",
    "Deliverystatus": "Delivery",
    "divisionname": "Karnal",
    "regionname": "Ambala  HQ",
    "circlename": "Haryana",
    "Taluk": "Panipat",
    "Districtname": "Panipat",
    "statename": "HARYANA"
  },
  {
    "pincode": "132113",
    "officename": "Madlauda S.O",
    "officeType": "S.O",
    "Deliverystatus": "Delivery",
    "divisionname": "Karnal",
    "regionname": "Ambala  HQ",
    "circlename": "Haryana",
    "Taluk": "Panipat",
    "Districtname": "Panipat",
    "statename": "HARYANA"
  },
  {
    "pincode": "132113",
    "officename": "Nara B.O",
    "officeType": "B.O",
    "Deliverystatus": "Delivery",
    "divisionname": "Karnal",
    "regionname": "Ambala  HQ",
    "circlename": "Haryana",
    "Taluk": "Panipat  panipat",
    "Districtname": "Panipat",
    "statename": "HARYANA"
  },
  {
    "pincode": "132113",
    "officename": "Qawi B.O",
    "officeType": "B.O",
    "Deliverystatus": "Delivery",
    "divisionname": "Karnal",
    "regionname": "Ambala  HQ",
    "circlename": "Haryana",
    "Taluk": "Panipat",
    "Districtname": "Panipat",
    "statename": "HARYANA"
  },
  {
    "pincode": "132113",
    "officename": "Shera B.O",
    "officeType": "B.O",
    "Deliverystatus": "Delivery",
    "divisionname": "Karnal",
    "regionname": "Ambala  HQ",
    "circlename": "Haryana",
    "Taluk": "Panipat",
    "Districtname": "Panipat",
    "statename": "HARYANA"
  },
  {
    "pincode": "132113",
    "officename": "Waisor B.O",
    "officeType": "B.O",
    "Deliverystatus": "Delivery",
    "divisionname": "Karnal",
    "regionname": "Ambala  HQ",
    "circlename": "Haryana",
    "Taluk": "Panipat",
    "Districtname": "Panipat",
    "statename": "HARYANA"
  }
]
