[
  {
    "pincode": "132103",
    "officename": "Ansal Sushant City Panipat S.O",
    "officeType": "S.O",
    "Deliverystatus": "Non-Delivery",
    "divisionname": "Karnal",
    "regionname": "Ambala  HQ",
    "circlename": "Haryana",
    "Taluk": "Panipat",
    "Districtname": "Panipat",
    "statename": "HARYANA"
  },
  {
    "pincode": "132103",
    "officename": "Panipat City S.O",
    "officeType": "S.O",
    "Deliverystatus": "Non-Delivery",
    "divisionname": "Karnal",
    "regionname": "Ambala  HQ",
    "circlename": "Haryana",
    "Taluk": "Panipat",
    "Districtname": "Panipat",
    "statename": "HARYANA"
  },
  {
    "pincode": "132103",
    "officename": "Panipat GT Road S.O",
    "officeType": "S.O",
    "Deliverystatus": "Non-Delivery",
    "divisionname": "Karnal",
    "regionname": "Ambala  HQ",
    "circlename": "Haryana",
    "Taluk": "Panipat",
    "Districtname": "Panipat",
    "statename": "HARYANA"
  },
  {
    "pincode": "132103",
    "officename": "Panipat H.O",
    "officeType": "H.O",
    "Deliverystatus": "Delivery",
    "divisionname": "Karnal",
    "regionname": "Ambala  HQ",
    "circlename": "Haryana",
    "Taluk": "Panipat",
    "Districtname": "Panipat",
    "statename": "HARYANA"
  },
  {
    "pincode": "132103",
    "officename": "Panipat Kishanpura S.O",
    "officeType": "S.O",
    "Deliverystatus": "Non-Delivery",
    "divisionname": "Karnal",
    "regionname": "Ambala  HQ",
    "circlename": "Haryana",
    "Taluk": "Panipat",
    "Districtname": "Panipat",
    "statename": "HARYANA"
  },
  {
    "pincode": "132103",
    "officename": "Panipat Kranti Nagar S.O",
    "officeType": "S.O",
    "Deliverystatus": "Non-Delivery",
    "divisionname": "Karnal",
    "regionname": "Ambala  HQ",
    "circlename": "Haryana",
    "Taluk": "Panipat",
    "Districtname": "Panipat",
    "statename": "HARYANA"
  },
  {
    "pincode": "132103",
    "officename": "Panipat Mandi S.O",
    "officeType": "S.O",
    "Deliverystatus": "Non-Delivery",
    "divisionname": "Karnal",
    "regionname": "Ambala  HQ",
    "circlename": "Haryana",
    "Taluk": "Panipat",
    "Districtname": "Panipat",
    "statename": "HARYANA"
  },
  {
    "pincode": "132103",
    "officename": "Panipat Model Town S.O",
    "officeType": "S.O",
    "Deliverystatus": "Non-Delivery",
    "divisionname": "Karnal",
    "regionname": "Ambala  HQ",
    "circlename": "Haryana",
    "Taluk": "Panipat",
    "Districtname": "Panipat",
    "statename": "HARYANA"
  },
  {
    "pincode": "132103",
    "officename": "Panipat N.S.M. S.O",
    "officeType": "S.O",
    "Deliverystatus": "Non-Delivery",
    "divisionname": "Karnal",
    "regionname": "Ambala  HQ",
    "circlename": "Haryana",
    "Taluk": "Panipat",
    "Districtname": "Panipat",
    "statename": "HARYANA"
  },
  {
    "pincode": "132103",
    "officename": "Panipat Patel Nagar S.O",
    "officeType": "S.O",
    "Deliverystatus": "Non-Delivery",
    "divisionname": "Karnal",
    "regionname": "Ambala  HQ",
    "circlename": "Haryana",
    "Taluk": "Panipat",
    "Districtname": "Panipat",
    "statename": "HARYANA"
  },
  {
    "pincode": "132103",
    "officename": "Panipat Sugar Mills S.O",
    "officeType": "S.O",
    "Deliverystatus": "Non-Delivery",
    "divisionname": "Karnal",
    "regionname": "Ambala  HQ",
    "circlename": "Haryana",
    "Taluk": "Panipat",
    "Districtname": "Panipat",
    "statename": "HARYANA"
  }
]
