[
  {
    "pincode": "133004",
    "officename": "Bara B.O",
    "officeType": "B.O",
    "Deliverystatus": "Delivery",
    "divisionname": "Ambala",
    "regionname": "Ambala  HQ",
    "circlename": "Haryana",
    "Taluk": "Ambala",
    "Districtname": "Ambala",
    "statename": "HARYANA"
  },
  {
    "pincode": "133004",
    "officename": "Baraula B.O",
    "officeType": "B.O",
    "Deliverystatus": "Delivery",
    "divisionname": "Ambala",
    "regionname": "Ambala  HQ",
    "circlename": "Haryana",
    "Taluk": "Ambala",
    "Districtname": "Ambala",
    "statename": "HARYANA"
  },
  {
    "pincode": "133004",
    "officename": "Dukheri B.O",
    "officeType": "B.O",
    "Deliverystatus": "Delivery",
    "divisionname": "Ambala",
    "regionname": "Ambala  HQ",
    "circlename": "Haryana",
    "Taluk": "Ambala",
    "Districtname": "Ambala",
    "statename": "HARYANA"
  },
  {
    "pincode": "133004",
    "officename": "Durana B.O",
    "officeType": "B.O",
    "Deliverystatus": "Delivery",
    "divisionname": "Ambala",
    "regionname": "Ambala  HQ",
    "circlename": "Haryana",
    "Taluk": "Ambala",
    "Districtname": "Ambala",
    "statename": "HARYANA"
  },
  {
    "pincode": "133004",
    "officename": "Kuldeep Nagar S.O",
    "officeType": "S.O",
    "Deliverystatus": "Delivery",
    "divisionname": "Ambala",
    "regionname": "Ambala  HQ",
    "circlename": "Haryana",
    "Taluk": "Ambala",
    "Districtname": "Ambala",
    "statename": "HARYANA"
  },
  {
    "pincode": "133004",
    "officename": "Mardon Sahib B.O",
    "officeType": "B.O",
    "Deliverystatus": "Delivery",
    "divisionname": "Ambala",
    "regionname": "Ambala  HQ",
    "circlename": "Haryana",
    "Taluk": "Ambala",
    "Districtname": "Ambala",
    "statename": "HARYANA"
  },
  {
    "pincode": "133004",
    "officename": "Mohra B.O",
    "officeType": "B.O",
    "Deliverystatus": "Delivery",
    "divisionname": "Ambala",
    "regionname": "Ambala  HQ",
    "circlename": "Haryana",
    "Taluk": "Ambala",
    "Districtname": "Ambala",
    "statename": "HARYANA"
  },
  {
    "pincode": "133004",
    "officename": "Shah Pur B.O",
    "officeType": "B.O",
    "Deliverystatus": "Delivery",
    "divisionname": "Ambala",
    "regionname": "Ambala  HQ",
    "circlename": "Haryana",
    "Taluk": "Ambala",
    "Districtname": "Ambala",
    "statename": "HARYANA"
  },
  {
    "pincode": "133004",
    "officename": "Tharwa B.O",
    "officeType": "B.O",
    "Deliverystatus": "Delivery",
    "divisionname": "Ambala",
    "regionname": "Ambala  HQ",
    "circlename": "Haryana",
    "Taluk": "Ambala",
    "Districtname": "Ambala",
    "statename": "HARYANA"
  }
]
