[
  {
    "pincode": "133104",
    "officename": "Kalpi B.O",
    "officeType": "B.O",
    "Deliverystatus": "Delivery",
    "divisionname": "Ambala",
    "regionname": "Ambala  HQ",
    "circlename": "Haryana",
    "Taluk": "Ambala",
    "Districtname": "Ambala",
    "statename": "HARYANA"
  },
  {
    "pincode": "133104",
    "officename": "Khudda Kalan B.O",
    "officeType": "B.O",
    "Deliverystatus": "Delivery",
    "divisionname": "Ambala",
    "regionname": "Ambala  HQ",
    "circlename": "Haryana",
    "Taluk": "Ambala",
    "Districtname": "Ambala",
    "statename": "HARYANA"
  },
  {
    "pincode": "133104",
    "officename": "Mehmoodpur B.O",
    "officeType": "B.O",
    "Deliverystatus": "Delivery",
    "divisionname": "Ambala",
    "regionname": "Ambala  HQ",
    "circlename": "Haryana",
    "Taluk": "Ambala",
    "Districtname": "Ambala",
    "statename": "HARYANA"
  },
  {
    "pincode": "133104",
    "officename": "Nahoni B.O",
    "officeType": "B.O",
    "Deliverystatus": "Delivery",
    "divisionname": "Ambala",
    "regionname": "Ambala  HQ",
    "circlename": "Haryana",
    "Taluk": "Barara",
    "Districtname": "Ambala",
    "statename": "HARYANA"
  },
  {
    "pincode": "133104",
    "officename": "Pilkhani B.O",
    "officeType": "B.O",
    "Deliverystatus": "Delivery",
    "divisionname": "Ambala",
    "regionname": "Ambala  HQ",
    "circlename": "Haryana",
    "Taluk": "Ambala",
    "Districtname": "Ambala",
    "statename": "HARYANA"
  },
  {
    "pincode": "133104",
    "officename": "Saha S.O",
    "officeType": "S.O",
    "Deliverystatus": "Delivery",
    "divisionname": "Ambala",
    "regionname": "Ambala  HQ",
    "circlename": "Haryana",
    "Taluk": "Ambala",
    "Districtname": "Ambala",
    "statename": "HARYANA"
  },
  {
    "pincode": "133104",
    "officename": "Samlerhi B.O",
    "officeType": "B.O",
    "Deliverystatus": "Delivery",
    "divisionname": "Ambala",
    "regionname": "Ambala  HQ",
    "circlename": "Haryana",
    "Taluk": "Ambala",
    "Districtname": "Ambala",
    "statename": "HARYANA"
  },
  {
    "pincode": "133104",
    "officename": "Tepla B.O",
    "officeType": "B.O",
    "Deliverystatus": "Delivery",
    "divisionname": "Ambala",
    "regionname": "Ambala  HQ",
    "circlename": "Haryana",
    "Taluk": "Ambala",
    "Districtname": "Ambala",
    "statename": "HARYANA"
  }
]
