[
  {
    "pincode": "133205",
    "officename": "Adhoya S.O",
    "officeType": "S.O",
    "Deliverystatus": "Delivery",
    "divisionname": "Ambala",
    "regionname": "Ambala  HQ",
    "circlename": "Haryana",
    "Taluk": "Barara",
    "Districtname": "Ambala",
    "statename": "HARYANA"
  },
  {
    "pincode": "133205",
    "officename": "Adhoyi B.O",
    "officeType": "B.O",
    "Deliverystatus": "Delivery",
    "divisionname": "Ambala",
    "regionname": "Ambala  HQ",
    "circlename": "Haryana",
    "Taluk": "Ambala",
    "Districtname": "Ambala",
    "statename": "HARYANA"
  },
  {
    "pincode": "133205",
    "officename": "Kambassi B.O",
    "officeType": "B.O",
    "Deliverystatus": "Delivery",
    "divisionname": "Ambala",
    "regionname": "Ambala  HQ",
    "circlename": "Haryana",
    "Taluk": "Ambala",
    "Districtname": "Ambala",
    "statename": "HARYANA"
  },
  {
    "pincode": "133205",
    "officename": "Kaserla Kalan B.O",
    "officeType": "B.O",
    "Deliverystatus": "Delivery",
    "divisionname": "Ambala",
    "regionname": "Ambala  HQ",
    "circlename": "Haryana",
    "Taluk": "Ambala",
    "Districtname": "Ambala",
    "statename": "HARYANA"
  },
  {
    "pincode": "133205",
    "officename": "Manu Majra B.O",
    "officeType": "B.O",
    "Deliverystatus": "Delivery",
    "divisionname": "Ambala",
    "regionname": "Ambala  HQ",
    "circlename": "Haryana",
    "Taluk": "Ambala",
    "Districtname": "Ambala",
    "statename": "HARYANA"
  },
  {
    "pincode": "133205",
    "officename": "Sewan Majra B.O",
    "officeType": "B.O",
    "Deliverystatus": "Delivery",
    "divisionname": "Ambala",
    "regionname": "Ambala  HQ",
    "circlename": "Haryana",
    "Taluk": "Ambala",
    "Districtname": "Ambala",
    "statename": "HARYANA"
  },
  {
    "pincode": "133205",
    "officename": "Thumber B.O",
    "officeType": "B.O",
    "Deliverystatus": "Delivery",
    "divisionname": "Ambala",
    "regionname": "Ambala  HQ",
    "circlename": "Haryana",
    "Taluk": "Ambala",
    "Districtname": "Ambala",
    "statename": "HARYANA"
  },
  {
    "pincode": "133205",
    "officename": "Ugala B.O",
    "officeType": "B.O",
    "Deliverystatus": "Delivery",
    "divisionname": "Ambala",
    "regionname": "Ambala  HQ",
    "circlename": "Haryana",
    "Taluk": "Barara",
    "Districtname": "Ambala",
    "statename": "HARYANA"
  }
]
