[
  {
    "pincode": "133204",
    "officename": "Haveli B.O",
    "officeType": "B.O",
    "Deliverystatus": "Delivery",
    "divisionname": "Ambala",
    "regionname": "Ambala  HQ",
    "circlename": "Haryana",
    "Taluk": "Ambala",
    "Districtname": "Yamuna Nagar",
    "statename": "HARYANA"
  },
  {
    "pincode": "133204",
    "officename": "Laharpur B.O",
    "officeType": "B.O",
    "Deliverystatus": "Delivery",
    "divisionname": "Ambala",
    "regionname": "Ambala  HQ",
    "circlename": "Haryana",
    "Taluk": "Ambala",
    "Districtname": "Yamuna Nagar",
    "statename": "HARYANA"
  },
  {
    "pincode": "133204",
    "officename": "Mehmoodpur B.O",
    "officeType": "B.O",
    "Deliverystatus": "Delivery",
    "divisionname": "Ambala",
    "regionname": "Ambala  HQ",
    "circlename": "Haryana",
    "Taluk": "Ambala",
    "Districtname": "Yamuna Nagar",
    "statename": "HARYANA"
  },
  {
    "pincode": "133204",
    "officename": "Noshera B.O",
    "officeType": "B.O",
    "Deliverystatus": "Delivery",
    "divisionname": "Ambala",
    "regionname": "Ambala  HQ",
    "circlename": "Haryana",
    "Taluk": "Ambala",
    "Districtname": "Yamuna Nagar",
    "statename": "HARYANA"
  },
  {
    "pincode": "133204",
    "officename": "Pipliwala B.O",
    "officeType": "B.O",
    "Deliverystatus": "Delivery",
    "divisionname": "Ambala",
    "regionname": "Ambala  HQ",
    "circlename": "Haryana",
    "Taluk": "Ambala",
    "Districtname": "Yamuna Nagar",
    "statename": "HARYANA"
  },
  {
    "pincode": "133204",
    "officename": "Rasulpur B.O",
    "officeType": "B.O",
    "Deliverystatus": "Delivery",
    "divisionname": "Ambala",
    "regionname": "Ambala  HQ",
    "circlename": "Haryana",
    "Taluk": "Ambala",
    "Districtname": "Yamuna Nagar",
    "statename": "HARYANA"
  },
  {
    "pincode": "133204",
    "officename": "Sadhaura S.O",
    "officeType": "S.O",
    "Deliverystatus": "Delivery",
    "divisionname": "Ambala",
    "regionname": "Ambala  HQ",
    "circlename": "Haryana",
    "Taluk": "Yamuna Nagar",
    "Districtname": "Yamuna Nagar",
    "statename": "HARYANA"
  },
  {
    "pincode": "133204",
    "officename": "Sadiqpur B.O",
    "officeType": "B.O",
    "Deliverystatus": "Delivery",
    "divisionname": "Ambala",
    "regionname": "Ambala  HQ",
    "circlename": "Haryana",
    "Taluk": "Chhachhrauli",
    "Districtname": "Yamuna Nagar",
    "statename": "HARYANA"
  },
  {
    "pincode": "133204",
    "officename": "Safilpur B.O",
    "officeType": "B.O",
    "Deliverystatus": "Delivery",
    "divisionname": "Ambala",
    "regionname": "Ambala  HQ",
    "circlename": "Haryana",
    "Taluk": "Ambala",
    "Districtname": "Yamuna Nagar",
    "statename": "HARYANA"
  },
  {
    "pincode": "133204",
    "officename": "Salehpur B.O",
    "officeType": "B.O",
    "Deliverystatus": "Delivery",
    "divisionname": "Ambala",
    "regionname": "Ambala  HQ",
    "circlename": "Haryana",
    "Taluk": "Ambala",
    "Districtname": "Yamuna Nagar",
    "statename": "HARYANA"
  }
]
