[
  {
    "pincode": "134003",
    "officename": "Adarsh Nagar S.O",
    "officeType": "S.O",
    "Deliverystatus": "Non-Delivery",
    "divisionname": "Ambala",
    "regionname": "Ambala  HQ",
    "circlename": "Haryana",
    "Taluk": "Ambala",
    "Districtname": "Ambala",
    "statename": "HARYANA"
  },
  {
    "pincode": "134003",
    "officename": "Ambala  City Kucthery S.O",
    "officeType": "S.O",
    "Deliverystatus": "Non-Delivery",
    "divisionname": "Ambala",
    "regionname": "Ambala  HQ",
    "circlename": "Haryana",
    "Taluk": "Ambala",
    "Districtname": "Ambala",
    "statename": "HARYANA"
  },
  {
    "pincode": "134003",
    "officename": "Ambala City H.O",
    "officeType": "H.O",
    "Deliverystatus": "Delivery",
    "divisionname": "Ambala",
    "regionname": "Ambala  HQ",
    "circlename": "Haryana",
    "Taluk": "Ambala",
    "Districtname": "Ambala",
    "statename": "HARYANA"
  },
  {
    "pincode": "134003",
    "officename": "Anaj Mandi S.O (Ambala)",
    "officeType": "S.O",
    "Deliverystatus": "Non-Delivery",
    "divisionname": "Ambala",
    "regionname": "Ambala  HQ",
    "circlename": "Haryana",
    "Taluk": "Ambala",
    "Districtname": "Ambala",
    "statename": "HARYANA"
  },
  {
    "pincode": "134003",
    "officename": "Bazar Basti Ram S.O",
    "officeType": "S.O",
    "Deliverystatus": "Non-Delivery",
    "divisionname": "Ambala",
    "regionname": "Ambala  HQ",
    "circlename": "Haryana",
    "Taluk": "Ambala",
    "Districtname": "Ambala",
    "statename": "HARYANA"
  },
  {
    "pincode": "134003",
    "officename": "D.A.V.College S.O",
    "officeType": "S.O",
    "Deliverystatus": "Non-Delivery",
    "divisionname": "Ambala",
    "regionname": "Ambala  HQ",
    "circlename": "Haryana",
    "Taluk": "Ambala",
    "Districtname": "Ambala",
    "statename": "HARYANA"
  },
  {
    "pincode": "134003",
    "officename": "Kanwala B.O",
    "officeType": "B.O",
    "Deliverystatus": "Delivery",
    "divisionname": "Ambala",
    "regionname": "Ambala  HQ",
    "circlename": "Haryana",
    "Taluk": "Ambala",
    "Districtname": "Ambala",
    "statename": "HARYANA"
  },
  {
    "pincode": "134003",
    "officename": "Model Town Ambala City S.O",
    "officeType": "S.O",
    "Deliverystatus": "Non-Delivery",
    "divisionname": "Ambala",
    "regionname": "Ambala  HQ",
    "circlename": "Haryana",
    "Taluk": "Ambala",
    "Districtname": "Ambala",
    "statename": "HARYANA"
  },
  {
    "pincode": "134003",
    "officename": "Motor Stand S.O",
    "officeType": "S.O",
    "Deliverystatus": "Non-Delivery",
    "divisionname": "Ambala",
    "regionname": "Ambala  HQ",
    "circlename": "Haryana",
    "Taluk": "Ambala",
    "Districtname": "Ambala",
    "statename": "HARYANA"
  },
  {
    "pincode": "134003",
    "officename": "Preet Nagar S.O (Ambala)",
    "officeType": "S.O",
    "Deliverystatus": "Non-Delivery",
    "divisionname": "Ambala",
    "regionname": "Ambala  HQ",
    "circlename": "Haryana",
    "Taluk": "Ambala",
    "Districtname": "Ambala",
    "statename": "HARYANA"
  },
  {
    "pincode": "134003",
    "officename": "Prem Nagar S.O (Ambala)",
    "officeType": "S.O",
    "Deliverystatus": "Non-Delivery",
    "divisionname": "Ambala",
    "regionname": "Ambala  HQ",
    "circlename": "Haryana",
    "Taluk": "Ambala",
    "Districtname": "Ambala",
    "statename": "HARYANA"
  },
  {
    "pincode": "134003",
    "officename": "Railway Road Ambala City S.O",
    "officeType": "S.O",
    "Deliverystatus": "Non-Delivery",
    "divisionname": "Ambala",
    "regionname": "Ambala  HQ",
    "circlename": "Haryana",
    "Taluk": "Ambala",
    "Districtname": "Ambala",
    "statename": "HARYANA"
  },
  {
    "pincode": "134003",
    "officename": "Subzi  Mandi S.O",
    "officeType": "S.O",
    "Deliverystatus": "Non-Delivery",
    "divisionname": "Ambala",
    "regionname": "Ambala  HQ",
    "circlename": "Haryana",
    "Taluk": "Ambala",
    "Districtname": "Ambala",
    "statename": "HARYANA"
  }
]
