[
  {
    "pincode": "135003",
    "officename": "Balchhapar B.O",
    "officeType": "B.O",
    "Deliverystatus": "Delivery",
    "divisionname": "Ambala",
    "regionname": "Ambala  HQ",
    "circlename": "Haryana",
    "Taluk": "Ambala",
    "Districtname": "Yamuna Nagar",
    "statename": "HARYANA"
  },
  {
    "pincode": "135003",
    "officename": "Bherthal B.O",
    "officeType": "B.O",
    "Deliverystatus": "Delivery",
    "divisionname": "Ambala",
    "regionname": "Ambala  HQ",
    "circlename": "Haryana",
    "Taluk": "Ambala",
    "Districtname": "Yamuna Nagar",
    "statename": "HARYANA"
  },
  {
    "pincode": "135003",
    "officename": "Dadupur B.O",
    "officeType": "B.O",
    "Deliverystatus": "Delivery",
    "divisionname": "Ambala",
    "regionname": "Ambala  HQ",
    "circlename": "Haryana",
    "Taluk": "Chhachhrauli",
    "Districtname": "Yamuna Nagar",
    "statename": "HARYANA"
  },
  {
    "pincode": "135003",
    "officename": "Jagadhri Court S.O",
    "officeType": "S.O",
    "Deliverystatus": "Non-Delivery",
    "divisionname": "Ambala",
    "regionname": "Ambala  HQ",
    "circlename": "Haryana",
    "Taluk": "Jagadhri",
    "Districtname": "Yamuna Nagar",
    "statename": "HARYANA"
  },
  {
    "pincode": "135003",
    "officename": "Jagadhri S.O",
    "officeType": "S.O",
    "Deliverystatus": "Delivery",
    "divisionname": "Ambala",
    "regionname": "Ambala  HQ",
    "circlename": "Haryana",
    "Taluk": "",
    "Districtname": "Yamuna Nagar",
    "statename": "HARYANA"
  },
  {
    "pincode": "135003",
    "officename": "Jagadhri Town S.O",
    "officeType": "S.O",
    "Deliverystatus": "Non-Delivery",
    "divisionname": "Ambala",
    "regionname": "Ambala  HQ",
    "circlename": "Haryana",
    "Taluk": "Jagadhri",
    "Districtname": "Yamuna Nagar",
    "statename": "HARYANA"
  },
  {
    "pincode": "135003",
    "officename": "Jroda B.O",
    "officeType": "B.O",
    "Deliverystatus": "Delivery",
    "divisionname": "Ambala",
    "regionname": "Ambala  HQ",
    "circlename": "Haryana",
    "Taluk": "Ambala",
    "Districtname": "Yamuna Nagar",
    "statename": "HARYANA"
  },
  {
    "pincode": "135003",
    "officename": "Kharwan B.O",
    "officeType": "B.O",
    "Deliverystatus": "Non-Delivery",
    "divisionname": "Ambala",
    "regionname": "Ambala  HQ",
    "circlename": "Haryana",
    "Taluk": "Yamuna Nagar",
    "Districtname": "Yamuna Nagar",
    "statename": "HARYANA"
  },
  {
    "pincode": "135003",
    "officename": "Khera B.O",
    "officeType": "B.O",
    "Deliverystatus": "Delivery",
    "divisionname": "Ambala",
    "regionname": "Ambala  HQ",
    "circlename": "Haryana",
    "Taluk": "Ambala",
    "Districtname": "Yamuna Nagar",
    "statename": "HARYANA"
  },
  {
    "pincode": "135003",
    "officename": "Mandhar B.O",
    "officeType": "B.O",
    "Deliverystatus": "Delivery",
    "divisionname": "Ambala",
    "regionname": "Ambala  HQ",
    "circlename": "Haryana",
    "Taluk": "Ambala",
    "Districtname": "Yamuna Nagar",
    "statename": "HARYANA"
  },
  {
    "pincode": "135003",
    "officename": "Mehlanwali B.O",
    "officeType": "B.O",
    "Deliverystatus": "Delivery",
    "divisionname": "Ambala",
    "regionname": "Ambala  HQ",
    "circlename": "Haryana",
    "Taluk": "Ambala",
    "Districtname": "Yamuna Nagar",
    "statename": "HARYANA"
  },
  {
    "pincode": "135003",
    "officename": "Mussimbal B.O",
    "officeType": "B.O",
    "Deliverystatus": "Delivery",
    "divisionname": "Ambala",
    "regionname": "Ambala  HQ",
    "circlename": "Haryana",
    "Taluk": "Ambala",
    "Districtname": "Yamuna Nagar",
    "statename": "HARYANA"
  },
  {
    "pincode": "135003",
    "officename": "Pabni Kalan B.O",
    "officeType": "B.O",
    "Deliverystatus": "Delivery",
    "divisionname": "Ambala",
    "regionname": "Ambala  HQ",
    "circlename": "Haryana",
    "Taluk": "Ambala",
    "Districtname": "Yamuna Nagar",
    "statename": "HARYANA"
  },
  {
    "pincode": "135003",
    "officename": "Parkash Chowk S.O",
    "officeType": "S.O",
    "Deliverystatus": "Non-Delivery",
    "divisionname": "Ambala",
    "regionname": "Ambala  HQ",
    "circlename": "Haryana",
    "Taluk": "Jagadhri",
    "Districtname": "Yamuna Nagar",
    "statename": "HARYANA"
  },
  {
    "pincode": "135003",
    "officename": "Udhamgarh B.O",
    "officeType": "B.O",
    "Deliverystatus": "Delivery",
    "divisionname": "Ambala",
    "regionname": "Ambala  HQ",
    "circlename": "Haryana",
    "Taluk": "Ambala",
    "Districtname": "Yamuna Nagar",
    "statename": "HARYANA"
  }
]
