[
  {
    "pincode": "135001",
    "officename": "Bhatia Nagar S.O",
    "officeType": "S.O",
    "Deliverystatus": "Non-Delivery",
    "divisionname": "Ambala",
    "regionname": "Ambala  HQ",
    "circlename": "Haryana",
    "Taluk": "Jagadhri",
    "Districtname": "Yamuna Nagar",
    "statename": "HARYANA"
  },
  {
    "pincode": "135001",
    "officename": "Guru Gobind Singh Complex S.O",
    "officeType": "S.O",
    "Deliverystatus": "Non-Delivery",
    "divisionname": "Ambala",
    "regionname": "Ambala  HQ",
    "circlename": "Haryana",
    "Taluk": "Yamuna Nagar",
    "Districtname": "Yamuna Nagar",
    "statename": "HARYANA"
  },
  {
    "pincode": "135001",
    "officename": "Harnaul B.O",
    "officeType": "B.O",
    "Deliverystatus": "Delivery",
    "divisionname": "Ambala",
    "regionname": "Ambala  HQ",
    "circlename": "Haryana",
    "Taluk": "Ambala",
    "Districtname": "Yamuna Nagar",
    "statename": "HARYANA"
  },
  {
    "pincode": "135001",
    "officename": "Model Town S.O (Yamuna Nagar)",
    "officeType": "S.O",
    "Deliverystatus": "Non-Delivery",
    "divisionname": "Ambala",
    "regionname": "Ambala  HQ",
    "circlename": "Haryana",
    "Taluk": "Jagadhri",
    "Districtname": "Yamuna Nagar",
    "statename": "HARYANA"
  },
  {
    "pincode": "135001",
    "officename": "Mud Hut Colony S.O",
    "officeType": "S.O",
    "Deliverystatus": "Non-Delivery",
    "divisionname": "Ambala",
    "regionname": "Ambala  HQ",
    "circlename": "Haryana",
    "Taluk": "Jagadhri",
    "Districtname": "Yamuna Nagar",
    "statename": "HARYANA"
  },
  {
    "pincode": "135001",
    "officename": "Ram Pura Olony S.O",
    "officeType": "S.O",
    "Deliverystatus": "Non-Delivery",
    "divisionname": "Ambala",
    "regionname": "Ambala  HQ",
    "circlename": "Haryana",
    "Taluk": "Jagadhri",
    "Districtname": "Yamuna Nagar",
    "statename": "HARYANA"
  },
  {
    "pincode": "135001",
    "officename": "Sugar Mill S.O",
    "officeType": "S.O",
    "Deliverystatus": "Non-Delivery",
    "divisionname": "Ambala",
    "regionname": "Ambala  HQ",
    "circlename": "Haryana",
    "Taluk": "Jagadhri",
    "Districtname": "Yamuna Nagar",
    "statename": "HARYANA"
  },
  {
    "pincode": "135001",
    "officename": "Yamuna Nagar Railway Station S.O",
    "officeType": "S.O",
    "Deliverystatus": "Non-Delivery",
    "divisionname": "Ambala",
    "regionname": "Ambala  HQ",
    "circlename": "Haryana",
    "Taluk": "Yamuna Nagar",
    "Districtname": "Yamuna Nagar",
    "statename": "HARYANA"
  },
  {
    "pincode": "135001",
    "officename": "Yamunanagar H.O",
    "officeType": "H.O",
    "Deliverystatus": "Delivery",
    "divisionname": "Ambala",
    "regionname": "Ambala  HQ",
    "circlename": "Haryana",
    "Taluk": "",
    "Districtname": "Yamuna Nagar",
    "statename": "HARYANA"
  }
]
