[
  {
    "pincode": "135101",
    "officename": "Amadalpur B.O",
    "officeType": "B.O",
    "Deliverystatus": "Delivery",
    "divisionname": "Ambala",
    "regionname": "Ambala  HQ",
    "circlename": "Haryana",
    "Taluk": "Ambala",
    "Districtname": "Yamuna Nagar",
    "statename": "HARYANA"
  },
  {
    "pincode": "135101",
    "officename": "Buriya S.O",
    "officeType": "S.O",
    "Deliverystatus": "Delivery",
    "divisionname": "Ambala",
    "regionname": "Ambala  HQ",
    "circlename": "Haryana",
    "Taluk": "Chhachhrauli",
    "Districtname": "Yamuna Nagar",
    "statename": "HARYANA"
  },
  {
    "pincode": "135101",
    "officename": "Fatehpur B.O",
    "officeType": "B.O",
    "Deliverystatus": "Delivery",
    "divisionname": "Ambala",
    "regionname": "Ambala  HQ",
    "circlename": "Haryana",
    "Taluk": "Ambala",
    "Districtname": "Yamuna Nagar",
    "statename": "HARYANA"
  },
  {
    "pincode": "135101",
    "officename": "Jaidhari B.O",
    "officeType": "B.O",
    "Deliverystatus": "Delivery",
    "divisionname": "Ambala",
    "regionname": "Ambala  HQ",
    "circlename": "Haryana",
    "Taluk": "Ambala",
    "Districtname": "Yamuna Nagar",
    "statename": "HARYANA"
  },
  {
    "pincode": "135101",
    "officename": "Khadri B.O",
    "officeType": "B.O",
    "Deliverystatus": "Delivery",
    "divisionname": "Ambala",
    "regionname": "Ambala  HQ",
    "circlename": "Haryana",
    "Taluk": "Ambala",
    "Districtname": "Yamuna Nagar",
    "statename": "HARYANA"
  },
  {
    "pincode": "135101",
    "officename": "Mehar Majra B.O",
    "officeType": "B.O",
    "Deliverystatus": "Delivery",
    "divisionname": "Ambala",
    "regionname": "Ambala  HQ",
    "circlename": "Haryana",
    "Taluk": "Ambala",
    "Districtname": "Yamuna Nagar",
    "statename": "HARYANA"
  },
  {
    "pincode": "135101",
    "officename": "Rampur Khadar B.O",
    "officeType": "B.O",
    "Deliverystatus": "Delivery",
    "divisionname": "Ambala",
    "regionname": "Ambala  HQ",
    "circlename": "Haryana",
    "Taluk": "Ambala",
    "Districtname": "Yamuna Nagar",
    "statename": "HARYANA"
  },
  {
    "pincode": "135101",
    "officename": "Sabapur B.O",
    "officeType": "B.O",
    "Deliverystatus": "Delivery",
    "divisionname": "Ambala",
    "regionname": "Ambala  HQ",
    "circlename": "Haryana",
    "Taluk": "Ambala",
    "Districtname": "Yamuna Nagar",
    "statename": "HARYANA"
  }
]
