[
  {
    "pincode": "135133",
    "officename": "Alhar B.O",
    "officeType": "B.O",
    "Deliverystatus": "Delivery",
    "divisionname": "Ambala",
    "regionname": "Ambala  HQ",
    "circlename": "Haryana",
    "Taluk": "Ambala",
    "Districtname": "Yamuna Nagar",
    "statename": "HARYANA"
  },
  {
    "pincode": "135133",
    "officename": "Bakana B.O",
    "officeType": "B.O",
    "Deliverystatus": "Delivery",
    "divisionname": "Ambala",
    "regionname": "Ambala  HQ",
    "circlename": "Haryana",
    "Taluk": "Ambala",
    "Districtname": "Yamuna Nagar",
    "statename": "HARYANA"
  },
  {
    "pincode": "135133",
    "officename": "Banidi B.O",
    "officeType": "B.O",
    "Deliverystatus": "Delivery",
    "divisionname": "Ambala",
    "regionname": "Ambala  HQ",
    "circlename": "Haryana",
    "Taluk": "Ambala",
    "Districtname": "Yamuna Nagar",
    "statename": "HARYANA"
  },
  {
    "pincode": "135133",
    "officename": "Bapa B.O",
    "officeType": "B.O",
    "Deliverystatus": "Delivery",
    "divisionname": "Ambala",
    "regionname": "Ambala  HQ",
    "circlename": "Haryana",
    "Taluk": "Ambala",
    "Districtname": "Yamuna Nagar",
    "statename": "HARYANA"
  },
  {
    "pincode": "135133",
    "officename": "Barsan B.O",
    "officeType": "B.O",
    "Deliverystatus": "Delivery",
    "divisionname": "Ambala",
    "regionname": "Ambala  HQ",
    "circlename": "Haryana",
    "Taluk": "Ambala",
    "Districtname": "Yamuna Nagar",
    "statename": "HARYANA"
  },
  {
    "pincode": "135133",
    "officename": "Bhagu Majra B.O",
    "officeType": "B.O",
    "Deliverystatus": "Delivery",
    "divisionname": "Ambala",
    "regionname": "Ambala  HQ",
    "circlename": "Haryana",
    "Taluk": "Ambala",
    "Districtname": "Yamuna Nagar",
    "statename": "HARYANA"
  },
  {
    "pincode": "135133",
    "officename": "Bubka B.O",
    "officeType": "B.O",
    "Deliverystatus": "Delivery",
    "divisionname": "Ambala",
    "regionname": "Ambala  HQ",
    "circlename": "Haryana",
    "Taluk": "Ambala",
    "Districtname": "Yamuna Nagar",
    "statename": "HARYANA"
  },
  {
    "pincode": "135133",
    "officename": "Chamrori B.O",
    "officeType": "B.O",
    "Deliverystatus": "Delivery",
    "divisionname": "Ambala",
    "regionname": "Ambala  HQ",
    "circlename": "Haryana",
    "Taluk": "Ambala",
    "Districtname": "Yamuna Nagar",
    "statename": "HARYANA"
  },
  {
    "pincode": "135133",
    "officename": "Ghillaur B.O",
    "officeType": "B.O",
    "Deliverystatus": "Delivery",
    "divisionname": "Ambala",
    "regionname": "Ambala  HQ",
    "circlename": "Haryana",
    "Taluk": "Ambala",
    "Districtname": "Yamuna Nagar",
    "statename": "HARYANA"
  },
  {
    "pincode": "135133",
    "officename": "Gumthala Rao B.O",
    "officeType": "B.O",
    "Deliverystatus": "Delivery",
    "divisionname": "Ambala",
    "regionname": "Ambala  HQ",
    "circlename": "Haryana",
    "Taluk": "Ambala",
    "Districtname": "Yamuna Nagar",
    "statename": "HARYANA"
  },
  {
    "pincode": "135133",
    "officename": "Hartan B.O",
    "officeType": "B.O",
    "Deliverystatus": "Delivery",
    "divisionname": "Ambala",
    "regionname": "Ambala  HQ",
    "circlename": "Haryana",
    "Taluk": "Ambala",
    "Districtname": "Yamuna Nagar",
    "statename": "HARYANA"
  },
  {
    "pincode": "135133",
    "officename": "Jathlana B.O",
    "officeType": "B.O",
    "Deliverystatus": "Delivery",
    "divisionname": "Ambala",
    "regionname": "Ambala  HQ",
    "circlename": "Haryana",
    "Taluk": "Ambala",
    "Districtname": "Yamuna Nagar",
    "statename": "HARYANA"
  },
  {
    "pincode": "135133",
    "officename": "Jubbal B.O",
    "officeType": "B.O",
    "Deliverystatus": "Delivery",
    "divisionname": "Ambala",
    "regionname": "Ambala  HQ",
    "circlename": "Haryana",
    "Taluk": "Ambala",
    "Districtname": "Yamuna Nagar",
    "statename": "HARYANA"
  },
  {
    "pincode": "135133",
    "officename": "Khurdban B.O",
    "officeType": "B.O",
    "Deliverystatus": "Delivery",
    "divisionname": "Ambala",
    "regionname": "Ambala  HQ",
    "circlename": "Haryana",
    "Taluk": "Ambala",
    "Districtname": "Yamuna Nagar",
    "statename": "HARYANA"
  },
  {
    "pincode": "135133",
    "officename": "Mandhar B.O",
    "officeType": "B.O",
    "Deliverystatus": "Delivery",
    "divisionname": "Ambala",
    "regionname": "Ambala  HQ",
    "circlename": "Haryana",
    "Taluk": "Ambala",
    "Districtname": "Yamuna Nagar",
    "statename": "HARYANA"
  },
  {
    "pincode": "135133",
    "officename": "Nachron B.O",
    "officeType": "B.O",
    "Deliverystatus": "Delivery",
    "divisionname": "Ambala",
    "regionname": "Ambala  HQ",
    "circlename": "Haryana",
    "Taluk": "Ambala",
    "Districtname": "Yamuna Nagar",
    "statename": "HARYANA"
  },
  {
    "pincode": "135133",
    "officename": "Radaur S.O",
    "officeType": "S.O",
    "Deliverystatus": "Delivery",
    "divisionname": "Ambala",
    "regionname": "Ambala  HQ",
    "circlename": "Haryana",
    "Taluk": "Jagadhri",
    "Districtname": "Yamuna Nagar",
    "statename": "HARYANA"
  },
  {
    "pincode": "135133",
    "officename": "Silikalan B.O",
    "officeType": "B.O",
    "Deliverystatus": "Delivery",
    "divisionname": "Ambala",
    "regionname": "Ambala  HQ",
    "circlename": "Haryana",
    "Taluk": "Ambala",
    "Districtname": "Yamuna Nagar",
    "statename": "HARYANA"
  },
  {
    "pincode": "135133",
    "officename": "Topra Kalan B.O",
    "officeType": "B.O",
    "Deliverystatus": "Delivery",
    "divisionname": "Ambala",
    "regionname": "Ambala  HQ",
    "circlename": "Haryana",
    "Taluk": "Ambala",
    "Districtname": "Yamuna Nagar",
    "statename": "HARYANA"
  }
]
