[
  {
    "pincode": "136027",
    "officename": "Baraut B.O",
    "officeType": "B.O",
    "Deliverystatus": "Delivery",
    "divisionname": "Kurukshetra",
    "regionname": "Ambala  HQ",
    "circlename": "Haryana",
    "Taluk": "Kaithal",
    "Districtname": "Kaithal",
    "statename": "HARYANA"
  },
  {
    "pincode": "136027",
    "officename": "Budha Khera B.O",
    "officeType": "B.O",
    "Deliverystatus": "Delivery",
    "divisionname": "Kurukshetra",
    "regionname": "Ambala  HQ",
    "circlename": "Haryana",
    "Taluk": "Kaithal",
    "Districtname": "Kaithal",
    "statename": "HARYANA"
  },
  {
    "pincode": "136027",
    "officename": "Chandana B.O",
    "officeType": "B.O",
    "Deliverystatus": "Delivery",
    "divisionname": "Kurukshetra",
    "regionname": "Ambala  HQ",
    "circlename": "Haryana",
    "Taluk": "Kaithal",
    "Districtname": "Kaithal",
    "statename": "HARYANA"
  },
  {
    "pincode": "136027",
    "officename": "Deoban B.O",
    "officeType": "B.O",
    "Deliverystatus": "Delivery",
    "divisionname": "Kurukshetra",
    "regionname": "Ambala  HQ",
    "circlename": "Haryana",
    "Taluk": "Kaithal",
    "Districtname": "Kaithal",
    "statename": "HARYANA"
  },
  {
    "pincode": "136027",
    "officename": "Dewal B.O",
    "officeType": "B.O",
    "Deliverystatus": "Delivery",
    "divisionname": "Kurukshetra",
    "regionname": "Ambala  HQ",
    "circlename": "Haryana",
    "Taluk": "Kaithal",
    "Districtname": "Kaithal",
    "statename": "HARYANA"
  },
  {
    "pincode": "136027",
    "officename": "Geong B.O",
    "officeType": "B.O",
    "Deliverystatus": "Delivery",
    "divisionname": "Kurukshetra",
    "regionname": "Ambala  HQ",
    "circlename": "Haryana",
    "Taluk": "Kaithal",
    "Districtname": "Kaithal",
    "statename": "HARYANA"
  },
  {
    "pincode": "136027",
    "officename": "Guhna B.O",
    "officeType": "B.O",
    "Deliverystatus": "Delivery",
    "divisionname": "Kurukshetra",
    "regionname": "Ambala  HQ",
    "circlename": "Haryana",
    "Taluk": "Kaithal",
    "Districtname": "Kaithal",
    "statename": "HARYANA"
  },
  {
    "pincode": "136027",
    "officename": "Gulyana Songri B.O",
    "officeType": "B.O",
    "Deliverystatus": "Delivery",
    "divisionname": "Kurukshetra",
    "regionname": "Ambala  HQ",
    "circlename": "Haryana",
    "Taluk": "Kaithal",
    "Districtname": "Kaithal",
    "statename": "HARYANA"
  },
  {
    "pincode": "136027",
    "officename": "Harsola B.O",
    "officeType": "B.O",
    "Deliverystatus": "Delivery",
    "divisionname": "Kurukshetra",
    "regionname": "Ambala  HQ",
    "circlename": "Haryana",
    "Taluk": "Kaithal",
    "Districtname": "Kaithal",
    "statename": "HARYANA"
  },
  {
    "pincode": "136027",
    "officename": "Jakholi B.O",
    "officeType": "B.O",
    "Deliverystatus": "Delivery",
    "divisionname": "Kurukshetra",
    "regionname": "Ambala  HQ",
    "circlename": "Haryana",
    "Taluk": "Kaithal",
    "Districtname": "Kaithal",
    "statename": "HARYANA"
  },
  {
    "pincode": "136027",
    "officename": "Kaithal City S.O",
    "officeType": "S.O",
    "Deliverystatus": "Non-Delivery",
    "divisionname": "Kurukshetra",
    "regionname": "Ambala  HQ",
    "circlename": "Haryana",
    "Taluk": "Kaithal",
    "Districtname": "Kaithal",
    "statename": "HARYANA"
  },
  {
    "pincode": "136027",
    "officename": "Kaithal S.O",
    "officeType": "S.O",
    "Deliverystatus": "Delivery",
    "divisionname": "Kurukshetra",
    "regionname": "Ambala  HQ",
    "circlename": "Haryana",
    "Taluk": "Kaithal",
    "Districtname": "Kaithal",
    "statename": "HARYANA"
  },
  {
    "pincode": "136027",
    "officename": "Karnal Road Kaithal S.O",
    "officeType": "S.O",
    "Deliverystatus": "Non-Delivery",
    "divisionname": "Kurukshetra",
    "regionname": "Ambala  HQ",
    "circlename": "Haryana",
    "Taluk": "Kaithal",
    "Districtname": "Kaithal",
    "statename": "HARYANA"
  },
  {
    "pincode": "136027",
    "officename": "Kassan B.O",
    "officeType": "B.O",
    "Deliverystatus": "Delivery",
    "divisionname": "Kurukshetra",
    "regionname": "Ambala  HQ",
    "circlename": "Haryana",
    "Taluk": "Kaithal",
    "Districtname": "Kaithal",
    "statename": "HARYANA"
  },
  {
    "pincode": "136027",
    "officename": "Keorak B.O",
    "officeType": "B.O",
    "Deliverystatus": "Delivery",
    "divisionname": "Kurukshetra",
    "regionname": "Ambala  HQ",
    "circlename": "Haryana",
    "Taluk": "Kaithal",
    "Districtname": "Kaithal",
    "statename": "HARYANA"
  },
  {
    "pincode": "136027",
    "officename": "Kheri Simbal Wali B.O",
    "officeType": "B.O",
    "Deliverystatus": "Delivery",
    "divisionname": "Kurukshetra",
    "regionname": "Ambala  HQ",
    "circlename": "Haryana",
    "Taluk": "Kaithal  kaithal",
    "Districtname": "Kaithal",
    "statename": "HARYANA"
  },
  {
    "pincode": "136027",
    "officename": "Khurana B.O",
    "officeType": "B.O",
    "Deliverystatus": "Delivery",
    "divisionname": "Kurukshetra",
    "regionname": "Ambala  HQ",
    "circlename": "Haryana",
    "Taluk": "Kaithal",
    "Districtname": "Kaithal",
    "statename": "HARYANA"
  },
  {
    "pincode": "136027",
    "officename": "Kichhana B.O",
    "officeType": "B.O",
    "Deliverystatus": "Delivery",
    "divisionname": "Kurukshetra",
    "regionname": "Ambala  HQ",
    "circlename": "Haryana",
    "Taluk": "Kaithal",
    "Districtname": "Kaithal",
    "statename": "HARYANA"
  },
  {
    "pincode": "136027",
    "officename": "Kultaran B.O",
    "officeType": "B.O",
    "Deliverystatus": "Delivery",
    "divisionname": "Kurukshetra",
    "regionname": "Ambala  HQ",
    "circlename": "Haryana",
    "Taluk": "Kaithal",
    "Districtname": "Kaithal",
    "statename": "HARYANA"
  },
  {
    "pincode": "136027",
    "officename": "Ladana Baba B.O",
    "officeType": "B.O",
    "Deliverystatus": "Delivery",
    "divisionname": "Kurukshetra",
    "regionname": "Ambala  HQ",
    "circlename": "Haryana",
    "Taluk": "Kaithal",
    "Districtname": "Kaithal",
    "statename": "HARYANA"
  },
  {
    "pincode": "136027",
    "officename": "Lander Keema B.O",
    "officeType": "B.O",
    "Deliverystatus": "Delivery",
    "divisionname": "Kurukshetra",
    "regionname": "Ambala  HQ",
    "circlename": "Haryana",
    "Taluk": "Kaithal",
    "Districtname": "Kaithal",
    "statename": "HARYANA"
  },
  {
    "pincode": "136027",
    "officename": "Majra Nand Karan B.O",
    "officeType": "B.O",
    "Deliverystatus": "Delivery",
    "divisionname": "Kurukshetra",
    "regionname": "Ambala  HQ",
    "circlename": "Haryana",
    "Taluk": "Kaithal",
    "Districtname": "Kaithal",
    "statename": "HARYANA"
  },
  {
    "pincode": "136027",
    "officename": "Manas B.O",
    "officeType": "B.O",
    "Deliverystatus": "Delivery",
    "divisionname": "Kurukshetra",
    "regionname": "Ambala  HQ",
    "circlename": "Haryana",
    "Taluk": "Kaithal",
    "Districtname": "Kaithal",
    "statename": "HARYANA"
  },
  {
    "pincode": "136027",
    "officename": "Narar B.O",
    "officeType": "B.O",
    "Deliverystatus": "Delivery",
    "divisionname": "Kurukshetra",
    "regionname": "Ambala  HQ",
    "circlename": "Haryana",
    "Taluk": "Kaithal",
    "Districtname": "Kaithal",
    "statename": "HARYANA"
  },
  {
    "pincode": "136027",
    "officename": "Nauch B.O",
    "officeType": "B.O",
    "Deliverystatus": "Delivery",
    "divisionname": "Kurukshetra",
    "regionname": "Ambala  HQ",
    "circlename": "Haryana",
    "Taluk": "Kaithal",
    "Districtname": "Kaithal",
    "statename": "HARYANA"
  },
  {
    "pincode": "136027",
    "officename": "Padla B.O",
    "officeType": "B.O",
    "Deliverystatus": "Delivery",
    "divisionname": "Kurukshetra",
    "regionname": "Ambala  HQ",
    "circlename": "Haryana",
    "Taluk": "Kaithal",
    "Districtname": "Kaithal",
    "statename": "HARYANA"
  },
  {
    "pincode": "136027",
    "officename": "Patti Afgan B.O",
    "officeType": "B.O",
    "Deliverystatus": "Delivery",
    "divisionname": "Kurukshetra",
    "regionname": "Ambala  HQ",
    "circlename": "Haryana",
    "Taluk": "Kaithal",
    "Districtname": "Kaithal",
    "statename": "HARYANA"
  },
  {
    "pincode": "136027",
    "officename": "Peoda B.O",
    "officeType": "B.O",
    "Deliverystatus": "Delivery",
    "divisionname": "Kurukshetra",
    "regionname": "Ambala  HQ",
    "circlename": "Haryana",
    "Taluk": "Kaithal",
    "Districtname": "Kaithal",
    "statename": "HARYANA"
  },
  {
    "pincode": "136027",
    "officename": "Sirta B.O",
    "officeType": "B.O",
    "Deliverystatus": "Delivery",
    "divisionname": "Kurukshetra",
    "regionname": "Ambala  HQ",
    "circlename": "Haryana",
    "Taluk": "Kaithal",
    "Districtname": "Kaithal",
    "statename": "HARYANA"
  },
  {
    "pincode": "136027",
    "officename": "Siwan Gate Kaithal S.O",
    "officeType": "S.O",
    "Deliverystatus": "Non-Delivery",
    "divisionname": "Kurukshetra",
    "regionname": "Ambala  HQ",
    "circlename": "Haryana",
    "Taluk": "Kaithal",
    "Districtname": "Kaithal",
    "statename": "HARYANA"
  },
  {
    "pincode": "136027",
    "officename": "Songal B.O",
    "officeType": "B.O",
    "Deliverystatus": "Delivery",
    "divisionname": "Kurukshetra",
    "regionname": "Ambala  HQ",
    "circlename": "Haryana",
    "Taluk": "Kaithal",
    "Districtname": "Kaithal",
    "statename": "HARYANA"
  },
  {
    "pincode": "136027",
    "officename": "Teek B.O",
    "officeType": "B.O",
    "Deliverystatus": "Delivery",
    "divisionname": "Kurukshetra",
    "regionname": "Ambala  HQ",
    "circlename": "Haryana",
    "Taluk": "Kaithal",
    "Districtname": "Kaithal",
    "statename": "HARYANA"
  },
  {
    "pincode": "136027",
    "officename": "Titram B.O",
    "officeType": "B.O",
    "Deliverystatus": "Delivery",
    "divisionname": "Kurukshetra",
    "regionname": "Ambala  HQ",
    "circlename": "Haryana",
    "Taluk": "Kaithal",
    "Districtname": "Kaithal",
    "statename": "HARYANA"
  }
]
