[
  {
    "pincode": "136033",
    "officename": "Kakrala Inayat B.O",
    "officeType": "B.O",
    "Deliverystatus": "Delivery",
    "divisionname": "Kurukshetra",
    "regionname": "Ambala  HQ",
    "circlename": "Haryana",
    "Taluk": "Kaithal",
    "Districtname": "Kaithal",
    "statename": "HARYANA"
  },
  {
    "pincode": "136033",
    "officename": "Kangthali B.O",
    "officeType": "B.O",
    "Deliverystatus": "Delivery",
    "divisionname": "Kurukshetra",
    "regionname": "Ambala  HQ",
    "circlename": "Haryana",
    "Taluk": "Kaithal",
    "Districtname": "Kaithal",
    "statename": "HARYANA"
  },
  {
    "pincode": "136033",
    "officename": "Kawartan B.O",
    "officeType": "B.O",
    "Deliverystatus": "Delivery",
    "divisionname": "Kurukshetra",
    "regionname": "Ambala  HQ",
    "circlename": "Haryana",
    "Taluk": "Kaithal",
    "Districtname": "Kaithal",
    "statename": "HARYANA"
  },
  {
    "pincode": "136033",
    "officename": "Kheri Gulam Ali B.O",
    "officeType": "B.O",
    "Deliverystatus": "Delivery",
    "divisionname": "Kurukshetra",
    "regionname": "Ambala  HQ",
    "circlename": "Haryana",
    "Taluk": "Kaithal",
    "Districtname": "Kaithal",
    "statename": "HARYANA"
  },
  {
    "pincode": "136033",
    "officename": "Ladana Chaku B.O",
    "officeType": "B.O",
    "Deliverystatus": "Delivery",
    "divisionname": "Kurukshetra",
    "regionname": "Ambala  HQ",
    "circlename": "Haryana",
    "Taluk": "Kaithal",
    "Districtname": "Kaithal",
    "statename": "HARYANA"
  },
  {
    "pincode": "136033",
    "officename": "Mandi Sadra B.O",
    "officeType": "B.O",
    "Deliverystatus": "Delivery",
    "divisionname": "Kurukshetra",
    "regionname": "Ambala  HQ",
    "circlename": "Haryana",
    "Taluk": "Kaithal",
    "Districtname": "Kaithal",
    "statename": "HARYANA"
  },
  {
    "pincode": "136033",
    "officename": "Sair B.O",
    "officeType": "B.O",
    "Deliverystatus": "Delivery",
    "divisionname": "Kurukshetra",
    "regionname": "Ambala  HQ",
    "circlename": "Haryana",
    "Taluk": "Kaithal",
    "Districtname": "Kaithal",
    "statename": "HARYANA"
  },
  {
    "pincode": "136033",
    "officename": "Siwan S.O",
    "officeType": "S.O",
    "Deliverystatus": "Delivery",
    "divisionname": "Kurukshetra",
    "regionname": "Ambala  HQ",
    "circlename": "Haryana",
    "Taluk": "Kaithal",
    "Districtname": "Kaithal",
    "statename": "HARYANA"
  }
]
