[
  {
    "pincode": "136128",
    "officename": "Bakhli B.O",
    "officeType": "B.O",
    "Deliverystatus": "Delivery",
    "divisionname": "Kurukshetra",
    "regionname": "Ambala  HQ",
    "circlename": "Haryana",
    "Taluk": "Pehowa",
    "Districtname": "Kurukshetra",
    "statename": "HARYANA"
  },
  {
    "pincode": "136128",
    "officename": "Bhorakh B.O",
    "officeType": "B.O",
    "Deliverystatus": "Delivery",
    "divisionname": "Kurukshetra",
    "regionname": "Ambala  HQ",
    "circlename": "Haryana",
    "Taluk": "Pehowa",
    "Districtname": "Kurukshetra",
    "statename": "HARYANA"
  },
  {
    "pincode": "136128",
    "officename": "Bodhni B.O",
    "officeType": "B.O",
    "Deliverystatus": "Delivery",
    "divisionname": "Kurukshetra",
    "regionname": "Ambala  HQ",
    "circlename": "Haryana",
    "Taluk": "Pehowa",
    "Districtname": "Kurukshetra",
    "statename": "HARYANA"
  },
  {
    "pincode": "136128",
    "officename": "Diwana B.O",
    "officeType": "B.O",
    "Deliverystatus": "Delivery",
    "divisionname": "Kurukshetra",
    "regionname": "Ambala  HQ",
    "circlename": "Haryana",
    "Taluk": "Pehowa",
    "Districtname": "Kurukshetra",
    "statename": "HARYANA"
  },
  {
    "pincode": "136128",
    "officename": "Ishaq B.O",
    "officeType": "B.O",
    "Deliverystatus": "Delivery",
    "divisionname": "Kurukshetra",
    "regionname": "Ambala  HQ",
    "circlename": "Haryana",
    "Taluk": "Pehowa",
    "Districtname": "Kurukshetra",
    "statename": "HARYANA"
  },
  {
    "pincode": "136128",
    "officename": "Karah B.O",
    "officeType": "B.O",
    "Deliverystatus": "Delivery",
    "divisionname": "Kurukshetra",
    "regionname": "Ambala  HQ",
    "circlename": "Haryana",
    "Taluk": "Pehowa",
    "Districtname": "Kurukshetra",
    "statename": "HARYANA"
  },
  {
    "pincode": "136128",
    "officename": "Malikpur B.O",
    "officeType": "B.O",
    "Deliverystatus": "Delivery",
    "divisionname": "Kurukshetra",
    "regionname": "Ambala  HQ",
    "circlename": "Haryana",
    "Taluk": "Pehowa",
    "Districtname": "Kurukshetra",
    "statename": "HARYANA"
  },
  {
    "pincode": "136128",
    "officename": "Murtzapur B.O",
    "officeType": "B.O",
    "Deliverystatus": "Delivery",
    "divisionname": "Kurukshetra",
    "regionname": "Ambala  HQ",
    "circlename": "Haryana",
    "Taluk": "Pehowa",
    "Districtname": "Kurukshetra",
    "statename": "HARYANA"
  },
  {
    "pincode": "136128",
    "officename": "Pehowa S.O",
    "officeType": "S.O",
    "Deliverystatus": "Delivery",
    "divisionname": "Kurukshetra",
    "regionname": "Ambala  HQ",
    "circlename": "Haryana",
    "Taluk": "Pehowa",
    "Districtname": "Kurukshetra",
    "statename": "HARYANA"
  },
  {
    "pincode": "136128",
    "officename": "Saina Saida B.O",
    "officeType": "B.O",
    "Deliverystatus": "Delivery",
    "divisionname": "Kurukshetra",
    "regionname": "Ambala  HQ",
    "circlename": "Haryana",
    "Taluk": "Pehwoa",
    "Districtname": "Kurukshetra",
    "statename": "HARYANA"
  },
  {
    "pincode": "136128",
    "officename": "Sandholi B.O",
    "officeType": "B.O",
    "Deliverystatus": "Delivery",
    "divisionname": "Kurukshetra",
    "regionname": "Ambala  HQ",
    "circlename": "Haryana",
    "Taluk": "Pehowa",
    "Districtname": "Kurukshetra",
    "statename": "HARYANA"
  },
  {
    "pincode": "136128",
    "officename": "Saraswati Mandir Pehowa S.O",
    "officeType": "S.O",
    "Deliverystatus": "Non-Delivery",
    "divisionname": "Kurukshetra",
    "regionname": "Ambala  HQ",
    "circlename": "Haryana",
    "Taluk": "Pehowa",
    "Districtname": "Kurukshetra",
    "statename": "HARYANA"
  },
  {
    "pincode": "136128",
    "officename": "Sarsa B.O",
    "officeType": "B.O",
    "Deliverystatus": "Delivery",
    "divisionname": "Kurukshetra",
    "regionname": "Ambala  HQ",
    "circlename": "Haryana",
    "Taluk": "Pehowa",
    "Districtname": "Kurukshetra",
    "statename": "HARYANA"
  },
  {
    "pincode": "136128",
    "officename": "Urnai B.O",
    "officeType": "B.O",
    "Deliverystatus": "Delivery",
    "divisionname": "Kurukshetra",
    "regionname": "Ambala  HQ",
    "circlename": "Haryana",
    "Taluk": "Pehowa",
    "Districtname": "Kurukshetra",
    "statename": "HARYANA"
  }
]
