[
  {
    "pincode": "136135",
    "officename": "Chaduni Jattan B.O",
    "officeType": "B.O",
    "Deliverystatus": "Delivery",
    "divisionname": "Kurukshetra",
    "regionname": "Ambala  HQ",
    "circlename": "Haryana",
    "Taluk": "Shahbad\\",
    "Districtname": "Kurukshetra",
    "statename": "HARYANA"
  },
  {
    "pincode": "136135",
    "officename": "Deeg B.O",
    "officeType": "B.O",
    "Deliverystatus": "Delivery",
    "divisionname": "Kurukshetra",
    "regionname": "Ambala  HQ",
    "circlename": "Haryana",
    "Taluk": "Shahbad",
    "Districtname": "Kurukshetra",
    "statename": "HARYANA"
  },
  {
    "pincode": "136135",
    "officename": "Golpura B.O",
    "officeType": "B.O",
    "Deliverystatus": "Delivery",
    "divisionname": "Kurukshetra",
    "regionname": "Ambala  HQ",
    "circlename": "Haryana",
    "Taluk": "Shahbad",
    "Districtname": "Kurukshetra",
    "statename": "HARYANA"
  },
  {
    "pincode": "136135",
    "officename": "Haripur B.O",
    "officeType": "B.O",
    "Deliverystatus": "Delivery",
    "divisionname": "Kurukshetra",
    "regionname": "Ambala  HQ",
    "circlename": "Haryana",
    "Taluk": "Shahbad",
    "Districtname": "Kurukshetra",
    "statename": "HARYANA"
  },
  {
    "pincode": "136135",
    "officename": "Jandheri B.O",
    "officeType": "B.O",
    "Deliverystatus": "Delivery",
    "divisionname": "Kurukshetra",
    "regionname": "Ambala  HQ",
    "circlename": "Haryana",
    "Taluk": "Shahbad",
    "Districtname": "Kurukshetra",
    "statename": "HARYANA"
  },
  {
    "pincode": "136135",
    "officename": "Kalsana B.O",
    "officeType": "B.O",
    "Deliverystatus": "Delivery",
    "divisionname": "Kurukshetra",
    "regionname": "Ambala  HQ",
    "circlename": "Haryana",
    "Taluk": "Shahbad",
    "Districtname": "Kurukshetra",
    "statename": "HARYANA"
  },
  {
    "pincode": "136135",
    "officename": "Kalyana B.O",
    "officeType": "B.O",
    "Deliverystatus": "Delivery",
    "divisionname": "Kurukshetra",
    "regionname": "Ambala  HQ",
    "circlename": "Haryana",
    "Taluk": "Shahbad",
    "Districtname": "Kurukshetra",
    "statename": "HARYANA"
  },
  {
    "pincode": "136135",
    "officename": "Kharindwa B.O",
    "officeType": "B.O",
    "Deliverystatus": "Delivery",
    "divisionname": "Kurukshetra",
    "regionname": "Ambala  HQ",
    "circlename": "Haryana",
    "Taluk": "Shahbad",
    "Districtname": "Kurukshetra",
    "statename": "HARYANA"
  },
  {
    "pincode": "136135",
    "officename": "Landi B.O",
    "officeType": "B.O",
    "Deliverystatus": "Delivery",
    "divisionname": "Kurukshetra",
    "regionname": "Ambala  HQ",
    "circlename": "Haryana",
    "Taluk": "Shahbad",
    "Districtname": "Kurukshetra",
    "statename": "HARYANA"
  },
  {
    "pincode": "136135",
    "officename": "Madanpur B.O",
    "officeType": "B.O",
    "Deliverystatus": "Delivery",
    "divisionname": "Kurukshetra",
    "regionname": "Ambala  HQ",
    "circlename": "Haryana",
    "Taluk": "Shahbad",
    "Districtname": "Kurukshetra",
    "statename": "HARYANA"
  },
  {
    "pincode": "136135",
    "officename": "Majri Mohalla Shahabad S.O",
    "officeType": "S.O",
    "Deliverystatus": "Non-Delivery",
    "divisionname": "Kurukshetra",
    "regionname": "Ambala  HQ",
    "circlename": "Haryana",
    "Taluk": "shahabad",
    "Districtname": "Kurukshetra",
    "statename": "HARYANA"
  },
  {
    "pincode": "136135",
    "officename": "Nagla B.O",
    "officeType": "B.O",
    "Deliverystatus": "Delivery",
    "divisionname": "Kurukshetra",
    "regionname": "Ambala  HQ",
    "circlename": "Haryana",
    "Taluk": "Shahbad",
    "Districtname": "Kurukshetra",
    "statename": "HARYANA"
  },
  {
    "pincode": "136135",
    "officename": "Nalvi B.O",
    "officeType": "B.O",
    "Deliverystatus": "Delivery",
    "divisionname": "Kurukshetra",
    "regionname": "Ambala  HQ",
    "circlename": "Haryana",
    "Taluk": "Shahbad",
    "Districtname": "Kurukshetra",
    "statename": "HARYANA"
  },
  {
    "pincode": "136135",
    "officename": "Rattangarh B.O",
    "officeType": "B.O",
    "Deliverystatus": "Delivery",
    "divisionname": "Kurukshetra",
    "regionname": "Ambala  HQ",
    "circlename": "Haryana",
    "Taluk": "Shahbad",
    "Districtname": "Kurukshetra",
    "statename": "HARYANA"
  },
  {
    "pincode": "136135",
    "officename": "Rawa B.O",
    "officeType": "B.O",
    "Deliverystatus": "Delivery",
    "divisionname": "Kurukshetra",
    "regionname": "Ambala  HQ",
    "circlename": "Haryana",
    "Taluk": "Shahbad",
    "Districtname": "Kurukshetra",
    "statename": "HARYANA"
  },
  {
    "pincode": "136135",
    "officename": "Samalkhi B.O",
    "officeType": "B.O",
    "Deliverystatus": "Delivery",
    "divisionname": "Kurukshetra",
    "regionname": "Ambala  HQ",
    "circlename": "Haryana",
    "Taluk": "Shahbad",
    "Districtname": "Kurukshetra",
    "statename": "HARYANA"
  },
  {
    "pincode": "136135",
    "officename": "Shahabad(M) S.O",
    "officeType": "S.O",
    "Deliverystatus": "Delivery",
    "divisionname": "Kurukshetra",
    "regionname": "Ambala  HQ",
    "circlename": "Haryana",
    "Taluk": "Shahabad",
    "Districtname": "Kurukshetra",
    "statename": "HARYANA"
  },
  {
    "pincode": "136135",
    "officename": "Sharif Garh B.O",
    "officeType": "B.O",
    "Deliverystatus": "Delivery",
    "divisionname": "Kurukshetra",
    "regionname": "Ambala  HQ",
    "circlename": "Haryana",
    "Taluk": "Shahbad",
    "Districtname": "Kurukshetra",
    "statename": "HARYANA"
  },
  {
    "pincode": "136135",
    "officename": "Sudpur B.O",
    "officeType": "B.O",
    "Deliverystatus": "Delivery",
    "divisionname": "Kurukshetra",
    "regionname": "Ambala  HQ",
    "circlename": "Haryana",
    "Taluk": "Shahbad",
    "Districtname": "Kurukshetra",
    "statename": "HARYANA"
  },
  {
    "pincode": "136135",
    "officename": "Tigri B.O",
    "officeType": "B.O",
    "Deliverystatus": "Delivery",
    "divisionname": "Kurukshetra",
    "regionname": "Ambala  HQ",
    "circlename": "Haryana",
    "Taluk": "Shahbad",
    "Districtname": "Kurukshetra",
    "statename": "HARYANA"
  },
  {
    "pincode": "136135",
    "officename": "Yara B.O",
    "officeType": "B.O",
    "Deliverystatus": "Delivery",
    "divisionname": "Kurukshetra",
    "regionname": "Ambala  HQ",
    "circlename": "Haryana",
    "Taluk": "Shahbad",
    "Districtname": "Kurukshetra",
    "statename": "HARYANA"
  }
]
