[
  {
    "pincode": "136132",
    "officename": "Bakali B.O",
    "officeType": "B.O",
    "Deliverystatus": "Delivery",
    "divisionname": "Kurukshetra",
    "regionname": "Ambala  HQ",
    "circlename": "Haryana",
    "Taluk": "Ladwa",
    "Districtname": "Kurukshetra",
    "statename": "HARYANA"
  },
  {
    "pincode": "136132",
    "officename": "Ban B.O",
    "officeType": "B.O",
    "Deliverystatus": "Delivery",
    "divisionname": "Kurukshetra",
    "regionname": "Ambala  HQ",
    "circlename": "Haryana",
    "Taluk": "Ladwa",
    "Districtname": "Kurukshetra",
    "statename": "HARYANA"
  },
  {
    "pincode": "136132",
    "officename": "Bapdi B.O",
    "officeType": "B.O",
    "Deliverystatus": "Delivery",
    "divisionname": "Kurukshetra",
    "regionname": "Ambala  HQ",
    "circlename": "Haryana",
    "Taluk": "Ladwa",
    "Districtname": "Kurukshetra",
    "statename": "HARYANA"
  },
  {
    "pincode": "136132",
    "officename": "Barout B.O",
    "officeType": "B.O",
    "Deliverystatus": "Delivery",
    "divisionname": "Kurukshetra",
    "regionname": "Ambala  HQ",
    "circlename": "Haryana",
    "Taluk": "Ladwa",
    "Districtname": "Kurukshetra",
    "statename": "HARYANA"
  },
  {
    "pincode": "136132",
    "officename": "Gajlana B.O",
    "officeType": "B.O",
    "Deliverystatus": "Delivery",
    "divisionname": "Kurukshetra",
    "regionname": "Ambala  HQ",
    "circlename": "Haryana",
    "Taluk": "Ladwa",
    "Districtname": "Kurukshetra",
    "statename": "HARYANA"
  },
  {
    "pincode": "136132",
    "officename": "Gudha B.O",
    "officeType": "B.O",
    "Deliverystatus": "Delivery",
    "divisionname": "Kurukshetra",
    "regionname": "Ambala  HQ",
    "circlename": "Haryana",
    "Taluk": "Ladwa",
    "Districtname": "Kurukshetra",
    "statename": "HARYANA"
  },
  {
    "pincode": "136132",
    "officename": "Kalirano B.O",
    "officeType": "B.O",
    "Deliverystatus": "Delivery",
    "divisionname": "Kurukshetra",
    "regionname": "Ambala  HQ",
    "circlename": "Haryana",
    "Taluk": "Ladwa",
    "Districtname": "Kurukshetra",
    "statename": "HARYANA"
  },
  {
    "pincode": "136132",
    "officename": "Kheri Dabdallan B.O",
    "officeType": "B.O",
    "Deliverystatus": "Delivery",
    "divisionname": "Kurukshetra",
    "regionname": "Ambala  HQ",
    "circlename": "Haryana",
    "Taluk": "Ladwa",
    "Districtname": "Kurukshetra",
    "statename": "HARYANA"
  },
  {
    "pincode": "136132",
    "officename": "Ladwa S.O",
    "officeType": "S.O",
    "Deliverystatus": "Delivery",
    "divisionname": "Kurukshetra",
    "regionname": "Ambala  HQ",
    "circlename": "Haryana",
    "Taluk": "Ladwa",
    "Districtname": "Kurukshetra",
    "statename": "HARYANA"
  },
  {
    "pincode": "136132",
    "officename": "Lohara B.O",
    "officeType": "B.O",
    "Deliverystatus": "Delivery",
    "divisionname": "Kurukshetra",
    "regionname": "Ambala  HQ",
    "circlename": "Haryana",
    "Taluk": "Ladwa",
    "Districtname": "Kurukshetra",
    "statename": "HARYANA"
  },
  {
    "pincode": "136132",
    "officename": "Ngm Ladwa S.O",
    "officeType": "S.O",
    "Deliverystatus": "Non-Delivery",
    "divisionname": "Kurukshetra",
    "regionname": "Ambala  HQ",
    "circlename": "Haryana",
    "Taluk": "Ladwa",
    "Districtname": "Kurukshetra",
    "statename": "HARYANA"
  },
  {
    "pincode": "136132",
    "officename": "Niwarsi B.O",
    "officeType": "B.O",
    "Deliverystatus": "Delivery",
    "divisionname": "Kurukshetra",
    "regionname": "Ambala  HQ",
    "circlename": "Haryana",
    "Taluk": "Ladwa",
    "Districtname": "Kurukshetra",
    "statename": "HARYANA"
  },
  {
    "pincode": "136132",
    "officename": "Prahladpur B.O",
    "officeType": "B.O",
    "Deliverystatus": "Delivery",
    "divisionname": "Kurukshetra",
    "regionname": "Ambala  HQ",
    "circlename": "Haryana",
    "Taluk": "Ladwa",
    "Districtname": "Kurukshetra",
    "statename": "HARYANA"
  }
]
