[
  {
    "pincode": "136117",
    "officename": "Badsikri Kalan B.O",
    "officeType": "B.O",
    "Deliverystatus": "Delivery",
    "divisionname": "Kurukshetra",
    "regionname": "Ambala  HQ",
    "circlename": "Haryana",
    "Taluk": "Kalayat",
    "Districtname": "Kaithal",
    "statename": "HARYANA"
  },
  {
    "pincode": "136117",
    "officename": "Balu B.O",
    "officeType": "B.O",
    "Deliverystatus": "Delivery",
    "divisionname": "Kurukshetra",
    "regionname": "Ambala  HQ",
    "circlename": "Haryana",
    "Taluk": "Kalayat",
    "Districtname": "Kaithal",
    "statename": "HARYANA"
  },
  {
    "pincode": "136117",
    "officename": "Batta B.O",
    "officeType": "B.O",
    "Deliverystatus": "Delivery",
    "divisionname": "Kurukshetra",
    "regionname": "Ambala  HQ",
    "circlename": "Haryana",
    "Taluk": "Kalayat",
    "Districtname": "Kaithal",
    "statename": "HARYANA"
  },
  {
    "pincode": "136117",
    "officename": "Chaushala B.O",
    "officeType": "B.O",
    "Deliverystatus": "Delivery",
    "divisionname": "Kurukshetra",
    "regionname": "Ambala  HQ",
    "circlename": "Haryana",
    "Taluk": "Kalayat",
    "Districtname": "Kaithal",
    "statename": "HARYANA"
  },
  {
    "pincode": "136117",
    "officename": "Dhundwa B.O",
    "officeType": "B.O",
    "Deliverystatus": "Delivery",
    "divisionname": "Kurukshetra",
    "regionname": "Ambala  HQ",
    "circlename": "Haryana",
    "Taluk": "Kalayat",
    "Districtname": "Kaithal",
    "statename": "HARYANA"
  },
  {
    "pincode": "136117",
    "officename": "Dubbal B.O",
    "officeType": "B.O",
    "Deliverystatus": "Delivery",
    "divisionname": "Kurukshetra",
    "regionname": "Ambala  HQ",
    "circlename": "Haryana",
    "Taluk": "Kalayat",
    "Districtname": "Kaithal",
    "statename": "HARYANA"
  },
  {
    "pincode": "136117",
    "officename": "Haripura B.O",
    "officeType": "B.O",
    "Deliverystatus": "Delivery",
    "divisionname": "Kurukshetra",
    "regionname": "Ambala  HQ",
    "circlename": "Haryana",
    "Taluk": "Kalayat",
    "Districtname": "Kaithal",
    "statename": "HARYANA"
  },
  {
    "pincode": "136117",
    "officename": "Kailram B.O",
    "officeType": "B.O",
    "Deliverystatus": "Delivery",
    "divisionname": "Kurukshetra",
    "regionname": "Ambala  HQ",
    "circlename": "Haryana",
    "Taluk": "Kalayat",
    "Districtname": "Kaithal",
    "statename": "HARYANA"
  },
  {
    "pincode": "136117",
    "officename": "Kalasar B.O",
    "officeType": "B.O",
    "Deliverystatus": "Delivery",
    "divisionname": "Kurukshetra",
    "regionname": "Ambala  HQ",
    "circlename": "Haryana",
    "Taluk": "Kalayat",
    "Districtname": "Kaithal",
    "statename": "HARYANA"
  },
  {
    "pincode": "136117",
    "officename": "Kalayat Mandi B.O",
    "officeType": "B.O",
    "Deliverystatus": "Delivery",
    "divisionname": "Kurukshetra",
    "regionname": "Ambala  HQ",
    "circlename": "Haryana",
    "Taluk": "Kalayat",
    "Districtname": "Kaithal",
    "statename": "HARYANA"
  },
  {
    "pincode": "136117",
    "officename": "Kalayat S.O",
    "officeType": "S.O",
    "Deliverystatus": "Delivery",
    "divisionname": "Kurukshetra",
    "regionname": "Ambala  HQ",
    "circlename": "Haryana",
    "Taluk": "Kaithal",
    "Districtname": "Kaithal",
    "statename": "HARYANA"
  },
  {
    "pincode": "136117",
    "officename": "Kharak Pandwan B.O",
    "officeType": "B.O",
    "Deliverystatus": "Delivery",
    "divisionname": "Kurukshetra",
    "regionname": "Ambala  HQ",
    "circlename": "Haryana",
    "Taluk": "Kalayat",
    "Districtname": "Kaithal",
    "statename": "HARYANA"
  },
  {
    "pincode": "136117",
    "officename": "Kolekhan B.O",
    "officeType": "B.O",
    "Deliverystatus": "Delivery",
    "divisionname": "Kurukshetra",
    "regionname": "Ambala  HQ",
    "circlename": "Haryana",
    "Taluk": "Kalayat",
    "Districtname": "Kaithal",
    "statename": "HARYANA"
  },
  {
    "pincode": "136117",
    "officename": "Kurar B.O",
    "officeType": "B.O",
    "Deliverystatus": "Delivery",
    "divisionname": "Kurukshetra",
    "regionname": "Ambala  HQ",
    "circlename": "Haryana",
    "Taluk": "Kalayat",
    "Districtname": "Kaithal",
    "statename": "HARYANA"
  },
  {
    "pincode": "136117",
    "officename": "Mataur B.O",
    "officeType": "B.O",
    "Deliverystatus": "Delivery",
    "divisionname": "Kurukshetra",
    "regionname": "Ambala  HQ",
    "circlename": "Haryana",
    "Taluk": "Kalayat",
    "Districtname": "Kaithal",
    "statename": "HARYANA"
  },
  {
    "pincode": "136117",
    "officename": "Ram Garh Pandwa B.O",
    "officeType": "B.O",
    "Deliverystatus": "Delivery",
    "divisionname": "Kurukshetra",
    "regionname": "Ambala  HQ",
    "circlename": "Haryana",
    "Taluk": "Kalayat",
    "Districtname": "Kaithal",
    "statename": "HARYANA"
  },
  {
    "pincode": "136117",
    "officename": "Sajuma B.O",
    "officeType": "B.O",
    "Deliverystatus": "Delivery",
    "divisionname": "Kurukshetra",
    "regionname": "Ambala  HQ",
    "circlename": "Haryana",
    "Taluk": "Kalayat",
    "Districtname": "Kaithal",
    "statename": "HARYANA"
  },
  {
    "pincode": "136117",
    "officename": "Sanghan B.O",
    "officeType": "B.O",
    "Deliverystatus": "Delivery",
    "divisionname": "Kurukshetra",
    "regionname": "Ambala  HQ",
    "circlename": "Haryana",
    "Taluk": "Kalayat",
    "Districtname": "Kaithal",
    "statename": "HARYANA"
  },
  {
    "pincode": "136117",
    "officename": "Simla B.O",
    "officeType": "B.O",
    "Deliverystatus": "Delivery",
    "divisionname": "Kurukshetra",
    "regionname": "Ambala  HQ",
    "circlename": "Haryana",
    "Taluk": "Kalayat",
    "Districtname": "Kaithal",
    "statename": "HARYANA"
  }
]
