[
  {
    "pincode": "136131",
    "officename": "Bir Mathana B.O",
    "officeType": "B.O",
    "Deliverystatus": "Delivery",
    "divisionname": "Kurukshetra",
    "regionname": "Ambala  HQ",
    "circlename": "Haryana",
    "Taluk": "Thanesar",
    "Districtname": "Kurukshetra",
    "statename": "HARYANA"
  },
  {
    "pincode": "136131",
    "officename": "Bodla B.O",
    "officeType": "B.O",
    "Deliverystatus": "Delivery",
    "divisionname": "Kurukshetra",
    "regionname": "Ambala  HQ",
    "circlename": "Haryana",
    "Taluk": "Thanesar",
    "Districtname": "Kurukshetra",
    "statename": "HARYANA"
  },
  {
    "pincode": "136131",
    "officename": "Khanpur Kolian B.O",
    "officeType": "B.O",
    "Deliverystatus": "Delivery",
    "divisionname": "Kurukshetra",
    "regionname": "Ambala  HQ",
    "circlename": "Haryana",
    "Taluk": "Thanesar",
    "Districtname": "Kurukshetra",
    "statename": "HARYANA"
  },
  {
    "pincode": "136131",
    "officename": "Kohlapur B.O",
    "officeType": "B.O",
    "Deliverystatus": "Delivery",
    "divisionname": "Kurukshetra",
    "regionname": "Ambala  HQ",
    "circlename": "Haryana",
    "Taluk": "Thanesar",
    "Districtname": "Kurukshetra",
    "statename": "HARYANA"
  },
  {
    "pincode": "136131",
    "officename": "Mathana B.O",
    "officeType": "B.O",
    "Deliverystatus": "Delivery",
    "divisionname": "Kurukshetra",
    "regionname": "Ambala  HQ",
    "circlename": "Haryana",
    "Taluk": "Thanesar",
    "Districtname": "Kurukshetra",
    "statename": "HARYANA"
  },
  {
    "pincode": "136131",
    "officename": "Palwal B.O",
    "officeType": "B.O",
    "Deliverystatus": "Delivery",
    "divisionname": "Kurukshetra",
    "regionname": "Ambala  HQ",
    "circlename": "Haryana",
    "Taluk": "Thanesar",
    "Districtname": "Kurukshetra",
    "statename": "HARYANA"
  },
  {
    "pincode": "136131",
    "officename": "Pipli S.O",
    "officeType": "S.O",
    "Deliverystatus": "Delivery",
    "divisionname": "Kurukshetra",
    "regionname": "Ambala  HQ",
    "circlename": "Haryana",
    "Taluk": "Thanesar",
    "Districtname": "Kurukshetra",
    "statename": "HARYANA"
  },
  {
    "pincode": "136131",
    "officename": "Sirsala B.O",
    "officeType": "B.O",
    "Deliverystatus": "Delivery",
    "divisionname": "Kurukshetra",
    "regionname": "Ambala  HQ",
    "circlename": "Haryana",
    "Taluk": "Thanesar",
    "Districtname": "Kurukshetra",
    "statename": "HARYANA"
  },
  {
    "pincode": "136131",
    "officename": "Umri B.O",
    "officeType": "B.O",
    "Deliverystatus": "Delivery",
    "divisionname": "Kurukshetra",
    "regionname": "Ambala  HQ",
    "circlename": "Haryana",
    "Taluk": "Thanesar",
    "Districtname": "Kurukshetra",
    "statename": "HARYANA"
  }
]
