[
  {
    "pincode": "140117",
    "officename": "Barwa B.O",
    "officeType": "B.O",
    "Deliverystatus": "Delivery",
    "divisionname": "Chandigarh",
    "regionname": "Chandigarh HQ",
    "circlename": "Punjab",
    "Taluk": "Anandpur Sahib",
    "Districtname": "Rupnagar",
    "statename": "PUNJAB"
  },
  {
    "pincode": "140117",
    "officename": "Basali B.O",
    "officeType": "B.O",
    "Deliverystatus": "Delivery",
    "divisionname": "Chandigarh",
    "regionname": "Chandigarh HQ",
    "circlename": "Punjab",
    "Taluk": "Anandpur Sahib",
    "Districtname": "Rupnagar",
    "statename": "PUNJAB"
  },
  {
    "pincode": "140117",
    "officename": "Chanauli B.O",
    "officeType": "B.O",
    "Deliverystatus": "Delivery",
    "divisionname": "Chandigarh",
    "regionname": "Chandigarh HQ",
    "circlename": "Punjab",
    "Taluk": "Anandpur Sahib",
    "Districtname": "Rupnagar",
    "statename": "PUNJAB"
  },
  {
    "pincode": "140117",
    "officename": "Jatauli B.O",
    "officeType": "B.O",
    "Deliverystatus": "Delivery",
    "divisionname": "Chandigarh",
    "regionname": "Chandigarh HQ",
    "circlename": "Punjab",
    "Taluk": "Anandpur Sahib",
    "Districtname": "Rupnagar",
    "statename": "PUNJAB"
  },
  {
    "pincode": "140117",
    "officename": "Jhaj B.O",
    "officeType": "B.O",
    "Deliverystatus": "Delivery",
    "divisionname": "Chandigarh",
    "regionname": "Chandigarh HQ",
    "circlename": "Punjab",
    "Taluk": "",
    "Districtname": "Ropar",
    "statename": "PUNJAB"
  },
  {
    "pincode": "140117",
    "officename": "Kahanpur Khui B.O",
    "officeType": "B.O",
    "Deliverystatus": "Delivery",
    "divisionname": "Chandigarh",
    "regionname": "Chandigarh HQ",
    "circlename": "Punjab",
    "Taluk": "",
    "Districtname": "Rupnagar",
    "statename": "PUNJAB"
  },
  {
    "pincode": "140117",
    "officename": "Kalwan B.O",
    "officeType": "B.O",
    "Deliverystatus": "Delivery",
    "divisionname": "Chandigarh",
    "regionname": "Chandigarh HQ",
    "circlename": "Punjab",
    "Taluk": "Ropar",
    "Districtname": "Ropar",
    "statename": "PUNJAB"
  },
  {
    "pincode": "140117",
    "officename": "Katta Sabour B.O",
    "officeType": "B.O",
    "Deliverystatus": "Delivery",
    "divisionname": "Chandigarh",
    "regionname": "Chandigarh HQ",
    "circlename": "Punjab",
    "Taluk": "Anandpur Sahib",
    "Districtname": "Rupnagar",
    "statename": "PUNJAB"
  },
  {
    "pincode": "140117",
    "officename": "Khera Kalmout B.O",
    "officeType": "B.O",
    "Deliverystatus": "Delivery",
    "divisionname": "Chandigarh",
    "regionname": "Chandigarh HQ",
    "circlename": "Punjab",
    "Taluk": "",
    "Districtname": "Rupnagar",
    "statename": "PUNJAB"
  },
  {
    "pincode": "140117",
    "officename": "Makari B.O",
    "officeType": "B.O",
    "Deliverystatus": "Delivery",
    "divisionname": "Chandigarh",
    "regionname": "Chandigarh HQ",
    "circlename": "Punjab",
    "Taluk": "",
    "Districtname": "Ropar",
    "statename": "PUNJAB"
  },
  {
    "pincode": "140117",
    "officename": "Nurpur Bedi S.O",
    "officeType": "S.O",
    "Deliverystatus": "Delivery",
    "divisionname": "Chandigarh",
    "regionname": "Chandigarh HQ",
    "circlename": "Punjab",
    "Taluk": "Anandpur Sahib",
    "Districtname": "Rupnagar",
    "statename": "PUNJAB"
  },
  {
    "pincode": "140117",
    "officename": "Rauli Jhinjri B.O",
    "officeType": "B.O",
    "Deliverystatus": "Delivery",
    "divisionname": "Chandigarh",
    "regionname": "Chandigarh HQ",
    "circlename": "Punjab",
    "Taluk": "Anandpur Sahib",
    "Districtname": "Rupnagar",
    "statename": "PUNJAB"
  },
  {
    "pincode": "140117",
    "officename": "Thana B.O",
    "officeType": "B.O",
    "Deliverystatus": "Delivery",
    "divisionname": "Chandigarh",
    "regionname": "Chandigarh HQ",
    "circlename": "Punjab",
    "Taluk": "Anandpur Sahib",
    "Districtname": "Rupnagar",
    "statename": "PUNJAB"
  }
]
