[
  {
    "pincode": "140102",
    "officename": "Barsalpur B.O",
    "officeType": "B.O",
    "Deliverystatus": "Delivery",
    "divisionname": "Chandigarh",
    "regionname": "Chandigarh HQ",
    "circlename": "Punjab",
    "Taluk": "Ropar",
    "Districtname": "Ropar",
    "statename": "PUNJAB"
  },
  {
    "pincode": "140102",
    "officename": "Chaklan B.O",
    "officeType": "B.O",
    "Deliverystatus": "Delivery",
    "divisionname": "Chandigarh",
    "regionname": "Chandigarh HQ",
    "circlename": "Punjab",
    "Taluk": "Rupnagar",
    "Districtname": "Rupnagar",
    "statename": "PUNJAB"
  },
  {
    "pincode": "140102",
    "officename": "Dumna B.O",
    "officeType": "B.O",
    "Deliverystatus": "Delivery",
    "divisionname": "Chandigarh",
    "regionname": "Chandigarh HQ",
    "circlename": "Punjab",
    "Taluk": "Ropar",
    "Districtname": "Ropar",
    "statename": "PUNJAB"
  },
  {
    "pincode": "140102",
    "officename": "Kainaur B.O",
    "officeType": "B.O",
    "Deliverystatus": "Delivery",
    "divisionname": "Chandigarh",
    "regionname": "Chandigarh HQ",
    "circlename": "Punjab",
    "Taluk": "",
    "Districtname": "Ropar",
    "statename": "PUNJAB"
  },
  {
    "pincode": "140102",
    "officename": "Lutheri S.O",
    "officeType": "S.O",
    "Deliverystatus": "Delivery",
    "divisionname": "Chandigarh",
    "regionname": "Chandigarh HQ",
    "circlename": "Punjab",
    "Taluk": "Lutheri",
    "Districtname": "Ropar",
    "statename": "PUNJAB"
  },
  {
    "pincode": "140102",
    "officename": "Makrauna Kalan B.O",
    "officeType": "B.O",
    "Deliverystatus": "Delivery",
    "divisionname": "Chandigarh",
    "regionname": "Chandigarh HQ",
    "circlename": "Punjab",
    "Taluk": "Rupnagar",
    "Districtname": "Rupnagar",
    "statename": "PUNJAB"
  },
  {
    "pincode": "140102",
    "officename": "Rollumajra B.O",
    "officeType": "B.O",
    "Deliverystatus": "Delivery",
    "divisionname": "Chandigarh",
    "regionname": "Chandigarh HQ",
    "circlename": "Punjab",
    "Taluk": "",
    "Districtname": "Ropar",
    "statename": "PUNJAB"
  },
  {
    "pincode": "140102",
    "officename": "Samana Kalan B.O",
    "officeType": "B.O",
    "Deliverystatus": "Delivery",
    "divisionname": "Chandigarh",
    "regionname": "Chandigarh HQ",
    "circlename": "Punjab",
    "Taluk": "Rupnagar",
    "Districtname": "Rupnagar",
    "statename": "PUNJAB"
  }
]
