[
  {
    "pincode": "140126",
    "officename": "Bass Bhabour B.O",
    "officeType": "B.O",
    "Deliverystatus": "Delivery",
    "divisionname": "Chandigarh",
    "regionname": "Chandigarh HQ",
    "circlename": "Punjab",
    "Taluk": "Ropar",
    "Districtname": "Ropar",
    "statename": "PUNJAB"
  },
  {
    "pincode": "140126",
    "officename": "Bhallan B.O",
    "officeType": "B.O",
    "Deliverystatus": "Delivery",
    "divisionname": "Chandigarh",
    "regionname": "Chandigarh HQ",
    "circlename": "Punjab",
    "Taluk": "Ropar",
    "Districtname": "Ropar",
    "statename": "PUNJAB"
  },
  {
    "pincode": "140126",
    "officename": "Bhallari B.O",
    "officeType": "B.O",
    "Deliverystatus": "Delivery",
    "divisionname": "Chandigarh",
    "regionname": "Chandigarh HQ",
    "circlename": "Punjab",
    "Taluk": "Ropar",
    "Districtname": "Ropar",
    "statename": "PUNJAB"
  },
  {
    "pincode": "140126",
    "officename": "Bhanam B.O",
    "officeType": "B.O",
    "Deliverystatus": "Delivery",
    "divisionname": "Chandigarh",
    "regionname": "Chandigarh HQ",
    "circlename": "Punjab",
    "Taluk": "",
    "Districtname": "Ropar",
    "statename": "PUNJAB"
  },
  {
    "pincode": "140126",
    "officename": "Factory Area Nangal S.O",
    "officeType": "S.O",
    "Deliverystatus": "Non-Delivery",
    "divisionname": "Chandigarh",
    "regionname": "Chandigarh HQ",
    "circlename": "Punjab",
    "Taluk": "Anandpur Sahib",
    "Districtname": "Rupnagar",
    "statename": "PUNJAB"
  },
  {
    "pincode": "140126",
    "officename": "Fertilizer Factory Nangal S.O",
    "officeType": "S.O",
    "Deliverystatus": "Delivery",
    "divisionname": "Chandigarh",
    "regionname": "Chandigarh HQ",
    "circlename": "Punjab",
    "Taluk": "Anandpur Sahib",
    "Districtname": "Rupnagar",
    "statename": "PUNJAB"
  },
  {
    "pincode": "140126",
    "officename": "Gohlani B.O",
    "officeType": "B.O",
    "Deliverystatus": "Delivery",
    "divisionname": "Chandigarh",
    "regionname": "Chandigarh HQ",
    "circlename": "Punjab",
    "Taluk": "Anandpur Sahib",
    "Districtname": "Rupnagar",
    "statename": "PUNJAB"
  },
  {
    "pincode": "140126",
    "officename": "Mojowal B.O",
    "officeType": "B.O",
    "Deliverystatus": "Delivery",
    "divisionname": "Chandigarh",
    "regionname": "Chandigarh HQ",
    "circlename": "Punjab",
    "Taluk": "Anandpur Sahib",
    "Districtname": "Rupnagar",
    "statename": "PUNJAB"
  },
  {
    "pincode": "140126",
    "officename": "Naya Nangal Sector 2 S.O",
    "officeType": "S.O",
    "Deliverystatus": "Non-Delivery",
    "divisionname": "Chandigarh",
    "regionname": "Chandigarh HQ",
    "circlename": "Punjab",
    "Taluk": "Anandpur Sahib",
    "Districtname": "Rupnagar",
    "statename": "PUNJAB"
  },
  {
    "pincode": "140126",
    "officename": "Sukhshal B.O",
    "officeType": "B.O",
    "Deliverystatus": "Delivery",
    "divisionname": "Chandigarh",
    "regionname": "Chandigarh HQ",
    "circlename": "Punjab",
    "Taluk": "Anandpur Sahib",
    "Districtname": "Rupnagar",
    "statename": "PUNJAB"
  },
  {
    "pincode": "140126",
    "officename": "Swamipur B.O",
    "officeType": "B.O",
    "Deliverystatus": "Delivery",
    "divisionname": "Chandigarh",
    "regionname": "Chandigarh HQ",
    "circlename": "Punjab",
    "Taluk": "Anandpur Sahib",
    "Districtname": "Rupnagar",
    "statename": "PUNJAB"
  }
]
