[
  {
    "pincode": "140412",
    "officename": "Bassi S.O (Fatehgarh Sahib)",
    "officeType": "S.O",
    "Deliverystatus": "Delivery",
    "divisionname": "Patiala",
    "regionname": "Chandigarh HQ",
    "circlename": "Punjab",
    "Taluk": "Bassi",
    "Districtname": "Fatehgarh Sahib",
    "statename": "PUNJAB"
  },
  {
    "pincode": "140412",
    "officename": "Bazidpur B.O",
    "officeType": "B.O",
    "Deliverystatus": "Delivery",
    "divisionname": "Patiala",
    "regionname": "Chandigarh HQ",
    "circlename": "Punjab",
    "Taluk": "Patiala",
    "Districtname": "Patiala",
    "statename": "PUNJAB"
  },
  {
    "pincode": "140412",
    "officename": "Bhedwala B.O",
    "officeType": "B.O",
    "Deliverystatus": "Delivery",
    "divisionname": "Patiala",
    "regionname": "Chandigarh HQ",
    "circlename": "Punjab",
    "Taluk": "Bassi Pathana",
    "Districtname": "Patiala",
    "statename": "PUNJAB"
  },
  {
    "pincode": "140412",
    "officename": "Dhundan B.O",
    "officeType": "B.O",
    "Deliverystatus": "Delivery",
    "divisionname": "Patiala",
    "regionname": "Chandigarh HQ",
    "circlename": "Punjab",
    "Taluk": "Bassi",
    "Districtname": "Fatehgarh Sahib",
    "statename": "PUNJAB"
  },
  {
    "pincode": "140412",
    "officename": "Ghumandgarhj B.O",
    "officeType": "B.O",
    "Deliverystatus": "Delivery",
    "divisionname": "Patiala",
    "regionname": "Chandigarh HQ",
    "circlename": "Punjab",
    "Taluk": "Bassi Pathana",
    "Districtname": "Fatehgarh Sahib",
    "statename": "PUNJAB"
  },
  {
    "pincode": "140412",
    "officename": "Khalaspur B.O",
    "officeType": "B.O",
    "Deliverystatus": "Delivery",
    "divisionname": "Patiala",
    "regionname": "Chandigarh HQ",
    "circlename": "Punjab",
    "Taluk": "Bassi",
    "Districtname": "Fatehgarh Sahib",
    "statename": "PUNJAB"
  },
  {
    "pincode": "140412",
    "officename": "Nandpur Kalaur B.O",
    "officeType": "B.O",
    "Deliverystatus": "Delivery",
    "divisionname": "Patiala",
    "regionname": "Chandigarh HQ",
    "circlename": "Punjab",
    "Taluk": "Bassi",
    "Districtname": "Fatehgarh Sahib",
    "statename": "PUNJAB"
  },
  {
    "pincode": "140412",
    "officename": "Nogawan B.O",
    "officeType": "B.O",
    "Deliverystatus": "Delivery",
    "divisionname": "Patiala",
    "regionname": "Chandigarh HQ",
    "circlename": "Punjab",
    "Taluk": "Bassi",
    "Districtname": "Patiala",
    "statename": "PUNJAB"
  }
]
