[
  {
    "pincode": "140501",
    "officename": "Dharamgarh B.O",
    "officeType": "B.O",
    "Deliverystatus": "Delivery",
    "divisionname": "Chandigarh",
    "regionname": "Chandigarh HQ",
    "circlename": "Punjab",
    "Taluk": "Derabassi",
    "Districtname": "Mohali",
    "statename": "PUNJAB"
  },
  {
    "pincode": "140501",
    "officename": "Dharamgarh B.O",
    "officeType": "B.O",
    "Deliverystatus": "Delivery",
    "divisionname": "Patiala",
    "regionname": "Chandigarh HQ",
    "circlename": "Punjab",
    "Taluk": "Derabassi",
    "Districtname": "Mohali",
    "statename": "PUNJAB"
  },
  {
    "pincode": "140501",
    "officename": "Handesera B.O",
    "officeType": "B.O",
    "Deliverystatus": "Delivery",
    "divisionname": "Chandigarh",
    "regionname": "Chandigarh HQ",
    "circlename": "Punjab",
    "Taluk": "Derabassi",
    "Districtname": "Mohali",
    "statename": "PUNJAB"
  },
  {
    "pincode": "140501",
    "officename": "Handesra B.O",
    "officeType": "B.O",
    "Deliverystatus": "Delivery",
    "divisionname": "Patiala",
    "regionname": "Chandigarh HQ",
    "circlename": "Punjab",
    "Taluk": "Derabassi",
    "Districtname": "Mohali",
    "statename": "PUNJAB"
  },
  {
    "pincode": "140501",
    "officename": "Jaraut B.O",
    "officeType": "B.O",
    "Deliverystatus": "Delivery",
    "divisionname": "Patiala",
    "regionname": "Chandigarh HQ",
    "circlename": "Punjab",
    "Taluk": "Derabassi",
    "Districtname": "Mohali",
    "statename": "PUNJAB"
  },
  {
    "pincode": "140501",
    "officename": "Jarut B.O",
    "officeType": "B.O",
    "Deliverystatus": "Delivery",
    "divisionname": "Chandigarh",
    "regionname": "Chandigarh HQ",
    "circlename": "Punjab",
    "Taluk": "Derabassi",
    "Districtname": "Mohali",
    "statename": "PUNJAB"
  },
  {
    "pincode": "140501",
    "officename": "Jaula Kalan B.O",
    "officeType": "B.O",
    "Deliverystatus": "Delivery",
    "divisionname": "Patiala",
    "regionname": "Chandigarh HQ",
    "circlename": "Punjab",
    "Taluk": "Derabassi",
    "Districtname": "Mohali",
    "statename": "PUNJAB"
  },
  {
    "pincode": "140501",
    "officename": "Jauli B.O",
    "officeType": "B.O",
    "Deliverystatus": "Delivery",
    "divisionname": "Chandigarh",
    "regionname": "Chandigarh HQ",
    "circlename": "Punjab",
    "Taluk": "Derabassi",
    "Districtname": "Mohali",
    "statename": "PUNJAB"
  },
  {
    "pincode": "140501",
    "officename": "Jeoli B.O",
    "officeType": "B.O",
    "Deliverystatus": "Delivery",
    "divisionname": "Patiala",
    "regionname": "Chandigarh HQ",
    "circlename": "Punjab",
    "Taluk": "Derabassi",
    "Districtname": "Mohali",
    "statename": "PUNJAB"
  },
  {
    "pincode": "140501",
    "officename": "Jharmarhi B.O",
    "officeType": "B.O",
    "Deliverystatus": "Delivery",
    "divisionname": "Chandigarh",
    "regionname": "Chandigarh HQ",
    "circlename": "Punjab",
    "Taluk": "Derabassi",
    "Districtname": "Mohali",
    "statename": "PUNJAB"
  },
  {
    "pincode": "140501",
    "officename": "Jharmari B.O",
    "officeType": "B.O",
    "Deliverystatus": "Delivery",
    "divisionname": "Patiala",
    "regionname": "Chandigarh HQ",
    "circlename": "Punjab",
    "Taluk": "Derabassi",
    "Districtname": "Mohali",
    "statename": "PUNJAB"
  },
  {
    "pincode": "140501",
    "officename": "Joula Kalan B.O",
    "officeType": "B.O",
    "Deliverystatus": "Delivery",
    "divisionname": "Chandigarh",
    "regionname": "Chandigarh HQ",
    "circlename": "Punjab",
    "Taluk": "Derabassi",
    "Districtname": "Mohali",
    "statename": "PUNJAB"
  },
  {
    "pincode": "140501",
    "officename": "Lalru S.O",
    "officeType": "S.O",
    "Deliverystatus": "Delivery",
    "divisionname": "Chandigarh",
    "regionname": "Chandigarh HQ",
    "circlename": "Punjab",
    "Taluk": "Derabassi",
    "Districtname": "Mohali",
    "statename": "PUNJAB"
  },
  {
    "pincode": "140501",
    "officename": "Rani Majra B.O",
    "officeType": "B.O",
    "Deliverystatus": "Delivery",
    "divisionname": "Chandigarh",
    "regionname": "Chandigarh HQ",
    "circlename": "Punjab",
    "Taluk": "Derabassi",
    "Districtname": "Mohali",
    "statename": "PUNJAB"
  },
  {
    "pincode": "140501",
    "officename": "Ranimajra B.O",
    "officeType": "B.O",
    "Deliverystatus": "Delivery",
    "divisionname": "Patiala",
    "regionname": "Chandigarh HQ",
    "circlename": "Punjab",
    "Taluk": "Derabassi",
    "Districtname": "Mohali",
    "statename": "PUNJAB"
  },
  {
    "pincode": "140501",
    "officename": "Samgoli B.O",
    "officeType": "B.O",
    "Deliverystatus": "Delivery",
    "divisionname": "Chandigarh",
    "regionname": "Chandigarh HQ",
    "circlename": "Punjab",
    "Taluk": "Derabassi",
    "Districtname": "Mohali",
    "statename": "PUNJAB"
  },
  {
    "pincode": "140501",
    "officename": "Samgoli B.O",
    "officeType": "B.O",
    "Deliverystatus": "Delivery",
    "divisionname": "Patiala",
    "regionname": "Chandigarh HQ",
    "circlename": "Punjab",
    "Taluk": "Derabassi",
    "Districtname": "Mohali",
    "statename": "PUNJAB"
  },
  {
    "pincode": "140501",
    "officename": "Sarsini B.O",
    "officeType": "B.O",
    "Deliverystatus": "Delivery",
    "divisionname": "Patiala",
    "regionname": "Chandigarh HQ",
    "circlename": "Punjab",
    "Taluk": "Derabassi",
    "Districtname": "Mohali",
    "statename": "PUNJAB"
  },
  {
    "pincode": "140501",
    "officename": "Sirsihni B.O",
    "officeType": "B.O",
    "Deliverystatus": "Delivery",
    "divisionname": "Chandigarh",
    "regionname": "Chandigarh HQ",
    "circlename": "Punjab",
    "Taluk": "Derabassi",
    "Districtname": "Mohali",
    "statename": "PUNJAB"
  },
  {
    "pincode": "140501",
    "officename": "Tassimbli B.O",
    "officeType": "B.O",
    "Deliverystatus": "Delivery",
    "divisionname": "Chandigarh",
    "regionname": "Chandigarh HQ",
    "circlename": "Punjab",
    "Taluk": "Derabassi",
    "Districtname": "Mohali",
    "statename": "PUNJAB"
  },
  {
    "pincode": "140501",
    "officename": "Tisimbly B.O",
    "officeType": "B.O",
    "Deliverystatus": "Delivery",
    "divisionname": "Patiala",
    "regionname": "Chandigarh HQ",
    "circlename": "Punjab",
    "Taluk": "Dera Bassi",
    "Districtname": "Patiala",
    "statename": "PUNJAB"
  },
  {
    "pincode": "140501",
    "officename": "Tiwana B.O",
    "officeType": "B.O",
    "Deliverystatus": "Delivery",
    "divisionname": "Chandigarh",
    "regionname": "Chandigarh HQ",
    "circlename": "Punjab",
    "Taluk": "Derabassi",
    "Districtname": "Mohali",
    "statename": "PUNJAB"
  },
  {
    "pincode": "140501",
    "officename": "Tiwana B.O",
    "officeType": "B.O",
    "Deliverystatus": "Delivery",
    "divisionname": "Patiala",
    "regionname": "Chandigarh HQ",
    "circlename": "Punjab",
    "Taluk": "Derabassi",
    "Districtname": "Mohali",
    "statename": "PUNJAB"
  }
]
