[
  {
    "pincode": "140602",
    "officename": "Bhagrana B.O",
    "officeType": "B.O",
    "Deliverystatus": "Delivery",
    "divisionname": "Patiala",
    "regionname": "Chandigarh HQ",
    "circlename": "Punjab",
    "Taluk": "Derabassi",
    "Districtname": "Patiala",
    "statename": "PUNJAB"
  },
  {
    "pincode": "140602",
    "officename": "Buras B.O",
    "officeType": "B.O",
    "Deliverystatus": "Delivery",
    "divisionname": "Patiala",
    "regionname": "Chandigarh HQ",
    "circlename": "Punjab",
    "Taluk": "Fatehgarh Sahib",
    "Districtname": "Fatehgarh Sahib",
    "statename": "PUNJAB"
  },
  {
    "pincode": "140602",
    "officename": "Dadu Majra B.O",
    "officeType": "B.O",
    "Deliverystatus": "Delivery",
    "divisionname": "Patiala",
    "regionname": "Chandigarh HQ",
    "circlename": "Punjab",
    "Taluk": "Derabassi",
    "Districtname": "Patiala",
    "statename": "PUNJAB"
  },
  {
    "pincode": "140602",
    "officename": "Dhuman B.O",
    "officeType": "B.O",
    "Deliverystatus": "Delivery",
    "divisionname": "Patiala",
    "regionname": "Chandigarh HQ",
    "circlename": "Punjab",
    "Taluk": "Derabassi",
    "Districtname": "Patiala",
    "statename": "PUNJAB"
  },
  {
    "pincode": "140602",
    "officename": "Khera Gajju B.O",
    "officeType": "B.O",
    "Deliverystatus": "Delivery",
    "divisionname": "Patiala",
    "regionname": "Chandigarh HQ",
    "circlename": "Punjab",
    "Taluk": "Derabassi",
    "Districtname": "Patiala",
    "statename": "PUNJAB"
  },
  {
    "pincode": "140602",
    "officename": "Machhli Kalan B.O",
    "officeType": "B.O",
    "Deliverystatus": "Delivery",
    "divisionname": "Patiala",
    "regionname": "Chandigarh HQ",
    "circlename": "Punjab",
    "Taluk": "Kharar",
    "Districtname": "Rupnagar",
    "statename": "PUNJAB"
  },
  {
    "pincode": "140602",
    "officename": "Manakpur S.O",
    "officeType": "S.O",
    "Deliverystatus": "Delivery",
    "divisionname": "Patiala",
    "regionname": "Chandigarh HQ",
    "circlename": "Punjab",
    "Taluk": "Derabassi",
    "Districtname": "Patiala",
    "statename": "PUNJAB"
  },
  {
    "pincode": "140602",
    "officename": "Urdan B.O",
    "officeType": "B.O",
    "Deliverystatus": "Delivery",
    "divisionname": "Patiala",
    "regionname": "Chandigarh HQ",
    "circlename": "Punjab",
    "Taluk": "Derabassi",
    "Districtname": "Patiala",
    "statename": "PUNJAB"
  }
]
