[
  {
    "pincode": "141001",
    "officename": "Bharat Nagar S.O (Ludhiana)",
    "officeType": "S.O",
    "Deliverystatus": "Non-Delivery",
    "divisionname": "Ludhiana City",
    "regionname": "Chandigarh HQ",
    "circlename": "Punjab",
    "Taluk": "Ludhiana",
    "Districtname": "Ludhiana",
    "statename": "PUNJAB"
  },
  {
    "pincode": "141001",
    "officename": "Durgapuri S.O",
    "officeType": "S.O",
    "Deliverystatus": "Non-Delivery",
    "divisionname": "Ludhiana City",
    "regionname": "Chandigarh HQ",
    "circlename": "Punjab",
    "Taluk": "Ludhiana",
    "Districtname": "Ludhiana",
    "statename": "PUNJAB"
  },
  {
    "pincode": "141001",
    "officename": "Ludhiana H.O",
    "officeType": "H.O",
    "Deliverystatus": "Delivery",
    "divisionname": "Ludhiana City",
    "regionname": "Chandigarh HQ",
    "circlename": "Punjab",
    "Taluk": "Bharat Nagar Chowk",
    "Districtname": "Ludhiana",
    "statename": "PUNJAB"
  },
  {
    "pincode": "141001",
    "officename": "Ludhiana Kty S.O",
    "officeType": "S.O",
    "Deliverystatus": "Non-Delivery",
    "divisionname": "Ludhiana City",
    "regionname": "Chandigarh HQ",
    "circlename": "Punjab",
    "Taluk": "Ludhiana",
    "Districtname": "Ludhiana",
    "statename": "PUNJAB"
  },
  {
    "pincode": "141001",
    "officename": "New Courts S.O",
    "officeType": "S.O",
    "Deliverystatus": "Non-Delivery",
    "divisionname": "Ludhiana City",
    "regionname": "Chandigarh HQ",
    "circlename": "Punjab",
    "Taluk": "",
    "Districtname": "Ludhiana",
    "statename": "PUNJAB"
  },
  {
    "pincode": "141001",
    "officename": "P&t Colony S.O (Ludhiana)",
    "officeType": "S.O",
    "Deliverystatus": "Non-Delivery",
    "divisionname": "Ludhiana City",
    "regionname": "Chandigarh HQ",
    "circlename": "Punjab",
    "Taluk": "Ludhiana",
    "Districtname": "Ludhiana",
    "statename": "PUNJAB"
  },
  {
    "pincode": "141001",
    "officename": "Sarabha Nagar S.O",
    "officeType": "S.O",
    "Deliverystatus": "Non-Delivery",
    "divisionname": "Ludhiana City",
    "regionname": "Chandigarh HQ",
    "circlename": "Punjab",
    "Taluk": "Ludhiana",
    "Districtname": "Ludhiana",
    "statename": "PUNJAB"
  },
  {
    "pincode": "141001",
    "officename": "Satsang Road S.O",
    "officeType": "S.O",
    "Deliverystatus": "Non-Delivery",
    "divisionname": "Ludhiana City",
    "regionname": "Chandigarh HQ",
    "circlename": "Punjab",
    "Taluk": "Ludhiana",
    "Districtname": "Ludhiana",
    "statename": "PUNJAB"
  },
  {
    "pincode": "141001",
    "officename": "Sidhpeeth S.O",
    "officeType": "S.O",
    "Deliverystatus": "Non-Delivery",
    "divisionname": "Ludhiana City",
    "regionname": "Chandigarh HQ",
    "circlename": "Punjab",
    "Taluk": "Ludhiana",
    "Districtname": "Ludhiana",
    "statename": "PUNJAB"
  }
]
