[
  {
    "pincode": "141117",
    "officename": "Hans Kalan B.O",
    "officeType": "B.O",
    "Deliverystatus": "Delivery",
    "divisionname": "Ludhiana Moffusil",
    "regionname": "Chandigarh HQ",
    "circlename": "Punjab",
    "Taluk": "Payal",
    "Districtname": "Ludhiana",
    "statename": "PUNJAB"
  },
  {
    "pincode": "141117",
    "officename": "Jhamat B.O",
    "officeType": "B.O",
    "Deliverystatus": "Delivery",
    "divisionname": "Ludhiana Moffusil",
    "regionname": "Chandigarh HQ",
    "circlename": "Punjab",
    "Taluk": "Ludhiana",
    "Districtname": "Ludhiana",
    "statename": "PUNJAB"
  },
  {
    "pincode": "141117",
    "officename": "Kalahar B.O",
    "officeType": "B.O",
    "Deliverystatus": "Delivery",
    "divisionname": "Ludhiana Moffusil",
    "regionname": "Chandigarh HQ",
    "circlename": "Punjab",
    "Taluk": "Ludhiana",
    "Districtname": "Ludhiana",
    "statename": "PUNJAB"
  },
  {
    "pincode": "141117",
    "officename": "Karamsar B.O",
    "officeType": "B.O",
    "Deliverystatus": "Delivery",
    "divisionname": "Ludhiana Moffusil",
    "regionname": "Chandigarh HQ",
    "circlename": "Punjab",
    "Taluk": "Payal",
    "Districtname": "Ludhiana",
    "statename": "PUNJAB"
  },
  {
    "pincode": "141117",
    "officename": "Lehal B.O",
    "officeType": "B.O",
    "Deliverystatus": "Delivery",
    "divisionname": "Ludhiana Moffusil",
    "regionname": "Chandigarh HQ",
    "circlename": "Punjab",
    "Taluk": "Ludhiana",
    "Districtname": "Ludhiana",
    "statename": "PUNJAB"
  },
  {
    "pincode": "141117",
    "officename": "Nanakpur Jagera B.O",
    "officeType": "B.O",
    "Deliverystatus": "Delivery",
    "divisionname": "Ludhiana Moffusil",
    "regionname": "Chandigarh HQ",
    "circlename": "Punjab",
    "Taluk": "Ludhiana",
    "Districtname": "Ludhiana",
    "statename": "PUNJAB"
  },
  {
    "pincode": "141117",
    "officename": "Saharan Majra B.O",
    "officeType": "B.O",
    "Deliverystatus": "Delivery",
    "divisionname": "Ludhiana Moffusil",
    "regionname": "Chandigarh HQ",
    "circlename": "Punjab",
    "Taluk": "Ludhiana",
    "Districtname": "Ludhiana",
    "statename": "PUNJAB"
  },
  {
    "pincode": "141117",
    "officename": "Sihar S.O",
    "officeType": "S.O",
    "Deliverystatus": "Delivery",
    "divisionname": "Ludhiana Moffusil",
    "regionname": "Chandigarh HQ",
    "circlename": "Punjab",
    "Taluk": "Ludhiana",
    "Districtname": "Ludhiana",
    "statename": "PUNJAB"
  }
]
