[
  {
    "pincode": "141109",
    "officename": "Bhaini Baringa B.O",
    "officeType": "B.O",
    "Deliverystatus": "Delivery",
    "divisionname": "Ludhiana Moffusil",
    "regionname": "Chandigarh HQ",
    "circlename": "Punjab",
    "Taluk": "Ludhiana",
    "Districtname": "Ludhiana",
    "statename": "PUNJAB"
  },
  {
    "pincode": "141109",
    "officename": "Burj Hari Singh Wala B.O",
    "officeType": "B.O",
    "Deliverystatus": "Delivery",
    "divisionname": "Ludhiana Moffusil",
    "regionname": "Chandigarh HQ",
    "circlename": "Punjab",
    "Taluk": "Ludhiana",
    "Districtname": "Ludhiana",
    "statename": "PUNJAB"
  },
  {
    "pincode": "141109",
    "officename": "Dadahur B.O",
    "officeType": "B.O",
    "Deliverystatus": "Delivery",
    "divisionname": "Ludhiana Moffusil",
    "regionname": "Chandigarh HQ",
    "circlename": "Punjab",
    "Taluk": "Raikot",
    "Districtname": "Ludhiana",
    "statename": "PUNJAB"
  },
  {
    "pincode": "141109",
    "officename": "Gondwal B.O",
    "officeType": "B.O",
    "Deliverystatus": "Delivery",
    "divisionname": "Ludhiana Moffusil",
    "regionname": "Chandigarh HQ",
    "circlename": "Punjab",
    "Taluk": "Ludhiana",
    "Districtname": "Ludhiana",
    "statename": "PUNJAB"
  },
  {
    "pincode": "141109",
    "officename": "Jalaldiwal B.O",
    "officeType": "B.O",
    "Deliverystatus": "Delivery",
    "divisionname": "Ludhiana Moffusil",
    "regionname": "Chandigarh HQ",
    "circlename": "Punjab",
    "Taluk": "Raikot",
    "Districtname": "Ludhiana",
    "statename": "PUNJAB"
  },
  {
    "pincode": "141109",
    "officename": "Johalan B.O",
    "officeType": "B.O",
    "Deliverystatus": "Delivery",
    "divisionname": "Ludhiana Moffusil",
    "regionname": "Chandigarh HQ",
    "circlename": "Punjab",
    "Taluk": "Raikot",
    "Districtname": "Ludhiana",
    "statename": "PUNJAB"
  },
  {
    "pincode": "141109",
    "officename": "Kalas B.O",
    "officeType": "B.O",
    "Deliverystatus": "Delivery",
    "divisionname": "Ludhiana Moffusil",
    "regionname": "Chandigarh HQ",
    "circlename": "Punjab",
    "Taluk": "Raikot",
    "Districtname": "Ludhiana",
    "statename": "PUNJAB"
  },
  {
    "pincode": "141109",
    "officename": "Kalsian B.O",
    "officeType": "B.O",
    "Deliverystatus": "Delivery",
    "divisionname": "Ludhiana Moffusil",
    "regionname": "Chandigarh HQ",
    "circlename": "Punjab",
    "Taluk": "Raikot",
    "Districtname": "Ludhiana",
    "statename": "PUNJAB"
  },
  {
    "pincode": "141109",
    "officename": "Lohat baddi B.O",
    "officeType": "B.O",
    "Deliverystatus": "Delivery",
    "divisionname": "Ludhiana Moffusil",
    "regionname": "Chandigarh HQ",
    "circlename": "Punjab",
    "Taluk": "Raikot",
    "Districtname": "Ludhiana",
    "statename": "PUNJAB"
  },
  {
    "pincode": "141109",
    "officename": "Raekot S.O",
    "officeType": "S.O",
    "Deliverystatus": "Delivery",
    "divisionname": "Ludhiana Moffusil",
    "regionname": "Chandigarh HQ",
    "circlename": "Punjab",
    "Taluk": "Ludhiana",
    "Districtname": "Ludhiana",
    "statename": "PUNJAB"
  },
  {
    "pincode": "141109",
    "officename": "Sehbazpura B.O",
    "officeType": "B.O",
    "Deliverystatus": "Delivery",
    "divisionname": "Ludhiana Moffusil",
    "regionname": "Chandigarh HQ",
    "circlename": "Punjab",
    "Taluk": "Raikot",
    "Districtname": "Ludhiana",
    "statename": "PUNJAB"
  },
  {
    "pincode": "141109",
    "officename": "Tajpura B.O",
    "officeType": "B.O",
    "Deliverystatus": "Delivery",
    "divisionname": "Ludhiana Moffusil",
    "regionname": "Chandigarh HQ",
    "circlename": "Punjab",
    "Taluk": "Ludhiana",
    "Districtname": "Ludhiana",
    "statename": "PUNJAB"
  },
  {
    "pincode": "141109",
    "officename": "Talwandi Rai B.O",
    "officeType": "B.O",
    "Deliverystatus": "Delivery",
    "divisionname": "Ludhiana Moffusil",
    "regionname": "Chandigarh HQ",
    "circlename": "Punjab",
    "Taluk": "Ludhiana",
    "Districtname": "Ludhiana",
    "statename": "PUNJAB"
  }
]
