[
  {
    "pincode": "141417",
    "officename": "Chak Mafi B.O",
    "officeType": "B.O",
    "Deliverystatus": "Delivery",
    "divisionname": "Ludhiana Moffusil",
    "regionname": "Chandigarh HQ",
    "circlename": "Punjab",
    "Taluk": "Ludhiana",
    "Districtname": "Ludhiana",
    "statename": "PUNJAB"
  },
  {
    "pincode": "141417",
    "officename": "Goh B.O",
    "officeType": "B.O",
    "Deliverystatus": "Delivery",
    "divisionname": "Ludhiana Moffusil",
    "regionname": "Chandigarh HQ",
    "circlename": "Punjab",
    "Taluk": "Khanna",
    "Districtname": "Ludhiana",
    "statename": "PUNJAB"
  },
  {
    "pincode": "141417",
    "officename": "Goslan B.O",
    "officeType": "B.O",
    "Deliverystatus": "Delivery",
    "divisionname": "Ludhiana Moffusil",
    "regionname": "Chandigarh HQ",
    "circlename": "Punjab",
    "Taluk": "Khanna",
    "Districtname": "Ludhiana",
    "statename": "PUNJAB"
  },
  {
    "pincode": "141417",
    "officename": "Harion Kalan B.O",
    "officeType": "B.O",
    "Deliverystatus": "Delivery",
    "divisionname": "Ludhiana Moffusil",
    "regionname": "Chandigarh HQ",
    "circlename": "Punjab",
    "Taluk": "Khanna",
    "Districtname": "Ludhiana",
    "statename": "PUNJAB"
  },
  {
    "pincode": "141417",
    "officename": "Kalal Majra B.O",
    "officeType": "B.O",
    "Deliverystatus": "Delivery",
    "divisionname": "Ludhiana Moffusil",
    "regionname": "Chandigarh HQ",
    "circlename": "Punjab",
    "Taluk": "Khanna",
    "Districtname": "Ludhiana",
    "statename": "PUNJAB"
  },
  {
    "pincode": "141417",
    "officename": "Kotla Bhari B.O",
    "officeType": "B.O",
    "Deliverystatus": "Delivery",
    "divisionname": "Ludhiana Moffusil",
    "regionname": "Chandigarh HQ",
    "circlename": "Punjab",
    "Taluk": "Khanna",
    "Districtname": "Ludhiana",
    "statename": "PUNJAB"
  },
  {
    "pincode": "141417",
    "officename": "Lalori Kalan B.O",
    "officeType": "B.O",
    "Deliverystatus": "Delivery",
    "divisionname": "Ludhiana Moffusil",
    "regionname": "Chandigarh HQ",
    "circlename": "Punjab",
    "Taluk": "Ludhiana",
    "Districtname": "Ludhiana",
    "statename": "PUNJAB"
  },
  {
    "pincode": "141417",
    "officename": "Rahawan S.O",
    "officeType": "S.O",
    "Deliverystatus": "Delivery",
    "divisionname": "Ludhiana Moffusil",
    "regionname": "Chandigarh HQ",
    "circlename": "Punjab",
    "Taluk": "Khanna",
    "Districtname": "Ludhiana",
    "statename": "PUNJAB"
  },
  {
    "pincode": "141417",
    "officename": "Salaudi B.O",
    "officeType": "B.O",
    "Deliverystatus": "Delivery",
    "divisionname": "Ludhiana Moffusil",
    "regionname": "Chandigarh HQ",
    "circlename": "Punjab",
    "Taluk": "Ludhiana",
    "Districtname": "Ludhiana",
    "statename": "PUNJAB"
  },
  {
    "pincode": "141417",
    "officename": "Seh B.O",
    "officeType": "B.O",
    "Deliverystatus": "Delivery",
    "divisionname": "Ludhiana Moffusil",
    "regionname": "Chandigarh HQ",
    "circlename": "Punjab",
    "Taluk": "Ludhiana",
    "Districtname": "Ludhiana",
    "statename": "PUNJAB"
  }
]
