[
  {
    "pincode": "141421",
    "officename": "Bilaspur B.O",
    "officeType": "B.O",
    "Deliverystatus": "Delivery",
    "divisionname": "Ludhiana Moffusil",
    "regionname": "Chandigarh HQ",
    "circlename": "Punjab",
    "Taluk": "Khamanon",
    "Districtname": "Fatehgarh Sahib",
    "statename": "PUNJAB"
  },
  {
    "pincode": "141421",
    "officename": "Bowani B.O",
    "officeType": "B.O",
    "Deliverystatus": "Delivery",
    "divisionname": "Ludhiana Moffusil",
    "regionname": "Chandigarh HQ",
    "circlename": "Punjab",
    "Taluk": "Ludhiana",
    "Districtname": "Ludhiana",
    "statename": "PUNJAB"
  },
  {
    "pincode": "141421",
    "officename": "Doburji B.O",
    "officeType": "B.O",
    "Deliverystatus": "Delivery",
    "divisionname": "Ludhiana Moffusil",
    "regionname": "Chandigarh HQ",
    "circlename": "Punjab",
    "Taluk": "Ludhiana",
    "Districtname": "Ludhiana",
    "statename": "PUNJAB"
  },
  {
    "pincode": "141421",
    "officename": "Doraha S.O (Ludhiana)",
    "officeType": "S.O",
    "Deliverystatus": "Delivery",
    "divisionname": "Ludhiana Moffusil",
    "regionname": "Chandigarh HQ",
    "circlename": "Punjab",
    "Taluk": "",
    "Districtname": "Ludhiana",
    "statename": "PUNJAB"
  },
  {
    "pincode": "141421",
    "officename": "Jaspalon B.O",
    "officeType": "B.O",
    "Deliverystatus": "Delivery",
    "divisionname": "Ludhiana Moffusil",
    "regionname": "Chandigarh HQ",
    "circlename": "Punjab",
    "Taluk": "Ludhiana",
    "Districtname": "Ludhiana",
    "statename": "PUNJAB"
  },
  {
    "pincode": "141421",
    "officename": "Jatana B.O",
    "officeType": "B.O",
    "Deliverystatus": "Delivery",
    "divisionname": "Ludhiana Moffusil",
    "regionname": "Chandigarh HQ",
    "circlename": "Punjab",
    "Taluk": "Ludhiana",
    "Districtname": "Ludhiana",
    "statename": "PUNJAB"
  },
  {
    "pincode": "141421",
    "officename": "Kaddon B.O",
    "officeType": "B.O",
    "Deliverystatus": "Delivery",
    "divisionname": "Ludhiana Moffusil",
    "regionname": "Chandigarh HQ",
    "circlename": "Punjab",
    "Taluk": "Ludhiana",
    "Districtname": "Ludhiana",
    "statename": "PUNJAB"
  },
  {
    "pincode": "141421",
    "officename": "Lapran B.O",
    "officeType": "B.O",
    "Deliverystatus": "Delivery",
    "divisionname": "Ludhiana Moffusil",
    "regionname": "Chandigarh HQ",
    "circlename": "Punjab",
    "Taluk": "Ludhiana",
    "Districtname": "Ludhiana",
    "statename": "PUNJAB"
  },
  {
    "pincode": "141421",
    "officename": "Rajgarh B.O",
    "officeType": "B.O",
    "Deliverystatus": "Delivery",
    "divisionname": "Ludhiana Moffusil",
    "regionname": "Chandigarh HQ",
    "circlename": "Punjab",
    "Taluk": "Ludhiana",
    "Districtname": "Ludhiana",
    "statename": "PUNJAB"
  },
  {
    "pincode": "141421",
    "officename": "Rupalon B.O",
    "officeType": "B.O",
    "Deliverystatus": "Delivery",
    "divisionname": "Ludhiana Moffusil",
    "regionname": "Chandigarh HQ",
    "circlename": "Punjab",
    "Taluk": "Ludhiana",
    "Districtname": "Ludhiana",
    "statename": "PUNJAB"
  }
]
