[
  {
    "pincode": "141411",
    "officename": "Barwali Khurd B.O",
    "officeType": "B.O",
    "Deliverystatus": "Delivery",
    "divisionname": "Patiala",
    "regionname": "Chandigarh HQ",
    "circlename": "Punjab",
    "Taluk": "Khamanoo",
    "Districtname": "Patiala",
    "statename": "PUNJAB"
  },
  {
    "pincode": "141411",
    "officename": "Bhari S.O",
    "officeType": "S.O",
    "Deliverystatus": "Delivery",
    "divisionname": "Patiala",
    "regionname": "Chandigarh HQ",
    "circlename": "Punjab",
    "Taluk": "Khamanon",
    "Districtname": "Fatehgarh Sahib",
    "statename": "PUNJAB"
  },
  {
    "pincode": "141411",
    "officename": "Fatehgarh Niwan B.O",
    "officeType": "B.O",
    "Deliverystatus": "Delivery",
    "divisionname": "Patiala",
    "regionname": "Chandigarh HQ",
    "circlename": "Punjab",
    "Taluk": "Khamanoo",
    "Districtname": "Fatehgarh Sahib",
    "statename": "PUNJAB"
  },
  {
    "pincode": "141411",
    "officename": "Hargana B.O",
    "officeType": "B.O",
    "Deliverystatus": "Delivery",
    "divisionname": "Patiala",
    "regionname": "Chandigarh HQ",
    "circlename": "Punjab",
    "Taluk": "Khamanon",
    "Districtname": "Fatehgarh Sahib",
    "statename": "PUNJAB"
  },
  {
    "pincode": "141411",
    "officename": "Kheri Noudh Singh B.O",
    "officeType": "B.O",
    "Deliverystatus": "Delivery",
    "divisionname": "Patiala",
    "regionname": "Chandigarh HQ",
    "circlename": "Punjab",
    "Taluk": "Khamanon",
    "Districtname": "Fatehgarh Sahib",
    "statename": "PUNJAB"
  },
  {
    "pincode": "141411",
    "officename": "Kotla Ajner B.O",
    "officeType": "B.O",
    "Deliverystatus": "Delivery",
    "divisionname": "Patiala",
    "regionname": "Chandigarh HQ",
    "circlename": "Punjab",
    "Taluk": "Khamanon",
    "Districtname": "Fatehgarh Sahib",
    "statename": "PUNJAB"
  },
  {
    "pincode": "141411",
    "officename": "Kotla Badla B.O",
    "officeType": "B.O",
    "Deliverystatus": "Delivery",
    "divisionname": "Patiala",
    "regionname": "Chandigarh HQ",
    "circlename": "Punjab",
    "Taluk": "Khamanon",
    "Districtname": "Fatehgarh Sahib",
    "statename": "PUNJAB"
  },
  {
    "pincode": "141411",
    "officename": "Lohar Majra Kalan B.O",
    "officeType": "B.O",
    "Deliverystatus": "Delivery",
    "divisionname": "Patiala",
    "regionname": "Chandigarh HQ",
    "circlename": "Punjab",
    "Taluk": "Khamanon",
    "Districtname": "Fatehgarh Sahib",
    "statename": "PUNJAB"
  },
  {
    "pincode": "141411",
    "officename": "Manupur B.O",
    "officeType": "B.O",
    "Deliverystatus": "Delivery",
    "divisionname": "Patiala",
    "regionname": "Chandigarh HQ",
    "circlename": "Punjab",
    "Taluk": "Ludhiana",
    "Districtname": "Ludhiana",
    "statename": "PUNJAB"
  },
  {
    "pincode": "141411",
    "officename": "Raipur Majri B.O",
    "officeType": "B.O",
    "Deliverystatus": "Delivery",
    "divisionname": "Patiala",
    "regionname": "Chandigarh HQ",
    "circlename": "Punjab",
    "Taluk": "Khamanoo",
    "Districtname": "Ludhiana",
    "statename": "PUNJAB"
  }
]
