[
  {
    "pincode": "141412",
    "officename": "Bagli Kalan B.O",
    "officeType": "B.O",
    "Deliverystatus": "Delivery",
    "divisionname": "Ludhiana Moffusil",
    "regionname": "Chandigarh HQ",
    "circlename": "Punjab",
    "Taluk": "Ludhiana",
    "Districtname": "Ludhiana",
    "statename": "PUNJAB"
  },
  {
    "pincode": "141412",
    "officename": "Bahomajra B.O",
    "officeType": "B.O",
    "Deliverystatus": "Delivery",
    "divisionname": "Ludhiana Moffusil",
    "regionname": "Chandigarh HQ",
    "circlename": "Punjab",
    "Taluk": "Khanna",
    "Districtname": "Ludhiana",
    "statename": "PUNJAB"
  },
  {
    "pincode": "141412",
    "officename": "Bhamaddi B.O",
    "officeType": "B.O",
    "Deliverystatus": "Delivery",
    "divisionname": "Ludhiana Moffusil",
    "regionname": "Chandigarh HQ",
    "circlename": "Punjab",
    "Taluk": "Khanna",
    "Districtname": "Ludhiana",
    "statename": "PUNJAB"
  },
  {
    "pincode": "141412",
    "officename": "Bhourla B.O",
    "officeType": "B.O",
    "Deliverystatus": "Delivery",
    "divisionname": "Ludhiana Moffusil",
    "regionname": "Chandigarh HQ",
    "circlename": "Punjab",
    "Taluk": "Ludhiana",
    "Districtname": "Ludhiana",
    "statename": "PUNJAB"
  },
  {
    "pincode": "141412",
    "officename": "Bija Kalan B.O",
    "officeType": "B.O",
    "Deliverystatus": "Delivery",
    "divisionname": "Ludhiana Moffusil",
    "regionname": "Chandigarh HQ",
    "circlename": "Punjab",
    "Taluk": "Ludhiana",
    "Districtname": "Ludhiana",
    "statename": "PUNJAB"
  },
  {
    "pincode": "141412",
    "officename": "Daheru S.O",
    "officeType": "S.O",
    "Deliverystatus": "Delivery",
    "divisionname": "Ludhiana Moffusil",
    "regionname": "Chandigarh HQ",
    "circlename": "Punjab",
    "Taluk": "Khanna",
    "Districtname": "Ludhiana",
    "statename": "PUNJAB"
  },
  {
    "pincode": "141412",
    "officename": "Ghungrali Rajputan B.O",
    "officeType": "B.O",
    "Deliverystatus": "Delivery",
    "divisionname": "Ludhiana Moffusil",
    "regionname": "Chandigarh HQ",
    "circlename": "Punjab",
    "Taluk": "Khanna",
    "Districtname": "Ludhiana",
    "statename": "PUNJAB"
  },
  {
    "pincode": "141412",
    "officename": "Kishangarh B.O",
    "officeType": "B.O",
    "Deliverystatus": "Delivery",
    "divisionname": "Ludhiana Moffusil",
    "regionname": "Chandigarh HQ",
    "circlename": "Punjab",
    "Taluk": "Khanna",
    "Districtname": "Ludhiana",
    "statename": "PUNJAB"
  },
  {
    "pincode": "141412",
    "officename": "Libra B.O",
    "officeType": "B.O",
    "Deliverystatus": "Delivery",
    "divisionname": "Ludhiana Moffusil",
    "regionname": "Chandigarh HQ",
    "circlename": "Punjab",
    "Taluk": "Khanna",
    "Districtname": "Ludhiana",
    "statename": "PUNJAB"
  },
  {
    "pincode": "141412",
    "officename": "Mohanpur B.O",
    "officeType": "B.O",
    "Deliverystatus": "Delivery",
    "divisionname": "Ludhiana Moffusil",
    "regionname": "Chandigarh HQ",
    "circlename": "Punjab",
    "Taluk": "Khanna",
    "Districtname": "Ludhiana",
    "statename": "PUNJAB"
  }
]
