[
  {
    "pincode": "142038",
    "officename": "Alamwala Kalan B.O",
    "officeType": "B.O",
    "Deliverystatus": "Delivery",
    "divisionname": "Faridkot",
    "regionname": "Chandigarh Region",
    "circlename": "Punjab",
    "Taluk": "Bhagha Purana",
    "Districtname": "Moga",
    "statename": "PUNJAB"
  },
  {
    "pincode": "142038",
    "officename": "Baghapurana S.O",
    "officeType": "S.O",
    "Deliverystatus": "Delivery",
    "divisionname": "Faridkot",
    "regionname": "Chandigarh Region",
    "circlename": "Punjab",
    "Taluk": "Bhagha Purana",
    "Districtname": "Moga",
    "statename": "PUNJAB"
  },
  {
    "pincode": "142038",
    "officename": "Baraghar B.O",
    "officeType": "B.O",
    "Deliverystatus": "Delivery",
    "divisionname": "Faridkot",
    "regionname": "Chandigarh Region",
    "circlename": "Punjab",
    "Taluk": "Baghapurana",
    "Districtname": "Moga",
    "statename": "PUNJAB"
  },
  {
    "pincode": "142038",
    "officename": "Budh Singh Wala B.O",
    "officeType": "B.O",
    "Deliverystatus": "Delivery",
    "divisionname": "Faridkot",
    "regionname": "Chandigarh Region",
    "circlename": "Punjab",
    "Taluk": "Baghapurana",
    "Districtname": "Moga",
    "statename": "PUNJAB"
  },
  {
    "pincode": "142038",
    "officename": "Chand Purana B.O",
    "officeType": "B.O",
    "Deliverystatus": "Delivery",
    "divisionname": "Faridkot",
    "regionname": "Chandigarh Region",
    "circlename": "Punjab",
    "Taluk": "Baghapurana",
    "Districtname": "Moga",
    "statename": "PUNJAB"
  },
  {
    "pincode": "142038",
    "officename": "Channu Wala B.O",
    "officeType": "B.O",
    "Deliverystatus": "Delivery",
    "divisionname": "Faridkot",
    "regionname": "Chandigarh Region",
    "circlename": "Punjab",
    "Taluk": "Baghapurana",
    "Districtname": "Moga",
    "statename": "PUNJAB"
  },
  {
    "pincode": "142038",
    "officename": "Jai Singh Wala B.O",
    "officeType": "B.O",
    "Deliverystatus": "Delivery",
    "divisionname": "Faridkot",
    "regionname": "Chandigarh Region",
    "circlename": "Punjab",
    "Taluk": "Baghapurana",
    "Districtname": "Moga",
    "statename": "PUNJAB"
  },
  {
    "pincode": "142038",
    "officename": "Kaleke B.O",
    "officeType": "B.O",
    "Deliverystatus": "Delivery",
    "divisionname": "Faridkot",
    "regionname": "Chandigarh Region",
    "circlename": "Punjab",
    "Taluk": "Baghapurana",
    "Districtname": "Moga",
    "statename": "PUNJAB"
  },
  {
    "pincode": "142038",
    "officename": "Kotla Mehar Singh wala B.O",
    "officeType": "B.O",
    "Deliverystatus": "Delivery",
    "divisionname": "Faridkot",
    "regionname": "Chandigarh Region",
    "circlename": "Punjab",
    "Taluk": "Baghapurana",
    "Districtname": "Moga",
    "statename": "PUNJAB"
  },
  {
    "pincode": "142038",
    "officename": "Ladhai Ke B.O",
    "officeType": "B.O",
    "Deliverystatus": "Delivery",
    "divisionname": "Faridkot",
    "regionname": "Chandigarh Region",
    "circlename": "Punjab",
    "Taluk": "Baghapurana",
    "Districtname": "Moga",
    "statename": "PUNJAB"
  },
  {
    "pincode": "142038",
    "officename": "Langeana Kalan B.O",
    "officeType": "B.O",
    "Deliverystatus": "Delivery",
    "divisionname": "Faridkot",
    "regionname": "Chandigarh Region",
    "circlename": "Punjab",
    "Taluk": "Bhagha Purana",
    "Districtname": "Moga",
    "statename": "PUNJAB"
  },
  {
    "pincode": "142038",
    "officename": "Langeana Khurd B.O",
    "officeType": "B.O",
    "Deliverystatus": "Delivery",
    "divisionname": "Faridkot",
    "regionname": "Chandigarh Region",
    "circlename": "Punjab",
    "Taluk": "Bhagha Purana",
    "Districtname": "Moga",
    "statename": "PUNJAB"
  },
  {
    "pincode": "142038",
    "officename": "Mahla Kalan B.O",
    "officeType": "B.O",
    "Deliverystatus": "Delivery",
    "divisionname": "Faridkot",
    "regionname": "Chandigarh Region",
    "circlename": "Punjab",
    "Taluk": "Baghapurana",
    "Districtname": "Moga",
    "statename": "PUNJAB"
  },
  {
    "pincode": "142038",
    "officename": "Mandhiran Wala B.O",
    "officeType": "B.O",
    "Deliverystatus": "Delivery",
    "divisionname": "Faridkot",
    "regionname": "Chandigarh Region",
    "circlename": "Punjab",
    "Taluk": "Baghapurana",
    "Districtname": "Moga",
    "statename": "PUNJAB"
  },
  {
    "pincode": "142038",
    "officename": "Nathoke B.O",
    "officeType": "B.O",
    "Deliverystatus": "Delivery",
    "divisionname": "Faridkot",
    "regionname": "Chandigarh Region",
    "circlename": "Punjab",
    "Taluk": "Baghapurana",
    "Districtname": "Moga",
    "statename": "PUNJAB"
  },
  {
    "pincode": "142038",
    "officename": "Nathuwala West B.O",
    "officeType": "B.O",
    "Deliverystatus": "Delivery",
    "divisionname": "Faridkot",
    "regionname": "Chandigarh Region",
    "circlename": "Punjab",
    "Taluk": "Bhagha Purana",
    "Districtname": "Moga",
    "statename": "PUNJAB"
  },
  {
    "pincode": "142038",
    "officename": "Rajeana B.O",
    "officeType": "B.O",
    "Deliverystatus": "Delivery",
    "divisionname": "Faridkot",
    "regionname": "Chandigarh Region",
    "circlename": "Punjab",
    "Taluk": "Baghapurana",
    "Districtname": "Moga",
    "statename": "PUNJAB"
  }
]
