[
  {
    "pincode": "142039",
    "officename": "Baude B.O",
    "officeType": "B.O",
    "Deliverystatus": "Delivery",
    "divisionname": "Faridkot",
    "regionname": "Chandigarh Region",
    "circlename": "Punjab",
    "Taluk": "Nihal Singhwala",
    "Districtname": "Moga",
    "statename": "PUNJAB"
  },
  {
    "pincode": "142039",
    "officename": "Bhagike B.O",
    "officeType": "B.O",
    "Deliverystatus": "Delivery",
    "divisionname": "Faridkot",
    "regionname": "Chandigarh Region",
    "circlename": "Punjab",
    "Taluk": "Moga",
    "Districtname": "Moga",
    "statename": "PUNJAB"
  },
  {
    "pincode": "142039",
    "officename": "Bilaspur (Moga) S.O",
    "officeType": "S.O",
    "Deliverystatus": "Delivery",
    "divisionname": "Faridkot",
    "regionname": "Chandigarh Region",
    "circlename": "Punjab",
    "Taluk": "Nihal Singh Wala",
    "Districtname": "Moga",
    "statename": "PUNJAB"
  },
  {
    "pincode": "142039",
    "officename": "Himmatpura B.O",
    "officeType": "B.O",
    "Deliverystatus": "Delivery",
    "divisionname": "Faridkot",
    "regionname": "Chandigarh Region",
    "circlename": "Punjab",
    "Taluk": "Moga",
    "Districtname": "Moga",
    "statename": "PUNJAB"
  },
  {
    "pincode": "142039",
    "officename": "Kussa B.O",
    "officeType": "B.O",
    "Deliverystatus": "Delivery",
    "divisionname": "Faridkot",
    "regionname": "Chandigarh Region",
    "circlename": "Punjab",
    "Taluk": "",
    "Districtname": "Moga",
    "statename": "PUNJAB"
  },
  {
    "pincode": "142039",
    "officename": "Lohara B.O",
    "officeType": "B.O",
    "Deliverystatus": "Delivery",
    "divisionname": "Faridkot",
    "regionname": "Chandigarh Region",
    "circlename": "Punjab",
    "Taluk": "Moga",
    "Districtname": "Moga",
    "statename": "PUNJAB"
  },
  {
    "pincode": "142039",
    "officename": "Machike B.O",
    "officeType": "B.O",
    "Deliverystatus": "Delivery",
    "divisionname": "Faridkot",
    "regionname": "Chandigarh Region",
    "circlename": "Punjab",
    "Taluk": "Moga",
    "Districtname": "Moga",
    "statename": "PUNJAB"
  },
  {
    "pincode": "142039",
    "officename": "Minian B.O",
    "officeType": "B.O",
    "Deliverystatus": "Delivery",
    "divisionname": "Faridkot",
    "regionname": "Chandigarh Region",
    "circlename": "Punjab",
    "Taluk": "Moga",
    "Districtname": "Moga",
    "statename": "PUNJAB"
  },
  {
    "pincode": "142039",
    "officename": "Nangal B.O",
    "officeType": "B.O",
    "Deliverystatus": "Delivery",
    "divisionname": "Faridkot",
    "regionname": "Chandigarh Region",
    "circlename": "Punjab",
    "Taluk": "Moga",
    "Districtname": "Moga",
    "statename": "PUNJAB"
  },
  {
    "pincode": "142039",
    "officename": "Raman B.O",
    "officeType": "B.O",
    "Deliverystatus": "Delivery",
    "divisionname": "Faridkot",
    "regionname": "Chandigarh Region",
    "circlename": "Punjab",
    "Taluk": "Moga",
    "Districtname": "Moga",
    "statename": "PUNJAB"
  }
]
