[
  {
    "pincode": "143116",
    "officename": "Akalgarh Dhupaian B.O",
    "officeType": "B.O",
    "Deliverystatus": "Delivery",
    "divisionname": "Amritsar",
    "regionname": "Chandigarh Region",
    "circlename": "Punjab",
    "Taluk": "",
    "Districtname": "Amritsar",
    "statename": "PUNJAB"
  },
  {
    "pincode": "143116",
    "officename": "Bhattike B.O",
    "officeType": "B.O",
    "Deliverystatus": "Delivery",
    "divisionname": "Amritsar",
    "regionname": "Chandigarh Region",
    "circlename": "Punjab",
    "Taluk": "",
    "Districtname": "Amritsar",
    "statename": "PUNJAB"
  },
  {
    "pincode": "143116",
    "officename": "Chogawan Sidhpur B.O",
    "officeType": "B.O",
    "Deliverystatus": "Delivery",
    "divisionname": "Amritsar",
    "regionname": "Chandigarh Region",
    "circlename": "Punjab",
    "Taluk": "Amritsar",
    "Districtname": "Amritsar",
    "statename": "PUNJAB"
  },
  {
    "pincode": "143116",
    "officename": "Dehriwala B.O",
    "officeType": "B.O",
    "Deliverystatus": "Delivery",
    "divisionname": "Amritsar",
    "regionname": "Chandigarh Region",
    "circlename": "Punjab",
    "Taluk": "",
    "Districtname": "Amritsar",
    "statename": "PUNJAB"
  },
  {
    "pincode": "143116",
    "officename": "Jabowal B.O",
    "officeType": "B.O",
    "Deliverystatus": "Delivery",
    "divisionname": "Amritsar",
    "regionname": "Chandigarh Region",
    "circlename": "Punjab",
    "Taluk": "Baba Bakala",
    "Districtname": "Amritsar",
    "statename": "PUNJAB"
  },
  {
    "pincode": "143116",
    "officename": "Kot Khera B.O",
    "officeType": "B.O",
    "Deliverystatus": "Delivery",
    "divisionname": "Amritsar",
    "regionname": "Chandigarh Region",
    "circlename": "Punjab",
    "Taluk": "Amritsar",
    "Districtname": "Amritsar",
    "statename": "PUNJAB"
  },
  {
    "pincode": "143116",
    "officename": "Lola B.O",
    "officeType": "B.O",
    "Deliverystatus": "Delivery",
    "divisionname": "Amritsar",
    "regionname": "Chandigarh Region",
    "circlename": "Punjab",
    "Taluk": "Baba Bakala",
    "Districtname": "Amritsar",
    "statename": "PUNJAB"
  },
  {
    "pincode": "143116",
    "officename": "Mallowal B.O",
    "officeType": "B.O",
    "Deliverystatus": "Delivery",
    "divisionname": "Amritsar",
    "regionname": "Chandigarh Region",
    "circlename": "Punjab",
    "Taluk": "Tarsika",
    "Districtname": "Amritsar",
    "statename": "PUNJAB"
  },
  {
    "pincode": "143116",
    "officename": "Tanel B.O",
    "officeType": "B.O",
    "Deliverystatus": "Delivery",
    "divisionname": "Amritsar",
    "regionname": "Chandigarh Region",
    "circlename": "Punjab",
    "Taluk": "Tarsika",
    "Districtname": "Amritsar",
    "statename": "PUNJAB"
  },
  {
    "pincode": "143116",
    "officename": "Tarsika S.O",
    "officeType": "S.O",
    "Deliverystatus": "Delivery",
    "divisionname": "Amritsar",
    "regionname": "Chandigarh Region",
    "circlename": "Punjab",
    "Taluk": "Amritsar",
    "Districtname": "Amritsar",
    "statename": "PUNJAB"
  }
]
