[
  {
    "pincode": "143301",
    "officename": "Aima Kalan B.O",
    "officeType": "B.O",
    "Deliverystatus": "Delivery",
    "divisionname": "Amritsar",
    "regionname": "Chandigarh Region",
    "circlename": "Punjab",
    "Taluk": "TARN-TARAN",
    "Districtname": "Tarn Taran",
    "statename": "PUNJAB"
  },
  {
    "pincode": "143301",
    "officename": "Bhagiari B.O",
    "officeType": "B.O",
    "Deliverystatus": "Delivery",
    "divisionname": "Amritsar",
    "regionname": "Chandigarh Region",
    "circlename": "Punjab",
    "Taluk": "",
    "Districtname": "Tarn Taran",
    "statename": "PUNJAB"
  },
  {
    "pincode": "143301",
    "officename": "Chabhal S.O",
    "officeType": "S.O",
    "Deliverystatus": "Delivery",
    "divisionname": "Amritsar",
    "regionname": "Chandigarh Region",
    "circlename": "Punjab",
    "Taluk": "TARN-TARAN",
    "Districtname": "Tarn Taran",
    "statename": "PUNJAB"
  },
  {
    "pincode": "143301",
    "officename": "Johal Raju Singh B.O",
    "officeType": "B.O",
    "Deliverystatus": "Delivery",
    "divisionname": "Amritsar",
    "regionname": "Chandigarh Region",
    "circlename": "Punjab",
    "Taluk": "TARN-TARAN",
    "Districtname": "Tarn Taran",
    "statename": "PUNJAB"
  },
  {
    "pincode": "143301",
    "officename": "Kot Dharam Chand Kalan B.O",
    "officeType": "B.O",
    "Deliverystatus": "Delivery",
    "divisionname": "Amritsar",
    "regionname": "Chandigarh Region",
    "circlename": "Punjab",
    "Taluk": "Amritsar",
    "Districtname": "Amritsar",
    "statename": "PUNJAB"
  },
  {
    "pincode": "143301",
    "officename": "Lalu Ghuman B.O",
    "officeType": "B.O",
    "Deliverystatus": "Delivery",
    "divisionname": "Amritsar",
    "regionname": "Chandigarh Region",
    "circlename": "Punjab",
    "Taluk": "Chabhal",
    "Districtname": "Amritsar",
    "statename": "PUNJAB"
  },
  {
    "pincode": "143301",
    "officename": "Maluwal B.O",
    "officeType": "B.O",
    "Deliverystatus": "Delivery",
    "divisionname": "Amritsar",
    "regionname": "Chandigarh Region",
    "circlename": "Punjab",
    "Taluk": "Chabhal",
    "Districtname": "Amritsar",
    "statename": "PUNJAB"
  },
  {
    "pincode": "143301",
    "officename": "Pandori Ransingh B.O",
    "officeType": "B.O",
    "Deliverystatus": "Delivery",
    "divisionname": "Amritsar",
    "regionname": "Chandigarh Region",
    "circlename": "Punjab",
    "Taluk": "TARN-TARAN",
    "Districtname": "Tarn Taran",
    "statename": "PUNJAB"
  },
  {
    "pincode": "143301",
    "officename": "Pandori Takhtmal B.O",
    "officeType": "B.O",
    "Deliverystatus": "Delivery",
    "divisionname": "Amritsar",
    "regionname": "Chandigarh Region",
    "circlename": "Punjab",
    "Taluk": "TARN-TARAN",
    "Districtname": "Tarn Taran",
    "statename": "PUNJAB"
  },
  {
    "pincode": "143301",
    "officename": "Panjwar B.O",
    "officeType": "B.O",
    "Deliverystatus": "Delivery",
    "divisionname": "Amritsar",
    "regionname": "Chandigarh Region",
    "circlename": "Punjab",
    "Taluk": "Chabhal",
    "Districtname": "Amritsar",
    "statename": "PUNJAB"
  },
  {
    "pincode": "143301",
    "officename": "Qilla Kavi Santokh B.O",
    "officeType": "B.O",
    "Deliverystatus": "Delivery",
    "divisionname": "Amritsar",
    "regionname": "Chandigarh Region",
    "circlename": "Punjab",
    "Taluk": "TARN-TARAN",
    "Districtname": "Tarn Taran",
    "statename": "PUNJAB"
  },
  {
    "pincode": "143301",
    "officename": "Tharu B.O",
    "officeType": "B.O",
    "Deliverystatus": "Delivery",
    "divisionname": "Amritsar",
    "regionname": "Chandigarh Region",
    "circlename": "Punjab",
    "Taluk": "",
    "Districtname": "Amritsar",
    "statename": "PUNJAB"
  }
]
