[
  {
    "pincode": "143534",
    "officename": "Baknaur B.O",
    "officeType": "B.O",
    "Deliverystatus": "Delivery",
    "divisionname": "Gurdaspur",
    "regionname": "Chandigarh Region",
    "circlename": "Punjab",
    "Taluk": "Gurdaspur",
    "Districtname": "Gurdaspur",
    "statename": "PUNJAB"
  },
  {
    "pincode": "143534",
    "officename": "Kathlaur B.O",
    "officeType": "B.O",
    "Deliverystatus": "Delivery",
    "divisionname": "Gurdaspur",
    "regionname": "Chandigarh Region",
    "circlename": "Punjab",
    "Taluk": "Pathankot",
    "Districtname": "Gurdaspur",
    "statename": "PUNJAB"
  },
  {
    "pincode": "143534",
    "officename": "Lahri Gujran B.O",
    "officeType": "B.O",
    "Deliverystatus": "Delivery",
    "divisionname": "Gurdaspur",
    "regionname": "Chandigarh Region",
    "circlename": "Punjab",
    "Taluk": "Pathankot",
    "Districtname": "Gurdaspur",
    "statename": "PUNJAB"
  },
  {
    "pincode": "143534",
    "officename": "Parmanand B.O",
    "officeType": "B.O",
    "Deliverystatus": "Delivery",
    "divisionname": "Gurdaspur",
    "regionname": "Chandigarh Region",
    "circlename": "Punjab",
    "Taluk": "Pathankot",
    "Districtname": "Gurdaspur",
    "statename": "PUNJAB"
  },
  {
    "pincode": "143534",
    "officename": "Rattangarh B.O",
    "officeType": "B.O",
    "Deliverystatus": "Delivery",
    "divisionname": "Gurdaspur",
    "regionname": "Chandigarh Region",
    "circlename": "Punjab",
    "Taluk": "Pathankot",
    "Districtname": "Gurdaspur",
    "statename": "PUNJAB"
  },
  {
    "pincode": "143534",
    "officename": "Sahaura Khurd B.O",
    "officeType": "B.O",
    "Deliverystatus": "Delivery",
    "divisionname": "Gurdaspur",
    "regionname": "Chandigarh Region",
    "circlename": "Punjab",
    "Taluk": "Pathankot",
    "Districtname": "Gurdaspur",
    "statename": "PUNJAB"
  },
  {
    "pincode": "143534",
    "officename": "Saidipur B.O",
    "officeType": "B.O",
    "Deliverystatus": "Delivery",
    "divisionname": "Gurdaspur",
    "regionname": "Chandigarh Region",
    "circlename": "Punjab",
    "Taluk": "Gurdaspur",
    "Districtname": "Gurdaspur",
    "statename": "PUNJAB"
  },
  {
    "pincode": "143534",
    "officename": "Taragarh (Gurdaspur) S.O",
    "officeType": "S.O",
    "Deliverystatus": "Delivery",
    "divisionname": "Gurdaspur",
    "regionname": "Chandigarh Region",
    "circlename": "Punjab",
    "Taluk": "Pathankot",
    "Districtname": "Pathankot",
    "statename": "PUNJAB"
  }
]
