[
  {
    "pincode": "143526",
    "officename": "Dorangla S.O",
    "officeType": "S.O",
    "Deliverystatus": "Delivery",
    "divisionname": "Gurdaspur",
    "regionname": "Chandigarh Region",
    "circlename": "Punjab",
    "Taluk": "Gurdaspur",
    "Districtname": "Gurdaspur",
    "statename": "PUNJAB"
  },
  {
    "pincode": "143526",
    "officename": "Dostpur B.O",
    "officeType": "B.O",
    "Deliverystatus": "Delivery",
    "divisionname": "Gurdaspur",
    "regionname": "Chandigarh Region",
    "circlename": "Punjab",
    "Taluk": "Gurdaspur",
    "Districtname": "Gurdaspur",
    "statename": "PUNJAB"
  },
  {
    "pincode": "143526",
    "officename": "Dugri B.O",
    "officeType": "B.O",
    "Deliverystatus": "Delivery",
    "divisionname": "Gurdaspur",
    "regionname": "Chandigarh Region",
    "circlename": "Punjab",
    "Taluk": "Gurdaspur",
    "Districtname": "Gurdaspur",
    "statename": "PUNJAB"
  },
  {
    "pincode": "143526",
    "officename": "Galhri B.O",
    "officeType": "B.O",
    "Deliverystatus": "Delivery",
    "divisionname": "Gurdaspur",
    "regionname": "Chandigarh Region",
    "circlename": "Punjab",
    "Taluk": "Gurdaspur",
    "Districtname": "Gurdaspur",
    "statename": "PUNJAB"
  },
  {
    "pincode": "143526",
    "officename": "Hardo Chhani B.O",
    "officeType": "B.O",
    "Deliverystatus": "Delivery",
    "divisionname": "Gurdaspur",
    "regionname": "Chandigarh Region",
    "circlename": "Punjab",
    "Taluk": "Gurdaspur",
    "Districtname": "Gurdaspur",
    "statename": "PUNJAB"
  },
  {
    "pincode": "143526",
    "officename": "Hemrajpur B.O",
    "officeType": "B.O",
    "Deliverystatus": "Delivery",
    "divisionname": "Gurdaspur",
    "regionname": "Chandigarh Region",
    "circlename": "Punjab",
    "Taluk": "",
    "Districtname": "Gurdaspur",
    "statename": "PUNJAB"
  },
  {
    "pincode": "143526",
    "officename": "Islampur B.O",
    "officeType": "B.O",
    "Deliverystatus": "Delivery",
    "divisionname": "Gurdaspur",
    "regionname": "Chandigarh Region",
    "circlename": "Punjab",
    "Taluk": "Gurdaspur",
    "Districtname": "Gurdaspur",
    "statename": "PUNJAB"
  },
  {
    "pincode": "143526",
    "officename": "Magar Mudian B.O",
    "officeType": "B.O",
    "Deliverystatus": "Delivery",
    "divisionname": "Gurdaspur",
    "regionname": "Chandigarh Region",
    "circlename": "Punjab",
    "Taluk": "",
    "Districtname": "Gurdaspur",
    "statename": "PUNJAB"
  },
  {
    "pincode": "143526",
    "officename": "Sale Chak B.O",
    "officeType": "B.O",
    "Deliverystatus": "Delivery",
    "divisionname": "Gurdaspur",
    "regionname": "Chandigarh Region",
    "circlename": "Punjab",
    "Taluk": "Gurdaspur",
    "Districtname": "Gurdaspur",
    "statename": "PUNJAB"
  }
]
