[
  {
    "pincode": "143501",
    "officename": "Fatehgarh Shukarchack B.O",
    "officeType": "B.O",
    "Deliverystatus": "Delivery",
    "divisionname": "Amritsar",
    "regionname": "Chandigarh Region",
    "circlename": "Punjab",
    "Taluk": "Verka",
    "Districtname": "Amritsar",
    "statename": "PUNJAB"
  },
  {
    "pincode": "143501",
    "officename": "Jahangir B.O",
    "officeType": "B.O",
    "Deliverystatus": "Delivery",
    "divisionname": "Amritsar",
    "regionname": "Chandigarh Region",
    "circlename": "Punjab",
    "Taluk": "Khadoor Sahib",
    "Districtname": "Tarn Taran",
    "statename": "PUNJAB"
  },
  {
    "pincode": "143501",
    "officename": "Khankot Garden Colony B.O",
    "officeType": "B.O",
    "Deliverystatus": "Delivery",
    "divisionname": "Amritsar",
    "regionname": "Chandigarh Region",
    "circlename": "Punjab",
    "Taluk": "Amritsar",
    "Districtname": "Amritsar",
    "statename": "PUNJAB"
  },
  {
    "pincode": "143501",
    "officename": "Makhanwindi B.O",
    "officeType": "B.O",
    "Deliverystatus": "Delivery",
    "divisionname": "Amritsar",
    "regionname": "Chandigarh Region",
    "circlename": "Punjab",
    "Taluk": "Verka",
    "Districtname": "Amritsar",
    "statename": "PUNJAB"
  },
  {
    "pincode": "143501",
    "officename": "Mudhal B.O",
    "officeType": "B.O",
    "Deliverystatus": "Delivery",
    "divisionname": "Amritsar",
    "regionname": "Chandigarh Region",
    "circlename": "Punjab",
    "Taluk": "Amritsar- II",
    "Districtname": "Amritsar",
    "statename": "PUNJAB"
  },
  {
    "pincode": "143501",
    "officename": "Nizampura B.O",
    "officeType": "B.O",
    "Deliverystatus": "Delivery",
    "divisionname": "Amritsar",
    "regionname": "Chandigarh Region",
    "circlename": "Punjab",
    "Taluk": "Verka",
    "Districtname": "Amritsar",
    "statename": "PUNJAB"
  },
  {
    "pincode": "143501",
    "officename": "Sohian Khurd B.O",
    "officeType": "B.O",
    "Deliverystatus": "Delivery",
    "divisionname": "Amritsar",
    "regionname": "Chandigarh Region",
    "circlename": "Punjab",
    "Taluk": "Amritsar- II",
    "Districtname": "Amritsar",
    "statename": "PUNJAB"
  },
  {
    "pincode": "143501",
    "officename": "Vallah B.O",
    "officeType": "B.O",
    "Deliverystatus": "Delivery",
    "divisionname": "Amritsar",
    "regionname": "Chandigarh Region",
    "circlename": "Punjab",
    "Taluk": "Amritsar- II",
    "Districtname": "Amritsar",
    "statename": "PUNJAB"
  },
  {
    "pincode": "143501",
    "officename": "Verka S.O",
    "officeType": "S.O",
    "Deliverystatus": "Delivery",
    "divisionname": "Amritsar",
    "regionname": "Chandigarh Region",
    "circlename": "Punjab",
    "Taluk": "Amritsar",
    "Districtname": "Amritsar",
    "statename": "PUNJAB"
  }
]
