[
  {
    "pincode": "143511",
    "officename": "Akarpura B.O",
    "officeType": "B.O",
    "Deliverystatus": "Delivery",
    "divisionname": "Gurdaspur",
    "regionname": "Chandigarh Region",
    "circlename": "Punjab",
    "Taluk": "Batala",
    "Districtname": "Gurdaspur",
    "statename": "PUNJAB"
  },
  {
    "pincode": "143511",
    "officename": "Athwal B.O",
    "officeType": "B.O",
    "Deliverystatus": "Delivery",
    "divisionname": "Gurdaspur",
    "regionname": "Chandigarh Region",
    "circlename": "Punjab",
    "Taluk": "Batala",
    "Districtname": "Gurdaspur",
    "statename": "PUNJAB"
  },
  {
    "pincode": "143511",
    "officename": "Bhadal B.O",
    "officeType": "B.O",
    "Deliverystatus": "Delivery",
    "divisionname": "Gurdaspur",
    "regionname": "Chandigarh Region",
    "circlename": "Punjab",
    "Taluk": "Gurdaspur",
    "Districtname": "Gurdaspur",
    "statename": "PUNJAB"
  },
  {
    "pincode": "143511",
    "officename": "Bhagowal S.O",
    "officeType": "S.O",
    "Deliverystatus": "Delivery",
    "divisionname": "Gurdaspur",
    "regionname": "Chandigarh Region",
    "circlename": "Punjab",
    "Taluk": "Batala",
    "Districtname": "Gurdaspur",
    "statename": "PUNJAB"
  },
  {
    "pincode": "143511",
    "officename": "Bhangowani B.O",
    "officeType": "B.O",
    "Deliverystatus": "Delivery",
    "divisionname": "Gurdaspur",
    "regionname": "Chandigarh Region",
    "circlename": "Punjab",
    "Taluk": "Batala",
    "Districtname": "Gurdaspur",
    "statename": "PUNJAB"
  },
  {
    "pincode": "143511",
    "officename": "Bhullar B.O",
    "officeType": "B.O",
    "Deliverystatus": "Delivery",
    "divisionname": "Gurdaspur",
    "regionname": "Chandigarh Region",
    "circlename": "Punjab",
    "Taluk": "Batala",
    "Districtname": "Gurdaspur",
    "statename": "PUNJAB"
  },
  {
    "pincode": "143511",
    "officename": "Dalam B.O",
    "officeType": "B.O",
    "Deliverystatus": "Delivery",
    "divisionname": "Gurdaspur",
    "regionname": "Chandigarh Region",
    "circlename": "Punjab",
    "Taluk": "Batala",
    "Districtname": "Gurdaspur",
    "statename": "PUNJAB"
  },
  {
    "pincode": "143511",
    "officename": "Dargabad B.O",
    "officeType": "B.O",
    "Deliverystatus": "Delivery",
    "divisionname": "Gurdaspur",
    "regionname": "Chandigarh Region",
    "circlename": "Punjab",
    "Taluk": "Batala",
    "Districtname": "Gurdaspur",
    "statename": "PUNJAB"
  },
  {
    "pincode": "143511",
    "officename": "Dharamkot Bagga B.O",
    "officeType": "B.O",
    "Deliverystatus": "Delivery",
    "divisionname": "Gurdaspur",
    "regionname": "Chandigarh Region",
    "circlename": "Punjab",
    "Taluk": "Batala",
    "Districtname": "Gurdaspur",
    "statename": "PUNJAB"
  },
  {
    "pincode": "143511",
    "officename": "Fazlabad B.O",
    "officeType": "B.O",
    "Deliverystatus": "Delivery",
    "divisionname": "Gurdaspur",
    "regionname": "Chandigarh Region",
    "circlename": "Punjab",
    "Taluk": "Batala",
    "Districtname": "Gurdaspur",
    "statename": "PUNJAB"
  },
  {
    "pincode": "143511",
    "officename": "Gagowali B.O",
    "officeType": "B.O",
    "Deliverystatus": "Delivery",
    "divisionname": "Gurdaspur",
    "regionname": "Chandigarh Region",
    "circlename": "Punjab",
    "Taluk": "Gurdaspur",
    "Districtname": "Gurdaspur",
    "statename": "PUNJAB"
  },
  {
    "pincode": "143511",
    "officename": "Hakimpur B.O",
    "officeType": "B.O",
    "Deliverystatus": "Delivery",
    "divisionname": "Gurdaspur",
    "regionname": "Chandigarh Region",
    "circlename": "Punjab",
    "Taluk": "Batala",
    "Districtname": "Gurdaspur",
    "statename": "PUNJAB"
  },
  {
    "pincode": "143511",
    "officename": "Jaura Singha B.O",
    "officeType": "B.O",
    "Deliverystatus": "Delivery",
    "divisionname": "Gurdaspur",
    "regionname": "Chandigarh Region",
    "circlename": "Punjab",
    "Taluk": "Batala",
    "Districtname": "Gurdaspur",
    "statename": "PUNJAB"
  },
  {
    "pincode": "143511",
    "officename": "Mirzajan B.O",
    "officeType": "B.O",
    "Deliverystatus": "Delivery",
    "divisionname": "Gurdaspur",
    "regionname": "Chandigarh Region",
    "circlename": "Punjab",
    "Taluk": "Batala",
    "Districtname": "Gurdaspur",
    "statename": "PUNJAB"
  },
  {
    "pincode": "143511",
    "officename": "Qila Lal Singh B.O",
    "officeType": "B.O",
    "Deliverystatus": "Delivery",
    "divisionname": "Gurdaspur",
    "regionname": "Chandigarh Region",
    "circlename": "Punjab",
    "Taluk": "Batala",
    "Districtname": "Gurdaspur",
    "statename": "PUNJAB"
  },
  {
    "pincode": "143511",
    "officename": "Rai Chak B.O",
    "officeType": "B.O",
    "Deliverystatus": "Delivery",
    "divisionname": "Gurdaspur",
    "regionname": "Chandigarh Region",
    "circlename": "Punjab",
    "Taluk": "",
    "Districtname": "Gurdaspur",
    "statename": "PUNJAB"
  },
  {
    "pincode": "143511",
    "officename": "Sarwali B.O",
    "officeType": "B.O",
    "Deliverystatus": "Delivery",
    "divisionname": "Gurdaspur",
    "regionname": "Chandigarh Region",
    "circlename": "Punjab",
    "Taluk": "Batala",
    "Districtname": "Gurdaspur",
    "statename": "PUNJAB"
  },
  {
    "pincode": "143511",
    "officename": "Wadala Banger B.O",
    "officeType": "B.O",
    "Deliverystatus": "Delivery",
    "divisionname": "Gurdaspur",
    "regionname": "Chandigarh Region",
    "circlename": "Punjab",
    "Taluk": "Batala",
    "Districtname": "Gurdaspur",
    "statename": "PUNJAB"
  }
]
