[
  {
    "pincode": "143506",
    "officename": "Batala Sugar Mills B.O",
    "officeType": "B.O",
    "Deliverystatus": "Delivery",
    "divisionname": "Gurdaspur",
    "regionname": "Chandigarh Region",
    "circlename": "Punjab",
    "Taluk": "Batala",
    "Districtname": "Gurdaspur",
    "statename": "PUNJAB"
  },
  {
    "pincode": "143506",
    "officename": "Chahal B.O",
    "officeType": "B.O",
    "Deliverystatus": "Delivery",
    "divisionname": "Gurdaspur",
    "regionname": "Chandigarh Region",
    "circlename": "Punjab",
    "Taluk": "Batala",
    "Districtname": "Gurdaspur",
    "statename": "PUNJAB"
  },
  {
    "pincode": "143506",
    "officename": "Chaudhriwal B.O",
    "officeType": "B.O",
    "Deliverystatus": "Delivery",
    "divisionname": "Gurdaspur",
    "regionname": "Chandigarh Region",
    "circlename": "Punjab",
    "Taluk": "Batala",
    "Districtname": "Gurdaspur",
    "statename": "PUNJAB"
  },
  {
    "pincode": "143506",
    "officename": "Dadiala B.O",
    "officeType": "B.O",
    "Deliverystatus": "Delivery",
    "divisionname": "Gurdaspur",
    "regionname": "Chandigarh Region",
    "circlename": "Punjab",
    "Taluk": "Batala",
    "Districtname": "Gurdaspur",
    "statename": "PUNJAB"
  },
  {
    "pincode": "143506",
    "officename": "G S T C Batala B.O",
    "officeType": "B.O",
    "Deliverystatus": "Delivery",
    "divisionname": "Gurdaspur",
    "regionname": "Chandigarh Region",
    "circlename": "Punjab",
    "Taluk": "Batala",
    "Districtname": "Gurdaspur",
    "statename": "PUNJAB"
  },
  {
    "pincode": "143506",
    "officename": "Govt. Poly. Tech Batala S.O",
    "officeType": "S.O",
    "Deliverystatus": "Delivery",
    "divisionname": "Gurdaspur",
    "regionname": "Chandigarh Region",
    "circlename": "Punjab",
    "Taluk": "Batala",
    "Districtname": "Gurdaspur",
    "statename": "PUNJAB"
  },
  {
    "pincode": "143506",
    "officename": "Harpura Dhandoi B.O",
    "officeType": "B.O",
    "Deliverystatus": "Delivery",
    "divisionname": "Gurdaspur",
    "regionname": "Chandigarh Region",
    "circlename": "Punjab",
    "Taluk": "Batala",
    "Districtname": "Gurdaspur",
    "statename": "PUNJAB"
  },
  {
    "pincode": "143506",
    "officename": "Jaito Sarja B.O",
    "officeType": "B.O",
    "Deliverystatus": "Delivery",
    "divisionname": "Gurdaspur",
    "regionname": "Chandigarh Region",
    "circlename": "Punjab",
    "Taluk": "Batala",
    "Districtname": "Gurdaspur",
    "statename": "PUNJAB"
  },
  {
    "pincode": "143506",
    "officename": "Massania B.O",
    "officeType": "B.O",
    "Deliverystatus": "Delivery",
    "divisionname": "Gurdaspur",
    "regionname": "Chandigarh Region",
    "circlename": "Punjab",
    "Taluk": "Batala",
    "Districtname": "Gurdaspur",
    "statename": "PUNJAB"
  },
  {
    "pincode": "143506",
    "officename": "Panjgarian B.O",
    "officeType": "B.O",
    "Deliverystatus": "Delivery",
    "divisionname": "Gurdaspur",
    "regionname": "Chandigarh Region",
    "circlename": "Punjab",
    "Taluk": "Batala",
    "Districtname": "Gurdaspur",
    "statename": "PUNJAB"
  },
  {
    "pincode": "143506",
    "officename": "Ranger Nangal B.O",
    "officeType": "B.O",
    "Deliverystatus": "Delivery",
    "divisionname": "Gurdaspur",
    "regionname": "Chandigarh Region",
    "circlename": "Punjab",
    "Taluk": "",
    "Districtname": "Gurdaspur",
    "statename": "PUNJAB"
  },
  {
    "pincode": "143506",
    "officename": "Udhanwal B.O",
    "officeType": "B.O",
    "Deliverystatus": "Delivery",
    "divisionname": "Gurdaspur",
    "regionname": "Chandigarh Region",
    "circlename": "Punjab",
    "Taluk": "Batala",
    "Districtname": "Gurdaspur",
    "statename": "PUNJAB"
  },
  {
    "pincode": "143506",
    "officename": "Wadala Granthia B.O",
    "officeType": "B.O",
    "Deliverystatus": "Delivery",
    "divisionname": "Gurdaspur",
    "regionname": "Chandigarh Region",
    "circlename": "Punjab",
    "Taluk": "",
    "Districtname": "Gurdaspur",
    "statename": "PUNJAB"
  }
]
