[
  {
    "pincode": "143606",
    "officename": "Balbawa B.O",
    "officeType": "B.O",
    "Deliverystatus": "Delivery",
    "divisionname": "Amritsar",
    "regionname": "Chandigarh Region",
    "circlename": "Punjab",
    "Taluk": "",
    "Districtname": "Amritsar",
    "statename": "PUNJAB"
  },
  {
    "pincode": "143606",
    "officename": "Chak Sikandar B.O",
    "officeType": "B.O",
    "Deliverystatus": "Delivery",
    "divisionname": "Amritsar",
    "regionname": "Chandigarh Region",
    "circlename": "Punjab",
    "Taluk": "Ajnala",
    "Districtname": "Amritsar",
    "statename": "PUNJAB"
  },
  {
    "pincode": "143606",
    "officename": "Chetanpura S.O",
    "officeType": "S.O",
    "Deliverystatus": "Delivery",
    "divisionname": "Amritsar",
    "regionname": "Chandigarh Region",
    "circlename": "Punjab",
    "Taluk": "Amritsar",
    "Districtname": "Amritsar",
    "statename": "PUNJAB"
  },
  {
    "pincode": "143606",
    "officename": "Jhander B.O",
    "officeType": "B.O",
    "Deliverystatus": "Delivery",
    "divisionname": "Amritsar",
    "regionname": "Chandigarh Region",
    "circlename": "Punjab",
    "Taluk": "Amritsar",
    "Districtname": "Amritsar",
    "statename": "PUNJAB"
  },
  {
    "pincode": "143606",
    "officename": "Khatrian Kalan B.O",
    "officeType": "B.O",
    "Deliverystatus": "Delivery",
    "divisionname": "Amritsar",
    "regionname": "Chandigarh Region",
    "circlename": "Punjab",
    "Taluk": "Amritsar",
    "Districtname": "Amritsar",
    "statename": "PUNJAB"
  },
  {
    "pincode": "143606",
    "officename": "Kotla Gujjran B.O",
    "officeType": "B.O",
    "Deliverystatus": "Delivery",
    "divisionname": "Amritsar",
    "regionname": "Chandigarh Region",
    "circlename": "Punjab",
    "Taluk": "",
    "Districtname": "Amritsar",
    "statename": "PUNJAB"
  },
  {
    "pincode": "143606",
    "officename": "Madhu Chhanga B.O",
    "officeType": "B.O",
    "Deliverystatus": "Delivery",
    "divisionname": "Amritsar",
    "regionname": "Chandigarh Region",
    "circlename": "Punjab",
    "Taluk": "Amritsar",
    "Districtname": "Amritsar",
    "statename": "PUNJAB"
  },
  {
    "pincode": "143606",
    "officename": "Mohan Bhandari B.O",
    "officeType": "B.O",
    "Deliverystatus": "Delivery",
    "divisionname": "Amritsar",
    "regionname": "Chandigarh Region",
    "circlename": "Punjab",
    "Taluk": "Chetanpura",
    "Districtname": "Amritsar",
    "statename": "PUNJAB"
  },
  {
    "pincode": "143606",
    "officename": "Sangatpura B.O",
    "officeType": "B.O",
    "Deliverystatus": "Delivery",
    "divisionname": "Amritsar",
    "regionname": "Chandigarh Region",
    "circlename": "Punjab",
    "Taluk": "Chetanpura",
    "Districtname": "Amritsar",
    "statename": "PUNJAB"
  },
  {
    "pincode": "143606",
    "officename": "Vachhoa B.O",
    "officeType": "B.O",
    "Deliverystatus": "Delivery",
    "divisionname": "Amritsar",
    "regionname": "Chandigarh Region",
    "circlename": "Punjab",
    "Taluk": "Amritsar",
    "Districtname": "Amritsar",
    "statename": "PUNJAB"
  }
]
