[
  {
    "pincode": "143601",
    "officename": "Bal Khurd B.O",
    "officeType": "B.O",
    "Deliverystatus": "Delivery",
    "divisionname": "Amritsar",
    "regionname": "Chandigarh Region",
    "circlename": "Punjab",
    "Taluk": "",
    "Districtname": "Amritsar",
    "statename": "PUNJAB"
  },
  {
    "pincode": "143601",
    "officename": "Balkalan B.O",
    "officeType": "B.O",
    "Deliverystatus": "Delivery",
    "divisionname": "Amritsar",
    "regionname": "Chandigarh Region",
    "circlename": "Punjab",
    "Taluk": "Amritsar- II",
    "Districtname": "Amritsar",
    "statename": "PUNJAB"
  },
  {
    "pincode": "143601",
    "officename": "Begowal B.O",
    "officeType": "B.O",
    "Deliverystatus": "Delivery",
    "divisionname": "Amritsar",
    "regionname": "Chandigarh Region",
    "circlename": "Punjab",
    "Taluk": "",
    "Districtname": "Amritsar",
    "statename": "PUNJAB"
  },
  {
    "pincode": "143601",
    "officename": "Bhangali B.O",
    "officeType": "B.O",
    "Deliverystatus": "Delivery",
    "divisionname": "Amritsar",
    "regionname": "Chandigarh Region",
    "circlename": "Punjab",
    "Taluk": "",
    "Districtname": "Amritsar",
    "statename": "PUNJAB"
  },
  {
    "pincode": "143601",
    "officename": "Budha Theh B.O",
    "officeType": "B.O",
    "Deliverystatus": "Delivery",
    "divisionname": "Amritsar",
    "regionname": "Chandigarh Region",
    "circlename": "Punjab",
    "Taluk": "",
    "Districtname": "Amritsar",
    "statename": "PUNJAB"
  },
  {
    "pincode": "143601",
    "officename": "Dadupura B.O",
    "officeType": "B.O",
    "Deliverystatus": "Delivery",
    "divisionname": "Amritsar",
    "regionname": "Chandigarh Region",
    "circlename": "Punjab",
    "Taluk": "",
    "Districtname": "Tarn Taran",
    "statename": "PUNJAB"
  },
  {
    "pincode": "143601",
    "officename": "Jagdev Bar B.O",
    "officeType": "B.O",
    "Deliverystatus": "Delivery",
    "divisionname": "Amritsar",
    "regionname": "Chandigarh Region",
    "circlename": "Punjab",
    "Taluk": "Amritsar -I",
    "Districtname": "Amritsar",
    "statename": "PUNJAB"
  },
  {
    "pincode": "143601",
    "officename": "Jalalpura B.O",
    "officeType": "B.O",
    "Deliverystatus": "Delivery",
    "divisionname": "Amritsar",
    "regionname": "Chandigarh Region",
    "circlename": "Punjab",
    "Taluk": "Amritsar -I",
    "Districtname": "Amritsar",
    "statename": "PUNJAB"
  },
  {
    "pincode": "143601",
    "officename": "Kotla Sultan Singh B.O",
    "officeType": "B.O",
    "Deliverystatus": "Delivery",
    "divisionname": "Amritsar",
    "regionname": "Chandigarh Region",
    "circlename": "Punjab",
    "Taluk": "Amritsar -I",
    "Districtname": "Amritsar",
    "statename": "PUNJAB"
  },
  {
    "pincode": "143601",
    "officename": "Majitha S.O",
    "officeType": "S.O",
    "Deliverystatus": "Delivery",
    "divisionname": "Amritsar",
    "regionname": "Chandigarh Region",
    "circlename": "Punjab",
    "Taluk": "Amritsar -I",
    "Districtname": "Amritsar",
    "statename": "PUNJAB"
  },
  {
    "pincode": "143601",
    "officename": "Marari Kalan B.O",
    "officeType": "B.O",
    "Deliverystatus": "Delivery",
    "divisionname": "Amritsar",
    "regionname": "Chandigarh Region",
    "circlename": "Punjab",
    "Taluk": "Amritsar -I",
    "Districtname": "Amritsar",
    "statename": "PUNJAB"
  },
  {
    "pincode": "143601",
    "officename": "Nag Kalan B.O",
    "officeType": "B.O",
    "Deliverystatus": "Delivery",
    "divisionname": "Amritsar",
    "regionname": "Chandigarh Region",
    "circlename": "Punjab",
    "Taluk": "Majitha",
    "Districtname": "Amritsar",
    "statename": "PUNJAB"
  },
  {
    "pincode": "143601",
    "officename": "Sham Nagar B.O",
    "officeType": "B.O",
    "Deliverystatus": "Delivery",
    "divisionname": "Amritsar",
    "regionname": "Chandigarh Region",
    "circlename": "Punjab",
    "Taluk": "",
    "Districtname": "Amritsar",
    "statename": "PUNJAB"
  },
  {
    "pincode": "143601",
    "officename": "Sohian Kalan B.O",
    "officeType": "B.O",
    "Deliverystatus": "Delivery",
    "divisionname": "Amritsar",
    "regionname": "Chandigarh Region",
    "circlename": "Punjab",
    "Taluk": "Amritsar -I",
    "Districtname": "Amritsar",
    "statename": "PUNJAB"
  },
  {
    "pincode": "143601",
    "officename": "Tarpai B.O",
    "officeType": "B.O",
    "Deliverystatus": "Delivery",
    "divisionname": "Amritsar",
    "regionname": "Chandigarh Region",
    "circlename": "Punjab",
    "Taluk": "Amritsar -I",
    "Districtname": "Amritsar",
    "statename": "PUNJAB"
  },
  {
    "pincode": "143601",
    "officename": "Wadala Viram B.O",
    "officeType": "B.O",
    "Deliverystatus": "Delivery",
    "divisionname": "Amritsar",
    "regionname": "Chandigarh Region",
    "circlename": "Punjab",
    "Taluk": "Amritsar",
    "Districtname": "Amritsar",
    "statename": "PUNJAB"
  }
]
