[
  {
    "pincode": "143602",
    "officename": "Fatehgarh Churian S.O",
    "officeType": "S.O",
    "Deliverystatus": "Delivery",
    "divisionname": "Gurdaspur",
    "regionname": "Chandigarh Region",
    "circlename": "Punjab",
    "Taluk": "",
    "Districtname": "Gurdaspur",
    "statename": "PUNJAB"
  },
  {
    "pincode": "143602",
    "officename": "Hardorwal B.O",
    "officeType": "B.O",
    "Deliverystatus": "Delivery",
    "divisionname": "Gurdaspur",
    "regionname": "Chandigarh Region",
    "circlename": "Punjab",
    "Taluk": "Dera Baba Nanak",
    "Districtname": "Gurdaspur",
    "statename": "PUNJAB"
  },
  {
    "pincode": "143602",
    "officename": "Khaira B.O",
    "officeType": "B.O",
    "Deliverystatus": "Delivery",
    "divisionname": "Gurdaspur",
    "regionname": "Chandigarh Region",
    "circlename": "Punjab",
    "Taluk": "Batala",
    "Districtname": "Gurdaspur",
    "statename": "PUNJAB"
  },
  {
    "pincode": "143602",
    "officename": "Man B.O",
    "officeType": "B.O",
    "Deliverystatus": "Delivery",
    "divisionname": "Gurdaspur",
    "regionname": "Chandigarh Region",
    "circlename": "Punjab",
    "Taluk": "Batala",
    "Districtname": "Gurdaspur",
    "statename": "PUNJAB"
  },
  {
    "pincode": "143602",
    "officename": "Nasarke B.O",
    "officeType": "B.O",
    "Deliverystatus": "Delivery",
    "divisionname": "Gurdaspur",
    "regionname": "Chandigarh Region",
    "circlename": "Punjab",
    "Taluk": "Batala",
    "Districtname": "Gurdaspur",
    "statename": "PUNJAB"
  },
  {
    "pincode": "143602",
    "officename": "Paracha B.O",
    "officeType": "B.O",
    "Deliverystatus": "Delivery",
    "divisionname": "Gurdaspur",
    "regionname": "Chandigarh Region",
    "circlename": "Punjab",
    "Taluk": "Dera Baba Nanak",
    "Districtname": "Gurdaspur",
    "statename": "PUNJAB"
  },
  {
    "pincode": "143602",
    "officename": "Parowal B.O",
    "officeType": "B.O",
    "Deliverystatus": "Delivery",
    "divisionname": "Gurdaspur",
    "regionname": "Chandigarh Region",
    "circlename": "Punjab",
    "Taluk": "Batala",
    "Districtname": "Gurdaspur",
    "statename": "PUNJAB"
  },
  {
    "pincode": "143602",
    "officename": "Samrai B.O",
    "officeType": "B.O",
    "Deliverystatus": "Delivery",
    "divisionname": "Gurdaspur",
    "regionname": "Chandigarh Region",
    "circlename": "Punjab",
    "Taluk": "Batala",
    "Districtname": "Gurdaspur",
    "statename": "PUNJAB"
  },
  {
    "pincode": "143602",
    "officename": "Sarchur B.O",
    "officeType": "B.O",
    "Deliverystatus": "Delivery",
    "divisionname": "Gurdaspur",
    "regionname": "Chandigarh Region",
    "circlename": "Punjab",
    "Taluk": "Batala",
    "Districtname": "Gurdaspur",
    "statename": "PUNJAB"
  }
]
