[
  {
    "pincode": "144001",
    "officename": "Bazar Shahidan S.O",
    "officeType": "S.O",
    "Deliverystatus": "Non-Delivery",
    "divisionname": "Jalandhar",
    "regionname": "Chandigarh Region",
    "circlename": "Punjab",
    "Taluk": "Jalandhar - I",
    "Districtname": "Jalandhar",
    "statename": "PUNJAB"
  },
  {
    "pincode": "144001",
    "officename": "Fentonganj S.O",
    "officeType": "S.O",
    "Deliverystatus": "Non-Delivery",
    "divisionname": "Jalandhar",
    "regionname": "Chandigarh Region",
    "circlename": "Punjab",
    "Taluk": "Jalandhar - I",
    "Districtname": "Jalandhar",
    "statename": "PUNJAB"
  },
  {
    "pincode": "144001",
    "officename": "General Bus Stand S.O (Jalandhar)",
    "officeType": "S.O",
    "Deliverystatus": "Non-Delivery",
    "divisionname": "Jalandhar",
    "regionname": "Chandigarh Region",
    "circlename": "Punjab",
    "Taluk": "Jalandhar - I",
    "Districtname": "Jalandhar",
    "statename": "PUNJAB"
  },
  {
    "pincode": "144001",
    "officename": "Jalandhar City H.O",
    "officeType": "H.O",
    "Deliverystatus": "Delivery",
    "divisionname": "Jalandhar",
    "regionname": "Chandigarh Region",
    "circlename": "Punjab",
    "Taluk": "Jalandhar - I",
    "Districtname": "Jalandhar",
    "statename": "PUNJAB"
  },
  {
    "pincode": "144001",
    "officename": "Lajpat Nagar (Jalandhar) S.O",
    "officeType": "S.O",
    "Deliverystatus": "Non-Delivery",
    "divisionname": "Jalandhar",
    "regionname": "Chandigarh Region",
    "circlename": "Punjab",
    "Taluk": "Jalandhar - I",
    "Districtname": "Jalandhar",
    "statename": "PUNJAB"
  },
  {
    "pincode": "144001",
    "officename": "N R Colony S.O",
    "officeType": "S.O",
    "Deliverystatus": "Non-Delivery",
    "divisionname": "Jalandhar",
    "regionname": "Chandigarh Region",
    "circlename": "Punjab",
    "Taluk": "Jalandhar - I",
    "Districtname": "Jalandhar",
    "statename": "PUNJAB"
  },
  {
    "pincode": "144001",
    "officename": "Railway Road S.O (Jalandhar)",
    "officeType": "S.O",
    "Deliverystatus": "Non-Delivery",
    "divisionname": "Jalandhar",
    "regionname": "Chandigarh Region",
    "circlename": "Punjab",
    "Taluk": "Jalandhar - I",
    "Districtname": "Jalandhar",
    "statename": "PUNJAB"
  },
  {
    "pincode": "144001",
    "officename": "Rasta Mohalla S.O",
    "officeType": "S.O",
    "Deliverystatus": "Non-Delivery",
    "divisionname": "Jalandhar",
    "regionname": "Chandigarh Region",
    "circlename": "Punjab",
    "Taluk": "Jalandhar - I",
    "Districtname": "Jalandhar",
    "statename": "PUNJAB"
  },
  {
    "pincode": "144001",
    "officename": "S U S Nagar S.O",
    "officeType": "S.O",
    "Deliverystatus": "Non-Delivery",
    "divisionname": "Jalandhar",
    "regionname": "Chandigarh Region",
    "circlename": "Punjab",
    "Taluk": "Jalandhar - I",
    "Districtname": "Jalandhar",
    "statename": "PUNJAB"
  },
  {
    "pincode": "144001",
    "officename": "Sant Nagar S.O (Jalandhar)",
    "officeType": "S.O",
    "Deliverystatus": "Non-Delivery",
    "divisionname": "Jalandhar",
    "regionname": "Chandigarh Region",
    "circlename": "Punjab",
    "Taluk": "Jalandhar - I",
    "Districtname": "Jalandhar",
    "statename": "PUNJAB"
  },
  {
    "pincode": "144001",
    "officename": "Session Court S.O (Jalandhar)",
    "officeType": "S.O",
    "Deliverystatus": "Non-Delivery",
    "divisionname": "Jalandhar",
    "regionname": "Chandigarh Region",
    "circlename": "Punjab",
    "Taluk": "Jalandhar - I",
    "Districtname": "Jalandhar",
    "statename": "PUNJAB"
  },
  {
    "pincode": "144001",
    "officename": "Shakti Nagar S.O (Jalandhar)",
    "officeType": "S.O",
    "Deliverystatus": "Non-Delivery",
    "divisionname": "Jalandhar",
    "regionname": "Chandigarh Region",
    "circlename": "Punjab",
    "Taluk": "Jalandhar - I",
    "Districtname": "Jalandhar",
    "statename": "PUNJAB"
  }
]
