[
  {
    "pincode": "144026",
    "officename": "Kalyanpur B.O",
    "officeType": "B.O",
    "Deliverystatus": "Delivery",
    "divisionname": "Jalandhar",
    "regionname": "Chandigarh Region",
    "circlename": "Punjab",
    "Taluk": "Jalandhar -II",
    "Districtname": "Jalandhar",
    "statename": "PUNJAB"
  },
  {
    "pincode": "144026",
    "officename": "Khambra B.O",
    "officeType": "B.O",
    "Deliverystatus": "Delivery",
    "divisionname": "Jalandhar",
    "regionname": "Chandigarh Region",
    "circlename": "Punjab",
    "Taluk": "Jalandhar - I",
    "Districtname": "Jalandhar",
    "statename": "PUNJAB"
  },
  {
    "pincode": "144026",
    "officename": "Lambra S.O",
    "officeType": "S.O",
    "Deliverystatus": "Delivery",
    "divisionname": "Jalandhar",
    "regionname": "Chandigarh Region",
    "circlename": "Punjab",
    "Taluk": "Jalandhar",
    "Districtname": "Jalandhar",
    "statename": "PUNJAB"
  },
  {
    "pincode": "144026",
    "officename": "Lohar Partapura B.O",
    "officeType": "B.O",
    "Deliverystatus": "Delivery",
    "divisionname": "Jalandhar",
    "regionname": "Chandigarh Region",
    "circlename": "Punjab",
    "Taluk": "Jalandhar",
    "Districtname": "Jalandhar",
    "statename": "PUNJAB"
  },
  {
    "pincode": "144026",
    "officename": "Malko Tarar B.O",
    "officeType": "B.O",
    "Deliverystatus": "Delivery",
    "divisionname": "Jalandhar",
    "regionname": "Chandigarh Region",
    "circlename": "Punjab",
    "Taluk": "Jalandhar",
    "Districtname": "Jalandhar",
    "statename": "PUNJAB"
  },
  {
    "pincode": "144026",
    "officename": "Phoolpur Dhanal B.O",
    "officeType": "B.O",
    "Deliverystatus": "Delivery",
    "divisionname": "Jalandhar",
    "regionname": "Chandigarh Region",
    "circlename": "Punjab",
    "Taluk": "Jalandhar - I",
    "Districtname": "Jalandhar",
    "statename": "PUNJAB"
  },
  {
    "pincode": "144026",
    "officename": "Samipur B.O",
    "officeType": "B.O",
    "Deliverystatus": "Delivery",
    "divisionname": "Jalandhar",
    "regionname": "Chandigarh Region",
    "circlename": "Punjab",
    "Taluk": "Jalandhar",
    "Districtname": "Jalandhar",
    "statename": "PUNJAB"
  },
  {
    "pincode": "144026",
    "officename": "Tajpur B.O",
    "officeType": "B.O",
    "Deliverystatus": "Delivery",
    "divisionname": "Jalandhar",
    "regionname": "Chandigarh Region",
    "circlename": "Punjab",
    "Taluk": "Jalandhar",
    "Districtname": "Jalandhar",
    "statename": "PUNJAB"
  }
]
