[
  {
    "pincode": "144039",
    "officename": "Bhallowal B.O",
    "officeType": "B.O",
    "Deliverystatus": "Delivery",
    "divisionname": "Kapurthala",
    "regionname": "Chandigarh Region",
    "circlename": "Punjab",
    "Taluk": "Nakodar",
    "Districtname": "Jalandhar",
    "statename": "PUNJAB"
  },
  {
    "pincode": "144039",
    "officename": "Bhandal Himmat B.O",
    "officeType": "B.O",
    "Deliverystatus": "Delivery",
    "divisionname": "Kapurthala",
    "regionname": "Chandigarh Region",
    "circlename": "Punjab",
    "Taluk": "Nakodar",
    "Districtname": "Jalandhar",
    "statename": "PUNJAB"
  },
  {
    "pincode": "144039",
    "officename": "Chuheki B.O",
    "officeType": "B.O",
    "Deliverystatus": "Delivery",
    "divisionname": "Kapurthala",
    "regionname": "Chandigarh Region",
    "circlename": "Punjab",
    "Taluk": "Phillaur",
    "Districtname": "Jalandhar",
    "statename": "PUNJAB"
  },
  {
    "pincode": "144039",
    "officename": "Gumtala B.O",
    "officeType": "B.O",
    "Deliverystatus": "Delivery",
    "divisionname": "Kapurthala",
    "regionname": "Chandigarh Region",
    "circlename": "Punjab",
    "Taluk": "Nakodar",
    "Districtname": "Jalandhar",
    "statename": "PUNJAB"
  },
  {
    "pincode": "144039",
    "officename": "Gumtali B.O",
    "officeType": "B.O",
    "Deliverystatus": "Delivery",
    "divisionname": "Kapurthala",
    "regionname": "Chandigarh Region",
    "circlename": "Punjab",
    "Taluk": "Nakodar",
    "Districtname": "Jalandhar",
    "statename": "PUNJAB"
  },
  {
    "pincode": "144039",
    "officename": "Kandola Kalan B.O",
    "officeType": "B.O",
    "Deliverystatus": "Delivery",
    "divisionname": "Kapurthala",
    "regionname": "Chandigarh Region",
    "circlename": "Punjab",
    "Taluk": "Nakodar",
    "Districtname": "Jalandhar",
    "statename": "PUNJAB"
  },
  {
    "pincode": "144039",
    "officename": "Kot Badal Khan B.O",
    "officeType": "B.O",
    "Deliverystatus": "Delivery",
    "divisionname": "Kapurthala",
    "regionname": "Chandigarh Region",
    "circlename": "Punjab",
    "Taluk": "Phillaur",
    "Districtname": "Jalandhar",
    "statename": "PUNJAB"
  },
  {
    "pincode": "144039",
    "officename": "Nurmahal S.O",
    "officeType": "S.O",
    "Deliverystatus": "Delivery",
    "divisionname": "Kapurthala",
    "regionname": "Chandigarh Region",
    "circlename": "Punjab",
    "Taluk": "Nakodar",
    "Districtname": "Jalandhar",
    "statename": "PUNJAB"
  },
  {
    "pincode": "144039",
    "officename": "Ramewal B.O",
    "officeType": "B.O",
    "Deliverystatus": "Delivery",
    "divisionname": "Kapurthala",
    "regionname": "Chandigarh Region",
    "circlename": "Punjab",
    "Taluk": "Nakodar",
    "Districtname": "Jalandhar",
    "statename": "PUNJAB"
  },
  {
    "pincode": "144039",
    "officename": "Saidowal B.O",
    "officeType": "B.O",
    "Deliverystatus": "Delivery",
    "divisionname": "Kapurthala",
    "regionname": "Chandigarh Region",
    "circlename": "Punjab",
    "Taluk": "Phillaur",
    "Districtname": "Jalandhar",
    "statename": "PUNJAB"
  },
  {
    "pincode": "144039",
    "officename": "Shadipur B.O",
    "officeType": "B.O",
    "Deliverystatus": "Delivery",
    "divisionname": "Kapurthala",
    "regionname": "Chandigarh Region",
    "circlename": "Punjab",
    "Taluk": "Nakodar",
    "Districtname": "Jalandhar",
    "statename": "PUNJAB"
  },
  {
    "pincode": "144039",
    "officename": "Talwan B.O",
    "officeType": "B.O",
    "Deliverystatus": "Delivery",
    "divisionname": "Kapurthala",
    "regionname": "Chandigarh Region",
    "circlename": "Punjab",
    "Taluk": "Nakodar",
    "Districtname": "Jalandhar",
    "statename": "PUNJAB"
  },
  {
    "pincode": "144039",
    "officename": "Umarpur Kalan B.O",
    "officeType": "B.O",
    "Deliverystatus": "Delivery",
    "divisionname": "Kapurthala",
    "regionname": "Chandigarh Region",
    "circlename": "Punjab",
    "Taluk": "Phillaur",
    "Districtname": "Jalandhar",
    "statename": "PUNJAB"
  },
  {
    "pincode": "144039",
    "officename": "Uppal Bhupa B.O",
    "officeType": "B.O",
    "Deliverystatus": "Delivery",
    "divisionname": "Kapurthala",
    "regionname": "Chandigarh Region",
    "circlename": "Punjab",
    "Taluk": "Nakodar",
    "Districtname": "Jalandhar",
    "statename": "PUNJAB"
  },
  {
    "pincode": "144039",
    "officename": "Uppal Jagir B.O",
    "officeType": "B.O",
    "Deliverystatus": "Delivery",
    "divisionname": "Kapurthala",
    "regionname": "Chandigarh Region",
    "circlename": "Punjab",
    "Taluk": "Nakodar",
    "Districtname": "Jalandhar",
    "statename": "PUNJAB"
  }
]
