[
  {
    "pincode": "144202",
    "officename": "Alampur B.O",
    "officeType": "B.O",
    "Deliverystatus": "Delivery",
    "divisionname": "Hoshiarpur",
    "regionname": "Chandigarh Region",
    "circlename": "Punjab",
    "Taluk": "",
    "Districtname": "Hoshiarpur",
    "statename": "PUNJAB"
  },
  {
    "pincode": "144202",
    "officename": "Bains Awan B.O",
    "officeType": "B.O",
    "Deliverystatus": "Delivery",
    "divisionname": "Hoshiarpur",
    "regionname": "Chandigarh Region",
    "circlename": "Punjab",
    "Taluk": "Hoshiarpur",
    "Districtname": "Hoshiarpur",
    "statename": "PUNJAB"
  },
  {
    "pincode": "144202",
    "officename": "Jalalpur B.O",
    "officeType": "B.O",
    "Deliverystatus": "Delivery",
    "divisionname": "Hoshiarpur",
    "regionname": "Chandigarh Region",
    "circlename": "Punjab",
    "Taluk": "",
    "Districtname": "Hoshiarpur",
    "statename": "PUNJAB"
  },
  {
    "pincode": "144202",
    "officename": "Miani S.O",
    "officeType": "S.O",
    "Deliverystatus": "Delivery",
    "divisionname": "Hoshiarpur",
    "regionname": "Chandigarh Region",
    "circlename": "Punjab",
    "Taluk": "Hoshiarpur",
    "Districtname": "Hoshiarpur",
    "statename": "PUNJAB"
  },
  {
    "pincode": "144202",
    "officename": "Nathupur B.O",
    "officeType": "B.O",
    "Deliverystatus": "Delivery",
    "divisionname": "Hoshiarpur",
    "regionname": "Chandigarh Region",
    "circlename": "Punjab",
    "Taluk": "Hoshiarpur",
    "Districtname": "Hoshiarpur",
    "statename": "PUNJAB"
  },
  {
    "pincode": "144202",
    "officename": "Ranipind B.O",
    "officeType": "B.O",
    "Deliverystatus": "Delivery",
    "divisionname": "Hoshiarpur",
    "regionname": "Chandigarh Region",
    "circlename": "Punjab",
    "Taluk": "Hoshiarpur",
    "Districtname": "Hoshiarpur",
    "statename": "PUNJAB"
  },
  {
    "pincode": "144202",
    "officename": "Saleempur B.O",
    "officeType": "B.O",
    "Deliverystatus": "Delivery",
    "divisionname": "Hoshiarpur",
    "regionname": "Chandigarh Region",
    "circlename": "Punjab",
    "Taluk": "Hoshiarpur",
    "Districtname": "Hoshiarpur",
    "statename": "PUNJAB"
  },
  {
    "pincode": "144202",
    "officename": "Tahli B.O",
    "officeType": "B.O",
    "Deliverystatus": "Delivery",
    "divisionname": "Hoshiarpur",
    "regionname": "Chandigarh Region",
    "circlename": "Punjab",
    "Taluk": "Hoshiarpur",
    "Districtname": "Hoshiarpur",
    "statename": "PUNJAB"
  }
]
