[
  {
    "pincode": "144223",
    "officename": "Badla B.O",
    "officeType": "B.O",
    "Deliverystatus": "Delivery",
    "divisionname": "Hoshiarpur",
    "regionname": "Chandigarh Region",
    "circlename": "Punjab",
    "Taluk": "Hoshiarpur",
    "Districtname": "Hoshiarpur",
    "statename": "PUNJAB"
  },
  {
    "pincode": "144223",
    "officename": "Behkushala B.O",
    "officeType": "B.O",
    "Deliverystatus": "Delivery",
    "divisionname": "Hoshiarpur",
    "regionname": "Chandigarh Region",
    "circlename": "Punjab",
    "Taluk": "Hoshiarpur",
    "Districtname": "Hoshiarpur",
    "statename": "PUNJAB"
  },
  {
    "pincode": "144223",
    "officename": "Behlakhan B.O",
    "officeType": "B.O",
    "Deliverystatus": "Delivery",
    "divisionname": "Hoshiarpur",
    "regionname": "Chandigarh Region",
    "circlename": "Punjab",
    "Taluk": "Hoshiarpur",
    "Districtname": "Hoshiarpur",
    "statename": "PUNJAB"
  },
  {
    "pincode": "144223",
    "officename": "Dadial B.O",
    "officeType": "B.O",
    "Deliverystatus": "Delivery",
    "divisionname": "Hoshiarpur",
    "regionname": "Chandigarh Region",
    "circlename": "Punjab",
    "Taluk": "Hoshiarpur",
    "Districtname": "Hoshiarpur",
    "statename": "PUNJAB"
  },
  {
    "pincode": "144223",
    "officename": "Hardo Neknama B.O",
    "officeType": "B.O",
    "Deliverystatus": "Delivery",
    "divisionname": "Hoshiarpur",
    "regionname": "Chandigarh Region",
    "circlename": "Punjab",
    "Taluk": "Hoshiarpur",
    "Districtname": "Hoshiarpur",
    "statename": "PUNJAB"
  },
  {
    "pincode": "144223",
    "officename": "Kamahi Devi S.O",
    "officeType": "S.O",
    "Deliverystatus": "Delivery",
    "divisionname": "Hoshiarpur",
    "regionname": "Chandigarh Region",
    "circlename": "Punjab",
    "Taluk": "Hoshiarpur",
    "Districtname": "Hoshiarpur",
    "statename": "PUNJAB"
  },
  {
    "pincode": "144223",
    "officename": "Narangpur B.O",
    "officeType": "B.O",
    "Deliverystatus": "Delivery",
    "divisionname": "Hoshiarpur",
    "regionname": "Chandigarh Region",
    "circlename": "Punjab",
    "Taluk": "Hoshiarpur",
    "Districtname": "Hoshiarpur",
    "statename": "PUNJAB"
  },
  {
    "pincode": "144223",
    "officename": "Rampur Haler B.O",
    "officeType": "B.O",
    "Deliverystatus": "Delivery",
    "divisionname": "Hoshiarpur",
    "regionname": "Chandigarh Region",
    "circlename": "Punjab",
    "Taluk": "Hoshiarpur",
    "Districtname": "Hoshiarpur",
    "statename": "PUNJAB"
  }
]
