[
  {
    "pincode": "144306",
    "officename": "Bariowal B.O",
    "officeType": "B.O",
    "Deliverystatus": "Delivery",
    "divisionname": "Hoshiarpur",
    "regionname": "Chandigarh Region",
    "circlename": "Punjab",
    "Taluk": "Hoshiarpur",
    "Districtname": "Hoshiarpur",
    "statename": "PUNJAB"
  },
  {
    "pincode": "144306",
    "officename": "Behbalmanj B.O",
    "officeType": "B.O",
    "Deliverystatus": "Delivery",
    "divisionname": "Hoshiarpur",
    "regionname": "Chandigarh Region",
    "circlename": "Punjab",
    "Taluk": "Hoshiarpur",
    "Districtname": "Hoshiarpur",
    "statename": "PUNJAB"
  },
  {
    "pincode": "144306",
    "officename": "Bhangala S.O",
    "officeType": "S.O",
    "Deliverystatus": "Delivery",
    "divisionname": "Hoshiarpur",
    "regionname": "Chandigarh Region",
    "circlename": "Punjab",
    "Taluk": "",
    "Districtname": "Hoshiarpur",
    "statename": "PUNJAB"
  },
  {
    "pincode": "144306",
    "officename": "Channaur B.O",
    "officeType": "B.O",
    "Deliverystatus": "Delivery",
    "divisionname": "Hoshiarpur",
    "regionname": "Chandigarh Region",
    "circlename": "Punjab",
    "Taluk": "Mukerian",
    "Districtname": "Hoshiarpur",
    "statename": "PUNJAB"
  },
  {
    "pincode": "144306",
    "officename": "Dhola Khera B.O",
    "officeType": "B.O",
    "Deliverystatus": "Delivery",
    "divisionname": "Hoshiarpur",
    "regionname": "Chandigarh Region",
    "circlename": "Punjab",
    "Taluk": "Mukerian",
    "Districtname": "Hoshiarpur",
    "statename": "PUNJAB"
  },
  {
    "pincode": "144306",
    "officename": "Hardo Khund Pur B.O",
    "officeType": "B.O",
    "Deliverystatus": "Delivery",
    "divisionname": "Hoshiarpur",
    "regionname": "Chandigarh Region",
    "circlename": "Punjab",
    "Taluk": "Hoshiarpur",
    "Districtname": "Hoshiarpur",
    "statename": "PUNJAB"
  },
  {
    "pincode": "144306",
    "officename": "Harse Mansar B.O",
    "officeType": "B.O",
    "Deliverystatus": "Delivery",
    "divisionname": "Hoshiarpur",
    "regionname": "Chandigarh Region",
    "circlename": "Punjab",
    "Taluk": "Mukerian",
    "Districtname": "Hoshiarpur",
    "statename": "PUNJAB"
  },
  {
    "pincode": "144306",
    "officename": "Jandwal B.O",
    "officeType": "B.O",
    "Deliverystatus": "Non-Delivery",
    "divisionname": "Hoshiarpur",
    "regionname": "Chandigarh Region",
    "circlename": "Punjab",
    "Taluk": "Mukerian",
    "Districtname": "Hoshiarpur",
    "statename": "PUNJAB"
  },
  {
    "pincode": "144306",
    "officename": "Kotli Khas B.O",
    "officeType": "B.O",
    "Deliverystatus": "Delivery",
    "divisionname": "Hoshiarpur",
    "regionname": "Chandigarh Region",
    "circlename": "Punjab",
    "Taluk": "Hoshiarpur",
    "Districtname": "Hoshiarpur",
    "statename": "PUNJAB"
  },
  {
    "pincode": "144306",
    "officename": "Mehtabpur B.O",
    "officeType": "B.O",
    "Deliverystatus": "Delivery",
    "divisionname": "Hoshiarpur",
    "regionname": "Chandigarh Region",
    "circlename": "Punjab",
    "Taluk": "Hoshiarpur",
    "Districtname": "Hoshiarpur",
    "statename": "PUNJAB"
  }
]
