[
  {
    "pincode": "144410",
    "officename": "Haripur Khalsa B.O",
    "officeType": "B.O",
    "Deliverystatus": "Delivery",
    "divisionname": "Jalandhar",
    "regionname": "Chandigarh Region",
    "circlename": "Punjab",
    "Taluk": "Phillaur",
    "Districtname": "Jalandhar",
    "statename": "PUNJAB"
  },
  {
    "pincode": "144410",
    "officename": "Industrial Area Phillaur S.O",
    "officeType": "S.O",
    "Deliverystatus": "Non-Delivery",
    "divisionname": "Jalandhar",
    "regionname": "Chandigarh Region",
    "circlename": "Punjab",
    "Taluk": "Phillaur",
    "Districtname": "Jalandhar",
    "statename": "PUNJAB"
  },
  {
    "pincode": "144410",
    "officename": "Kariana B.O",
    "officeType": "B.O",
    "Deliverystatus": "Delivery",
    "divisionname": "Jalandhar",
    "regionname": "Chandigarh Region",
    "circlename": "Punjab",
    "Taluk": "Phillaur",
    "Districtname": "Jalandhar",
    "statename": "PUNJAB"
  },
  {
    "pincode": "144410",
    "officename": "Khaira B.O",
    "officeType": "B.O",
    "Deliverystatus": "Delivery",
    "divisionname": "Jalandhar",
    "regionname": "Chandigarh Region",
    "circlename": "Punjab",
    "Taluk": "Phillaur",
    "Districtname": "Jalandhar",
    "statename": "PUNJAB"
  },
  {
    "pincode": "144410",
    "officename": "Nagar B.O",
    "officeType": "B.O",
    "Deliverystatus": "Delivery",
    "divisionname": "Jalandhar",
    "regionname": "Chandigarh Region",
    "circlename": "Punjab",
    "Taluk": "Phillaur",
    "Districtname": "Jalandhar",
    "statename": "PUNJAB"
  },
  {
    "pincode": "144410",
    "officename": "P T S Phillaur S.O",
    "officeType": "S.O",
    "Deliverystatus": "Non-Delivery",
    "divisionname": "Jalandhar",
    "regionname": "Chandigarh Region",
    "circlename": "Punjab",
    "Taluk": "Phillaur",
    "Districtname": "Jalandhar",
    "statename": "PUNJAB"
  },
  {
    "pincode": "144410",
    "officename": "Phillaur S.O",
    "officeType": "S.O",
    "Deliverystatus": "Delivery",
    "divisionname": "Jalandhar",
    "regionname": "Chandigarh Region",
    "circlename": "Punjab",
    "Taluk": "Phillaur",
    "Districtname": "Jalandhar",
    "statename": "PUNJAB"
  },
  {
    "pincode": "144410",
    "officename": "Shahpur Bhattian B.O",
    "officeType": "B.O",
    "Deliverystatus": "Delivery",
    "divisionname": "Jalandhar",
    "regionname": "Chandigarh Region",
    "circlename": "Punjab",
    "Taluk": "Phillaur",
    "Districtname": "Jalandhar",
    "statename": "PUNJAB"
  },
  {
    "pincode": "144410",
    "officename": "Tehang B.O",
    "officeType": "B.O",
    "Deliverystatus": "Delivery",
    "divisionname": "Jalandhar",
    "regionname": "Chandigarh Region",
    "circlename": "Punjab",
    "Taluk": "Phillaur",
    "Districtname": "Jalandhar",
    "statename": "PUNJAB"
  }
]
