[
  {
    "pincode": "144409",
    "officename": "Birbansian B.O",
    "officeType": "B.O",
    "Deliverystatus": "Delivery",
    "divisionname": "Jalandhar",
    "regionname": "Chandigarh Region",
    "circlename": "Punjab",
    "Taluk": "Phillaur",
    "Districtname": "Jalandhar",
    "statename": "PUNJAB"
  },
  {
    "pincode": "144409",
    "officename": "Chachrari B.O",
    "officeType": "B.O",
    "Deliverystatus": "Delivery",
    "divisionname": "Jalandhar",
    "regionname": "Chandigarh Region",
    "circlename": "Punjab",
    "Taluk": "Phillaur",
    "Districtname": "Jalandhar",
    "statename": "PUNJAB"
  },
  {
    "pincode": "144409",
    "officename": "Dhesian Sangh B.O",
    "officeType": "B.O",
    "Deliverystatus": "Delivery",
    "divisionname": "Jalandhar",
    "regionname": "Chandigarh Region",
    "circlename": "Punjab",
    "Taluk": "Phillaur",
    "Districtname": "Jalandhar",
    "statename": "PUNJAB"
  },
  {
    "pincode": "144409",
    "officename": "Gohawar B.O",
    "officeType": "B.O",
    "Deliverystatus": "Delivery",
    "divisionname": "Jalandhar",
    "regionname": "Chandigarh Region",
    "circlename": "Punjab",
    "Taluk": "Phillaur",
    "Districtname": "Jalandhar",
    "statename": "PUNJAB"
  },
  {
    "pincode": "144409",
    "officename": "Goraya S.O",
    "officeType": "S.O",
    "Deliverystatus": "Delivery",
    "divisionname": "Jalandhar",
    "regionname": "Chandigarh Region",
    "circlename": "Punjab",
    "Taluk": "Phillaur",
    "Districtname": "Jalandhar",
    "statename": "PUNJAB"
  },
  {
    "pincode": "144409",
    "officename": "Mahal B.O",
    "officeType": "B.O",
    "Deliverystatus": "Delivery",
    "divisionname": "Jalandhar",
    "regionname": "Chandigarh Region",
    "circlename": "Punjab",
    "Taluk": "Phillaur",
    "Districtname": "Jalandhar",
    "statename": "PUNJAB"
  },
  {
    "pincode": "144409",
    "officename": "Mathada Kalan B.O",
    "officeType": "B.O",
    "Deliverystatus": "Delivery",
    "divisionname": "Jalandhar",
    "regionname": "Chandigarh Region",
    "circlename": "Punjab",
    "Taluk": "Phillaur",
    "Districtname": "Jalandhar",
    "statename": "PUNJAB"
  },
  {
    "pincode": "144409",
    "officename": "Mathada Khurd B.O",
    "officeType": "B.O",
    "Deliverystatus": "Delivery",
    "divisionname": "Jalandhar",
    "regionname": "Chandigarh Region",
    "circlename": "Punjab",
    "Taluk": "Phillaur",
    "Districtname": "Jalandhar",
    "statename": "PUNJAB"
  },
  {
    "pincode": "144409",
    "officename": "Paddi Jagir B.O",
    "officeType": "B.O",
    "Deliverystatus": "Delivery",
    "divisionname": "Jalandhar",
    "regionname": "Chandigarh Region",
    "circlename": "Punjab",
    "Taluk": "Phillaur",
    "Districtname": "Jalandhar",
    "statename": "PUNJAB"
  },
  {
    "pincode": "144409",
    "officename": "Rurka Khurd B.O",
    "officeType": "B.O",
    "Deliverystatus": "Delivery",
    "divisionname": "Jalandhar",
    "regionname": "Chandigarh Region",
    "circlename": "Punjab",
    "Taluk": "Phillaur",
    "Districtname": "Jalandhar",
    "statename": "PUNJAB"
  },
  {
    "pincode": "144409",
    "officename": "Sargundi B.O",
    "officeType": "B.O",
    "Deliverystatus": "Delivery",
    "divisionname": "Jalandhar",
    "regionname": "Chandigarh Region",
    "circlename": "Punjab",
    "Taluk": "Phillaur",
    "Districtname": "Jalandhar",
    "statename": "PUNJAB"
  }
]
