[
  {
    "pincode": "144402",
    "officename": "Athouli B.O",
    "officeType": "B.O",
    "Deliverystatus": "Delivery",
    "divisionname": "Kapurthala",
    "regionname": "Chandigarh Region",
    "circlename": "Punjab",
    "Taluk": "Phagwara",
    "Districtname": "Kapurthala",
    "statename": "PUNJAB"
  },
  {
    "pincode": "144402",
    "officename": "Bhanoki B.O",
    "officeType": "B.O",
    "Deliverystatus": "Delivery",
    "divisionname": "Kapurthala",
    "regionname": "Chandigarh Region",
    "circlename": "Punjab",
    "Taluk": "Phagwara",
    "Districtname": "Kapurthala",
    "statename": "PUNJAB"
  },
  {
    "pincode": "144402",
    "officename": "Bhullarai B.O",
    "officeType": "B.O",
    "Deliverystatus": "Delivery",
    "divisionname": "Kapurthala",
    "regionname": "Chandigarh Region",
    "circlename": "Punjab",
    "Taluk": "Phagwara",
    "Districtname": "Kapurthala",
    "statename": "PUNJAB"
  },
  {
    "pincode": "144402",
    "officename": "Chak Prema B.O",
    "officeType": "B.O",
    "Deliverystatus": "Delivery",
    "divisionname": "Kapurthala",
    "regionname": "Chandigarh Region",
    "circlename": "Punjab",
    "Taluk": "Phagwara",
    "Districtname": "Kapurthala",
    "statename": "PUNJAB"
  },
  {
    "pincode": "144402",
    "officename": "Lakhpur B.O",
    "officeType": "B.O",
    "Deliverystatus": "Delivery",
    "divisionname": "Kapurthala",
    "regionname": "Chandigarh Region",
    "circlename": "Punjab",
    "Taluk": "Phagwara",
    "Districtname": "Kapurthala",
    "statename": "PUNJAB"
  },
  {
    "pincode": "144402",
    "officename": "Manak B.O",
    "officeType": "B.O",
    "Deliverystatus": "Delivery",
    "divisionname": "Kapurthala",
    "regionname": "Chandigarh Region",
    "circlename": "Punjab",
    "Taluk": "Phagwara",
    "Districtname": "Jalandhar",
    "statename": "PUNJAB"
  },
  {
    "pincode": "144402",
    "officename": "Mehtan B.O",
    "officeType": "B.O",
    "Deliverystatus": "Delivery",
    "divisionname": "Kapurthala",
    "regionname": "Chandigarh Region",
    "circlename": "Punjab",
    "Taluk": "Phagwara",
    "Districtname": "Kapurthala",
    "statename": "PUNJAB"
  },
  {
    "pincode": "144402",
    "officename": "Pandori B.O",
    "officeType": "B.O",
    "Deliverystatus": "Delivery",
    "divisionname": "Kapurthala",
    "regionname": "Chandigarh Region",
    "circlename": "Punjab",
    "Taluk": "Phagwara",
    "Districtname": "Kapurthala",
    "statename": "PUNJAB"
  },
  {
    "pincode": "144402",
    "officename": "Sangatpur B.O",
    "officeType": "B.O",
    "Deliverystatus": "Delivery",
    "divisionname": "Kapurthala",
    "regionname": "Chandigarh Region",
    "circlename": "Punjab",
    "Taluk": "Phagwara",
    "Districtname": "Kapurthala",
    "statename": "PUNJAB"
  },
  {
    "pincode": "144402",
    "officename": "Sarai Jattan B.O",
    "officeType": "B.O",
    "Deliverystatus": "Delivery",
    "divisionname": "Kapurthala",
    "regionname": "Chandigarh Region",
    "circlename": "Punjab",
    "Taluk": "Phagwara",
    "Districtname": "Kapurthala",
    "statename": "PUNJAB"
  },
  {
    "pincode": "144402",
    "officename": "Satnampura S.O",
    "officeType": "S.O",
    "Deliverystatus": "Delivery",
    "divisionname": "Kapurthala",
    "regionname": "Chandigarh Region",
    "circlename": "Punjab",
    "Taluk": "Phagwara",
    "Districtname": "Kapurthala",
    "statename": "PUNJAB"
  }
]
