[
  {
    "pincode": "144528",
    "officename": "Badesron B.O",
    "officeType": "B.O",
    "Deliverystatus": "Delivery",
    "divisionname": "Hoshiarpur",
    "regionname": "Chandigarh Region",
    "circlename": "Punjab",
    "Taluk": "Hoshiarpur",
    "Districtname": "Hoshiarpur",
    "statename": "PUNJAB"
  },
  {
    "pincode": "144528",
    "officename": "Birampur B.O",
    "officeType": "B.O",
    "Deliverystatus": "Delivery",
    "divisionname": "Hoshiarpur",
    "regionname": "Chandigarh Region",
    "circlename": "Punjab",
    "Taluk": "Hoshiarpur",
    "Districtname": "Hoshiarpur",
    "statename": "PUNJAB"
  },
  {
    "pincode": "144528",
    "officename": "Fateh Pur Khurd B.O",
    "officeType": "B.O",
    "Deliverystatus": "Delivery",
    "divisionname": "Hoshiarpur",
    "regionname": "Chandigarh Region",
    "circlename": "Punjab",
    "Taluk": "Hoshiar Pur",
    "Districtname": "Hoshiarpur",
    "statename": "PUNJAB"
  },
  {
    "pincode": "144528",
    "officename": "Kukkran B.O",
    "officeType": "B.O",
    "Deliverystatus": "Delivery",
    "divisionname": "Hoshiarpur",
    "regionname": "Chandigarh Region",
    "circlename": "Punjab",
    "Taluk": "Hoshiarpur",
    "Districtname": "Hoshiarpur",
    "statename": "PUNJAB"
  },
  {
    "pincode": "144528",
    "officename": "Moela Wahidpur B.O",
    "officeType": "B.O",
    "Deliverystatus": "Delivery",
    "divisionname": "Hoshiarpur",
    "regionname": "Chandigarh Region",
    "circlename": "Punjab",
    "Taluk": "",
    "Districtname": "Hoshiarpur",
    "statename": "PUNJAB"
  },
  {
    "pincode": "144528",
    "officename": "Padrana B.O",
    "officeType": "B.O",
    "Deliverystatus": "Delivery",
    "divisionname": "Hoshiarpur",
    "regionname": "Chandigarh Region",
    "circlename": "Punjab",
    "Taluk": "Hoshiarpur",
    "Districtname": "Hoshiarpur",
    "statename": "PUNJAB"
  },
  {
    "pincode": "144528",
    "officename": "Pakhowal B.O",
    "officeType": "B.O",
    "Deliverystatus": "Delivery",
    "divisionname": "Hoshiarpur",
    "regionname": "Chandigarh Region",
    "circlename": "Punjab",
    "Taluk": "Hoshiarpur",
    "Districtname": "Hoshiarpur",
    "statename": "PUNJAB"
  },
  {
    "pincode": "144528",
    "officename": "Rampur Bilron S.O",
    "officeType": "S.O",
    "Deliverystatus": "Delivery",
    "divisionname": "Hoshiarpur",
    "regionname": "Chandigarh Region",
    "circlename": "Punjab",
    "Taluk": "Hoshiarpur",
    "Districtname": "Hoshiarpur",
    "statename": "PUNJAB"
  },
  {
    "pincode": "144528",
    "officename": "Saleempur B.O",
    "officeType": "B.O",
    "Deliverystatus": "Delivery",
    "divisionname": "Hoshiarpur",
    "regionname": "Chandigarh Region",
    "circlename": "Punjab",
    "Taluk": "Hoshiarpur",
    "Districtname": "Hoshiarpur",
    "statename": "PUNJAB"
  },
  {
    "pincode": "144528",
    "officename": "Satnaur B.O",
    "officeType": "B.O",
    "Deliverystatus": "Delivery",
    "divisionname": "Hoshiarpur",
    "regionname": "Chandigarh Region",
    "circlename": "Punjab",
    "Taluk": "Hoshiarpur",
    "Districtname": "Hoshiarpur",
    "statename": "PUNJAB"
  }
]
