[
  {
    "pincode": "144516",
    "officename": "Barnala Kalan B.O",
    "officeType": "B.O",
    "Deliverystatus": "Delivery",
    "divisionname": "Jalandhar",
    "regionname": "Chandigarh Region",
    "circlename": "Punjab",
    "Taluk": "Nawanshahar",
    "Districtname": "Nawanshahr",
    "statename": "PUNJAB"
  },
  {
    "pincode": "144516",
    "officename": "Bhagaura B.O",
    "officeType": "B.O",
    "Deliverystatus": "Delivery",
    "divisionname": "Jalandhar",
    "regionname": "Chandigarh Region",
    "circlename": "Punjab",
    "Taluk": "Nawanshahar",
    "Districtname": "Nawanshahr",
    "statename": "PUNJAB"
  },
  {
    "pincode": "144516",
    "officename": "Bharmazara B.O",
    "officeType": "B.O",
    "Deliverystatus": "Delivery",
    "divisionname": "Jalandhar",
    "regionname": "Chandigarh Region",
    "circlename": "Punjab",
    "Taluk": "Nawanshahar",
    "Districtname": "Nawanshahr",
    "statename": "PUNJAB"
  },
  {
    "pincode": "144516",
    "officename": "Daulatpur B.O",
    "officeType": "B.O",
    "Deliverystatus": "Delivery",
    "divisionname": "Jalandhar",
    "regionname": "Chandigarh Region",
    "circlename": "Punjab",
    "Taluk": "Nawanshahar",
    "Districtname": "Nawanshahr",
    "statename": "PUNJAB"
  },
  {
    "pincode": "144516",
    "officename": "Karimpur B.O",
    "officeType": "B.O",
    "Deliverystatus": "Delivery",
    "divisionname": "Jalandhar",
    "regionname": "Chandigarh Region",
    "circlename": "Punjab",
    "Taluk": "Nawanshahar",
    "Districtname": "Nawanshahr",
    "statename": "PUNJAB"
  },
  {
    "pincode": "144516",
    "officename": "Kishanpura B.O",
    "officeType": "B.O",
    "Deliverystatus": "Delivery",
    "divisionname": "Jalandhar",
    "regionname": "Chandigarh Region",
    "circlename": "Punjab",
    "Taluk": "Nawanshahar",
    "Districtname": "Nawanshahr",
    "statename": "PUNJAB"
  },
  {
    "pincode": "144516",
    "officename": "Langroya S.O",
    "officeType": "S.O",
    "Deliverystatus": "Delivery",
    "divisionname": "Jalandhar",
    "regionname": "Chandigarh Region",
    "circlename": "Punjab",
    "Taluk": "Nawanshahar",
    "Districtname": "Nawanshahr",
    "statename": "PUNJAB"
  },
  {
    "pincode": "144516",
    "officename": "Sanawa B.O",
    "officeType": "B.O",
    "Deliverystatus": "Delivery",
    "divisionname": "Jalandhar",
    "regionname": "Chandigarh Region",
    "circlename": "Punjab",
    "Taluk": "Nawanshahar",
    "Districtname": "Nawanshahr",
    "statename": "PUNJAB"
  },
  {
    "pincode": "144516",
    "officename": "Sauna B.O",
    "officeType": "B.O",
    "Deliverystatus": "Delivery",
    "divisionname": "Jalandhar",
    "regionname": "Chandigarh Region",
    "circlename": "Punjab",
    "Taluk": "Nawanshahar",
    "Districtname": "Nawanshahr",
    "statename": "PUNJAB"
  }
]
