[
  {
    "pincode": "144526",
    "officename": "Bachhauri B.O",
    "officeType": "B.O",
    "Deliverystatus": "Delivery",
    "divisionname": "Hoshiarpur",
    "regionname": "Chandigarh Region",
    "circlename": "Punjab",
    "Taluk": "Balachaur",
    "Districtname": "Nawanshahr",
    "statename": "PUNJAB"
  },
  {
    "pincode": "144526",
    "officename": "Chinkoa B.O",
    "officeType": "B.O",
    "Deliverystatus": "Delivery",
    "divisionname": "Hoshiarpur",
    "regionname": "Chandigarh Region",
    "circlename": "Punjab",
    "Taluk": "Balachaur",
    "Districtname": "Nawanshahr",
    "statename": "PUNJAB"
  },
  {
    "pincode": "144526",
    "officename": "Garle Dhaha B.O",
    "officeType": "B.O",
    "Deliverystatus": "Non-Delivery",
    "divisionname": "Hoshiarpur",
    "regionname": "Chandigarh Region",
    "circlename": "Punjab",
    "Taluk": "Balachaur",
    "Districtname": "Nawanshahr",
    "statename": "PUNJAB"
  },
  {
    "pincode": "144526",
    "officename": "Gulpur B.O",
    "officeType": "B.O",
    "Deliverystatus": "Non-Delivery",
    "divisionname": "Hoshiarpur",
    "regionname": "Chandigarh Region",
    "circlename": "Punjab",
    "Taluk": "Balachaur",
    "Districtname": "Nawanshahr",
    "statename": "PUNJAB"
  },
  {
    "pincode": "144526",
    "officename": "Karawar B.O",
    "officeType": "B.O",
    "Deliverystatus": "Delivery",
    "divisionname": "Hoshiarpur",
    "regionname": "Chandigarh Region",
    "circlename": "Punjab",
    "Taluk": "Balachaur",
    "Districtname": "Nawanshahr",
    "statename": "PUNJAB"
  },
  {
    "pincode": "144526",
    "officename": "Kaulgarh B.O",
    "officeType": "B.O",
    "Deliverystatus": "Delivery",
    "divisionname": "Hoshiarpur",
    "regionname": "Chandigarh Region",
    "circlename": "Punjab",
    "Taluk": "Balachaur",
    "Districtname": "Nawanshahr",
    "statename": "PUNJAB"
  },
  {
    "pincode": "144526",
    "officename": "Mehandpur S.O",
    "officeType": "S.O",
    "Deliverystatus": "Delivery",
    "divisionname": "Hoshiarpur",
    "regionname": "Chandigarh Region",
    "circlename": "Punjab",
    "Taluk": "Balachaur",
    "Districtname": "Nawanshahr",
    "statename": "PUNJAB"
  },
  {
    "pincode": "144526",
    "officename": "Mohar B.O",
    "officeType": "B.O",
    "Deliverystatus": "Delivery",
    "divisionname": "Hoshiarpur",
    "regionname": "Chandigarh Region",
    "circlename": "Punjab",
    "Taluk": "Balachaur",
    "Districtname": "Nawanshahr",
    "statename": "PUNJAB"
  },
  {
    "pincode": "144526",
    "officename": "Mojowal Majara B.O",
    "officeType": "B.O",
    "Deliverystatus": "Delivery",
    "divisionname": "Hoshiarpur",
    "regionname": "Chandigarh Region",
    "circlename": "Punjab",
    "Taluk": "Balachaur",
    "Districtname": "Nawanshahr",
    "statename": "PUNJAB"
  },
  {
    "pincode": "144526",
    "officename": "Phirni Mazara B.O",
    "officeType": "B.O",
    "Deliverystatus": "Delivery",
    "divisionname": "Hoshiarpur",
    "regionname": "Chandigarh Region",
    "circlename": "Punjab",
    "Taluk": "Balachaur",
    "Districtname": "Nawanshahr",
    "statename": "PUNJAB"
  },
  {
    "pincode": "144526",
    "officename": "Rakkran Dhaha B.O",
    "officeType": "B.O",
    "Deliverystatus": "Delivery",
    "divisionname": "Hoshiarpur",
    "regionname": "Chandigarh Region",
    "circlename": "Punjab",
    "Taluk": "Balachaur",
    "Districtname": "Nawanshahr",
    "statename": "PUNJAB"
  },
  {
    "pincode": "144526",
    "officename": "Rurki Muglan B.O",
    "officeType": "B.O",
    "Deliverystatus": "Delivery",
    "divisionname": "Hoshiarpur",
    "regionname": "Chandigarh Region",
    "circlename": "Punjab",
    "Taluk": "Balachaur",
    "Districtname": "Nawanshahr",
    "statename": "PUNJAB"
  }
]
