[
  {
    "pincode": "144630",
    "officename": "Bopa Rai Kalan S.O (Jalandhar)",
    "officeType": "S.O",
    "Deliverystatus": "Delivery",
    "divisionname": "Kapurthala",
    "regionname": "Chandigarh Region",
    "circlename": "Punjab",
    "Taluk": "Nakodar",
    "Districtname": "Jalandhar",
    "statename": "PUNJAB"
  },
  {
    "pincode": "144630",
    "officename": "Gohir B.O",
    "officeType": "B.O",
    "Deliverystatus": "Delivery",
    "divisionname": "Kapurthala",
    "regionname": "Chandigarh Region",
    "circlename": "Punjab",
    "Taluk": "Nakodar",
    "Districtname": "Jalandhar",
    "statename": "PUNJAB"
  },
  {
    "pincode": "144630",
    "officename": "Herran B.O",
    "officeType": "B.O",
    "Deliverystatus": "Delivery",
    "divisionname": "Kapurthala",
    "regionname": "Chandigarh Region",
    "circlename": "Punjab",
    "Taluk": "Kapurthala",
    "Districtname": "Jalandhar",
    "statename": "PUNJAB"
  },
  {
    "pincode": "144630",
    "officename": "Kang Saboo B.O",
    "officeType": "B.O",
    "Deliverystatus": "Delivery",
    "divisionname": "Kapurthala",
    "regionname": "Chandigarh Region",
    "circlename": "Punjab",
    "Taluk": "Nakodar",
    "Districtname": "Jalandhar",
    "statename": "PUNJAB"
  },
  {
    "pincode": "144630",
    "officename": "Mundh B.O",
    "officeType": "B.O",
    "Deliverystatus": "Delivery",
    "divisionname": "Kapurthala",
    "regionname": "Chandigarh Region",
    "circlename": "Punjab",
    "Taluk": "Nakodar",
    "Districtname": "Jalandhar",
    "statename": "PUNJAB"
  },
  {
    "pincode": "144630",
    "officename": "Rasulpur Kalan B.O",
    "officeType": "B.O",
    "Deliverystatus": "Delivery",
    "divisionname": "Kapurthala",
    "regionname": "Chandigarh Region",
    "circlename": "Punjab",
    "Taluk": "",
    "Districtname": "Jalandhar",
    "statename": "PUNJAB"
  },
  {
    "pincode": "144630",
    "officename": "Sainiwal B.O",
    "officeType": "B.O",
    "Deliverystatus": "Delivery",
    "divisionname": "Kapurthala",
    "regionname": "Chandigarh Region",
    "circlename": "Punjab",
    "Taluk": "Nakodar",
    "Districtname": "Jalandhar",
    "statename": "PUNJAB"
  },
  {
    "pincode": "144630",
    "officename": "Talwandi Bhairon B.O",
    "officeType": "B.O",
    "Deliverystatus": "Delivery",
    "divisionname": "Kapurthala",
    "regionname": "Chandigarh Region",
    "circlename": "Punjab",
    "Taluk": "Nakodar",
    "Districtname": "Jalandhar",
    "statename": "PUNJAB"
  }
]
