[
  {
    "pincode": "144620",
    "officename": "Bhanolanga B.O",
    "officeType": "B.O",
    "Deliverystatus": "Delivery",
    "divisionname": "Kapurthala",
    "regionname": "Chandigarh Region",
    "circlename": "Punjab",
    "Taluk": "Kapurthala",
    "Districtname": "Kapurthala",
    "statename": "PUNJAB"
  },
  {
    "pincode": "144620",
    "officename": "Bhulana B.O",
    "officeType": "B.O",
    "Deliverystatus": "Delivery",
    "divisionname": "Kapurthala",
    "regionname": "Chandigarh Region",
    "circlename": "Punjab",
    "Taluk": "",
    "Districtname": "Kapurthala",
    "statename": "PUNJAB"
  },
  {
    "pincode": "144620",
    "officename": "Dadwindi B.O",
    "officeType": "B.O",
    "Deliverystatus": "Delivery",
    "divisionname": "Kapurthala",
    "regionname": "Chandigarh Region",
    "circlename": "Punjab",
    "Taluk": "Sultanpur Lodhi",
    "Districtname": "Kapurthala",
    "statename": "PUNJAB"
  },
  {
    "pincode": "144620",
    "officename": "Khaira Dona B.O",
    "officeType": "B.O",
    "Deliverystatus": "Delivery",
    "divisionname": "Kapurthala",
    "regionname": "Chandigarh Region",
    "circlename": "Punjab",
    "Taluk": "Kapurthala",
    "Districtname": "Kapurthala",
    "statename": "PUNJAB"
  },
  {
    "pincode": "144620",
    "officename": "Mahabalipur B.O",
    "officeType": "B.O",
    "Deliverystatus": "Delivery",
    "divisionname": "Kapurthala",
    "regionname": "Chandigarh Region",
    "circlename": "Punjab",
    "Taluk": "Sultanpur Lodhi",
    "Districtname": "Kapurthala",
    "statename": "PUNJAB"
  },
  {
    "pincode": "144620",
    "officename": "Merripur B.O",
    "officeType": "B.O",
    "Deliverystatus": "Delivery",
    "divisionname": "Kapurthala",
    "regionname": "Chandigarh Region",
    "circlename": "Punjab",
    "Taluk": "Kapurthala",
    "Districtname": "Kapurthala",
    "statename": "PUNJAB"
  },
  {
    "pincode": "144620",
    "officename": "Mothanwala B.O",
    "officeType": "B.O",
    "Deliverystatus": "Delivery",
    "divisionname": "Kapurthala",
    "regionname": "Chandigarh Region",
    "circlename": "Punjab",
    "Taluk": "Kapurthala",
    "Districtname": "Kapurthala",
    "statename": "PUNJAB"
  },
  {
    "pincode": "144620",
    "officename": "Saidowal B.O",
    "officeType": "B.O",
    "Deliverystatus": "Delivery",
    "divisionname": "Kapurthala",
    "regionname": "Chandigarh Region",
    "circlename": "Punjab",
    "Taluk": "",
    "Districtname": "Kapurthala",
    "statename": "PUNJAB"
  },
  {
    "pincode": "144620",
    "officename": "Sheikhupur S.O (Kapurthala)",
    "officeType": "S.O",
    "Deliverystatus": "Delivery",
    "divisionname": "Kapurthala",
    "regionname": "Chandigarh Region",
    "circlename": "Punjab",
    "Taluk": "Kapurthala",
    "Districtname": "Kapurthala",
    "statename": "PUNJAB"
  }
]
