[
  {
    "pincode": "144626",
    "officename": "Dalla B.O",
    "officeType": "B.O",
    "Deliverystatus": "Delivery",
    "divisionname": "Kapurthala",
    "regionname": "Chandigarh Region",
    "circlename": "Punjab",
    "Taluk": "Sultanpur",
    "Districtname": "Kapurthala",
    "statename": "PUNJAB"
  },
  {
    "pincode": "144626",
    "officename": "Gnqc Sultanpur S.O",
    "officeType": "S.O",
    "Deliverystatus": "Non-Delivery",
    "divisionname": "Kapurthala",
    "regionname": "Chandigarh Region",
    "circlename": "Punjab",
    "Taluk": "Sultanpur",
    "Districtname": "Kapurthala",
    "statename": "PUNJAB"
  },
  {
    "pincode": "144626",
    "officename": "Kabirpur B.O",
    "officeType": "B.O",
    "Deliverystatus": "Delivery",
    "divisionname": "Kapurthala",
    "regionname": "Chandigarh Region",
    "circlename": "Punjab",
    "Taluk": "Sultanpur Lodhi",
    "Districtname": "Kapurthala",
    "statename": "PUNJAB"
  },
  {
    "pincode": "144626",
    "officename": "Paramjitpur B.O",
    "officeType": "B.O",
    "Deliverystatus": "Delivery",
    "divisionname": "Kapurthala",
    "regionname": "Chandigarh Region",
    "circlename": "Punjab",
    "Taluk": "Sultanpur Lodhi",
    "Districtname": "Kapurthala",
    "statename": "PUNJAB"
  },
  {
    "pincode": "144626",
    "officename": "Rampur Jagir B.O",
    "officeType": "B.O",
    "Deliverystatus": "Delivery",
    "divisionname": "Kapurthala",
    "regionname": "Chandigarh Region",
    "circlename": "Punjab",
    "Taluk": "",
    "Districtname": "Kapurthala",
    "statename": "PUNJAB"
  },
  {
    "pincode": "144626",
    "officename": "Sarai Jattan B.O",
    "officeType": "B.O",
    "Deliverystatus": "Delivery",
    "divisionname": "Kapurthala",
    "regionname": "Chandigarh Region",
    "circlename": "Punjab",
    "Taluk": "Sultanpur Lodhi",
    "Districtname": "Kapurthala",
    "statename": "PUNJAB"
  },
  {
    "pincode": "144626",
    "officename": "Sherpur Dona B.O",
    "officeType": "B.O",
    "Deliverystatus": "Delivery",
    "divisionname": "Kapurthala",
    "regionname": "Chandigarh Region",
    "circlename": "Punjab",
    "Taluk": "Sultanpur Lodhi",
    "Districtname": "Kapurthala",
    "statename": "PUNJAB"
  },
  {
    "pincode": "144626",
    "officename": "Sultanpur Lodhi S.O",
    "officeType": "S.O",
    "Deliverystatus": "Delivery",
    "divisionname": "Kapurthala",
    "regionname": "Chandigarh Region",
    "circlename": "Punjab",
    "Taluk": "Sultanpur Lodhi",
    "Districtname": "Kapurthala",
    "statename": "PUNJAB"
  }
]
