[
  {
    "pincode": "144701",
    "officename": "Chak Chela B.O",
    "officeType": "B.O",
    "Deliverystatus": "Delivery",
    "divisionname": "Kapurthala",
    "regionname": "Chandigarh Region",
    "circlename": "Punjab",
    "Taluk": "Nakodar",
    "Districtname": "Jalandhar",
    "statename": "PUNJAB"
  },
  {
    "pincode": "144701",
    "officename": "Daulatpur Dhadde B.O",
    "officeType": "B.O",
    "Deliverystatus": "Delivery",
    "divisionname": "Kapurthala",
    "regionname": "Chandigarh Region",
    "circlename": "Punjab",
    "Taluk": "Shahkot",
    "Districtname": "Jalandhar",
    "statename": "PUNJAB"
  },
  {
    "pincode": "144701",
    "officename": "Gill Seowal B.O",
    "officeType": "B.O",
    "Deliverystatus": "Delivery",
    "divisionname": "Kapurthala",
    "regionname": "Chandigarh Region",
    "circlename": "Punjab",
    "Taluk": "Nakodar",
    "Districtname": "Jalandhar",
    "statename": "PUNJAB"
  },
  {
    "pincode": "144701",
    "officename": "Kangnah B.O",
    "officeType": "B.O",
    "Deliverystatus": "Delivery",
    "divisionname": "Kapurthala",
    "regionname": "Chandigarh Region",
    "circlename": "Punjab",
    "Taluk": "Kapurthala",
    "Districtname": "Jalandhar",
    "statename": "PUNJAB"
  },
  {
    "pincode": "144701",
    "officename": "Khanpur Dhadde B.O",
    "officeType": "B.O",
    "Deliverystatus": "Delivery",
    "divisionname": "Kapurthala",
    "regionname": "Chandigarh Region",
    "circlename": "Punjab",
    "Taluk": "Nakodar",
    "Districtname": "Jalandhar",
    "statename": "PUNJAB"
  },
  {
    "pincode": "144701",
    "officename": "Malsian S.O",
    "officeType": "S.O",
    "Deliverystatus": "Delivery",
    "divisionname": "Kapurthala",
    "regionname": "Chandigarh Region",
    "circlename": "Punjab",
    "Taluk": "Nakoder",
    "Districtname": "Jalandhar",
    "statename": "PUNJAB"
  },
  {
    "pincode": "144701",
    "officename": "Malupur B.O",
    "officeType": "B.O",
    "Deliverystatus": "Delivery",
    "divisionname": "Kapurthala",
    "regionname": "Chandigarh Region",
    "circlename": "Punjab",
    "Taluk": "Nakodar",
    "Districtname": "Jalandhar",
    "statename": "PUNJAB"
  },
  {
    "pincode": "144701",
    "officename": "Muridwal B.O",
    "officeType": "B.O",
    "Deliverystatus": "Delivery",
    "divisionname": "Kapurthala",
    "regionname": "Chandigarh Region",
    "circlename": "Punjab",
    "Taluk": "Shahkot",
    "Districtname": "Jalandhar",
    "statename": "PUNJAB"
  },
  {
    "pincode": "144701",
    "officename": "Nihaluwal B.O",
    "officeType": "B.O",
    "Deliverystatus": "Delivery",
    "divisionname": "Kapurthala",
    "regionname": "Chandigarh Region",
    "circlename": "Punjab",
    "Taluk": "Kapurthala",
    "Districtname": "Jalandhar",
    "statename": "PUNJAB"
  },
  {
    "pincode": "144701",
    "officename": "Rupewali B.O",
    "officeType": "B.O",
    "Deliverystatus": "Delivery",
    "divisionname": "Kapurthala",
    "regionname": "Chandigarh Region",
    "circlename": "Punjab",
    "Taluk": "Nakodar",
    "Districtname": "Jalandhar",
    "statename": "PUNJAB"
  }
]
