[
  {
    "pincode": "144702",
    "officename": "Bahamanian B.O",
    "officeType": "B.O",
    "Deliverystatus": "Delivery",
    "divisionname": "Kapurthala",
    "regionname": "Chandigarh Region",
    "circlename": "Punjab",
    "Taluk": "Shahkot",
    "Districtname": "Jalandhar",
    "statename": "PUNJAB"
  },
  {
    "pincode": "144702",
    "officename": "Bajwa Kalan B.O",
    "officeType": "B.O",
    "Deliverystatus": "Delivery",
    "divisionname": "Kapurthala",
    "regionname": "Chandigarh Region",
    "circlename": "Punjab",
    "Taluk": "Shahkot",
    "Districtname": "Jalandhar",
    "statename": "PUNJAB"
  },
  {
    "pincode": "144702",
    "officename": "Killi B.O",
    "officeType": "B.O",
    "Deliverystatus": "Delivery",
    "divisionname": "Kapurthala",
    "regionname": "Chandigarh Region",
    "circlename": "Punjab",
    "Taluk": "Kapurthala",
    "Districtname": "Jalandhar",
    "statename": "PUNJAB"
  },
  {
    "pincode": "144702",
    "officename": "Kotli Gujjran B.O",
    "officeType": "B.O",
    "Deliverystatus": "Delivery",
    "divisionname": "Kapurthala",
    "regionname": "Chandigarh Region",
    "circlename": "Punjab",
    "Taluk": "Shahkot",
    "Districtname": "Jalandhar",
    "statename": "PUNJAB"
  },
  {
    "pincode": "144702",
    "officename": "Lassori B.O",
    "officeType": "B.O",
    "Deliverystatus": "Delivery",
    "divisionname": "Kapurthala",
    "regionname": "Chandigarh Region",
    "circlename": "Punjab",
    "Taluk": "Kapurthala",
    "Districtname": "Jalandhar",
    "statename": "PUNJAB"
  },
  {
    "pincode": "144702",
    "officename": "Mianwal Arrayan B.O",
    "officeType": "B.O",
    "Deliverystatus": "Delivery",
    "divisionname": "Kapurthala",
    "regionname": "Chandigarh Region",
    "circlename": "Punjab",
    "Taluk": "Shahkot",
    "Districtname": "Jalandhar",
    "statename": "PUNJAB"
  },
  {
    "pincode": "144702",
    "officename": "Mianwal B.O",
    "officeType": "B.O",
    "Deliverystatus": "Delivery",
    "divisionname": "Kapurthala",
    "regionname": "Chandigarh Region",
    "circlename": "Punjab",
    "Taluk": "Sultanpur Lodhi",
    "Districtname": "Kapurthala",
    "statename": "PUNJAB"
  },
  {
    "pincode": "144702",
    "officename": "Mullewal Khera B.O",
    "officeType": "B.O",
    "Deliverystatus": "Delivery",
    "divisionname": "Kapurthala",
    "regionname": "Chandigarh Region",
    "circlename": "Punjab",
    "Taluk": "Shahkot",
    "Districtname": "Jalandhar",
    "statename": "PUNJAB"
  },
  {
    "pincode": "144702",
    "officename": "Poonian B.O",
    "officeType": "B.O",
    "Deliverystatus": "Delivery",
    "divisionname": "Kapurthala",
    "regionname": "Chandigarh Region",
    "circlename": "Punjab",
    "Taluk": "Shahkot",
    "Districtname": "Jalandhar",
    "statename": "PUNJAB"
  },
  {
    "pincode": "144702",
    "officename": "Shahkot S.O",
    "officeType": "S.O",
    "Deliverystatus": "Delivery",
    "divisionname": "Kapurthala",
    "regionname": "Chandigarh Region",
    "circlename": "Punjab",
    "Taluk": "Kapurthala",
    "Districtname": "Jalandhar",
    "statename": "PUNJAB"
  },
  {
    "pincode": "144702",
    "officename": "Sindher B.O",
    "officeType": "B.O",
    "Deliverystatus": "Delivery",
    "divisionname": "Kapurthala",
    "regionname": "Chandigarh Region",
    "circlename": "Punjab",
    "Taluk": "Kapurthala",
    "Districtname": "Jalandhar",
    "statename": "PUNJAB"
  },
  {
    "pincode": "144702",
    "officename": "Talwandi Buttian B.O",
    "officeType": "B.O",
    "Deliverystatus": "Delivery",
    "divisionname": "Kapurthala",
    "regionname": "Chandigarh Region",
    "circlename": "Punjab",
    "Taluk": "Kapurthala",
    "Districtname": "Jalandhar",
    "statename": "PUNJAB"
  }
]
