[
  {
    "pincode": "146104",
    "officename": "Bajrawar B.O",
    "officeType": "B.O",
    "Deliverystatus": "Delivery",
    "divisionname": "Hoshiarpur",
    "regionname": "Chandigarh Region",
    "circlename": "Punjab",
    "Taluk": "Hoshiarpur",
    "Districtname": "Hoshiarpur",
    "statename": "PUNJAB"
  },
  {
    "pincode": "146104",
    "officename": "Bhilowal B.O",
    "officeType": "B.O",
    "Deliverystatus": "Delivery",
    "divisionname": "Hoshiarpur",
    "regionname": "Chandigarh Region",
    "circlename": "Punjab",
    "Taluk": "Hoshiarpur",
    "Districtname": "Hoshiarpur",
    "statename": "PUNJAB"
  },
  {
    "pincode": "146104",
    "officename": "Bihala S.O",
    "officeType": "S.O",
    "Deliverystatus": "Delivery",
    "divisionname": "Hoshiarpur",
    "regionname": "Chandigarh Region",
    "circlename": "Punjab",
    "Taluk": "Hoshiarpur",
    "Districtname": "Hoshiarpur",
    "statename": "PUNJAB"
  },
  {
    "pincode": "146104",
    "officename": "Bohan B.O",
    "officeType": "B.O",
    "Deliverystatus": "Delivery",
    "divisionname": "Hoshiarpur",
    "regionname": "Chandigarh Region",
    "circlename": "Punjab",
    "Taluk": "Hoshiarpur",
    "Districtname": "Hoshiarpur",
    "statename": "PUNJAB"
  },
  {
    "pincode": "146104",
    "officename": "Jallowal Khanoor B.O",
    "officeType": "B.O",
    "Deliverystatus": "Delivery",
    "divisionname": "Hoshiarpur",
    "regionname": "Chandigarh Region",
    "circlename": "Punjab",
    "Taluk": "Hoshiarpur",
    "Districtname": "Hoshiarpur",
    "statename": "PUNJAB"
  },
  {
    "pincode": "146104",
    "officename": "Lehli Kalan B.O",
    "officeType": "B.O",
    "Deliverystatus": "Delivery",
    "divisionname": "Hoshiarpur",
    "regionname": "Chandigarh Region",
    "circlename": "Punjab",
    "Taluk": "",
    "Districtname": "Hoshiarpur",
    "statename": "PUNJAB"
  },
  {
    "pincode": "146104",
    "officename": "Patti B.O",
    "officeType": "B.O",
    "Deliverystatus": "Delivery",
    "divisionname": "Hoshiarpur",
    "regionname": "Chandigarh Region",
    "circlename": "Punjab",
    "Taluk": "Hoshiarpur",
    "Districtname": "Hoshiarpur",
    "statename": "PUNJAB"
  },
  {
    "pincode": "146104",
    "officename": "Sasoli B.O",
    "officeType": "B.O",
    "Deliverystatus": "Delivery",
    "divisionname": "Hoshiarpur",
    "regionname": "Chandigarh Region",
    "circlename": "Punjab",
    "Taluk": "Hoshiarpur",
    "Districtname": "Hoshiarpur",
    "statename": "PUNJAB"
  }
]
