[
  {
    "pincode": "147007",
    "officename": "Dakala B.O",
    "officeType": "B.O",
    "Deliverystatus": "Non-Delivery",
    "divisionname": "Patiala",
    "regionname": "Chandigarh HQ",
    "circlename": "Punjab",
    "Taluk": "Patiala",
    "Districtname": "Patiala",
    "statename": "PUNJAB"
  },
  {
    "pincode": "147007",
    "officename": "Jhandi B.O",
    "officeType": "B.O",
    "Deliverystatus": "Non-Delivery",
    "divisionname": "Patiala",
    "regionname": "Chandigarh HQ",
    "circlename": "Punjab",
    "Taluk": "Patiala",
    "Districtname": "Patiala",
    "statename": "PUNJAB"
  },
  {
    "pincode": "147007",
    "officename": "Nainkalan B.O",
    "officeType": "B.O",
    "Deliverystatus": "Non-Delivery",
    "divisionname": "Patiala",
    "regionname": "Chandigarh HQ",
    "circlename": "Punjab",
    "Taluk": "Patiala",
    "Districtname": "Patiala",
    "statename": "PUNJAB"
  },
  {
    "pincode": "147007",
    "officename": "New Lal Bagh Colony S.O",
    "officeType": "S.O",
    "Deliverystatus": "Delivery",
    "divisionname": "Patiala",
    "regionname": "Chandigarh HQ",
    "circlename": "Punjab",
    "Taluk": "Patiala",
    "Districtname": "Patiala",
    "statename": "PUNJAB"
  },
  {
    "pincode": "147007",
    "officename": "Passiana B.O",
    "officeType": "B.O",
    "Deliverystatus": "Non-Delivery",
    "divisionname": "Patiala",
    "regionname": "Chandigarh HQ",
    "circlename": "Punjab",
    "Taluk": "Patiala",
    "Districtname": "Patiala",
    "statename": "PUNJAB"
  },
  {
    "pincode": "147007",
    "officename": "Saphera B.O",
    "officeType": "B.O",
    "Deliverystatus": "Non-Delivery",
    "divisionname": "Patiala",
    "regionname": "Chandigarh HQ",
    "circlename": "Punjab",
    "Taluk": "Patiala",
    "Districtname": "Patiala",
    "statename": "PUNJAB"
  },
  {
    "pincode": "147007",
    "officename": "Sular B.O",
    "officeType": "B.O",
    "Deliverystatus": "Non-Delivery",
    "divisionname": "Patiala",
    "regionname": "Chandigarh HQ",
    "circlename": "Punjab",
    "Taluk": "Patiala",
    "Districtname": "Patiala",
    "statename": "PUNJAB"
  },
  {
    "pincode": "147007",
    "officename": "Wazidpur B.O",
    "officeType": "B.O",
    "Deliverystatus": "Delivery",
    "divisionname": "Patiala",
    "regionname": "Chandigarh HQ",
    "circlename": "Punjab",
    "Taluk": "Patiala",
    "Districtname": "Patiala",
    "statename": "PUNJAB"
  }
]
