[
  {
    "pincode": "147102",
    "officename": "Badshahpur B.O",
    "officeType": "B.O",
    "Deliverystatus": "Non-Delivery",
    "divisionname": "Patiala",
    "regionname": "Chandigarh HQ",
    "circlename": "Punjab",
    "Taluk": "Samana",
    "Districtname": "Patiala",
    "statename": "PUNJAB"
  },
  {
    "pincode": "147102",
    "officename": "Buzark B.O",
    "officeType": "B.O",
    "Deliverystatus": "Non-Delivery",
    "divisionname": "Patiala",
    "regionname": "Chandigarh HQ",
    "circlename": "Punjab",
    "Taluk": "Samana",
    "Districtname": "Patiala",
    "statename": "PUNJAB"
  },
  {
    "pincode": "147102",
    "officename": "Dedna B.O",
    "officeType": "B.O",
    "Deliverystatus": "Non-Delivery",
    "divisionname": "Patiala",
    "regionname": "Chandigarh HQ",
    "circlename": "Punjab",
    "Taluk": "Samana",
    "Districtname": "Patiala",
    "statename": "PUNJAB"
  },
  {
    "pincode": "147102",
    "officename": "Ghagga S.O",
    "officeType": "S.O",
    "Deliverystatus": "Delivery",
    "divisionname": "Patiala",
    "regionname": "Chandigarh HQ",
    "circlename": "Punjab",
    "Taluk": "",
    "Districtname": "Patiala",
    "statename": "PUNJAB"
  },
  {
    "pincode": "147102",
    "officename": "Harchandpura B.O",
    "officeType": "B.O",
    "Deliverystatus": "Non-Delivery",
    "divisionname": "Patiala",
    "regionname": "Chandigarh HQ",
    "circlename": "Punjab",
    "Taluk": "Samaana",
    "Districtname": "Patiala",
    "statename": "PUNJAB"
  },
  {
    "pincode": "147102",
    "officename": "Kakrala B.O",
    "officeType": "B.O",
    "Deliverystatus": "Delivery",
    "divisionname": "Patiala",
    "regionname": "Chandigarh HQ",
    "circlename": "Punjab",
    "Taluk": "Patiala",
    "Districtname": "Patiala",
    "statename": "PUNJAB"
  },
  {
    "pincode": "147102",
    "officename": "Kulbanoo B.O",
    "officeType": "B.O",
    "Deliverystatus": "Delivery",
    "divisionname": "Patiala",
    "regionname": "Chandigarh HQ",
    "circlename": "Punjab",
    "Taluk": "Samana",
    "Districtname": "Patiala",
    "statename": "PUNJAB"
  },
  {
    "pincode": "147102",
    "officename": "Sadharanpur B.O",
    "officeType": "B.O",
    "Deliverystatus": "Non-Delivery",
    "divisionname": "Patiala",
    "regionname": "Chandigarh HQ",
    "circlename": "Punjab",
    "Taluk": "Samana",
    "Districtname": "Patiala",
    "statename": "PUNJAB"
  }
]
