[
  {
    "pincode": "147201",
    "officename": "Ajnoda Kalan B.O",
    "officeType": "B.O",
    "Deliverystatus": "Delivery",
    "divisionname": "Patiala",
    "regionname": "Chandigarh HQ",
    "circlename": "Punjab",
    "Taluk": "Nabha",
    "Districtname": "Patiala",
    "statename": "PUNJAB"
  },
  {
    "pincode": "147201",
    "officename": "Anaj Mandi Nabha S.O",
    "officeType": "S.O",
    "Deliverystatus": "Non-Delivery",
    "divisionname": "Patiala",
    "regionname": "Chandigarh HQ",
    "circlename": "Punjab",
    "Taluk": "Nabha",
    "Districtname": "Patiala",
    "statename": "PUNJAB"
  },
  {
    "pincode": "147201",
    "officename": "Babarpur B.O",
    "officeType": "B.O",
    "Deliverystatus": "Delivery",
    "divisionname": "Patiala",
    "regionname": "Chandigarh HQ",
    "circlename": "Punjab",
    "Taluk": "Nabha",
    "Districtname": "Patiala",
    "statename": "PUNJAB"
  },
  {
    "pincode": "147201",
    "officename": "Barsat B.O",
    "officeType": "B.O",
    "Deliverystatus": "Delivery",
    "divisionname": "Patiala",
    "regionname": "Chandigarh HQ",
    "circlename": "Punjab",
    "Taluk": "Patiala",
    "Districtname": "Patiala",
    "statename": "PUNJAB"
  },
  {
    "pincode": "147201",
    "officename": "Binaheri B.O",
    "officeType": "B.O",
    "Deliverystatus": "Delivery",
    "divisionname": "Patiala",
    "regionname": "Chandigarh HQ",
    "circlename": "Punjab",
    "Taluk": "Nabha",
    "Districtname": "Patiala",
    "statename": "PUNJAB"
  },
  {
    "pincode": "147201",
    "officename": "Chintawala B.O",
    "officeType": "B.O",
    "Deliverystatus": "Delivery",
    "divisionname": "Patiala",
    "regionname": "Chandigarh HQ",
    "circlename": "Punjab",
    "Taluk": "Nabha",
    "Districtname": "Patiala",
    "statename": "PUNJAB"
  },
  {
    "pincode": "147201",
    "officename": "Dandrala Dhindsa B.O",
    "officeType": "B.O",
    "Deliverystatus": "Delivery",
    "divisionname": "Patiala",
    "regionname": "Chandigarh HQ",
    "circlename": "Punjab",
    "Taluk": "Nabha",
    "Districtname": "Patiala",
    "statename": "PUNJAB"
  },
  {
    "pincode": "147201",
    "officename": "Dhablan B.O",
    "officeType": "B.O",
    "Deliverystatus": "Delivery",
    "divisionname": "Patiala",
    "regionname": "Chandigarh HQ",
    "circlename": "Punjab",
    "Taluk": "Patiala",
    "Districtname": "Patiala",
    "statename": "PUNJAB"
  },
  {
    "pincode": "147201",
    "officename": "Dhingi B.O",
    "officeType": "B.O",
    "Deliverystatus": "Delivery",
    "divisionname": "Patiala",
    "regionname": "Chandigarh HQ",
    "circlename": "Punjab",
    "Taluk": "Nabha",
    "Districtname": "Patiala",
    "statename": "PUNJAB"
  },
  {
    "pincode": "147201",
    "officename": "Galwati B.O",
    "officeType": "B.O",
    "Deliverystatus": "Delivery",
    "divisionname": "Patiala",
    "regionname": "Chandigarh HQ",
    "circlename": "Punjab",
    "Taluk": "Nabha",
    "Districtname": "Patiala",
    "statename": "PUNJAB"
  },
  {
    "pincode": "147201",
    "officename": "Godaya B.O",
    "officeType": "B.O",
    "Deliverystatus": "Delivery",
    "divisionname": "Patiala",
    "regionname": "Chandigarh HQ",
    "circlename": "Punjab",
    "Taluk": "Nabha",
    "Districtname": "Patiala",
    "statename": "PUNJAB"
  },
  {
    "pincode": "147201",
    "officename": "Gtc Nabha B.O",
    "officeType": "B.O",
    "Deliverystatus": "Delivery",
    "divisionname": "Patiala",
    "regionname": "Chandigarh HQ",
    "circlename": "Punjab",
    "Taluk": "Nabha",
    "Districtname": "Patiala",
    "statename": "PUNJAB"
  },
  {
    "pincode": "147201",
    "officename": "Gunike B.O",
    "officeType": "B.O",
    "Deliverystatus": "Delivery",
    "divisionname": "Patiala",
    "regionname": "Chandigarh HQ",
    "circlename": "Punjab",
    "Taluk": "Nabha",
    "Districtname": "Patiala",
    "statename": "PUNJAB"
  },
  {
    "pincode": "147201",
    "officename": "Kakrala B.O",
    "officeType": "B.O",
    "Deliverystatus": "Delivery",
    "divisionname": "Patiala",
    "regionname": "Chandigarh HQ",
    "circlename": "Punjab",
    "Taluk": "Nabha",
    "Districtname": "Patiala",
    "statename": "PUNJAB"
  },
  {
    "pincode": "147201",
    "officename": "Kaleh Majra B.O",
    "officeType": "B.O",
    "Deliverystatus": "Delivery",
    "divisionname": "Patiala",
    "regionname": "Chandigarh HQ",
    "circlename": "Punjab",
    "Taluk": "Nabha",
    "Districtname": "Patiala",
    "statename": "PUNJAB"
  },
  {
    "pincode": "147201",
    "officename": "Lubana B.O",
    "officeType": "B.O",
    "Deliverystatus": "Delivery",
    "divisionname": "Patiala",
    "regionname": "Chandigarh HQ",
    "circlename": "Punjab",
    "Taluk": "Nabha",
    "Districtname": "Patiala",
    "statename": "PUNJAB"
  },
  {
    "pincode": "147201",
    "officename": "Mandaur B.O",
    "officeType": "B.O",
    "Deliverystatus": "Delivery",
    "divisionname": "Patiala",
    "regionname": "Chandigarh HQ",
    "circlename": "Punjab",
    "Taluk": "Nabha",
    "Districtname": "Patiala",
    "statename": "PUNJAB"
  },
  {
    "pincode": "147201",
    "officename": "Nabha S.O",
    "officeType": "S.O",
    "Deliverystatus": "Delivery",
    "divisionname": "Patiala",
    "regionname": "Chandigarh HQ",
    "circlename": "Punjab",
    "Taluk": "Dera Bassi",
    "Districtname": "Patiala",
    "statename": "PUNJAB"
  },
  {
    "pincode": "147201",
    "officename": "New Rakhra B.O",
    "officeType": "B.O",
    "Deliverystatus": "Delivery",
    "divisionname": "Patiala",
    "regionname": "Chandigarh HQ",
    "circlename": "Punjab",
    "Taluk": "Patiala",
    "Districtname": "Patiala",
    "statename": "PUNJAB"
  },
  {
    "pincode": "147201",
    "officename": "Rajgarh B.O",
    "officeType": "B.O",
    "Deliverystatus": "Delivery",
    "divisionname": "Patiala",
    "regionname": "Chandigarh HQ",
    "circlename": "Punjab",
    "Taluk": "Nabha",
    "Districtname": "Patiala",
    "statename": "PUNJAB"
  },
  {
    "pincode": "147201",
    "officename": "Ramgarh B.O",
    "officeType": "B.O",
    "Deliverystatus": "Delivery",
    "divisionname": "Patiala",
    "regionname": "Chandigarh HQ",
    "circlename": "Punjab",
    "Taluk": "Rajpura",
    "Districtname": "Patiala",
    "statename": "PUNJAB"
  },
  {
    "pincode": "147201",
    "officename": "Rohta B.O",
    "officeType": "B.O",
    "Deliverystatus": "Delivery",
    "divisionname": "Patiala",
    "regionname": "Chandigarh HQ",
    "circlename": "Punjab",
    "Taluk": "Nabha",
    "Districtname": "Patiala",
    "statename": "PUNJAB"
  },
  {
    "pincode": "147201",
    "officename": "Thuhi B.O",
    "officeType": "B.O",
    "Deliverystatus": "Delivery",
    "divisionname": "Patiala",
    "regionname": "Chandigarh HQ",
    "circlename": "Punjab",
    "Taluk": "Nabha",
    "Districtname": "Patiala",
    "statename": "PUNJAB"
  }
]
