[
  {
    "pincode": "148030",
    "officename": "Bhai Ke Pishore B.O",
    "officeType": "B.O",
    "Deliverystatus": "Delivery",
    "divisionname": "Sangrur",
    "regionname": "Chandigarh HQ",
    "circlename": "Punjab",
    "Taluk": "Moonak",
    "Districtname": "Sangrur",
    "statename": "PUNJAB"
  },
  {
    "pincode": "148030",
    "officename": "Chhajli S.O",
    "officeType": "S.O",
    "Deliverystatus": "Delivery",
    "divisionname": "Sangrur",
    "regionname": "Chandigarh HQ",
    "circlename": "Punjab",
    "Taluk": "Sunam",
    "Districtname": "Sangrur",
    "statename": "PUNJAB"
  },
  {
    "pincode": "148030",
    "officename": "Ganduan B.O",
    "officeType": "B.O",
    "Deliverystatus": "Delivery",
    "divisionname": "Sangrur",
    "regionname": "Chandigarh HQ",
    "circlename": "Punjab",
    "Taluk": "Sunam",
    "Districtname": "Sangrur",
    "statename": "PUNJAB"
  },
  {
    "pincode": "148030",
    "officename": "Gobindgarh Khokhar B.O",
    "officeType": "B.O",
    "Deliverystatus": "Delivery",
    "divisionname": "Sangrur",
    "regionname": "Chandigarh HQ",
    "circlename": "Punjab",
    "Taluk": "Chhajli",
    "Districtname": "Sangrur",
    "statename": "PUNJAB"
  },
  {
    "pincode": "148030",
    "officename": "Kauhrian B.O",
    "officeType": "B.O",
    "Deliverystatus": "Delivery",
    "divisionname": "Sangrur",
    "regionname": "Chandigarh HQ",
    "circlename": "Punjab",
    "Taluk": "Sunam",
    "Districtname": "Sangrur",
    "statename": "PUNJAB"
  },
  {
    "pincode": "148030",
    "officename": "Lad Banjara B.O",
    "officeType": "B.O",
    "Deliverystatus": "Delivery",
    "divisionname": "Sangrur",
    "regionname": "Chandigarh HQ",
    "circlename": "Punjab",
    "Taluk": "Sunam",
    "Districtname": "Sangrur",
    "statename": "PUNJAB"
  },
  {
    "pincode": "148030",
    "officename": "Mojowal B.O",
    "officeType": "B.O",
    "Deliverystatus": "Delivery",
    "divisionname": "Sangrur",
    "regionname": "Chandigarh HQ",
    "circlename": "Punjab",
    "Taluk": "Sunam",
    "Districtname": "Sangrur",
    "statename": "PUNJAB"
  },
  {
    "pincode": "148030",
    "officename": "Nangla B.O",
    "officeType": "B.O",
    "Deliverystatus": "Delivery",
    "divisionname": "Sangrur",
    "regionname": "Chandigarh HQ",
    "circlename": "Punjab",
    "Taluk": "Sunam",
    "Districtname": "Sangrur",
    "statename": "PUNJAB"
  },
  {
    "pincode": "148030",
    "officename": "Ugrahan B.O",
    "officeType": "B.O",
    "Deliverystatus": "Delivery",
    "divisionname": "Sangrur",
    "regionname": "Chandigarh HQ",
    "circlename": "Punjab",
    "Taluk": "Sunam",
    "Districtname": "Sangrur",
    "statename": "PUNJAB"
  }
]
