[
  {
    "pincode": "148023",
    "officename": "Bhoodan B.O",
    "officeType": "B.O",
    "Deliverystatus": "Delivery",
    "divisionname": "Sangrur",
    "regionname": "Chandigarh HQ",
    "circlename": "Punjab",
    "Taluk": "Malerkotla",
    "Districtname": "Sangrur",
    "statename": "PUNJAB"
  },
  {
    "pincode": "148023",
    "officename": "Bhurthala Mander B.O",
    "officeType": "B.O",
    "Deliverystatus": "Delivery",
    "divisionname": "Sangrur",
    "regionname": "Chandigarh HQ",
    "circlename": "Punjab",
    "Taluk": "Malerkotla",
    "Districtname": "Sangrur",
    "statename": "PUNJAB"
  },
  {
    "pincode": "148023",
    "officename": "CR Malerkotla S.O",
    "officeType": "S.O",
    "Deliverystatus": "Non-Delivery",
    "divisionname": "Sangrur",
    "regionname": "Chandigarh HQ",
    "circlename": "Punjab",
    "Taluk": "Malerkotla",
    "Districtname": "Sangrur",
    "statename": "PUNJAB"
  },
  {
    "pincode": "148023",
    "officename": "Gowara B.O",
    "officeType": "B.O",
    "Deliverystatus": "Delivery",
    "divisionname": "Sangrur",
    "regionname": "Chandigarh HQ",
    "circlename": "Punjab",
    "Taluk": "Malerkotla",
    "Districtname": "Sangrur",
    "statename": "PUNJAB"
  },
  {
    "pincode": "148023",
    "officename": "Haider Nagar B.O",
    "officeType": "B.O",
    "Deliverystatus": "Delivery",
    "divisionname": "Sangrur",
    "regionname": "Chandigarh HQ",
    "circlename": "Punjab",
    "Taluk": "Malerkotla",
    "Districtname": "Sangrur",
    "statename": "PUNJAB"
  },
  {
    "pincode": "148023",
    "officename": "Hathan B.O",
    "officeType": "B.O",
    "Deliverystatus": "Delivery",
    "divisionname": "Sangrur",
    "regionname": "Chandigarh HQ",
    "circlename": "Punjab",
    "Taluk": "Malerkotla",
    "Districtname": "Sangrur",
    "statename": "PUNJAB"
  },
  {
    "pincode": "148023",
    "officename": "Himtana B.O",
    "officeType": "B.O",
    "Deliverystatus": "Delivery",
    "divisionname": "Sangrur",
    "regionname": "Chandigarh HQ",
    "circlename": "Punjab",
    "Taluk": "Malerkotla",
    "Districtname": "Sangrur",
    "statename": "PUNJAB"
  },
  {
    "pincode": "148023",
    "officename": "Hussainpura B.O",
    "officeType": "B.O",
    "Deliverystatus": "Delivery",
    "divisionname": "Sangrur",
    "regionname": "Chandigarh HQ",
    "circlename": "Punjab",
    "Taluk": "Malerkotla",
    "Districtname": "Sangrur",
    "statename": "PUNJAB"
  },
  {
    "pincode": "148023",
    "officename": "IA Malerkotla S.O",
    "officeType": "S.O",
    "Deliverystatus": "Non-Delivery",
    "divisionname": "Sangrur",
    "regionname": "Chandigarh HQ",
    "circlename": "Punjab",
    "Taluk": "Malerkotla",
    "Districtname": "Sangrur",
    "statename": "PUNJAB"
  },
  {
    "pincode": "148023",
    "officename": "Khanpur B.O",
    "officeType": "B.O",
    "Deliverystatus": "Delivery",
    "divisionname": "Sangrur",
    "regionname": "Chandigarh HQ",
    "circlename": "Punjab",
    "Taluk": "Malerkotla",
    "Districtname": "Sangrur",
    "statename": "PUNJAB"
  },
  {
    "pincode": "148023",
    "officename": "Khanpur Mandian B.O",
    "officeType": "B.O",
    "Deliverystatus": "Delivery",
    "divisionname": "Sangrur",
    "regionname": "Chandigarh HQ",
    "circlename": "Punjab",
    "Taluk": "Malerkotla",
    "Districtname": "Sangrur",
    "statename": "PUNJAB"
  },
  {
    "pincode": "148023",
    "officename": "Lassoi B.O",
    "officeType": "B.O",
    "Deliverystatus": "Delivery",
    "divisionname": "Sangrur",
    "regionname": "Chandigarh HQ",
    "circlename": "Punjab",
    "Taluk": "Malerkotla",
    "Districtname": "Sangrur",
    "statename": "PUNJAB"
  },
  {
    "pincode": "148023",
    "officename": "Malerkotla S.O",
    "officeType": "S.O",
    "Deliverystatus": "Delivery",
    "divisionname": "Sangrur",
    "regionname": "Chandigarh HQ",
    "circlename": "Punjab",
    "Taluk": "Malerkotla",
    "Districtname": "Sangrur",
    "statename": "PUNJAB"
  },
  {
    "pincode": "148023",
    "officename": "Manvi B.O",
    "officeType": "B.O",
    "Deliverystatus": "Delivery",
    "divisionname": "Sangrur",
    "regionname": "Chandigarh HQ",
    "circlename": "Punjab",
    "Taluk": "Malerkotla",
    "Districtname": "Sangrur",
    "statename": "PUNJAB"
  },
  {
    "pincode": "148023",
    "officename": "Mubarkpur B.O",
    "officeType": "B.O",
    "Deliverystatus": "Delivery",
    "divisionname": "Sangrur",
    "regionname": "Chandigarh HQ",
    "circlename": "Punjab",
    "Taluk": "Malerkotla",
    "Districtname": "Sangrur",
    "statename": "PUNJAB"
  },
  {
    "pincode": "148023",
    "officename": "Roorkee Kalan B.O",
    "officeType": "B.O",
    "Deliverystatus": "Delivery",
    "divisionname": "Sangrur",
    "regionname": "Chandigarh HQ",
    "circlename": "Punjab",
    "Taluk": "Malerkotla",
    "Districtname": "Sangrur",
    "statename": "PUNJAB"
  },
  {
    "pincode": "148023",
    "officename": "Saraud B.O",
    "officeType": "B.O",
    "Deliverystatus": "Delivery",
    "divisionname": "Sangrur",
    "regionname": "Chandigarh HQ",
    "circlename": "Punjab",
    "Taluk": "Malerkotla",
    "Districtname": "Sangrur",
    "statename": "PUNJAB"
  }
]
