[
  {
    "pincode": "148104",
    "officename": "Chananwal B.O",
    "officeType": "B.O",
    "Deliverystatus": "Delivery",
    "divisionname": "Sangrur",
    "regionname": "Chandigarh HQ",
    "circlename": "Punjab",
    "Taluk": "Barnala",
    "Districtname": "Barnala",
    "statename": "PUNJAB"
  },
  {
    "pincode": "148104",
    "officename": "Chhapa B.O",
    "officeType": "B.O",
    "Deliverystatus": "Delivery",
    "divisionname": "Sangrur",
    "regionname": "Chandigarh HQ",
    "circlename": "Punjab",
    "Taluk": "Barnala",
    "Districtname": "Barnala",
    "statename": "PUNJAB"
  },
  {
    "pincode": "148104",
    "officename": "Chhiniwal Kalan B.O",
    "officeType": "B.O",
    "Deliverystatus": "Delivery",
    "divisionname": "Sangrur",
    "regionname": "Chandigarh HQ",
    "circlename": "Punjab",
    "Taluk": "Barnala",
    "Districtname": "Barnala",
    "statename": "PUNJAB"
  },
  {
    "pincode": "148104",
    "officename": "Gangohar B.O",
    "officeType": "B.O",
    "Deliverystatus": "Delivery",
    "divisionname": "Sangrur",
    "regionname": "Chandigarh HQ",
    "circlename": "Punjab",
    "Taluk": "Barnala",
    "Districtname": "Barnala",
    "statename": "PUNJAB"
  },
  {
    "pincode": "148104",
    "officename": "Kalalmajra B.O",
    "officeType": "B.O",
    "Deliverystatus": "Delivery",
    "divisionname": "Sangrur",
    "regionname": "Chandigarh HQ",
    "circlename": "Punjab",
    "Taluk": "Barnala",
    "Districtname": "Barnala",
    "statename": "PUNJAB"
  },
  {
    "pincode": "148104",
    "officename": "Kurar B.O",
    "officeType": "B.O",
    "Deliverystatus": "Delivery",
    "divisionname": "Sangrur",
    "regionname": "Chandigarh HQ",
    "circlename": "Punjab",
    "Taluk": "Barnala",
    "Districtname": "Barnala",
    "statename": "PUNJAB"
  },
  {
    "pincode": "148104",
    "officename": "Mehal Kalan S.O",
    "officeType": "S.O",
    "Deliverystatus": "Delivery",
    "divisionname": "Sangrur",
    "regionname": "Chandigarh HQ",
    "circlename": "Punjab",
    "Taluk": "Barnala",
    "Districtname": "Barnala",
    "statename": "PUNJAB"
  },
  {
    "pincode": "148104",
    "officename": "Nihaluwal B.O",
    "officeType": "B.O",
    "Deliverystatus": "Delivery",
    "divisionname": "Sangrur",
    "regionname": "Chandigarh HQ",
    "circlename": "Punjab",
    "Taluk": "Barnala",
    "Districtname": "Barnala",
    "statename": "PUNJAB"
  },
  {
    "pincode": "148104",
    "officename": "Qutba B.O",
    "officeType": "B.O",
    "Deliverystatus": "Delivery",
    "divisionname": "Sangrur",
    "regionname": "Chandigarh HQ",
    "circlename": "Punjab",
    "Taluk": "Barnala",
    "Districtname": "Barnala",
    "statename": "PUNJAB"
  }
]
