[
  {
    "pincode": "148100",
    "officename": "Bakhatgarh B.O",
    "officeType": "B.O",
    "Deliverystatus": "Delivery",
    "divisionname": "Sangrur",
    "regionname": "Chandigarh HQ",
    "circlename": "Punjab",
    "Taluk": "Barnala",
    "Districtname": "Barnala",
    "statename": "PUNJAB"
  },
  {
    "pincode": "148100",
    "officename": "Bhotna B.O",
    "officeType": "B.O",
    "Deliverystatus": "Delivery",
    "divisionname": "Sangrur",
    "regionname": "Chandigarh HQ",
    "circlename": "Punjab",
    "Taluk": "Barnala",
    "Districtname": "Barnala",
    "statename": "PUNJAB"
  },
  {
    "pincode": "148100",
    "officename": "Bihla B.O",
    "officeType": "B.O",
    "Deliverystatus": "Delivery",
    "divisionname": "Sangrur",
    "regionname": "Chandigarh HQ",
    "circlename": "Punjab",
    "Taluk": "Barnala",
    "Districtname": "Barnala",
    "statename": "PUNJAB"
  },
  {
    "pincode": "148100",
    "officename": "Chhiniwal Khurd B.O",
    "officeType": "B.O",
    "Deliverystatus": "Delivery",
    "divisionname": "Sangrur",
    "regionname": "Chandigarh HQ",
    "circlename": "Punjab",
    "Taluk": "Barnala",
    "Districtname": "Barnala",
    "statename": "PUNJAB"
  },
  {
    "pincode": "148100",
    "officename": "Dewana B.O",
    "officeType": "B.O",
    "Deliverystatus": "Delivery",
    "divisionname": "Sangrur",
    "regionname": "Chandigarh HQ",
    "circlename": "Punjab",
    "Taluk": "Barnala",
    "Districtname": "Barnala",
    "statename": "PUNJAB"
  },
  {
    "pincode": "148100",
    "officename": "Gehal B.O",
    "officeType": "B.O",
    "Deliverystatus": "Delivery",
    "divisionname": "Sangrur",
    "regionname": "Chandigarh HQ",
    "circlename": "Punjab",
    "Taluk": "Barnala",
    "Districtname": "Barnala",
    "statename": "PUNJAB"
  },
  {
    "pincode": "148100",
    "officename": "Moom B.O",
    "officeType": "B.O",
    "Deliverystatus": "Delivery",
    "divisionname": "Sangrur",
    "regionname": "Chandigarh HQ",
    "circlename": "Punjab",
    "Taluk": "Barnala",
    "Districtname": "Barnala",
    "statename": "PUNJAB"
  },
  {
    "pincode": "148100",
    "officename": "Ramgarh B.O",
    "officeType": "B.O",
    "Deliverystatus": "Delivery",
    "divisionname": "Sangrur",
    "regionname": "Chandigarh HQ",
    "circlename": "Punjab",
    "Taluk": "Barnala",
    "Districtname": "Barnala",
    "statename": "PUNJAB"
  },
  {
    "pincode": "148100",
    "officename": "Sher Singh Pura B.O",
    "officeType": "B.O",
    "Deliverystatus": "Delivery",
    "divisionname": "Sangrur",
    "regionname": "Chandigarh HQ",
    "circlename": "Punjab",
    "Taluk": "",
    "Districtname": "Barnala",
    "statename": "PUNJAB"
  },
  {
    "pincode": "148100",
    "officename": "Tallewal S.O",
    "officeType": "S.O",
    "Deliverystatus": "Delivery",
    "divisionname": "Sangrur",
    "regionname": "Chandigarh HQ",
    "circlename": "Punjab",
    "Taluk": "Barnala",
    "Districtname": "Barnala",
    "statename": "PUNJAB"
  }
]
