[
  {
    "pincode": "148105",
    "officename": "Attar Singh Wala B.O",
    "officeType": "B.O",
    "Deliverystatus": "Delivery",
    "divisionname": "Sangrur",
    "regionname": "Chandigarh HQ",
    "circlename": "Punjab",
    "Taluk": "Barnala",
    "Districtname": "Barnala",
    "statename": "PUNJAB"
  },
  {
    "pincode": "148105",
    "officename": "Bhaini Jassan B.O",
    "officeType": "B.O",
    "Deliverystatus": "Delivery",
    "divisionname": "Sangrur",
    "regionname": "Chandigarh HQ",
    "circlename": "Punjab",
    "Taluk": "Barnala",
    "Districtname": "Barnala",
    "statename": "PUNJAB"
  },
  {
    "pincode": "148105",
    "officename": "Bhathlan B.O",
    "officeType": "B.O",
    "Deliverystatus": "Delivery",
    "divisionname": "Sangrur",
    "regionname": "Chandigarh HQ",
    "circlename": "Punjab",
    "Taluk": "Barnala",
    "Districtname": "Barnala",
    "statename": "PUNJAB"
  },
  {
    "pincode": "148105",
    "officename": "Dangarh B.O",
    "officeType": "B.O",
    "Deliverystatus": "Delivery",
    "divisionname": "Sangrur",
    "regionname": "Chandigarh HQ",
    "circlename": "Punjab",
    "Taluk": "Barnala",
    "Districtname": "Barnala",
    "statename": "PUNJAB"
  },
  {
    "pincode": "148105",
    "officename": "Dhanaula S.O",
    "officeType": "S.O",
    "Deliverystatus": "Delivery",
    "divisionname": "Sangrur",
    "regionname": "Chandigarh HQ",
    "circlename": "Punjab",
    "Taluk": "Barnala",
    "Districtname": "Barnala",
    "statename": "PUNJAB"
  },
  {
    "pincode": "148105",
    "officename": "Harigarh B.O",
    "officeType": "B.O",
    "Deliverystatus": "Delivery",
    "divisionname": "Sangrur",
    "regionname": "Chandigarh HQ",
    "circlename": "Punjab",
    "Taluk": "Barnala",
    "Districtname": "Barnala",
    "statename": "PUNJAB"
  },
  {
    "pincode": "148105",
    "officename": "Kaleke B.O",
    "officeType": "B.O",
    "Deliverystatus": "Delivery",
    "divisionname": "Sangrur",
    "regionname": "Chandigarh HQ",
    "circlename": "Punjab",
    "Taluk": "Barnala",
    "Districtname": "Barnala",
    "statename": "PUNJAB"
  },
  {
    "pincode": "148105",
    "officename": "Kattu B.O",
    "officeType": "B.O",
    "Deliverystatus": "Delivery",
    "divisionname": "Sangrur",
    "regionname": "Chandigarh HQ",
    "circlename": "Punjab",
    "Taluk": "Barnala",
    "Districtname": "Barnala",
    "statename": "PUNJAB"
  },
  {
    "pincode": "148105",
    "officename": "Kotduna B.O",
    "officeType": "B.O",
    "Deliverystatus": "Delivery",
    "divisionname": "Sangrur",
    "regionname": "Chandigarh HQ",
    "circlename": "Punjab",
    "Taluk": "Barnala",
    "Districtname": "Barnala",
    "statename": "PUNJAB"
  },
  {
    "pincode": "148105",
    "officename": "Pandher B.O",
    "officeType": "B.O",
    "Deliverystatus": "Delivery",
    "divisionname": "Sangrur",
    "regionname": "Chandigarh HQ",
    "circlename": "Punjab",
    "Taluk": "Barnala",
    "Districtname": "Barnala",
    "statename": "PUNJAB"
  }
]
