[
  {
    "pincode": "151005",
    "officename": "Balluna B.O",
    "officeType": "B.O",
    "Deliverystatus": "Delivery",
    "divisionname": "Bhatinda",
    "regionname": "Chandigarh Region",
    "circlename": "Punjab",
    "Taluk": "Bathinda",
    "Districtname": "Bathinda",
    "statename": "PUNJAB"
  },
  {
    "pincode": "151005",
    "officename": "Bathinda City S.O",
    "officeType": "S.O",
    "Deliverystatus": "Delivery",
    "divisionname": "Bhatinda",
    "regionname": "Chandigarh Region",
    "circlename": "Punjab",
    "Taluk": "Bathinda",
    "Districtname": "Bathinda",
    "statename": "PUNJAB"
  },
  {
    "pincode": "151005",
    "officename": "Behman Diwana B.O",
    "officeType": "B.O",
    "Deliverystatus": "Delivery",
    "divisionname": "Bhatinda",
    "regionname": "Chandigarh Region",
    "circlename": "Punjab",
    "Taluk": "Bathinda",
    "Districtname": "Bathinda",
    "statename": "PUNJAB"
  },
  {
    "pincode": "151005",
    "officename": "Bibi Wala B.O",
    "officeType": "B.O",
    "Deliverystatus": "Delivery",
    "divisionname": "Bhatinda",
    "regionname": "Chandigarh Region",
    "circlename": "Punjab",
    "Taluk": "Bathinda",
    "Districtname": "Bathinda",
    "statename": "PUNJAB"
  },
  {
    "pincode": "151005",
    "officename": "Bir Behman B.O",
    "officeType": "B.O",
    "Deliverystatus": "Delivery",
    "divisionname": "Bhatinda",
    "regionname": "Chandigarh Region",
    "circlename": "Punjab",
    "Taluk": "Bathinda",
    "Districtname": "Bathinda",
    "statename": "PUNJAB"
  },
  {
    "pincode": "151005",
    "officename": "Chughe Kalan B.O",
    "officeType": "B.O",
    "Deliverystatus": "Delivery",
    "divisionname": "Bhatinda",
    "regionname": "Chandigarh Region",
    "circlename": "Punjab",
    "Taluk": "Bathinda",
    "Districtname": "Bathinda",
    "statename": "PUNJAB"
  },
  {
    "pincode": "151005",
    "officename": "Gehri Baghi B.O",
    "officeType": "B.O",
    "Deliverystatus": "Delivery",
    "divisionname": "Bhatinda",
    "regionname": "Chandigarh Region",
    "circlename": "Punjab",
    "Taluk": "",
    "Districtname": "Bathinda",
    "statename": "PUNJAB"
  },
  {
    "pincode": "151005",
    "officename": "Guru Sar Sehne Wala B.O",
    "officeType": "B.O",
    "Deliverystatus": "Delivery",
    "divisionname": "Bhatinda",
    "regionname": "Chandigarh Region",
    "circlename": "Punjab",
    "Taluk": "Bathinda",
    "Districtname": "Bathinda",
    "statename": "PUNJAB"
  },
  {
    "pincode": "151005",
    "officename": "Jai Singh Wala B.O",
    "officeType": "B.O",
    "Deliverystatus": "Delivery",
    "divisionname": "Bhatinda",
    "regionname": "Chandigarh Region",
    "circlename": "Punjab",
    "Taluk": "Bathinda",
    "Districtname": "Bathinda",
    "statename": "PUNJAB"
  },
  {
    "pincode": "151005",
    "officename": "Jassi Pau Wali B.O",
    "officeType": "B.O",
    "Deliverystatus": "Delivery",
    "divisionname": "Bhatinda",
    "regionname": "Chandigarh Region",
    "circlename": "Punjab",
    "Taluk": "Bathinda",
    "Districtname": "Bathinda",
    "statename": "PUNJAB"
  },
  {
    "pincode": "151005",
    "officename": "Jhumba B.O",
    "officeType": "B.O",
    "Deliverystatus": "Delivery",
    "divisionname": "Bhatinda",
    "regionname": "Chandigarh Region",
    "circlename": "Punjab",
    "Taluk": "Bathinda",
    "Districtname": "Bathinda",
    "statename": "PUNJAB"
  },
  {
    "pincode": "151005",
    "officename": "Kot Shamir B.O",
    "officeType": "B.O",
    "Deliverystatus": "Delivery",
    "divisionname": "Bhatinda",
    "regionname": "Chandigarh Region",
    "circlename": "Punjab",
    "Taluk": "Bathinda",
    "Districtname": "Bathinda",
    "statename": "PUNJAB"
  },
  {
    "pincode": "151005",
    "officename": "Mehta B.O",
    "officeType": "B.O",
    "Deliverystatus": "Delivery",
    "divisionname": "Bhatinda",
    "regionname": "Chandigarh Region",
    "circlename": "Punjab",
    "Taluk": "Bathinda",
    "Districtname": "Bathinda",
    "statename": "PUNJAB"
  },
  {
    "pincode": "151005",
    "officename": "Multania B.O",
    "officeType": "B.O",
    "Deliverystatus": "Delivery",
    "divisionname": "Bhatinda",
    "regionname": "Chandigarh Region",
    "circlename": "Punjab",
    "Taluk": "Bathinda",
    "Districtname": "Bathinda",
    "statename": "PUNJAB"
  },
  {
    "pincode": "151005",
    "officename": "Naruana B.O",
    "officeType": "B.O",
    "Deliverystatus": "Delivery",
    "divisionname": "Bhatinda",
    "regionname": "Chandigarh Region",
    "circlename": "Punjab",
    "Taluk": "Bathinda",
    "Districtname": "Bathinda",
    "statename": "PUNJAB"
  },
  {
    "pincode": "151005",
    "officename": "Nasib Pura B.O",
    "officeType": "B.O",
    "Deliverystatus": "Delivery",
    "divisionname": "Bhatinda",
    "regionname": "Chandigarh Region",
    "circlename": "Punjab",
    "Taluk": "Talwandi Sabo",
    "Districtname": "Bathinda",
    "statename": "PUNJAB"
  },
  {
    "pincode": "151005",
    "officename": "Railway Colony S.O (Bathinda)",
    "officeType": "S.O",
    "Deliverystatus": "Non-Delivery",
    "divisionname": "Bhatinda",
    "regionname": "Chandigarh Region",
    "circlename": "Punjab",
    "Taluk": "Bathinda",
    "Districtname": "Bathinda",
    "statename": "PUNJAB"
  },
  {
    "pincode": "151005",
    "officename": "Sardargarh B.O",
    "officeType": "B.O",
    "Deliverystatus": "Delivery",
    "divisionname": "Bhatinda",
    "regionname": "Chandigarh Region",
    "circlename": "Punjab",
    "Taluk": "Bathinda",
    "Districtname": "Bathinda",
    "statename": "PUNJAB"
  },
  {
    "pincode": "151005",
    "officename": "Teona B.O",
    "officeType": "B.O",
    "Deliverystatus": "Delivery",
    "divisionname": "Bhatinda",
    "regionname": "Chandigarh Region",
    "circlename": "Punjab",
    "Taluk": "Bathinda",
    "Districtname": "Bathinda",
    "statename": "PUNJAB"
  }
]
