[
  {
    "pincode": "151102",
    "officename": "Bajjoana B.O",
    "officeType": "B.O",
    "Deliverystatus": "Delivery",
    "divisionname": "Bhatinda",
    "regionname": "Chandigarh Region",
    "circlename": "Punjab",
    "Taluk": "Bathinda",
    "Districtname": "Bathinda",
    "statename": "PUNJAB"
  },
  {
    "pincode": "151102",
    "officename": "Dial Pura Mirja B.O",
    "officeType": "B.O",
    "Deliverystatus": "Delivery",
    "divisionname": "Bhatinda",
    "regionname": "Chandigarh Region",
    "circlename": "Punjab",
    "Taluk": "Bathinda",
    "Districtname": "Bathinda",
    "statename": "PUNJAB"
  },
  {
    "pincode": "151102",
    "officename": "Govind Pura B.O",
    "officeType": "B.O",
    "Deliverystatus": "Delivery",
    "divisionname": "Bhatinda",
    "regionname": "Chandigarh Region",
    "circlename": "Punjab",
    "Taluk": "Bathinda",
    "Districtname": "Bathinda",
    "statename": "PUNJAB"
  },
  {
    "pincode": "151102",
    "officename": "Kalyan Sukha B.O",
    "officeType": "B.O",
    "Deliverystatus": "Delivery",
    "divisionname": "Bhatinda",
    "regionname": "Chandigarh Region",
    "circlename": "Punjab",
    "Taluk": "Bathinda",
    "Districtname": "Bathinda",
    "statename": "PUNJAB"
  },
  {
    "pincode": "151102",
    "officename": "Nathana S.O",
    "officeType": "S.O",
    "Deliverystatus": "Delivery",
    "divisionname": "Bhatinda",
    "regionname": "Chandigarh Region",
    "circlename": "Punjab",
    "Taluk": "Bathinda",
    "Districtname": "Bathinda",
    "statename": "PUNJAB"
  },
  {
    "pincode": "151102",
    "officename": "Nathpura B.O",
    "officeType": "B.O",
    "Deliverystatus": "Delivery",
    "divisionname": "Bhatinda",
    "regionname": "Chandigarh Region",
    "circlename": "Punjab",
    "Taluk": "Bathinda",
    "Districtname": "Bathinda",
    "statename": "PUNJAB"
  },
  {
    "pincode": "151102",
    "officename": "Poohla B.O",
    "officeType": "B.O",
    "Deliverystatus": "Delivery",
    "divisionname": "Bhatinda",
    "regionname": "Chandigarh Region",
    "circlename": "Punjab",
    "Taluk": "Bathinda",
    "Districtname": "Bathinda",
    "statename": "PUNJAB"
  },
  {
    "pincode": "151102",
    "officename": "Poohli B.O",
    "officeType": "B.O",
    "Deliverystatus": "Delivery",
    "divisionname": "Bhatinda",
    "regionname": "Chandigarh Region",
    "circlename": "Punjab",
    "Taluk": "Bathinda",
    "Districtname": "Bathinda",
    "statename": "PUNJAB"
  }
]
