[
  {
    "pincode": "151103",
    "officename": "Ballian Wali B.O",
    "officeType": "B.O",
    "Deliverystatus": "Delivery",
    "divisionname": "Bhatinda",
    "regionname": "Chandigarh Region",
    "circlename": "Punjab",
    "Taluk": "Phul",
    "Districtname": "Bathinda",
    "statename": "PUNJAB"
  },
  {
    "pincode": "151103",
    "officename": "Bhaini Kani B.O",
    "officeType": "B.O",
    "Deliverystatus": "Delivery",
    "divisionname": "Bhatinda",
    "regionname": "Chandigarh Region",
    "circlename": "Punjab",
    "Taluk": "Phul",
    "Districtname": "Bathinda",
    "statename": "PUNJAB"
  },
  {
    "pincode": "151103",
    "officename": "Bhunder B.O",
    "officeType": "B.O",
    "Deliverystatus": "Delivery",
    "divisionname": "Bhatinda",
    "regionname": "Chandigarh Region",
    "circlename": "Punjab",
    "Taluk": "Phul",
    "Districtname": "Bathinda",
    "statename": "PUNJAB"
  },
  {
    "pincode": "151103",
    "officename": "Dhade B.O",
    "officeType": "B.O",
    "Deliverystatus": "Delivery",
    "divisionname": "Bhatinda",
    "regionname": "Chandigarh Region",
    "circlename": "Punjab",
    "Taluk": "Phul",
    "Districtname": "Bathinda",
    "statename": "PUNJAB"
  },
  {
    "pincode": "151103",
    "officename": "Dikh B.O",
    "officeType": "B.O",
    "Deliverystatus": "Delivery",
    "divisionname": "Bhatinda",
    "regionname": "Chandigarh Region",
    "circlename": "Punjab",
    "Taluk": "Phul",
    "Districtname": "Bathinda",
    "statename": "PUNJAB"
  },
  {
    "pincode": "151103",
    "officename": "Gill Kalan B.O",
    "officeType": "B.O",
    "Deliverystatus": "Delivery",
    "divisionname": "Bhatinda",
    "regionname": "Chandigarh Region",
    "circlename": "Punjab",
    "Taluk": "Phul",
    "Districtname": "Bathinda",
    "statename": "PUNJAB"
  },
  {
    "pincode": "151103",
    "officename": "Jaidan B.O",
    "officeType": "B.O",
    "Deliverystatus": "Delivery",
    "divisionname": "Bhatinda",
    "regionname": "Chandigarh Region",
    "circlename": "Punjab",
    "Taluk": "Phul",
    "Districtname": "Bathinda",
    "statename": "PUNJAB"
  },
  {
    "pincode": "151103",
    "officename": "Jethu Ke B.O",
    "officeType": "B.O",
    "Deliverystatus": "Delivery",
    "divisionname": "Bhatinda",
    "regionname": "Chandigarh Region",
    "circlename": "Punjab",
    "Taluk": "Phul",
    "Districtname": "Bathinda",
    "statename": "PUNJAB"
  },
  {
    "pincode": "151103",
    "officename": "Karar Wala B.O",
    "officeType": "B.O",
    "Deliverystatus": "Delivery",
    "divisionname": "Bhatinda",
    "regionname": "Chandigarh Region",
    "circlename": "Punjab",
    "Taluk": "Phul",
    "Districtname": "Bathinda",
    "statename": "PUNJAB"
  },
  {
    "pincode": "151103",
    "officename": "Kotra Koreyan Wala B.O",
    "officeType": "B.O",
    "Deliverystatus": "Delivery",
    "divisionname": "Bhatinda",
    "regionname": "Chandigarh Region",
    "circlename": "Punjab",
    "Taluk": "Phul",
    "Districtname": "Bathinda",
    "statename": "PUNJAB"
  },
  {
    "pincode": "151103",
    "officename": "Mandi Kalan B.O",
    "officeType": "B.O",
    "Deliverystatus": "Delivery",
    "divisionname": "Bhatinda",
    "regionname": "Chandigarh Region",
    "circlename": "Punjab",
    "Taluk": "Phul",
    "Districtname": "Bathinda",
    "statename": "PUNJAB"
  },
  {
    "pincode": "151103",
    "officename": "Pitho B.O",
    "officeType": "B.O",
    "Deliverystatus": "Delivery",
    "divisionname": "Bhatinda",
    "regionname": "Chandigarh Region",
    "circlename": "Punjab",
    "Taluk": "Phul",
    "Districtname": "Bathinda",
    "statename": "PUNJAB"
  },
  {
    "pincode": "151103",
    "officename": "Ramanvas B.O",
    "officeType": "B.O",
    "Deliverystatus": "Delivery",
    "divisionname": "Bhatinda",
    "regionname": "Chandigarh Region",
    "circlename": "Punjab",
    "Taluk": "Phul",
    "Districtname": "Bathinda",
    "statename": "PUNJAB"
  },
  {
    "pincode": "151103",
    "officename": "Rampura B.O",
    "officeType": "B.O",
    "Deliverystatus": "Delivery",
    "divisionname": "Bhatinda",
    "regionname": "Chandigarh Region",
    "circlename": "Punjab",
    "Taluk": "Phul",
    "Districtname": "Bathinda",
    "statename": "PUNJAB"
  },
  {
    "pincode": "151103",
    "officename": "Rampura Mandi S.O",
    "officeType": "S.O",
    "Deliverystatus": "Non-Delivery",
    "divisionname": "Bhatinda",
    "regionname": "Chandigarh Region",
    "circlename": "Punjab",
    "Taluk": "Phul",
    "Districtname": "Bathinda",
    "statename": "PUNJAB"
  },
  {
    "pincode": "151103",
    "officename": "Rampura Phul S.O",
    "officeType": "S.O",
    "Deliverystatus": "Delivery",
    "divisionname": "Bhatinda",
    "regionname": "Chandigarh Region",
    "circlename": "Punjab",
    "Taluk": "Rampura Phul",
    "Districtname": "Bathinda",
    "statename": "PUNJAB"
  }
]
