[
  {
    "pincode": "151101",
    "officename": "Bhucho Kalan B.O",
    "officeType": "B.O",
    "Deliverystatus": "Delivery",
    "divisionname": "Bhatinda",
    "regionname": "Chandigarh Region",
    "circlename": "Punjab",
    "Taluk": "Bhucho Manda",
    "Districtname": "Bathinda",
    "statename": "PUNJAB"
  },
  {
    "pincode": "151101",
    "officename": "Bhucho Khurd B.O",
    "officeType": "B.O",
    "Deliverystatus": "Delivery",
    "divisionname": "Bhatinda",
    "regionname": "Chandigarh Region",
    "circlename": "Punjab",
    "Taluk": "Bhucho",
    "Districtname": "Bathinda",
    "statename": "PUNJAB"
  },
  {
    "pincode": "151101",
    "officename": "Bhucho Mandi S.O",
    "officeType": "S.O",
    "Deliverystatus": "Delivery",
    "divisionname": "Bhatinda",
    "regionname": "Chandigarh Region",
    "circlename": "Punjab",
    "Taluk": "Bathinda",
    "Districtname": "Bathinda",
    "statename": "PUNJAB"
  },
  {
    "pincode": "151101",
    "officename": "Chak Bakhtu B.O",
    "officeType": "B.O",
    "Deliverystatus": "Delivery",
    "divisionname": "Bhatinda",
    "regionname": "Chandigarh Region",
    "circlename": "Punjab",
    "Taluk": "Bhucho",
    "Districtname": "Bathinda",
    "statename": "PUNJAB"
  },
  {
    "pincode": "151101",
    "officename": "Chak Fateh Sngh Wala B.O",
    "officeType": "B.O",
    "Deliverystatus": "Delivery",
    "divisionname": "Bhatinda",
    "regionname": "Chandigarh Region",
    "circlename": "Punjab",
    "Taluk": "Bhucho",
    "Districtname": "Bathinda",
    "statename": "PUNJAB"
  },
  {
    "pincode": "151101",
    "officename": "Gulab Garh B.O",
    "officeType": "B.O",
    "Deliverystatus": "Delivery",
    "divisionname": "Bhatinda",
    "regionname": "Chandigarh Region",
    "circlename": "Punjab",
    "Taluk": "Bathinda",
    "Districtname": "Bathinda",
    "statename": "PUNJAB"
  },
  {
    "pincode": "151101",
    "officename": "Jhanduke B.O",
    "officeType": "B.O",
    "Deliverystatus": "Delivery",
    "divisionname": "Bhatinda",
    "regionname": "Chandigarh Region",
    "circlename": "Punjab",
    "Taluk": "Rampura Phul",
    "Districtname": "Bathinda",
    "statename": "PUNJAB"
  },
  {
    "pincode": "151101",
    "officename": "Kot Fatta B.O",
    "officeType": "B.O",
    "Deliverystatus": "Delivery",
    "divisionname": "Bhatinda",
    "regionname": "Chandigarh Region",
    "circlename": "Punjab",
    "Taluk": "Bhucho",
    "Districtname": "Bathinda",
    "statename": "PUNJAB"
  },
  {
    "pincode": "151101",
    "officename": "Rai Khanna B.O",
    "officeType": "B.O",
    "Deliverystatus": "Delivery",
    "divisionname": "Bhatinda",
    "regionname": "Chandigarh Region",
    "circlename": "Punjab",
    "Taluk": "Bhucho",
    "Districtname": "Bathinda",
    "statename": "PUNJAB"
  },
  {
    "pincode": "151101",
    "officename": "Sema B.O",
    "officeType": "B.O",
    "Deliverystatus": "Delivery",
    "divisionname": "Bhatinda",
    "regionname": "Chandigarh Region",
    "circlename": "Punjab",
    "Taluk": "Bhucho",
    "Districtname": "Bathinda",
    "statename": "PUNJAB"
  },
  {
    "pincode": "151101",
    "officename": "Tung Wali B.O",
    "officeType": "B.O",
    "Deliverystatus": "Delivery",
    "divisionname": "Bhatinda",
    "regionname": "Chandigarh Region",
    "circlename": "Punjab",
    "Taluk": "Bhucho",
    "Districtname": "Bathinda",
    "statename": "PUNJAB"
  }
]
