[
  {
    "pincode": "151204",
    "officename": "Dhaipai B.O",
    "officeType": "B.O",
    "Deliverystatus": "Delivery",
    "divisionname": "Faridkot",
    "regionname": "Chandigarh Region",
    "circlename": "Punjab",
    "Taluk": "Jaitu",
    "Districtname": "Faridkot",
    "statename": "PUNJAB"
  },
  {
    "pincode": "151204",
    "officename": "Dhilwana Kalan B.O",
    "officeType": "B.O",
    "Deliverystatus": "Delivery",
    "divisionname": "Faridkot",
    "regionname": "Chandigarh Region",
    "circlename": "Punjab",
    "Taluk": "Faridkot",
    "Districtname": "Faridkot",
    "statename": "PUNJAB"
  },
  {
    "pincode": "151204",
    "officename": "Hari Nau B.O",
    "officeType": "B.O",
    "Deliverystatus": "Delivery",
    "divisionname": "Faridkot",
    "regionname": "Chandigarh Region",
    "circlename": "Punjab",
    "Taluk": "Faridkot",
    "Districtname": "Faridkot",
    "statename": "PUNJAB"
  },
  {
    "pincode": "151204",
    "officename": "Koharwala B.O",
    "officeType": "B.O",
    "Deliverystatus": "Delivery",
    "divisionname": "Faridkot",
    "regionname": "Chandigarh Region",
    "circlename": "Punjab",
    "Taluk": "Faridkot",
    "Districtname": "Faridkot",
    "statename": "PUNJAB"
  },
  {
    "pincode": "151204",
    "officename": "Kotkapura S.O",
    "officeType": "S.O",
    "Deliverystatus": "Delivery",
    "divisionname": "Faridkot",
    "regionname": "Chandigarh Region",
    "circlename": "Punjab",
    "Taluk": "Faridkot",
    "Districtname": "Faridkot",
    "statename": "PUNJAB"
  },
  {
    "pincode": "151204",
    "officename": "Matta B.O",
    "officeType": "B.O",
    "Deliverystatus": "Delivery",
    "divisionname": "Faridkot",
    "regionname": "Chandigarh Region",
    "circlename": "Punjab",
    "Taluk": "Jaitu",
    "Districtname": "Faridkot",
    "statename": "PUNJAB"
  },
  {
    "pincode": "151204",
    "officename": "Mour Suhag B.O",
    "officeType": "B.O",
    "Deliverystatus": "Delivery",
    "divisionname": "Faridkot",
    "regionname": "Chandigarh Region",
    "circlename": "Punjab",
    "Taluk": "Faridkot",
    "Districtname": "Faridkot",
    "statename": "PUNJAB"
  },
  {
    "pincode": "151204",
    "officename": "Romana Albel Singh B.O",
    "officeType": "B.O",
    "Deliverystatus": "Delivery",
    "divisionname": "Faridkot",
    "regionname": "Chandigarh Region",
    "circlename": "Punjab",
    "Taluk": "Jaitu",
    "Districtname": "Faridkot",
    "statename": "PUNJAB"
  },
  {
    "pincode": "151204",
    "officename": "Sarawan B.O",
    "officeType": "B.O",
    "Deliverystatus": "Delivery",
    "divisionname": "Faridkot",
    "regionname": "Chandigarh Region",
    "circlename": "Punjab",
    "Taluk": "Jaitu",
    "Districtname": "Faridkot",
    "statename": "PUNJAB"
  }
]
