[
  {
    "pincode": "151213",
    "officename": "Arryan Wala B.O",
    "officeType": "B.O",
    "Deliverystatus": "Delivery",
    "divisionname": "Faridkot",
    "regionname": "Chandigarh Region",
    "circlename": "Punjab",
    "Taluk": "Faridkot",
    "Districtname": "Faridkot",
    "statename": "PUNJAB"
  },
  {
    "pincode": "151213",
    "officename": "Bhagthala Kalan B.O",
    "officeType": "B.O",
    "Deliverystatus": "Delivery",
    "divisionname": "Faridkot",
    "regionname": "Chandigarh Region",
    "circlename": "Punjab",
    "Taluk": "Faridkot",
    "Districtname": "Faridkot",
    "statename": "PUNJAB"
  },
  {
    "pincode": "151213",
    "officename": "Chandbaja B.O",
    "officeType": "B.O",
    "Deliverystatus": "Delivery",
    "divisionname": "Faridkot",
    "regionname": "Chandigarh Region",
    "circlename": "Punjab",
    "Taluk": "Faridkot",
    "Districtname": "Faridkot",
    "statename": "PUNJAB"
  },
  {
    "pincode": "151213",
    "officename": "Dhudhi B.O",
    "officeType": "B.O",
    "Deliverystatus": "Delivery",
    "divisionname": "Faridkot",
    "regionname": "Chandigarh Region",
    "circlename": "Punjab",
    "Taluk": "Faridkot",
    "Districtname": "Faridkot",
    "statename": "PUNJAB"
  },
  {
    "pincode": "151213",
    "officename": "Dhurkot B.O",
    "officeType": "B.O",
    "Deliverystatus": "Delivery",
    "divisionname": "Faridkot",
    "regionname": "Chandigarh Region",
    "circlename": "Punjab",
    "Taluk": "Faridkot",
    "Districtname": "Faridkot",
    "statename": "PUNJAB"
  },
  {
    "pincode": "151213",
    "officename": "Ghugiana B.O",
    "officeType": "B.O",
    "Deliverystatus": "Delivery",
    "divisionname": "Faridkot",
    "regionname": "Chandigarh Region",
    "circlename": "Punjab",
    "Taluk": "Faridkot",
    "Districtname": "Faridkot",
    "statename": "PUNJAB"
  },
  {
    "pincode": "151213",
    "officename": "Golewala B.O",
    "officeType": "B.O",
    "Deliverystatus": "Delivery",
    "divisionname": "Faridkot",
    "regionname": "Chandigarh Region",
    "circlename": "Punjab",
    "Taluk": "Faridkot",
    "Districtname": "Faridkot",
    "statename": "PUNJAB"
  },
  {
    "pincode": "151213",
    "officename": "Harindra Nagar (Faridkot) S.O",
    "officeType": "S.O",
    "Deliverystatus": "Delivery",
    "divisionname": "Faridkot",
    "regionname": "Chandigarh Region",
    "circlename": "Punjab",
    "Taluk": "Faridkot",
    "Districtname": "Faridkot",
    "statename": "PUNJAB"
  },
  {
    "pincode": "151213",
    "officename": "Kammiana B.O",
    "officeType": "B.O",
    "Deliverystatus": "Delivery",
    "divisionname": "Faridkot",
    "regionname": "Chandigarh Region",
    "circlename": "Punjab",
    "Taluk": "Faridkot",
    "Districtname": "Faridkot",
    "statename": "PUNJAB"
  },
  {
    "pincode": "151213",
    "officename": "Moranwali B.O",
    "officeType": "B.O",
    "Deliverystatus": "Delivery",
    "divisionname": "Faridkot",
    "regionname": "Chandigarh Region",
    "circlename": "Punjab",
    "Taluk": "Faridkot",
    "Districtname": "Faridkot",
    "statename": "PUNJAB"
  },
  {
    "pincode": "151213",
    "officename": "Pakhi Kalan B.O",
    "officeType": "B.O",
    "Deliverystatus": "Delivery",
    "divisionname": "Faridkot",
    "regionname": "Chandigarh Region",
    "circlename": "Punjab",
    "Taluk": "Faridkot",
    "Districtname": "Faridkot",
    "statename": "PUNJAB"
  },
  {
    "pincode": "151213",
    "officename": "Pipli B.O",
    "officeType": "B.O",
    "Deliverystatus": "Delivery",
    "divisionname": "Faridkot",
    "regionname": "Chandigarh Region",
    "circlename": "Punjab",
    "Taluk": "Faridkot",
    "Districtname": "Faridkot",
    "statename": "PUNJAB"
  },
  {
    "pincode": "151213",
    "officename": "Quila Nau B.O",
    "officeType": "B.O",
    "Deliverystatus": "Delivery",
    "divisionname": "Faridkot",
    "regionname": "Chandigarh Region",
    "circlename": "Punjab",
    "Taluk": "Faridkot",
    "Districtname": "Faridkot",
    "statename": "PUNJAB"
  },
  {
    "pincode": "151213",
    "officename": "Rajowala B.O",
    "officeType": "B.O",
    "Deliverystatus": "Delivery",
    "divisionname": "Faridkot",
    "regionname": "Chandigarh Region",
    "circlename": "Punjab",
    "Taluk": "Faridkot",
    "Districtname": "Faridkot",
    "statename": "PUNJAB"
  },
  {
    "pincode": "151213",
    "officename": "Sukhan Wala B.O",
    "officeType": "B.O",
    "Deliverystatus": "Delivery",
    "divisionname": "Faridkot",
    "regionname": "Chandigarh Region",
    "circlename": "Punjab",
    "Taluk": "Faridkot",
    "Districtname": "Faridkot",
    "statename": "PUNJAB"
  },
  {
    "pincode": "151213",
    "officename": "Tehna B.O",
    "officeType": "B.O",
    "Deliverystatus": "Delivery",
    "divisionname": "Faridkot",
    "regionname": "Chandigarh Region",
    "circlename": "Punjab",
    "Taluk": "Faridkot",
    "Districtname": "Faridkot",
    "statename": "PUNJAB"
  }
]
