[
  {
    "pincode": "151212",
    "officename": "Bihle Wala B.O",
    "officeType": "B.O",
    "Deliverystatus": "Delivery",
    "divisionname": "Faridkot",
    "regionname": "Chandigarh Region",
    "circlename": "Punjab",
    "Taluk": "Faridkot",
    "Districtname": "Faridkot",
    "statename": "PUNJAB"
  },
  {
    "pincode": "151212",
    "officename": "Deep Singh Wala B.O",
    "officeType": "B.O",
    "Deliverystatus": "Delivery",
    "divisionname": "Faridkot",
    "regionname": "Chandigarh Region",
    "circlename": "Punjab",
    "Taluk": "Faridkot",
    "Districtname": "Faridkot",
    "statename": "PUNJAB"
  },
  {
    "pincode": "151212",
    "officename": "Gurudwara Jand Sahib B.O",
    "officeType": "B.O",
    "Deliverystatus": "Delivery",
    "divisionname": "Faridkot",
    "regionname": "Chandigarh Region",
    "circlename": "Punjab",
    "Taluk": "Faridkot",
    "Districtname": "Faridkot",
    "statename": "PUNJAB"
  },
  {
    "pincode": "151212",
    "officename": "Janeria B.O",
    "officeType": "B.O",
    "Deliverystatus": "Delivery",
    "divisionname": "Faridkot",
    "regionname": "Chandigarh Region",
    "circlename": "Punjab",
    "Taluk": "Faridkot",
    "Districtname": "Faridkot",
    "statename": "PUNJAB"
  },
  {
    "pincode": "151212",
    "officename": "Machaki Kalan B.O",
    "officeType": "B.O",
    "Deliverystatus": "Delivery",
    "divisionname": "Faridkot",
    "regionname": "Chandigarh Region",
    "circlename": "Punjab",
    "Taluk": "Faridkot",
    "Districtname": "Faridkot",
    "statename": "PUNJAB"
  },
  {
    "pincode": "151212",
    "officename": "Mehmuana B.O",
    "officeType": "B.O",
    "Deliverystatus": "Delivery",
    "divisionname": "Faridkot",
    "regionname": "Chandigarh Region",
    "circlename": "Punjab",
    "Taluk": "Faridkot",
    "Districtname": "Faridkot",
    "statename": "PUNJAB"
  },
  {
    "pincode": "151212",
    "officename": "Momara B.O",
    "officeType": "B.O",
    "Deliverystatus": "Delivery",
    "divisionname": "Faridkot",
    "regionname": "Chandigarh Region",
    "circlename": "Punjab",
    "Taluk": "Faridkot",
    "Districtname": "Faridkot",
    "statename": "PUNJAB"
  },
  {
    "pincode": "151212",
    "officename": "Sadiq S.O",
    "officeType": "S.O",
    "Deliverystatus": "Delivery",
    "divisionname": "Faridkot",
    "regionname": "Chandigarh Region",
    "circlename": "Punjab",
    "Taluk": "Faridkot",
    "Districtname": "Faridkot",
    "statename": "PUNJAB"
  }
]
