[
  {
    "pincode": "151301",
    "officename": "Bangi Rughu B.O",
    "officeType": "B.O",
    "Deliverystatus": "Delivery",
    "divisionname": "Bhatinda",
    "regionname": "Chandigarh Region",
    "circlename": "Punjab",
    "Taluk": "T Sabo",
    "Districtname": "Bathinda",
    "statename": "PUNJAB"
  },
  {
    "pincode": "151301",
    "officename": "Bangi Ruldu B.O",
    "officeType": "B.O",
    "Deliverystatus": "Delivery",
    "divisionname": "Bhatinda",
    "regionname": "Chandigarh Region",
    "circlename": "Punjab",
    "Taluk": "T Sabo",
    "Districtname": "Bathinda",
    "statename": "PUNJAB"
  },
  {
    "pincode": "151301",
    "officename": "Giana B.O",
    "officeType": "B.O",
    "Deliverystatus": "Delivery",
    "divisionname": "Bhatinda",
    "regionname": "Chandigarh Region",
    "circlename": "Punjab",
    "Taluk": "T Sabo",
    "Districtname": "Bathinda",
    "statename": "PUNJAB"
  },
  {
    "pincode": "151301",
    "officename": "Kot Bakhtu B.O",
    "officeType": "B.O",
    "Deliverystatus": "Delivery",
    "divisionname": "Bhatinda",
    "regionname": "Chandigarh Region",
    "circlename": "Punjab",
    "Taluk": "T Sabo",
    "Districtname": "Bathinda",
    "statename": "PUNJAB"
  },
  {
    "pincode": "151301",
    "officename": "Laleana B.O",
    "officeType": "B.O",
    "Deliverystatus": "Delivery",
    "divisionname": "Bhatinda",
    "regionname": "Chandigarh Region",
    "circlename": "Punjab",
    "Taluk": "T Sabo",
    "Districtname": "Bathinda",
    "statename": "PUNJAB"
  },
  {
    "pincode": "151301",
    "officename": "Malkana B.O",
    "officeType": "B.O",
    "Deliverystatus": "Delivery",
    "divisionname": "Bhatinda",
    "regionname": "Chandigarh Region",
    "circlename": "Punjab",
    "Taluk": "T Sabo",
    "Districtname": "Bathinda",
    "statename": "PUNJAB"
  },
  {
    "pincode": "151301",
    "officename": "Raman S.O",
    "officeType": "S.O",
    "Deliverystatus": "Delivery",
    "divisionname": "Bhatinda",
    "regionname": "Chandigarh Region",
    "circlename": "Punjab",
    "Taluk": "Talwandi Sabo",
    "Districtname": "Bathinda",
    "statename": "PUNJAB"
  },
  {
    "pincode": "151301",
    "officename": "Sekhu B.O",
    "officeType": "B.O",
    "Deliverystatus": "Delivery",
    "divisionname": "Bhatinda",
    "regionname": "Chandigarh Region",
    "circlename": "Punjab",
    "Taluk": "T Sabo",
    "Districtname": "Bathinda",
    "statename": "PUNJAB"
  }
]
