[
  {
    "pincode": "151506",
    "officename": "Adamke B.O",
    "officeType": "B.O",
    "Deliverystatus": "Delivery",
    "divisionname": "Bhatinda",
    "regionname": "Chandigarh Region",
    "circlename": "Punjab",
    "Taluk": "Mansa",
    "Districtname": "Mansa",
    "statename": "PUNJAB"
  },
  {
    "pincode": "151506",
    "officename": "Chenewala B.O",
    "officeType": "B.O",
    "Deliverystatus": "Delivery",
    "divisionname": "Bhatinda",
    "regionname": "Chandigarh Region",
    "circlename": "Punjab",
    "Taluk": "Mansa",
    "Districtname": "Mansa",
    "statename": "PUNJAB"
  },
  {
    "pincode": "151506",
    "officename": "Fatehpur B.O",
    "officeType": "B.O",
    "Deliverystatus": "Delivery",
    "divisionname": "Bhatinda",
    "regionname": "Chandigarh Region",
    "circlename": "Punjab",
    "Taluk": "Mansa",
    "Districtname": "Mansa",
    "statename": "PUNJAB"
  },
  {
    "pincode": "151506",
    "officename": "Fatta Maluka B.O",
    "officeType": "B.O",
    "Deliverystatus": "Delivery",
    "divisionname": "Bhatinda",
    "regionname": "Chandigarh Region",
    "circlename": "Punjab",
    "Taluk": "Mansa",
    "Districtname": "Mansa",
    "statename": "PUNJAB"
  },
  {
    "pincode": "151506",
    "officename": "Ghuddu Wala B.O",
    "officeType": "B.O",
    "Deliverystatus": "Delivery",
    "divisionname": "Bhatinda",
    "regionname": "Chandigarh Region",
    "circlename": "Punjab",
    "Taluk": "Mansa",
    "Districtname": "Mansa",
    "statename": "PUNJAB"
  },
  {
    "pincode": "151506",
    "officename": "Hingna B.O",
    "officeType": "B.O",
    "Deliverystatus": "Delivery",
    "divisionname": "Bhatinda",
    "regionname": "Chandigarh Region",
    "circlename": "Punjab",
    "Taluk": "Mansa",
    "Districtname": "Mansa",
    "statename": "PUNJAB"
  },
  {
    "pincode": "151506",
    "officename": "Jatana Kalan B.O",
    "officeType": "B.O",
    "Deliverystatus": "Delivery",
    "divisionname": "Bhatinda",
    "regionname": "Chandigarh Region",
    "circlename": "Punjab",
    "Taluk": "Mansa",
    "Districtname": "Mansa",
    "statename": "PUNJAB"
  },
  {
    "pincode": "151506",
    "officename": "Jhanduke B.O",
    "officeType": "B.O",
    "Deliverystatus": "Delivery",
    "divisionname": "Bhatinda",
    "regionname": "Chandigarh Region",
    "circlename": "Punjab",
    "Taluk": "Mansa",
    "Districtname": "Mansa",
    "statename": "PUNJAB"
  },
  {
    "pincode": "151506",
    "officename": "Jhunir S.O",
    "officeType": "S.O",
    "Deliverystatus": "Delivery",
    "divisionname": "Bhatinda",
    "regionname": "Chandigarh Region",
    "circlename": "Punjab",
    "Taluk": "Mansa",
    "Districtname": "Mansa",
    "statename": "PUNJAB"
  },
  {
    "pincode": "151506",
    "officename": "Kusla B.O",
    "officeType": "B.O",
    "Deliverystatus": "Delivery",
    "divisionname": "Bhatinda",
    "regionname": "Chandigarh Region",
    "circlename": "Punjab",
    "Taluk": "Mansa",
    "Districtname": "Mansa",
    "statename": "PUNJAB"
  },
  {
    "pincode": "151506",
    "officename": "Lallian Wali B.O",
    "officeType": "B.O",
    "Deliverystatus": "Delivery",
    "divisionname": "Bhatinda",
    "regionname": "Chandigarh Region",
    "circlename": "Punjab",
    "Taluk": "Mansa",
    "Districtname": "Mansa",
    "statename": "PUNJAB"
  },
  {
    "pincode": "151506",
    "officename": "Malkon B.O",
    "officeType": "B.O",
    "Deliverystatus": "Delivery",
    "divisionname": "Bhatinda",
    "regionname": "Chandigarh Region",
    "circlename": "Punjab",
    "Taluk": "Mansa",
    "Districtname": "Mansa",
    "statename": "PUNJAB"
  },
  {
    "pincode": "151506",
    "officename": "Moffar B.O",
    "officeType": "B.O",
    "Deliverystatus": "Delivery",
    "divisionname": "Bhatinda",
    "regionname": "Chandigarh Region",
    "circlename": "Punjab",
    "Taluk": "Mansa",
    "Districtname": "Mansa",
    "statename": "PUNJAB"
  }
]
