[
  {
    "pincode": "151507",
    "officename": "Ahlupur B.O",
    "officeType": "B.O",
    "Deliverystatus": "Delivery",
    "divisionname": "Bhatinda",
    "regionname": "Chandigarh Region",
    "circlename": "Punjab",
    "Taluk": "Mansa",
    "Districtname": "Mansa",
    "statename": "PUNJAB"
  },
  {
    "pincode": "151507",
    "officename": "Jhanda Kalan B.O",
    "officeType": "B.O",
    "Deliverystatus": "Delivery",
    "divisionname": "Bhatinda",
    "regionname": "Chandigarh Region",
    "circlename": "Punjab",
    "Taluk": "Mansa",
    "Districtname": "Mansa",
    "statename": "PUNJAB"
  },
  {
    "pincode": "151507",
    "officename": "Jhanda Khurd B.O",
    "officeType": "B.O",
    "Deliverystatus": "Delivery",
    "divisionname": "Bhatinda",
    "regionname": "Chandigarh Region",
    "circlename": "Punjab",
    "Taluk": "Mansa",
    "Districtname": "Mansa",
    "statename": "PUNJAB"
  },
  {
    "pincode": "151507",
    "officename": "Karandi B.O",
    "officeType": "B.O",
    "Deliverystatus": "Delivery",
    "divisionname": "Bhatinda",
    "regionname": "Chandigarh Region",
    "circlename": "Punjab",
    "Taluk": "Mansa",
    "Districtname": "Mansa",
    "statename": "PUNJAB"
  },
  {
    "pincode": "151507",
    "officename": "Khaira Kalan B.O",
    "officeType": "B.O",
    "Deliverystatus": "Delivery",
    "divisionname": "Bhatinda",
    "regionname": "Chandigarh Region",
    "circlename": "Punjab",
    "Taluk": "Mansa",
    "Districtname": "Mansa",
    "statename": "PUNJAB"
  },
  {
    "pincode": "151507",
    "officename": "Mankhera B.O",
    "officeType": "B.O",
    "Deliverystatus": "Delivery",
    "divisionname": "Bhatinda",
    "regionname": "Chandigarh Region",
    "circlename": "Punjab",
    "Taluk": "Mansa",
    "Districtname": "Mansa",
    "statename": "PUNJAB"
  },
  {
    "pincode": "151507",
    "officename": "Mirpur Kalan B.O",
    "officeType": "B.O",
    "Deliverystatus": "Delivery",
    "divisionname": "Bhatinda",
    "regionname": "Chandigarh Region",
    "circlename": "Punjab",
    "Taluk": "Mansa",
    "Districtname": "Mansa",
    "statename": "PUNJAB"
  },
  {
    "pincode": "151507",
    "officename": "Nahran B.O",
    "officeType": "B.O",
    "Deliverystatus": "Delivery",
    "divisionname": "Bhatinda",
    "regionname": "Chandigarh Region",
    "circlename": "Punjab",
    "Taluk": "Mansa",
    "Districtname": "Mansa",
    "statename": "PUNJAB"
  },
  {
    "pincode": "151507",
    "officename": "Sangha B.O",
    "officeType": "B.O",
    "Deliverystatus": "Delivery",
    "divisionname": "Bhatinda",
    "regionname": "Chandigarh Region",
    "circlename": "Punjab",
    "Taluk": "Mansa",
    "Districtname": "Mansa",
    "statename": "PUNJAB"
  },
  {
    "pincode": "151507",
    "officename": "Sardulgarh S.O",
    "officeType": "S.O",
    "Deliverystatus": "Delivery",
    "divisionname": "Bhatinda",
    "regionname": "Chandigarh Region",
    "circlename": "Punjab",
    "Taluk": "Sardulgarh",
    "Districtname": "Mansa",
    "statename": "PUNJAB"
  }
]
