[
  {
    "pincode": "151504",
    "officename": "Atlakalan B.O",
    "officeType": "B.O",
    "Deliverystatus": "Delivery",
    "divisionname": "Bhatinda",
    "regionname": "Chandigarh Region",
    "circlename": "Punjab",
    "Taluk": "Bkh",
    "Districtname": "Mansa",
    "statename": "PUNJAB"
  },
  {
    "pincode": "151504",
    "officename": "Bhikhi S.O",
    "officeType": "S.O",
    "Deliverystatus": "Delivery",
    "divisionname": "Bhatinda",
    "regionname": "Chandigarh Region",
    "circlename": "Punjab",
    "Taluk": "",
    "Districtname": "Mansa",
    "statename": "PUNJAB"
  },
  {
    "pincode": "151504",
    "officename": "Dalel Singh Wala B.O",
    "officeType": "B.O",
    "Deliverystatus": "Delivery",
    "divisionname": "Bhatinda",
    "regionname": "Chandigarh Region",
    "circlename": "Punjab",
    "Taluk": "Bkh",
    "Districtname": "Mansa",
    "statename": "PUNJAB"
  },
  {
    "pincode": "151504",
    "officename": "Hamirgarh Dhaipai B.O",
    "officeType": "B.O",
    "Deliverystatus": "Delivery",
    "divisionname": "Bhatinda",
    "regionname": "Chandigarh Region",
    "circlename": "Punjab",
    "Taluk": "Bkh",
    "Districtname": "Mansa",
    "statename": "PUNJAB"
  },
  {
    "pincode": "151504",
    "officename": "Hiron Kalan B.O",
    "officeType": "B.O",
    "Deliverystatus": "Delivery",
    "divisionname": "Bhatinda",
    "regionname": "Chandigarh Region",
    "circlename": "Punjab",
    "Taluk": "Bkh",
    "Districtname": "Mansa",
    "statename": "PUNJAB"
  },
  {
    "pincode": "151504",
    "officename": "Khiwa Kalan B.O",
    "officeType": "B.O",
    "Deliverystatus": "Delivery",
    "divisionname": "Bhatinda",
    "regionname": "Chandigarh Region",
    "circlename": "Punjab",
    "Taluk": "Bkh",
    "Districtname": "Mansa",
    "statename": "PUNJAB"
  },
  {
    "pincode": "151504",
    "officename": "Khiwa Khurd B.O",
    "officeType": "B.O",
    "Deliverystatus": "Delivery",
    "divisionname": "Bhatinda",
    "regionname": "Chandigarh Region",
    "circlename": "Punjab",
    "Taluk": "Bkh",
    "Districtname": "Mansa",
    "statename": "PUNJAB"
  },
  {
    "pincode": "151504",
    "officename": "Kotra Kalan B.O",
    "officeType": "B.O",
    "Deliverystatus": "Delivery",
    "divisionname": "Bhatinda",
    "regionname": "Chandigarh Region",
    "circlename": "Punjab",
    "Taluk": "Mansa",
    "Districtname": "Mansa",
    "statename": "PUNJAB"
  },
  {
    "pincode": "151504",
    "officename": "Makha Chelan B.O",
    "officeType": "B.O",
    "Deliverystatus": "Delivery",
    "divisionname": "Bhatinda",
    "regionname": "Chandigarh Region",
    "circlename": "Punjab",
    "Taluk": "Bkh",
    "Districtname": "Mansa",
    "statename": "PUNJAB"
  },
  {
    "pincode": "151504",
    "officename": "Matti B.O",
    "officeType": "B.O",
    "Deliverystatus": "Delivery",
    "divisionname": "Bhatinda",
    "regionname": "Chandigarh Region",
    "circlename": "Punjab",
    "Taluk": "Bkh",
    "Districtname": "Mansa",
    "statename": "PUNJAB"
  },
  {
    "pincode": "151504",
    "officename": "Samaon B.O",
    "officeType": "B.O",
    "Deliverystatus": "Delivery",
    "divisionname": "Bhatinda",
    "regionname": "Chandigarh Region",
    "circlename": "Punjab",
    "Taluk": "Bkh",
    "Districtname": "Mansa",
    "statename": "PUNJAB"
  }
]
