[
  {
    "pincode": "152032",
    "officename": "Bam B.O",
    "officeType": "B.O",
    "Deliverystatus": "Delivery",
    "divisionname": "Faridkot",
    "regionname": "Chandigarh Region",
    "circlename": "Punjab",
    "Taluk": "Malout",
    "Districtname": "Muktsar",
    "statename": "PUNJAB"
  },
  {
    "pincode": "152032",
    "officename": "Bhang Chari B.O",
    "officeType": "B.O",
    "Deliverystatus": "Delivery",
    "divisionname": "Faridkot",
    "regionname": "Chandigarh Region",
    "circlename": "Punjab",
    "Taluk": "Muktsar",
    "Districtname": "Muktsar",
    "statename": "PUNJAB"
  },
  {
    "pincode": "152032",
    "officename": "Chak Duhe Wala B.O",
    "officeType": "B.O",
    "Deliverystatus": "Delivery",
    "divisionname": "Faridkot",
    "regionname": "Chandigarh Region",
    "circlename": "Punjab",
    "Taluk": "Giddarbaha",
    "Districtname": "Muktsar",
    "statename": "PUNJAB"
  },
  {
    "pincode": "152032",
    "officename": "Chak Gilze Wala B.O",
    "officeType": "B.O",
    "Deliverystatus": "Delivery",
    "divisionname": "Faridkot",
    "regionname": "Chandigarh Region",
    "circlename": "Punjab",
    "Taluk": "Giddarbaha",
    "Districtname": "Muktsar",
    "statename": "PUNJAB"
  },
  {
    "pincode": "152032",
    "officename": "Chak Mahabaddar B.O",
    "officeType": "B.O",
    "Deliverystatus": "Delivery",
    "divisionname": "Faridkot",
    "regionname": "Chandigarh Region",
    "circlename": "Punjab",
    "Taluk": "Muktsar",
    "Districtname": "Muktsar",
    "statename": "PUNJAB"
  },
  {
    "pincode": "152032",
    "officename": "Chak Shere Wala B.O",
    "officeType": "B.O",
    "Deliverystatus": "Delivery",
    "divisionname": "Faridkot",
    "regionname": "Chandigarh Region",
    "circlename": "Punjab",
    "Taluk": "Muktsar",
    "Districtname": "Muktsar",
    "statename": "PUNJAB"
  },
  {
    "pincode": "152032",
    "officename": "Dhigana B.O",
    "officeType": "B.O",
    "Deliverystatus": "Delivery",
    "divisionname": "Faridkot",
    "regionname": "Chandigarh Region",
    "circlename": "Punjab",
    "Taluk": "Giddarbaha",
    "Districtname": "Muktsar",
    "statename": "PUNJAB"
  },
  {
    "pincode": "152032",
    "officename": "Mahabaddar B.O",
    "officeType": "B.O",
    "Deliverystatus": "Delivery",
    "divisionname": "Faridkot",
    "regionname": "Chandigarh Region",
    "circlename": "Punjab",
    "Taluk": "Muktsar",
    "Districtname": "Muktsar",
    "statename": "PUNJAB"
  },
  {
    "pincode": "152032",
    "officename": "Rupana S.O",
    "officeType": "S.O",
    "Deliverystatus": "Delivery",
    "divisionname": "Faridkot",
    "regionname": "Chandigarh Region",
    "circlename": "Punjab",
    "Taluk": "Muktsar",
    "Districtname": "Muktsar",
    "statename": "PUNJAB"
  },
  {
    "pincode": "152032",
    "officename": "Sotha B.O",
    "officeType": "B.O",
    "Deliverystatus": "Delivery",
    "divisionname": "Faridkot",
    "regionname": "Chandigarh Region",
    "circlename": "Punjab",
    "Taluk": "Giddarbaha",
    "Districtname": "Muktsar",
    "statename": "PUNJAB"
  },
  {
    "pincode": "152032",
    "officename": "Tamkot B.O",
    "officeType": "B.O",
    "Deliverystatus": "Delivery",
    "divisionname": "Faridkot",
    "regionname": "Chandigarh Region",
    "circlename": "Punjab",
    "Taluk": "Muktsar",
    "Districtname": "Muktsar",
    "statename": "PUNJAB"
  }
]
