[
  {
    "pincode": "152026",
    "officename": "Akalgarh B.O",
    "officeType": "B.O",
    "Deliverystatus": "Delivery",
    "divisionname": "Faridkot",
    "regionname": "Chandigarh Region",
    "circlename": "Punjab",
    "Taluk": "Muktsar",
    "Districtname": "Muktsar",
    "statename": "PUNJAB"
  },
  {
    "pincode": "152026",
    "officename": "Badhai B.O",
    "officeType": "B.O",
    "Deliverystatus": "Delivery",
    "divisionname": "Faridkot",
    "regionname": "Chandigarh Region",
    "circlename": "Punjab",
    "Taluk": "Muktsar",
    "Districtname": "Muktsar",
    "statename": "PUNJAB"
  },
  {
    "pincode": "152026",
    "officename": "Ballamgarh B.O",
    "officeType": "B.O",
    "Deliverystatus": "Delivery",
    "divisionname": "Faridkot",
    "regionname": "Chandigarh Region",
    "circlename": "Punjab",
    "Taluk": "Muktsar",
    "Districtname": "Muktsar",
    "statename": "PUNJAB"
  },
  {
    "pincode": "152026",
    "officename": "Bhagsar B.O",
    "officeType": "B.O",
    "Deliverystatus": "Delivery",
    "divisionname": "Faridkot",
    "regionname": "Chandigarh Region",
    "circlename": "Punjab",
    "Taluk": "Muktsar",
    "Districtname": "Muktsar",
    "statename": "PUNJAB"
  },
  {
    "pincode": "152026",
    "officename": "Goniana Village B.O",
    "officeType": "B.O",
    "Deliverystatus": "Delivery",
    "divisionname": "Faridkot",
    "regionname": "Chandigarh Region",
    "circlename": "Punjab",
    "Taluk": "Muktsar",
    "Districtname": "Muktsar",
    "statename": "PUNJAB"
  },
  {
    "pincode": "152026",
    "officename": "Jhabel Wali B.O",
    "officeType": "B.O",
    "Deliverystatus": "Delivery",
    "divisionname": "Faridkot",
    "regionname": "Chandigarh Region",
    "circlename": "Punjab",
    "Taluk": "Muktsar",
    "Districtname": "Muktsar",
    "statename": "PUNJAB"
  },
  {
    "pincode": "152026",
    "officename": "Kanianwali B.O",
    "officeType": "B.O",
    "Deliverystatus": "Delivery",
    "divisionname": "Faridkot",
    "regionname": "Chandigarh Region",
    "circlename": "Punjab",
    "Taluk": "Muktsar",
    "Districtname": "Muktsar",
    "statename": "PUNJAB"
  },
  {
    "pincode": "152026",
    "officename": "Lakhewali B.O",
    "officeType": "B.O",
    "Deliverystatus": "Delivery",
    "divisionname": "Faridkot",
    "regionname": "Chandigarh Region",
    "circlename": "Punjab",
    "Taluk": "Muktsar",
    "Districtname": "Muktsar",
    "statename": "PUNJAB"
  },
  {
    "pincode": "152026",
    "officename": "Lubanian B.O",
    "officeType": "B.O",
    "Deliverystatus": "Delivery",
    "divisionname": "Faridkot",
    "regionname": "Chandigarh Region",
    "circlename": "Punjab",
    "Taluk": "Muktsar",
    "Districtname": "Muktsar",
    "statename": "PUNJAB"
  },
  {
    "pincode": "152026",
    "officename": "Madrassa B.O",
    "officeType": "B.O",
    "Deliverystatus": "Delivery",
    "divisionname": "Faridkot",
    "regionname": "Chandigarh Region",
    "circlename": "Punjab",
    "Taluk": "Muktsar",
    "Districtname": "Muktsar",
    "statename": "PUNJAB"
  },
  {
    "pincode": "152026",
    "officename": "Mangatker B.O",
    "officeType": "B.O",
    "Deliverystatus": "Delivery",
    "divisionname": "Faridkot",
    "regionname": "Chandigarh Region",
    "circlename": "Punjab",
    "Taluk": "Muktsar",
    "Districtname": "Muktsar",
    "statename": "PUNJAB"
  },
  {
    "pincode": "152026",
    "officename": "Muktsar Kty S.O",
    "officeType": "S.O",
    "Deliverystatus": "Non-Delivery",
    "divisionname": "Faridkot",
    "regionname": "Chandigarh Region",
    "circlename": "Punjab",
    "Taluk": "Muktsar",
    "Districtname": "Muktsar",
    "statename": "PUNJAB"
  },
  {
    "pincode": "152026",
    "officename": "Muktsar S.O",
    "officeType": "S.O",
    "Deliverystatus": "Delivery",
    "divisionname": "Faridkot",
    "regionname": "Chandigarh Region",
    "circlename": "Punjab",
    "Taluk": "Muktsar",
    "Districtname": "Muktsar",
    "statename": "PUNJAB"
  },
  {
    "pincode": "152026",
    "officename": "Nand Garh B.O",
    "officeType": "B.O",
    "Deliverystatus": "Delivery",
    "divisionname": "Faridkot",
    "regionname": "Chandigarh Region",
    "circlename": "Punjab",
    "Taluk": "Muktsar",
    "Districtname": "Muktsar",
    "statename": "PUNJAB"
  },
  {
    "pincode": "152026",
    "officename": "Rahurian Wali B.O",
    "officeType": "B.O",
    "Deliverystatus": "Delivery",
    "divisionname": "Faridkot",
    "regionname": "Chandigarh Region",
    "circlename": "Punjab",
    "Taluk": "Muktsar",
    "Districtname": "Muktsar",
    "statename": "PUNJAB"
  },
  {
    "pincode": "152026",
    "officename": "Sammewali B.O",
    "officeType": "B.O",
    "Deliverystatus": "Delivery",
    "divisionname": "Faridkot",
    "regionname": "Chandigarh Region",
    "circlename": "Punjab",
    "Taluk": "Muktsar",
    "Districtname": "Muktsar",
    "statename": "PUNJAB"
  },
  {
    "pincode": "152026",
    "officename": "Sanghudhon B.O",
    "officeType": "B.O",
    "Deliverystatus": "Delivery",
    "divisionname": "Faridkot",
    "regionname": "Chandigarh Region",
    "circlename": "Punjab",
    "Taluk": "Muktsar",
    "Districtname": "Muktsar",
    "statename": "PUNJAB"
  },
  {
    "pincode": "152026",
    "officename": "Seerwali B.O",
    "officeType": "B.O",
    "Deliverystatus": "Delivery",
    "divisionname": "Faridkot",
    "regionname": "Chandigarh Region",
    "circlename": "Punjab",
    "Taluk": "Muktsar",
    "Districtname": "Muktsar",
    "statename": "PUNJAB"
  },
  {
    "pincode": "152026",
    "officename": "Thandewala B.O",
    "officeType": "B.O",
    "Deliverystatus": "Delivery",
    "divisionname": "Faridkot",
    "regionname": "Chandigarh Region",
    "circlename": "Punjab",
    "Taluk": "Muktsar",
    "Districtname": "Muktsar",
    "statename": "PUNJAB"
  },
  {
    "pincode": "152026",
    "officename": "Udekaran B.O",
    "officeType": "B.O",
    "Deliverystatus": "Delivery",
    "divisionname": "Faridkot",
    "regionname": "Chandigarh Region",
    "circlename": "Punjab",
    "Taluk": "Muktsar",
    "Districtname": "Muktsar",
    "statename": "PUNJAB"
  }
]
