[
  {
    "pincode": "152004",
    "officename": "Bazidpur B.O",
    "officeType": "B.O",
    "Deliverystatus": "Delivery",
    "divisionname": "Ferozpur",
    "regionname": "Chandigarh Region",
    "circlename": "Punjab",
    "Taluk": "Ferozepur",
    "Districtname": "Firozpur",
    "statename": "PUNJAB"
  },
  {
    "pincode": "152004",
    "officename": "Dastul Sahib B.O",
    "officeType": "B.O",
    "Deliverystatus": "Delivery",
    "divisionname": "Ferozpur",
    "regionname": "Chandigarh Region",
    "circlename": "Punjab",
    "Taluk": "Ferozepur",
    "Districtname": "Firozpur",
    "statename": "PUNJAB"
  },
  {
    "pincode": "152004",
    "officename": "Nurpur Sethan B.O",
    "officeType": "B.O",
    "Deliverystatus": "Delivery",
    "divisionname": "Ferozpur",
    "regionname": "Chandigarh Region",
    "circlename": "Punjab",
    "Taluk": "Firozepur",
    "Districtname": "Firozpur",
    "statename": "PUNJAB"
  },
  {
    "pincode": "152004",
    "officename": "Patel Nagar B.O",
    "officeType": "B.O",
    "Deliverystatus": "Delivery",
    "divisionname": "Ferozpur",
    "regionname": "Chandigarh Region",
    "circlename": "Punjab",
    "Taluk": "Firozepur",
    "Districtname": "Firozpur",
    "statename": "PUNJAB"
  },
  {
    "pincode": "152004",
    "officename": "Rukna Begu B.O",
    "officeType": "B.O",
    "Deliverystatus": "Delivery",
    "divisionname": "Ferozpur",
    "regionname": "Chandigarh Region",
    "circlename": "Punjab",
    "Taluk": "Ferozepur",
    "Districtname": "Firozpur",
    "statename": "PUNJAB"
  },
  {
    "pincode": "152004",
    "officename": "S.B.S Engg Colleger Ferozpeur S.O",
    "officeType": "S.O",
    "Deliverystatus": "Delivery",
    "divisionname": "Ferozpur",
    "regionname": "Chandigarh Region",
    "circlename": "Punjab",
    "Taluk": "Firozepur",
    "Districtname": "Firozpur",
    "statename": "PUNJAB"
  },
  {
    "pincode": "152004",
    "officename": "Saidanwala B.O",
    "officeType": "B.O",
    "Deliverystatus": "Delivery",
    "divisionname": "Ferozpur",
    "regionname": "Chandigarh Region",
    "circlename": "Punjab",
    "Taluk": "Firozepur",
    "Districtname": "Firozpur",
    "statename": "PUNJAB"
  },
  {
    "pincode": "152004",
    "officename": "Sayianwala B.O",
    "officeType": "B.O",
    "Deliverystatus": "Delivery",
    "divisionname": "Ferozpur",
    "regionname": "Chandigarh Region",
    "circlename": "Punjab",
    "Taluk": "Ferozepur",
    "Districtname": "Firozpur",
    "statename": "PUNJAB"
  },
  {
    "pincode": "152004",
    "officename": "Toot B.O",
    "officeType": "B.O",
    "Deliverystatus": "Delivery",
    "divisionname": "Ferozpur",
    "regionname": "Chandigarh Region",
    "circlename": "Punjab",
    "Taluk": "Ferozepur",
    "Districtname": "Firozpur",
    "statename": "PUNJAB"
  }
]
