[
  {
    "pincode": "152005",
    "officename": "Bharana B.O",
    "officeType": "B.O",
    "Deliverystatus": "Delivery",
    "divisionname": "Ferozpur",
    "regionname": "Chandigarh Region",
    "circlename": "Punjab",
    "Taluk": "Zira",
    "Districtname": "Firozpur",
    "statename": "PUNJAB"
  },
  {
    "pincode": "152005",
    "officename": "Chugatte Wala B.O",
    "officeType": "B.O",
    "Deliverystatus": "Delivery",
    "divisionname": "Ferozpur",
    "regionname": "Chandigarh Region",
    "circlename": "Punjab",
    "Taluk": "Zira",
    "Districtname": "Firozpur",
    "statename": "PUNJAB"
  },
  {
    "pincode": "152005",
    "officename": "Faridewala B.O",
    "officeType": "B.O",
    "Deliverystatus": "Delivery",
    "divisionname": "Ferozpur",
    "regionname": "Chandigarh Region",
    "circlename": "Punjab",
    "Taluk": "Fazilka",
    "Districtname": "Firozpur",
    "statename": "PUNJAB"
  },
  {
    "pincode": "152005",
    "officename": "Khosa Dal Singh B.O",
    "officeType": "B.O",
    "Deliverystatus": "Delivery",
    "divisionname": "Ferozpur",
    "regionname": "Chandigarh Region",
    "circlename": "Punjab",
    "Taluk": "Zira",
    "Districtname": "Firozpur",
    "statename": "PUNJAB"
  },
  {
    "pincode": "152005",
    "officename": "Lohgarh Thakran B.O",
    "officeType": "B.O",
    "Deliverystatus": "Delivery",
    "divisionname": "Ferozpur",
    "regionname": "Chandigarh Region",
    "circlename": "Punjab",
    "Taluk": "Firozpur",
    "Districtname": "Firozpur",
    "statename": "PUNJAB"
  },
  {
    "pincode": "152005",
    "officename": "Sandhe Hasham B.O",
    "officeType": "B.O",
    "Deliverystatus": "Delivery",
    "divisionname": "Ferozpur",
    "regionname": "Chandigarh Region",
    "circlename": "Punjab",
    "Taluk": "Ferozepur",
    "Districtname": "Firozpur",
    "statename": "PUNJAB"
  },
  {
    "pincode": "152005",
    "officename": "Sherkhan Wala S.O",
    "officeType": "S.O",
    "Deliverystatus": "Delivery",
    "divisionname": "Ferozpur",
    "regionname": "Chandigarh Region",
    "circlename": "Punjab",
    "Taluk": "Firozpur",
    "Districtname": "Firozpur",
    "statename": "PUNJAB"
  },
  {
    "pincode": "152005",
    "officename": "Sodhi Nagar B.O",
    "officeType": "B.O",
    "Deliverystatus": "Delivery",
    "divisionname": "Ferozpur",
    "regionname": "Chandigarh Region",
    "circlename": "Punjab",
    "Taluk": "Ferozepur",
    "Districtname": "Firozpur",
    "statename": "PUNJAB"
  }
]
