[
  {
    "pincode": "152025",
    "officename": "Assa Buttar B.O",
    "officeType": "B.O",
    "Deliverystatus": "Delivery",
    "divisionname": "Faridkot",
    "regionname": "Chandigarh Region",
    "circlename": "Punjab",
    "Taluk": "Giddarbaha",
    "Districtname": "Muktsar",
    "statename": "PUNJAB"
  },
  {
    "pincode": "152025",
    "officename": "Bariwala S.O",
    "officeType": "S.O",
    "Deliverystatus": "Delivery",
    "divisionname": "Faridkot",
    "regionname": "Chandigarh Region",
    "circlename": "Punjab",
    "Taluk": "",
    "Districtname": "Muktsar",
    "statename": "PUNJAB"
  },
  {
    "pincode": "152025",
    "officename": "Bhutti Wala B.O",
    "officeType": "B.O",
    "Deliverystatus": "Delivery",
    "divisionname": "Faridkot",
    "regionname": "Chandigarh Region",
    "circlename": "Punjab",
    "Taluk": "Giddarbaha",
    "Districtname": "Muktsar",
    "statename": "PUNJAB"
  },
  {
    "pincode": "152025",
    "officename": "Hari Ke Kalan B.O",
    "officeType": "B.O",
    "Deliverystatus": "Delivery",
    "divisionname": "Faridkot",
    "regionname": "Chandigarh Region",
    "circlename": "Punjab",
    "Taluk": "Muktsar",
    "Districtname": "Muktsar",
    "statename": "PUNJAB"
  },
  {
    "pincode": "152025",
    "officename": "Khara B.O",
    "officeType": "B.O",
    "Deliverystatus": "Delivery",
    "divisionname": "Faridkot",
    "regionname": "Chandigarh Region",
    "circlename": "Punjab",
    "Taluk": "Faridkot",
    "Districtname": "Faridkot",
    "statename": "PUNJAB"
  },
  {
    "pincode": "152025",
    "officename": "Khokhar B.O",
    "officeType": "B.O",
    "Deliverystatus": "Delivery",
    "divisionname": "Faridkot",
    "regionname": "Chandigarh Region",
    "circlename": "Punjab",
    "Taluk": "Muktsar",
    "Districtname": "Muktsar",
    "statename": "PUNJAB"
  },
  {
    "pincode": "152025",
    "officename": "Sarai Naga B.O",
    "officeType": "B.O",
    "Deliverystatus": "Delivery",
    "divisionname": "Faridkot",
    "regionname": "Chandigarh Region",
    "circlename": "Punjab",
    "Taluk": "Muktsar",
    "Districtname": "Muktsar",
    "statename": "PUNJAB"
  },
  {
    "pincode": "152025",
    "officename": "Sure Wala B.O",
    "officeType": "B.O",
    "Deliverystatus": "Delivery",
    "divisionname": "Faridkot",
    "regionname": "Chandigarh Region",
    "circlename": "Punjab",
    "Taluk": "Giddarbaha",
    "Districtname": "Muktsar",
    "statename": "PUNJAB"
  }
]
