[
  {
    "pincode": "152124",
    "officename": "Arniwala Sheikh Subhan S.O",
    "officeType": "S.O",
    "Deliverystatus": "Delivery",
    "divisionname": "Ferozpur",
    "regionname": "Chandigarh Region",
    "circlename": "Punjab",
    "Taluk": "Fazilka",
    "Districtname": "Firozpur",
    "statename": "PUNJAB"
  },
  {
    "pincode": "152124",
    "officename": "Aslamwala B.O",
    "officeType": "B.O",
    "Deliverystatus": "Delivery",
    "divisionname": "Ferozpur",
    "regionname": "Chandigarh Region",
    "circlename": "Punjab",
    "Taluk": "Fazilka",
    "Districtname": "Firozpur",
    "statename": "PUNJAB"
  },
  {
    "pincode": "152124",
    "officename": "Dabwala Kalan B.O",
    "officeType": "B.O",
    "Deliverystatus": "Delivery",
    "divisionname": "Ferozpur",
    "regionname": "Chandigarh Region",
    "circlename": "Punjab",
    "Taluk": "Fazilka",
    "Districtname": "Firozpur",
    "statename": "PUNJAB"
  },
  {
    "pincode": "152124",
    "officename": "Dhippanwali B.O",
    "officeType": "B.O",
    "Deliverystatus": "Delivery",
    "divisionname": "Ferozpur",
    "regionname": "Chandigarh Region",
    "circlename": "Punjab",
    "Taluk": "Fazilka",
    "Districtname": "Firozpur",
    "statename": "PUNJAB"
  },
  {
    "pincode": "152124",
    "officename": "Ghattianwali Jattan B.O",
    "officeType": "B.O",
    "Deliverystatus": "Delivery",
    "divisionname": "Ferozpur",
    "regionname": "Chandigarh Region",
    "circlename": "Punjab",
    "Taluk": "Fazilka",
    "Districtname": "Firozpur",
    "statename": "PUNJAB"
  },
  {
    "pincode": "152124",
    "officename": "Jandwala Bhimeshah B.O",
    "officeType": "B.O",
    "Deliverystatus": "Delivery",
    "divisionname": "Ferozpur",
    "regionname": "Chandigarh Region",
    "circlename": "Punjab",
    "Taluk": "Fazilka",
    "Districtname": "Firozpur",
    "statename": "PUNJAB"
  },
  {
    "pincode": "152124",
    "officename": "Jhottianwali B.O",
    "officeType": "B.O",
    "Deliverystatus": "Delivery",
    "divisionname": "Ferozpur",
    "regionname": "Chandigarh Region",
    "circlename": "Punjab",
    "Taluk": "Fazilka",
    "Districtname": "Firozpur",
    "statename": "PUNJAB"
  },
  {
    "pincode": "152124",
    "officename": "Kandhwala Amarkot B.O",
    "officeType": "B.O",
    "Deliverystatus": "Delivery",
    "divisionname": "Ferozpur",
    "regionname": "Chandigarh Region",
    "circlename": "Punjab",
    "Taluk": "",
    "Districtname": "Firozpur",
    "statename": "PUNJAB"
  },
  {
    "pincode": "152124",
    "officename": "Mahuana Bodla B.O",
    "officeType": "B.O",
    "Deliverystatus": "Delivery",
    "divisionname": "Ferozpur",
    "regionname": "Chandigarh Region",
    "circlename": "Punjab",
    "Taluk": "Fazilka",
    "Districtname": "Firozpur",
    "statename": "PUNJAB"
  },
  {
    "pincode": "152124",
    "officename": "Mullianwali B.O",
    "officeType": "B.O",
    "Deliverystatus": "Delivery",
    "divisionname": "Ferozpur",
    "regionname": "Chandigarh Region",
    "circlename": "Punjab",
    "Taluk": "Fazilka",
    "Districtname": "Firozpur",
    "statename": "PUNJAB"
  },
  {
    "pincode": "152124",
    "officename": "Pakkan B.O",
    "officeType": "B.O",
    "Deliverystatus": "Delivery",
    "divisionname": "Ferozpur",
    "regionname": "Chandigarh Region",
    "circlename": "Punjab",
    "Taluk": "Fazilka",
    "Districtname": "Firozpur",
    "statename": "PUNJAB"
  },
  {
    "pincode": "152124",
    "officename": "Tahliwal Bodla B.O",
    "officeType": "B.O",
    "Deliverystatus": "Delivery",
    "divisionname": "Ferozpur",
    "regionname": "Chandigarh Region",
    "circlename": "Punjab",
    "Taluk": "Fazilka",
    "Districtname": "Firozpur",
    "statename": "PUNJAB"
  },
  {
    "pincode": "152124",
    "officename": "Tahliwala Jattan B.O",
    "officeType": "B.O",
    "Deliverystatus": "Delivery",
    "divisionname": "Ferozpur",
    "regionname": "Chandigarh Region",
    "circlename": "Punjab",
    "Taluk": "Fazilka",
    "Districtname": "Firozpur",
    "statename": "PUNJAB"
  }
]
