[
  {
    "pincode": "152112",
    "officename": "Badian B.O",
    "officeType": "B.O",
    "Deliverystatus": "Delivery",
    "divisionname": "Faridkot",
    "regionname": "Chandigarh Region",
    "circlename": "Punjab",
    "Taluk": "Giddarbaha",
    "Districtname": "Muktsar",
    "statename": "PUNJAB"
  },
  {
    "pincode": "152112",
    "officename": "Bhallerian B.O",
    "officeType": "B.O",
    "Deliverystatus": "Delivery",
    "divisionname": "Faridkot",
    "regionname": "Chandigarh Region",
    "circlename": "Punjab",
    "Taluk": "Malout",
    "Districtname": "Muktsar",
    "statename": "PUNJAB"
  },
  {
    "pincode": "152112",
    "officename": "Bhundar B.O",
    "officeType": "B.O",
    "Deliverystatus": "Delivery",
    "divisionname": "Faridkot",
    "regionname": "Chandigarh Region",
    "circlename": "Punjab",
    "Taluk": "Giddarbaha",
    "Districtname": "Muktsar",
    "statename": "PUNJAB"
  },
  {
    "pincode": "152112",
    "officename": "Ena Khera B.O",
    "officeType": "B.O",
    "Deliverystatus": "Delivery",
    "divisionname": "Faridkot",
    "regionname": "Chandigarh Region",
    "circlename": "Punjab",
    "Taluk": "Malout",
    "Districtname": "Muktsar",
    "statename": "PUNJAB"
  },
  {
    "pincode": "152112",
    "officename": "Gurusar B.O",
    "officeType": "B.O",
    "Deliverystatus": "Delivery",
    "divisionname": "Faridkot",
    "regionname": "Chandigarh Region",
    "circlename": "Punjab",
    "Taluk": "Malout",
    "Districtname": "Muktsar",
    "statename": "PUNJAB"
  },
  {
    "pincode": "152112",
    "officename": "Jhurar B.O",
    "officeType": "B.O",
    "Deliverystatus": "Delivery",
    "divisionname": "Faridkot",
    "regionname": "Chandigarh Region",
    "circlename": "Punjab",
    "Taluk": "Malout",
    "Districtname": "Muktsar",
    "statename": "PUNJAB"
  },
  {
    "pincode": "152112",
    "officename": "Khane Ki Dhab B.O",
    "officeType": "B.O",
    "Deliverystatus": "Delivery",
    "divisionname": "Faridkot",
    "regionname": "Chandigarh Region",
    "circlename": "Punjab",
    "Taluk": "Malout",
    "Districtname": "Muktsar",
    "statename": "PUNJAB"
  },
  {
    "pincode": "152112",
    "officename": "Khunana Kalan B.O",
    "officeType": "B.O",
    "Deliverystatus": "Delivery",
    "divisionname": "Faridkot",
    "regionname": "Chandigarh Region",
    "circlename": "Punjab",
    "Taluk": "Malout",
    "Districtname": "Muktsar",
    "statename": "PUNJAB"
  },
  {
    "pincode": "152112",
    "officename": "Kuraiwala B.O",
    "officeType": "B.O",
    "Deliverystatus": "Delivery",
    "divisionname": "Faridkot",
    "regionname": "Chandigarh Region",
    "circlename": "Punjab",
    "Taluk": "Giddarbaha",
    "Districtname": "Muktsar",
    "statename": "PUNJAB"
  },
  {
    "pincode": "152112",
    "officename": "Lakkarwala B.O",
    "officeType": "B.O",
    "Deliverystatus": "Delivery",
    "divisionname": "Faridkot",
    "regionname": "Chandigarh Region",
    "circlename": "Punjab",
    "Taluk": "Malout",
    "Districtname": "Muktsar",
    "statename": "PUNJAB"
  },
  {
    "pincode": "152112",
    "officename": "Malwala Katorewala B.O",
    "officeType": "B.O",
    "Deliverystatus": "Delivery",
    "divisionname": "Faridkot",
    "regionname": "Chandigarh Region",
    "circlename": "Punjab",
    "Taluk": "Malout",
    "Districtname": "Muktsar",
    "statename": "PUNJAB"
  },
  {
    "pincode": "152112",
    "officename": "Ram Nagar S.O (Muktsar)",
    "officeType": "S.O",
    "Deliverystatus": "Delivery",
    "divisionname": "Faridkot",
    "regionname": "Chandigarh Region",
    "circlename": "Punjab",
    "Taluk": "Malout",
    "Districtname": "Muktsar",
    "statename": "PUNJAB"
  },
  {
    "pincode": "152112",
    "officename": "Tarkhan Wala B.O",
    "officeType": "B.O",
    "Deliverystatus": "Delivery",
    "divisionname": "Faridkot",
    "regionname": "Chandigarh Region",
    "circlename": "Punjab",
    "Taluk": "Malout",
    "Districtname": "Muktsar",
    "statename": "PUNJAB"
  }
]
