[
  {
    "pincode": "152116",
    "officename": "Abohar Mandi S.O",
    "officeType": "S.O",
    "Deliverystatus": "Non-Delivery",
    "divisionname": "Ferozpur",
    "regionname": "Chandigarh Region",
    "circlename": "Punjab",
    "Taluk": "Abohar",
    "Districtname": "Firozpur",
    "statename": "PUNJAB"
  },
  {
    "pincode": "152116",
    "officename": "Abohar S.O",
    "officeType": "S.O",
    "Deliverystatus": "Delivery",
    "divisionname": "Ferozpur",
    "regionname": "Chandigarh Region",
    "circlename": "Punjab",
    "Taluk": "Abohar",
    "Districtname": "Firozpur",
    "statename": "PUNJAB"
  },
  {
    "pincode": "152116",
    "officename": "Alamgarh B.O",
    "officeType": "B.O",
    "Deliverystatus": "Delivery",
    "divisionname": "Ferozpur",
    "regionname": "Chandigarh Region",
    "circlename": "Punjab",
    "Taluk": "",
    "Districtname": "Firozpur",
    "statename": "PUNJAB"
  },
  {
    "pincode": "152116",
    "officename": "Bazidpur Bhooma B.O",
    "officeType": "B.O",
    "Deliverystatus": "Delivery",
    "divisionname": "Ferozpur",
    "regionname": "Chandigarh Region",
    "circlename": "Punjab",
    "Taluk": "Abohar",
    "Districtname": "Firozpur",
    "statename": "PUNJAB"
  },
  {
    "pincode": "152116",
    "officename": "Bhagoo B.O",
    "officeType": "B.O",
    "Deliverystatus": "Delivery",
    "divisionname": "Ferozpur",
    "regionname": "Chandigarh Region",
    "circlename": "Punjab",
    "Taluk": "Abohar",
    "Districtname": "Firozpur",
    "statename": "PUNJAB"
  },
  {
    "pincode": "152116",
    "officename": "Burj Mohar B.O",
    "officeType": "B.O",
    "Deliverystatus": "Delivery",
    "divisionname": "Ferozpur",
    "regionname": "Chandigarh Region",
    "circlename": "Punjab",
    "Taluk": "Abohar",
    "Districtname": "Firozpur",
    "statename": "PUNJAB"
  },
  {
    "pincode": "152116",
    "officename": "Dodewala B.O",
    "officeType": "B.O",
    "Deliverystatus": "Delivery",
    "divisionname": "Ferozpur",
    "regionname": "Chandigarh Region",
    "circlename": "Punjab",
    "Taluk": "Abohar",
    "Districtname": "Firozpur",
    "statename": "PUNJAB"
  },
  {
    "pincode": "152116",
    "officename": "Dutaran Wala B.O",
    "officeType": "B.O",
    "Deliverystatus": "Delivery",
    "divisionname": "Ferozpur",
    "regionname": "Chandigarh Region",
    "circlename": "Punjab",
    "Taluk": "Abohar",
    "Districtname": "Firozpur",
    "statename": "PUNJAB"
  },
  {
    "pincode": "152116",
    "officename": "Govt Seed Form B.O",
    "officeType": "B.O",
    "Deliverystatus": "Delivery",
    "divisionname": "Ferozpur",
    "regionname": "Chandigarh Region",
    "circlename": "Punjab",
    "Taluk": "Abohar",
    "Districtname": "Firozpur",
    "statename": "PUNJAB"
  },
  {
    "pincode": "152116",
    "officename": "Himatpura B.O",
    "officeType": "B.O",
    "Deliverystatus": "Delivery",
    "divisionname": "Ferozpur",
    "regionname": "Chandigarh Region",
    "circlename": "Punjab",
    "Taluk": "Abohar",
    "Districtname": "Firozpur",
    "statename": "PUNJAB"
  },
  {
    "pincode": "152116",
    "officename": "Jhurar Khera B.O",
    "officeType": "B.O",
    "Deliverystatus": "Delivery",
    "divisionname": "Ferozpur",
    "regionname": "Chandigarh Region",
    "circlename": "Punjab",
    "Taluk": "Abohar",
    "Districtname": "Firozpur",
    "statename": "PUNJAB"
  },
  {
    "pincode": "152116",
    "officename": "Kandwala Amarkot B.O",
    "officeType": "B.O",
    "Deliverystatus": "Delivery",
    "divisionname": "Ferozpur",
    "regionname": "Chandigarh Region",
    "circlename": "Punjab",
    "Taluk": "Abohar",
    "Districtname": "Firozpur",
    "statename": "PUNJAB"
  },
  {
    "pincode": "152116",
    "officename": "Khairpur B.O",
    "officeType": "B.O",
    "Deliverystatus": "Delivery",
    "divisionname": "Ferozpur",
    "regionname": "Chandigarh Region",
    "circlename": "Punjab",
    "Taluk": "Abohar",
    "Districtname": "Firozpur",
    "statename": "PUNJAB"
  },
  {
    "pincode": "152116",
    "officename": "Khuban B.O",
    "officeType": "B.O",
    "Deliverystatus": "Delivery",
    "divisionname": "Ferozpur",
    "regionname": "Chandigarh Region",
    "circlename": "Punjab",
    "Taluk": "Abohar",
    "Districtname": "Firozpur",
    "statename": "PUNJAB"
  },
  {
    "pincode": "152116",
    "officename": "Kikar Khera B.O",
    "officeType": "B.O",
    "Deliverystatus": "Delivery",
    "divisionname": "Ferozpur",
    "regionname": "Chandigarh Region",
    "circlename": "Punjab",
    "Taluk": "Abohar",
    "Districtname": "Firozpur",
    "statename": "PUNJAB"
  },
  {
    "pincode": "152116",
    "officename": "Krishna Nagari Abohar S.O",
    "officeType": "S.O",
    "Deliverystatus": "Non-Delivery",
    "divisionname": "Ferozpur",
    "regionname": "Chandigarh Region",
    "circlename": "Punjab",
    "Taluk": "Abohar",
    "Districtname": "Firozpur",
    "statename": "PUNJAB"
  },
  {
    "pincode": "152116",
    "officename": "Kular B.O",
    "officeType": "B.O",
    "Deliverystatus": "Delivery",
    "divisionname": "Ferozpur",
    "regionname": "Chandigarh Region",
    "circlename": "Punjab",
    "Taluk": "Abohar",
    "Districtname": "Firozpur",
    "statename": "PUNJAB"
  },
  {
    "pincode": "152116",
    "officename": "Mehrana B.O",
    "officeType": "B.O",
    "Deliverystatus": "Delivery",
    "divisionname": "Ferozpur",
    "regionname": "Chandigarh Region",
    "circlename": "Punjab",
    "Taluk": "Abohar",
    "Districtname": "Firozpur",
    "statename": "PUNJAB"
  },
  {
    "pincode": "152116",
    "officename": "Nai Abadi Abohar S.O",
    "officeType": "S.O",
    "Deliverystatus": "Non-Delivery",
    "divisionname": "Ferozpur",
    "regionname": "Chandigarh Region",
    "circlename": "Punjab",
    "Taluk": "Abohar",
    "Districtname": "Firozpur",
    "statename": "PUNJAB"
  },
  {
    "pincode": "152116",
    "officename": "New Grain Market Abohar S.O",
    "officeType": "S.O",
    "Deliverystatus": "Non-Delivery",
    "divisionname": "Ferozpur",
    "regionname": "Chandigarh Region",
    "circlename": "Punjab",
    "Taluk": "Abohar",
    "Districtname": "Firozpur",
    "statename": "PUNJAB"
  },
  {
    "pincode": "152116",
    "officename": "Patti Sadiq B.O",
    "officeType": "B.O",
    "Deliverystatus": "Delivery",
    "divisionname": "Ferozpur",
    "regionname": "Chandigarh Region",
    "circlename": "Punjab",
    "Taluk": "Abohar",
    "Districtname": "Firozpur",
    "statename": "PUNJAB"
  },
  {
    "pincode": "152116",
    "officename": "Raipura B.O",
    "officeType": "B.O",
    "Deliverystatus": "Delivery",
    "divisionname": "Ferozpur",
    "regionname": "Chandigarh Region",
    "circlename": "Punjab",
    "Taluk": "Abohar",
    "Districtname": "Firozpur",
    "statename": "PUNJAB"
  },
  {
    "pincode": "152116",
    "officename": "Rajanwali B.O",
    "officeType": "B.O",
    "Deliverystatus": "Delivery",
    "divisionname": "Ferozpur",
    "regionname": "Chandigarh Region",
    "circlename": "Punjab",
    "Taluk": "Aboahr",
    "Districtname": "Firozpur",
    "statename": "PUNJAB"
  },
  {
    "pincode": "152116",
    "officename": "Rajpura B.O",
    "officeType": "B.O",
    "Deliverystatus": "Delivery",
    "divisionname": "Ferozpur",
    "regionname": "Chandigarh Region",
    "circlename": "Punjab",
    "Taluk": "Abohar",
    "Districtname": "Firozpur",
    "statename": "PUNJAB"
  },
  {
    "pincode": "152116",
    "officename": "Rampura B.O",
    "officeType": "B.O",
    "Deliverystatus": "Delivery",
    "divisionname": "Ferozpur",
    "regionname": "Chandigarh Region",
    "circlename": "Punjab",
    "Taluk": "Abohar",
    "Districtname": "Firozpur",
    "statename": "PUNJAB"
  },
  {
    "pincode": "152116",
    "officename": "Ramsara B.O",
    "officeType": "B.O",
    "Deliverystatus": "Delivery",
    "divisionname": "Ferozpur",
    "regionname": "Chandigarh Region",
    "circlename": "Punjab",
    "Taluk": "Abohar",
    "Districtname": "Firozpur",
    "statename": "PUNJAB"
  },
  {
    "pincode": "152116",
    "officename": "Rukanpura B.O",
    "officeType": "B.O",
    "Deliverystatus": "Delivery",
    "divisionname": "Ferozpur",
    "regionname": "Chandigarh Region",
    "circlename": "Punjab",
    "Taluk": "Abohar",
    "Districtname": "Firozpur",
    "statename": "PUNJAB"
  },
  {
    "pincode": "152116",
    "officename": "Sardarpura B.O",
    "officeType": "B.O",
    "Deliverystatus": "Delivery",
    "divisionname": "Ferozpur",
    "regionname": "Chandigarh Region",
    "circlename": "Punjab",
    "Taluk": "Abohar",
    "Districtname": "Firozpur",
    "statename": "PUNJAB"
  },
  {
    "pincode": "152116",
    "officename": "Sherewala B.O",
    "officeType": "B.O",
    "Deliverystatus": "Delivery",
    "divisionname": "Ferozpur",
    "regionname": "Chandigarh Region",
    "circlename": "Punjab",
    "Taluk": "Fazilka",
    "Districtname": "Firozpur",
    "statename": "PUNJAB"
  },
  {
    "pincode": "152116",
    "officename": "Sitto Gunno B.O",
    "officeType": "B.O",
    "Deliverystatus": "Delivery",
    "divisionname": "Ferozpur",
    "regionname": "Chandigarh Region",
    "circlename": "Punjab",
    "Taluk": "Abohar",
    "Districtname": "Firozpur",
    "statename": "PUNJAB"
  },
  {
    "pincode": "152116",
    "officename": "Wahabwala B.O",
    "officeType": "B.O",
    "Deliverystatus": "Delivery",
    "divisionname": "Ferozpur",
    "regionname": "Chandigarh Region",
    "circlename": "Punjab",
    "Taluk": "Abohar",
    "Districtname": "Firozpur",
    "statename": "PUNJAB"
  },
  {
    "pincode": "152116",
    "officename": "Waryam Khera B.O",
    "officeType": "B.O",
    "Deliverystatus": "Delivery",
    "divisionname": "Ferozpur",
    "regionname": "Chandigarh Region",
    "circlename": "Punjab",
    "Taluk": "Abohar",
    "Districtname": "Firozpur",
    "statename": "PUNJAB"
  }
]
