[
  {
    "pincode": "152107",
    "officename": "Bhagwanpura B.O",
    "officeType": "B.O",
    "Deliverystatus": "Delivery",
    "divisionname": "Faridkot",
    "regionname": "Chandigarh Region",
    "circlename": "Punjab",
    "Taluk": "Malout",
    "Districtname": "Muktsar",
    "statename": "PUNJAB"
  },
  {
    "pincode": "152107",
    "officename": "Burj Sidhwan B.O",
    "officeType": "B.O",
    "Deliverystatus": "Delivery",
    "divisionname": "Faridkot",
    "regionname": "Chandigarh Region",
    "circlename": "Punjab",
    "Taluk": "Malout",
    "Districtname": "Muktsar",
    "statename": "PUNJAB"
  },
  {
    "pincode": "152107",
    "officename": "Chappian B.O",
    "officeType": "B.O",
    "Deliverystatus": "Delivery",
    "divisionname": "Faridkot",
    "regionname": "Chandigarh Region",
    "circlename": "Punjab",
    "Taluk": "Malout",
    "Districtname": "Muktsar",
    "statename": "PUNJAB"
  },
  {
    "pincode": "152107",
    "officename": "Dabwali Rahurianwali B.O",
    "officeType": "B.O",
    "Deliverystatus": "Delivery",
    "divisionname": "Faridkot",
    "regionname": "Chandigarh Region",
    "circlename": "Punjab",
    "Taluk": "Malout",
    "Districtname": "Muktsar",
    "statename": "PUNJAB"
  },
  {
    "pincode": "152107",
    "officename": "Faqarsar B.O",
    "officeType": "B.O",
    "Deliverystatus": "Delivery",
    "divisionname": "Faridkot",
    "regionname": "Chandigarh Region",
    "circlename": "Punjab",
    "Taluk": "Giddarbaha",
    "Districtname": "Muktsar",
    "statename": "PUNJAB"
  },
  {
    "pincode": "152107",
    "officename": "Ghumiara Khera B.O",
    "officeType": "B.O",
    "Deliverystatus": "Delivery",
    "divisionname": "Faridkot",
    "regionname": "Chandigarh Region",
    "circlename": "Punjab",
    "Taluk": "Malout",
    "Districtname": "Muktsar",
    "statename": "PUNJAB"
  },
  {
    "pincode": "152107",
    "officename": "Jand Wala Chadat Singh B.O",
    "officeType": "B.O",
    "Deliverystatus": "Delivery",
    "divisionname": "Faridkot",
    "regionname": "Chandigarh Region",
    "circlename": "Punjab",
    "Taluk": "Malout",
    "Districtname": "Muktsar",
    "statename": "PUNJAB"
  },
  {
    "pincode": "152107",
    "officename": "Malout S.O",
    "officeType": "S.O",
    "Deliverystatus": "Delivery",
    "divisionname": "Faridkot",
    "regionname": "Chandigarh Region",
    "circlename": "Punjab",
    "Taluk": "Malout",
    "Districtname": "Muktsar",
    "statename": "PUNJAB"
  },
  {
    "pincode": "152107",
    "officename": "Malout Village B.O",
    "officeType": "B.O",
    "Deliverystatus": "Delivery",
    "divisionname": "Faridkot",
    "regionname": "Chandigarh Region",
    "circlename": "Punjab",
    "Taluk": "Malout",
    "Districtname": "Muktsar",
    "statename": "PUNJAB"
  },
  {
    "pincode": "152107",
    "officename": "Virk Khera B.O",
    "officeType": "B.O",
    "Deliverystatus": "Delivery",
    "divisionname": "Faridkot",
    "regionname": "Chandigarh Region",
    "circlename": "Punjab",
    "Taluk": "Malout",
    "Districtname": "Muktsar",
    "statename": "PUNJAB"
  }
]
