[
  {
    "pincode": "152132",
    "officename": "Bhangar Khera B.O",
    "officeType": "B.O",
    "Deliverystatus": "Delivery",
    "divisionname": "Ferozpur",
    "regionname": "Chandigarh Region",
    "circlename": "Punjab",
    "Taluk": "Abohar",
    "Districtname": "Firozpur",
    "statename": "PUNJAB"
  },
  {
    "pincode": "152132",
    "officename": "Dalmir Khera B.O",
    "officeType": "B.O",
    "Deliverystatus": "Delivery",
    "divisionname": "Ferozpur",
    "regionname": "Chandigarh Region",
    "circlename": "Punjab",
    "Taluk": "Abohar",
    "Districtname": "Firozpur",
    "statename": "PUNJAB"
  },
  {
    "pincode": "152132",
    "officename": "Dhigan Wali B.O",
    "officeType": "B.O",
    "Deliverystatus": "Delivery",
    "divisionname": "Ferozpur",
    "regionname": "Chandigarh Region",
    "circlename": "Punjab",
    "Taluk": "Abohar",
    "Districtname": "Firozpur",
    "statename": "PUNJAB"
  },
  {
    "pincode": "152132",
    "officename": "Giddranwali B.O",
    "officeType": "B.O",
    "Deliverystatus": "Delivery",
    "divisionname": "Ferozpur",
    "regionname": "Chandigarh Region",
    "circlename": "Punjab",
    "Taluk": "Abohar",
    "Districtname": "Firozpur",
    "statename": "PUNJAB"
  },
  {
    "pincode": "152132",
    "officename": "Gumjal B.O",
    "officeType": "B.O",
    "Deliverystatus": "Delivery",
    "divisionname": "Ferozpur",
    "regionname": "Chandigarh Region",
    "circlename": "Punjab",
    "Taluk": "Abohar",
    "Districtname": "Firozpur",
    "statename": "PUNJAB"
  },
  {
    "pincode": "152132",
    "officename": "Jandwala Hanumanta B.O",
    "officeType": "B.O",
    "Deliverystatus": "Delivery",
    "divisionname": "Ferozpur",
    "regionname": "Chandigarh Region",
    "circlename": "Punjab",
    "Taluk": "Abohar",
    "Districtname": "Firozpur",
    "statename": "PUNJAB"
  },
  {
    "pincode": "152132",
    "officename": "Maujgarh S.O",
    "officeType": "S.O",
    "Deliverystatus": "Delivery",
    "divisionname": "Ferozpur",
    "regionname": "Chandigarh Region",
    "circlename": "Punjab",
    "Taluk": "Abohar",
    "Districtname": "Firozpur",
    "statename": "PUNJAB"
  },
  {
    "pincode": "152132",
    "officename": "Panjawan Mandal B.O",
    "officeType": "B.O",
    "Deliverystatus": "Delivery",
    "divisionname": "Ferozpur",
    "regionname": "Chandigarh Region",
    "circlename": "Punjab",
    "Taluk": "Abohar",
    "Districtname": "Firozpur",
    "statename": "PUNJAB"
  },
  {
    "pincode": "152132",
    "officename": "Panniwala Mohala B.O",
    "officeType": "B.O",
    "Deliverystatus": "Delivery",
    "divisionname": "Ferozpur",
    "regionname": "Chandigarh Region",
    "circlename": "Punjab",
    "Taluk": "Abohar",
    "Districtname": "Firozpur",
    "statename": "PUNJAB"
  },
  {
    "pincode": "152132",
    "officename": "Shergarh B.O",
    "officeType": "B.O",
    "Deliverystatus": "Delivery",
    "divisionname": "Ferozpur",
    "regionname": "Chandigarh Region",
    "circlename": "Punjab",
    "Taluk": "Abohar",
    "Districtname": "Firozpur",
    "statename": "PUNJAB"
  },
  {
    "pincode": "152132",
    "officename": "Tootwala B.O",
    "officeType": "B.O",
    "Deliverystatus": "Delivery",
    "divisionname": "Ferozpur",
    "regionname": "Chandigarh Region",
    "circlename": "Punjab",
    "Taluk": "Abohar",
    "Districtname": "Firozpur",
    "statename": "PUNJAB"
  },
  {
    "pincode": "152132",
    "officename": "Usman Khera B.O",
    "officeType": "B.O",
    "Deliverystatus": "Delivery",
    "divisionname": "Ferozpur",
    "regionname": "Chandigarh Region",
    "circlename": "Punjab",
    "Taluk": "Abohar",
    "Districtname": "Firozpur",
    "statename": "PUNJAB"
  }
]
