[
  {
    "pincode": "171208",
    "officename": "Chilala B.O",
    "officeType": "B.O",
    "Deliverystatus": "Delivery",
    "divisionname": "Shimla",
    "regionname": "Shimla HQ",
    "circlename": "Himachal Pradesh",
    "Taluk": "Chirgaon",
    "Districtname": "Shimla",
    "statename": "HIMACHAL PRADESH"
  },
  {
    "pincode": "171208",
    "officename": "Chirgaon S.O (Shimla)",
    "officeType": "S.O",
    "Deliverystatus": "Delivery",
    "divisionname": "Shimla",
    "regionname": "Shimla HQ",
    "circlename": "Himachal Pradesh",
    "Taluk": "Chirgaon",
    "Districtname": "Shimla",
    "statename": "HIMACHAL PRADESH"
  },
  {
    "pincode": "171208",
    "officename": "Gaonsari B.O",
    "officeType": "B.O",
    "Deliverystatus": "Delivery",
    "divisionname": "Shimla",
    "regionname": "Shimla HQ",
    "circlename": "Himachal Pradesh",
    "Taluk": "Chirgaon",
    "Districtname": "Shimla",
    "statename": "HIMACHAL PRADESH"
  },
  {
    "pincode": "171208",
    "officename": "Kanthli B.O",
    "officeType": "B.O",
    "Deliverystatus": "Delivery",
    "divisionname": "Shimla",
    "regionname": "Shimla HQ",
    "circlename": "Himachal Pradesh",
    "Taluk": "Chirgaon",
    "Districtname": "Shimla",
    "statename": "HIMACHAL PRADESH"
  },
  {
    "pincode": "171208",
    "officename": "Khabal B.O",
    "officeType": "B.O",
    "Deliverystatus": "Delivery",
    "divisionname": "Shimla",
    "regionname": "Shimla HQ",
    "circlename": "Himachal Pradesh",
    "Taluk": "Chirgaon",
    "Districtname": "Shimla",
    "statename": "HIMACHAL PRADESH"
  },
  {
    "pincode": "171208",
    "officename": "Khashdhar B.O",
    "officeType": "B.O",
    "Deliverystatus": "Delivery",
    "divisionname": "Shimla",
    "regionname": "Shimla HQ",
    "circlename": "Himachal Pradesh",
    "Taluk": "Chirgaon",
    "Districtname": "Shimla",
    "statename": "HIMACHAL PRADESH"
  },
  {
    "pincode": "171208",
    "officename": "Larot B.O",
    "officeType": "B.O",
    "Deliverystatus": "Delivery",
    "divisionname": "Shimla",
    "regionname": "Shimla HQ",
    "circlename": "Himachal Pradesh",
    "Taluk": "Chirgaon",
    "Districtname": "Shimla",
    "statename": "HIMACHAL PRADESH"
  },
  {
    "pincode": "171208",
    "officename": "Masli B.O",
    "officeType": "B.O",
    "Deliverystatus": "Delivery",
    "divisionname": "Shimla",
    "regionname": "Shimla HQ",
    "circlename": "Himachal Pradesh",
    "Taluk": "Chirgaon",
    "Districtname": "Shimla",
    "statename": "HIMACHAL PRADESH"
  },
  {
    "pincode": "171208",
    "officename": "Pekha B.O",
    "officeType": "B.O",
    "Deliverystatus": "Delivery",
    "divisionname": "Shimla",
    "regionname": "Shimla HQ",
    "circlename": "Himachal Pradesh",
    "Taluk": "Chirgaon",
    "Districtname": "Shimla",
    "statename": "HIMACHAL PRADESH"
  },
  {
    "pincode": "171208",
    "officename": "Rohal B.O",
    "officeType": "B.O",
    "Deliverystatus": "Delivery",
    "divisionname": "Shimla",
    "regionname": "Shimla HQ",
    "circlename": "Himachal Pradesh",
    "Taluk": "Chirgaon",
    "Districtname": "Shimla",
    "statename": "HIMACHAL PRADESH"
  },
  {
    "pincode": "171208",
    "officename": "Sindhasli B.O",
    "officeType": "B.O",
    "Deliverystatus": "Delivery",
    "divisionname": "Shimla",
    "regionname": "Shimla HQ",
    "circlename": "Himachal Pradesh",
    "Taluk": "Chirgaon",
    "Districtname": "Shimla",
    "statename": "HIMACHAL PRADESH"
  },
  {
    "pincode": "171208",
    "officename": "Tangnu B.O",
    "officeType": "B.O",
    "Deliverystatus": "Delivery",
    "divisionname": "Shimla",
    "regionname": "Shimla HQ",
    "circlename": "Himachal Pradesh",
    "Taluk": "Chirgaon",
    "Districtname": "Shimla",
    "statename": "HIMACHAL PRADESH"
  },
  {
    "pincode": "171208",
    "officename": "Tikkari B.O",
    "officeType": "B.O",
    "Deliverystatus": "Delivery",
    "divisionname": "Shimla",
    "regionname": "Shimla HQ",
    "circlename": "Himachal Pradesh",
    "Taluk": "Chirgaon",
    "Districtname": "Shimla",
    "statename": "HIMACHAL PRADESH"
  }
]
