[
  {
    "pincode": "171205",
    "officename": "Deem B.O",
    "officeType": "B.O",
    "Deliverystatus": "Delivery",
    "divisionname": "Shimla",
    "regionname": "Shimla HQ",
    "circlename": "Himachal Pradesh",
    "Taluk": "Jubbal",
    "Districtname": "Shimla",
    "statename": "HIMACHAL PRADESH"
  },
  {
    "pincode": "171205",
    "officename": "Dhar B.O",
    "officeType": "B.O",
    "Deliverystatus": "Delivery",
    "divisionname": "Shimla",
    "regionname": "Shimla HQ",
    "circlename": "Himachal Pradesh",
    "Taluk": "Jubbal",
    "Districtname": "Shimla",
    "statename": "HIMACHAL PRADESH"
  },
  {
    "pincode": "171205",
    "officename": "Jubbal S.O",
    "officeType": "S.O",
    "Deliverystatus": "Delivery",
    "divisionname": "Shimla",
    "regionname": "Shimla HQ",
    "circlename": "Himachal Pradesh",
    "Taluk": "Jubbal",
    "Districtname": "Shimla",
    "statename": "HIMACHAL PRADESH"
  },
  {
    "pincode": "171205",
    "officename": "Kayana B.O",
    "officeType": "B.O",
    "Deliverystatus": "Delivery",
    "divisionname": "Shimla",
    "regionname": "Shimla HQ",
    "circlename": "Himachal Pradesh",
    "Taluk": "Jubbal",
    "Districtname": "Shimla",
    "statename": "HIMACHAL PRADESH"
  },
  {
    "pincode": "171205",
    "officename": "Praunthi B.O",
    "officeType": "B.O",
    "Deliverystatus": "Delivery",
    "divisionname": "Shimla",
    "regionname": "Shimla HQ",
    "circlename": "Himachal Pradesh",
    "Taluk": "Jubbal",
    "Districtname": "Shimla",
    "statename": "HIMACHAL PRADESH"
  },
  {
    "pincode": "171205",
    "officename": "Pujarli No-2 B.O",
    "officeType": "B.O",
    "Deliverystatus": "Delivery",
    "divisionname": "Shimla",
    "regionname": "Shimla HQ",
    "circlename": "Himachal Pradesh",
    "Taluk": "Jubbal",
    "Districtname": "Shimla",
    "statename": "HIMACHAL PRADESH"
  },
  {
    "pincode": "171205",
    "officename": "Shailapani B.O",
    "officeType": "B.O",
    "Deliverystatus": "Delivery",
    "divisionname": "Shimla",
    "regionname": "Shimla HQ",
    "circlename": "Himachal Pradesh",
    "Taluk": "Jubbal",
    "Districtname": "Shimla",
    "statename": "HIMACHAL PRADESH"
  },
  {
    "pincode": "171205",
    "officename": "Sheel B.O",
    "officeType": "B.O",
    "Deliverystatus": "Delivery",
    "divisionname": "Shimla",
    "regionname": "Shimla HQ",
    "circlename": "Himachal Pradesh",
    "Taluk": "Jubbal",
    "Districtname": "Shimla",
    "statename": "HIMACHAL PRADESH"
  }
]
