[
  {
    "pincode": "171202",
    "officename": "Baghar B.O",
    "officeType": "B.O",
    "Deliverystatus": "Delivery",
    "divisionname": "Shimla",
    "regionname": "Shimla HQ",
    "circlename": "Himachal Pradesh",
    "Taluk": "Kotkhai",
    "Districtname": "Shimla",
    "statename": "HIMACHAL PRADESH"
  },
  {
    "pincode": "171202",
    "officename": "Bakhol B.O",
    "officeType": "B.O",
    "Deliverystatus": "Delivery",
    "divisionname": "Shimla",
    "regionname": "Shimla HQ",
    "circlename": "Himachal Pradesh",
    "Taluk": "Kotkhai",
    "Districtname": "Shimla",
    "statename": "HIMACHAL PRADESH"
  },
  {
    "pincode": "171202",
    "officename": "Chalnair B.O",
    "officeType": "B.O",
    "Deliverystatus": "Delivery",
    "divisionname": "Shimla",
    "regionname": "Shimla HQ",
    "circlename": "Himachal Pradesh",
    "Taluk": "Kotkhai",
    "Districtname": "Shimla",
    "statename": "HIMACHAL PRADESH"
  },
  {
    "pincode": "171202",
    "officename": "Darkoti B.O",
    "officeType": "B.O",
    "Deliverystatus": "Delivery",
    "divisionname": "Shimla",
    "regionname": "Shimla HQ",
    "circlename": "Himachal Pradesh",
    "Taluk": "Kotkhai",
    "Districtname": "Shimla",
    "statename": "HIMACHAL PRADESH"
  },
  {
    "pincode": "171202",
    "officename": "Devgarh B.O",
    "officeType": "B.O",
    "Deliverystatus": "Delivery",
    "divisionname": "Shimla",
    "regionname": "Shimla HQ",
    "circlename": "Himachal Pradesh",
    "Taluk": "Kotkhai",
    "Districtname": "Shimla",
    "statename": "HIMACHAL PRADESH"
  },
  {
    "pincode": "171202",
    "officename": "Garog B.O",
    "officeType": "B.O",
    "Deliverystatus": "Delivery",
    "divisionname": "Shimla",
    "regionname": "Shimla HQ",
    "circlename": "Himachal Pradesh",
    "Taluk": "Kotkhai",
    "Districtname": "Shimla",
    "statename": "HIMACHAL PRADESH"
  },
  {
    "pincode": "171202",
    "officename": "Gumma B.O",
    "officeType": "B.O",
    "Deliverystatus": "Delivery",
    "divisionname": "Shimla",
    "regionname": "Shimla HQ",
    "circlename": "Himachal Pradesh",
    "Taluk": "Kotkhai",
    "Districtname": "Shimla",
    "statename": "HIMACHAL PRADESH"
  },
  {
    "pincode": "171202",
    "officename": "Himri B.O",
    "officeType": "B.O",
    "Deliverystatus": "Delivery",
    "divisionname": "Shimla",
    "regionname": "Shimla HQ",
    "circlename": "Himachal Pradesh",
    "Taluk": "Kotkhai",
    "Districtname": "Shimla",
    "statename": "HIMACHAL PRADESH"
  },
  {
    "pincode": "171202",
    "officename": "Kokunala B.O",
    "officeType": "B.O",
    "Deliverystatus": "Delivery",
    "divisionname": "Shimla",
    "regionname": "Shimla HQ",
    "circlename": "Himachal Pradesh",
    "Taluk": "Kotkhai",
    "Districtname": "Shimla",
    "statename": "HIMACHAL PRADESH"
  },
  {
    "pincode": "171202",
    "officename": "Kotkhai S.O",
    "officeType": "S.O",
    "Deliverystatus": "Delivery",
    "divisionname": "Shimla",
    "regionname": "Shimla HQ",
    "circlename": "Himachal Pradesh",
    "Taluk": "Kothkhai",
    "Districtname": "Shimla",
    "statename": "HIMACHAL PRADESH"
  },
  {
    "pincode": "171202",
    "officename": "Mahasu B.O",
    "officeType": "B.O",
    "Deliverystatus": "Delivery",
    "divisionname": "Shimla",
    "regionname": "Shimla HQ",
    "circlename": "Himachal Pradesh",
    "Taluk": "Kotkhai",
    "Districtname": "Shimla",
    "statename": "HIMACHAL PRADESH"
  },
  {
    "pincode": "171202",
    "officename": "Nagan B.O",
    "officeType": "B.O",
    "Deliverystatus": "Delivery",
    "divisionname": "Shimla",
    "regionname": "Shimla HQ",
    "circlename": "Himachal Pradesh",
    "Taluk": "Kotkhai",
    "Districtname": "Shimla",
    "statename": "HIMACHAL PRADESH"
  },
  {
    "pincode": "171202",
    "officename": "Purag B.O",
    "officeType": "B.O",
    "Deliverystatus": "Delivery",
    "divisionname": "Shimla",
    "regionname": "Shimla HQ",
    "circlename": "Himachal Pradesh",
    "Taluk": "Kotkhai",
    "Districtname": "Shimla",
    "statename": "HIMACHAL PRADESH"
  },
  {
    "pincode": "171202",
    "officename": "Quinal B.O",
    "officeType": "B.O",
    "Deliverystatus": "Delivery",
    "divisionname": "Shimla",
    "regionname": "Shimla HQ",
    "circlename": "Himachal Pradesh",
    "Taluk": "Kotkhai",
    "Districtname": "Shimla",
    "statename": "HIMACHAL PRADESH"
  },
  {
    "pincode": "171202",
    "officename": "Rawlakiar B.O",
    "officeType": "B.O",
    "Deliverystatus": "Delivery",
    "divisionname": "Shimla",
    "regionname": "Shimla HQ",
    "circlename": "Himachal Pradesh",
    "Taluk": "Kotkhai",
    "Districtname": "Shimla",
    "statename": "HIMACHAL PRADESH"
  },
  {
    "pincode": "171202",
    "officename": "Tharola B.O",
    "officeType": "B.O",
    "Deliverystatus": "Delivery",
    "divisionname": "Shimla",
    "regionname": "Shimla HQ",
    "circlename": "Himachal Pradesh",
    "Taluk": "Kotkhai",
    "Districtname": "Shimla",
    "statename": "HIMACHAL PRADESH"
  }
]
