[
  {
    "pincode": "171210",
    "officename": "Bharanu B.O",
    "officeType": "B.O",
    "Deliverystatus": "Delivery",
    "divisionname": "Shimla",
    "regionname": "Shimla HQ",
    "circlename": "Himachal Pradesh",
    "Taluk": "Chopal",
    "Districtname": "Shimla",
    "statename": "HIMACHAL PRADESH"
  },
  {
    "pincode": "171210",
    "officename": "Bijmal B.O",
    "officeType": "B.O",
    "Deliverystatus": "Delivery",
    "divisionname": "Shimla",
    "regionname": "Shimla HQ",
    "circlename": "Himachal Pradesh",
    "Taluk": "Chopal",
    "Districtname": "Shimla",
    "statename": "HIMACHAL PRADESH"
  },
  {
    "pincode": "171210",
    "officename": "Bour B.O",
    "officeType": "B.O",
    "Deliverystatus": "Delivery",
    "divisionname": "Shimla",
    "regionname": "Shimla HQ",
    "circlename": "Himachal Pradesh",
    "Taluk": "Chopal",
    "Districtname": "Shimla",
    "statename": "HIMACHAL PRADESH"
  },
  {
    "pincode": "171210",
    "officename": "Chanana Dhar B.O",
    "officeType": "B.O",
    "Deliverystatus": "Delivery",
    "divisionname": "Shimla",
    "regionname": "Shimla HQ",
    "circlename": "Himachal Pradesh",
    "Taluk": "Chopal",
    "Districtname": "Shimla",
    "statename": "HIMACHAL PRADESH"
  },
  {
    "pincode": "171210",
    "officename": "Deiya B.O",
    "officeType": "B.O",
    "Deliverystatus": "Delivery",
    "divisionname": "Shimla",
    "regionname": "Shimla HQ",
    "circlename": "Himachal Pradesh",
    "Taluk": "Chopal",
    "Districtname": "Shimla",
    "statename": "HIMACHAL PRADESH"
  },
  {
    "pincode": "171210",
    "officename": "Eera B.O",
    "officeType": "B.O",
    "Deliverystatus": "Delivery",
    "divisionname": "Shimla",
    "regionname": "Shimla HQ",
    "circlename": "Himachal Pradesh",
    "Taluk": "Chopal",
    "Districtname": "Shimla",
    "statename": "HIMACHAL PRADESH"
  },
  {
    "pincode": "171210",
    "officename": "Giahan B.O",
    "officeType": "B.O",
    "Deliverystatus": "Delivery",
    "divisionname": "Shimla",
    "regionname": "Shimla HQ",
    "circlename": "Himachal Pradesh",
    "Taluk": "Chopal",
    "Districtname": "Shimla",
    "statename": "HIMACHAL PRADESH"
  },
  {
    "pincode": "171210",
    "officename": "Jublee B.O",
    "officeType": "B.O",
    "Deliverystatus": "Delivery",
    "divisionname": "Shimla",
    "regionname": "Shimla HQ",
    "circlename": "Himachal Pradesh",
    "Taluk": "Chopal",
    "Districtname": "Shimla",
    "statename": "HIMACHAL PRADESH"
  },
  {
    "pincode": "171210",
    "officename": "Kedi B.O",
    "officeType": "B.O",
    "Deliverystatus": "Delivery",
    "divisionname": "Shimla",
    "regionname": "Shimla HQ",
    "circlename": "Himachal Pradesh",
    "Taluk": "Chopal",
    "Districtname": "Shimla",
    "statename": "HIMACHAL PRADESH"
  },
  {
    "pincode": "171210",
    "officename": "Kiarla B.O",
    "officeType": "B.O",
    "Deliverystatus": "Delivery",
    "divisionname": "Shimla",
    "regionname": "Shimla HQ",
    "circlename": "Himachal Pradesh",
    "Taluk": "Chopal",
    "Districtname": "Shimla",
    "statename": "HIMACHAL PRADESH"
  },
  {
    "pincode": "171210",
    "officename": "Madhana B.O",
    "officeType": "B.O",
    "Deliverystatus": "Delivery",
    "divisionname": "Shimla",
    "regionname": "Shimla HQ",
    "circlename": "Himachal Pradesh",
    "Taluk": "Chopal",
    "Districtname": "Shimla",
    "statename": "HIMACHAL PRADESH"
  },
  {
    "pincode": "171210",
    "officename": "Malat B.O",
    "officeType": "B.O",
    "Deliverystatus": "Delivery",
    "divisionname": "Shimla",
    "regionname": "Shimla HQ",
    "circlename": "Himachal Pradesh",
    "Taluk": "Chopal",
    "Districtname": "Shimla",
    "statename": "HIMACHAL PRADESH"
  },
  {
    "pincode": "171210",
    "officename": "Nerwa S.O",
    "officeType": "S.O",
    "Deliverystatus": "Delivery",
    "divisionname": "Shimla",
    "regionname": "Shimla HQ",
    "circlename": "Himachal Pradesh",
    "Taluk": "Choupal",
    "Districtname": "Shimla",
    "statename": "HIMACHAL PRADESH"
  },
  {
    "pincode": "171210",
    "officename": "Pawan B.O",
    "officeType": "B.O",
    "Deliverystatus": "Delivery",
    "divisionname": "Shimla",
    "regionname": "Shimla HQ",
    "circlename": "Himachal Pradesh",
    "Taluk": "Chopal",
    "Districtname": "Shimla",
    "statename": "HIMACHAL PRADESH"
  },
  {
    "pincode": "171210",
    "officename": "Ruslah B.O",
    "officeType": "B.O",
    "Deliverystatus": "Delivery",
    "divisionname": "Shimla",
    "regionname": "Shimla HQ",
    "circlename": "Himachal Pradesh",
    "Taluk": "Chopal",
    "Districtname": "Shimla",
    "statename": "HIMACHAL PRADESH"
  },
  {
    "pincode": "171210",
    "officename": "Thangad B.O",
    "officeType": "B.O",
    "Deliverystatus": "Delivery",
    "divisionname": "Shimla",
    "regionname": "Shimla HQ",
    "circlename": "Himachal Pradesh",
    "Taluk": "Chopal",
    "Districtname": "Shimla",
    "statename": "HIMACHAL PRADESH"
  },
  {
    "pincode": "171210",
    "officename": "Tharoach B.O",
    "officeType": "B.O",
    "Deliverystatus": "Delivery",
    "divisionname": "Shimla",
    "regionname": "Shimla HQ",
    "circlename": "Himachal Pradesh",
    "Taluk": "Chopal",
    "Districtname": "Shimla",
    "statename": "HIMACHAL PRADESH"
  },
  {
    "pincode": "171210",
    "officename": "Tikkri Neol B.O",
    "officeType": "B.O",
    "Deliverystatus": "Delivery",
    "divisionname": "Shimla",
    "regionname": "Shimla HQ",
    "circlename": "Himachal Pradesh",
    "Taluk": "Chopal",
    "Districtname": "Shimla",
    "statename": "HIMACHAL PRADESH"
  }
]
