[
  {
    "pincode": "172022",
    "officename": "Bahli B.O",
    "officeType": "B.O",
    "Deliverystatus": "Delivery",
    "divisionname": "Rampur Bushahr",
    "regionname": "Shimla HQ",
    "circlename": "Himachal Pradesh",
    "Taluk": "Rampur Bushahr",
    "Districtname": "Shimla",
    "statename": "HIMACHAL PRADESH"
  },
  {
    "pincode": "172022",
    "officename": "Bharawali B.O",
    "officeType": "B.O",
    "Deliverystatus": "Delivery",
    "divisionname": "Rampur Bushahr",
    "regionname": "Shimla HQ",
    "circlename": "Himachal Pradesh",
    "Taluk": "Rampur(T)",
    "Districtname": "Shimla",
    "statename": "HIMACHAL PRADESH"
  },
  {
    "pincode": "172022",
    "officename": "Darkali B.O",
    "officeType": "B.O",
    "Deliverystatus": "Delivery",
    "divisionname": "Rampur Bushahr",
    "regionname": "Shimla HQ",
    "circlename": "Himachal Pradesh",
    "Taluk": "Rampur Bushahr",
    "Districtname": "Shimla",
    "statename": "HIMACHAL PRADESH"
  },
  {
    "pincode": "172022",
    "officename": "Dawara B.O",
    "officeType": "B.O",
    "Deliverystatus": "Delivery",
    "divisionname": "Rampur Bushahr",
    "regionname": "Shimla HQ",
    "circlename": "Himachal Pradesh",
    "Taluk": "Rampur Bushahr",
    "Districtname": "Shimla",
    "statename": "HIMACHAL PRADESH"
  },
  {
    "pincode": "172022",
    "officename": "Deothi B.O",
    "officeType": "B.O",
    "Deliverystatus": "Delivery",
    "divisionname": "Rampur Bushahr",
    "regionname": "Shimla HQ",
    "circlename": "Himachal Pradesh",
    "Taluk": "Rampur Bushahr",
    "Districtname": "Shimla",
    "statename": "HIMACHAL PRADESH"
  },
  {
    "pincode": "172022",
    "officename": "Kareri B.O",
    "officeType": "B.O",
    "Deliverystatus": "Delivery",
    "divisionname": "Rampur Bushahr",
    "regionname": "Shimla HQ",
    "circlename": "Himachal Pradesh",
    "Taluk": "Rampur(T)",
    "Districtname": "Shimla",
    "statename": "HIMACHAL PRADESH"
  },
  {
    "pincode": "172022",
    "officename": "Kashapat B.O",
    "officeType": "B.O",
    "Deliverystatus": "Delivery",
    "divisionname": "Rampur Bushahr",
    "regionname": "Shimla HQ",
    "circlename": "Himachal Pradesh",
    "Taluk": "Rampur(T)",
    "Districtname": "Shimla",
    "statename": "HIMACHAL PRADESH"
  },
  {
    "pincode": "172022",
    "officename": "Munish Bhali B.O",
    "officeType": "B.O",
    "Deliverystatus": "Delivery",
    "divisionname": "Rampur Bushahr",
    "regionname": "Shimla HQ",
    "circlename": "Himachal Pradesh",
    "Taluk": "Rampur(T)",
    "Districtname": "Shimla",
    "statename": "HIMACHAL PRADESH"
  },
  {
    "pincode": "172022",
    "officename": "Narain B.O",
    "officeType": "B.O",
    "Deliverystatus": "Delivery",
    "divisionname": "Rampur Bushahr",
    "regionname": "Shimla HQ",
    "circlename": "Himachal Pradesh",
    "Taluk": "Rampur(T)",
    "Districtname": "Shimla",
    "statename": "HIMACHAL PRADESH"
  },
  {
    "pincode": "172022",
    "officename": "Nogli S.O",
    "officeType": "S.O",
    "Deliverystatus": "Delivery",
    "divisionname": "Rampur Bushahr",
    "regionname": "Shimla HQ",
    "circlename": "Himachal Pradesh",
    "Taluk": "Rampur(T)",
    "Districtname": "Shimla",
    "statename": "HIMACHAL PRADESH"
  },
  {
    "pincode": "172022",
    "officename": "Taklech B.O",
    "officeType": "B.O",
    "Deliverystatus": "Delivery",
    "divisionname": "Rampur Bushahr",
    "regionname": "Shimla HQ",
    "circlename": "Himachal Pradesh",
    "Taluk": "Rampur Bushahr",
    "Districtname": "Shimla",
    "statename": "HIMACHAL PRADESH"
  }
]
