[
  {
    "pincode": "172001",
    "officename": "Barach B.O",
    "officeType": "B.O",
    "Deliverystatus": "Delivery",
    "divisionname": "Rampur Bushahr",
    "regionname": "Shimla HQ",
    "circlename": "Himachal Pradesh",
    "Taluk": "Nankhari",
    "Districtname": "Shimla",
    "statename": "HIMACHAL PRADESH"
  },
  {
    "pincode": "172001",
    "officename": "Dansa B.O",
    "officeType": "B.O",
    "Deliverystatus": "Delivery",
    "divisionname": "Rampur Bushahr",
    "regionname": "Shimla HQ",
    "circlename": "Himachal Pradesh",
    "Taluk": "Rampur Bushahr",
    "Districtname": "Shimla",
    "statename": "HIMACHAL PRADESH"
  },
  {
    "pincode": "172001",
    "officename": "Duttnagar B.O",
    "officeType": "B.O",
    "Deliverystatus": "Delivery",
    "divisionname": "Rampur Bushahr",
    "regionname": "Shimla HQ",
    "circlename": "Himachal Pradesh",
    "Taluk": "Rampur Bushahr",
    "Districtname": "Shimla",
    "statename": "HIMACHAL PRADESH"
  },
  {
    "pincode": "172001",
    "officename": "Khamadi B.O",
    "officeType": "B.O",
    "Deliverystatus": "Delivery",
    "divisionname": "Rampur Bushahr",
    "regionname": "Shimla HQ",
    "circlename": "Himachal Pradesh",
    "Taluk": "Rampur(T)",
    "Districtname": "Shimla",
    "statename": "HIMACHAL PRADESH"
  },
  {
    "pincode": "172001",
    "officename": "Khaneri B.O",
    "officeType": "B.O",
    "Deliverystatus": "Delivery",
    "divisionname": "Rampur Bushahr",
    "regionname": "Shimla HQ",
    "circlename": "Himachal Pradesh",
    "Taluk": "Rampur Bushahr",
    "Districtname": "Shimla",
    "statename": "HIMACHAL PRADESH"
  },
  {
    "pincode": "172001",
    "officename": "Kungal Balti B.O",
    "officeType": "B.O",
    "Deliverystatus": "Delivery",
    "divisionname": "Rampur Bushahr",
    "regionname": "Shimla HQ",
    "circlename": "Himachal Pradesh",
    "Taluk": "Rampur(T)",
    "Districtname": "Shimla",
    "statename": "HIMACHAL PRADESH"
  },
  {
    "pincode": "172001",
    "officename": "Lailon B.O",
    "officeType": "B.O",
    "Deliverystatus": "Delivery",
    "divisionname": "Rampur Bushahr",
    "regionname": "Shimla HQ",
    "circlename": "Himachal Pradesh",
    "Taluk": "Nankhari",
    "Districtname": "Shimla",
    "statename": "HIMACHAL PRADESH"
  },
  {
    "pincode": "172001",
    "officename": "Luhri B.O",
    "officeType": "B.O",
    "Deliverystatus": "Delivery",
    "divisionname": "Rampur Bushahr",
    "regionname": "Shimla HQ",
    "circlename": "Himachal Pradesh",
    "Taluk": "Ani(S.T)",
    "Districtname": "Kullu",
    "statename": "HIMACHAL PRADESH"
  },
  {
    "pincode": "172001",
    "officename": "Naula B.O",
    "officeType": "B.O",
    "Deliverystatus": "Delivery",
    "divisionname": "Rampur Bushahr",
    "regionname": "Shimla HQ",
    "circlename": "Himachal Pradesh",
    "Taluk": "Rampur(T)",
    "Districtname": "Shimla",
    "statename": "HIMACHAL PRADESH"
  },
  {
    "pincode": "172001",
    "officename": "Nirth B.O",
    "officeType": "B.O",
    "Deliverystatus": "Delivery",
    "divisionname": "Rampur Bushahr",
    "regionname": "Shimla HQ",
    "circlename": "Himachal Pradesh",
    "Taluk": "Rampur Bushahr",
    "Districtname": "Shimla",
    "statename": "HIMACHAL PRADESH"
  },
  {
    "pincode": "172001",
    "officename": "Padam Nagar S.O (Shimla)",
    "officeType": "S.O",
    "Deliverystatus": "Non-Delivery",
    "divisionname": "Rampur Bushahr",
    "regionname": "Shimla HQ",
    "circlename": "Himachal Pradesh",
    "Taluk": "Rampur(T)",
    "Districtname": "Shimla",
    "statename": "HIMACHAL PRADESH"
  },
  {
    "pincode": "172001",
    "officename": "Poshna B.O",
    "officeType": "B.O",
    "Deliverystatus": "Delivery",
    "divisionname": "Rampur Bushahr",
    "regionname": "Shimla HQ",
    "circlename": "Himachal Pradesh",
    "Taluk": "Nirmand",
    "Districtname": "Kullu",
    "statename": "HIMACHAL PRADESH"
  },
  {
    "pincode": "172001",
    "officename": "Rampur Bushahr H.O",
    "officeType": "H.O",
    "Deliverystatus": "Delivery",
    "divisionname": "Rampur Bushahr",
    "regionname": "Shimla HQ",
    "circlename": "Himachal Pradesh",
    "Taluk": "Rampur Bushahr",
    "Districtname": "Shimla",
    "statename": "HIMACHAL PRADESH"
  },
  {
    "pincode": "172001",
    "officename": "Shingla B.O",
    "officeType": "B.O",
    "Deliverystatus": "Delivery",
    "divisionname": "Rampur Bushahr",
    "regionname": "Shimla HQ",
    "circlename": "Himachal Pradesh",
    "Taluk": "Rampur Bushahr",
    "Districtname": "Shimla",
    "statename": "HIMACHAL PRADESH"
  },
  {
    "pincode": "172001",
    "officename": "Sholi B.O",
    "officeType": "B.O",
    "Deliverystatus": "Delivery",
    "divisionname": "Rampur Bushahr",
    "regionname": "Shimla HQ",
    "circlename": "Himachal Pradesh",
    "Taluk": "Nankhari(S.T)",
    "Districtname": "Shimla",
    "statename": "HIMACHAL PRADESH"
  },
  {
    "pincode": "172001",
    "officename": "Surad B.O",
    "officeType": "B.O",
    "Deliverystatus": "Delivery",
    "divisionname": "Rampur Bushahr",
    "regionname": "Shimla HQ",
    "circlename": "Himachal Pradesh",
    "Taluk": "Nankahri",
    "Districtname": "Shimla",
    "statename": "HIMACHAL PRADESH"
  },
  {
    "pincode": "172001",
    "officename": "Thaili Chakti B.O",
    "officeType": "B.O",
    "Deliverystatus": "Delivery",
    "divisionname": "Rampur Bushahr",
    "regionname": "Shimla HQ",
    "circlename": "Himachal Pradesh",
    "Taluk": "Rampur(T)",
    "Districtname": "Shimla",
    "statename": "HIMACHAL PRADESH"
  },
  {
    "pincode": "172001",
    "officename": "Tunan B.O",
    "officeType": "B.O",
    "Deliverystatus": "Delivery",
    "divisionname": "Rampur Bushahr",
    "regionname": "Shimla HQ",
    "circlename": "Himachal Pradesh",
    "Taluk": "Nirmand",
    "Districtname": "Kullu",
    "statename": "HIMACHAL PRADESH"
  }
]
