[
  {
    "pincode": "172101",
    "officename": "Chaura B.O",
    "officeType": "B.O",
    "Deliverystatus": "Delivery",
    "divisionname": "Rampur Bushahr",
    "regionname": "Shimla HQ",
    "circlename": "Himachal Pradesh",
    "Taluk": "Nichar(T)",
    "Districtname": "Kinnaur",
    "statename": "HIMACHAL PRADESH"
  },
  {
    "pincode": "172101",
    "officename": "Chota Khamba B.O",
    "officeType": "B.O",
    "Deliverystatus": "Delivery",
    "divisionname": "Rampur Bushahr",
    "regionname": "Shimla HQ",
    "circlename": "Himachal Pradesh",
    "Taluk": "Nichar(T)",
    "Districtname": "Kinnaur",
    "statename": "HIMACHAL PRADESH"
  },
  {
    "pincode": "172101",
    "officename": "Ganvi B.O",
    "officeType": "B.O",
    "Deliverystatus": "Delivery",
    "divisionname": "Rampur Bushahr",
    "regionname": "Shimla HQ",
    "circlename": "Himachal Pradesh",
    "Taluk": "Rampur Bushahr",
    "Districtname": "Shimla",
    "statename": "HIMACHAL PRADESH"
  },
  {
    "pincode": "172101",
    "officename": "Jaghori B.O",
    "officeType": "B.O",
    "Deliverystatus": "Delivery",
    "divisionname": "Rampur Bushahr",
    "regionname": "Shimla HQ",
    "circlename": "Himachal Pradesh",
    "Taluk": "Rampur(T)",
    "Districtname": "Shimla",
    "statename": "HIMACHAL PRADESH"
  },
  {
    "pincode": "172101",
    "officename": "Jeori S.O",
    "officeType": "S.O",
    "Deliverystatus": "Delivery",
    "divisionname": "Rampur Bushahr",
    "regionname": "Shimla HQ",
    "circlename": "Himachal Pradesh",
    "Taluk": "Rampur(T)",
    "Districtname": "Shimla",
    "statename": "HIMACHAL PRADESH"
  },
  {
    "pincode": "172101",
    "officename": "Kayab B.O",
    "officeType": "B.O",
    "Deliverystatus": "Delivery",
    "divisionname": "Rampur Bushahr",
    "regionname": "Shimla HQ",
    "circlename": "Himachal Pradesh",
    "Taluk": "Rampur(T)",
    "Districtname": "Shimla",
    "statename": "HIMACHAL PRADESH"
  },
  {
    "pincode": "172101",
    "officename": "Koot B.O",
    "officeType": "B.O",
    "Deliverystatus": "Delivery",
    "divisionname": "Rampur Bushahr",
    "regionname": "Shimla HQ",
    "circlename": "Himachal Pradesh",
    "Taluk": "Rampur(T)",
    "Districtname": "Shimla",
    "statename": "HIMACHAL PRADESH"
  },
  {
    "pincode": "172101",
    "officename": "Labana B.O",
    "officeType": "B.O",
    "Deliverystatus": "Delivery",
    "divisionname": "Rampur Bushahr",
    "regionname": "Shimla HQ",
    "circlename": "Himachal Pradesh",
    "Taluk": "Rampur Bushahr",
    "Districtname": "Shimla",
    "statename": "HIMACHAL PRADESH"
  },
  {
    "pincode": "172101",
    "officename": "Nigulsari B.O",
    "officeType": "B.O",
    "Deliverystatus": "Delivery",
    "divisionname": "Rampur Bushahr",
    "regionname": "Shimla HQ",
    "circlename": "Himachal Pradesh",
    "Taluk": "Nichar(T)",
    "Districtname": "Kinnaur",
    "statename": "HIMACHAL PRADESH"
  },
  {
    "pincode": "172101",
    "officename": "Phancha B.O",
    "officeType": "B.O",
    "Deliverystatus": "Delivery",
    "divisionname": "Rampur Bushahr",
    "regionname": "Shimla HQ",
    "circlename": "Himachal Pradesh",
    "Taluk": "Rampur Bushahr",
    "Districtname": "Shimla",
    "statename": "HIMACHAL PRADESH"
  },
  {
    "pincode": "172101",
    "officename": "Rupi B.O",
    "officeType": "B.O",
    "Deliverystatus": "Delivery",
    "divisionname": "Rampur Bushahr",
    "regionname": "Shimla HQ",
    "circlename": "Himachal Pradesh",
    "Taluk": "Rampur(T)",
    "Districtname": "Shimla",
    "statename": "HIMACHAL PRADESH"
  },
  {
    "pincode": "172101",
    "officename": "Taranda B.O",
    "officeType": "B.O",
    "Deliverystatus": "Delivery",
    "divisionname": "Rampur Bushahr",
    "regionname": "Shimla HQ",
    "circlename": "Himachal Pradesh",
    "Taluk": "Nichar(T)",
    "Districtname": "Kinnaur",
    "statename": "HIMACHAL PRADESH"
  }
]
