[
  {
    "pincode": "172104",
    "officename": "Chagaon B.O",
    "officeType": "B.O",
    "Deliverystatus": "Delivery",
    "divisionname": "Rampur Bushahr",
    "regionname": "Shimla HQ",
    "circlename": "Himachal Pradesh",
    "Taluk": "Nichar(T)",
    "Districtname": "Kinnaur",
    "statename": "HIMACHAL PRADESH"
  },
  {
    "pincode": "172104",
    "officename": "Mirro B.O",
    "officeType": "B.O",
    "Deliverystatus": "Delivery",
    "divisionname": "Rampur Bushahr",
    "regionname": "Shimla HQ",
    "circlename": "Himachal Pradesh",
    "Taluk": "Nichar(T)",
    "Districtname": "Kinnaur",
    "statename": "HIMACHAL PRADESH"
  },
  {
    "pincode": "172104",
    "officename": "Panvi B.O",
    "officeType": "B.O",
    "Deliverystatus": "Delivery",
    "divisionname": "Rampur Bushahr",
    "regionname": "Shimla HQ",
    "circlename": "Himachal Pradesh",
    "Taluk": "Nichar(T)",
    "Districtname": "Kinnaur",
    "statename": "HIMACHAL PRADESH"
  },
  {
    "pincode": "172104",
    "officename": "Ramni B.O",
    "officeType": "B.O",
    "Deliverystatus": "Delivery",
    "divisionname": "Rampur Bushahr",
    "regionname": "Shimla HQ",
    "circlename": "Himachal Pradesh",
    "Taluk": "Nichar",
    "Districtname": "Kinnaur",
    "statename": "HIMACHAL PRADESH"
  },
  {
    "pincode": "172104",
    "officename": "Tapri S.O",
    "officeType": "S.O",
    "Deliverystatus": "Delivery",
    "divisionname": "Rampur Bushahr",
    "regionname": "Shimla HQ",
    "circlename": "Himachal Pradesh",
    "Taluk": "Nichar(T)",
    "Districtname": "Kinnaur",
    "statename": "HIMACHAL PRADESH"
  },
  {
    "pincode": "172104",
    "officename": "Urni B.O",
    "officeType": "B.O",
    "Deliverystatus": "Delivery",
    "divisionname": "Rampur Bushahr",
    "regionname": "Shimla HQ",
    "circlename": "Himachal Pradesh",
    "Taluk": "Nichar(T)",
    "Districtname": "Kinnaur",
    "statename": "HIMACHAL PRADESH"
  },
  {
    "pincode": "172104",
    "officename": "Wangtoo B.O",
    "officeType": "B.O",
    "Deliverystatus": "Delivery",
    "divisionname": "Rampur Bushahr",
    "regionname": "Shimla HQ",
    "circlename": "Himachal Pradesh",
    "Taluk": "Nichar(T)",
    "Districtname": "Kinnaur",
    "statename": "HIMACHAL PRADESH"
  },
  {
    "pincode": "172104",
    "officename": "Yulla B.O",
    "officeType": "B.O",
    "Deliverystatus": "Delivery",
    "divisionname": "Rampur Bushahr",
    "regionname": "Shimla HQ",
    "circlename": "Himachal Pradesh",
    "Taluk": "Nichar(T)",
    "Districtname": "Kinnaur",
    "statename": "HIMACHAL PRADESH"
  }
]
