[
  {
    "pincode": "173022",
    "officename": "Bharog Baneri B.O",
    "officeType": "B.O",
    "Deliverystatus": "Delivery",
    "divisionname": "Solan",
    "regionname": "Shimla HQ",
    "circlename": "Himachal Pradesh",
    "Taluk": "Paonta",
    "Districtname": "Sirmaur",
    "statename": "HIMACHAL PRADESH"
  },
  {
    "pincode": "173022",
    "officename": "Bhatgarh B.O",
    "officeType": "B.O",
    "Deliverystatus": "Delivery",
    "divisionname": "Solan",
    "regionname": "Shimla HQ",
    "circlename": "Himachal Pradesh",
    "Taluk": "Sangrah",
    "Districtname": "Sirmaur",
    "statename": "HIMACHAL PRADESH"
  },
  {
    "pincode": "173022",
    "officename": "Birla B.O",
    "officeType": "B.O",
    "Deliverystatus": "Delivery",
    "divisionname": "Solan",
    "regionname": "Shimla HQ",
    "circlename": "Himachal Pradesh",
    "Taluk": "Sangrah",
    "Districtname": "Sirmaur",
    "statename": "HIMACHAL PRADESH"
  },
  {
    "pincode": "173022",
    "officename": "Dadahu S.O",
    "officeType": "S.O",
    "Deliverystatus": "Delivery",
    "divisionname": "Solan",
    "regionname": "Shimla HQ",
    "circlename": "Himachal Pradesh",
    "Taluk": "Sangrah",
    "Districtname": "Sirmaur",
    "statename": "HIMACHAL PRADESH"
  },
  {
    "pincode": "173022",
    "officename": "Jamu B.O",
    "officeType": "B.O",
    "Deliverystatus": "Delivery",
    "divisionname": "Solan",
    "regionname": "Shimla HQ",
    "circlename": "Himachal Pradesh",
    "Taluk": "Sangrah",
    "Districtname": "Sirmaur",
    "statename": "HIMACHAL PRADESH"
  },
  {
    "pincode": "173022",
    "officename": "Jarag B.O",
    "officeType": "B.O",
    "Deliverystatus": "Delivery",
    "divisionname": "Solan",
    "regionname": "Shimla HQ",
    "circlename": "Himachal Pradesh",
    "Taluk": "Sangrah",
    "Districtname": "Sirmaur",
    "statename": "HIMACHAL PRADESH"
  },
  {
    "pincode": "173022",
    "officename": "Kangta Failag B.O",
    "officeType": "B.O",
    "Deliverystatus": "Delivery",
    "divisionname": "Solan",
    "regionname": "Shimla HQ",
    "circlename": "Himachal Pradesh",
    "Taluk": "Sangrah",
    "Districtname": "Sirmaur",
    "statename": "HIMACHAL PRADESH"
  },
  {
    "pincode": "173022",
    "officename": "Kansar B.O",
    "officeType": "B.O",
    "Deliverystatus": "Delivery",
    "divisionname": "Solan",
    "regionname": "Shimla HQ",
    "circlename": "Himachal Pradesh",
    "Taluk": "Sangrah",
    "Districtname": "Sirmaur",
    "statename": "HIMACHAL PRADESH"
  },
  {
    "pincode": "173022",
    "officename": "Kotidhiman B.O",
    "officeType": "B.O",
    "Deliverystatus": "Delivery",
    "divisionname": "Solan",
    "regionname": "Shimla HQ",
    "circlename": "Himachal Pradesh",
    "Taluk": "Sangrah",
    "Districtname": "Sirmaur",
    "statename": "HIMACHAL PRADESH"
  },
  {
    "pincode": "173022",
    "officename": "Panar B.O",
    "officeType": "B.O",
    "Deliverystatus": "Delivery",
    "divisionname": "Solan",
    "regionname": "Shimla HQ",
    "circlename": "Himachal Pradesh",
    "Taluk": "Sangrah",
    "Districtname": "Sirmaur",
    "statename": "HIMACHAL PRADESH"
  },
  {
    "pincode": "173022",
    "officename": "Thana Kashoga B.O",
    "officeType": "B.O",
    "Deliverystatus": "Delivery",
    "divisionname": "Solan",
    "regionname": "Shimla HQ",
    "circlename": "Himachal Pradesh",
    "Taluk": "",
    "Districtname": "Sirmaur",
    "statename": "HIMACHAL PRADESH"
  },
  {
    "pincode": "173022",
    "officename": "Udaina Kathwar B.O",
    "officeType": "B.O",
    "Deliverystatus": "Delivery",
    "divisionname": "Solan",
    "regionname": "Shimla HQ",
    "circlename": "Himachal Pradesh",
    "Taluk": "",
    "Districtname": "Sirmaur",
    "statename": "HIMACHAL PRADESH"
  }
]
