[
  {
    "pincode": "173027",
    "officename": "BaliKoti  B.O",
    "officeType": "B.O",
    "Deliverystatus": "Delivery",
    "divisionname": "Solan",
    "regionname": "Shimla HQ",
    "circlename": "Himachal Pradesh",
    "Taluk": "Shillai",
    "Districtname": "Sirmaur",
    "statename": "HIMACHAL PRADESH"
  },
  {
    "pincode": "173027",
    "officename": "Bella B.O",
    "officeType": "B.O",
    "Deliverystatus": "Delivery",
    "divisionname": "Solan",
    "regionname": "Shimla HQ",
    "circlename": "Himachal Pradesh",
    "Taluk": "Shilai",
    "Districtname": "Sirmaur",
    "statename": "HIMACHAL PRADESH"
  },
  {
    "pincode": "173027",
    "officename": "Gawali B.O",
    "officeType": "B.O",
    "Deliverystatus": "Delivery",
    "divisionname": "Solan",
    "regionname": "Shimla HQ",
    "circlename": "Himachal Pradesh",
    "Taluk": "Shillai",
    "Districtname": "Sirmaur",
    "statename": "HIMACHAL PRADESH"
  },
  {
    "pincode": "173027",
    "officename": "Hallan B.O",
    "officeType": "B.O",
    "Deliverystatus": "Delivery",
    "divisionname": "Solan",
    "regionname": "Shimla HQ",
    "circlename": "Himachal Pradesh",
    "Taluk": "Shillai",
    "Districtname": "Sirmaur",
    "statename": "HIMACHAL PRADESH"
  },
  {
    "pincode": "173027",
    "officename": "Jarwa B.O",
    "officeType": "B.O",
    "Deliverystatus": "Delivery",
    "divisionname": "Solan",
    "regionname": "Shimla HQ",
    "circlename": "Himachal Pradesh",
    "Taluk": "Shillai",
    "Districtname": "Sirmaur",
    "statename": "HIMACHAL PRADESH"
  },
  {
    "pincode": "173027",
    "officename": "Jhakando B.O",
    "officeType": "B.O",
    "Deliverystatus": "Delivery",
    "divisionname": "Solan",
    "regionname": "Shimla HQ",
    "circlename": "Himachal Pradesh",
    "Taluk": "Shillai",
    "Districtname": "Sirmaur",
    "statename": "HIMACHAL PRADESH"
  },
  {
    "pincode": "173027",
    "officename": "Kando Bhatnaul B.O",
    "officeType": "B.O",
    "Deliverystatus": "Delivery",
    "divisionname": "Solan",
    "regionname": "Shimla HQ",
    "circlename": "Himachal Pradesh",
    "Taluk": "Shilla",
    "Districtname": "Sirmaur",
    "statename": "HIMACHAL PRADESH"
  },
  {
    "pincode": "173027",
    "officename": "Kharkah B.O",
    "officeType": "B.O",
    "Deliverystatus": "Delivery",
    "divisionname": "Solan",
    "regionname": "Shimla HQ",
    "circlename": "Himachal Pradesh",
    "Taluk": "Paonta",
    "Districtname": "Sirmaur",
    "statename": "HIMACHAL PRADESH"
  },
  {
    "pincode": "173027",
    "officename": "Kotibhunch B.O",
    "officeType": "B.O",
    "Deliverystatus": "Delivery",
    "divisionname": "Solan",
    "regionname": "Shimla HQ",
    "circlename": "Himachal Pradesh",
    "Taluk": "Shillai",
    "Districtname": "Sirmaur",
    "statename": "HIMACHAL PRADESH"
  },
  {
    "pincode": "173027",
    "officename": "Loza B.O",
    "officeType": "B.O",
    "Deliverystatus": "Delivery",
    "divisionname": "Solan",
    "regionname": "Shimla HQ",
    "circlename": "Himachal Pradesh",
    "Taluk": "Shillai",
    "Districtname": "Sirmaur",
    "statename": "HIMACHAL PRADESH"
  },
  {
    "pincode": "173027",
    "officename": "Manal B.O",
    "officeType": "B.O",
    "Deliverystatus": "Delivery",
    "divisionname": "Solan",
    "regionname": "Shimla HQ",
    "circlename": "Himachal Pradesh",
    "Taluk": "Shillai",
    "Districtname": "Sirmaur",
    "statename": "HIMACHAL PRADESH"
  },
  {
    "pincode": "173027",
    "officename": "Nainidhar B.O",
    "officeType": "B.O",
    "Deliverystatus": "Delivery",
    "divisionname": "Solan",
    "regionname": "Shimla HQ",
    "circlename": "Himachal Pradesh",
    "Taluk": "Shillai",
    "Districtname": "Sirmaur",
    "statename": "HIMACHAL PRADESH"
  },
  {
    "pincode": "173027",
    "officename": "Panog B.O",
    "officeType": "B.O",
    "Deliverystatus": "Delivery",
    "divisionname": "Solan",
    "regionname": "Shimla HQ",
    "circlename": "Himachal Pradesh",
    "Taluk": "Shillai",
    "Districtname": "Sirmaur",
    "statename": "HIMACHAL PRADESH"
  },
  {
    "pincode": "173027",
    "officename": "Ronhat B.O",
    "officeType": "B.O",
    "Deliverystatus": "Delivery",
    "divisionname": "Solan",
    "regionname": "Shimla HQ",
    "circlename": "Himachal Pradesh",
    "Taluk": "Shilai",
    "Districtname": "Sirmaur",
    "statename": "HIMACHAL PRADESH"
  },
  {
    "pincode": "173027",
    "officename": "Shillai S.O",
    "officeType": "S.O",
    "Deliverystatus": "Delivery",
    "divisionname": "Solan",
    "regionname": "Shimla HQ",
    "circlename": "Himachal Pradesh",
    "Taluk": "Shillai",
    "Districtname": "Sirmaur",
    "statename": "HIMACHAL PRADESH"
  },
  {
    "pincode": "173027",
    "officename": "Shirikiari B.O",
    "officeType": "B.O",
    "Deliverystatus": "Delivery",
    "divisionname": "Solan",
    "regionname": "Shimla HQ",
    "circlename": "Himachal Pradesh",
    "Taluk": "Shillai",
    "Districtname": "Sirmaur",
    "statename": "HIMACHAL PRADESH"
  }
]
