[
  {
    "pincode": "173023",
    "officename": "Andheri B.O",
    "officeType": "B.O",
    "Deliverystatus": "Delivery",
    "divisionname": "Solan",
    "regionname": "Shimla HQ",
    "circlename": "Himachal Pradesh",
    "Taluk": "Sangrah",
    "Districtname": "Sirmaur",
    "statename": "HIMACHAL PRADESH"
  },
  {
    "pincode": "173023",
    "officename": "BaragB.O",
    "officeType": "B.O",
    "Deliverystatus": "Delivery",
    "divisionname": "Solan",
    "regionname": "Shimla HQ",
    "circlename": "Himachal Pradesh",
    "Taluk": "Sangrah",
    "Districtname": "Sirmaur",
    "statename": "HIMACHAL PRADESH"
  },
  {
    "pincode": "173023",
    "officename": "Bhajond B.O",
    "officeType": "B.O",
    "Deliverystatus": "Delivery",
    "divisionname": "Solan",
    "regionname": "Shimla HQ",
    "circlename": "Himachal Pradesh",
    "Taluk": "Sangrah",
    "Districtname": "Sirmaur",
    "statename": "HIMACHAL PRADESH"
  },
  {
    "pincode": "173023",
    "officename": "Lanapalar B.O",
    "officeType": "B.O",
    "Deliverystatus": "Delivery",
    "divisionname": "Solan",
    "regionname": "Shimla HQ",
    "circlename": "Himachal Pradesh",
    "Taluk": "Sangrah",
    "Districtname": "Sirmaur",
    "statename": "HIMACHAL PRADESH"
  },
  {
    "pincode": "173023",
    "officename": "Rajana B.O",
    "officeType": "B.O",
    "Deliverystatus": "Delivery",
    "divisionname": "Solan",
    "regionname": "Shimla HQ",
    "circlename": "Himachal Pradesh",
    "Taluk": "Sangarh",
    "Districtname": "Sirmaur",
    "statename": "HIMACHAL PRADESH"
  },
  {
    "pincode": "173023",
    "officename": "Redali B.O",
    "officeType": "B.O",
    "Deliverystatus": "Delivery",
    "divisionname": "Solan",
    "regionname": "Shimla HQ",
    "circlename": "Himachal Pradesh",
    "Taluk": "Sangrah",
    "Districtname": "Sirmaur",
    "statename": "HIMACHAL PRADESH"
  },
  {
    "pincode": "173023",
    "officename": "Sainj B.O",
    "officeType": "B.O",
    "Deliverystatus": "Delivery",
    "divisionname": "Solan",
    "regionname": "Shimla HQ",
    "circlename": "Himachal Pradesh",
    "Taluk": "Sangrah",
    "Districtname": "Sirmaur",
    "statename": "HIMACHAL PRADESH"
  },
  {
    "pincode": "173023",
    "officename": "Sangrah S.O",
    "officeType": "S.O",
    "Deliverystatus": "Delivery",
    "divisionname": "Solan",
    "regionname": "Shimla HQ",
    "circlename": "Himachal Pradesh",
    "Taluk": "Sangrah",
    "Districtname": "Sirmaur",
    "statename": "HIMACHAL PRADESH"
  },
  {
    "pincode": "173023",
    "officename": "Seon B.O",
    "officeType": "B.O",
    "Deliverystatus": "Delivery",
    "divisionname": "Solan",
    "regionname": "Shimla HQ",
    "circlename": "Himachal Pradesh",
    "Taluk": "Sangrah",
    "Districtname": "Sirmaur",
    "statename": "HIMACHAL PRADESH"
  }
]
