[
  {
    "pincode": "173104",
    "officename": "Bogdhar B.O",
    "officeType": "B.O",
    "Deliverystatus": "Delivery",
    "divisionname": "Solan",
    "regionname": "Shimla HQ",
    "circlename": "Himachal Pradesh",
    "Taluk": "Sangrah",
    "Districtname": "Sirmaur",
    "statename": "HIMACHAL PRADESH"
  },
  {
    "pincode": "173104",
    "officename": "Chokar B.O",
    "officeType": "B.O",
    "Deliverystatus": "Delivery",
    "divisionname": "Solan",
    "regionname": "Shimla HQ",
    "circlename": "Himachal Pradesh",
    "Taluk": "Sangrah",
    "Districtname": "Sirmaur",
    "statename": "HIMACHAL PRADESH"
  },
  {
    "pincode": "173104",
    "officename": "Devamanal B.O",
    "officeType": "B.O",
    "Deliverystatus": "Delivery",
    "divisionname": "Solan",
    "regionname": "Shimla HQ",
    "circlename": "Himachal Pradesh",
    "Taluk": "Sangarah",
    "Districtname": "Sirmaur",
    "statename": "HIMACHAL PRADESH"
  },
  {
    "pincode": "173104",
    "officename": "Devna B.O",
    "officeType": "B.O",
    "Deliverystatus": "Delivery",
    "divisionname": "Solan",
    "regionname": "Shimla HQ",
    "circlename": "Himachal Pradesh",
    "Taluk": "Sangrah",
    "Districtname": "Sirmaur",
    "statename": "HIMACHAL PRADESH"
  },
  {
    "pincode": "173104",
    "officename": "Gandhoori B.O",
    "officeType": "B.O",
    "Deliverystatus": "Delivery",
    "divisionname": "Solan",
    "regionname": "Shimla HQ",
    "circlename": "Himachal Pradesh",
    "Taluk": "Sangrah",
    "Districtname": "Sirmaur",
    "statename": "HIMACHAL PRADESH"
  },
  {
    "pincode": "173104",
    "officename": "Kuffar Kiara B.O",
    "officeType": "B.O",
    "Deliverystatus": "Delivery",
    "divisionname": "Solan",
    "regionname": "Shimla HQ",
    "circlename": "Himachal Pradesh",
    "Taluk": "Sangrah",
    "Districtname": "Sirmaur",
    "statename": "HIMACHAL PRADESH"
  },
  {
    "pincode": "173104",
    "officename": "Lanacheta B.O",
    "officeType": "B.O",
    "Deliverystatus": "Delivery",
    "divisionname": "Solan",
    "regionname": "Shimla HQ",
    "circlename": "Himachal Pradesh",
    "Taluk": "Sangrah",
    "Districtname": "Sirmaur",
    "statename": "HIMACHAL PRADESH"
  },
  {
    "pincode": "173104",
    "officename": "Nohra S.O",
    "officeType": "S.O",
    "Deliverystatus": "Delivery",
    "divisionname": "Solan",
    "regionname": "Shimla HQ",
    "circlename": "Himachal Pradesh",
    "Taluk": "Nohra",
    "Districtname": "Sirmaur",
    "statename": "HIMACHAL PRADESH"
  },
  {
    "pincode": "173104",
    "officename": "Punner B.O",
    "officeType": "B.O",
    "Deliverystatus": "Delivery",
    "divisionname": "Solan",
    "regionname": "Shimla HQ",
    "circlename": "Himachal Pradesh",
    "Taluk": "Sangrah",
    "Districtname": "Sirmaur",
    "statename": "HIMACHAL PRADESH"
  },
  {
    "pincode": "173104",
    "officename": "Sertandula B.O",
    "officeType": "B.O",
    "Deliverystatus": "Delivery",
    "divisionname": "Solan",
    "regionname": "Shimla HQ",
    "circlename": "Himachal Pradesh",
    "Taluk": "Sangarh",
    "Districtname": "Sirmaur",
    "statename": "HIMACHAL PRADESH"
  }
]
