[
  {
    "pincode": "173212",
    "officename": "Damkari B.O",
    "officeType": "B.O",
    "Deliverystatus": "Delivery",
    "divisionname": "Solan",
    "regionname": "Shimla HQ",
    "circlename": "Himachal Pradesh",
    "Taluk": "",
    "Districtname": "Solan",
    "statename": "HIMACHAL PRADESH"
  },
  {
    "pincode": "173212",
    "officename": "Galanag B.O",
    "officeType": "B.O",
    "Deliverystatus": "Delivery",
    "divisionname": "Solan",
    "regionname": "Shimla HQ",
    "circlename": "Himachal Pradesh",
    "Taluk": "",
    "Districtname": "Solan",
    "statename": "HIMACHAL PRADESH"
  },
  {
    "pincode": "173212",
    "officename": "Gaura B.O",
    "officeType": "B.O",
    "Deliverystatus": "Delivery",
    "divisionname": "Solan",
    "regionname": "Shimla HQ",
    "circlename": "Himachal Pradesh",
    "Taluk": "",
    "Districtname": "Solan",
    "statename": "HIMACHAL PRADESH"
  },
  {
    "pincode": "173212",
    "officename": "Jaunaji B.O",
    "officeType": "B.O",
    "Deliverystatus": "Delivery",
    "divisionname": "Solan",
    "regionname": "Shimla HQ",
    "circlename": "Himachal Pradesh",
    "Taluk": "",
    "Districtname": "Solan",
    "statename": "HIMACHAL PRADESH"
  },
  {
    "pincode": "173212",
    "officename": "Kotla B.O",
    "officeType": "B.O",
    "Deliverystatus": "Delivery",
    "divisionname": "Solan",
    "regionname": "Shimla HQ",
    "circlename": "Himachal Pradesh",
    "Taluk": "",
    "Districtname": "Solan",
    "statename": "HIMACHAL PRADESH"
  },
  {
    "pincode": "173212",
    "officename": "RR Solan S.O",
    "officeType": "S.O",
    "Deliverystatus": "Non-Delivery",
    "divisionname": "Solan",
    "regionname": "Shimla HQ",
    "circlename": "Himachal Pradesh",
    "Taluk": "Solan(T)",
    "Districtname": "Solan",
    "statename": "HIMACHAL PRADESH"
  },
  {
    "pincode": "173212",
    "officename": "Shamti B.O",
    "officeType": "B.O",
    "Deliverystatus": "Delivery",
    "divisionname": "Solan",
    "regionname": "Shimla HQ",
    "circlename": "Himachal Pradesh",
    "Taluk": "",
    "Districtname": "Solan",
    "statename": "HIMACHAL PRADESH"
  },
  {
    "pincode": "173212",
    "officename": "Solan H.O",
    "officeType": "H.O",
    "Deliverystatus": "Delivery",
    "divisionname": "Solan",
    "regionname": "Shimla HQ",
    "circlename": "Himachal Pradesh",
    "Taluk": "Solan",
    "Districtname": "Solan",
    "statename": "HIMACHAL PRADESH"
  }
]
