[
  {
    "pincode": "173217",
    "officename": "Chail S.O (Solan)",
    "officeType": "S.O",
    "Deliverystatus": "Delivery",
    "divisionname": "Solan",
    "regionname": "Shimla HQ",
    "circlename": "Himachal Pradesh",
    "Taluk": "Kandaghat",
    "Districtname": "Solan",
    "statename": "HIMACHAL PRADESH"
  },
  {
    "pincode": "173217",
    "officename": "Dangheel B.O",
    "officeType": "B.O",
    "Deliverystatus": "Delivery",
    "divisionname": "Solan",
    "regionname": "Shimla HQ",
    "circlename": "Himachal Pradesh",
    "Taluk": "Junga",
    "Districtname": "Solan",
    "statename": "HIMACHAL PRADESH"
  },
  {
    "pincode": "173217",
    "officename": "Dubloo B.O",
    "officeType": "B.O",
    "Deliverystatus": "Delivery",
    "divisionname": "Solan",
    "regionname": "Shimla HQ",
    "circlename": "Himachal Pradesh",
    "Taluk": "Junga",
    "Districtname": "Shimla",
    "statename": "HIMACHAL PRADESH"
  },
  {
    "pincode": "173217",
    "officename": "Hinner B.O",
    "officeType": "B.O",
    "Deliverystatus": "Delivery",
    "divisionname": "Solan",
    "regionname": "Shimla HQ",
    "circlename": "Himachal Pradesh",
    "Taluk": "Kandaghat",
    "Districtname": "Solan",
    "statename": "HIMACHAL PRADESH"
  },
  {
    "pincode": "173217",
    "officename": "Janedghat B.O",
    "officeType": "B.O",
    "Deliverystatus": "Delivery",
    "divisionname": "Solan",
    "regionname": "Shimla HQ",
    "circlename": "Himachal Pradesh",
    "Taluk": "Junga",
    "Districtname": "Shimla",
    "statename": "HIMACHAL PRADESH"
  },
  {
    "pincode": "173217",
    "officename": "Jhaja B.O",
    "officeType": "B.O",
    "Deliverystatus": "Delivery",
    "divisionname": "Solan",
    "regionname": "Shimla HQ",
    "circlename": "Himachal Pradesh",
    "Taluk": "Kandaghat",
    "Districtname": "Solan",
    "statename": "HIMACHAL PRADESH"
  },
  {
    "pincode": "173217",
    "officename": "Nagali B.O",
    "officeType": "B.O",
    "Deliverystatus": "Delivery",
    "divisionname": "Solan",
    "regionname": "Shimla HQ",
    "circlename": "Himachal Pradesh",
    "Taluk": "Kandaghat",
    "Districtname": "Solan",
    "statename": "HIMACHAL PRADESH"
  },
  {
    "pincode": "173217",
    "officename": "Peeran B.O",
    "officeType": "B.O",
    "Deliverystatus": "Delivery",
    "divisionname": "Solan",
    "regionname": "Shimla HQ",
    "circlename": "Himachal Pradesh",
    "Taluk": "Kandaghat",
    "Districtname": "Shimla",
    "statename": "HIMACHAL PRADESH"
  },
  {
    "pincode": "173217",
    "officename": "Tikker B.O",
    "officeType": "B.O",
    "Deliverystatus": "Delivery",
    "divisionname": "Solan",
    "regionname": "Shimla HQ",
    "circlename": "Himachal Pradesh",
    "Taluk": "Kandaghat",
    "Districtname": "Solan",
    "statename": "HIMACHAL PRADESH"
  }
]
