[
  {
    "pincode": "173221",
    "officename": "Balera B.O",
    "officeType": "B.O",
    "Deliverystatus": "Delivery",
    "divisionname": "Solan",
    "regionname": "Shimla HQ",
    "circlename": "Himachal Pradesh",
    "Taluk": "Arki",
    "Districtname": "Solan",
    "statename": "HIMACHAL PRADESH"
  },
  {
    "pincode": "173221",
    "officename": "Bhumati B.O",
    "officeType": "B.O",
    "Deliverystatus": "Delivery",
    "divisionname": "Solan",
    "regionname": "Shimla HQ",
    "circlename": "Himachal Pradesh",
    "Taluk": "Arki",
    "Districtname": "Solan",
    "statename": "HIMACHAL PRADESH"
  },
  {
    "pincode": "173221",
    "officename": "Domehar S.O",
    "officeType": "S.O",
    "Deliverystatus": "Delivery",
    "divisionname": "Solan",
    "regionname": "Shimla HQ",
    "circlename": "Himachal Pradesh",
    "Taluk": "Arki",
    "Districtname": "Solan",
    "statename": "HIMACHAL PRADESH"
  },
  {
    "pincode": "173221",
    "officename": "Jainagar B.O",
    "officeType": "B.O",
    "Deliverystatus": "Delivery",
    "divisionname": "Solan",
    "regionname": "Shimla HQ",
    "circlename": "Himachal Pradesh",
    "Taluk": "Arki",
    "Districtname": "Solan",
    "statename": "HIMACHAL PRADESH"
  },
  {
    "pincode": "173221",
    "officename": "Jobri B.O",
    "officeType": "B.O",
    "Deliverystatus": "Delivery",
    "divisionname": "Solan",
    "regionname": "Shimla HQ",
    "circlename": "Himachal Pradesh",
    "Taluk": "Arki",
    "Districtname": "Solan",
    "statename": "HIMACHAL PRADESH"
  },
  {
    "pincode": "173221",
    "officename": "Kunhar B.O",
    "officeType": "B.O",
    "Deliverystatus": "Delivery",
    "divisionname": "Solan",
    "regionname": "Shimla HQ",
    "circlename": "Himachal Pradesh",
    "Taluk": "Arki",
    "Districtname": "Solan",
    "statename": "HIMACHAL PRADESH"
  },
  {
    "pincode": "173221",
    "officename": "Materani B.O",
    "officeType": "B.O",
    "Deliverystatus": "Delivery",
    "divisionname": "Solan",
    "regionname": "Shimla HQ",
    "circlename": "Himachal Pradesh",
    "Taluk": "Arki",
    "Districtname": "Solan",
    "statename": "HIMACHAL PRADESH"
  },
  {
    "pincode": "173221",
    "officename": "Shehrol B.O",
    "officeType": "B.O",
    "Deliverystatus": "Delivery",
    "divisionname": "Solan",
    "regionname": "Shimla HQ",
    "circlename": "Himachal Pradesh",
    "Taluk": "Arki",
    "Districtname": "Solan",
    "statename": "HIMACHAL PRADESH"
  }
]
