[
  {
    "pincode": "173206",
    "officename": "Baddal Goela B.O",
    "officeType": "B.O",
    "Deliverystatus": "Delivery",
    "divisionname": "Solan",
    "regionname": "Shimla HQ",
    "circlename": "Himachal Pradesh",
    "Taluk": "",
    "Districtname": "Solan",
    "statename": "HIMACHAL PRADESH"
  },
  {
    "pincode": "173206",
    "officename": "Bharti B.O",
    "officeType": "B.O",
    "Deliverystatus": "Delivery",
    "divisionname": "Solan",
    "regionname": "Shimla HQ",
    "circlename": "Himachal Pradesh",
    "Taluk": "",
    "Districtname": "Solan",
    "statename": "HIMACHAL PRADESH"
  },
  {
    "pincode": "173206",
    "officename": "Chandi B.O",
    "officeType": "B.O",
    "Deliverystatus": "Delivery",
    "divisionname": "Solan",
    "regionname": "Shimla HQ",
    "circlename": "Himachal Pradesh",
    "Taluk": "",
    "Districtname": "Solan",
    "statename": "HIMACHAL PRADESH"
  },
  {
    "pincode": "173206",
    "officename": "Darwa B.O",
    "officeType": "B.O",
    "Deliverystatus": "Delivery",
    "divisionname": "Solan",
    "regionname": "Shimla HQ",
    "circlename": "Himachal Pradesh",
    "Taluk": "",
    "Districtname": "Solan",
    "statename": "HIMACHAL PRADESH"
  },
  {
    "pincode": "173206",
    "officename": "Delgi B.O",
    "officeType": "B.O",
    "Deliverystatus": "Delivery",
    "divisionname": "Solan",
    "regionname": "Shimla HQ",
    "circlename": "Himachal Pradesh",
    "Taluk": "",
    "Districtname": "Solan",
    "statename": "HIMACHAL PRADESH"
  },
  {
    "pincode": "173206",
    "officename": "Dhakriana B.O",
    "officeType": "B.O",
    "Deliverystatus": "Delivery",
    "divisionname": "Solan",
    "regionname": "Shimla HQ",
    "circlename": "Himachal Pradesh",
    "Taluk": "",
    "Districtname": "Solan",
    "statename": "HIMACHAL PRADESH"
  },
  {
    "pincode": "173206",
    "officename": "Gharsi B.O",
    "officeType": "B.O",
    "Deliverystatus": "Delivery",
    "divisionname": "Solan",
    "regionname": "Shimla HQ",
    "circlename": "Himachal Pradesh",
    "Taluk": "",
    "Districtname": "Solan",
    "statename": "HIMACHAL PRADESH"
  },
  {
    "pincode": "173206",
    "officename": "Haripur B.O",
    "officeType": "B.O",
    "Deliverystatus": "Delivery",
    "divisionname": "Solan",
    "regionname": "Shimla HQ",
    "circlename": "Himachal Pradesh",
    "Taluk": "",
    "Districtname": "Solan",
    "statename": "HIMACHAL PRADESH"
  },
  {
    "pincode": "173206",
    "officename": "Kakkar Hatti B.O",
    "officeType": "B.O",
    "Deliverystatus": "Delivery",
    "divisionname": "Solan",
    "regionname": "Shimla HQ",
    "circlename": "Himachal Pradesh",
    "Taluk": "",
    "Districtname": "Solan",
    "statename": "HIMACHAL PRADESH"
  },
  {
    "pincode": "173206",
    "officename": "Kuthar B.O",
    "officeType": "B.O",
    "Deliverystatus": "Delivery",
    "divisionname": "Solan",
    "regionname": "Shimla HQ",
    "circlename": "Himachal Pradesh",
    "Taluk": "",
    "Districtname": "Solan",
    "statename": "HIMACHAL PRADESH"
  },
  {
    "pincode": "173206",
    "officename": "Malera B.O",
    "officeType": "B.O",
    "Deliverystatus": "Delivery",
    "divisionname": "Solan",
    "regionname": "Shimla HQ",
    "circlename": "Himachal Pradesh",
    "Taluk": "",
    "Districtname": "Solan",
    "statename": "HIMACHAL PRADESH"
  },
  {
    "pincode": "173206",
    "officename": "Rampur B.O",
    "officeType": "B.O",
    "Deliverystatus": "Delivery",
    "divisionname": "Solan",
    "regionname": "Shimla HQ",
    "circlename": "Himachal Pradesh",
    "Taluk": "",
    "Districtname": "Solan",
    "statename": "HIMACHAL PRADESH"
  },
  {
    "pincode": "173206",
    "officename": "Subathu S.O",
    "officeType": "S.O",
    "Deliverystatus": "Delivery",
    "divisionname": "Solan",
    "regionname": "Shimla HQ",
    "circlename": "Himachal Pradesh",
    "Taluk": "",
    "Districtname": "Solan",
    "statename": "HIMACHAL PRADESH"
  }
]
