[
  {
    "pincode": "174001",
    "officename": "Bamta B.O",
    "officeType": "B.O",
    "Deliverystatus": "Delivery",
    "divisionname": "Hamirpur",
    "regionname": "Shimla HQ",
    "circlename": "Himachal Pradesh",
    "Taluk": "Bilaspur",
    "Districtname": "Bilaspur (HP)",
    "statename": "HIMACHAL PRADESH"
  },
  {
    "pincode": "174001",
    "officename": "Bandla B.O",
    "officeType": "B.O",
    "Deliverystatus": "Delivery",
    "divisionname": "Hamirpur",
    "regionname": "Shimla HQ",
    "circlename": "Himachal Pradesh",
    "Taluk": "Bilaspur",
    "Districtname": "Bilaspur (HP)",
    "statename": "HIMACHAL PRADESH"
  },
  {
    "pincode": "174001",
    "officename": "Behna Jattan B.O",
    "officeType": "B.O",
    "Deliverystatus": "Delivery",
    "divisionname": "Hamirpur",
    "regionname": "Shimla HQ",
    "circlename": "Himachal Pradesh",
    "Taluk": "Bilaspur",
    "Districtname": "Bilaspur (HP)",
    "statename": "HIMACHAL PRADESH"
  },
  {
    "pincode": "174001",
    "officename": "Beri Razadian B.O",
    "officeType": "B.O",
    "Deliverystatus": "Delivery",
    "divisionname": "Hamirpur",
    "regionname": "Shimla HQ",
    "circlename": "Himachal Pradesh",
    "Taluk": "Bilaspur",
    "Districtname": "Bilaspur (HP)",
    "statename": "HIMACHAL PRADESH"
  },
  {
    "pincode": "174001",
    "officename": "Bilaspur (Bilaspur- HP) H.O",
    "officeType": "H.O",
    "Deliverystatus": "Delivery",
    "divisionname": "Hamirpur",
    "regionname": "Shimla HQ",
    "circlename": "Himachal Pradesh",
    "Taluk": "Bilaspur",
    "Districtname": "Bilaspur (HP)",
    "statename": "HIMACHAL PRADESH"
  },
  {
    "pincode": "174001",
    "officename": "Bilaspur Kty S.O",
    "officeType": "S.O",
    "Deliverystatus": "Non-Delivery",
    "divisionname": "Hamirpur",
    "regionname": "Shimla HQ",
    "circlename": "Himachal Pradesh",
    "Taluk": "Bilaspur Sadar(T)",
    "Districtname": "Bilaspur (HP)",
    "statename": "HIMACHAL PRADESH"
  },
  {
    "pincode": "174001",
    "officename": "Binola B.O",
    "officeType": "B.O",
    "Deliverystatus": "Delivery",
    "divisionname": "Hamirpur",
    "regionname": "Shimla HQ",
    "circlename": "Himachal Pradesh",
    "Taluk": "Bilaspur",
    "Districtname": "Bilaspur (HP)",
    "statename": "HIMACHAL PRADESH"
  },
  {
    "pincode": "174001",
    "officename": "Brahampukhar B.O",
    "officeType": "B.O",
    "Deliverystatus": "Delivery",
    "divisionname": "Hamirpur",
    "regionname": "Shimla HQ",
    "circlename": "Himachal Pradesh",
    "Taluk": "Bilaspur",
    "Districtname": "Bilaspur (HP)",
    "statename": "HIMACHAL PRADESH"
  },
  {
    "pincode": "174001",
    "officename": "Chhakoh B.O",
    "officeType": "B.O",
    "Deliverystatus": "Delivery",
    "divisionname": "Hamirpur",
    "regionname": "Shimla HQ",
    "circlename": "Himachal Pradesh",
    "Taluk": "Bilaspur",
    "Districtname": "Bilaspur (HP)",
    "statename": "HIMACHAL PRADESH"
  },
  {
    "pincode": "174001",
    "officename": "Chharol B.O",
    "officeType": "B.O",
    "Deliverystatus": "Delivery",
    "divisionname": "Hamirpur",
    "regionname": "Shimla HQ",
    "circlename": "Himachal Pradesh",
    "Taluk": "Bilaspur",
    "Districtname": "Bilaspur (HP)",
    "statename": "HIMACHAL PRADESH"
  },
  {
    "pincode": "174001",
    "officename": "Deoli B.O",
    "officeType": "B.O",
    "Deliverystatus": "Delivery",
    "divisionname": "Hamirpur",
    "regionname": "Shimla HQ",
    "circlename": "Himachal Pradesh",
    "Taluk": "Bilaspur",
    "Districtname": "Bilaspur (HP)",
    "statename": "HIMACHAL PRADESH"
  },
  {
    "pincode": "174001",
    "officename": "Deoth B.O",
    "officeType": "B.O",
    "Deliverystatus": "Delivery",
    "divisionname": "Hamirpur",
    "regionname": "Shimla HQ",
    "circlename": "Himachal Pradesh",
    "Taluk": "Bilaspur",
    "Districtname": "Bilaspur (HP)",
    "statename": "HIMACHAL PRADESH"
  },
  {
    "pincode": "174001",
    "officename": "Dobha B.O",
    "officeType": "B.O",
    "Deliverystatus": "Delivery",
    "divisionname": "Hamirpur",
    "regionname": "Shimla HQ",
    "circlename": "Himachal Pradesh",
    "Taluk": "Bilaspur",
    "Districtname": "Bilaspur (HP)",
    "statename": "HIMACHAL PRADESH"
  },
  {
    "pincode": "174001",
    "officename": "Kallar B.O",
    "officeType": "B.O",
    "Deliverystatus": "Delivery",
    "divisionname": "Hamirpur",
    "regionname": "Shimla HQ",
    "circlename": "Himachal Pradesh",
    "Taluk": "Bilaspur",
    "Districtname": "Bilaspur (HP)",
    "statename": "HIMACHAL PRADESH"
  },
  {
    "pincode": "174001",
    "officename": "Kothipura B.O",
    "officeType": "B.O",
    "Deliverystatus": "Delivery",
    "divisionname": "Hamirpur",
    "regionname": "Shimla HQ",
    "circlename": "Himachal Pradesh",
    "Taluk": "Bilaspur",
    "Districtname": "Bilaspur (HP)",
    "statename": "HIMACHAL PRADESH"
  },
  {
    "pincode": "174001",
    "officename": "Lakhanpur B.O",
    "officeType": "B.O",
    "Deliverystatus": "Delivery",
    "divisionname": "Hamirpur",
    "regionname": "Shimla HQ",
    "circlename": "Himachal Pradesh",
    "Taluk": "Bilaspur",
    "Districtname": "Bilaspur (HP)",
    "statename": "HIMACHAL PRADESH"
  },
  {
    "pincode": "174001",
    "officename": "New Bilaspur Town Ship S.O",
    "officeType": "S.O",
    "Deliverystatus": "Non-Delivery",
    "divisionname": "Hamirpur",
    "regionname": "Shimla HQ",
    "circlename": "Himachal Pradesh",
    "Taluk": "Bilaspur",
    "Districtname": "Bilaspur (HP)",
    "statename": "HIMACHAL PRADESH"
  },
  {
    "pincode": "174001",
    "officename": "Noa B.O",
    "officeType": "B.O",
    "Deliverystatus": "Delivery",
    "divisionname": "Hamirpur",
    "regionname": "Shimla HQ",
    "circlename": "Himachal Pradesh",
    "Taluk": "Bilaspur",
    "Districtname": "Bilaspur (HP)",
    "statename": "HIMACHAL PRADESH"
  },
  {
    "pincode": "174001",
    "officename": "Raura Sector Bilaspur S.O",
    "officeType": "S.O",
    "Deliverystatus": "Non-Delivery",
    "divisionname": "Hamirpur",
    "regionname": "Shimla HQ",
    "circlename": "Himachal Pradesh",
    "Taluk": "Bilaspur Sadar",
    "Districtname": "Bilaspur (HP)",
    "statename": "HIMACHAL PRADESH"
  },
  {
    "pincode": "174001",
    "officename": "Rishikesh B.O",
    "officeType": "B.O",
    "Deliverystatus": "Delivery",
    "divisionname": "Hamirpur",
    "regionname": "Shimla HQ",
    "circlename": "Himachal Pradesh",
    "Taluk": "Bilaspur",
    "Districtname": "Bilaspur (HP)",
    "statename": "HIMACHAL PRADESH"
  },
  {
    "pincode": "174001",
    "officename": "Sai Kharsi B.O",
    "officeType": "B.O",
    "Deliverystatus": "Delivery",
    "divisionname": "Hamirpur",
    "regionname": "Shimla HQ",
    "circlename": "Himachal Pradesh",
    "Taluk": "Bilaspur",
    "Districtname": "Bilaspur (HP)",
    "statename": "HIMACHAL PRADESH"
  },
  {
    "pincode": "174001",
    "officename": "Tatoh B.O",
    "officeType": "B.O",
    "Deliverystatus": "Delivery",
    "divisionname": "Hamirpur",
    "regionname": "Shimla HQ",
    "circlename": "Himachal Pradesh",
    "Taluk": "Bilaspur",
    "Districtname": "Bilaspur (HP)",
    "statename": "HIMACHAL PRADESH"
  }
]
