[
  {
    "pincode": "174030",
    "officename": "Daslehra B.O",
    "officeType": "B.O",
    "Deliverystatus": "Delivery",
    "divisionname": "Hamirpur",
    "regionname": "Shimla HQ",
    "circlename": "Himachal Pradesh",
    "Taluk": "Jhandutta",
    "Districtname": "Bilaspur (HP)",
    "statename": "HIMACHAL PRADESH"
  },
  {
    "pincode": "174030",
    "officename": "Gangloh B.O",
    "officeType": "B.O",
    "Deliverystatus": "Delivery",
    "divisionname": "Hamirpur",
    "regionname": "Shimla HQ",
    "circlename": "Himachal Pradesh",
    "Taluk": "Jhandutta",
    "Districtname": "Bilaspur (HP)",
    "statename": "HIMACHAL PRADESH"
  },
  {
    "pincode": "174030",
    "officename": "Gharan B.O",
    "officeType": "B.O",
    "Deliverystatus": "Delivery",
    "divisionname": "Hamirpur",
    "regionname": "Shimla HQ",
    "circlename": "Himachal Pradesh",
    "Taluk": "Jhandutta",
    "Districtname": "Bilaspur (HP)",
    "statename": "HIMACHAL PRADESH"
  },
  {
    "pincode": "174030",
    "officename": "Jaddu B.O",
    "officeType": "B.O",
    "Deliverystatus": "Delivery",
    "divisionname": "Hamirpur",
    "regionname": "Shimla HQ",
    "circlename": "Himachal Pradesh",
    "Taluk": "Jhansdutta",
    "Districtname": "Bilaspur (HP)",
    "statename": "HIMACHAL PRADESH"
  },
  {
    "pincode": "174030",
    "officename": "Jhabola B.O",
    "officeType": "B.O",
    "Deliverystatus": "Delivery",
    "divisionname": "Hamirpur",
    "regionname": "Shimla HQ",
    "circlename": "Himachal Pradesh",
    "Taluk": "Jhandutta",
    "Districtname": "Bilaspur (HP)",
    "statename": "HIMACHAL PRADESH"
  },
  {
    "pincode": "174030",
    "officename": "Koserian B.O",
    "officeType": "B.O",
    "Deliverystatus": "Delivery",
    "divisionname": "Hamirpur",
    "regionname": "Shimla HQ",
    "circlename": "Himachal Pradesh",
    "Taluk": "Jhandutta",
    "Districtname": "Bilaspur (HP)",
    "statename": "HIMACHAL PRADESH"
  },
  {
    "pincode": "174030",
    "officename": "Naghiar B.O",
    "officeType": "B.O",
    "Deliverystatus": "Delivery",
    "divisionname": "Hamirpur",
    "regionname": "Shimla HQ",
    "circlename": "Himachal Pradesh",
    "Taluk": "Jhandutta",
    "Districtname": "Bilaspur (HP)",
    "statename": "HIMACHAL PRADESH"
  },
  {
    "pincode": "174030",
    "officename": "Tallai S.O",
    "officeType": "S.O",
    "Deliverystatus": "Delivery",
    "divisionname": "Hamirpur",
    "regionname": "Shimla HQ",
    "circlename": "Himachal Pradesh",
    "Taluk": "Jhandutha",
    "Districtname": "Bilaspur (HP)",
    "statename": "HIMACHAL PRADESH"
  }
]
