[
  {
    "pincode": "174021",
    "officename": "Amarpur B.O",
    "officeType": "B.O",
    "Deliverystatus": "Delivery",
    "divisionname": "Hamirpur",
    "regionname": "Shimla HQ",
    "circlename": "Himachal Pradesh",
    "Taluk": "Ghumarwin",
    "Districtname": "Bilaspur (HP)",
    "statename": "HIMACHAL PRADESH"
  },
  {
    "pincode": "174021",
    "officename": "Bari Majherwin B.O",
    "officeType": "B.O",
    "Deliverystatus": "Delivery",
    "divisionname": "Hamirpur",
    "regionname": "Shimla HQ",
    "circlename": "Himachal Pradesh",
    "Taluk": "Ghumarwin",
    "Districtname": "Bilaspur (HP)",
    "statename": "HIMACHAL PRADESH"
  },
  {
    "pincode": "174021",
    "officename": "Bhager B.O",
    "officeType": "B.O",
    "Deliverystatus": "Delivery",
    "divisionname": "Hamirpur",
    "regionname": "Shimla HQ",
    "circlename": "Himachal Pradesh",
    "Taluk": "Ghumarwin",
    "Districtname": "Bilaspur (HP)",
    "statename": "HIMACHAL PRADESH"
  },
  {
    "pincode": "174021",
    "officename": "Dabla B.O",
    "officeType": "B.O",
    "Deliverystatus": "Delivery",
    "divisionname": "Hamirpur",
    "regionname": "Shimla HQ",
    "circlename": "Himachal Pradesh",
    "Taluk": "Ghuamrwin",
    "Districtname": "Bilaspur (HP)",
    "statename": "HIMACHAL PRADESH"
  },
  {
    "pincode": "174021",
    "officename": "Ghumarwin S.O",
    "officeType": "S.O",
    "Deliverystatus": "Delivery",
    "divisionname": "Hamirpur",
    "regionname": "Shimla HQ",
    "circlename": "Himachal Pradesh",
    "Taluk": "Ghumarwin",
    "Districtname": "Bilaspur (HP)",
    "statename": "HIMACHAL PRADESH"
  },
  {
    "pincode": "174021",
    "officename": "Kothi B.O",
    "officeType": "B.O",
    "Deliverystatus": "Delivery",
    "divisionname": "Hamirpur",
    "regionname": "Shimla HQ",
    "circlename": "Himachal Pradesh",
    "Taluk": "Ghumarwin",
    "Districtname": "Bilaspur (HP)",
    "statename": "HIMACHAL PRADESH"
  },
  {
    "pincode": "174021",
    "officename": "Loharwin B.O",
    "officeType": "B.O",
    "Deliverystatus": "Delivery",
    "divisionname": "Hamirpur",
    "regionname": "Shimla HQ",
    "circlename": "Himachal Pradesh",
    "Taluk": "Ghumarwin",
    "Districtname": "Bilaspur (HP)",
    "statename": "HIMACHAL PRADESH"
  },
  {
    "pincode": "174021",
    "officename": "Naswal B.O",
    "officeType": "B.O",
    "Deliverystatus": "Delivery",
    "divisionname": "Hamirpur",
    "regionname": "Shimla HQ",
    "circlename": "Himachal Pradesh",
    "Taluk": "Ghumarwin",
    "Districtname": "Bilaspur (HP)",
    "statename": "HIMACHAL PRADESH"
  },
  {
    "pincode": "174021",
    "officename": "Samoh B.O",
    "officeType": "B.O",
    "Deliverystatus": "Delivery",
    "divisionname": "Hamirpur",
    "regionname": "Shimla HQ",
    "circlename": "Himachal Pradesh",
    "Taluk": "Ghumarwin",
    "Districtname": "Bilaspur (HP)",
    "statename": "HIMACHAL PRADESH"
  },
  {
    "pincode": "174021",
    "officename": "Takrera B.O",
    "officeType": "B.O",
    "Deliverystatus": "Delivery",
    "divisionname": "Hamirpur",
    "regionname": "Shimla HQ",
    "circlename": "Himachal Pradesh",
    "Taluk": "Ghumarwin",
    "Districtname": "Bilaspur (HP)",
    "statename": "HIMACHAL PRADESH"
  }
]
