[
  {
    "pincode": "174101",
    "officename": "Baruna B.O",
    "officeType": "B.O",
    "Deliverystatus": "Delivery",
    "divisionname": "Solan",
    "regionname": "Shimla HQ",
    "circlename": "Himachal Pradesh",
    "Taluk": "",
    "Districtname": "Solan",
    "statename": "HIMACHAL PRADESH"
  },
  {
    "pincode": "174101",
    "officename": "Bhatian B.O",
    "officeType": "B.O",
    "Deliverystatus": "Delivery",
    "divisionname": "Solan",
    "regionname": "Shimla HQ",
    "circlename": "Himachal Pradesh",
    "Taluk": "",
    "Districtname": "Solan",
    "statename": "HIMACHAL PRADESH"
  },
  {
    "pincode": "174101",
    "officename": "Bhogpur B.O",
    "officeType": "B.O",
    "Deliverystatus": "Delivery",
    "divisionname": "Solan",
    "regionname": "Shimla HQ",
    "circlename": "Himachal Pradesh",
    "Taluk": "",
    "Districtname": "Solan",
    "statename": "HIMACHAL PRADESH"
  },
  {
    "pincode": "174101",
    "officename": "Dabhota B.O",
    "officeType": "B.O",
    "Deliverystatus": "Delivery",
    "divisionname": "Solan",
    "regionname": "Shimla HQ",
    "circlename": "Himachal Pradesh",
    "Taluk": "",
    "Districtname": "Solan",
    "statename": "HIMACHAL PRADESH"
  },
  {
    "pincode": "174101",
    "officename": "Galote B.O",
    "officeType": "B.O",
    "Deliverystatus": "Delivery",
    "divisionname": "Solan",
    "regionname": "Shimla HQ",
    "circlename": "Himachal Pradesh",
    "Taluk": "",
    "Districtname": "Solan",
    "statename": "HIMACHAL PRADESH"
  },
  {
    "pincode": "174101",
    "officename": "Goela Panner B.O",
    "officeType": "B.O",
    "Deliverystatus": "Delivery",
    "divisionname": "Solan",
    "regionname": "Shimla HQ",
    "circlename": "Himachal Pradesh",
    "Taluk": "",
    "Districtname": "Solan",
    "statename": "HIMACHAL PRADESH"
  },
  {
    "pincode": "174101",
    "officename": "Gurumajra B.O",
    "officeType": "B.O",
    "Deliverystatus": "Delivery",
    "divisionname": "Solan",
    "regionname": "Shimla HQ",
    "circlename": "Himachal Pradesh",
    "Taluk": "",
    "Districtname": "Solan",
    "statename": "HIMACHAL PRADESH"
  },
  {
    "pincode": "174101",
    "officename": "Jhajra B.O",
    "officeType": "B.O",
    "Deliverystatus": "Delivery",
    "divisionname": "Solan",
    "regionname": "Shimla HQ",
    "circlename": "Himachal Pradesh",
    "Taluk": "",
    "Districtname": "Solan",
    "statename": "HIMACHAL PRADESH"
  },
  {
    "pincode": "174101",
    "officename": "Joghon B.O",
    "officeType": "B.O",
    "Deliverystatus": "Delivery",
    "divisionname": "Solan",
    "regionname": "Shimla HQ",
    "circlename": "Himachal Pradesh",
    "Taluk": "",
    "Districtname": "Solan",
    "statename": "HIMACHAL PRADESH"
  },
  {
    "pincode": "174101",
    "officename": "Kalibari B.O",
    "officeType": "B.O",
    "Deliverystatus": "Delivery",
    "divisionname": "Solan",
    "regionname": "Shimla HQ",
    "circlename": "Himachal Pradesh",
    "Taluk": "",
    "Districtname": "Solan",
    "statename": "HIMACHAL PRADESH"
  },
  {
    "pincode": "174101",
    "officename": "Khera B.O",
    "officeType": "B.O",
    "Deliverystatus": "Delivery",
    "divisionname": "Solan",
    "regionname": "Shimla HQ",
    "circlename": "Himachal Pradesh",
    "Taluk": "",
    "Districtname": "Solan",
    "statename": "HIMACHAL PRADESH"
  },
  {
    "pincode": "174101",
    "officename": "Khillian B.O",
    "officeType": "B.O",
    "Deliverystatus": "Delivery",
    "divisionname": "Solan",
    "regionname": "Shimla HQ",
    "circlename": "Himachal Pradesh",
    "Taluk": "",
    "Districtname": "Solan",
    "statename": "HIMACHAL PRADESH"
  },
  {
    "pincode": "174101",
    "officename": "Kundlu B.O",
    "officeType": "B.O",
    "Deliverystatus": "Delivery",
    "divisionname": "Solan",
    "regionname": "Shimla HQ",
    "circlename": "Himachal Pradesh",
    "Taluk": "",
    "Districtname": "Solan",
    "statename": "HIMACHAL PRADESH"
  },
  {
    "pincode": "174101",
    "officename": "Lodhimajra B.O",
    "officeType": "B.O",
    "Deliverystatus": "Delivery",
    "divisionname": "Solan",
    "regionname": "Shimla HQ",
    "circlename": "Himachal Pradesh",
    "Taluk": "",
    "Districtname": "Solan",
    "statename": "HIMACHAL PRADESH"
  },
  {
    "pincode": "174101",
    "officename": "Manjholi B.O",
    "officeType": "B.O",
    "Deliverystatus": "Delivery",
    "divisionname": "Solan",
    "regionname": "Shimla HQ",
    "circlename": "Himachal Pradesh",
    "Taluk": "",
    "Districtname": "Solan",
    "statename": "HIMACHAL PRADESH"
  },
  {
    "pincode": "174101",
    "officename": "Manpura B.O",
    "officeType": "B.O",
    "Deliverystatus": "Delivery",
    "divisionname": "Solan",
    "regionname": "Shimla HQ",
    "circlename": "Himachal Pradesh",
    "Taluk": "",
    "Districtname": "Solan",
    "statename": "HIMACHAL PRADESH"
  },
  {
    "pincode": "174101",
    "officename": "Nalagarh S.O",
    "officeType": "S.O",
    "Deliverystatus": "Delivery",
    "divisionname": "Solan",
    "regionname": "Shimla HQ",
    "circlename": "Himachal Pradesh",
    "Taluk": "",
    "Districtname": "Solan",
    "statename": "HIMACHAL PRADESH"
  },
  {
    "pincode": "174101",
    "officename": "Nangal B.O",
    "officeType": "B.O",
    "Deliverystatus": "Delivery",
    "divisionname": "Solan",
    "regionname": "Shimla HQ",
    "circlename": "Himachal Pradesh",
    "Taluk": "",
    "Districtname": "Solan",
    "statename": "HIMACHAL PRADESH"
  },
  {
    "pincode": "174101",
    "officename": "Panjhera B.O",
    "officeType": "B.O",
    "Deliverystatus": "Delivery",
    "divisionname": "Solan",
    "regionname": "Shimla HQ",
    "circlename": "Himachal Pradesh",
    "Taluk": "",
    "Districtname": "Solan",
    "statename": "HIMACHAL PRADESH"
  },
  {
    "pincode": "174101",
    "officename": "Plassaikalan B.O",
    "officeType": "B.O",
    "Deliverystatus": "Delivery",
    "divisionname": "Solan",
    "regionname": "Shimla HQ",
    "circlename": "Himachal Pradesh",
    "Taluk": "",
    "Districtname": "Solan",
    "statename": "HIMACHAL PRADESH"
  },
  {
    "pincode": "174101",
    "officename": "Rajpura B.O",
    "officeType": "B.O",
    "Deliverystatus": "Delivery",
    "divisionname": "Solan",
    "regionname": "Shimla HQ",
    "circlename": "Himachal Pradesh",
    "Taluk": "",
    "Districtname": "Solan",
    "statename": "HIMACHAL PRADESH"
  },
  {
    "pincode": "174101",
    "officename": "Ratwari B.O",
    "officeType": "B.O",
    "Deliverystatus": "Delivery",
    "divisionname": "Solan",
    "regionname": "Shimla HQ",
    "circlename": "Himachal Pradesh",
    "Taluk": "",
    "Districtname": "Solan",
    "statename": "HIMACHAL PRADESH"
  },
  {
    "pincode": "174101",
    "officename": "Reru B.O",
    "officeType": "B.O",
    "Deliverystatus": "Delivery",
    "divisionname": "Solan",
    "regionname": "Shimla HQ",
    "circlename": "Himachal Pradesh",
    "Taluk": "",
    "Districtname": "Solan",
    "statename": "HIMACHAL PRADESH"
  }
]
