[
  {
    "pincode": "174307",
    "officename": "Arlu B.O",
    "officeType": "B.O",
    "Deliverystatus": "Delivery",
    "divisionname": "Una",
    "regionname": "Shimla HQ",
    "circlename": "Himachal Pradesh",
    "Taluk": "Bangana(T)",
    "Districtname": "Una",
    "statename": "HIMACHAL PRADESH"
  },
  {
    "pincode": "174307",
    "officename": "Bangana S.O",
    "officeType": "S.O",
    "Deliverystatus": "Delivery",
    "divisionname": "Una",
    "regionname": "Shimla HQ",
    "circlename": "Himachal Pradesh",
    "Taluk": "Bangana",
    "Districtname": "Una",
    "statename": "HIMACHAL PRADESH"
  },
  {
    "pincode": "174307",
    "officename": "Charara B.O",
    "officeType": "B.O",
    "Deliverystatus": "Delivery",
    "divisionname": "Una",
    "regionname": "Shimla HQ",
    "circlename": "Himachal Pradesh",
    "Taluk": "Bangana",
    "Districtname": "Una",
    "statename": "HIMACHAL PRADESH"
  },
  {
    "pincode": "174307",
    "officename": "Dohgi Upperli B.O",
    "officeType": "B.O",
    "Deliverystatus": "Delivery",
    "divisionname": "Una",
    "regionname": "Shimla HQ",
    "circlename": "Himachal Pradesh",
    "Taluk": "Bangana",
    "Districtname": "Una",
    "statename": "HIMACHAL PRADESH"
  },
  {
    "pincode": "174307",
    "officename": "Harot B.O",
    "officeType": "B.O",
    "Deliverystatus": "Delivery",
    "divisionname": "Una",
    "regionname": "Shimla HQ",
    "circlename": "Himachal Pradesh",
    "Taluk": "Bangana",
    "Districtname": "Una",
    "statename": "HIMACHAL PRADESH"
  },
  {
    "pincode": "174307",
    "officename": "Hatli B.O",
    "officeType": "B.O",
    "Deliverystatus": "Delivery",
    "divisionname": "Una",
    "regionname": "Shimla HQ",
    "circlename": "Himachal Pradesh",
    "Taluk": "Bangana",
    "Districtname": "Una",
    "statename": "HIMACHAL PRADESH"
  },
  {
    "pincode": "174307",
    "officename": "Jassana B.O",
    "officeType": "B.O",
    "Deliverystatus": "Delivery",
    "divisionname": "Una",
    "regionname": "Shimla HQ",
    "circlename": "Himachal Pradesh",
    "Taluk": "Bangana",
    "Districtname": "Una",
    "statename": "HIMACHAL PRADESH"
  },
  {
    "pincode": "174307",
    "officename": "Jatehri B.O",
    "officeType": "B.O",
    "Deliverystatus": "Delivery",
    "divisionname": "Una",
    "regionname": "Shimla HQ",
    "circlename": "Himachal Pradesh",
    "Taluk": "Bangana",
    "Districtname": "Una",
    "statename": "HIMACHAL PRADESH"
  },
  {
    "pincode": "174307",
    "officename": "Nari Devi Singh B.O",
    "officeType": "B.O",
    "Deliverystatus": "Delivery",
    "divisionname": "Una",
    "regionname": "Shimla HQ",
    "circlename": "Himachal Pradesh",
    "Taluk": "Bangana",
    "Districtname": "Una",
    "statename": "HIMACHAL PRADESH"
  },
  {
    "pincode": "174307",
    "officename": "Thathoon B.O",
    "officeType": "B.O",
    "Deliverystatus": "Delivery",
    "divisionname": "Una",
    "regionname": "Shimla HQ",
    "circlename": "Himachal Pradesh",
    "Taluk": "Bangana",
    "Districtname": "Una",
    "statename": "HIMACHAL PRADESH"
  }
]
