[
  {
    "pincode": "174303",
    "officename": "Badsala B.O",
    "officeType": "B.O",
    "Deliverystatus": "Delivery",
    "divisionname": "Una",
    "regionname": "Shimla HQ",
    "circlename": "Himachal Pradesh",
    "Taluk": "Una",
    "Districtname": "Una",
    "statename": "HIMACHAL PRADESH"
  },
  {
    "pincode": "174303",
    "officename": "Barnoh B.O",
    "officeType": "B.O",
    "Deliverystatus": "Delivery",
    "divisionname": "Una",
    "regionname": "Shimla HQ",
    "circlename": "Himachal Pradesh",
    "Taluk": "Una",
    "Districtname": "Una",
    "statename": "HIMACHAL PRADESH"
  },
  {
    "pincode": "174303",
    "officename": "Basal B.O",
    "officeType": "B.O",
    "Deliverystatus": "Delivery",
    "divisionname": "Una",
    "regionname": "Shimla HQ",
    "circlename": "Himachal Pradesh",
    "Taluk": "Una",
    "Districtname": "Una",
    "statename": "HIMACHAL PRADESH"
  },
  {
    "pincode": "174303",
    "officename": "Basoli B.O",
    "officeType": "B.O",
    "Deliverystatus": "Delivery",
    "divisionname": "Una",
    "regionname": "Shimla HQ",
    "circlename": "Himachal Pradesh",
    "Taluk": "Una(T)",
    "Districtname": "Una",
    "statename": "HIMACHAL PRADESH"
  },
  {
    "pincode": "174303",
    "officename": "Chalola B.O",
    "officeType": "B.O",
    "Deliverystatus": "Delivery",
    "divisionname": "Una",
    "regionname": "Shimla HQ",
    "circlename": "Himachal Pradesh",
    "Taluk": "Una",
    "Districtname": "Una",
    "statename": "HIMACHAL PRADESH"
  },
  {
    "pincode": "174303",
    "officename": "Dangoli B.O",
    "officeType": "B.O",
    "Deliverystatus": "Delivery",
    "divisionname": "Una",
    "regionname": "Shimla HQ",
    "circlename": "Himachal Pradesh",
    "Taluk": "Una",
    "Districtname": "Una",
    "statename": "HIMACHAL PRADESH"
  },
  {
    "pincode": "174303",
    "officename": "Dathwara B.O",
    "officeType": "B.O",
    "Deliverystatus": "Delivery",
    "divisionname": "Una",
    "regionname": "Shimla HQ",
    "circlename": "Himachal Pradesh",
    "Taluk": "Una",
    "Districtname": "Una",
    "statename": "HIMACHAL PRADESH"
  },
  {
    "pincode": "174303",
    "officename": "Dera Baba Rudra Nand B.O",
    "officeType": "B.O",
    "Deliverystatus": "Delivery",
    "divisionname": "Una",
    "regionname": "Shimla HQ",
    "circlename": "Himachal Pradesh",
    "Taluk": "Una(T)",
    "Districtname": "Una",
    "statename": "HIMACHAL PRADESH"
  },
  {
    "pincode": "174303",
    "officename": "Dhamandri B.O",
    "officeType": "B.O",
    "Deliverystatus": "Delivery",
    "divisionname": "Una",
    "regionname": "Shimla HQ",
    "circlename": "Himachal Pradesh",
    "Taluk": "Una",
    "Districtname": "Una",
    "statename": "HIMACHAL PRADESH"
  },
  {
    "pincode": "174303",
    "officename": "Distt.Court Una S.O",
    "officeType": "S.O",
    "Deliverystatus": "Non-Delivery",
    "divisionname": "Una",
    "regionname": "Shimla HQ",
    "circlename": "Himachal Pradesh",
    "Taluk": "Una(T)",
    "Districtname": "Una",
    "statename": "HIMACHAL PRADESH"
  },
  {
    "pincode": "174303",
    "officename": "Jankaur B.O",
    "officeType": "B.O",
    "Deliverystatus": "Delivery",
    "divisionname": "Una",
    "regionname": "Shimla HQ",
    "circlename": "Himachal Pradesh",
    "Taluk": "Una(T)",
    "Districtname": "Una",
    "statename": "HIMACHAL PRADESH"
  },
  {
    "pincode": "174303",
    "officename": "Jhamber B.O",
    "officeType": "B.O",
    "Deliverystatus": "Delivery",
    "divisionname": "Una",
    "regionname": "Shimla HQ",
    "circlename": "Himachal Pradesh",
    "Taluk": "Una",
    "Districtname": "Una",
    "statename": "HIMACHAL PRADESH"
  },
  {
    "pincode": "174303",
    "officename": "Kotla Kalan B.O",
    "officeType": "B.O",
    "Deliverystatus": "Delivery",
    "divisionname": "Una",
    "regionname": "Shimla HQ",
    "circlename": "Himachal Pradesh",
    "Taluk": "Una(T)",
    "Districtname": "Una",
    "statename": "HIMACHAL PRADESH"
  },
  {
    "pincode": "174303",
    "officename": "Kotla Khurd B.O",
    "officeType": "B.O",
    "Deliverystatus": "Delivery",
    "divisionname": "Una",
    "regionname": "Shimla HQ",
    "circlename": "Himachal Pradesh",
    "Taluk": "Una",
    "Districtname": "Una",
    "statename": "HIMACHAL PRADESH"
  },
  {
    "pincode": "174303",
    "officename": "Kuriala B.O",
    "officeType": "B.O",
    "Deliverystatus": "Delivery",
    "divisionname": "Una",
    "regionname": "Shimla HQ",
    "circlename": "Himachal Pradesh",
    "Taluk": "Una",
    "Districtname": "Una",
    "statename": "HIMACHAL PRADESH"
  },
  {
    "pincode": "174303",
    "officename": "Lamlehri B.O",
    "officeType": "B.O",
    "Deliverystatus": "Delivery",
    "divisionname": "Una",
    "regionname": "Shimla HQ",
    "circlename": "Himachal Pradesh",
    "Taluk": "Una(T)",
    "Districtname": "Una",
    "statename": "HIMACHAL PRADESH"
  },
  {
    "pincode": "174303",
    "officename": "Nangal Salangri B.O",
    "officeType": "B.O",
    "Deliverystatus": "Delivery",
    "divisionname": "Una",
    "regionname": "Shimla HQ",
    "circlename": "Himachal Pradesh",
    "Taluk": "Una(T)",
    "Districtname": "Una",
    "statename": "HIMACHAL PRADESH"
  },
  {
    "pincode": "174303",
    "officename": "Panoh B.O",
    "officeType": "B.O",
    "Deliverystatus": "Delivery",
    "divisionname": "Una",
    "regionname": "Shimla HQ",
    "circlename": "Himachal Pradesh",
    "Taluk": "Una",
    "Districtname": "Una",
    "statename": "HIMACHAL PRADESH"
  },
  {
    "pincode": "174303",
    "officename": "Rainsary B.O",
    "officeType": "B.O",
    "Deliverystatus": "Delivery",
    "divisionname": "Una",
    "regionname": "Shimla HQ",
    "circlename": "Himachal Pradesh",
    "Taluk": "Una(T)",
    "Districtname": "Una",
    "statename": "HIMACHAL PRADESH"
  },
  {
    "pincode": "174303",
    "officename": "Rakkar Colony B.O",
    "officeType": "B.O",
    "Deliverystatus": "Delivery",
    "divisionname": "Una",
    "regionname": "Shimla HQ",
    "circlename": "Himachal Pradesh",
    "Taluk": "Una",
    "Districtname": "Una",
    "statename": "HIMACHAL PRADESH"
  },
  {
    "pincode": "174303",
    "officename": "Samoor Kalan B.O",
    "officeType": "B.O",
    "Deliverystatus": "Delivery",
    "divisionname": "Una",
    "regionname": "Shimla HQ",
    "circlename": "Himachal Pradesh",
    "Taluk": "Una",
    "Districtname": "Una",
    "statename": "HIMACHAL PRADESH"
  },
  {
    "pincode": "174303",
    "officename": "Takka B.O",
    "officeType": "B.O",
    "Deliverystatus": "Delivery",
    "divisionname": "Una",
    "regionname": "Shimla HQ",
    "circlename": "Himachal Pradesh",
    "Taluk": "Una",
    "Districtname": "Una",
    "statename": "HIMACHAL PRADESH"
  },
  {
    "pincode": "174303",
    "officename": "Teuri B.O",
    "officeType": "B.O",
    "Deliverystatus": "Delivery",
    "divisionname": "Una",
    "regionname": "Shimla HQ",
    "circlename": "Himachal Pradesh",
    "Taluk": "Una",
    "Districtname": "Una",
    "statename": "HIMACHAL PRADESH"
  },
  {
    "pincode": "174303",
    "officename": "Una H.O",
    "officeType": "H.O",
    "Deliverystatus": "Delivery",
    "divisionname": "Una",
    "regionname": "Shimla HQ",
    "circlename": "Himachal Pradesh",
    "Taluk": "Una",
    "Districtname": "Una",
    "statename": "HIMACHAL PRADESH"
  }
]
