[
  {
    "pincode": "175008",
    "officename": "Balt B.O",
    "officeType": "B.O",
    "Deliverystatus": "Delivery",
    "divisionname": "Mandi",
    "regionname": "Shimla HQ",
    "circlename": "Himachal Pradesh",
    "Taluk": "Sadar",
    "Districtname": "Mandi",
    "statename": "HIMACHAL PRADESH"
  },
  {
    "pincode": "175008",
    "officename": "Galma B.O",
    "officeType": "B.O",
    "Deliverystatus": "Delivery",
    "divisionname": "Mandi",
    "regionname": "Shimla HQ",
    "circlename": "Himachal Pradesh",
    "Taluk": "Sadar",
    "Districtname": "Mandi",
    "statename": "HIMACHAL PRADESH"
  },
  {
    "pincode": "175008",
    "officename": "Khakhariana B.O",
    "officeType": "B.O",
    "Deliverystatus": "Delivery",
    "divisionname": "Mandi",
    "regionname": "Shimla HQ",
    "circlename": "Himachal Pradesh",
    "Taluk": "Sadar",
    "Districtname": "Mandi",
    "statename": "HIMACHAL PRADESH"
  },
  {
    "pincode": "175008",
    "officename": "Ner Chowk S.O",
    "officeType": "S.O",
    "Deliverystatus": "Delivery",
    "divisionname": "Mandi",
    "regionname": "Shimla HQ",
    "circlename": "Himachal Pradesh",
    "Taluk": "Mandi(T)",
    "Districtname": "Mandi",
    "statename": "HIMACHAL PRADESH"
  },
  {
    "pincode": "175008",
    "officename": "Pairi B.O",
    "officeType": "B.O",
    "Deliverystatus": "Delivery",
    "divisionname": "Mandi",
    "regionname": "Shimla HQ",
    "circlename": "Himachal Pradesh",
    "Taluk": "Sadar",
    "Districtname": "Mandi",
    "statename": "HIMACHAL PRADESH"
  },
  {
    "pincode": "175008",
    "officename": "Ratti B.O",
    "officeType": "B.O",
    "Deliverystatus": "Delivery",
    "divisionname": "Mandi",
    "regionname": "Shimla HQ",
    "circlename": "Himachal Pradesh",
    "Taluk": "Sadar",
    "Districtname": "Mandi",
    "statename": "HIMACHAL PRADESH"
  },
  {
    "pincode": "175008",
    "officename": "Sadhyani B.O",
    "officeType": "B.O",
    "Deliverystatus": "Delivery",
    "divisionname": "Mandi",
    "regionname": "Shimla HQ",
    "circlename": "Himachal Pradesh",
    "Taluk": "Sadar",
    "Districtname": "Mandi",
    "statename": "HIMACHAL PRADESH"
  },
  {
    "pincode": "175008",
    "officename": "Troh B.O",
    "officeType": "B.O",
    "Deliverystatus": "Delivery",
    "divisionname": "Mandi",
    "regionname": "Shimla HQ",
    "circlename": "Himachal Pradesh",
    "Taluk": "Sadar",
    "Districtname": "Mandi",
    "statename": "HIMACHAL PRADESH"
  }
]
