[
  {
    "pincode": "175018",
    "officename": "Chambi B.O",
    "officeType": "B.O",
    "Deliverystatus": "Delivery",
    "divisionname": "Mandi",
    "regionname": "Shimla HQ",
    "circlename": "Himachal Pradesh",
    "Taluk": "Sunder Nagar",
    "Districtname": "Mandi",
    "statename": "HIMACHAL PRADESH"
  },
  {
    "pincode": "175018",
    "officename": "Churad B.O",
    "officeType": "B.O",
    "Deliverystatus": "Delivery",
    "divisionname": "Mandi",
    "regionname": "Shimla HQ",
    "circlename": "Himachal Pradesh",
    "Taluk": "Sunder Nagar",
    "Districtname": "Mandi",
    "statename": "HIMACHAL PRADESH"
  },
  {
    "pincode": "175018",
    "officename": "Ghanghnoo B.O",
    "officeType": "B.O",
    "Deliverystatus": "Delivery",
    "divisionname": "Mandi",
    "regionname": "Shimla HQ",
    "circlename": "Himachal Pradesh",
    "Taluk": "Sunder Nagar",
    "Districtname": "Mandi",
    "statename": "HIMACHAL PRADESH"
  },
  {
    "pincode": "175018",
    "officename": "Jarol B.O",
    "officeType": "B.O",
    "Deliverystatus": "Delivery",
    "divisionname": "Mandi",
    "regionname": "Shimla HQ",
    "circlename": "Himachal Pradesh",
    "Taluk": "Sunder Nagar",
    "Districtname": "Mandi",
    "statename": "HIMACHAL PRADESH"
  },
  {
    "pincode": "175018",
    "officename": "Kangoo B.O",
    "officeType": "B.O",
    "Deliverystatus": "Delivery",
    "divisionname": "Mandi",
    "regionname": "Shimla HQ",
    "circlename": "Himachal Pradesh",
    "Taluk": "Sundernagar",
    "Districtname": "Mandi",
    "statename": "HIMACHAL PRADESH"
  },
  {
    "pincode": "175018",
    "officename": "Mahadev B.O",
    "officeType": "B.O",
    "Deliverystatus": "Delivery",
    "divisionname": "Mandi",
    "regionname": "Shimla HQ",
    "circlename": "Himachal Pradesh",
    "Taluk": "Sunder Nagar",
    "Districtname": "Mandi",
    "statename": "HIMACHAL PRADESH"
  },
  {
    "pincode": "175018",
    "officename": "Maloh B.O",
    "officeType": "B.O",
    "Deliverystatus": "Delivery",
    "divisionname": "Mandi",
    "regionname": "Shimla HQ",
    "circlename": "Himachal Pradesh",
    "Taluk": "Sunder Nagar",
    "Districtname": "Mandi",
    "statename": "HIMACHAL PRADESH"
  },
  {
    "pincode": "175018",
    "officename": "Salwana B.O",
    "officeType": "B.O",
    "Deliverystatus": "Delivery",
    "divisionname": "Mandi",
    "regionname": "Shimla HQ",
    "circlename": "Himachal Pradesh",
    "Taluk": "Sunder Nagar",
    "Districtname": "Mandi",
    "statename": "HIMACHAL PRADESH"
  },
  {
    "pincode": "175018",
    "officename": "Sehli B.O",
    "officeType": "B.O",
    "Deliverystatus": "Delivery",
    "divisionname": "Mandi",
    "regionname": "Shimla HQ",
    "circlename": "Himachal Pradesh",
    "Taluk": "Sunder Nagar",
    "Districtname": "Mandi",
    "statename": "HIMACHAL PRADESH"
  },
  {
    "pincode": "175018",
    "officename": "Sunder Nagar-1 S.O",
    "officeType": "S.O",
    "Deliverystatus": "Delivery",
    "divisionname": "Mandi",
    "regionname": "Shimla HQ",
    "circlename": "Himachal Pradesh",
    "Taluk": "Sundarnagar(T)",
    "Districtname": "Mandi",
    "statename": "HIMACHAL PRADESH"
  },
  {
    "pincode": "175018",
    "officename": "Upper Behli B.O",
    "officeType": "B.O",
    "Deliverystatus": "Delivery",
    "divisionname": "Mandi",
    "regionname": "Shimla HQ",
    "circlename": "Himachal Pradesh",
    "Taluk": "Sunder Nagar",
    "Districtname": "Mandi",
    "statename": "HIMACHAL PRADESH"
  },
  {
    "pincode": "175018",
    "officename": "Vayala B.O",
    "officeType": "B.O",
    "Deliverystatus": "Delivery",
    "divisionname": "Mandi",
    "regionname": "Shimla HQ",
    "circlename": "Himachal Pradesh",
    "Taluk": "Sundr Nagar",
    "Districtname": "Mandi",
    "statename": "HIMACHAL PRADESH"
  }
]
