[
  {
    "pincode": "175027",
    "officename": "Baggi S.O",
    "officeType": "S.O",
    "Deliverystatus": "Delivery",
    "divisionname": "Mandi",
    "regionname": "Shimla HQ",
    "circlename": "Himachal Pradesh",
    "Taluk": "Sadar",
    "Districtname": "Mandi",
    "statename": "HIMACHAL PRADESH"
  },
  {
    "pincode": "175027",
    "officename": "Brikhmani B.O",
    "officeType": "B.O",
    "Deliverystatus": "Delivery",
    "divisionname": "Mandi",
    "regionname": "Shimla HQ",
    "circlename": "Himachal Pradesh",
    "Taluk": "Sundernagar",
    "Districtname": "Mandi",
    "statename": "HIMACHAL PRADESH"
  },
  {
    "pincode": "175027",
    "officename": "Chunahan B.O",
    "officeType": "B.O",
    "Deliverystatus": "Delivery",
    "divisionname": "Mandi",
    "regionname": "Shimla HQ",
    "circlename": "Himachal Pradesh",
    "Taluk": "Mandi(T)",
    "Districtname": "Mandi",
    "statename": "HIMACHAL PRADESH"
  },
  {
    "pincode": "175027",
    "officename": "Dabhan B.O",
    "officeType": "B.O",
    "Deliverystatus": "Delivery",
    "divisionname": "Mandi",
    "regionname": "Shimla HQ",
    "circlename": "Himachal Pradesh",
    "Taluk": "Sadar",
    "Districtname": "Mandi",
    "statename": "HIMACHAL PRADESH"
  },
  {
    "pincode": "175027",
    "officename": "Diyargi B.O",
    "officeType": "B.O",
    "Deliverystatus": "Delivery",
    "divisionname": "Mandi",
    "regionname": "Shimla HQ",
    "circlename": "Himachal Pradesh",
    "Taluk": "Sunder Nagar",
    "Districtname": "Mandi",
    "statename": "HIMACHAL PRADESH"
  },
  {
    "pincode": "175027",
    "officename": "Lohara B.O",
    "officeType": "B.O",
    "Deliverystatus": "Delivery",
    "divisionname": "Mandi",
    "regionname": "Shimla HQ",
    "circlename": "Himachal Pradesh",
    "Taluk": "Sadar",
    "Districtname": "Mandi",
    "statename": "HIMACHAL PRADESH"
  },
  {
    "pincode": "175027",
    "officename": "Rajgarh B.O",
    "officeType": "B.O",
    "Deliverystatus": "Delivery",
    "divisionname": "Mandi",
    "regionname": "Shimla HQ",
    "circlename": "Himachal Pradesh",
    "Taluk": "Mandi(T)",
    "Districtname": "Mandi",
    "statename": "HIMACHAL PRADESH"
  },
  {
    "pincode": "175027",
    "officename": "Rajwari B.O",
    "officeType": "B.O",
    "Deliverystatus": "Delivery",
    "divisionname": "Mandi",
    "regionname": "Shimla HQ",
    "circlename": "Himachal Pradesh",
    "Taluk": "Sadar",
    "Districtname": "Mandi",
    "statename": "HIMACHAL PRADESH"
  },
  {
    "pincode": "175027",
    "officename": "Surah B.O",
    "officeType": "B.O",
    "Deliverystatus": "Delivery",
    "divisionname": "Mandi",
    "regionname": "Shimla HQ",
    "circlename": "Himachal Pradesh",
    "Taluk": "Mandi(T)",
    "Districtname": "Mandi",
    "statename": "HIMACHAL PRADESH"
  },
  {
    "pincode": "175027",
    "officename": "Syanji B.O",
    "officeType": "B.O",
    "Deliverystatus": "Delivery",
    "divisionname": "Mandi",
    "regionname": "Shimla HQ",
    "circlename": "Himachal Pradesh",
    "Taluk": "Mandi(T)",
    "Districtname": "Mandi",
    "statename": "HIMACHAL PRADESH"
  }
]
