[
  {
    "pincode": "175013",
    "officename": "Baragraon B.O",
    "officeType": "B.O",
    "Deliverystatus": "Delivery",
    "divisionname": "Mandi",
    "regionname": "Shimla HQ",
    "circlename": "Himachal Pradesh",
    "Taluk": "Baijnath",
    "Districtname": "Kangra",
    "statename": "HIMACHAL PRADESH"
  },
  {
    "pincode": "175013",
    "officename": "Bardhan B.O",
    "officeType": "B.O",
    "Deliverystatus": "Delivery",
    "divisionname": "Mandi",
    "regionname": "Shimla HQ",
    "circlename": "Himachal Pradesh",
    "Taluk": "Padhar(T)",
    "Districtname": "Mandi",
    "statename": "HIMACHAL PRADESH"
  },
  {
    "pincode": "175013",
    "officename": "Barot S.O",
    "officeType": "S.O",
    "Deliverystatus": "Delivery",
    "divisionname": "Mandi",
    "regionname": "Shimla HQ",
    "circlename": "Himachal Pradesh",
    "Taluk": "Padhar(T)",
    "Districtname": "Mandi",
    "statename": "HIMACHAL PRADESH"
  },
  {
    "pincode": "175013",
    "officename": "Boching B.O",
    "officeType": "B.O",
    "Deliverystatus": "Delivery",
    "divisionname": "Mandi",
    "regionname": "Shimla HQ",
    "circlename": "Himachal Pradesh",
    "Taluk": "Padhar(T)",
    "Districtname": "Mandi",
    "statename": "HIMACHAL PRADESH"
  },
  {
    "pincode": "175013",
    "officename": "Deot B.O",
    "officeType": "B.O",
    "Deliverystatus": "Delivery",
    "divisionname": "Mandi",
    "regionname": "Shimla HQ",
    "circlename": "Himachal Pradesh",
    "Taluk": "Baijnath",
    "Districtname": "Kangra",
    "statename": "HIMACHAL PRADESH"
  },
  {
    "pincode": "175013",
    "officename": "Kothikohar B.O",
    "officeType": "B.O",
    "Deliverystatus": "Delivery",
    "divisionname": "Mandi",
    "regionname": "Shimla HQ",
    "circlename": "Himachal Pradesh",
    "Taluk": "Baijnath",
    "Districtname": "Kangra",
    "statename": "HIMACHAL PRADESH"
  },
  {
    "pincode": "175013",
    "officename": "Swar B.O",
    "officeType": "B.O",
    "Deliverystatus": "Delivery",
    "divisionname": "Mandi",
    "regionname": "Shimla HQ",
    "circlename": "Himachal Pradesh",
    "Taluk": "Baijnath",
    "Districtname": "Kangra",
    "statename": "HIMACHAL PRADESH"
  },
  {
    "pincode": "175013",
    "officename": "Thaltukhod B.O",
    "officeType": "B.O",
    "Deliverystatus": "Delivery",
    "divisionname": "Mandi",
    "regionname": "Shimla HQ",
    "circlename": "Himachal Pradesh",
    "Taluk": "Padhar(T)",
    "Districtname": "Mandi",
    "statename": "HIMACHAL PRADESH"
  }
]
