[
  {
    "pincode": "175121",
    "officename": "Aut S.O",
    "officeType": "S.O",
    "Deliverystatus": "Delivery",
    "divisionname": "Mandi",
    "regionname": "Shimla HQ",
    "circlename": "Himachal Pradesh",
    "Taluk": "Mandi",
    "Districtname": "Mandi",
    "statename": "HIMACHAL PRADESH"
  },
  {
    "pincode": "175121",
    "officename": "Balu B.O",
    "officeType": "B.O",
    "Deliverystatus": "Delivery",
    "divisionname": "Mandi",
    "regionname": "Shimla HQ",
    "circlename": "Himachal Pradesh",
    "Taluk": "Aut(S.T)",
    "Districtname": "Mandi",
    "statename": "HIMACHAL PRADESH"
  },
  {
    "pincode": "175121",
    "officename": "Kotkamradha B.O",
    "officeType": "B.O",
    "Deliverystatus": "Delivery",
    "divisionname": "Mandi",
    "regionname": "Shimla HQ",
    "circlename": "Himachal Pradesh",
    "Taluk": "Sadar",
    "Districtname": "Mandi",
    "statename": "HIMACHAL PRADESH"
  },
  {
    "pincode": "175121",
    "officename": "Nagwain B.O",
    "officeType": "B.O",
    "Deliverystatus": "Delivery",
    "divisionname": "Mandi",
    "regionname": "Shimla HQ",
    "circlename": "Himachal Pradesh",
    "Taluk": "Sadar",
    "Districtname": "Mandi",
    "statename": "HIMACHAL PRADESH"
  },
  {
    "pincode": "175121",
    "officename": "Panarsa B.O",
    "officeType": "B.O",
    "Deliverystatus": "Delivery",
    "divisionname": "Mandi",
    "regionname": "Shimla HQ",
    "circlename": "Himachal Pradesh",
    "Taluk": "Aut(S.T)",
    "Districtname": "Mandi",
    "statename": "HIMACHAL PRADESH"
  },
  {
    "pincode": "175121",
    "officename": "Somnachi B.O",
    "officeType": "B.O",
    "Deliverystatus": "Delivery",
    "divisionname": "Mandi",
    "regionname": "Shimla HQ",
    "circlename": "Himachal Pradesh",
    "Taluk": "Bali Chowki(S.T)",
    "Districtname": "Mandi",
    "statename": "HIMACHAL PRADESH"
  },
  {
    "pincode": "175121",
    "officename": "Thachi B.O",
    "officeType": "B.O",
    "Deliverystatus": "Delivery",
    "divisionname": "Mandi",
    "regionname": "Shimla HQ",
    "circlename": "Himachal Pradesh",
    "Taluk": "Bali Chowki(S.T)",
    "Districtname": "Mandi",
    "statename": "HIMACHAL PRADESH"
  },
  {
    "pincode": "175121",
    "officename": "Thalout B.O",
    "officeType": "B.O",
    "Deliverystatus": "Delivery",
    "divisionname": "Mandi",
    "regionname": "Shimla HQ",
    "circlename": "Himachal Pradesh",
    "Taluk": "Sadar",
    "Districtname": "Mandi",
    "statename": "HIMACHAL PRADESH"
  }
]
