[
  {
    "pincode": "175123",
    "officename": "Anah B.O",
    "officeType": "B.O",
    "Deliverystatus": "Delivery",
    "divisionname": "Mandi",
    "regionname": "Shimla HQ",
    "circlename": "Himachal Pradesh",
    "Taluk": "Banjar(T)",
    "Districtname": "Kullu",
    "statename": "HIMACHAL PRADESH"
  },
  {
    "pincode": "175123",
    "officename": "Bachoot B.O",
    "officeType": "B.O",
    "Deliverystatus": "Delivery",
    "divisionname": "Mandi",
    "regionname": "Shimla HQ",
    "circlename": "Himachal Pradesh",
    "Taluk": "Banjar(T)",
    "Districtname": "Kullu",
    "statename": "HIMACHAL PRADESH"
  },
  {
    "pincode": "175123",
    "officename": "Bahu B.O",
    "officeType": "B.O",
    "Deliverystatus": "Delivery",
    "divisionname": "Mandi",
    "regionname": "Shimla HQ",
    "circlename": "Himachal Pradesh",
    "Taluk": "Banjar",
    "Districtname": "Kullu",
    "statename": "HIMACHAL PRADESH"
  },
  {
    "pincode": "175123",
    "officename": "Banjar S.O",
    "officeType": "S.O",
    "Deliverystatus": "Delivery",
    "divisionname": "Mandi",
    "regionname": "Shimla HQ",
    "circlename": "Himachal Pradesh",
    "Taluk": "Banjar",
    "Districtname": "Kullu",
    "statename": "HIMACHAL PRADESH"
  },
  {
    "pincode": "175123",
    "officename": "Bathad B.O",
    "officeType": "B.O",
    "Deliverystatus": "Delivery",
    "divisionname": "Mandi",
    "regionname": "Shimla HQ",
    "circlename": "Himachal Pradesh",
    "Taluk": "Banjar(T)",
    "Districtname": "Kullu",
    "statename": "HIMACHAL PRADESH"
  },
  {
    "pincode": "175123",
    "officename": "Chanon B.O",
    "officeType": "B.O",
    "Deliverystatus": "Delivery",
    "divisionname": "Mandi",
    "regionname": "Shimla HQ",
    "circlename": "Himachal Pradesh",
    "Taluk": "Banjar",
    "Districtname": "Kullu",
    "statename": "HIMACHAL PRADESH"
  },
  {
    "pincode": "175123",
    "officename": "Chehni B.O",
    "officeType": "B.O",
    "Deliverystatus": "Delivery",
    "divisionname": "Mandi",
    "regionname": "Shimla HQ",
    "circlename": "Himachal Pradesh",
    "Taluk": "Banjar(T)",
    "Districtname": "Kullu",
    "statename": "HIMACHAL PRADESH"
  },
  {
    "pincode": "175123",
    "officename": "Chettar B.O",
    "officeType": "B.O",
    "Deliverystatus": "Delivery",
    "divisionname": "Mandi",
    "regionname": "Shimla HQ",
    "circlename": "Himachal Pradesh",
    "Taluk": "Banjar",
    "Districtname": "Kullu",
    "statename": "HIMACHAL PRADESH"
  },
  {
    "pincode": "175123",
    "officename": "Deotha B.O",
    "officeType": "B.O",
    "Deliverystatus": "Delivery",
    "divisionname": "Mandi",
    "regionname": "Shimla HQ",
    "circlename": "Himachal Pradesh",
    "Taluk": "Banjar",
    "Districtname": "Kullu",
    "statename": "HIMACHAL PRADESH"
  },
  {
    "pincode": "175123",
    "officename": "Gadagushaini B.O",
    "officeType": "B.O",
    "Deliverystatus": "Delivery",
    "divisionname": "Mandi",
    "regionname": "Shimla HQ",
    "circlename": "Himachal Pradesh",
    "Taluk": "Bali Chowki(S.T)",
    "Districtname": "Mandi",
    "statename": "HIMACHAL PRADESH"
  },
  {
    "pincode": "175123",
    "officename": "Gaidhar B.O",
    "officeType": "B.O",
    "Deliverystatus": "Delivery",
    "divisionname": "Mandi",
    "regionname": "Shimla HQ",
    "circlename": "Himachal Pradesh",
    "Taluk": "Banjar(T)",
    "Districtname": "Kullu",
    "statename": "HIMACHAL PRADESH"
  },
  {
    "pincode": "175123",
    "officename": "Ghat B.O",
    "officeType": "B.O",
    "Deliverystatus": "Delivery",
    "divisionname": "Mandi",
    "regionname": "Shimla HQ",
    "circlename": "Himachal Pradesh",
    "Taluk": "Bali Chowki(S.T)",
    "Districtname": "Mandi",
    "statename": "HIMACHAL PRADESH"
  },
  {
    "pincode": "175123",
    "officename": "Gushaini B.O",
    "officeType": "B.O",
    "Deliverystatus": "Delivery",
    "divisionname": "Mandi",
    "regionname": "Shimla HQ",
    "circlename": "Himachal Pradesh",
    "Taluk": "Banjar(T)",
    "Districtname": "Kullu",
    "statename": "HIMACHAL PRADESH"
  },
  {
    "pincode": "175123",
    "officename": "Jibhi B.O",
    "officeType": "B.O",
    "Deliverystatus": "Delivery",
    "divisionname": "Mandi",
    "regionname": "Shimla HQ",
    "circlename": "Himachal Pradesh",
    "Taluk": "Banjar(T)",
    "Districtname": "Kullu",
    "statename": "HIMACHAL PRADESH"
  },
  {
    "pincode": "175123",
    "officename": "Kalwari B.O",
    "officeType": "B.O",
    "Deliverystatus": "Delivery",
    "divisionname": "Mandi",
    "regionname": "Shimla HQ",
    "circlename": "Himachal Pradesh",
    "Taluk": "Banjar",
    "Districtname": "Kullu",
    "statename": "HIMACHAL PRADESH"
  },
  {
    "pincode": "175123",
    "officename": "Khunachi B.O",
    "officeType": "B.O",
    "Deliverystatus": "Delivery",
    "divisionname": "Mandi",
    "regionname": "Shimla HQ",
    "circlename": "Himachal Pradesh",
    "Taluk": "Banjar(T)",
    "Districtname": "Kullu",
    "statename": "HIMACHAL PRADESH"
  },
  {
    "pincode": "175123",
    "officename": "Manglore B.O",
    "officeType": "B.O",
    "Deliverystatus": "Delivery",
    "divisionname": "Mandi",
    "regionname": "Shimla HQ",
    "circlename": "Himachal Pradesh",
    "Taluk": "Banjar(T)",
    "Districtname": "Kullu",
    "statename": "HIMACHAL PRADESH"
  },
  {
    "pincode": "175123",
    "officename": "Mohani B.O",
    "officeType": "B.O",
    "Deliverystatus": "Delivery",
    "divisionname": "Mandi",
    "regionname": "Shimla HQ",
    "circlename": "Himachal Pradesh",
    "Taluk": "Banjar",
    "Districtname": "Kullu",
    "statename": "HIMACHAL PRADESH"
  },
  {
    "pincode": "175123",
    "officename": "Nohanda B.O",
    "officeType": "B.O",
    "Deliverystatus": "Delivery",
    "divisionname": "Mandi",
    "regionname": "Shimla HQ",
    "circlename": "Himachal Pradesh",
    "Taluk": "Banjar(T)",
    "Districtname": "Kullu",
    "statename": "HIMACHAL PRADESH"
  },
  {
    "pincode": "175123",
    "officename": "Palach B.O",
    "officeType": "B.O",
    "Deliverystatus": "Delivery",
    "divisionname": "Mandi",
    "regionname": "Shimla HQ",
    "circlename": "Himachal Pradesh",
    "Taluk": "Banjar",
    "Districtname": "Kullu",
    "statename": "HIMACHAL PRADESH"
  },
  {
    "pincode": "175123",
    "officename": "Panjali B.O",
    "officeType": "B.O",
    "Deliverystatus": "Delivery",
    "divisionname": "Mandi",
    "regionname": "Shimla HQ",
    "circlename": "Himachal Pradesh",
    "Taluk": "Banjar(T)",
    "Districtname": "Kullu",
    "statename": "HIMACHAL PRADESH"
  },
  {
    "pincode": "175123",
    "officename": "Sarchi B.O",
    "officeType": "B.O",
    "Deliverystatus": "Delivery",
    "divisionname": "Mandi",
    "regionname": "Shimla HQ",
    "circlename": "Himachal Pradesh",
    "Taluk": "Banjar",
    "Districtname": "Kullu",
    "statename": "HIMACHAL PRADESH"
  },
  {
    "pincode": "175123",
    "officename": "Sojha B.O",
    "officeType": "B.O",
    "Deliverystatus": "Delivery",
    "divisionname": "Mandi",
    "regionname": "Shimla HQ",
    "circlename": "Himachal Pradesh",
    "Taluk": "Banjar(T)",
    "Districtname": "Kullu",
    "statename": "HIMACHAL PRADESH"
  },
  {
    "pincode": "175123",
    "officename": "Tandi B.O",
    "officeType": "B.O",
    "Deliverystatus": "Delivery",
    "divisionname": "Mandi",
    "regionname": "Shimla HQ",
    "circlename": "Himachal Pradesh",
    "Taluk": "Banjar",
    "Districtname": "Kullu",
    "statename": "HIMACHAL PRADESH"
  },
  {
    "pincode": "175123",
    "officename": "Tung B.O",
    "officeType": "B.O",
    "Deliverystatus": "Delivery",
    "divisionname": "Mandi",
    "regionname": "Shimla HQ",
    "circlename": "Himachal Pradesh",
    "Taluk": "Bali Chowki(S.T)",
    "Districtname": "Mandi",
    "statename": "HIMACHAL PRADESH"
  }
]
