[
  {
    "pincode": "175101",
    "officename": "Akhara Bazar S.O",
    "officeType": "S.O",
    "Deliverystatus": "Non-Delivery",
    "divisionname": "Mandi",
    "regionname": "Shimla HQ",
    "circlename": "Himachal Pradesh",
    "Taluk": "Kullu",
    "Districtname": "Kullu",
    "statename": "HIMACHAL PRADESH"
  },
  {
    "pincode": "175101",
    "officename": "Bari B.O",
    "officeType": "B.O",
    "Deliverystatus": "Delivery",
    "divisionname": "Mandi",
    "regionname": "Shimla HQ",
    "circlename": "Himachal Pradesh",
    "Taluk": "Kullu",
    "Districtname": "Kullu",
    "statename": "HIMACHAL PRADESH"
  },
  {
    "pincode": "175101",
    "officename": "Bhekhali B.O",
    "officeType": "B.O",
    "Deliverystatus": "Delivery",
    "divisionname": "Mandi",
    "regionname": "Shimla HQ",
    "circlename": "Himachal Pradesh",
    "Taluk": "Kullu(T)",
    "Districtname": "Kullu",
    "statename": "HIMACHAL PRADESH"
  },
  {
    "pincode": "175101",
    "officename": "Bran B.O",
    "officeType": "B.O",
    "Deliverystatus": "Delivery",
    "divisionname": "Mandi",
    "regionname": "Shimla HQ",
    "circlename": "Himachal Pradesh",
    "Taluk": "Kullu(T)",
    "Districtname": "Kullu",
    "statename": "HIMACHAL PRADESH"
  },
  {
    "pincode": "175101",
    "officename": "Kais B.O",
    "officeType": "B.O",
    "Deliverystatus": "Delivery",
    "divisionname": "Mandi",
    "regionname": "Shimla HQ",
    "circlename": "Himachal Pradesh",
    "Taluk": "Kullu",
    "Districtname": "Kullu",
    "statename": "HIMACHAL PRADESH"
  },
  {
    "pincode": "175101",
    "officename": "Kararsu B.O",
    "officeType": "B.O",
    "Deliverystatus": "Delivery",
    "divisionname": "Mandi",
    "regionname": "Shimla HQ",
    "circlename": "Himachal Pradesh",
    "Taluk": "Manali(T)",
    "Districtname": "Kullu",
    "statename": "HIMACHAL PRADESH"
  },
  {
    "pincode": "175101",
    "officename": "Kullu H.O",
    "officeType": "H.O",
    "Deliverystatus": "Delivery",
    "divisionname": "Mandi",
    "regionname": "Shimla HQ",
    "circlename": "Himachal Pradesh",
    "Taluk": "Kullu",
    "Districtname": "Kullu",
    "statename": "HIMACHAL PRADESH"
  },
  {
    "pincode": "175101",
    "officename": "Peej B.O",
    "officeType": "B.O",
    "Deliverystatus": "Delivery",
    "divisionname": "Mandi",
    "regionname": "Shimla HQ",
    "circlename": "Himachal Pradesh",
    "Taluk": "Kullu",
    "Districtname": "Kullu",
    "statename": "HIMACHAL PRADESH"
  },
  {
    "pincode": "175101",
    "officename": "Puid B.O",
    "officeType": "B.O",
    "Deliverystatus": "Delivery",
    "divisionname": "Mandi",
    "regionname": "Shimla HQ",
    "circlename": "Himachal Pradesh",
    "Taluk": "Kullu(T)",
    "Districtname": "Kullu",
    "statename": "HIMACHAL PRADESH"
  },
  {
    "pincode": "175101",
    "officename": "Sultanpur S.O (Kullu)",
    "officeType": "S.O",
    "Deliverystatus": "Non-Delivery",
    "divisionname": "Mandi",
    "regionname": "Shimla HQ",
    "circlename": "Himachal Pradesh",
    "Taluk": "Kullu(T)",
    "Districtname": "Kullu",
    "statename": "HIMACHAL PRADESH"
  }
]
