[
  {
    "pincode": "176045",
    "officename": "Bhoranj S.O",
    "officeType": "S.O",
    "Deliverystatus": "Delivery",
    "divisionname": "Hamirpur",
    "regionname": "Shimla HQ",
    "circlename": "Himachal Pradesh",
    "Taluk": "Bhoranj",
    "Districtname": "Hamirpur(HP)",
    "statename": "HIMACHAL PRADESH"
  },
  {
    "pincode": "176045",
    "officename": "Dhirwin B.O",
    "officeType": "B.O",
    "Deliverystatus": "Delivery",
    "divisionname": "Hamirpur",
    "regionname": "Shimla HQ",
    "circlename": "Himachal Pradesh",
    "Taluk": "Bhuranj",
    "Districtname": "Hamirpur(HP)",
    "statename": "HIMACHAL PRADESH"
  },
  {
    "pincode": "176045",
    "officename": "Dungrin B.O",
    "officeType": "B.O",
    "Deliverystatus": "Delivery",
    "divisionname": "Hamirpur",
    "regionname": "Shimla HQ",
    "circlename": "Himachal Pradesh",
    "Taluk": "Bhuranj",
    "Districtname": "Hamirpur(HP)",
    "statename": "HIMACHAL PRADESH"
  },
  {
    "pincode": "176045",
    "officename": "Jakhyol B.O",
    "officeType": "B.O",
    "Deliverystatus": "Delivery",
    "divisionname": "Hamirpur",
    "regionname": "Shimla HQ",
    "circlename": "Himachal Pradesh",
    "Taluk": "Bhuranj",
    "Districtname": "Hamirpur(HP)",
    "statename": "HIMACHAL PRADESH"
  },
  {
    "pincode": "176045",
    "officename": "Jijwin B.O",
    "officeType": "B.O",
    "Deliverystatus": "Delivery",
    "divisionname": "Hamirpur",
    "regionname": "Shimla HQ",
    "circlename": "Himachal Pradesh",
    "Taluk": "Bhuranj",
    "Districtname": "Hamirpur(HP)",
    "statename": "HIMACHAL PRADESH"
  },
  {
    "pincode": "176045",
    "officename": "Ludder Mahadev B.O",
    "officeType": "B.O",
    "Deliverystatus": "Delivery",
    "divisionname": "Hamirpur",
    "regionname": "Shimla HQ",
    "circlename": "Himachal Pradesh",
    "Taluk": "Bhoranj",
    "Districtname": "Hamirpur(HP)",
    "statename": "HIMACHAL PRADESH"
  },
  {
    "pincode": "176045",
    "officename": "Nagrota Gazian B.O",
    "officeType": "B.O",
    "Deliverystatus": "Delivery",
    "divisionname": "Hamirpur",
    "regionname": "Shimla HQ",
    "circlename": "Himachal Pradesh",
    "Taluk": "Bhuranj",
    "Districtname": "Hamirpur(HP)",
    "statename": "HIMACHAL PRADESH"
  },
  {
    "pincode": "176045",
    "officename": "Tarkwari B.O",
    "officeType": "B.O",
    "Deliverystatus": "Delivery",
    "divisionname": "Hamirpur",
    "regionname": "Shimla HQ",
    "circlename": "Himachal Pradesh",
    "Taluk": "Bhuranj",
    "Districtname": "Hamirpur(HP)",
    "statename": "HIMACHAL PRADESH"
  },
  {
    "pincode": "176045",
    "officename": "Tikkari Manhasan B.O",
    "officeType": "B.O",
    "Deliverystatus": "Delivery",
    "divisionname": "Hamirpur",
    "regionname": "Shimla HQ",
    "circlename": "Himachal Pradesh",
    "Taluk": "Bhuranj",
    "Districtname": "Hamirpur(HP)",
    "statename": "HIMACHAL PRADESH"
  }
]
