[
  {
    "pincode": "176001",
    "officename": "Boharkawaloo B.O",
    "officeType": "B.O",
    "Deliverystatus": "Delivery",
    "divisionname": "Dehra Gopipur",
    "regionname": "Shimla HQ",
    "circlename": "Himachal Pradesh",
    "Taluk": "Kangra",
    "Districtname": "Kangra",
    "statename": "HIMACHAL PRADESH"
  },
  {
    "pincode": "176001",
    "officename": "Dhagwar B.O",
    "officeType": "B.O",
    "Deliverystatus": "Delivery",
    "divisionname": "Dehra Gopipur",
    "regionname": "Shimla HQ",
    "circlename": "Himachal Pradesh",
    "Taluk": "Kangra",
    "Districtname": "Kangra",
    "statename": "HIMACHAL PRADESH"
  },
  {
    "pincode": "176001",
    "officename": "Ghiana Kalan B.O",
    "officeType": "B.O",
    "Deliverystatus": "Delivery",
    "divisionname": "Dehra Gopipur",
    "regionname": "Shimla HQ",
    "circlename": "Himachal Pradesh",
    "Taluk": "Kangara",
    "Districtname": "Kangra",
    "statename": "HIMACHAL PRADESH"
  },
  {
    "pincode": "176001",
    "officename": "Ghurkari B.O",
    "officeType": "B.O",
    "Deliverystatus": "Delivery",
    "divisionname": "Dehra Gopipur",
    "regionname": "Shimla HQ",
    "circlename": "Himachal Pradesh",
    "Taluk": "Kangra(T)",
    "Districtname": "Kangra",
    "statename": "HIMACHAL PRADESH"
  },
  {
    "pincode": "176001",
    "officename": "Jheol B.O",
    "officeType": "B.O",
    "Deliverystatus": "Delivery",
    "divisionname": "Dehra Gopipur",
    "regionname": "Shimla HQ",
    "circlename": "Himachal Pradesh",
    "Taluk": "Kangra",
    "Districtname": "Kangra",
    "statename": "HIMACHAL PRADESH"
  },
  {
    "pincode": "176001",
    "officename": "Kachhiari B.O",
    "officeType": "B.O",
    "Deliverystatus": "Delivery",
    "divisionname": "Dehra Gopipur",
    "regionname": "Shimla HQ",
    "circlename": "Himachal Pradesh",
    "Taluk": "Kangra(T)",
    "Districtname": "Kangra",
    "statename": "HIMACHAL PRADESH"
  },
  {
    "pincode": "176001",
    "officename": "Kangra H.O",
    "officeType": "H.O",
    "Deliverystatus": "Delivery",
    "divisionname": "Dehra Gopipur",
    "regionname": "Shimla HQ",
    "circlename": "Himachal Pradesh",
    "Taluk": "Kangra(T)",
    "Districtname": "Kangra",
    "statename": "HIMACHAL PRADESH"
  },
  {
    "pincode": "176001",
    "officename": "Kangra Town B.O",
    "officeType": "B.O",
    "Deliverystatus": "Delivery",
    "divisionname": "Dehra Gopipur",
    "regionname": "Shimla HQ",
    "circlename": "Himachal Pradesh",
    "Taluk": "Kangra",
    "Districtname": "Kangra",
    "statename": "HIMACHAL PRADESH"
  },
  {
    "pincode": "176001",
    "officename": "Kohala B.O",
    "officeType": "B.O",
    "Deliverystatus": "Delivery",
    "divisionname": "Dehra Gopipur",
    "regionname": "Shimla HQ",
    "circlename": "Himachal Pradesh",
    "Taluk": "Kangra",
    "Districtname": "Kangra",
    "statename": "HIMACHAL PRADESH"
  },
  {
    "pincode": "176001",
    "officename": "Mandal B.O",
    "officeType": "B.O",
    "Deliverystatus": "Delivery",
    "divisionname": "Dehra Gopipur",
    "regionname": "Shimla HQ",
    "circlename": "Himachal Pradesh",
    "Taluk": "Kangra",
    "Districtname": "Kangra",
    "statename": "HIMACHAL PRADESH"
  },
  {
    "pincode": "176001",
    "officename": "Matour B.O",
    "officeType": "B.O",
    "Deliverystatus": "Delivery",
    "divisionname": "Dehra Gopipur",
    "regionname": "Shimla HQ",
    "circlename": "Himachal Pradesh",
    "Taluk": "Kangra",
    "Districtname": "Kangra",
    "statename": "HIMACHAL PRADESH"
  },
  {
    "pincode": "176001",
    "officename": "Nandehar B.O",
    "officeType": "B.O",
    "Deliverystatus": "Delivery",
    "divisionname": "Dehra Gopipur",
    "regionname": "Shimla HQ",
    "circlename": "Himachal Pradesh",
    "Taluk": "Kangra",
    "Districtname": "Kangra",
    "statename": "HIMACHAL PRADESH"
  },
  {
    "pincode": "176001",
    "officename": "Nandrool B.O",
    "officeType": "B.O",
    "Deliverystatus": "Delivery",
    "divisionname": "Dehra Gopipur",
    "regionname": "Shimla HQ",
    "circlename": "Himachal Pradesh",
    "Taluk": "Kangra(T)",
    "Districtname": "Kangra",
    "statename": "HIMACHAL PRADESH"
  },
  {
    "pincode": "176001",
    "officename": "Rajal B.O",
    "officeType": "B.O",
    "Deliverystatus": "Delivery",
    "divisionname": "Dehra Gopipur",
    "regionname": "Shimla HQ",
    "circlename": "Himachal Pradesh",
    "Taluk": "Kangra",
    "Districtname": "Kangra",
    "statename": "HIMACHAL PRADESH"
  },
  {
    "pincode": "176001",
    "officename": "Sakout B.O",
    "officeType": "B.O",
    "Deliverystatus": "Delivery",
    "divisionname": "Dehra Gopipur",
    "regionname": "Shimla HQ",
    "circlename": "Himachal Pradesh",
    "Taluk": "Kangra(T)",
    "Districtname": "Kangra",
    "statename": "HIMACHAL PRADESH"
  },
  {
    "pincode": "176001",
    "officename": "Samela B.O",
    "officeType": "B.O",
    "Deliverystatus": "Delivery",
    "divisionname": "Dehra Gopipur",
    "regionname": "Shimla HQ",
    "circlename": "Himachal Pradesh",
    "Taluk": "Kangra",
    "Districtname": "Kangra",
    "statename": "HIMACHAL PRADESH"
  },
  {
    "pincode": "176001",
    "officename": "Tanda B.O",
    "officeType": "B.O",
    "Deliverystatus": "Delivery",
    "divisionname": "Dehra Gopipur",
    "regionname": "Shimla HQ",
    "circlename": "Himachal Pradesh",
    "Taluk": "Kangra",
    "Districtname": "Kangra",
    "statename": "HIMACHAL PRADESH"
  },
  {
    "pincode": "176001",
    "officename": "Zamanabad B.O",
    "officeType": "B.O",
    "Deliverystatus": "Delivery",
    "divisionname": "Dehra Gopipur",
    "regionname": "Shimla HQ",
    "circlename": "Himachal Pradesh",
    "Taluk": "Kangra",
    "Districtname": "Kangra",
    "statename": "HIMACHAL PRADESH"
  }
]
