[
  {
    "pincode": "176061",
    "officename": "Bandla Tea Estate B.O",
    "officeType": "B.O",
    "Deliverystatus": "Delivery",
    "divisionname": "Dharamsala",
    "regionname": "Shimla HQ",
    "circlename": "Himachal Pradesh",
    "Taluk": "Palampur",
    "Districtname": "Kangra",
    "statename": "HIMACHAL PRADESH"
  },
  {
    "pincode": "176061",
    "officename": "Banuri B.O",
    "officeType": "B.O",
    "Deliverystatus": "Delivery",
    "divisionname": "Dharamsala",
    "regionname": "Shimla HQ",
    "circlename": "Himachal Pradesh",
    "Taluk": "Palampur",
    "Districtname": "Kangra",
    "statename": "HIMACHAL PRADESH"
  },
  {
    "pincode": "176061",
    "officename": "Bhadraina B.O",
    "officeType": "B.O",
    "Deliverystatus": "Delivery",
    "divisionname": "Dharamsala",
    "regionname": "Shimla HQ",
    "circlename": "Himachal Pradesh",
    "Taluk": "Palampur",
    "Districtname": "Kangra",
    "statename": "HIMACHAL PRADESH"
  },
  {
    "pincode": "176061",
    "officename": "Bindravan B.O",
    "officeType": "B.O",
    "Deliverystatus": "Delivery",
    "divisionname": "Dharamsala",
    "regionname": "Shimla HQ",
    "circlename": "Himachal Pradesh",
    "Taluk": "Palampur",
    "Districtname": "Kangra",
    "statename": "HIMACHAL PRADESH"
  },
  {
    "pincode": "176061",
    "officename": "Chandpur B.O",
    "officeType": "B.O",
    "Deliverystatus": "Delivery",
    "divisionname": "Dharamsala",
    "regionname": "Shimla HQ",
    "circlename": "Himachal Pradesh",
    "Taluk": "Palampur",
    "Districtname": "Kangra",
    "statename": "HIMACHAL PRADESH"
  },
  {
    "pincode": "176061",
    "officename": "Chowki Khalet B.O",
    "officeType": "B.O",
    "Deliverystatus": "Delivery",
    "divisionname": "Dharamsala",
    "regionname": "Shimla HQ",
    "circlename": "Himachal Pradesh",
    "Taluk": "Palampur",
    "Districtname": "Kangra",
    "statename": "HIMACHAL PRADESH"
  },
  {
    "pincode": "176061",
    "officename": "Deogram B.O",
    "officeType": "B.O",
    "Deliverystatus": "Delivery",
    "divisionname": "Dharamsala",
    "regionname": "Shimla HQ",
    "circlename": "Himachal Pradesh",
    "Taluk": "Palampur",
    "Districtname": "Kangra",
    "statename": "HIMACHAL PRADESH"
  },
  {
    "pincode": "176061",
    "officename": "Geeta Peeth B.O",
    "officeType": "B.O",
    "Deliverystatus": "Delivery",
    "divisionname": "Dharamsala",
    "regionname": "Shimla HQ",
    "circlename": "Himachal Pradesh",
    "Taluk": "Palampur",
    "Districtname": "Kangra",
    "statename": "HIMACHAL PRADESH"
  },
  {
    "pincode": "176061",
    "officename": "Ghuggar S.O",
    "officeType": "S.O",
    "Deliverystatus": "Non-Delivery",
    "divisionname": "Dharamsala",
    "regionname": "Shimla HQ",
    "circlename": "Himachal Pradesh",
    "Taluk": "Palampur",
    "Districtname": "Kangra",
    "statename": "HIMACHAL PRADESH"
  },
  {
    "pincode": "176061",
    "officename": "Kamlehar B.O",
    "officeType": "B.O",
    "Deliverystatus": "Delivery",
    "divisionname": "Dharamsala",
    "regionname": "Shimla HQ",
    "circlename": "Himachal Pradesh",
    "Taluk": "Palampur",
    "Districtname": "Kangra",
    "statename": "HIMACHAL PRADESH"
  },
  {
    "pincode": "176061",
    "officename": "Kandgawal Tikker B.O",
    "officeType": "B.O",
    "Deliverystatus": "Delivery",
    "divisionname": "Dharamsala",
    "regionname": "Shimla HQ",
    "circlename": "Himachal Pradesh",
    "Taluk": "Palampur",
    "Districtname": "Kangra",
    "statename": "HIMACHAL PRADESH"
  },
  {
    "pincode": "176061",
    "officename": "Kandi B.O",
    "officeType": "B.O",
    "Deliverystatus": "Delivery",
    "divisionname": "Dharamsala",
    "regionname": "Shimla HQ",
    "circlename": "Himachal Pradesh",
    "Taluk": "Palampur",
    "Districtname": "Kangra",
    "statename": "HIMACHAL PRADESH"
  },
  {
    "pincode": "176061",
    "officename": "Menjha B.O",
    "officeType": "B.O",
    "Deliverystatus": "Delivery",
    "divisionname": "Dharamsala",
    "regionname": "Shimla HQ",
    "circlename": "Himachal Pradesh",
    "Taluk": "Palampur",
    "Districtname": "Kangra",
    "statename": "HIMACHAL PRADESH"
  },
  {
    "pincode": "176061",
    "officename": "Nachhir B.O",
    "officeType": "B.O",
    "Deliverystatus": "Delivery",
    "divisionname": "Dharamsala",
    "regionname": "Shimla HQ",
    "circlename": "Himachal Pradesh",
    "Taluk": "Palampur",
    "Districtname": "Kangra",
    "statename": "HIMACHAL PRADESH"
  },
  {
    "pincode": "176061",
    "officename": "Palampur H.O",
    "officeType": "H.O",
    "Deliverystatus": "Delivery",
    "divisionname": "Dharamsala",
    "regionname": "Shimla HQ",
    "circlename": "Himachal Pradesh",
    "Taluk": "Palampur",
    "Districtname": "Kangra",
    "statename": "HIMACHAL PRADESH"
  },
  {
    "pincode": "176061",
    "officename": "Patti B.O",
    "officeType": "B.O",
    "Deliverystatus": "Delivery",
    "divisionname": "Dharamsala",
    "regionname": "Shimla HQ",
    "circlename": "Himachal Pradesh",
    "Taluk": "Palampur",
    "Districtname": "Kangra",
    "statename": "HIMACHAL PRADESH"
  },
  {
    "pincode": "176061",
    "officename": "Rajehar B.O",
    "officeType": "B.O",
    "Deliverystatus": "Delivery",
    "divisionname": "Dharamsala",
    "regionname": "Shimla HQ",
    "circlename": "Himachal Pradesh",
    "Taluk": "Palampur",
    "Districtname": "Kangra",
    "statename": "HIMACHAL PRADESH"
  },
  {
    "pincode": "176061",
    "officename": "Rajpur B.O",
    "officeType": "B.O",
    "Deliverystatus": "Delivery",
    "divisionname": "Dharamsala",
    "regionname": "Shimla HQ",
    "circlename": "Himachal Pradesh",
    "Taluk": "Palampur",
    "Districtname": "Kangra",
    "statename": "HIMACHAL PRADESH"
  },
  {
    "pincode": "176061",
    "officename": "Saperu B.O",
    "officeType": "B.O",
    "Deliverystatus": "Delivery",
    "divisionname": "Dharamsala",
    "regionname": "Shimla HQ",
    "circlename": "Himachal Pradesh",
    "Taluk": "Palampur",
    "Districtname": "Kangra",
    "statename": "HIMACHAL PRADESH"
  },
  {
    "pincode": "176061",
    "officename": "Sungal Tea Estate B.O",
    "officeType": "B.O",
    "Deliverystatus": "Delivery",
    "divisionname": "Dharamsala",
    "regionname": "Shimla HQ",
    "circlename": "Himachal Pradesh",
    "Taluk": "Palampur",
    "Districtname": "Kangra",
    "statename": "HIMACHAL PRADESH"
  }
]
