[
  {
    "pincode": "176041",
    "officename": "Aghar B.O",
    "officeType": "B.O",
    "Deliverystatus": "Delivery",
    "divisionname": "Hamirpur",
    "regionname": "Shimla HQ",
    "circlename": "Himachal Pradesh",
    "Taluk": "Bhoranj",
    "Districtname": "Hamirpur(HP)",
    "statename": "HIMACHAL PRADESH"
  },
  {
    "pincode": "176041",
    "officename": "Beri B.O",
    "officeType": "B.O",
    "Deliverystatus": "Delivery",
    "divisionname": "Hamirpur",
    "regionname": "Shimla HQ",
    "circlename": "Himachal Pradesh",
    "Taluk": "Hamirpur",
    "Districtname": "Hamirpur(HP)",
    "statename": "HIMACHAL PRADESH"
  },
  {
    "pincode": "176041",
    "officename": "Bhota S.O",
    "officeType": "S.O",
    "Deliverystatus": "Delivery",
    "divisionname": "Hamirpur",
    "regionname": "Shimla HQ",
    "circlename": "Himachal Pradesh",
    "Taluk": "Barsar",
    "Districtname": "Hamirpur(HP)",
    "statename": "HIMACHAL PRADESH"
  },
  {
    "pincode": "176041",
    "officename": "Jhiralari B.O",
    "officeType": "B.O",
    "Deliverystatus": "Delivery",
    "divisionname": "Hamirpur",
    "regionname": "Shimla HQ",
    "circlename": "Himachal Pradesh",
    "Taluk": "Barsar",
    "Districtname": "Hamirpur(HP)",
    "statename": "HIMACHAL PRADESH"
  },
  {
    "pincode": "176041",
    "officename": "Kathiana B.O",
    "officeType": "B.O",
    "Deliverystatus": "Delivery",
    "divisionname": "Hamirpur",
    "regionname": "Shimla HQ",
    "circlename": "Himachal Pradesh",
    "Taluk": "Barsar",
    "Districtname": "Hamirpur(HP)",
    "statename": "HIMACHAL PRADESH"
  },
  {
    "pincode": "176041",
    "officename": "Kharwar B.O",
    "officeType": "B.O",
    "Deliverystatus": "Delivery",
    "divisionname": "Hamirpur",
    "regionname": "Shimla HQ",
    "circlename": "Himachal Pradesh",
    "Taluk": "Bhoranj",
    "Districtname": "Hamirpur(HP)",
    "statename": "HIMACHAL PRADESH"
  },
  {
    "pincode": "176041",
    "officename": "Patta B.O",
    "officeType": "B.O",
    "Deliverystatus": "Delivery",
    "divisionname": "Hamirpur",
    "regionname": "Shimla HQ",
    "circlename": "Himachal Pradesh",
    "Taluk": "Bhoranj",
    "Districtname": "Hamirpur(HP)",
    "statename": "HIMACHAL PRADESH"
  },
  {
    "pincode": "176041",
    "officename": "Ropari B.O",
    "officeType": "B.O",
    "Deliverystatus": "Delivery",
    "divisionname": "Hamirpur",
    "regionname": "Shimla HQ",
    "circlename": "Himachal Pradesh",
    "Taluk": "Barsar",
    "Districtname": "Hamirpur(HP)",
    "statename": "HIMACHAL PRADESH"
  },
  {
    "pincode": "176041",
    "officename": "Sour B.O",
    "officeType": "B.O",
    "Deliverystatus": "Delivery",
    "divisionname": "Hamirpur",
    "regionname": "Shimla HQ",
    "circlename": "Himachal Pradesh",
    "Taluk": "Bhoranj",
    "Districtname": "Hamirpur(HP)",
    "statename": "HIMACHAL PRADESH"
  },
  {
    "pincode": "176041",
    "officename": "Town Bharari Devi B.O",
    "officeType": "B.O",
    "Deliverystatus": "Delivery",
    "divisionname": "Hamirpur",
    "regionname": "Shimla HQ",
    "circlename": "Himachal Pradesh",
    "Taluk": "Bhoranj",
    "Districtname": "Hamirpur(HP)",
    "statename": "HIMACHAL PRADESH"
  }
]
