[
  {
    "pincode": "176083",
    "officename": "Atiala Dai B.O",
    "officeType": "B.O",
    "Deliverystatus": "Delivery",
    "divisionname": "Dharamsala",
    "regionname": "Shimla HQ",
    "circlename": "Himachal Pradesh",
    "Taluk": "Palampur",
    "Districtname": "Kangra",
    "statename": "HIMACHAL PRADESH"
  },
  {
    "pincode": "176083",
    "officename": "Bari B.O",
    "officeType": "B.O",
    "Deliverystatus": "Delivery",
    "divisionname": "Dharamsala",
    "regionname": "Shimla HQ",
    "circlename": "Himachal Pradesh",
    "Taluk": "Palampur",
    "Districtname": "Kangra",
    "statename": "HIMACHAL PRADESH"
  },
  {
    "pincode": "176083",
    "officename": "Bhawarna S.O",
    "officeType": "S.O",
    "Deliverystatus": "Delivery",
    "divisionname": "Dharamsala",
    "regionname": "Shimla HQ",
    "circlename": "Himachal Pradesh",
    "Taluk": "Palampur",
    "Districtname": "Kangra",
    "statename": "HIMACHAL PRADESH"
  },
  {
    "pincode": "176083",
    "officename": "Boda Lower B.O",
    "officeType": "B.O",
    "Deliverystatus": "Delivery",
    "divisionname": "Dharamsala",
    "regionname": "Shimla HQ",
    "circlename": "Himachal Pradesh",
    "Taluk": "Palampur",
    "Districtname": "Kangra",
    "statename": "HIMACHAL PRADESH"
  },
  {
    "pincode": "176083",
    "officename": "Kasba Punner B.O",
    "officeType": "B.O",
    "Deliverystatus": "Delivery",
    "divisionname": "Dharamsala",
    "regionname": "Shimla HQ",
    "circlename": "Himachal Pradesh",
    "Taluk": "Palampur",
    "Districtname": "Kangra",
    "statename": "HIMACHAL PRADESH"
  },
  {
    "pincode": "176083",
    "officename": "Kural B.O",
    "officeType": "B.O",
    "Deliverystatus": "Delivery",
    "divisionname": "Dharamsala",
    "regionname": "Shimla HQ",
    "circlename": "Himachal Pradesh",
    "Taluk": "Palampur",
    "Districtname": "Kangra",
    "statename": "HIMACHAL PRADESH"
  },
  {
    "pincode": "176083",
    "officename": "Malnoo B.O",
    "officeType": "B.O",
    "Deliverystatus": "Delivery",
    "divisionname": "Dharamsala",
    "regionname": "Shimla HQ",
    "circlename": "Himachal Pradesh",
    "Taluk": "Palampur",
    "Districtname": "Kangra",
    "statename": "HIMACHAL PRADESH"
  },
  {
    "pincode": "176083",
    "officename": "Man Simble B.O",
    "officeType": "B.O",
    "Deliverystatus": "Delivery",
    "divisionname": "Dharamsala",
    "regionname": "Shimla HQ",
    "circlename": "Himachal Pradesh",
    "Taluk": "Palampur",
    "Districtname": "Kangra",
    "statename": "HIMACHAL PRADESH"
  },
  {
    "pincode": "176083",
    "officename": "Punner B.O",
    "officeType": "B.O",
    "Deliverystatus": "Delivery",
    "divisionname": "Dharamsala",
    "regionname": "Shimla HQ",
    "circlename": "Himachal Pradesh",
    "Taluk": "Palampur",
    "Districtname": "Kangra",
    "statename": "HIMACHAL PRADESH"
  },
  {
    "pincode": "176083",
    "officename": "Ramehar B.O",
    "officeType": "B.O",
    "Deliverystatus": "Delivery",
    "divisionname": "Dharamsala",
    "regionname": "Shimla HQ",
    "circlename": "Himachal Pradesh",
    "Taluk": "Palampur",
    "Districtname": "Kangra",
    "statename": "HIMACHAL PRADESH"
  }
]
