[
  {
    "pincode": "176023",
    "officename": "Bhallad B.O",
    "officeType": "B.O",
    "Deliverystatus": "Delivery",
    "divisionname": "Dehra Gopipur",
    "regionname": "Shimla HQ",
    "circlename": "Himachal Pradesh",
    "Taluk": "Jawali",
    "Districtname": "Kangra",
    "statename": "HIMACHAL PRADESH"
  },
  {
    "pincode": "176023",
    "officename": "Chalwara B.O",
    "officeType": "B.O",
    "Deliverystatus": "Delivery",
    "divisionname": "Dehra Gopipur",
    "regionname": "Shimla HQ",
    "circlename": "Himachal Pradesh",
    "Taluk": "Jawali",
    "Districtname": "Kangra",
    "statename": "HIMACHAL PRADESH"
  },
  {
    "pincode": "176023",
    "officename": "Chatwana Lahroo B.O",
    "officeType": "B.O",
    "Deliverystatus": "Delivery",
    "divisionname": "Dehra Gopipur",
    "regionname": "Shimla HQ",
    "circlename": "Himachal Pradesh",
    "Taluk": "Harchakian(S.T)",
    "Districtname": "Kangra",
    "statename": "HIMACHAL PRADESH"
  },
  {
    "pincode": "176023",
    "officename": "Darkati B.O",
    "officeType": "B.O",
    "Deliverystatus": "Delivery",
    "divisionname": "Dehra Gopipur",
    "regionname": "Shimla HQ",
    "circlename": "Himachal Pradesh",
    "Taluk": "Jawali",
    "Districtname": "Kangra",
    "statename": "HIMACHAL PRADESH"
  },
  {
    "pincode": "176023",
    "officename": "Ghar Jaraot B.O",
    "officeType": "B.O",
    "Deliverystatus": "Delivery",
    "divisionname": "Dehra Gopipur",
    "regionname": "Shimla HQ",
    "circlename": "Himachal Pradesh",
    "Taluk": "Jawali(T)",
    "Districtname": "Kangra",
    "statename": "HIMACHAL PRADESH"
  },
  {
    "pincode": "176023",
    "officename": "Har B.O",
    "officeType": "B.O",
    "Deliverystatus": "Delivery",
    "divisionname": "Dehra Gopipur",
    "regionname": "Shimla HQ",
    "circlename": "Himachal Pradesh",
    "Taluk": "Jawali",
    "Districtname": "Kangra",
    "statename": "HIMACHAL PRADESH"
  },
  {
    "pincode": "176023",
    "officename": "Harsar B.O",
    "officeType": "B.O",
    "Deliverystatus": "Delivery",
    "divisionname": "Dehra Gopipur",
    "regionname": "Shimla HQ",
    "circlename": "Himachal Pradesh",
    "Taluk": "Jawali(T)",
    "Districtname": "Kangra",
    "statename": "HIMACHAL PRADESH"
  },
  {
    "pincode": "176023",
    "officename": "Jawali S.O",
    "officeType": "S.O",
    "Deliverystatus": "Delivery",
    "divisionname": "Dehra Gopipur",
    "regionname": "Shimla HQ",
    "circlename": "Himachal Pradesh",
    "Taluk": "Jawali",
    "Districtname": "Kangra",
    "statename": "HIMACHAL PRADESH"
  },
  {
    "pincode": "176023",
    "officename": "Jhonkha Ratial B.O",
    "officeType": "B.O",
    "Deliverystatus": "Delivery",
    "divisionname": "Dehra Gopipur",
    "regionname": "Shimla HQ",
    "circlename": "Himachal Pradesh",
    "Taluk": "Jawali",
    "Districtname": "Kangra",
    "statename": "HIMACHAL PRADESH"
  },
  {
    "pincode": "176023",
    "officename": "Kharota B.O",
    "officeType": "B.O",
    "Deliverystatus": "Delivery",
    "divisionname": "Dehra Gopipur",
    "regionname": "Shimla HQ",
    "circlename": "Himachal Pradesh",
    "Taluk": "Jawali(T)",
    "Districtname": "Kangra",
    "statename": "HIMACHAL PRADESH"
  },
  {
    "pincode": "176023",
    "officename": "Makrahan B.O",
    "officeType": "B.O",
    "Deliverystatus": "Delivery",
    "divisionname": "Dehra Gopipur",
    "regionname": "Shimla HQ",
    "circlename": "Himachal Pradesh",
    "Taluk": "Jawali",
    "Districtname": "Kangra",
    "statename": "HIMACHAL PRADESH"
  },
  {
    "pincode": "176023",
    "officename": "Matlahar B.O",
    "officeType": "B.O",
    "Deliverystatus": "Delivery",
    "divisionname": "Dehra Gopipur",
    "regionname": "Shimla HQ",
    "circlename": "Himachal Pradesh",
    "Taluk": "Jawali",
    "Districtname": "Kangra",
    "statename": "HIMACHAL PRADESH"
  },
  {
    "pincode": "176023",
    "officename": "Nana B.O",
    "officeType": "B.O",
    "Deliverystatus": "Delivery",
    "divisionname": "Dehra Gopipur",
    "regionname": "Shimla HQ",
    "circlename": "Himachal Pradesh",
    "Taluk": "Jawali(T)",
    "Districtname": "Kangra",
    "statename": "HIMACHAL PRADESH"
  },
  {
    "pincode": "176023",
    "officename": "Pharian B.O",
    "officeType": "B.O",
    "Deliverystatus": "Delivery",
    "divisionname": "Dehra Gopipur",
    "regionname": "Shimla HQ",
    "circlename": "Himachal Pradesh",
    "Taluk": "Jawali(T)",
    "Districtname": "Kangra",
    "statename": "HIMACHAL PRADESH"
  }
]
