[
  {
    "pincode": "176209",
    "officename": "Bagli B.O",
    "officeType": "B.O",
    "Deliverystatus": "Delivery",
    "divisionname": "Dehra Gopipur",
    "regionname": "Shimla HQ",
    "circlename": "Himachal Pradesh",
    "Taluk": "Kangra",
    "Districtname": "Kangra",
    "statename": "HIMACHAL PRADESH"
  },
  {
    "pincode": "176209",
    "officename": "Bandi B.O",
    "officeType": "B.O",
    "Deliverystatus": "Delivery",
    "divisionname": "Dehra Gopipur",
    "regionname": "Shimla HQ",
    "circlename": "Himachal Pradesh",
    "Taluk": "Kangra",
    "Districtname": "Kangra",
    "statename": "HIMACHAL PRADESH"
  },
  {
    "pincode": "176209",
    "officename": "Bhadiara B.O",
    "officeType": "B.O",
    "Deliverystatus": "Delivery",
    "divisionname": "Dehra Gopipur",
    "regionname": "Shimla HQ",
    "circlename": "Himachal Pradesh",
    "Taluk": "Kangra",
    "Districtname": "Kangra",
    "statename": "HIMACHAL PRADESH"
  },
  {
    "pincode": "176209",
    "officename": "Chetru B.O",
    "officeType": "B.O",
    "Deliverystatus": "Delivery",
    "divisionname": "Dehra Gopipur",
    "regionname": "Shimla HQ",
    "circlename": "Himachal Pradesh",
    "Taluk": "Kangra",
    "Districtname": "Kangra",
    "statename": "HIMACHAL PRADESH"
  },
  {
    "pincode": "176209",
    "officename": "Gaggal S.O",
    "officeType": "S.O",
    "Deliverystatus": "Delivery",
    "divisionname": "Dehra Gopipur",
    "regionname": "Shimla HQ",
    "circlename": "Himachal Pradesh",
    "Taluk": "Kangra(T)",
    "Districtname": "Kangra",
    "statename": "HIMACHAL PRADESH"
  },
  {
    "pincode": "176209",
    "officename": "Ichhi B.O",
    "officeType": "B.O",
    "Deliverystatus": "Delivery",
    "divisionname": "Dehra Gopipur",
    "regionname": "Shimla HQ",
    "circlename": "Himachal Pradesh",
    "Taluk": "Kangra(T)",
    "Districtname": "Kangra",
    "statename": "HIMACHAL PRADESH"
  },
  {
    "pincode": "176209",
    "officename": "Nagan Pat B.O",
    "officeType": "B.O",
    "Deliverystatus": "Delivery",
    "divisionname": "Dehra Gopipur",
    "regionname": "Shimla HQ",
    "circlename": "Himachal Pradesh",
    "Taluk": "Shahpur",
    "Districtname": "Kangra",
    "statename": "HIMACHAL PRADESH"
  },
  {
    "pincode": "176209",
    "officename": "Sahaura B.O",
    "officeType": "B.O",
    "Deliverystatus": "Delivery",
    "divisionname": "Dehra Gopipur",
    "regionname": "Shimla HQ",
    "circlename": "Himachal Pradesh",
    "Taluk": "Kangra",
    "Districtname": "Kangra",
    "statename": "HIMACHAL PRADESH"
  }
]
