[
  {
    "pincode": "176202",
    "officename": "Aundh B.O",
    "officeType": "B.O",
    "Deliverystatus": "Delivery",
    "divisionname": "Dharamsala",
    "regionname": "Shimla HQ",
    "circlename": "Himachal Pradesh",
    "Taluk": "Nurpur",
    "Districtname": "Kangra",
    "statename": "HIMACHAL PRADESH"
  },
  {
    "pincode": "176202",
    "officename": "Gahin Lagore B.O",
    "officeType": "B.O",
    "Deliverystatus": "Delivery",
    "divisionname": "Dharamsala",
    "regionname": "Shimla HQ",
    "circlename": "Himachal Pradesh",
    "Taluk": "Nurpur",
    "Districtname": "Kangra",
    "statename": "HIMACHAL PRADESH"
  },
  {
    "pincode": "176202",
    "officename": "Gurchal B.O",
    "officeType": "B.O",
    "Deliverystatus": "Delivery",
    "divisionname": "Dharamsala",
    "regionname": "Shimla HQ",
    "circlename": "Himachal Pradesh",
    "Taluk": "Nurpur",
    "Districtname": "Kangra",
    "statename": "HIMACHAL PRADESH"
  },
  {
    "pincode": "176202",
    "officename": "Khushi Nagar B.O",
    "officeType": "B.O",
    "Deliverystatus": "Delivery",
    "divisionname": "Dharamsala",
    "regionname": "Shimla HQ",
    "circlename": "Himachal Pradesh",
    "Taluk": "Nurpur",
    "Districtname": "Kangra",
    "statename": "HIMACHAL PRADESH"
  },
  {
    "pincode": "176202",
    "officename": "Kopra B.O",
    "officeType": "B.O",
    "Deliverystatus": "Delivery",
    "divisionname": "Dharamsala",
    "regionname": "Shimla HQ",
    "circlename": "Himachal Pradesh",
    "Taluk": "Nurpur",
    "Districtname": "Kangra",
    "statename": "HIMACHAL PRADESH"
  },
  {
    "pincode": "176202",
    "officename": "Niazpur S.O",
    "officeType": "S.O",
    "Deliverystatus": "Non-Delivery",
    "divisionname": "Dharamsala",
    "regionname": "Shimla HQ",
    "circlename": "Himachal Pradesh",
    "Taluk": "Nurpur",
    "Districtname": "Kangra",
    "statename": "HIMACHAL PRADESH"
  },
  {
    "pincode": "176202",
    "officename": "Nurpur S.O",
    "officeType": "S.O",
    "Deliverystatus": "Delivery",
    "divisionname": "Dharamsala",
    "regionname": "Shimla HQ",
    "circlename": "Himachal Pradesh",
    "Taluk": "Nurpur",
    "Districtname": "Kangra",
    "statename": "HIMACHAL PRADESH"
  },
  {
    "pincode": "176202",
    "officename": "Sadwan B.O",
    "officeType": "B.O",
    "Deliverystatus": "Delivery",
    "divisionname": "Dharamsala",
    "regionname": "Shimla HQ",
    "circlename": "Himachal Pradesh",
    "Taluk": "Nurpur",
    "Districtname": "Kangra",
    "statename": "HIMACHAL PRADESH"
  }
]
