[
  {
    "pincode": "176302",
    "officename": "Banet B.O",
    "officeType": "B.O",
    "Deliverystatus": "Delivery",
    "divisionname": "Chamba",
    "regionname": "Shimla HQ",
    "circlename": "Himachal Pradesh",
    "Taluk": "Bhatiyat",
    "Districtname": "Chamba",
    "statename": "HIMACHAL PRADESH"
  },
  {
    "pincode": "176302",
    "officename": "Chowari S.O",
    "officeType": "S.O",
    "Deliverystatus": "Delivery",
    "divisionname": "Chamba",
    "regionname": "Shimla HQ",
    "circlename": "Himachal Pradesh",
    "Taluk": "Bhatiyat",
    "Districtname": "Chamba",
    "statename": "HIMACHAL PRADESH"
  },
  {
    "pincode": "176302",
    "officename": "Gahar B.O",
    "officeType": "B.O",
    "Deliverystatus": "Delivery",
    "divisionname": "Chamba",
    "regionname": "Shimla HQ",
    "circlename": "Himachal Pradesh",
    "Taluk": "Bhatiyat",
    "Districtname": "Chamba",
    "statename": "HIMACHAL PRADESH"
  },
  {
    "pincode": "176302",
    "officename": "Ghatasnipul B.O",
    "officeType": "B.O",
    "Deliverystatus": "Delivery",
    "divisionname": "Chamba",
    "regionname": "Shimla HQ",
    "circlename": "Himachal Pradesh",
    "Taluk": "Bhatiyat",
    "Districtname": "Chamba",
    "statename": "HIMACHAL PRADESH"
  },
  {
    "pincode": "176302",
    "officename": "Jandrog B.O",
    "officeType": "B.O",
    "Deliverystatus": "Delivery",
    "divisionname": "Chamba",
    "regionname": "Shimla HQ",
    "circlename": "Himachal Pradesh",
    "Taluk": "Bhatiyat",
    "Districtname": "Chamba",
    "statename": "HIMACHAL PRADESH"
  },
  {
    "pincode": "176302",
    "officename": "Jatroon B.O",
    "officeType": "B.O",
    "Deliverystatus": "Delivery",
    "divisionname": "Chamba",
    "regionname": "Shimla HQ",
    "circlename": "Himachal Pradesh",
    "Taluk": "Bhatiyat",
    "Districtname": "Chamba",
    "statename": "HIMACHAL PRADESH"
  },
  {
    "pincode": "176302",
    "officename": "Malunda B.O",
    "officeType": "B.O",
    "Deliverystatus": "Delivery",
    "divisionname": "Chamba",
    "regionname": "Shimla HQ",
    "circlename": "Himachal Pradesh",
    "Taluk": "Bhatiyat",
    "Districtname": "Chamba",
    "statename": "HIMACHAL PRADESH"
  },
  {
    "pincode": "176302",
    "officename": "Manhouta B.O",
    "officeType": "B.O",
    "Deliverystatus": "Delivery",
    "divisionname": "Chamba",
    "regionname": "Shimla HQ",
    "circlename": "Himachal Pradesh",
    "Taluk": "Bhatiyat",
    "Districtname": "Chamba",
    "statename": "HIMACHAL PRADESH"
  },
  {
    "pincode": "176302",
    "officename": "Parchhore B.O",
    "officeType": "B.O",
    "Deliverystatus": "Delivery",
    "divisionname": "Chamba",
    "regionname": "Shimla HQ",
    "circlename": "Himachal Pradesh",
    "Taluk": "Bhatiyat",
    "Districtname": "Chamba",
    "statename": "HIMACHAL PRADESH"
  },
  {
    "pincode": "176302",
    "officename": "Parsiara B.O",
    "officeType": "B.O",
    "Deliverystatus": "Delivery",
    "divisionname": "Chamba",
    "regionname": "Shimla HQ",
    "circlename": "Himachal Pradesh",
    "Taluk": "Bhatiyat",
    "Districtname": "Chamba",
    "statename": "HIMACHAL PRADESH"
  },
  {
    "pincode": "176302",
    "officename": "Raipur B.O",
    "officeType": "B.O",
    "Deliverystatus": "Delivery",
    "divisionname": "Chamba",
    "regionname": "Shimla HQ",
    "circlename": "Himachal Pradesh",
    "Taluk": "Bhatiyat",
    "Districtname": "Chamba",
    "statename": "HIMACHAL PRADESH"
  },
  {
    "pincode": "176302",
    "officename": "Sahala B.O",
    "officeType": "B.O",
    "Deliverystatus": "Delivery",
    "divisionname": "Chamba",
    "regionname": "Shimla HQ",
    "circlename": "Himachal Pradesh",
    "Taluk": "Bhatiyat",
    "Districtname": "Chamba",
    "statename": "HIMACHAL PRADESH"
  },
  {
    "pincode": "176302",
    "officename": "Taragarh B.O",
    "officeType": "B.O",
    "Deliverystatus": "Delivery",
    "divisionname": "Chamba",
    "regionname": "Shimla HQ",
    "circlename": "Himachal Pradesh",
    "Taluk": "Bhatiyat",
    "Districtname": "Chamba",
    "statename": "HIMACHAL PRADESH"
  }
]
