[
  {
    "pincode": "176310",
    "officename": "Bhanota Salga B.O",
    "officeType": "B.O",
    "Deliverystatus": "Delivery",
    "divisionname": "Chamba",
    "regionname": "Shimla HQ",
    "circlename": "Himachal Pradesh",
    "Taluk": "Chamba",
    "Districtname": "Chamba",
    "statename": "HIMACHAL PRADESH"
  },
  {
    "pincode": "176310",
    "officename": "Chakloo B.O",
    "officeType": "B.O",
    "Deliverystatus": "Delivery",
    "divisionname": "Chamba",
    "regionname": "Shimla HQ",
    "circlename": "Himachal Pradesh",
    "Taluk": "Chamba",
    "Districtname": "Chamba",
    "statename": "HIMACHAL PRADESH"
  },
  {
    "pincode": "176310",
    "officename": "Chamba H.O",
    "officeType": "H.O",
    "Deliverystatus": "Delivery",
    "divisionname": "Chamba",
    "regionname": "Shimla HQ",
    "circlename": "Himachal Pradesh",
    "Taluk": "Chamba(T)",
    "Districtname": "Chamba",
    "statename": "HIMACHAL PRADESH"
  },
  {
    "pincode": "176310",
    "officename": "Kiani B.O",
    "officeType": "B.O",
    "Deliverystatus": "Delivery",
    "divisionname": "Chamba",
    "regionname": "Shimla HQ",
    "circlename": "Himachal Pradesh",
    "Taluk": "Chamba",
    "Districtname": "Chamba",
    "statename": "HIMACHAL PRADESH"
  },
  {
    "pincode": "176310",
    "officename": "Kohlari B.O",
    "officeType": "B.O",
    "Deliverystatus": "Delivery",
    "divisionname": "Chamba",
    "regionname": "Shimla HQ",
    "circlename": "Himachal Pradesh",
    "Taluk": "Chamba",
    "Districtname": "Chamba",
    "statename": "HIMACHAL PRADESH"
  },
  {
    "pincode": "176310",
    "officename": "Rajera B.O",
    "officeType": "B.O",
    "Deliverystatus": "Delivery",
    "divisionname": "Chamba",
    "regionname": "Shimla HQ",
    "circlename": "Himachal Pradesh",
    "Taluk": "Chamba",
    "Districtname": "Chamba",
    "statename": "HIMACHAL PRADESH"
  },
  {
    "pincode": "176310",
    "officename": "Rajnagar B.O",
    "officeType": "B.O",
    "Deliverystatus": "Delivery",
    "divisionname": "Chamba",
    "regionname": "Shimla HQ",
    "circlename": "Himachal Pradesh",
    "Taluk": "Chamba",
    "Districtname": "Chamba",
    "statename": "HIMACHAL PRADESH"
  },
  {
    "pincode": "176310",
    "officename": "Rajpura B.O",
    "officeType": "B.O",
    "Deliverystatus": "Delivery",
    "divisionname": "Chamba",
    "regionname": "Shimla HQ",
    "circlename": "Himachal Pradesh",
    "Taluk": "Chamba",
    "Districtname": "Chamba",
    "statename": "HIMACHAL PRADESH"
  },
  {
    "pincode": "176310",
    "officename": "Rangmahal S.O",
    "officeType": "S.O",
    "Deliverystatus": "Non-Delivery",
    "divisionname": "Chamba",
    "regionname": "Shimla HQ",
    "circlename": "Himachal Pradesh",
    "Taluk": "Chamba(T)",
    "Districtname": "Chamba",
    "statename": "HIMACHAL PRADESH"
  },
  {
    "pincode": "176310",
    "officename": "Sarol B.O",
    "officeType": "B.O",
    "Deliverystatus": "Delivery",
    "divisionname": "Chamba",
    "regionname": "Shimla HQ",
    "circlename": "Himachal Pradesh",
    "Taluk": "Chamba",
    "Districtname": "Chamba",
    "statename": "HIMACHAL PRADESH"
  },
  {
    "pincode": "176310",
    "officename": "Singi B.O",
    "officeType": "B.O",
    "Deliverystatus": "Delivery",
    "divisionname": "Chamba",
    "regionname": "Shimla HQ",
    "circlename": "Himachal Pradesh",
    "Taluk": "Chamba",
    "Districtname": "Chamba",
    "statename": "HIMACHAL PRADESH"
  },
  {
    "pincode": "176310",
    "officename": "Sirhkund B.O",
    "officeType": "B.O",
    "Deliverystatus": "Delivery",
    "divisionname": "Chamba",
    "regionname": "Shimla HQ",
    "circlename": "Himachal Pradesh",
    "Taluk": "Chamba",
    "Districtname": "Chamba",
    "statename": "HIMACHAL PRADESH"
  },
  {
    "pincode": "176310",
    "officename": "Udaipur B.O",
    "officeType": "B.O",
    "Deliverystatus": "Delivery",
    "divisionname": "Chamba",
    "regionname": "Shimla HQ",
    "circlename": "Himachal Pradesh",
    "Taluk": "Chamba",
    "Districtname": "Chamba",
    "statename": "HIMACHAL PRADESH"
  },
  {
    "pincode": "176310",
    "officename": "Uteep B.O",
    "officeType": "B.O",
    "Deliverystatus": "Delivery",
    "divisionname": "Chamba",
    "regionname": "Shimla HQ",
    "circlename": "Himachal Pradesh",
    "Taluk": "Chamba",
    "Districtname": "Chamba",
    "statename": "HIMACHAL PRADESH"
  }
]
