[
  {
    "pincode": "176312",
    "officename": "Athedgwalu B.O",
    "officeType": "B.O",
    "Deliverystatus": "Delivery",
    "divisionname": "Chamba",
    "regionname": "Shimla HQ",
    "circlename": "Himachal Pradesh",
    "Taluk": "Salooni",
    "Districtname": "Chamba",
    "statename": "HIMACHAL PRADESH"
  },
  {
    "pincode": "176312",
    "officename": "Badka B.O",
    "officeType": "B.O",
    "Deliverystatus": "Delivery",
    "divisionname": "Chamba",
    "regionname": "Shimla HQ",
    "circlename": "Himachal Pradesh",
    "Taluk": "Slooni",
    "Districtname": "Chamba",
    "statename": "HIMACHAL PRADESH"
  },
  {
    "pincode": "176312",
    "officename": "Bhajotra B.O",
    "officeType": "B.O",
    "Deliverystatus": "Delivery",
    "divisionname": "Chamba",
    "regionname": "Shimla HQ",
    "circlename": "Himachal Pradesh",
    "Taluk": "Salooni",
    "Districtname": "Chamba",
    "statename": "HIMACHAL PRADESH"
  },
  {
    "pincode": "176312",
    "officename": "Chandilarog B.O",
    "officeType": "B.O",
    "Deliverystatus": "Delivery",
    "divisionname": "Chamba",
    "regionname": "Shimla HQ",
    "circlename": "Himachal Pradesh",
    "Taluk": "Salooni",
    "Districtname": "Chamba",
    "statename": "HIMACHAL PRADESH"
  },
  {
    "pincode": "176312",
    "officename": "Dighai B.O",
    "officeType": "B.O",
    "Deliverystatus": "Delivery",
    "divisionname": "Chamba",
    "regionname": "Shimla HQ",
    "circlename": "Himachal Pradesh",
    "Taluk": "Salooni",
    "Districtname": "Chamba",
    "statename": "HIMACHAL PRADESH"
  },
  {
    "pincode": "176312",
    "officename": "Drekari B.O",
    "officeType": "B.O",
    "Deliverystatus": "Delivery",
    "divisionname": "Chamba",
    "regionname": "Shimla HQ",
    "circlename": "Himachal Pradesh",
    "Taluk": "Salooni",
    "Districtname": "Chamba",
    "statename": "HIMACHAL PRADESH"
  },
  {
    "pincode": "176312",
    "officename": "Koti Prahanuie B.O",
    "officeType": "B.O",
    "Deliverystatus": "Delivery",
    "divisionname": "Chamba",
    "regionname": "Shimla HQ",
    "circlename": "Himachal Pradesh",
    "Taluk": "Salooni",
    "Districtname": "Chamba",
    "statename": "HIMACHAL PRADESH"
  },
  {
    "pincode": "176312",
    "officename": "Ligga B.O",
    "officeType": "B.O",
    "Deliverystatus": "Delivery",
    "divisionname": "Chamba",
    "regionname": "Shimla HQ",
    "circlename": "Himachal Pradesh",
    "Taluk": "Salooni",
    "Districtname": "Chamba",
    "statename": "HIMACHAL PRADESH"
  },
  {
    "pincode": "176312",
    "officename": "Manjeer B.O",
    "officeType": "B.O",
    "Deliverystatus": "Delivery",
    "divisionname": "Chamba",
    "regionname": "Shimla HQ",
    "circlename": "Himachal Pradesh",
    "Taluk": "Salooni",
    "Districtname": "Chamba",
    "statename": "HIMACHAL PRADESH"
  },
  {
    "pincode": "176312",
    "officename": "Moda B.O",
    "officeType": "B.O",
    "Deliverystatus": "Delivery",
    "divisionname": "Chamba",
    "regionname": "Shimla HQ",
    "circlename": "Himachal Pradesh",
    "Taluk": "Salooni",
    "Districtname": "Chamba",
    "statename": "HIMACHAL PRADESH"
  },
  {
    "pincode": "176312",
    "officename": "Pantah B.O",
    "officeType": "B.O",
    "Deliverystatus": "Delivery",
    "divisionname": "Chamba",
    "regionname": "Shimla HQ",
    "circlename": "Himachal Pradesh",
    "Taluk": "Salooni",
    "Districtname": "Chamba",
    "statename": "HIMACHAL PRADESH"
  },
  {
    "pincode": "176312",
    "officename": "Salwan B.O",
    "officeType": "B.O",
    "Deliverystatus": "Delivery",
    "divisionname": "Chamba",
    "regionname": "Shimla HQ",
    "circlename": "Himachal Pradesh",
    "Taluk": "Salooni",
    "Districtname": "Chamba",
    "statename": "HIMACHAL PRADESH"
  },
  {
    "pincode": "176312",
    "officename": "Seri Andral B.O",
    "officeType": "B.O",
    "Deliverystatus": "Delivery",
    "divisionname": "Chamba",
    "regionname": "Shimla HQ",
    "circlename": "Himachal Pradesh",
    "Taluk": "Salooni",
    "Districtname": "Chamba",
    "statename": "HIMACHAL PRADESH"
  },
  {
    "pincode": "176312",
    "officename": "Sundla S.O",
    "officeType": "S.O",
    "Deliverystatus": "Delivery",
    "divisionname": "Chamba",
    "regionname": "Shimla HQ",
    "circlename": "Himachal Pradesh",
    "Taluk": "Salooni",
    "Districtname": "Chamba",
    "statename": "HIMACHAL PRADESH"
  }
]
