[
  {
    "pincode": "176311",
    "officename": "Bakani B.O",
    "officeType": "B.O",
    "Deliverystatus": "Delivery",
    "divisionname": "Chamba",
    "regionname": "Shimla HQ",
    "circlename": "Himachal Pradesh",
    "Taluk": "Chamba",
    "Districtname": "Chamba",
    "statename": "HIMACHAL PRADESH"
  },
  {
    "pincode": "176311",
    "officename": "Bandla B.O",
    "officeType": "B.O",
    "Deliverystatus": "Delivery",
    "divisionname": "Chamba",
    "regionname": "Shimla HQ",
    "circlename": "Himachal Pradesh",
    "Taluk": "Chamba",
    "Districtname": "Chamba",
    "statename": "HIMACHAL PRADESH"
  },
  {
    "pincode": "176311",
    "officename": "Churi B.O",
    "officeType": "B.O",
    "Deliverystatus": "Delivery",
    "divisionname": "Chamba",
    "regionname": "Shimla HQ",
    "circlename": "Himachal Pradesh",
    "Taluk": "Chamba",
    "Districtname": "Chamba",
    "statename": "HIMACHAL PRADESH"
  },
  {
    "pincode": "176311",
    "officename": "Darwin B.O",
    "officeType": "B.O",
    "Deliverystatus": "Delivery",
    "divisionname": "Chamba",
    "regionname": "Shimla HQ",
    "circlename": "Himachal Pradesh",
    "Taluk": "Chamba",
    "Districtname": "Chamba",
    "statename": "HIMACHAL PRADESH"
  },
  {
    "pincode": "176311",
    "officename": "Janghi B.O",
    "officeType": "B.O",
    "Deliverystatus": "Delivery",
    "divisionname": "Chamba",
    "regionname": "Shimla HQ",
    "circlename": "Himachal Pradesh",
    "Taluk": "Chamba",
    "Districtname": "Chamba",
    "statename": "HIMACHAL PRADESH"
  },
  {
    "pincode": "176311",
    "officename": "Khundail B.O",
    "officeType": "B.O",
    "Deliverystatus": "Delivery",
    "divisionname": "Chamba",
    "regionname": "Shimla HQ",
    "circlename": "Himachal Pradesh",
    "Taluk": "Chmaba",
    "Districtname": "Chamba",
    "statename": "HIMACHAL PRADESH"
  },
  {
    "pincode": "176311",
    "officename": "Killod B.O",
    "officeType": "B.O",
    "Deliverystatus": "Delivery",
    "divisionname": "Chamba",
    "regionname": "Shimla HQ",
    "circlename": "Himachal Pradesh",
    "Taluk": "Chamba",
    "Districtname": "Chamba",
    "statename": "HIMACHAL PRADESH"
  },
  {
    "pincode": "176311",
    "officename": "Kuned B.O",
    "officeType": "B.O",
    "Deliverystatus": "Delivery",
    "divisionname": "Chamba",
    "regionname": "Shimla HQ",
    "circlename": "Himachal Pradesh",
    "Taluk": "Chamba",
    "Districtname": "Chamba",
    "statename": "HIMACHAL PRADESH"
  },
  {
    "pincode": "176311",
    "officename": "Mehla S.O",
    "officeType": "S.O",
    "Deliverystatus": "Delivery",
    "divisionname": "Chamba",
    "regionname": "Shimla HQ",
    "circlename": "Himachal Pradesh",
    "Taluk": "Chamba",
    "Districtname": "Chamba",
    "statename": "HIMACHAL PRADESH"
  },
  {
    "pincode": "176311",
    "officename": "Pareena B.O",
    "officeType": "B.O",
    "Deliverystatus": "Delivery",
    "divisionname": "Chamba",
    "regionname": "Shimla HQ",
    "circlename": "Himachal Pradesh",
    "Taluk": "Chamba",
    "Districtname": "Chamba",
    "statename": "HIMACHAL PRADESH"
  },
  {
    "pincode": "176311",
    "officename": "Rakh B.O",
    "officeType": "B.O",
    "Deliverystatus": "Delivery",
    "divisionname": "Chamba",
    "regionname": "Shimla HQ",
    "circlename": "Himachal Pradesh",
    "Taluk": "Chamba",
    "Districtname": "Chamba",
    "statename": "HIMACHAL PRADESH"
  },
  {
    "pincode": "176311",
    "officename": "Rari B.O",
    "officeType": "B.O",
    "Deliverystatus": "Delivery",
    "divisionname": "Chamba",
    "regionname": "Shimla HQ",
    "circlename": "Himachal Pradesh",
    "Taluk": "Chamba",
    "Districtname": "Chamba",
    "statename": "HIMACHAL PRADESH"
  },
  {
    "pincode": "176311",
    "officename": "Samra B.O",
    "officeType": "B.O",
    "Deliverystatus": "Delivery",
    "divisionname": "Chamba",
    "regionname": "Shimla HQ",
    "circlename": "Himachal Pradesh",
    "Taluk": "Bharmour",
    "Districtname": "Chamba",
    "statename": "HIMACHAL PRADESH"
  },
  {
    "pincode": "176311",
    "officename": "Sunara B.O",
    "officeType": "B.O",
    "Deliverystatus": "Delivery",
    "divisionname": "Chamba",
    "regionname": "Shimla HQ",
    "circlename": "Himachal Pradesh",
    "Taluk": "Chamba",
    "Districtname": "Chamba",
    "statename": "HIMACHAL PRADESH"
  }
]
