[
  {
    "pincode": "176314",
    "officename": "Baat B.O",
    "officeType": "B.O",
    "Deliverystatus": "Delivery",
    "divisionname": "Chamba",
    "regionname": "Shimla HQ",
    "circlename": "Himachal Pradesh",
    "Taluk": "Chamba",
    "Districtname": "Chamba",
    "statename": "HIMACHAL PRADESH"
  },
  {
    "pincode": "176314",
    "officename": "Barour B.O",
    "officeType": "B.O",
    "Deliverystatus": "Delivery",
    "divisionname": "Chamba",
    "regionname": "Shimla HQ",
    "circlename": "Himachal Pradesh",
    "Taluk": "Chamba",
    "Districtname": "Chamba",
    "statename": "HIMACHAL PRADESH"
  },
  {
    "pincode": "176314",
    "officename": "Basodhan B.O",
    "officeType": "B.O",
    "Deliverystatus": "Delivery",
    "divisionname": "Chamba",
    "regionname": "Shimla HQ",
    "circlename": "Himachal Pradesh",
    "Taluk": "Chamba",
    "Districtname": "Chamba",
    "statename": "HIMACHAL PRADESH"
  },
  {
    "pincode": "176314",
    "officename": "Judera B.O",
    "officeType": "B.O",
    "Deliverystatus": "Delivery",
    "divisionname": "Chamba",
    "regionname": "Shimla HQ",
    "circlename": "Himachal Pradesh",
    "Taluk": "Chamba",
    "Districtname": "Chamba",
    "statename": "HIMACHAL PRADESH"
  },
  {
    "pincode": "176314",
    "officename": "Khajjiar B.O",
    "officeType": "B.O",
    "Deliverystatus": "Delivery",
    "divisionname": "Chamba",
    "regionname": "Shimla HQ",
    "circlename": "Himachal Pradesh",
    "Taluk": "Chamba",
    "Districtname": "Chamba",
    "statename": "HIMACHAL PRADESH"
  },
  {
    "pincode": "176314",
    "officename": "Kirri B.O",
    "officeType": "B.O",
    "Deliverystatus": "Delivery",
    "divisionname": "Chamba",
    "regionname": "Shimla HQ",
    "circlename": "Himachal Pradesh",
    "Taluk": "Chamba",
    "Districtname": "Chamba",
    "statename": "HIMACHAL PRADESH"
  },
  {
    "pincode": "176314",
    "officename": "Kupara B.O",
    "officeType": "B.O",
    "Deliverystatus": "Delivery",
    "divisionname": "Chamba",
    "regionname": "Shimla HQ",
    "circlename": "Himachal Pradesh",
    "Taluk": "Chamba",
    "Districtname": "Chamba",
    "statename": "HIMACHAL PRADESH"
  },
  {
    "pincode": "176314",
    "officename": "Mangla B.O",
    "officeType": "B.O",
    "Deliverystatus": "Delivery",
    "divisionname": "Chamba",
    "regionname": "Shimla HQ",
    "circlename": "Himachal Pradesh",
    "Taluk": "Chamba",
    "Districtname": "Chamba",
    "statename": "HIMACHAL PRADESH"
  },
  {
    "pincode": "176314",
    "officename": "Paliur B.O",
    "officeType": "B.O",
    "Deliverystatus": "Delivery",
    "divisionname": "Chamba",
    "regionname": "Shimla HQ",
    "circlename": "Himachal Pradesh",
    "Taluk": "Chamba",
    "Districtname": "Chamba",
    "statename": "HIMACHAL PRADESH"
  },
  {
    "pincode": "176314",
    "officename": "Palwin B.O",
    "officeType": "B.O",
    "Deliverystatus": "Delivery",
    "divisionname": "Chamba",
    "regionname": "Shimla HQ",
    "circlename": "Himachal Pradesh",
    "Taluk": "Chamba",
    "Districtname": "Chamba",
    "statename": "HIMACHAL PRADESH"
  },
  {
    "pincode": "176314",
    "officename": "Rathiar B.O",
    "officeType": "B.O",
    "Deliverystatus": "Delivery",
    "divisionname": "Chamba",
    "regionname": "Shimla HQ",
    "circlename": "Himachal Pradesh",
    "Taluk": "Chamba",
    "Districtname": "Chamba",
    "statename": "HIMACHAL PRADESH"
  },
  {
    "pincode": "176314",
    "officename": "Sach B.O",
    "officeType": "B.O",
    "Deliverystatus": "Delivery",
    "divisionname": "Chamba",
    "regionname": "Shimla HQ",
    "circlename": "Himachal Pradesh",
    "Taluk": "Chamba",
    "Districtname": "Chamba",
    "statename": "HIMACHAL PRADESH"
  },
  {
    "pincode": "176314",
    "officename": "Sahu B.O",
    "officeType": "B.O",
    "Deliverystatus": "Delivery",
    "divisionname": "Chamba",
    "regionname": "Shimla HQ",
    "circlename": "Himachal Pradesh",
    "Taluk": "Chamba",
    "Districtname": "Chamba",
    "statename": "HIMACHAL PRADESH"
  },
  {
    "pincode": "176314",
    "officename": "Sarahan B.O",
    "officeType": "B.O",
    "Deliverystatus": "Delivery",
    "divisionname": "Chamba",
    "regionname": "Shimla HQ",
    "circlename": "Himachal Pradesh",
    "Taluk": "Chamba",
    "Districtname": "Chamba",
    "statename": "HIMACHAL PRADESH"
  },
  {
    "pincode": "176314",
    "officename": "Sillagharat B.O",
    "officeType": "B.O",
    "Deliverystatus": "Delivery",
    "divisionname": "Chamba",
    "regionname": "Shimla HQ",
    "circlename": "Himachal Pradesh",
    "Taluk": "Chamba",
    "Districtname": "Chamba",
    "statename": "HIMACHAL PRADESH"
  },
  {
    "pincode": "176314",
    "officename": "Sultanpur S.O (Chamba)",
    "officeType": "S.O",
    "Deliverystatus": "Delivery",
    "divisionname": "Chamba",
    "regionname": "Shimla HQ",
    "circlename": "Himachal Pradesh",
    "Taluk": "Chamba",
    "Districtname": "Chamba",
    "statename": "HIMACHAL PRADESH"
  }
]
