[
  {
    "pincode": "176403",
    "officename": "Baleer B.O",
    "officeType": "B.O",
    "Deliverystatus": "Delivery",
    "divisionname": "Dharamsala",
    "regionname": "Shimla HQ",
    "circlename": "Himachal Pradesh",
    "Taluk": "Nurpur",
    "Districtname": "Kangra",
    "statename": "HIMACHAL PRADESH"
  },
  {
    "pincode": "176403",
    "officename": "Basantpur B.O",
    "officeType": "B.O",
    "Deliverystatus": "Delivery",
    "divisionname": "Dharamsala",
    "regionname": "Shimla HQ",
    "circlename": "Himachal Pradesh",
    "Taluk": "Nurpur",
    "Districtname": "Kangra",
    "statename": "HIMACHAL PRADESH"
  },
  {
    "pincode": "176403",
    "officename": "Bhadroya B.O",
    "officeType": "B.O",
    "Deliverystatus": "Delivery",
    "divisionname": "Dharamsala",
    "regionname": "Shimla HQ",
    "circlename": "Himachal Pradesh",
    "Taluk": "Nurpur",
    "Districtname": "Kangra",
    "statename": "HIMACHAL PRADESH"
  },
  {
    "pincode": "176403",
    "officename": "Chhanni B.O",
    "officeType": "B.O",
    "Deliverystatus": "Delivery",
    "divisionname": "Dharamsala",
    "regionname": "Shimla HQ",
    "circlename": "Himachal Pradesh",
    "Taluk": "Nurpur",
    "Districtname": "Kangra",
    "statename": "HIMACHAL PRADESH"
  },
  {
    "pincode": "176403",
    "officename": "Damtal S.O",
    "officeType": "S.O",
    "Deliverystatus": "Delivery",
    "divisionname": "Dharamsala",
    "regionname": "Shimla HQ",
    "circlename": "Himachal Pradesh",
    "Taluk": "Indora So",
    "Districtname": "Kangra",
    "statename": "HIMACHAL PRADESH"
  },
  {
    "pincode": "176403",
    "officename": "Mand Manjwan B.O",
    "officeType": "B.O",
    "Deliverystatus": "Delivery",
    "divisionname": "Dharamsala",
    "regionname": "Shimla HQ",
    "circlename": "Himachal Pradesh",
    "Taluk": "Nurpur",
    "Districtname": "Kangra",
    "statename": "HIMACHAL PRADESH"
  },
  {
    "pincode": "176403",
    "officename": "Mohatli B.O",
    "officeType": "B.O",
    "Deliverystatus": "Delivery",
    "divisionname": "Dharamsala",
    "regionname": "Shimla HQ",
    "circlename": "Himachal Pradesh",
    "Taluk": "Indora",
    "Districtname": "Kangra",
    "statename": "HIMACHAL PRADESH"
  },
  {
    "pincode": "176403",
    "officename": "Olehrian B.O",
    "officeType": "B.O",
    "Deliverystatus": "Delivery",
    "divisionname": "Dharamsala",
    "regionname": "Shimla HQ",
    "circlename": "Himachal Pradesh",
    "Taluk": "Nurpur",
    "Districtname": "Kangra",
    "statename": "HIMACHAL PRADESH"
  },
  {
    "pincode": "176403",
    "officename": "Paral B.O",
    "officeType": "B.O",
    "Deliverystatus": "Delivery",
    "divisionname": "Dharamsala",
    "regionname": "Shimla HQ",
    "circlename": "Himachal Pradesh",
    "Taluk": "Nurpur",
    "Districtname": "Kangra",
    "statename": "HIMACHAL PRADESH"
  },
  {
    "pincode": "176403",
    "officename": "Surajpur B.O",
    "officeType": "B.O",
    "Deliverystatus": "Delivery",
    "divisionname": "Dharamsala",
    "regionname": "Shimla HQ",
    "circlename": "Himachal Pradesh",
    "Taluk": "Nurpur",
    "Districtname": "Kangra",
    "statename": "HIMACHAL PRADESH"
  },
  {
    "pincode": "176403",
    "officename": "Thakurdwara B.O",
    "officeType": "B.O",
    "Deliverystatus": "Delivery",
    "divisionname": "Dharamsala",
    "regionname": "Shimla HQ",
    "circlename": "Himachal Pradesh",
    "Taluk": "Nurpur",
    "Districtname": "Kangra",
    "statename": "HIMACHAL PRADESH"
  }
]
