[
  {
    "pincode": "176601",
    "officename": "Beetan B.O",
    "officeType": "B.O",
    "Deliverystatus": "Delivery",
    "divisionname": "Una",
    "regionname": "Shimla HQ",
    "circlename": "Himachal Pradesh",
    "Taluk": "Haroli",
    "Districtname": "Una",
    "statename": "HIMACHAL PRADESH"
  },
  {
    "pincode": "176601",
    "officename": "Biderwal B.O",
    "officeType": "B.O",
    "Deliverystatus": "Delivery",
    "divisionname": "Una",
    "regionname": "Shimla HQ",
    "circlename": "Himachal Pradesh",
    "Taluk": "Haroli",
    "Districtname": "Una",
    "statename": "HIMACHAL PRADESH"
  },
  {
    "pincode": "176601",
    "officename": "Dulehar S.O",
    "officeType": "S.O",
    "Deliverystatus": "Delivery",
    "divisionname": "Una",
    "regionname": "Shimla HQ",
    "circlename": "Himachal Pradesh",
    "Taluk": "Haroli",
    "Districtname": "Una",
    "statename": "HIMACHAL PRADESH"
  },
  {
    "pincode": "176601",
    "officename": "Gondpurbulla B.O",
    "officeType": "B.O",
    "Deliverystatus": "Delivery",
    "divisionname": "Una",
    "regionname": "Shimla HQ",
    "circlename": "Himachal Pradesh",
    "Taluk": "Haroli",
    "Districtname": "Una",
    "statename": "HIMACHAL PRADESH"
  },
  {
    "pincode": "176601",
    "officename": "Gondpurjaichand B.O",
    "officeType": "B.O",
    "Deliverystatus": "Delivery",
    "divisionname": "Una",
    "regionname": "Shimla HQ",
    "circlename": "Himachal Pradesh",
    "Taluk": "Haroli(S.T)",
    "Districtname": "Una",
    "statename": "HIMACHAL PRADESH"
  },
  {
    "pincode": "176601",
    "officename": "Hiran B.O",
    "officeType": "B.O",
    "Deliverystatus": "Delivery",
    "divisionname": "Una",
    "regionname": "Shimla HQ",
    "circlename": "Himachal Pradesh",
    "Taluk": "Haroli",
    "Districtname": "Una",
    "statename": "HIMACHAL PRADESH"
  },
  {
    "pincode": "176601",
    "officename": "Kungrat B.O",
    "officeType": "B.O",
    "Deliverystatus": "Delivery",
    "divisionname": "Una",
    "regionname": "Shimla HQ",
    "circlename": "Himachal Pradesh",
    "Taluk": "Haroli",
    "Districtname": "Una",
    "statename": "HIMACHAL PRADESH"
  },
  {
    "pincode": "176601",
    "officename": "Singan B.O",
    "officeType": "B.O",
    "Deliverystatus": "Delivery",
    "divisionname": "Una",
    "regionname": "Shimla HQ",
    "circlename": "Himachal Pradesh",
    "Taluk": "Haroli",
    "Districtname": "Una",
    "statename": "HIMACHAL PRADESH"
  }
]
