[
  {
    "pincode": "177210",
    "officename": "Chaksarai B.O",
    "officeType": "B.O",
    "Deliverystatus": "Delivery",
    "divisionname": "Una",
    "regionname": "Shimla HQ",
    "circlename": "Himachal Pradesh",
    "Taluk": "Amb",
    "Districtname": "Una",
    "statename": "HIMACHAL PRADESH"
  },
  {
    "pincode": "177210",
    "officename": "Jawar B.O",
    "officeType": "B.O",
    "Deliverystatus": "Delivery",
    "divisionname": "Una",
    "regionname": "Shimla HQ",
    "circlename": "Himachal Pradesh",
    "Taluk": "Amb",
    "Districtname": "Una",
    "statename": "HIMACHAL PRADESH"
  },
  {
    "pincode": "177210",
    "officename": "Mairi B.O",
    "officeType": "B.O",
    "Deliverystatus": "Delivery",
    "divisionname": "Una",
    "regionname": "Shimla HQ",
    "circlename": "Himachal Pradesh",
    "Taluk": "Amb(T)",
    "Districtname": "Una",
    "statename": "HIMACHAL PRADESH"
  },
  {
    "pincode": "177210",
    "officename": "Nehri Nauranga S.O",
    "officeType": "S.O",
    "Deliverystatus": "Delivery",
    "divisionname": "Una",
    "regionname": "Shimla HQ",
    "circlename": "Himachal Pradesh",
    "Taluk": "Amb",
    "Districtname": "Una",
    "statename": "HIMACHAL PRADESH"
  },
  {
    "pincode": "177210",
    "officename": "Polian Purohitan B.O",
    "officeType": "B.O",
    "Deliverystatus": "Delivery",
    "divisionname": "Una",
    "regionname": "Shimla HQ",
    "circlename": "Himachal Pradesh",
    "Taluk": "Amb",
    "Districtname": "Una",
    "statename": "HIMACHAL PRADESH"
  },
  {
    "pincode": "177210",
    "officename": "Rajpur Jaswan B.O",
    "officeType": "B.O",
    "Deliverystatus": "Delivery",
    "divisionname": "Una",
    "regionname": "Shimla HQ",
    "circlename": "Himachal Pradesh",
    "Taluk": "Amb",
    "Districtname": "Una",
    "statename": "HIMACHAL PRADESH"
  },
  {
    "pincode": "177210",
    "officename": "Ripoh Misran B.O",
    "officeType": "B.O",
    "Deliverystatus": "Delivery",
    "divisionname": "Una",
    "regionname": "Shimla HQ",
    "circlename": "Himachal Pradesh",
    "Taluk": "Amb",
    "Districtname": "Una",
    "statename": "HIMACHAL PRADESH"
  },
  {
    "pincode": "177210",
    "officename": "Sapauri B.O",
    "officeType": "B.O",
    "Deliverystatus": "Delivery",
    "divisionname": "Una",
    "regionname": "Shimla HQ",
    "circlename": "Himachal Pradesh",
    "Taluk": "Amb",
    "Districtname": "Una",
    "statename": "HIMACHAL PRADESH"
  },
  {
    "pincode": "177210",
    "officename": "Suri B.O",
    "officeType": "B.O",
    "Deliverystatus": "Delivery",
    "divisionname": "Una",
    "regionname": "Shimla HQ",
    "circlename": "Himachal Pradesh",
    "Taluk": "Amb(T)",
    "Districtname": "Una",
    "statename": "HIMACHAL PRADESH"
  }
]
