[
  {
    "pincode": "177204",
    "officename": "Amboa B.O",
    "officeType": "B.O",
    "Deliverystatus": "Delivery",
    "divisionname": "Una",
    "regionname": "Shimla HQ",
    "circlename": "Himachal Pradesh",
    "Taluk": "Amb",
    "Districtname": "Una",
    "statename": "HIMACHAL PRADESH"
  },
  {
    "pincode": "177204",
    "officename": "Babehar B.O",
    "officeType": "B.O",
    "Deliverystatus": "Delivery",
    "divisionname": "Una",
    "regionname": "Shimla HQ",
    "circlename": "Himachal Pradesh",
    "Taluk": "Amb",
    "Districtname": "Una",
    "statename": "HIMACHAL PRADESH"
  },
  {
    "pincode": "177204",
    "officename": "Bhadarkali B.O",
    "officeType": "B.O",
    "Deliverystatus": "Delivery",
    "divisionname": "Una",
    "regionname": "Shimla HQ",
    "circlename": "Himachal Pradesh",
    "Taluk": "Amb",
    "Districtname": "Una",
    "statename": "HIMACHAL PRADESH"
  },
  {
    "pincode": "177204",
    "officename": "Chalet B.O",
    "officeType": "B.O",
    "Deliverystatus": "Delivery",
    "divisionname": "Una",
    "regionname": "Shimla HQ",
    "circlename": "Himachal Pradesh",
    "Taluk": "Amb(T)",
    "Districtname": "Una",
    "statename": "HIMACHAL PRADESH"
  },
  {
    "pincode": "177204",
    "officename": "Dangohkalan B.O",
    "officeType": "B.O",
    "Deliverystatus": "Delivery",
    "divisionname": "Una",
    "regionname": "Shimla HQ",
    "circlename": "Himachal Pradesh",
    "Taluk": "Amb",
    "Districtname": "Una",
    "statename": "HIMACHAL PRADESH"
  },
  {
    "pincode": "177204",
    "officename": "Daulatpurchowk S.O",
    "officeType": "S.O",
    "Deliverystatus": "Delivery",
    "divisionname": "Una",
    "regionname": "Shimla HQ",
    "circlename": "Himachal Pradesh",
    "Taluk": "Amb",
    "Districtname": "Una",
    "statename": "HIMACHAL PRADESH"
  },
  {
    "pincode": "177204",
    "officename": "Joh B.O",
    "officeType": "B.O",
    "Deliverystatus": "Delivery",
    "divisionname": "Una",
    "regionname": "Shimla HQ",
    "circlename": "Himachal Pradesh",
    "Taluk": "Amb(T)",
    "Districtname": "Una",
    "statename": "HIMACHAL PRADESH"
  },
  {
    "pincode": "177204",
    "officename": "Mawa Kaholan B.O",
    "officeType": "B.O",
    "Deliverystatus": "Delivery",
    "divisionname": "Una",
    "regionname": "Shimla HQ",
    "circlename": "Himachal Pradesh",
    "Taluk": "Amb(T)",
    "Districtname": "Una",
    "statename": "HIMACHAL PRADESH"
  },
  {
    "pincode": "177204",
    "officename": "Pirthipur B.O",
    "officeType": "B.O",
    "Deliverystatus": "Delivery",
    "divisionname": "Una",
    "regionname": "Shimla HQ",
    "circlename": "Himachal Pradesh",
    "Taluk": "Amb(T)",
    "Districtname": "Una",
    "statename": "HIMACHAL PRADESH"
  }
]
