[
  {
    "pincode": "181101",
    "officename": "Bhour Camp B.O",
    "officeType": "B.O",
    "Deliverystatus": "Delivery",
    "divisionname": "Jammu",
    "regionname": "Srinagar HQ",
    "circlename": "Jammukashmir",
    "Taluk": "Jammu",
    "Districtname": "Jammu",
    "statename": "JAMMU & KASHMIR"
  },
  {
    "pincode": "181101",
    "officename": "Gadigarh B.O",
    "officeType": "B.O",
    "Deliverystatus": "Delivery",
    "divisionname": "Jammu",
    "regionname": "Srinagar HQ",
    "circlename": "Jammukashmir",
    "Taluk": "Jammu",
    "Districtname": "Jammu",
    "statename": "JAMMU & KASHMIR"
  },
  {
    "pincode": "181101",
    "officename": "Khour Devian B.O",
    "officeType": "B.O",
    "Deliverystatus": "Delivery",
    "divisionname": "Jammu",
    "regionname": "Srinagar HQ",
    "circlename": "Jammukashmir",
    "Taluk": "",
    "Districtname": "Jammu",
    "statename": "JAMMU & KASHMIR"
  },
  {
    "pincode": "181101",
    "officename": "Kirpind B.O",
    "officeType": "B.O",
    "Deliverystatus": "Delivery",
    "divisionname": "Jammu",
    "regionname": "Srinagar HQ",
    "circlename": "Jammukashmir",
    "Taluk": "Jammu",
    "Districtname": "Jammu",
    "statename": "JAMMU & KASHMIR"
  },
  {
    "pincode": "181101",
    "officename": "Langotian B.O",
    "officeType": "B.O",
    "Deliverystatus": "Delivery",
    "divisionname": "Jammu",
    "regionname": "Srinagar HQ",
    "circlename": "Jammukashmir",
    "Taluk": "Jammu",
    "Districtname": "Jammu",
    "statename": "JAMMU & KASHMIR"
  },
  {
    "pincode": "181101",
    "officename": "Miran Sahib S.O",
    "officeType": "S.O",
    "Deliverystatus": "Delivery",
    "divisionname": "Jammu",
    "regionname": "Srinagar HQ",
    "circlename": "Jammukashmir",
    "Taluk": "Ranbirsinghpora",
    "Districtname": "Jammu",
    "statename": "JAMMU & KASHMIR"
  },
  {
    "pincode": "181101",
    "officename": "Rattisn B.O",
    "officeType": "B.O",
    "Deliverystatus": "Delivery",
    "divisionname": "Jammu",
    "regionname": "Srinagar HQ",
    "circlename": "Jammukashmir",
    "Taluk": "Jammu",
    "Districtname": "Jammu",
    "statename": "JAMMU & KASHMIR"
  },
  {
    "pincode": "181101",
    "officename": "Simble Camp B.O",
    "officeType": "B.O",
    "Deliverystatus": "Delivery",
    "divisionname": "Jammu",
    "regionname": "Srinagar HQ",
    "circlename": "Jammukashmir",
    "Taluk": "",
    "Districtname": "Jammu",
    "statename": "JAMMU & KASHMIR"
  }
]
