[
  {
    "pincode": "181131",
    "officename": "Adlehar B.O",
    "officeType": "B.O",
    "Deliverystatus": "Delivery",
    "divisionname": "Jammu",
    "regionname": "Srinagar HQ",
    "circlename": "Jammukashmir",
    "Taluk": "Jammu",
    "Districtname": "Jammu",
    "statename": "JAMMU & KASHMIR"
  },
  {
    "pincode": "181131",
    "officename": "Allah B.O",
    "officeType": "B.O",
    "Deliverystatus": "Delivery",
    "divisionname": "Jammu",
    "regionname": "Srinagar HQ",
    "circlename": "Jammukashmir",
    "Taluk": "Jammu",
    "Districtname": "Jammu",
    "statename": "JAMMU & KASHMIR"
  },
  {
    "pincode": "181131",
    "officename": "Arnia S.O",
    "officeType": "S.O",
    "Deliverystatus": "Delivery",
    "divisionname": "Jammu",
    "regionname": "Srinagar HQ",
    "circlename": "Jammukashmir",
    "Taluk": "Jammu",
    "Districtname": "Jammu",
    "statename": "JAMMU & KASHMIR"
  },
  {
    "pincode": "181131",
    "officename": "Kalyana B.O",
    "officeType": "B.O",
    "Deliverystatus": "Delivery",
    "divisionname": "Jammu",
    "regionname": "Srinagar HQ",
    "circlename": "Jammukashmir",
    "Taluk": "Jammu",
    "Districtname": "Jammu",
    "statename": "JAMMU & KASHMIR"
  },
  {
    "pincode": "181131",
    "officename": "Kool Kalan B.O",
    "officeType": "B.O",
    "Deliverystatus": "Delivery",
    "divisionname": "Jammu",
    "regionname": "Srinagar HQ",
    "circlename": "Jammukashmir",
    "Taluk": "Bishna",
    "Districtname": "Jammu",
    "statename": "JAMMU & KASHMIR"
  },
  {
    "pincode": "181131",
    "officename": "Parlah B.O",
    "officeType": "B.O",
    "Deliverystatus": "Delivery",
    "divisionname": "Jammu",
    "regionname": "Srinagar HQ",
    "circlename": "Jammukashmir",
    "Taluk": "Jammu",
    "Districtname": "Jammu",
    "statename": "JAMMU & KASHMIR"
  },
  {
    "pincode": "181131",
    "officename": "Pindicharka Kalan B.O",
    "officeType": "B.O",
    "Deliverystatus": "Delivery",
    "divisionname": "Jammu",
    "regionname": "Srinagar HQ",
    "circlename": "Jammukashmir",
    "Taluk": "Jammu",
    "Districtname": "Jammu",
    "statename": "JAMMU & KASHMIR"
  },
  {
    "pincode": "181131",
    "officename": "Rangpur Trewa B.O",
    "officeType": "B.O",
    "Deliverystatus": "Delivery",
    "divisionname": "Jammu",
    "regionname": "Srinagar HQ",
    "circlename": "Jammukashmir",
    "Taluk": "Jammu",
    "Districtname": "Jammu",
    "statename": "JAMMU & KASHMIR"
  },
  {
    "pincode": "181131",
    "officename": "Sai Kalan B.O",
    "officeType": "B.O",
    "Deliverystatus": "Delivery",
    "divisionname": "Jammu",
    "regionname": "Srinagar HQ",
    "circlename": "Jammukashmir",
    "Taluk": "Jammu",
    "Districtname": "Jammu",
    "statename": "JAMMU & KASHMIR"
  },
  {
    "pincode": "181131",
    "officename": "Talhar B.O",
    "officeType": "B.O",
    "Deliverystatus": "Delivery",
    "divisionname": "Jammu",
    "regionname": "Srinagar HQ",
    "circlename": "Jammukashmir",
    "Taluk": "Jammu",
    "Districtname": "Jammu",
    "statename": "JAMMU & KASHMIR"
  }
]
