[
  {
    "pincode": "181202",
    "officename": "Bakore B.O",
    "officeType": "B.O",
    "Deliverystatus": "Delivery",
    "divisionname": "Jammu",
    "regionname": "Srinagar HQ",
    "circlename": "Jammukashmir",
    "Taluk": "Jammu",
    "Districtname": "Jammu",
    "statename": "JAMMU & KASHMIR"
  },
  {
    "pincode": "181202",
    "officename": "Bhalwal Brahmna B.O",
    "officeType": "B.O",
    "Deliverystatus": "Delivery",
    "divisionname": "Jammu",
    "regionname": "Srinagar HQ",
    "circlename": "Jammukashmir",
    "Taluk": "Jammu",
    "Districtname": "Jammu",
    "statename": "JAMMU & KASHMIR"
  },
  {
    "pincode": "181202",
    "officename": "Chak Kirpalpur B.O",
    "officeType": "B.O",
    "Deliverystatus": "Delivery",
    "divisionname": "Jammu",
    "regionname": "Srinagar HQ",
    "circlename": "Jammukashmir",
    "Taluk": "Jammu",
    "Districtname": "Jammu",
    "statename": "JAMMU & KASHMIR"
  },
  {
    "pincode": "181202",
    "officename": "Datial B.O",
    "officeType": "B.O",
    "Deliverystatus": "Delivery",
    "divisionname": "Jammu",
    "regionname": "Srinagar HQ",
    "circlename": "Jammukashmir",
    "Taluk": "Jammu",
    "Districtname": "Jammu",
    "statename": "JAMMU & KASHMIR"
  },
  {
    "pincode": "181202",
    "officename": "Devipur B.O",
    "officeType": "B.O",
    "Deliverystatus": "Delivery",
    "divisionname": "Jammu",
    "regionname": "Srinagar HQ",
    "circlename": "Jammukashmir",
    "Taluk": "Jammu",
    "Districtname": "Jammu",
    "statename": "JAMMU & KASHMIR"
  },
  {
    "pincode": "181202",
    "officename": "Dhoke Khalsa B.O",
    "officeType": "B.O",
    "Deliverystatus": "Delivery",
    "divisionname": "Jammu",
    "regionname": "Srinagar HQ",
    "circlename": "Jammukashmir",
    "Taluk": "Jammu",
    "Districtname": "Jammu",
    "statename": "JAMMU & KASHMIR"
  },
  {
    "pincode": "181202",
    "officename": "Jourian S.O",
    "officeType": "S.O",
    "Deliverystatus": "Delivery",
    "divisionname": "Jammu",
    "regionname": "Srinagar HQ",
    "circlename": "Jammukashmir",
    "Taluk": "Jammu",
    "Districtname": "Jammu",
    "statename": "JAMMU & KASHMIR"
  },
  {
    "pincode": "181202",
    "officename": "Maira B.O",
    "officeType": "B.O",
    "Deliverystatus": "Delivery",
    "divisionname": "Jammu",
    "regionname": "Srinagar HQ",
    "circlename": "Jammukashmir",
    "Taluk": "Jammu",
    "Districtname": "Jammu",
    "statename": "JAMMU & KASHMIR"
  }
]
