[
  {
    "pincode": "181206",
    "officename": "Batehra B.O",
    "officeType": "B.O",
    "Deliverystatus": "Delivery",
    "divisionname": "Jammu",
    "regionname": "Srinagar HQ",
    "circlename": "Jammukashmir",
    "Taluk": "Jammu",
    "Districtname": "Jammu",
    "statename": "JAMMU & KASHMIR"
  },
  {
    "pincode": "181206",
    "officename": "Chak Shama B.O",
    "officeType": "B.O",
    "Deliverystatus": "Delivery",
    "divisionname": "Jammu",
    "regionname": "Srinagar HQ",
    "circlename": "Jammukashmir",
    "Taluk": "Jammu",
    "Districtname": "Jammu",
    "statename": "JAMMU & KASHMIR"
  },
  {
    "pincode": "181206",
    "officename": "Dumana S.O",
    "officeType": "S.O",
    "Deliverystatus": "Delivery",
    "divisionname": "Jammu",
    "regionname": "Srinagar HQ",
    "circlename": "Jammukashmir",
    "Taluk": "Jammu",
    "Districtname": "Jammu",
    "statename": "JAMMU & KASHMIR"
  },
  {
    "pincode": "181206",
    "officename": "Gajansoo B.O",
    "officeType": "B.O",
    "Deliverystatus": "Delivery",
    "divisionname": "Jammu",
    "regionname": "Srinagar HQ",
    "circlename": "Jammukashmir",
    "Taluk": "Jammu",
    "Districtname": "Jammu",
    "statename": "JAMMU & KASHMIR"
  },
  {
    "pincode": "181206",
    "officename": "Garkhal B.O",
    "officeType": "B.O",
    "Deliverystatus": "Delivery",
    "divisionname": "Jammu",
    "regionname": "Srinagar HQ",
    "circlename": "Jammukashmir",
    "Taluk": "Jammu",
    "Districtname": "Jammu",
    "statename": "JAMMU & KASHMIR"
  },
  {
    "pincode": "181206",
    "officename": "Gho Manhasan B.O",
    "officeType": "B.O",
    "Deliverystatus": "Delivery",
    "divisionname": "Jammu",
    "regionname": "Srinagar HQ",
    "circlename": "Jammukashmir",
    "Taluk": "Jammu",
    "Districtname": "Jammu",
    "statename": "JAMMU & KASHMIR"
  },
  {
    "pincode": "181206",
    "officename": "Halqa B.O",
    "officeType": "B.O",
    "Deliverystatus": "Delivery",
    "divisionname": "Jammu",
    "regionname": "Srinagar HQ",
    "circlename": "Jammukashmir",
    "Taluk": "Jammu",
    "Districtname": "Jammu",
    "statename": "JAMMU & KASHMIR"
  },
  {
    "pincode": "181206",
    "officename": "Kanachak B.O",
    "officeType": "B.O",
    "Deliverystatus": "Delivery",
    "divisionname": "Jammu",
    "regionname": "Srinagar HQ",
    "circlename": "Jammukashmir",
    "Taluk": "Jammu",
    "Districtname": "Jammu",
    "statename": "JAMMU & KASHMIR"
  },
  {
    "pincode": "181206",
    "officename": "Kangrial B.O",
    "officeType": "B.O",
    "Deliverystatus": "Delivery",
    "divisionname": "Jammu",
    "regionname": "Srinagar HQ",
    "circlename": "Jammukashmir",
    "Taluk": "Jammu",
    "Districtname": "Jammu",
    "statename": "JAMMU & KASHMIR"
  },
  {
    "pincode": "181206",
    "officename": "Karloop B.O",
    "officeType": "B.O",
    "Deliverystatus": "Delivery",
    "divisionname": "Jammu",
    "regionname": "Srinagar HQ",
    "circlename": "Jammukashmir",
    "Taluk": "Jammu",
    "Districtname": "Jammu",
    "statename": "JAMMU & KASHMIR"
  },
  {
    "pincode": "181206",
    "officename": "Misriwala B.O",
    "officeType": "B.O",
    "Deliverystatus": "Delivery",
    "divisionname": "Jammu",
    "regionname": "Srinagar HQ",
    "circlename": "Jammukashmir",
    "Taluk": "Jammu",
    "Districtname": "Jammu",
    "statename": "JAMMU & KASHMIR"
  },
  {
    "pincode": "181206",
    "officename": "Nagbani B.O",
    "officeType": "B.O",
    "Deliverystatus": "Delivery",
    "divisionname": "Jammu",
    "regionname": "Srinagar HQ",
    "circlename": "Jammukashmir",
    "Taluk": "Jammu",
    "Districtname": "Jammu",
    "statename": "JAMMU & KASHMIR"
  },
  {
    "pincode": "181206",
    "officename": "Paryal B.O",
    "officeType": "B.O",
    "Deliverystatus": "Delivery",
    "divisionname": "Jammu",
    "regionname": "Srinagar HQ",
    "circlename": "Jammukashmir",
    "Taluk": "Jammu",
    "Districtname": "Jammu",
    "statename": "JAMMU & KASHMIR"
  }
]
