[
  {
    "pincode": "181203",
    "officename": "Chak Malal B.O",
    "officeType": "B.O",
    "Deliverystatus": "Delivery",
    "divisionname": "Jammu",
    "regionname": "Srinagar HQ",
    "circlename": "Jammukashmir",
    "Taluk": "Jammu",
    "Districtname": "Jammu",
    "statename": "JAMMU & KASHMIR"
  },
  {
    "pincode": "181203",
    "officename": "Danwal B.O",
    "officeType": "B.O",
    "Deliverystatus": "Delivery",
    "divisionname": "Jammu",
    "regionname": "Srinagar HQ",
    "circlename": "Jammukashmir",
    "Taluk": "Jammu",
    "Districtname": "Jammu",
    "statename": "JAMMU & KASHMIR"
  },
  {
    "pincode": "181203",
    "officename": "Gigrial B.O",
    "officeType": "B.O",
    "Deliverystatus": "Delivery",
    "divisionname": "Jammu",
    "regionname": "Srinagar HQ",
    "circlename": "Jammukashmir",
    "Taluk": "Jammu",
    "Districtname": "Jammu",
    "statename": "JAMMU & KASHMIR"
  },
  {
    "pincode": "181203",
    "officename": "Hamirpur Sidhar B.O",
    "officeType": "B.O",
    "Deliverystatus": "Delivery",
    "divisionname": "Jammu",
    "regionname": "Srinagar HQ",
    "circlename": "Jammukashmir",
    "Taluk": "Akhnoor",
    "Districtname": "Jammu",
    "statename": "JAMMU & KASHMIR"
  },
  {
    "pincode": "181203",
    "officename": "Kaleetg B.O",
    "officeType": "B.O",
    "Deliverystatus": "Delivery",
    "divisionname": "Jammu",
    "regionname": "Srinagar HQ",
    "circlename": "Jammukashmir",
    "Taluk": "Jammu",
    "Districtname": "Jammu",
    "statename": "JAMMU & KASHMIR"
  },
  {
    "pincode": "181203",
    "officename": "Kharah B.O",
    "officeType": "B.O",
    "Deliverystatus": "Delivery",
    "divisionname": "Jammu",
    "regionname": "Srinagar HQ",
    "circlename": "Jammukashmir",
    "Taluk": "Jammu",
    "Districtname": "Jammu",
    "statename": "JAMMU & KASHMIR"
  },
  {
    "pincode": "181203",
    "officename": "Khour S.O",
    "officeType": "S.O",
    "Deliverystatus": "Delivery",
    "divisionname": "Jammu",
    "regionname": "Srinagar HQ",
    "circlename": "Jammukashmir",
    "Taluk": "Jammu",
    "Districtname": "Jammu",
    "statename": "JAMMU & KASHMIR"
  },
  {
    "pincode": "181203",
    "officename": "Naryana B.O",
    "officeType": "B.O",
    "Deliverystatus": "Delivery",
    "divisionname": "Jammu",
    "regionname": "Srinagar HQ",
    "circlename": "Jammukashmir",
    "Taluk": "Jammu",
    "Districtname": "Jammu",
    "statename": "JAMMU & KASHMIR"
  },
  {
    "pincode": "181203",
    "officename": "Nathal B.O",
    "officeType": "B.O",
    "Deliverystatus": "Delivery",
    "divisionname": "Jammu",
    "regionname": "Srinagar HQ",
    "circlename": "Jammukashmir",
    "Taluk": "Jammu",
    "Districtname": "Jammu",
    "statename": "JAMMU & KASHMIR"
  },
  {
    "pincode": "181203",
    "officename": "Nikkian B.O",
    "officeType": "B.O",
    "Deliverystatus": "Delivery",
    "divisionname": "Jammu",
    "regionname": "Srinagar HQ",
    "circlename": "Jammukashmir",
    "Taluk": "Jammu",
    "Districtname": "Jammu",
    "statename": "JAMMU & KASHMIR"
  },
  {
    "pincode": "181203",
    "officename": "Sainth B.O",
    "officeType": "B.O",
    "Deliverystatus": "Delivery",
    "divisionname": "Jammu",
    "regionname": "Srinagar HQ",
    "circlename": "Jammukashmir",
    "Taluk": "Jammu",
    "Districtname": "Jammu",
    "statename": "JAMMU & KASHMIR"
  }
]
