[
  {
    "pincode": "182124",
    "officename": "Barmeen B.O",
    "officeType": "B.O",
    "Deliverystatus": "Delivery",
    "divisionname": "Udhampur",
    "regionname": "Srinagar HQ",
    "circlename": "Jammukashmir",
    "Taluk": "Udhampur",
    "Districtname": "Udhampur",
    "statename": "JAMMU & KASHMIR"
  },
  {
    "pincode": "182124",
    "officename": "Chanunta B.O",
    "officeType": "B.O",
    "Deliverystatus": "Delivery",
    "divisionname": "Udhampur",
    "regionname": "Srinagar HQ",
    "circlename": "Jammukashmir",
    "Taluk": "Udhampur",
    "Districtname": "Udhampur",
    "statename": "JAMMU & KASHMIR"
  },
  {
    "pincode": "182124",
    "officename": "Dhandal B.O",
    "officeType": "B.O",
    "Deliverystatus": "Delivery",
    "divisionname": "Udhampur",
    "regionname": "Srinagar HQ",
    "circlename": "Jammukashmir",
    "Taluk": "Doda",
    "Districtname": "Doda",
    "statename": "JAMMU & KASHMIR"
  },
  {
    "pincode": "182124",
    "officename": "Hartrian B.O",
    "officeType": "B.O",
    "Deliverystatus": "Delivery",
    "divisionname": "Udhampur",
    "regionname": "Srinagar HQ",
    "circlename": "Jammukashmir",
    "Taluk": "Udhampur",
    "Districtname": "Udhampur",
    "statename": "JAMMU & KASHMIR"
  },
  {
    "pincode": "182124",
    "officename": "Jaganoo S.O",
    "officeType": "S.O",
    "Deliverystatus": "Delivery",
    "divisionname": "Udhampur",
    "regionname": "Srinagar HQ",
    "circlename": "Jammukashmir",
    "Taluk": "Udhampur",
    "Districtname": "Udhampur",
    "statename": "JAMMU & KASHMIR"
  },
  {
    "pincode": "182124",
    "officename": "Johnu B.O",
    "officeType": "B.O",
    "Deliverystatus": "Delivery",
    "divisionname": "Udhampur",
    "regionname": "Srinagar HQ",
    "circlename": "Jammukashmir",
    "Taluk": "Udhampur",
    "Districtname": "Udhampur",
    "statename": "JAMMU & KASHMIR"
  },
  {
    "pincode": "182124",
    "officename": "Kaldi B.O",
    "officeType": "B.O",
    "Deliverystatus": "Delivery",
    "divisionname": "Udhampur",
    "regionname": "Srinagar HQ",
    "circlename": "Jammukashmir",
    "Taluk": "Udhampur",
    "Districtname": "Udhampur",
    "statename": "JAMMU & KASHMIR"
  },
  {
    "pincode": "182124",
    "officename": "Sermanjla B.O",
    "officeType": "B.O",
    "Deliverystatus": "Delivery",
    "divisionname": "Udhampur",
    "regionname": "Srinagar HQ",
    "circlename": "Jammukashmir",
    "Taluk": "Udhampur",
    "Districtname": "Udhampur",
    "statename": "JAMMU & KASHMIR"
  }
]
