[
  {
    "pincode": "182143",
    "officename": "Assar B.O",
    "officeType": "B.O",
    "Deliverystatus": "Delivery",
    "divisionname": "Udhampur",
    "regionname": "Srinagar HQ",
    "circlename": "Jammukashmir",
    "Taluk": "Ramban",
    "Districtname": "Doda",
    "statename": "JAMMU & KASHMIR"
  },
  {
    "pincode": "182143",
    "officename": "Baggar B.O",
    "officeType": "B.O",
    "Deliverystatus": "Delivery",
    "divisionname": "Udhampur",
    "regionname": "Srinagar HQ",
    "circlename": "Jammukashmir",
    "Taluk": "Doda",
    "Districtname": "Doda",
    "statename": "JAMMU & KASHMIR"
  },
  {
    "pincode": "182143",
    "officename": "Batote S.O",
    "officeType": "S.O",
    "Deliverystatus": "Delivery",
    "divisionname": "Udhampur",
    "regionname": "Srinagar HQ",
    "circlename": "Jammukashmir",
    "Taluk": "Ramban",
    "Districtname": "Doda",
    "statename": "JAMMU & KASHMIR"
  },
  {
    "pincode": "182143",
    "officename": "Ranka B.O",
    "officeType": "B.O",
    "Deliverystatus": "Delivery",
    "divisionname": "Udhampur",
    "regionname": "Srinagar HQ",
    "circlename": "Jammukashmir",
    "Taluk": "Ramban",
    "Districtname": "Doda",
    "statename": "JAMMU & KASHMIR"
  },
  {
    "pincode": "182143",
    "officename": "Samthi B.O",
    "officeType": "B.O",
    "Deliverystatus": "Delivery",
    "divisionname": "Udhampur",
    "regionname": "Srinagar HQ",
    "circlename": "Jammukashmir",
    "Taluk": "Ramban",
    "Districtname": "Doda",
    "statename": "JAMMU & KASHMIR"
  },
  {
    "pincode": "182143",
    "officename": "Sanasar B.O",
    "officeType": "B.O",
    "Deliverystatus": "Delivery",
    "divisionname": "Udhampur",
    "regionname": "Srinagar HQ",
    "circlename": "Jammukashmir",
    "Taluk": "Ramban",
    "Districtname": "Doda",
    "statename": "JAMMU & KASHMIR"
  },
  {
    "pincode": "182143",
    "officename": "Thopal B.O",
    "officeType": "B.O",
    "Deliverystatus": "Delivery",
    "divisionname": "Udhampur",
    "regionname": "Srinagar HQ",
    "circlename": "Jammukashmir",
    "Taluk": "Ramban",
    "Districtname": "Doda",
    "statename": "JAMMU & KASHMIR"
  },
  {
    "pincode": "182143",
    "officename": "Tringla B.O",
    "officeType": "B.O",
    "Deliverystatus": "Delivery",
    "divisionname": "Udhampur",
    "regionname": "Srinagar HQ",
    "circlename": "Jammukashmir",
    "Taluk": "Ramban",
    "Districtname": "Doda",
    "statename": "JAMMU & KASHMIR"
  },
  {
    "pincode": "182143",
    "officename": "Trungal B.O",
    "officeType": "B.O",
    "Deliverystatus": "Delivery",
    "divisionname": "Udhampur",
    "regionname": "Srinagar HQ",
    "circlename": "Jammukashmir",
    "Taluk": "Doda",
    "Districtname": "Doda",
    "statename": "JAMMU & KASHMIR"
  }
]
