[
  {
    "pincode": "182101",
    "officename": "Bali B.O",
    "officeType": "B.O",
    "Deliverystatus": "Delivery",
    "divisionname": "Udhampur",
    "regionname": "Srinagar HQ",
    "circlename": "Jammukashmir",
    "Taluk": "Udhampur",
    "Districtname": "Udhampur",
    "statename": "JAMMU & KASHMIR"
  },
  {
    "pincode": "182101",
    "officename": "Chak Rakhwalan B.O",
    "officeType": "B.O",
    "Deliverystatus": "Delivery",
    "divisionname": "Udhampur",
    "regionname": "Srinagar HQ",
    "circlename": "Jammukashmir",
    "Taluk": "Udhampur",
    "Districtname": "Udhampur",
    "statename": "JAMMU & KASHMIR"
  },
  {
    "pincode": "182101",
    "officename": "Gandala B.O",
    "officeType": "B.O",
    "Deliverystatus": "Delivery",
    "divisionname": "Udhampur",
    "regionname": "Srinagar HQ",
    "circlename": "Jammukashmir",
    "Taluk": "Udhampur",
    "Districtname": "Udhampur",
    "statename": "JAMMU & KASHMIR"
  },
  {
    "pincode": "182101",
    "officename": "Jakhani B.O",
    "officeType": "B.O",
    "Deliverystatus": "Delivery",
    "divisionname": "Udhampur",
    "regionname": "Srinagar HQ",
    "circlename": "Jammukashmir",
    "Taluk": "Udhampur",
    "Districtname": "Udhampur",
    "statename": "JAMMU & KASHMIR"
  },
  {
    "pincode": "182101",
    "officename": "Kawa B.O",
    "officeType": "B.O",
    "Deliverystatus": "Delivery",
    "divisionname": "Udhampur",
    "regionname": "Srinagar HQ",
    "circlename": "Jammukashmir",
    "Taluk": "",
    "Districtname": "Udhampur",
    "statename": "JAMMU & KASHMIR"
  },
  {
    "pincode": "182101",
    "officename": "Krimchi B.O",
    "officeType": "B.O",
    "Deliverystatus": "Delivery",
    "divisionname": "Udhampur",
    "regionname": "Srinagar HQ",
    "circlename": "Jammukashmir",
    "Taluk": "Udhampur",
    "Districtname": "Udhampur",
    "statename": "JAMMU & KASHMIR"
  },
  {
    "pincode": "182101",
    "officename": "Mj Road Nd S.O",
    "officeType": "S.O",
    "Deliverystatus": "Non-Delivery",
    "divisionname": "Udhampur",
    "regionname": "Srinagar HQ",
    "circlename": "Jammukashmir",
    "Taluk": "Udhampur",
    "Districtname": "Udhampur",
    "statename": "JAMMU & KASHMIR"
  },
  {
    "pincode": "182101",
    "officename": "Omara Morh S.O",
    "officeType": "S.O",
    "Deliverystatus": "Non-Delivery",
    "divisionname": "Udhampur",
    "regionname": "Srinagar HQ",
    "circlename": "Jammukashmir",
    "Taluk": "Udhampur",
    "Districtname": "Udhampur",
    "statename": "JAMMU & KASHMIR"
  },
  {
    "pincode": "182101",
    "officename": "PTS Udhampur B.O",
    "officeType": "B.O",
    "Deliverystatus": "Delivery",
    "divisionname": "Udhampur",
    "regionname": "Srinagar HQ",
    "circlename": "Jammukashmir",
    "Taluk": "Udhampur",
    "Districtname": "Udhampur",
    "statename": "JAMMU & KASHMIR"
  },
  {
    "pincode": "182101",
    "officename": "Rathian B.O",
    "officeType": "B.O",
    "Deliverystatus": "Delivery",
    "divisionname": "Udhampur",
    "regionname": "Srinagar HQ",
    "circlename": "Jammukashmir",
    "Taluk": "Udhampur",
    "Districtname": "Udhampur",
    "statename": "JAMMU & KASHMIR"
  },
  {
    "pincode": "182101",
    "officename": "Salmeri B.O",
    "officeType": "B.O",
    "Deliverystatus": "Delivery",
    "divisionname": "Udhampur",
    "regionname": "Srinagar HQ",
    "circlename": "Jammukashmir",
    "Taluk": "Udhampur",
    "Districtname": "Udhampur",
    "statename": "JAMMU & KASHMIR"
  },
  {
    "pincode": "182101",
    "officename": "Shaktinagar S.O (Udhampur)",
    "officeType": "S.O",
    "Deliverystatus": "Non-Delivery",
    "divisionname": "Udhampur",
    "regionname": "Srinagar HQ",
    "circlename": "Jammukashmir",
    "Taluk": "Udhampur",
    "Districtname": "Udhampur",
    "statename": "JAMMU & KASHMIR"
  },
  {
    "pincode": "182101",
    "officename": "Udhampur District Court S.O",
    "officeType": "S.O",
    "Deliverystatus": "Non-Delivery",
    "divisionname": "Udhampur",
    "regionname": "Srinagar HQ",
    "circlename": "Jammukashmir",
    "Taluk": "Udhampur",
    "Districtname": "Udhampur",
    "statename": "JAMMU & KASHMIR"
  },
  {
    "pincode": "182101",
    "officename": "Udhampur H.O",
    "officeType": "H.O",
    "Deliverystatus": "Delivery",
    "divisionname": "Udhampur",
    "regionname": "Srinagar HQ",
    "circlename": "Jammukashmir",
    "Taluk": "Udhampur",
    "Districtname": "Udhampur",
    "statename": "JAMMU & KASHMIR"
  }
]
