[
  {
    "pincode": "182122",
    "officename": "Amroh B.O",
    "officeType": "B.O",
    "Deliverystatus": "Delivery",
    "divisionname": "Udhampur",
    "regionname": "Srinagar HQ",
    "circlename": "Jammukashmir",
    "Taluk": "Ramnagar",
    "Districtname": "Udhampur",
    "statename": "JAMMU & KASHMIR"
  },
  {
    "pincode": "182122",
    "officename": "Badhole B.O",
    "officeType": "B.O",
    "Deliverystatus": "Delivery",
    "divisionname": "Udhampur",
    "regionname": "Srinagar HQ",
    "circlename": "Jammukashmir",
    "Taluk": "Ramnagar",
    "Districtname": "Udhampur",
    "statename": "JAMMU & KASHMIR"
  },
  {
    "pincode": "182122",
    "officename": "Bandhole B.O",
    "officeType": "B.O",
    "Deliverystatus": "Delivery",
    "divisionname": "Udhampur",
    "regionname": "Srinagar HQ",
    "circlename": "Jammukashmir",
    "Taluk": "Ramnagar",
    "Districtname": "Udhampur",
    "statename": "JAMMU & KASHMIR"
  },
  {
    "pincode": "182122",
    "officename": "Bari B.O",
    "officeType": "B.O",
    "Deliverystatus": "Delivery",
    "divisionname": "Udhampur",
    "regionname": "Srinagar HQ",
    "circlename": "Jammukashmir",
    "Taluk": "Ramnagar",
    "Districtname": "Udhampur",
    "statename": "JAMMU & KASHMIR"
  },
  {
    "pincode": "182122",
    "officename": "Bland B.O",
    "officeType": "B.O",
    "Deliverystatus": "Delivery",
    "divisionname": "Udhampur",
    "regionname": "Srinagar HQ",
    "circlename": "Jammukashmir",
    "Taluk": "Ramnagar",
    "Districtname": "Udhampur",
    "statename": "JAMMU & KASHMIR"
  },
  {
    "pincode": "182122",
    "officename": "Chowki Jandrorh B.O",
    "officeType": "B.O",
    "Deliverystatus": "Delivery",
    "divisionname": "Udhampur",
    "regionname": "Srinagar HQ",
    "circlename": "Jammukashmir",
    "Taluk": "Ramnagar",
    "Districtname": "Udhampur",
    "statename": "JAMMU & KASHMIR"
  },
  {
    "pincode": "182122",
    "officename": "Dalsar B.O",
    "officeType": "B.O",
    "Deliverystatus": "Delivery",
    "divisionname": "Udhampur",
    "regionname": "Srinagar HQ",
    "circlename": "Jammukashmir",
    "Taluk": "Ramnagar",
    "Districtname": "Udhampur",
    "statename": "JAMMU & KASHMIR"
  },
  {
    "pincode": "182122",
    "officename": "Dhanwalt B.O",
    "officeType": "B.O",
    "Deliverystatus": "Delivery",
    "divisionname": "Udhampur",
    "regionname": "Srinagar HQ",
    "circlename": "Jammukashmir",
    "Taluk": "Ramnagar",
    "Districtname": "Udhampur",
    "statename": "JAMMU & KASHMIR"
  },
  {
    "pincode": "182122",
    "officename": "Dhiari B.O",
    "officeType": "B.O",
    "Deliverystatus": "Delivery",
    "divisionname": "Udhampur",
    "regionname": "Srinagar HQ",
    "circlename": "Jammukashmir",
    "Taluk": "Ramnagar",
    "Districtname": "Udhampur",
    "statename": "JAMMU & KASHMIR"
  },
  {
    "pincode": "182122",
    "officename": "Ghorari B.O",
    "officeType": "B.O",
    "Deliverystatus": "Delivery",
    "divisionname": "Udhampur",
    "regionname": "Srinagar HQ",
    "circlename": "Jammukashmir",
    "Taluk": "Ramnagar",
    "Districtname": "Udhampur",
    "statename": "JAMMU & KASHMIR"
  },
  {
    "pincode": "182122",
    "officename": "Jandrari B.O",
    "officeType": "B.O",
    "Deliverystatus": "Delivery",
    "divisionname": "Udhampur",
    "regionname": "Srinagar HQ",
    "circlename": "Jammukashmir",
    "Taluk": "Ramnagar",
    "Districtname": "Udhampur",
    "statename": "JAMMU & KASHMIR"
  },
  {
    "pincode": "182122",
    "officename": "Kotwalt B.O",
    "officeType": "B.O",
    "Deliverystatus": "Delivery",
    "divisionname": "Udhampur",
    "regionname": "Srinagar HQ",
    "circlename": "Jammukashmir",
    "Taluk": "Ramnagar",
    "Districtname": "Udhampur",
    "statename": "JAMMU & KASHMIR"
  },
  {
    "pincode": "182122",
    "officename": "Marta B.O",
    "officeType": "B.O",
    "Deliverystatus": "Delivery",
    "divisionname": "Udhampur",
    "regionname": "Srinagar HQ",
    "circlename": "Jammukashmir",
    "Taluk": "Ramnagar",
    "Districtname": "Udhampur",
    "statename": "JAMMU & KASHMIR"
  },
  {
    "pincode": "182122",
    "officename": "Nagrota Panj Garain B.O",
    "officeType": "B.O",
    "Deliverystatus": "Delivery",
    "divisionname": "Udhampur",
    "regionname": "Srinagar HQ",
    "circlename": "Jammukashmir",
    "Taluk": "Ramnagar",
    "Districtname": "Udhampur",
    "statename": "JAMMU & KASHMIR"
  },
  {
    "pincode": "182122",
    "officename": "Nala Ghoria B.O",
    "officeType": "B.O",
    "Deliverystatus": "Delivery",
    "divisionname": "Udhampur",
    "regionname": "Srinagar HQ",
    "circlename": "Jammukashmir",
    "Taluk": "Ramnagar",
    "Districtname": "Udhampur",
    "statename": "JAMMU & KASHMIR"
  },
  {
    "pincode": "182122",
    "officename": "Pattangarh B.O",
    "officeType": "B.O",
    "Deliverystatus": "Delivery",
    "divisionname": "Udhampur",
    "regionname": "Srinagar HQ",
    "circlename": "Jammukashmir",
    "Taluk": "Chenani",
    "Districtname": "Udhampur",
    "statename": "JAMMU & KASHMIR"
  },
  {
    "pincode": "182122",
    "officename": "Ramnagar S.O (Udhampur)",
    "officeType": "S.O",
    "Deliverystatus": "Delivery",
    "divisionname": "Udhampur",
    "regionname": "Srinagar HQ",
    "circlename": "Jammukashmir",
    "Taluk": "Ramnagar",
    "Districtname": "Udhampur",
    "statename": "JAMMU & KASHMIR"
  },
  {
    "pincode": "182122",
    "officename": "Rang B.O",
    "officeType": "B.O",
    "Deliverystatus": "Delivery",
    "divisionname": "Udhampur",
    "regionname": "Srinagar HQ",
    "circlename": "Jammukashmir",
    "Taluk": "Ramnagar",
    "Districtname": "Udhampur",
    "statename": "JAMMU & KASHMIR"
  },
  {
    "pincode": "182122",
    "officename": "Sattian B.O",
    "officeType": "B.O",
    "Deliverystatus": "Delivery",
    "divisionname": "Udhampur",
    "regionname": "Srinagar HQ",
    "circlename": "Jammukashmir",
    "Taluk": "Ramnagar",
    "Districtname": "Udhampur",
    "statename": "JAMMU & KASHMIR"
  },
  {
    "pincode": "182122",
    "officename": "Sonetar B.O",
    "officeType": "B.O",
    "Deliverystatus": "Delivery",
    "divisionname": "Udhampur",
    "regionname": "Srinagar HQ",
    "circlename": "Jammukashmir",
    "Taluk": "Ramnagar",
    "Districtname": "Udhampur",
    "statename": "JAMMU & KASHMIR"
  }
]
