[
  {
    "pincode": "182205",
    "officename": "Aftee B.O",
    "officeType": "B.O",
    "Deliverystatus": "Delivery",
    "divisionname": "Udhampur",
    "regionname": "Srinagar HQ",
    "circlename": "Jammukashmir",
    "Taluk": "Kishtwar",
    "Districtname": "Doda",
    "statename": "JAMMU & KASHMIR"
  },
  {
    "pincode": "182205",
    "officename": "Chhatroo B.O",
    "officeType": "B.O",
    "Deliverystatus": "Delivery",
    "divisionname": "Udhampur",
    "regionname": "Srinagar HQ",
    "circlename": "Jammukashmir",
    "Taluk": "Kishtwar",
    "Districtname": "Doda",
    "statename": "JAMMU & KASHMIR"
  },
  {
    "pincode": "182205",
    "officename": "Chingam B.O",
    "officeType": "B.O",
    "Deliverystatus": "Delivery",
    "divisionname": "Udhampur",
    "regionname": "Srinagar HQ",
    "circlename": "Jammukashmir",
    "Taluk": "Kishtwar",
    "Districtname": "Doda",
    "statename": "JAMMU & KASHMIR"
  },
  {
    "pincode": "182205",
    "officename": "Dachhan B.O",
    "officeType": "B.O",
    "Deliverystatus": "Delivery",
    "divisionname": "Udhampur",
    "regionname": "Srinagar HQ",
    "circlename": "Jammukashmir",
    "Taluk": "Kishtwar",
    "Districtname": "Doda",
    "statename": "JAMMU & KASHMIR"
  },
  {
    "pincode": "182205",
    "officename": "Inderwal B.O",
    "officeType": "B.O",
    "Deliverystatus": "Delivery",
    "divisionname": "Udhampur",
    "regionname": "Srinagar HQ",
    "circlename": "Jammukashmir",
    "Taluk": "Kishtwar",
    "Districtname": "Doda",
    "statename": "JAMMU & KASHMIR"
  },
  {
    "pincode": "182205",
    "officename": "Mugal Maidan B.O",
    "officeType": "B.O",
    "Deliverystatus": "Delivery",
    "divisionname": "Udhampur",
    "regionname": "Srinagar HQ",
    "circlename": "Jammukashmir",
    "Taluk": "Kishtwar",
    "Districtname": "Doda",
    "statename": "JAMMU & KASHMIR"
  },
  {
    "pincode": "182205",
    "officename": "Nowpachi B.O",
    "officeType": "B.O",
    "Deliverystatus": "Delivery",
    "divisionname": "Udhampur",
    "regionname": "Srinagar HQ",
    "circlename": "Jammukashmir",
    "Taluk": "Kishtwar",
    "Districtname": "Doda",
    "statename": "JAMMU & KASHMIR"
  },
  {
    "pincode": "182205",
    "officename": "Palmar S.O",
    "officeType": "S.O",
    "Deliverystatus": "Delivery",
    "divisionname": "Udhampur",
    "regionname": "Srinagar HQ",
    "circlename": "Jammukashmir",
    "Taluk": "Kishtwar",
    "Districtname": "Doda",
    "statename": "JAMMU & KASHMIR"
  },
  {
    "pincode": "182205",
    "officename": "Sidgi B.O",
    "officeType": "B.O",
    "Deliverystatus": "Delivery",
    "divisionname": "Udhampur",
    "regionname": "Srinagar HQ",
    "circlename": "Jammukashmir",
    "Taluk": "Kishtwar",
    "Districtname": "Doda",
    "statename": "JAMMU & KASHMIR"
  },
  {
    "pincode": "182205",
    "officename": "Tagood B.O",
    "officeType": "B.O",
    "Deliverystatus": "Delivery",
    "divisionname": "Udhampur",
    "regionname": "Srinagar HQ",
    "circlename": "Jammukashmir",
    "Taluk": "Kishtwar",
    "Districtname": "Doda",
    "statename": "JAMMU & KASHMIR"
  },
  {
    "pincode": "182205",
    "officename": "Thakrai B.O",
    "officeType": "B.O",
    "Deliverystatus": "Delivery",
    "divisionname": "Udhampur",
    "regionname": "Srinagar HQ",
    "circlename": "Jammukashmir",
    "Taluk": "Kishtwar",
    "Districtname": "Doda",
    "statename": "JAMMU & KASHMIR"
  }
]
