[
  {
    "pincode": "182202",
    "officename": "Bajarni B.O",
    "officeType": "B.O",
    "Deliverystatus": "Delivery",
    "divisionname": "Udhampur",
    "regionname": "Srinagar HQ",
    "circlename": "Jammukashmir",
    "Taluk": "Doda",
    "Districtname": "Doda",
    "statename": "JAMMU & KASHMIR"
  },
  {
    "pincode": "182202",
    "officename": "Beoli B.O",
    "officeType": "B.O",
    "Deliverystatus": "Delivery",
    "divisionname": "Udhampur",
    "regionname": "Srinagar HQ",
    "circlename": "Jammukashmir",
    "Taluk": "Doda",
    "Districtname": "Doda",
    "statename": "JAMMU & KASHMIR"
  },
  {
    "pincode": "182202",
    "officename": "Bhagwa B.O",
    "officeType": "B.O",
    "Deliverystatus": "Delivery",
    "divisionname": "Udhampur",
    "regionname": "Srinagar HQ",
    "circlename": "Jammukashmir",
    "Taluk": "Doda",
    "Districtname": "Doda",
    "statename": "JAMMU & KASHMIR"
  },
  {
    "pincode": "182202",
    "officename": "Dachhan B.O",
    "officeType": "B.O",
    "Deliverystatus": "Delivery",
    "divisionname": "Udhampur",
    "regionname": "Srinagar HQ",
    "circlename": "Jammukashmir",
    "Taluk": "Doda",
    "Districtname": "Doda",
    "statename": "JAMMU & KASHMIR"
  },
  {
    "pincode": "182202",
    "officename": "Dessa B.O",
    "officeType": "B.O",
    "Deliverystatus": "Delivery",
    "divisionname": "Udhampur",
    "regionname": "Srinagar HQ",
    "circlename": "Jammukashmir",
    "Taluk": "Doda",
    "Districtname": "Doda",
    "statename": "JAMMU & KASHMIR"
  },
  {
    "pincode": "182202",
    "officename": "Doda S.O (Doda)",
    "officeType": "S.O",
    "Deliverystatus": "Delivery",
    "divisionname": "Udhampur",
    "regionname": "Srinagar HQ",
    "circlename": "Jammukashmir",
    "Taluk": "Doda",
    "Districtname": "Doda",
    "statename": "JAMMU & KASHMIR"
  },
  {
    "pincode": "182202",
    "officename": "Ghat B.O",
    "officeType": "B.O",
    "Deliverystatus": "Delivery",
    "divisionname": "Udhampur",
    "regionname": "Srinagar HQ",
    "circlename": "Jammukashmir",
    "Taluk": "Doda",
    "Districtname": "Doda",
    "statename": "JAMMU & KASHMIR"
  },
  {
    "pincode": "182202",
    "officename": "Gundna B.O",
    "officeType": "B.O",
    "Deliverystatus": "Delivery",
    "divisionname": "Udhampur",
    "regionname": "Srinagar HQ",
    "circlename": "Jammukashmir",
    "Taluk": "Doda",
    "Districtname": "Doda",
    "statename": "JAMMU & KASHMIR"
  },
  {
    "pincode": "182202",
    "officename": "Jodhpur B.O",
    "officeType": "B.O",
    "Deliverystatus": "Delivery",
    "divisionname": "Udhampur",
    "regionname": "Srinagar HQ",
    "circlename": "Jammukashmir",
    "Taluk": "Doda",
    "Districtname": "Doda",
    "statename": "JAMMU & KASHMIR"
  },
  {
    "pincode": "182202",
    "officename": "Udyanpur B.O",
    "officeType": "B.O",
    "Deliverystatus": "Delivery",
    "divisionname": "Udhampur",
    "regionname": "Srinagar HQ",
    "circlename": "Jammukashmir",
    "Taluk": "Doda",
    "Districtname": "Doda",
    "statename": "JAMMU & KASHMIR"
  }
]
