[
  {
    "pincode": "182203",
    "officename": "Banoon B.O",
    "officeType": "B.O",
    "Deliverystatus": "Delivery",
    "divisionname": "Udhampur",
    "regionname": "Srinagar HQ",
    "circlename": "Jammukashmir",
    "Taluk": "Thathri",
    "Districtname": "Doda",
    "statename": "JAMMU & KASHMIR"
  },
  {
    "pincode": "182203",
    "officename": "Chilli B.O",
    "officeType": "B.O",
    "Deliverystatus": "Delivery",
    "divisionname": "Udhampur",
    "regionname": "Srinagar HQ",
    "circlename": "Jammukashmir",
    "Taluk": "Bhalessa (Gandoh)",
    "Districtname": "Doda",
    "statename": "JAMMU & KASHMIR"
  },
  {
    "pincode": "182203",
    "officename": "Chouri B.O",
    "officeType": "B.O",
    "Deliverystatus": "Delivery",
    "divisionname": "Udhampur",
    "regionname": "Srinagar HQ",
    "circlename": "Jammukashmir",
    "Taluk": "Bhalessa (Gandoh)",
    "Districtname": "Doda",
    "statename": "JAMMU & KASHMIR"
  },
  {
    "pincode": "182203",
    "officename": "Dhesa B.O",
    "officeType": "B.O",
    "Deliverystatus": "Delivery",
    "divisionname": "Udhampur",
    "regionname": "Srinagar HQ",
    "circlename": "Jammukashmir",
    "Taluk": "Bhalessa (Gandoh)",
    "Districtname": "Doda",
    "statename": "JAMMU & KASHMIR"
  },
  {
    "pincode": "182203",
    "officename": "Gandoh B.O",
    "officeType": "B.O",
    "Deliverystatus": "Delivery",
    "divisionname": "Udhampur",
    "regionname": "Srinagar HQ",
    "circlename": "Jammukashmir",
    "Taluk": "Bhalessa (Gandoh)",
    "Districtname": "Doda",
    "statename": "JAMMU & KASHMIR"
  },
  {
    "pincode": "182203",
    "officename": "Inharrah B.O",
    "officeType": "B.O",
    "Deliverystatus": "Delivery",
    "divisionname": "Udhampur",
    "regionname": "Srinagar HQ",
    "circlename": "Jammukashmir",
    "Taluk": "Bhalessa (Gandoh)",
    "Districtname": "Doda",
    "statename": "JAMMU & KASHMIR"
  },
  {
    "pincode": "182203",
    "officename": "Jakyas B.O",
    "officeType": "B.O",
    "Deliverystatus": "Delivery",
    "divisionname": "Udhampur",
    "regionname": "Srinagar HQ",
    "circlename": "Jammukashmir",
    "Taluk": "Bhalessa (Gandoh)",
    "Districtname": "Doda",
    "statename": "JAMMU & KASHMIR"
  },
  {
    "pincode": "182203",
    "officename": "Jora B.O",
    "officeType": "B.O",
    "Deliverystatus": "Delivery",
    "divisionname": "Udhampur",
    "regionname": "Srinagar HQ",
    "circlename": "Jammukashmir",
    "Taluk": "Thathri",
    "Districtname": "Doda",
    "statename": "JAMMU & KASHMIR"
  },
  {
    "pincode": "182203",
    "officename": "Kaljugasar B.O",
    "officeType": "B.O",
    "Deliverystatus": "Delivery",
    "divisionname": "Udhampur",
    "regionname": "Srinagar HQ",
    "circlename": "Jammukashmir",
    "Taluk": "Bhalessa (Gandoh)",
    "Districtname": "Doda",
    "statename": "JAMMU & KASHMIR"
  },
  {
    "pincode": "182203",
    "officename": "Kilhotran B.O",
    "officeType": "B.O",
    "Deliverystatus": "Delivery",
    "divisionname": "Udhampur",
    "regionname": "Srinagar HQ",
    "circlename": "Jammukashmir",
    "Taluk": "Bhalessa (Gandoh)",
    "Districtname": "Doda",
    "statename": "JAMMU & KASHMIR"
  },
  {
    "pincode": "182203",
    "officename": "Malanoo B.O",
    "officeType": "B.O",
    "Deliverystatus": "Delivery",
    "divisionname": "Udhampur",
    "regionname": "Srinagar HQ",
    "circlename": "Jammukashmir",
    "Taluk": "Thathri",
    "Districtname": "Doda",
    "statename": "JAMMU & KASHMIR"
  },
  {
    "pincode": "182203",
    "officename": "Nodinalla B.O",
    "officeType": "B.O",
    "Deliverystatus": "Delivery",
    "divisionname": "Udhampur",
    "regionname": "Srinagar HQ",
    "circlename": "Jammukashmir",
    "Taluk": "Thathri",
    "Districtname": "Doda",
    "statename": "JAMMU & KASHMIR"
  },
  {
    "pincode": "182203",
    "officename": "Thathri S.O",
    "officeType": "S.O",
    "Deliverystatus": "Delivery",
    "divisionname": "Udhampur",
    "regionname": "Srinagar HQ",
    "circlename": "Jammukashmir",
    "Taluk": "Thathri",
    "Districtname": "Doda",
    "statename": "JAMMU & KASHMIR"
  }
]
