[
  {
    "pincode": "182311",
    "officename": "Bagdhar B.O",
    "officeType": "B.O",
    "Deliverystatus": "Delivery",
    "divisionname": "Udhampur",
    "regionname": "Srinagar HQ",
    "circlename": "Jammukashmir",
    "Taluk": "Reasi",
    "Districtname": "Udhampur",
    "statename": "JAMMU & KASHMIR"
  },
  {
    "pincode": "182311",
    "officename": "Bakkal B.O",
    "officeType": "B.O",
    "Deliverystatus": "Delivery",
    "divisionname": "Udhampur",
    "regionname": "Srinagar HQ",
    "circlename": "Jammukashmir",
    "Taluk": "Reasi",
    "Districtname": "Udhampur",
    "statename": "JAMMU & KASHMIR"
  },
  {
    "pincode": "182311",
    "officename": "Bhagga B.O",
    "officeType": "B.O",
    "Deliverystatus": "Delivery",
    "divisionname": "Udhampur",
    "regionname": "Srinagar HQ",
    "circlename": "Jammukashmir",
    "Taluk": "Reasi",
    "Districtname": "Udhampur",
    "statename": "JAMMU & KASHMIR"
  },
  {
    "pincode": "182311",
    "officename": "District office Complex Reasi S.O",
    "officeType": "S.O",
    "Deliverystatus": "Non-Delivery",
    "divisionname": "Udhampur",
    "regionname": "Srinagar HQ",
    "circlename": "Jammukashmir",
    "Taluk": "Reasi",
    "Districtname": "Reasi",
    "statename": "JAMMU & KASHMIR"
  },
  {
    "pincode": "182311",
    "officename": "Khairal B.O",
    "officeType": "B.O",
    "Deliverystatus": "Delivery",
    "divisionname": "Udhampur",
    "regionname": "Srinagar HQ",
    "circlename": "Jammukashmir",
    "Taluk": "Reasi",
    "Districtname": "Udhampur",
    "statename": "JAMMU & KASHMIR"
  },
  {
    "pincode": "182311",
    "officename": "Mari B.O",
    "officeType": "B.O",
    "Deliverystatus": "Delivery",
    "divisionname": "Udhampur",
    "regionname": "Srinagar HQ",
    "circlename": "Jammukashmir",
    "Taluk": "Reasi",
    "Districtname": "Udhampur",
    "statename": "JAMMU & KASHMIR"
  },
  {
    "pincode": "182311",
    "officename": "Reasi S.O",
    "officeType": "S.O",
    "Deliverystatus": "Delivery",
    "divisionname": "Udhampur",
    "regionname": "Srinagar HQ",
    "circlename": "Jammukashmir",
    "Taluk": "Reasi",
    "Districtname": "Udhampur",
    "statename": "JAMMU & KASHMIR"
  },
  {
    "pincode": "182311",
    "officename": "Sila B.O",
    "officeType": "B.O",
    "Deliverystatus": "Delivery",
    "divisionname": "Udhampur",
    "regionname": "Srinagar HQ",
    "circlename": "Jammukashmir",
    "Taluk": "Reasi",
    "Districtname": "Udhampur",
    "statename": "JAMMU & KASHMIR"
  },
  {
    "pincode": "182311",
    "officename": "Sukhalghar B.O",
    "officeType": "B.O",
    "Deliverystatus": "Delivery",
    "divisionname": "Udhampur",
    "regionname": "Srinagar HQ",
    "circlename": "Jammukashmir",
    "Taluk": "Reasi",
    "Districtname": "Udhampur",
    "statename": "JAMMU & KASHMIR"
  },
  {
    "pincode": "182311",
    "officename": "Surjan Dhar B.O",
    "officeType": "B.O",
    "Deliverystatus": "Delivery",
    "divisionname": "Udhampur",
    "regionname": "Srinagar HQ",
    "circlename": "Jammukashmir",
    "Taluk": "Reasi",
    "Districtname": "Udhampur",
    "statename": "JAMMU & KASHMIR"
  },
  {
    "pincode": "182311",
    "officename": "Tote B.O",
    "officeType": "B.O",
    "Deliverystatus": "Delivery",
    "divisionname": "Udhampur",
    "regionname": "Srinagar HQ",
    "circlename": "Jammukashmir",
    "Taluk": "Reasi",
    "Districtname": "Udhampur",
    "statename": "JAMMU & KASHMIR"
  },
  {
    "pincode": "182311",
    "officename": "Vijaypur B.O",
    "officeType": "B.O",
    "Deliverystatus": "Delivery",
    "divisionname": "Udhampur",
    "regionname": "Srinagar HQ",
    "circlename": "Jammukashmir",
    "Taluk": "Reasi",
    "Districtname": "Udhampur",
    "statename": "JAMMU & KASHMIR"
  }
]
