[
  {
    "pincode": "184152",
    "officename": "Basantpur B.O",
    "officeType": "B.O",
    "Deliverystatus": "Non-Delivery",
    "divisionname": "Jammu",
    "regionname": "Srinagar HQ",
    "circlename": "Jammukashmir",
    "Taluk": "Kathua",
    "Districtname": "Kathua",
    "statename": "JAMMU & KASHMIR"
  },
  {
    "pincode": "184152",
    "officename": "Hatli B.O",
    "officeType": "B.O",
    "Deliverystatus": "Non-Delivery",
    "divisionname": "Jammu",
    "regionname": "Srinagar HQ",
    "circlename": "Jammukashmir",
    "Taluk": "Kathua",
    "Districtname": "Kathua",
    "statename": "JAMMU & KASHMIR"
  },
  {
    "pincode": "184152",
    "officename": "Karroh B.O",
    "officeType": "B.O",
    "Deliverystatus": "Non-Delivery",
    "divisionname": "Jammu",
    "regionname": "Srinagar HQ",
    "circlename": "Jammukashmir",
    "Taluk": "Kathua",
    "Districtname": "Kathua",
    "statename": "JAMMU & KASHMIR"
  },
  {
    "pincode": "184152",
    "officename": "Kirian Gandial B.O",
    "officeType": "B.O",
    "Deliverystatus": "Non-Delivery",
    "divisionname": "Jammu",
    "regionname": "Srinagar HQ",
    "circlename": "Jammukashmir",
    "Taluk": "Kathua",
    "Districtname": "Kathua",
    "statename": "JAMMU & KASHMIR"
  },
  {
    "pincode": "184152",
    "officename": "Lakhanpur S.O (Kathua)",
    "officeType": "S.O",
    "Deliverystatus": "Delivery",
    "divisionname": "Jammu",
    "regionname": "Srinagar HQ",
    "circlename": "Jammukashmir",
    "Taluk": "Kathua",
    "Districtname": "Kathua",
    "statename": "JAMMU & KASHMIR"
  },
  {
    "pincode": "184152",
    "officename": "Mah B.O",
    "officeType": "B.O",
    "Deliverystatus": "Non-Delivery",
    "divisionname": "Jammu",
    "regionname": "Srinagar HQ",
    "circlename": "Jammukashmir",
    "Taluk": "Kathua",
    "Districtname": "Kathua",
    "statename": "JAMMU & KASHMIR"
  },
  {
    "pincode": "184152",
    "officename": "Thein B.O",
    "officeType": "B.O",
    "Deliverystatus": "Non-Delivery",
    "divisionname": "Jammu",
    "regionname": "Srinagar HQ",
    "circlename": "Jammukashmir",
    "Taluk": "Kathua",
    "Districtname": "Kathua",
    "statename": "JAMMU & KASHMIR"
  },
  {
    "pincode": "184152",
    "officename": "Tridwan B.O",
    "officeType": "B.O",
    "Deliverystatus": "Non-Delivery",
    "divisionname": "Jammu",
    "regionname": "Srinagar HQ",
    "circlename": "Jammukashmir",
    "Taluk": "Kathua",
    "Districtname": "Kathua",
    "statename": "JAMMU & KASHMIR"
  }
]
