[
  {
    "pincode": "184143",
    "officename": "Barnote B.O",
    "officeType": "B.O",
    "Deliverystatus": "Non-Delivery",
    "divisionname": "Jammu",
    "regionname": "Srinagar HQ",
    "circlename": "Jammukashmir",
    "Taluk": "Kathua",
    "Districtname": "Kathua",
    "statename": "JAMMU & KASHMIR"
  },
  {
    "pincode": "184143",
    "officename": "Barwal S.O",
    "officeType": "S.O",
    "Deliverystatus": "Delivery",
    "divisionname": "Jammu",
    "regionname": "Srinagar HQ",
    "circlename": "Jammukashmir",
    "Taluk": "Kathua",
    "Districtname": "Kathua",
    "statename": "JAMMU & KASHMIR"
  },
  {
    "pincode": "184143",
    "officename": "Beradhani B.O",
    "officeType": "B.O",
    "Deliverystatus": "Non-Delivery",
    "divisionname": "Jammu",
    "regionname": "Srinagar HQ",
    "circlename": "Jammukashmir",
    "Taluk": "Kathua",
    "Districtname": "Kathua",
    "statename": "JAMMU & KASHMIR"
  },
  {
    "pincode": "184143",
    "officename": "Budhi B.O",
    "officeType": "B.O",
    "Deliverystatus": "Non-Delivery",
    "divisionname": "Jammu",
    "regionname": "Srinagar HQ",
    "circlename": "Jammukashmir",
    "Taluk": "Kathua",
    "Districtname": "Kathua",
    "statename": "JAMMU & KASHMIR"
  },
  {
    "pincode": "184143",
    "officename": "Flote B.O",
    "officeType": "B.O",
    "Deliverystatus": "Non-Delivery",
    "divisionname": "Jammu",
    "regionname": "Srinagar HQ",
    "circlename": "Jammukashmir",
    "Taluk": "Kathua",
    "Districtname": "Kathua",
    "statename": "JAMMU & KASHMIR"
  },
  {
    "pincode": "184143",
    "officename": "Ghatti B.O",
    "officeType": "B.O",
    "Deliverystatus": "Non-Delivery",
    "divisionname": "Jammu",
    "regionname": "Srinagar HQ",
    "circlename": "Jammukashmir",
    "Taluk": "Kathua",
    "Districtname": "Kathua",
    "statename": "JAMMU & KASHMIR"
  },
  {
    "pincode": "184143",
    "officename": "Jasrota B.O",
    "officeType": "B.O",
    "Deliverystatus": "Non-Delivery",
    "divisionname": "Jammu",
    "regionname": "Srinagar HQ",
    "circlename": "Jammukashmir",
    "Taluk": "Kathua",
    "Districtname": "Kathua",
    "statename": "JAMMU & KASHMIR"
  },
  {
    "pincode": "184143",
    "officename": "Palli B.O",
    "officeType": "B.O",
    "Deliverystatus": "Non-Delivery",
    "divisionname": "Jammu",
    "regionname": "Srinagar HQ",
    "circlename": "Jammukashmir",
    "Taluk": "Kathua",
    "Districtname": "Kathua",
    "statename": "JAMMU & KASHMIR"
  },
  {
    "pincode": "184143",
    "officename": "Rajbagh B.O",
    "officeType": "B.O",
    "Deliverystatus": "Non-Delivery",
    "divisionname": "Jammu",
    "regionname": "Srinagar HQ",
    "circlename": "Jammukashmir",
    "Taluk": "Kathua",
    "Districtname": "Kathua",
    "statename": "JAMMU & KASHMIR"
  }
]
