[
  {
    "pincode": "184205",
    "officename": "Babey B.O",
    "officeType": "B.O",
    "Deliverystatus": "Non-Delivery",
    "divisionname": "Jammu",
    "regionname": "Srinagar HQ",
    "circlename": "Jammukashmir",
    "Taluk": "Billawar",
    "Districtname": "Kathua",
    "statename": "JAMMU & KASHMIR"
  },
  {
    "pincode": "184205",
    "officename": "Dhamma B.O",
    "officeType": "B.O",
    "Deliverystatus": "Non-Delivery",
    "divisionname": "Jammu",
    "regionname": "Srinagar HQ",
    "circlename": "Jammukashmir",
    "Taluk": "",
    "Districtname": "Udhampur",
    "statename": "JAMMU & KASHMIR"
  },
  {
    "pincode": "184205",
    "officename": "Galak B.O",
    "officeType": "B.O",
    "Deliverystatus": "Non-Delivery",
    "divisionname": "Jammu",
    "regionname": "Srinagar HQ",
    "circlename": "Jammukashmir",
    "Taluk": "Billawar",
    "Districtname": "Kathua",
    "statename": "JAMMU & KASHMIR"
  },
  {
    "pincode": "184205",
    "officename": "Garh Samnabanj B.O",
    "officeType": "B.O",
    "Deliverystatus": "Non-Delivery",
    "divisionname": "Jammu",
    "regionname": "Srinagar HQ",
    "circlename": "Jammukashmir",
    "Taluk": "",
    "Districtname": "Udhampur",
    "statename": "JAMMU & KASHMIR"
  },
  {
    "pincode": "184205",
    "officename": "Lakhri B.O",
    "officeType": "B.O",
    "Deliverystatus": "Non-Delivery",
    "divisionname": "Jammu",
    "regionname": "Srinagar HQ",
    "circlename": "Jammukashmir",
    "Taluk": "Billawar",
    "Districtname": "Kathua",
    "statename": "JAMMU & KASHMIR"
  },
  {
    "pincode": "184205",
    "officename": "Mukwal Chinji B.O",
    "officeType": "B.O",
    "Deliverystatus": "Non-Delivery",
    "divisionname": "Jammu",
    "regionname": "Srinagar HQ",
    "circlename": "Jammukashmir",
    "Taluk": "Billawar",
    "Districtname": "Kathua",
    "statename": "JAMMU & KASHMIR"
  },
  {
    "pincode": "184205",
    "officename": "Nagrota Gujroo B.O",
    "officeType": "B.O",
    "Deliverystatus": "Non-Delivery",
    "divisionname": "Jammu",
    "regionname": "Srinagar HQ",
    "circlename": "Jammukashmir",
    "Taluk": "Billwar",
    "Districtname": "Kathua",
    "statename": "JAMMU & KASHMIR"
  },
  {
    "pincode": "184205",
    "officename": "Ramkot S.O (Kathua)",
    "officeType": "S.O",
    "Deliverystatus": "Delivery",
    "divisionname": "Jammu",
    "regionname": "Srinagar HQ",
    "circlename": "Jammukashmir",
    "Taluk": "Billawar",
    "Districtname": "Kathua",
    "statename": "JAMMU & KASHMIR"
  },
  {
    "pincode": "184205",
    "officename": "Sundla B.O",
    "officeType": "B.O",
    "Deliverystatus": "Non-Delivery",
    "divisionname": "Jammu",
    "regionname": "Srinagar HQ",
    "circlename": "Jammukashmir",
    "Taluk": "Billwar",
    "Districtname": "Kathua",
    "statename": "JAMMU & KASHMIR"
  },
  {
    "pincode": "184205",
    "officename": "Thial B.O",
    "officeType": "B.O",
    "Deliverystatus": "Non-Delivery",
    "divisionname": "Jammu",
    "regionname": "Srinagar HQ",
    "circlename": "Jammukashmir",
    "Taluk": "Billawar",
    "Districtname": "Kathua",
    "statename": "JAMMU & KASHMIR"
  },
  {
    "pincode": "184205",
    "officename": "Uchapind B.O",
    "officeType": "B.O",
    "Deliverystatus": "Non-Delivery",
    "divisionname": "Jammu",
    "regionname": "Srinagar HQ",
    "circlename": "Jammukashmir",
    "Taluk": "Billwar",
    "Districtname": "Kathua",
    "statename": "JAMMU & KASHMIR"
  }
]
