[
  {
    "pincode": "184203",
    "officename": "Barotta B.O",
    "officeType": "B.O",
    "Deliverystatus": "Non-Delivery",
    "divisionname": "Jammu",
    "regionname": "Srinagar HQ",
    "circlename": "Jammukashmir",
    "Taluk": "Billawar",
    "Districtname": "Kathua",
    "statename": "JAMMU & KASHMIR"
  },
  {
    "pincode": "184203",
    "officename": "Bathodi Duggan B.O",
    "officeType": "B.O",
    "Deliverystatus": "Non-Delivery",
    "divisionname": "Jammu",
    "regionname": "Srinagar HQ",
    "circlename": "Jammukashmir",
    "Taluk": "Billawar",
    "Districtname": "Kathua",
    "statename": "JAMMU & KASHMIR"
  },
  {
    "pincode": "184203",
    "officename": "Bhaddu S.O",
    "officeType": "S.O",
    "Deliverystatus": "Delivery",
    "divisionname": "Jammu",
    "regionname": "Srinagar HQ",
    "circlename": "Jammukashmir",
    "Taluk": "Billawar",
    "Districtname": "Kathua",
    "statename": "JAMMU & KASHMIR"
  },
  {
    "pincode": "184203",
    "officename": "Dharalta B.O",
    "officeType": "B.O",
    "Deliverystatus": "Non-Delivery",
    "divisionname": "Jammu",
    "regionname": "Srinagar HQ",
    "circlename": "Jammukashmir",
    "Taluk": "Billawar",
    "Districtname": "Kathua",
    "statename": "JAMMU & KASHMIR"
  },
  {
    "pincode": "184203",
    "officename": "Durang B.O",
    "officeType": "B.O",
    "Deliverystatus": "Non-Delivery",
    "divisionname": "Jammu",
    "regionname": "Srinagar HQ",
    "circlename": "Jammukashmir",
    "Taluk": "Billawar",
    "Districtname": "Kathua",
    "statename": "JAMMU & KASHMIR"
  },
  {
    "pincode": "184203",
    "officename": "Gurah Kalyal B.O",
    "officeType": "B.O",
    "Deliverystatus": "Non-Delivery",
    "divisionname": "Jammu",
    "regionname": "Srinagar HQ",
    "circlename": "Jammukashmir",
    "Taluk": "Billawar",
    "Districtname": "Kathua",
    "statename": "JAMMU & KASHMIR"
  },
  {
    "pincode": "184203",
    "officename": "Kishanpur-II B.O",
    "officeType": "B.O",
    "Deliverystatus": "Non-Delivery",
    "divisionname": "Jammu",
    "regionname": "Srinagar HQ",
    "circlename": "Jammukashmir",
    "Taluk": "Billawar",
    "Districtname": "Kathua",
    "statename": "JAMMU & KASHMIR"
  },
  {
    "pincode": "184203",
    "officename": "Kohag B.O",
    "officeType": "B.O",
    "Deliverystatus": "Non-Delivery",
    "divisionname": "Jammu",
    "regionname": "Srinagar HQ",
    "circlename": "Jammukashmir",
    "Taluk": "Billawar",
    "Districtname": "Kathua",
    "statename": "JAMMU & KASHMIR"
  },
  {
    "pincode": "184203",
    "officename": "Lahari B.O",
    "officeType": "B.O",
    "Deliverystatus": "Non-Delivery",
    "divisionname": "Jammu",
    "regionname": "Srinagar HQ",
    "circlename": "Jammukashmir",
    "Taluk": "Billawar",
    "Districtname": "Kathua",
    "statename": "JAMMU & KASHMIR"
  },
  {
    "pincode": "184203",
    "officename": "Mandli B.O",
    "officeType": "B.O",
    "Deliverystatus": "Non-Delivery",
    "divisionname": "Jammu",
    "regionname": "Srinagar HQ",
    "circlename": "Jammukashmir",
    "Taluk": "Billawar",
    "Districtname": "Kathua",
    "statename": "JAMMU & KASHMIR"
  },
  {
    "pincode": "184203",
    "officename": "Parnala B.O",
    "officeType": "B.O",
    "Deliverystatus": "Non-Delivery",
    "divisionname": "Jammu",
    "regionname": "Srinagar HQ",
    "circlename": "Jammukashmir",
    "Taluk": "Billwar",
    "Districtname": "Kathua",
    "statename": "JAMMU & KASHMIR"
  },
  {
    "pincode": "184203",
    "officename": "Phinter B.O",
    "officeType": "B.O",
    "Deliverystatus": "Non-Delivery",
    "divisionname": "Jammu",
    "regionname": "Srinagar HQ",
    "circlename": "Jammukashmir",
    "Taluk": "Billwar",
    "Districtname": "Kathua",
    "statename": "JAMMU & KASHMIR"
  },
  {
    "pincode": "184203",
    "officename": "Sailna B.O",
    "officeType": "B.O",
    "Deliverystatus": "Non-Delivery",
    "divisionname": "Jammu",
    "regionname": "Srinagar HQ",
    "circlename": "Jammukashmir",
    "Taluk": "Billawar",
    "Districtname": "Kathua",
    "statename": "JAMMU & KASHMIR"
  }
]
