[
  {
    "pincode": "184206",
    "officename": "Bandhar B.O",
    "officeType": "B.O",
    "Deliverystatus": "Non-Delivery",
    "divisionname": "Jammu",
    "regionname": "Srinagar HQ",
    "circlename": "Jammukashmir",
    "Taluk": "Bani",
    "Districtname": "Kathua",
    "statename": "JAMMU & KASHMIR"
  },
  {
    "pincode": "184206",
    "officename": "Bani S.O (Kathua)",
    "officeType": "S.O",
    "Deliverystatus": "Delivery",
    "divisionname": "Jammu",
    "regionname": "Srinagar HQ",
    "circlename": "Jammukashmir",
    "Taluk": "Bani",
    "Districtname": "Kathua",
    "statename": "JAMMU & KASHMIR"
  },
  {
    "pincode": "184206",
    "officename": "Chalog B.O",
    "officeType": "B.O",
    "Deliverystatus": "Non-Delivery",
    "divisionname": "Jammu",
    "regionname": "Srinagar HQ",
    "circlename": "Jammukashmir",
    "Taluk": "Bashohli",
    "Districtname": "Kathua",
    "statename": "JAMMU & KASHMIR"
  },
  {
    "pincode": "184206",
    "officename": "Daggar B.O",
    "officeType": "B.O",
    "Deliverystatus": "Non-Delivery",
    "divisionname": "Jammu",
    "regionname": "Srinagar HQ",
    "circlename": "Jammukashmir",
    "Taluk": "Bashohli",
    "Districtname": "Kathua",
    "statename": "JAMMU & KASHMIR"
  },
  {
    "pincode": "184206",
    "officename": "Duggan B.O",
    "officeType": "B.O",
    "Deliverystatus": "Non-Delivery",
    "divisionname": "Jammu",
    "regionname": "Srinagar HQ",
    "circlename": "Jammukashmir",
    "Taluk": "Bani",
    "Districtname": "Kathua",
    "statename": "JAMMU & KASHMIR"
  },
  {
    "pincode": "184206",
    "officename": "Dulangal B.O",
    "officeType": "B.O",
    "Deliverystatus": "Non-Delivery",
    "divisionname": "Jammu",
    "regionname": "Srinagar HQ",
    "circlename": "Jammukashmir",
    "Taluk": "Bashohli",
    "Districtname": "Kathua",
    "statename": "JAMMU & KASHMIR"
  },
  {
    "pincode": "184206",
    "officename": "Fatehpur B.O",
    "officeType": "B.O",
    "Deliverystatus": "Non-Delivery",
    "divisionname": "Jammu",
    "regionname": "Srinagar HQ",
    "circlename": "Jammukashmir",
    "Taluk": "Bashohli",
    "Districtname": "Kathua",
    "statename": "JAMMU & KASHMIR"
  },
  {
    "pincode": "184206",
    "officename": "Gitti B.O",
    "officeType": "B.O",
    "Deliverystatus": "Non-Delivery",
    "divisionname": "Jammu",
    "regionname": "Srinagar HQ",
    "circlename": "Jammukashmir",
    "Taluk": "Bani",
    "Districtname": "Kathua",
    "statename": "JAMMU & KASHMIR"
  },
  {
    "pincode": "184206",
    "officename": "Kanthal B.O",
    "officeType": "B.O",
    "Deliverystatus": "Non-Delivery",
    "divisionname": "Jammu",
    "regionname": "Srinagar HQ",
    "circlename": "Jammukashmir",
    "Taluk": "Bashohli",
    "Districtname": "Kathua",
    "statename": "JAMMU & KASHMIR"
  },
  {
    "pincode": "184206",
    "officename": "Lowang B.O",
    "officeType": "B.O",
    "Deliverystatus": "Non-Delivery",
    "divisionname": "Jammu",
    "regionname": "Srinagar HQ",
    "circlename": "Jammukashmir",
    "Taluk": "Bashohli",
    "Districtname": "Kathua",
    "statename": "JAMMU & KASHMIR"
  },
  {
    "pincode": "184206",
    "officename": "Roulka B.O",
    "officeType": "B.O",
    "Deliverystatus": "Non-Delivery",
    "divisionname": "Jammu",
    "regionname": "Srinagar HQ",
    "circlename": "Jammukashmir",
    "Taluk": "Bashohli",
    "Districtname": "Kathua",
    "statename": "JAMMU & KASHMIR"
  },
  {
    "pincode": "184206",
    "officename": "Sitti B.O",
    "officeType": "B.O",
    "Deliverystatus": "Non-Delivery",
    "divisionname": "Jammu",
    "regionname": "Srinagar HQ",
    "circlename": "Jammukashmir",
    "Taluk": "Bashohli",
    "Districtname": "Kathua",
    "statename": "JAMMU & KASHMIR"
  }
]
