[
  {
    "pincode": "185101",
    "officename": "Ajote B.O",
    "officeType": "B.O",
    "Deliverystatus": "Delivery",
    "divisionname": "Rajouri",
    "regionname": "Srinagar HQ",
    "circlename": "Jammukashmir",
    "Taluk": "Poonch",
    "Districtname": "Poonch",
    "statename": "JAMMU & KASHMIR"
  },
  {
    "pincode": "185101",
    "officename": "Bandi Chichian B.O",
    "officeType": "B.O",
    "Deliverystatus": "Delivery",
    "divisionname": "Rajouri",
    "regionname": "Srinagar HQ",
    "circlename": "Jammukashmir",
    "Taluk": "Poonch",
    "Districtname": "Poonch",
    "statename": "JAMMU & KASHMIR"
  },
  {
    "pincode": "185101",
    "officename": "Chandak B.O",
    "officeType": "B.O",
    "Deliverystatus": "Delivery",
    "divisionname": "Rajouri",
    "regionname": "Srinagar HQ",
    "circlename": "Jammukashmir",
    "Taluk": "Poonch",
    "Districtname": "Poonch",
    "statename": "JAMMU & KASHMIR"
  },
  {
    "pincode": "185101",
    "officename": "Degwar Maldalyan B.O",
    "officeType": "B.O",
    "Deliverystatus": "Delivery",
    "divisionname": "Rajouri",
    "regionname": "Srinagar HQ",
    "circlename": "Jammukashmir",
    "Taluk": "Poonch",
    "Districtname": "Poonch",
    "statename": "JAMMU & KASHMIR"
  },
  {
    "pincode": "185101",
    "officename": "Dhara Dhullian B.O",
    "officeType": "B.O",
    "Deliverystatus": "Delivery",
    "divisionname": "Rajouri",
    "regionname": "Srinagar HQ",
    "circlename": "Jammukashmir",
    "Taluk": "Poonch",
    "Districtname": "Poonch",
    "statename": "JAMMU & KASHMIR"
  },
  {
    "pincode": "185101",
    "officename": "Jhulas B.O",
    "officeType": "B.O",
    "Deliverystatus": "Delivery",
    "divisionname": "Rajouri",
    "regionname": "Srinagar HQ",
    "circlename": "Jammukashmir",
    "Taluk": "Poonch",
    "Districtname": "Poonch",
    "statename": "JAMMU & KASHMIR"
  },
  {
    "pincode": "185101",
    "officename": "Kalai B.O",
    "officeType": "B.O",
    "Deliverystatus": "Delivery",
    "divisionname": "Rajouri",
    "regionname": "Srinagar HQ",
    "circlename": "Jammukashmir",
    "Taluk": "Poonch",
    "Districtname": "Poonch",
    "statename": "JAMMU & KASHMIR"
  },
  {
    "pincode": "185101",
    "officename": "Khanetar B.O",
    "officeType": "B.O",
    "Deliverystatus": "Delivery",
    "divisionname": "Rajouri",
    "regionname": "Srinagar HQ",
    "circlename": "Jammukashmir",
    "Taluk": "Poonch",
    "Districtname": "Poonch",
    "statename": "JAMMU & KASHMIR"
  },
  {
    "pincode": "185101",
    "officename": "Magnar B.O",
    "officeType": "B.O",
    "Deliverystatus": "Delivery",
    "divisionname": "Rajouri",
    "regionname": "Srinagar HQ",
    "circlename": "Jammukashmir",
    "Taluk": "Poonch",
    "Districtname": "Poonch",
    "statename": "JAMMU & KASHMIR"
  },
  {
    "pincode": "185101",
    "officename": "Nangali Sahib B.O",
    "officeType": "B.O",
    "Deliverystatus": "Delivery",
    "divisionname": "Rajouri",
    "regionname": "Srinagar HQ",
    "circlename": "Jammukashmir",
    "Taluk": "Poonch",
    "Districtname": "Poonch",
    "statename": "JAMMU & KASHMIR"
  },
  {
    "pincode": "185101",
    "officename": "Poonch Fort B.O",
    "officeType": "B.O",
    "Deliverystatus": "Delivery",
    "divisionname": "Rajouri",
    "regionname": "Srinagar HQ",
    "circlename": "Jammukashmir",
    "Taluk": "Poonch",
    "Districtname": "Poonch",
    "statename": "JAMMU & KASHMIR"
  },
  {
    "pincode": "185101",
    "officename": "Poonch S.O",
    "officeType": "S.O",
    "Deliverystatus": "Delivery",
    "divisionname": "Rajouri",
    "regionname": "Srinagar HQ",
    "circlename": "Jammukashmir",
    "Taluk": "Poonch",
    "Districtname": "Poonch",
    "statename": "JAMMU & KASHMIR"
  },
  {
    "pincode": "185101",
    "officename": "Shahpur B.O",
    "officeType": "B.O",
    "Deliverystatus": "Delivery",
    "divisionname": "Rajouri",
    "regionname": "Srinagar HQ",
    "circlename": "Jammukashmir",
    "Taluk": "Poonch",
    "Districtname": "Poonch",
    "statename": "JAMMU & KASHMIR"
  },
  {
    "pincode": "185101",
    "officename": "Shindra B.O",
    "officeType": "B.O",
    "Deliverystatus": "Delivery",
    "divisionname": "Rajouri",
    "regionname": "Srinagar HQ",
    "circlename": "Jammukashmir",
    "Taluk": "Poonch",
    "Districtname": "Poonch",
    "statename": "JAMMU & KASHMIR"
  }
]
