[
  {
    "pincode": "185202",
    "officename": "Dali B.O",
    "officeType": "B.O",
    "Deliverystatus": "Delivery",
    "divisionname": "Rajouri",
    "regionname": "Srinagar HQ",
    "circlename": "Jammukashmir",
    "Taluk": "Rajouri",
    "Districtname": "Rajauri",
    "statename": "JAMMU & KASHMIR"
  },
  {
    "pincode": "185202",
    "officename": "Darkeri B.O",
    "officeType": "B.O",
    "Deliverystatus": "Delivery",
    "divisionname": "Rajouri",
    "regionname": "Srinagar HQ",
    "circlename": "Jammukashmir",
    "Taluk": "Rajouri",
    "Districtname": "Rajauri",
    "statename": "JAMMU & KASHMIR"
  },
  {
    "pincode": "185202",
    "officename": "Jignicoal B.O",
    "officeType": "B.O",
    "Deliverystatus": "Delivery",
    "divisionname": "Rajouri",
    "regionname": "Srinagar HQ",
    "circlename": "Jammukashmir",
    "Taluk": "Rajouri",
    "Districtname": "Rajauri",
    "statename": "JAMMU & KASHMIR"
  },
  {
    "pincode": "185202",
    "officename": "Kalakot S.O",
    "officeType": "S.O",
    "Deliverystatus": "Delivery",
    "divisionname": "Rajouri",
    "regionname": "Srinagar HQ",
    "circlename": "Jammukashmir",
    "Taluk": "Rajouri",
    "Districtname": "Rajauri",
    "statename": "JAMMU & KASHMIR"
  },
  {
    "pincode": "185202",
    "officename": "Metka B.O",
    "officeType": "B.O",
    "Deliverystatus": "Delivery",
    "divisionname": "Rajouri",
    "regionname": "Srinagar HQ",
    "circlename": "Jammukashmir",
    "Taluk": "Rajouri",
    "Districtname": "Rajauri",
    "statename": "JAMMU & KASHMIR"
  },
  {
    "pincode": "185202",
    "officename": "Panjnara B.O",
    "officeType": "B.O",
    "Deliverystatus": "Delivery",
    "divisionname": "Rajouri",
    "regionname": "Srinagar HQ",
    "circlename": "Jammukashmir",
    "Taluk": "Rajouri",
    "Districtname": "Rajauri",
    "statename": "JAMMU & KASHMIR"
  },
  {
    "pincode": "185202",
    "officename": "Potha B.O",
    "officeType": "B.O",
    "Deliverystatus": "Delivery",
    "divisionname": "Rajouri",
    "regionname": "Srinagar HQ",
    "circlename": "Jammukashmir",
    "Taluk": "Rajouri",
    "Districtname": "Rajauri",
    "statename": "JAMMU & KASHMIR"
  },
  {
    "pincode": "185202",
    "officename": "Sair B.O",
    "officeType": "B.O",
    "Deliverystatus": "Delivery",
    "divisionname": "Rajouri",
    "regionname": "Srinagar HQ",
    "circlename": "Jammukashmir",
    "Taluk": "Rajouri",
    "Districtname": "Rajauri",
    "statename": "JAMMU & KASHMIR"
  },
  {
    "pincode": "185202",
    "officename": "Sialsui B.O",
    "officeType": "B.O",
    "Deliverystatus": "Delivery",
    "divisionname": "Rajouri",
    "regionname": "Srinagar HQ",
    "circlename": "Jammukashmir",
    "Taluk": "Rajouri",
    "Districtname": "Rajauri",
    "statename": "JAMMU & KASHMIR"
  },
  {
    "pincode": "185202",
    "officename": "Tatapani B.O",
    "officeType": "B.O",
    "Deliverystatus": "Delivery",
    "divisionname": "Rajouri",
    "regionname": "Srinagar HQ",
    "circlename": "Jammukashmir",
    "Taluk": "Rajouri",
    "Districtname": "Rajauri",
    "statename": "JAMMU & KASHMIR"
  }
]
