[
  {
    "pincode": "185211",
    "officename": "Ari B.O",
    "officeType": "B.O",
    "Deliverystatus": "Delivery",
    "divisionname": "Rajouri",
    "regionname": "Srinagar HQ",
    "circlename": "Jammukashmir",
    "Taluk": "Rajouri",
    "Districtname": "Poonch",
    "statename": "JAMMU & KASHMIR"
  },
  {
    "pincode": "185211",
    "officename": "Chatral B.O",
    "officeType": "B.O",
    "Deliverystatus": "Delivery",
    "divisionname": "Rajouri",
    "regionname": "Srinagar HQ",
    "circlename": "Jammukashmir",
    "Taluk": "Rajouri",
    "Districtname": "Poonch",
    "statename": "JAMMU & KASHMIR"
  },
  {
    "pincode": "185211",
    "officename": "Chhajla B.O",
    "officeType": "B.O",
    "Deliverystatus": "Delivery",
    "divisionname": "Rajouri",
    "regionname": "Srinagar HQ",
    "circlename": "Jammukashmir",
    "Taluk": "Rajouri",
    "Districtname": "Poonch",
    "statename": "JAMMU & KASHMIR"
  },
  {
    "pincode": "185211",
    "officename": "Chuggan B.O",
    "officeType": "B.O",
    "Deliverystatus": "Delivery",
    "divisionname": "Rajouri",
    "regionname": "Srinagar HQ",
    "circlename": "Jammukashmir",
    "Taluk": "Rajouri",
    "Districtname": "Poonch",
    "statename": "JAMMU & KASHMIR"
  },
  {
    "pincode": "185211",
    "officename": "Dharamsal Mendhar S.O",
    "officeType": "S.O",
    "Deliverystatus": "Delivery",
    "divisionname": "Rajouri",
    "regionname": "Srinagar HQ",
    "circlename": "Jammukashmir",
    "Taluk": "Rajouri",
    "Districtname": "Poonch",
    "statename": "JAMMU & KASHMIR"
  },
  {
    "pincode": "185211",
    "officename": "Dharana B.O",
    "officeType": "B.O",
    "Deliverystatus": "Delivery",
    "divisionname": "Rajouri",
    "regionname": "Srinagar HQ",
    "circlename": "Jammukashmir",
    "Taluk": "Rajouri",
    "Districtname": "Poonch",
    "statename": "JAMMU & KASHMIR"
  },
  {
    "pincode": "185211",
    "officename": "Dhargloon B.O",
    "officeType": "B.O",
    "Deliverystatus": "Delivery",
    "divisionname": "Rajouri",
    "regionname": "Srinagar HQ",
    "circlename": "Jammukashmir",
    "Taluk": "Rajouri",
    "Districtname": "Poonch",
    "statename": "JAMMU & KASHMIR"
  },
  {
    "pincode": "185211",
    "officename": "Galhuta B.O",
    "officeType": "B.O",
    "Deliverystatus": "Delivery",
    "divisionname": "Rajouri",
    "regionname": "Srinagar HQ",
    "circlename": "Jammukashmir",
    "Taluk": "Rajouri",
    "Districtname": "Poonch",
    "statename": "JAMMU & KASHMIR"
  },
  {
    "pincode": "185211",
    "officename": "Gursai B.O",
    "officeType": "B.O",
    "Deliverystatus": "Delivery",
    "divisionname": "Rajouri",
    "regionname": "Srinagar HQ",
    "circlename": "Jammukashmir",
    "Taluk": "Rajouri",
    "Districtname": "Poonch",
    "statename": "JAMMU & KASHMIR"
  },
  {
    "pincode": "185211",
    "officename": "Harni B.O",
    "officeType": "B.O",
    "Deliverystatus": "Delivery",
    "divisionname": "Rajouri",
    "regionname": "Srinagar HQ",
    "circlename": "Jammukashmir",
    "Taluk": "Rajouri",
    "Districtname": "Poonch",
    "statename": "JAMMU & KASHMIR"
  },
  {
    "pincode": "185211",
    "officename": "Jugal B.O",
    "officeType": "B.O",
    "Deliverystatus": "Delivery",
    "divisionname": "Rajouri",
    "regionname": "Srinagar HQ",
    "circlename": "Jammukashmir",
    "Taluk": "Rajouri",
    "Districtname": "Poonch",
    "statename": "JAMMU & KASHMIR"
  },
  {
    "pincode": "185211",
    "officename": "Kalaban B.O",
    "officeType": "B.O",
    "Deliverystatus": "Delivery",
    "divisionname": "Rajouri",
    "regionname": "Srinagar HQ",
    "circlename": "Jammukashmir",
    "Taluk": "Rajouri",
    "Districtname": "Poonch",
    "statename": "JAMMU & KASHMIR"
  },
  {
    "pincode": "185211",
    "officename": "Kasbalari B.O",
    "officeType": "B.O",
    "Deliverystatus": "Delivery",
    "divisionname": "Rajouri",
    "regionname": "Srinagar HQ",
    "circlename": "Jammukashmir",
    "Taluk": "Rajouri",
    "Districtname": "Poonch",
    "statename": "JAMMU & KASHMIR"
  },
  {
    "pincode": "185211",
    "officename": "Mankot B.O",
    "officeType": "B.O",
    "Deliverystatus": "Delivery",
    "divisionname": "Rajouri",
    "regionname": "Srinagar HQ",
    "circlename": "Jammukashmir",
    "Taluk": "Rajouri",
    "Districtname": "Poonch",
    "statename": "JAMMU & KASHMIR"
  },
  {
    "pincode": "185211",
    "officename": "Naka Majari B.O",
    "officeType": "B.O",
    "Deliverystatus": "Delivery",
    "divisionname": "Rajouri",
    "regionname": "Srinagar HQ",
    "circlename": "Jammukashmir",
    "Taluk": "Rajouri",
    "Districtname": "Poonch",
    "statename": "JAMMU & KASHMIR"
  },
  {
    "pincode": "185211",
    "officename": "Ochhad B.O",
    "officeType": "B.O",
    "Deliverystatus": "Delivery",
    "divisionname": "Rajouri",
    "regionname": "Srinagar HQ",
    "circlename": "Jammukashmir",
    "Taluk": "Rajouri",
    "Districtname": "Poonch",
    "statename": "JAMMU & KASHMIR"
  },
  {
    "pincode": "185211",
    "officename": "Prat B.O",
    "officeType": "B.O",
    "Deliverystatus": "Delivery",
    "divisionname": "Rajouri",
    "regionname": "Srinagar HQ",
    "circlename": "Jammukashmir",
    "Taluk": "Rajouri",
    "Districtname": "Poonch",
    "statename": "JAMMU & KASHMIR"
  },
  {
    "pincode": "185211",
    "officename": "Sagra B.O",
    "officeType": "B.O",
    "Deliverystatus": "Delivery",
    "divisionname": "Rajouri",
    "regionname": "Srinagar HQ",
    "circlename": "Jammukashmir",
    "Taluk": "Rajouri",
    "Districtname": "Poonch",
    "statename": "JAMMU & KASHMIR"
  },
  {
    "pincode": "185211",
    "officename": "Sakhi Maidan B.O",
    "officeType": "B.O",
    "Deliverystatus": "Delivery",
    "divisionname": "Rajouri",
    "regionname": "Srinagar HQ",
    "circlename": "Jammukashmir",
    "Taluk": "Rajouri",
    "Districtname": "Poonch",
    "statename": "JAMMU & KASHMIR"
  },
  {
    "pincode": "185211",
    "officename": "Salwah B.O",
    "officeType": "B.O",
    "Deliverystatus": "Delivery",
    "divisionname": "Rajouri",
    "regionname": "Srinagar HQ",
    "circlename": "Jammukashmir",
    "Taluk": "Rajouri",
    "Districtname": "Poonch",
    "statename": "JAMMU & KASHMIR"
  }
]
