[
  {
    "pincode": "185233",
    "officename": "Bagnkot B.O",
    "officeType": "B.O",
    "Deliverystatus": "Delivery",
    "divisionname": "Rajouri",
    "regionname": "Srinagar HQ",
    "circlename": "Jammukashmir",
    "Taluk": "Jammu",
    "Districtname": "Reasi",
    "statename": "JAMMU & KASHMIR"
  },
  {
    "pincode": "185233",
    "officename": "Budhal S.O",
    "officeType": "S.O",
    "Deliverystatus": "Delivery",
    "divisionname": "Rajouri",
    "regionname": "Srinagar HQ",
    "circlename": "Jammukashmir",
    "Taluk": "Jammu",
    "Districtname": "Rajauri",
    "statename": "JAMMU & KASHMIR"
  },
  {
    "pincode": "185233",
    "officename": "Chana Shikari B.O",
    "officeType": "B.O",
    "Deliverystatus": "Delivery",
    "divisionname": "Rajouri",
    "regionname": "Srinagar HQ",
    "circlename": "Jammukashmir",
    "Taluk": "Jammu",
    "Districtname": "Reasi",
    "statename": "JAMMU & KASHMIR"
  },
  {
    "pincode": "185233",
    "officename": "Chasote B.O",
    "officeType": "B.O",
    "Deliverystatus": "Delivery",
    "divisionname": "Rajouri",
    "regionname": "Srinagar HQ",
    "circlename": "Jammukashmir",
    "Taluk": "Jammu",
    "Districtname": "Rajauri",
    "statename": "JAMMU & KASHMIR"
  },
  {
    "pincode": "185233",
    "officename": "Daraj B.O",
    "officeType": "B.O",
    "Deliverystatus": "Delivery",
    "divisionname": "Rajouri",
    "regionname": "Srinagar HQ",
    "circlename": "Jammukashmir",
    "Taluk": "Jammu",
    "Districtname": "Rajauri",
    "statename": "JAMMU & KASHMIR"
  },
  {
    "pincode": "185233",
    "officename": "Kewal B.O",
    "officeType": "B.O",
    "Deliverystatus": "Delivery",
    "divisionname": "Rajouri",
    "regionname": "Srinagar HQ",
    "circlename": "Jammukashmir",
    "Taluk": "Jammu",
    "Districtname": "Rajauri",
    "statename": "JAMMU & KASHMIR"
  },
  {
    "pincode": "185233",
    "officename": "Kotranka B.O",
    "officeType": "B.O",
    "Deliverystatus": "Delivery",
    "divisionname": "Rajouri",
    "regionname": "Srinagar HQ",
    "circlename": "Jammukashmir",
    "Taluk": "Rajouri",
    "Districtname": "Rajauri",
    "statename": "JAMMU & KASHMIR"
  },
  {
    "pincode": "185233",
    "officename": "Mamanlot B.O",
    "officeType": "B.O",
    "Deliverystatus": "Delivery",
    "divisionname": "Rajouri",
    "regionname": "Srinagar HQ",
    "circlename": "Jammukashmir",
    "Taluk": "Jammu",
    "Districtname": "Reasi",
    "statename": "JAMMU & KASHMIR"
  },
  {
    "pincode": "185233",
    "officename": "Samote B.O",
    "officeType": "B.O",
    "Deliverystatus": "Delivery",
    "divisionname": "Rajouri",
    "regionname": "Srinagar HQ",
    "circlename": "Jammukashmir",
    "Taluk": "Jammu",
    "Districtname": "Rajauri",
    "statename": "JAMMU & KASHMIR"
  },
  {
    "pincode": "185233",
    "officename": "Shergarhi B.O",
    "officeType": "B.O",
    "Deliverystatus": "Delivery",
    "divisionname": "Rajouri",
    "regionname": "Srinagar HQ",
    "circlename": "Jammukashmir",
    "Taluk": "Jammu",
    "Districtname": "Reasi",
    "statename": "JAMMU & KASHMIR"
  },
  {
    "pincode": "185233",
    "officename": "Shikari B.O",
    "officeType": "B.O",
    "Deliverystatus": "Delivery",
    "divisionname": "Rajouri",
    "regionname": "Srinagar HQ",
    "circlename": "Jammukashmir",
    "Taluk": "Jammu",
    "Districtname": "Reasi",
    "statename": "JAMMU & KASHMIR"
  },
  {
    "pincode": "185233",
    "officename": "Tuli B.O",
    "officeType": "B.O",
    "Deliverystatus": "Delivery",
    "divisionname": "Rajouri",
    "regionname": "Srinagar HQ",
    "circlename": "Jammukashmir",
    "Taluk": "Jammu",
    "Districtname": "Rajauri",
    "statename": "JAMMU & KASHMIR"
  }
]
