[
  {
    "pincode": "191113",
    "officename": "Bandipora B.O",
    "officeType": "B.O",
    "Deliverystatus": "Delivery",
    "divisionname": "Srinagar",
    "regionname": "Srinagar HQ",
    "circlename": "Jammukashmir",
    "Taluk": "",
    "Districtname": "Budgam",
    "statename": "JAMMU & KASHMIR"
  },
  {
    "pincode": "191113",
    "officename": "Bogam Batapora B.O",
    "officeType": "B.O",
    "Deliverystatus": "Delivery",
    "divisionname": "Srinagar",
    "regionname": "Srinagar HQ",
    "circlename": "Jammukashmir",
    "Taluk": "",
    "Districtname": "Budgam",
    "statename": "JAMMU & KASHMIR"
  },
  {
    "pincode": "191113",
    "officename": "Brinjan B.O",
    "officeType": "B.O",
    "Deliverystatus": "Delivery",
    "divisionname": "Srinagar",
    "regionname": "Srinagar HQ",
    "circlename": "Jammukashmir",
    "Taluk": "",
    "Districtname": "Budgam",
    "statename": "JAMMU & KASHMIR"
  },
  {
    "pincode": "191113",
    "officename": "Chadoora S.O",
    "officeType": "S.O",
    "Deliverystatus": "Delivery",
    "divisionname": "Srinagar",
    "regionname": "Srinagar HQ",
    "circlename": "Jammukashmir",
    "Taluk": "Chadoora",
    "Districtname": "Budgam",
    "statename": "JAMMU & KASHMIR"
  },
  {
    "pincode": "191113",
    "officename": "Chattergam B.O",
    "officeType": "B.O",
    "Deliverystatus": "Delivery",
    "divisionname": "Srinagar",
    "regionname": "Srinagar HQ",
    "circlename": "Jammukashmir",
    "Taluk": "",
    "Districtname": "Budgam",
    "statename": "JAMMU & KASHMIR"
  },
  {
    "pincode": "191113",
    "officename": "Gogjipathri B.O",
    "officeType": "B.O",
    "Deliverystatus": "Delivery",
    "divisionname": "Srinagar",
    "regionname": "Srinagar HQ",
    "circlename": "Jammukashmir",
    "Taluk": "",
    "Districtname": "Budgam",
    "statename": "JAMMU & KASHMIR"
  },
  {
    "pincode": "191113",
    "officename": "Hanjura B.O",
    "officeType": "B.O",
    "Deliverystatus": "Delivery",
    "divisionname": "Srinagar",
    "regionname": "Srinagar HQ",
    "circlename": "Jammukashmir",
    "Taluk": "",
    "Districtname": "Budgam",
    "statename": "JAMMU & KASHMIR"
  },
  {
    "pincode": "191113",
    "officename": "Hayatpora B.O",
    "officeType": "B.O",
    "Deliverystatus": "Delivery",
    "divisionname": "Srinagar",
    "regionname": "Srinagar HQ",
    "circlename": "Jammukashmir",
    "Taluk": "",
    "Districtname": "Budgam",
    "statename": "JAMMU & KASHMIR"
  },
  {
    "pincode": "191113",
    "officename": "Lalgam B.O",
    "officeType": "B.O",
    "Deliverystatus": "Delivery",
    "divisionname": "Srinagar",
    "regionname": "Srinagar HQ",
    "circlename": "Jammukashmir",
    "Taluk": "Lalgam",
    "Districtname": "Budgam",
    "statename": "JAMMU & KASHMIR"
  },
  {
    "pincode": "191113",
    "officename": "Nagam B.O",
    "officeType": "B.O",
    "Deliverystatus": "Delivery",
    "divisionname": "Srinagar",
    "regionname": "Srinagar HQ",
    "circlename": "Jammukashmir",
    "Taluk": "Nagam",
    "Districtname": "Budgam",
    "statename": "JAMMU & KASHMIR"
  },
  {
    "pincode": "191113",
    "officename": "R N Hall B.O",
    "officeType": "B.O",
    "Deliverystatus": "Delivery",
    "divisionname": "Srinagar",
    "regionname": "Srinagar HQ",
    "circlename": "Jammukashmir",
    "Taluk": "R H Hall",
    "Districtname": "Budgam",
    "statename": "JAMMU & KASHMIR"
  },
  {
    "pincode": "191113",
    "officename": "Rangar B.O",
    "officeType": "B.O",
    "Deliverystatus": "Delivery",
    "divisionname": "Srinagar",
    "regionname": "Srinagar HQ",
    "circlename": "Jammukashmir",
    "Taluk": "Rangar",
    "Districtname": "Budgam",
    "statename": "JAMMU & KASHMIR"
  },
  {
    "pincode": "191113",
    "officename": "Sagam B.O",
    "officeType": "B.O",
    "Deliverystatus": "Delivery",
    "divisionname": "Srinagar",
    "regionname": "Srinagar HQ",
    "circlename": "Jammukashmir",
    "Taluk": "Sagam",
    "Districtname": "Budgam",
    "statename": "JAMMU & KASHMIR"
  },
  {
    "pincode": "191113",
    "officename": "Suraryan B.O",
    "officeType": "B.O",
    "Deliverystatus": "Delivery",
    "divisionname": "Srinagar",
    "regionname": "Srinagar HQ",
    "circlename": "Jammukashmir",
    "Taluk": "Suraryan",
    "Districtname": "Budgam",
    "statename": "JAMMU & KASHMIR"
  },
  {
    "pincode": "191113",
    "officename": "Wanpora B.O",
    "officeType": "B.O",
    "Deliverystatus": "Delivery",
    "divisionname": "Srinagar",
    "regionname": "Srinagar HQ",
    "circlename": "Jammukashmir",
    "Taluk": "Wanpora",
    "Districtname": "Budgam",
    "statename": "JAMMU & KASHMIR"
  },
  {
    "pincode": "191113",
    "officename": "Watakala B.O",
    "officeType": "B.O",
    "Deliverystatus": "Delivery",
    "divisionname": "Srinagar",
    "regionname": "Srinagar HQ",
    "circlename": "Jammukashmir",
    "Taluk": "Watakala",
    "Districtname": "Budgam",
    "statename": "JAMMU & KASHMIR"
  },
  {
    "pincode": "191113",
    "officename": "Wathura B.O",
    "officeType": "B.O",
    "Deliverystatus": "Delivery",
    "divisionname": "Srinagar",
    "regionname": "Srinagar HQ",
    "circlename": "Jammukashmir",
    "Taluk": "",
    "Districtname": "Budgam",
    "statename": "JAMMU & KASHMIR"
  }
]
