[
  {
    "pincode": "191111",
    "officename": "Arath B.O",
    "officeType": "B.O",
    "Deliverystatus": "Delivery",
    "divisionname": "Srinagar",
    "regionname": "Srinagar HQ",
    "circlename": "Jammukashmir",
    "Taluk": "Arath",
    "Districtname": "Budgam",
    "statename": "JAMMU & KASHMIR"
  },
  {
    "pincode": "191111",
    "officename": "Arigam B.O",
    "officeType": "B.O",
    "Deliverystatus": "Delivery",
    "divisionname": "Srinagar",
    "regionname": "Srinagar HQ",
    "circlename": "Jammukashmir",
    "Taluk": "",
    "Districtname": "Budgam",
    "statename": "JAMMU & KASHMIR"
  },
  {
    "pincode": "191111",
    "officename": "Bandgam B.O",
    "officeType": "B.O",
    "Deliverystatus": "Delivery",
    "divisionname": "Srinagar",
    "regionname": "Srinagar HQ",
    "circlename": "Jammukashmir",
    "Taluk": "Bandgam",
    "Districtname": "Budgam",
    "statename": "JAMMU & KASHMIR"
  },
  {
    "pincode": "191111",
    "officename": "Budgam S.O",
    "officeType": "S.O",
    "Deliverystatus": "Delivery",
    "divisionname": "Srinagar",
    "regionname": "Srinagar HQ",
    "circlename": "Jammukashmir",
    "Taluk": "Budgam",
    "Districtname": "Budgam",
    "statename": "JAMMU & KASHMIR"
  },
  {
    "pincode": "191111",
    "officename": "Gariend B.O",
    "officeType": "B.O",
    "Deliverystatus": "Delivery",
    "divisionname": "Srinagar",
    "regionname": "Srinagar HQ",
    "circlename": "Jammukashmir",
    "Taluk": "Garend",
    "Districtname": "Budgam",
    "statename": "JAMMU & KASHMIR"
  },
  {
    "pincode": "191111",
    "officename": "Ichgam B.O",
    "officeType": "B.O",
    "Deliverystatus": "Delivery",
    "divisionname": "Srinagar",
    "regionname": "Srinagar HQ",
    "circlename": "Jammukashmir",
    "Taluk": "Ichgam",
    "Districtname": "Budgam",
    "statename": "JAMMU & KASHMIR"
  },
  {
    "pincode": "191111",
    "officename": "Jawalapora B.O",
    "officeType": "B.O",
    "Deliverystatus": "Delivery",
    "divisionname": "Srinagar",
    "regionname": "Srinagar HQ",
    "circlename": "Jammukashmir",
    "Taluk": "Jawalapora",
    "Districtname": "Budgam",
    "statename": "JAMMU & KASHMIR"
  },
  {
    "pincode": "191111",
    "officename": "Kachwari B.O",
    "officeType": "B.O",
    "Deliverystatus": "Delivery",
    "divisionname": "Srinagar",
    "regionname": "Srinagar HQ",
    "circlename": "Jammukashmir",
    "Taluk": "Kachwari",
    "Districtname": "Budgam",
    "statename": "JAMMU & KASHMIR"
  },
  {
    "pincode": "191111",
    "officename": "Khan Shaib B.O",
    "officeType": "B.O",
    "Deliverystatus": "Delivery",
    "divisionname": "Srinagar",
    "regionname": "Srinagar HQ",
    "circlename": "Jammukashmir",
    "Taluk": "",
    "Districtname": "Budgam",
    "statename": "JAMMU & KASHMIR"
  },
  {
    "pincode": "191111",
    "officename": "Krim Shore B.O",
    "officeType": "B.O",
    "Deliverystatus": "Delivery",
    "divisionname": "Srinagar",
    "regionname": "Srinagar HQ",
    "circlename": "Jammukashmir",
    "Taluk": "Krem Shora",
    "Districtname": "Budgam",
    "statename": "JAMMU & KASHMIR"
  },
  {
    "pincode": "191111",
    "officename": "Later Chadoora B.O",
    "officeType": "B.O",
    "Deliverystatus": "Delivery",
    "divisionname": "Srinagar",
    "regionname": "Srinagar HQ",
    "circlename": "Jammukashmir",
    "Taluk": "Later Chadoora",
    "Districtname": "Budgam",
    "statename": "JAMMU & KASHMIR"
  },
  {
    "pincode": "191111",
    "officename": "Ompora B.O",
    "officeType": "B.O",
    "Deliverystatus": "Delivery",
    "divisionname": "Srinagar",
    "regionname": "Srinagar HQ",
    "circlename": "Jammukashmir",
    "Taluk": "Ompora",
    "Districtname": "Budgam",
    "statename": "JAMMU & KASHMIR"
  },
  {
    "pincode": "191111",
    "officename": "Raithan B.O",
    "officeType": "B.O",
    "Deliverystatus": "Delivery",
    "divisionname": "Srinagar",
    "regionname": "Srinagar HQ",
    "circlename": "Jammukashmir",
    "Taluk": "Raithan",
    "Districtname": "Budgam",
    "statename": "JAMMU & KASHMIR"
  },
  {
    "pincode": "191111",
    "officename": "Shogapora B.O",
    "officeType": "B.O",
    "Deliverystatus": "Delivery",
    "divisionname": "Srinagar",
    "regionname": "Srinagar HQ",
    "circlename": "Jammukashmir",
    "Taluk": "Shogapora",
    "Districtname": "Budgam",
    "statename": "JAMMU & KASHMIR"
  },
  {
    "pincode": "191111",
    "officename": "Sholipora B.O",
    "officeType": "B.O",
    "Deliverystatus": "Delivery",
    "divisionname": "Srinagar",
    "regionname": "Srinagar HQ",
    "circlename": "Jammukashmir",
    "Taluk": "Sholipora",
    "Districtname": "Budgam",
    "statename": "JAMMU & KASHMIR"
  },
  {
    "pincode": "191111",
    "officename": "Soibugh B.O",
    "officeType": "B.O",
    "Deliverystatus": "Delivery",
    "divisionname": "Srinagar",
    "regionname": "Srinagar HQ",
    "circlename": "Jammukashmir",
    "Taluk": "Saibugh",
    "Districtname": "Budgam",
    "statename": "JAMMU & KASHMIR"
  },
  {
    "pincode": "191111",
    "officename": "Watterhail B.O",
    "officeType": "B.O",
    "Deliverystatus": "Delivery",
    "divisionname": "Srinagar",
    "regionname": "Srinagar HQ",
    "circlename": "Jammukashmir",
    "Taluk": "Watrihaal",
    "Districtname": "Budgam",
    "statename": "JAMMU & KASHMIR"
  }
]
