[
  {
    "pincode": "191202",
    "officename": "Akhal B.O",
    "officeType": "B.O",
    "Deliverystatus": "Delivery",
    "divisionname": "Srinagar",
    "regionname": "Srinagar HQ",
    "circlename": "Jammukashmir",
    "Taluk": "Kangan",
    "Districtname": "Srinagar",
    "statename": "JAMMU & KASHMIR"
  },
  {
    "pincode": "191202",
    "officename": "Gund B.O",
    "officeType": "B.O",
    "Deliverystatus": "Delivery",
    "divisionname": "Srinagar",
    "regionname": "Srinagar HQ",
    "circlename": "Jammukashmir",
    "Taluk": "Gund",
    "Districtname": "Srinagar",
    "statename": "JAMMU & KASHMIR"
  },
  {
    "pincode": "191202",
    "officename": "Hari Gaiwan B.O",
    "officeType": "B.O",
    "Deliverystatus": "Delivery",
    "divisionname": "Srinagar",
    "regionname": "Srinagar HQ",
    "circlename": "Jammukashmir",
    "Taluk": "Kangan",
    "Districtname": "Srinagar",
    "statename": "JAMMU & KASHMIR"
  },
  {
    "pincode": "191202",
    "officename": "Kangan S.O",
    "officeType": "S.O",
    "Deliverystatus": "Delivery",
    "divisionname": "Srinagar",
    "regionname": "Srinagar HQ",
    "circlename": "Jammukashmir",
    "Taluk": "Kangan",
    "Districtname": "Srinagar",
    "statename": "JAMMU & KASHMIR"
  },
  {
    "pincode": "191202",
    "officename": "Kulan B.O",
    "officeType": "B.O",
    "Deliverystatus": "Delivery",
    "divisionname": "Srinagar",
    "regionname": "Srinagar HQ",
    "circlename": "Jammukashmir",
    "Taluk": "Kulan",
    "Districtname": "Srinagar",
    "statename": "JAMMU & KASHMIR"
  },
  {
    "pincode": "191202",
    "officename": "Mamer B.O",
    "officeType": "B.O",
    "Deliverystatus": "Delivery",
    "divisionname": "Srinagar",
    "regionname": "Srinagar HQ",
    "circlename": "Jammukashmir",
    "Taluk": "Kangan",
    "Districtname": "Srinagar",
    "statename": "JAMMU & KASHMIR"
  },
  {
    "pincode": "191202",
    "officename": "S Bala B.O",
    "officeType": "B.O",
    "Deliverystatus": "Delivery",
    "divisionname": "Srinagar",
    "regionname": "Srinagar HQ",
    "circlename": "Jammukashmir",
    "Taluk": "S Bala",
    "Districtname": "Srinagar",
    "statename": "JAMMU & KASHMIR"
  },
  {
    "pincode": "191202",
    "officename": "Wangat B.O",
    "officeType": "B.O",
    "Deliverystatus": "Delivery",
    "divisionname": "Srinagar",
    "regionname": "Srinagar HQ",
    "circlename": "Jammukashmir",
    "Taluk": "Wangat",
    "Districtname": "Srinagar",
    "statename": "JAMMU & KASHMIR"
  }
]
