[
  {
    "pincode": "192121",
    "officename": "Honipora B.O",
    "officeType": "B.O",
    "Deliverystatus": "Delivery",
    "divisionname": "Srinagar",
    "regionname": "Srinagar HQ",
    "circlename": "Jammukashmir",
    "Taluk": "Pulwama",
    "Districtname": "Ananthnag",
    "statename": "JAMMU & KASHMIR"
  },
  {
    "pincode": "192121",
    "officename": "Khanda B.O",
    "officeType": "B.O",
    "Deliverystatus": "Delivery",
    "divisionname": "Srinagar",
    "regionname": "Srinagar HQ",
    "circlename": "Jammukashmir",
    "Taluk": "Pulwama",
    "Districtname": "Ananthnag",
    "statename": "JAMMU & KASHMIR"
  },
  {
    "pincode": "192121",
    "officename": "Konibal B.O",
    "officeType": "B.O",
    "Deliverystatus": "Delivery",
    "divisionname": "Srinagar",
    "regionname": "Srinagar HQ",
    "circlename": "Jammukashmir",
    "Taluk": "Pulwama",
    "Districtname": "Ananthnag",
    "statename": "JAMMU & KASHMIR"
  },
  {
    "pincode": "192121",
    "officename": "Nehama B.O",
    "officeType": "B.O",
    "Deliverystatus": "Delivery",
    "divisionname": "Srinagar",
    "regionname": "Srinagar HQ",
    "circlename": "Jammukashmir",
    "Taluk": "Pulwama",
    "Districtname": "Ananthnag",
    "statename": "JAMMU & KASHMIR"
  },
  {
    "pincode": "192121",
    "officename": "Pahroo B.O",
    "officeType": "B.O",
    "Deliverystatus": "Delivery",
    "divisionname": "Srinagar",
    "regionname": "Srinagar HQ",
    "circlename": "Jammukashmir",
    "Taluk": "Chadura",
    "Districtname": "Budgam",
    "statename": "JAMMU & KASHMIR"
  },
  {
    "pincode": "192121",
    "officename": "Pampore S.O",
    "officeType": "S.O",
    "Deliverystatus": "Delivery",
    "divisionname": "Srinagar",
    "regionname": "Srinagar HQ",
    "circlename": "Jammukashmir",
    "Taluk": "Pampore",
    "Districtname": "Srinagar",
    "statename": "JAMMU & KASHMIR"
  },
  {
    "pincode": "192121",
    "officename": "Ratnipora B.O",
    "officeType": "B.O",
    "Deliverystatus": "Delivery",
    "divisionname": "Srinagar",
    "regionname": "Srinagar HQ",
    "circlename": "Jammukashmir",
    "Taluk": "Pulwama",
    "Districtname": "Pulwama",
    "statename": "JAMMU & KASHMIR"
  },
  {
    "pincode": "192121",
    "officename": "Sambura B.O",
    "officeType": "B.O",
    "Deliverystatus": "Delivery",
    "divisionname": "Srinagar",
    "regionname": "Srinagar HQ",
    "circlename": "Jammukashmir",
    "Taluk": "Pulwama",
    "Districtname": "Ananthnag",
    "statename": "JAMMU & KASHMIR"
  }
]
