[
  {
    "pincode": "192123",
    "officename": "Aripal B.O",
    "officeType": "B.O",
    "Deliverystatus": "Delivery",
    "divisionname": "Srinagar",
    "regionname": "Srinagar HQ",
    "circlename": "Jammukashmir",
    "Taluk": "Aripal",
    "Districtname": "Pulwama",
    "statename": "JAMMU & KASHMIR"
  },
  {
    "pincode": "192123",
    "officename": "Baigund B.O",
    "officeType": "B.O",
    "Deliverystatus": "Delivery",
    "divisionname": "Srinagar",
    "regionname": "Srinagar HQ",
    "circlename": "Jammukashmir",
    "Taluk": "Baigund",
    "Districtname": "Pulwama",
    "statename": "JAMMU & KASHMIR"
  },
  {
    "pincode": "192123",
    "officename": "Bargam B.O",
    "officeType": "B.O",
    "Deliverystatus": "Delivery",
    "divisionname": "Srinagar",
    "regionname": "Srinagar HQ",
    "circlename": "Jammukashmir",
    "Taluk": "Bargam",
    "Districtname": "Pulwama",
    "statename": "JAMMU & KASHMIR"
  },
  {
    "pincode": "192123",
    "officename": "Batagund B.O",
    "officeType": "B.O",
    "Deliverystatus": "Delivery",
    "divisionname": "Srinagar",
    "regionname": "Srinagar HQ",
    "circlename": "Jammukashmir",
    "Taluk": "Batagund",
    "Districtname": "Pulwama",
    "statename": "JAMMU & KASHMIR"
  },
  {
    "pincode": "192123",
    "officename": "Bathnoor B.O",
    "officeType": "B.O",
    "Deliverystatus": "Delivery",
    "divisionname": "Srinagar",
    "regionname": "Srinagar HQ",
    "circlename": "Jammukashmir",
    "Taluk": "Bathnoor",
    "Districtname": "Pulwama",
    "statename": "JAMMU & KASHMIR"
  },
  {
    "pincode": "192123",
    "officename": "Bouli B.O",
    "officeType": "B.O",
    "Deliverystatus": "Delivery",
    "divisionname": "Srinagar",
    "regionname": "Srinagar HQ",
    "circlename": "Jammukashmir",
    "Taluk": "Bouli",
    "Districtname": "Pulwama",
    "statename": "JAMMU & KASHMIR"
  },
  {
    "pincode": "192123",
    "officename": "Buchoo B.O",
    "officeType": "B.O",
    "Deliverystatus": "Delivery",
    "divisionname": "Srinagar",
    "regionname": "Srinagar HQ",
    "circlename": "Jammukashmir",
    "Taluk": "Buchoo",
    "Districtname": "Pulwama",
    "statename": "JAMMU & KASHMIR"
  },
  {
    "pincode": "192123",
    "officename": "Chattergam B.O",
    "officeType": "B.O",
    "Deliverystatus": "Delivery",
    "divisionname": "Srinagar",
    "regionname": "Srinagar HQ",
    "circlename": "Jammukashmir",
    "Taluk": "Chattargam",
    "Districtname": "Pulwama",
    "statename": "JAMMU & KASHMIR"
  },
  {
    "pincode": "192123",
    "officename": "Dadsar B.O",
    "officeType": "B.O",
    "Deliverystatus": "Delivery",
    "divisionname": "Srinagar",
    "regionname": "Srinagar HQ",
    "circlename": "Jammukashmir",
    "Taluk": "Dadsar",
    "Districtname": "Pulwama",
    "statename": "JAMMU & KASHMIR"
  },
  {
    "pincode": "192123",
    "officename": "Haripari B.O",
    "officeType": "B.O",
    "Deliverystatus": "Delivery",
    "divisionname": "Srinagar",
    "regionname": "Srinagar HQ",
    "circlename": "Jammukashmir",
    "Taluk": "Haripora",
    "Districtname": "Pulwama",
    "statename": "JAMMU & KASHMIR"
  },
  {
    "pincode": "192123",
    "officename": "Kachachakote B.O",
    "officeType": "B.O",
    "Deliverystatus": "Delivery",
    "divisionname": "Srinagar",
    "regionname": "Srinagar HQ",
    "circlename": "Jammukashmir",
    "Taluk": "Kachachakote",
    "Districtname": "Pulwama",
    "statename": "JAMMU & KASHMIR"
  },
  {
    "pincode": "192123",
    "officename": "Kahleel B.O",
    "officeType": "B.O",
    "Deliverystatus": "Delivery",
    "divisionname": "Srinagar",
    "regionname": "Srinagar HQ",
    "circlename": "Jammukashmir",
    "Taluk": "Kahleel",
    "Districtname": "Pulwama",
    "statename": "JAMMU & KASHMIR"
  },
  {
    "pincode": "192123",
    "officename": "Lurgam B.O",
    "officeType": "B.O",
    "Deliverystatus": "Delivery",
    "divisionname": "Srinagar",
    "regionname": "Srinagar HQ",
    "circlename": "Jammukashmir",
    "Taluk": "Lurgam",
    "Districtname": "Pulwama",
    "statename": "JAMMU & KASHMIR"
  },
  {
    "pincode": "192123",
    "officename": "Mandoora B.O",
    "officeType": "B.O",
    "Deliverystatus": "Delivery",
    "divisionname": "Srinagar",
    "regionname": "Srinagar HQ",
    "circlename": "Jammukashmir",
    "Taluk": "Mandoora",
    "Districtname": "Pulwama",
    "statename": "JAMMU & KASHMIR"
  },
  {
    "pincode": "192123",
    "officename": "Midroo B.O",
    "officeType": "B.O",
    "Deliverystatus": "Delivery",
    "divisionname": "Srinagar",
    "regionname": "Srinagar HQ",
    "circlename": "Jammukashmir",
    "Taluk": "Midroo",
    "Districtname": "Pulwama",
    "statename": "JAMMU & KASHMIR"
  },
  {
    "pincode": "192123",
    "officename": "Pastana B.O",
    "officeType": "B.O",
    "Deliverystatus": "Delivery",
    "divisionname": "Srinagar",
    "regionname": "Srinagar HQ",
    "circlename": "Jammukashmir",
    "Taluk": "Pastana",
    "Districtname": "Pulwama",
    "statename": "JAMMU & KASHMIR"
  },
  {
    "pincode": "192123",
    "officename": "Pinglish B.O",
    "officeType": "B.O",
    "Deliverystatus": "Delivery",
    "divisionname": "Srinagar",
    "regionname": "Srinagar HQ",
    "circlename": "Jammukashmir",
    "Taluk": "Linglish",
    "Districtname": "Pulwama",
    "statename": "JAMMU & KASHMIR"
  },
  {
    "pincode": "192123",
    "officename": "Saimoh B.O",
    "officeType": "B.O",
    "Deliverystatus": "Delivery",
    "divisionname": "Srinagar",
    "regionname": "Srinagar HQ",
    "circlename": "Jammukashmir",
    "Taluk": "Saimoh",
    "Districtname": "Pulwama",
    "statename": "JAMMU & KASHMIR"
  },
  {
    "pincode": "192123",
    "officename": "Satura B.O",
    "officeType": "B.O",
    "Deliverystatus": "Delivery",
    "divisionname": "Srinagar",
    "regionname": "Srinagar HQ",
    "circlename": "Jammukashmir",
    "Taluk": "Satura",
    "Districtname": "Pulwama",
    "statename": "JAMMU & KASHMIR"
  },
  {
    "pincode": "192123",
    "officename": "Tral S.O",
    "officeType": "S.O",
    "Deliverystatus": "Delivery",
    "divisionname": "Srinagar",
    "regionname": "Srinagar HQ",
    "circlename": "Jammukashmir",
    "Taluk": "Tral",
    "Districtname": "Pulwama",
    "statename": "JAMMU & KASHMIR"
  }
]
