[
  {
    "pincode": "192233",
    "officename": "Aharbal B.O",
    "officeType": "B.O",
    "Deliverystatus": "Delivery",
    "divisionname": "Srinagar",
    "regionname": "Srinagar HQ",
    "circlename": "Jammukashmir",
    "Taluk": "Damhal Hanji Pora",
    "Districtname": "Kulgam",
    "statename": "JAMMU & KASHMIR"
  },
  {
    "pincode": "192233",
    "officename": "Ahmedabad B.O",
    "officeType": "B.O",
    "Deliverystatus": "Delivery",
    "divisionname": "Srinagar",
    "regionname": "Srinagar HQ",
    "circlename": "Jammukashmir",
    "Taluk": "Damhal Hanji Pora",
    "Districtname": "Kulgam",
    "statename": "JAMMU & KASHMIR"
  },
  {
    "pincode": "192233",
    "officename": "Chimar B.O",
    "officeType": "B.O",
    "Deliverystatus": "Delivery",
    "divisionname": "Srinagar",
    "regionname": "Srinagar HQ",
    "circlename": "Jammukashmir",
    "Taluk": "Damhal Hanji Pora",
    "Districtname": "Kulgam",
    "statename": "JAMMU & KASHMIR"
  },
  {
    "pincode": "192233",
    "officename": "D K Marg B.O",
    "officeType": "B.O",
    "Deliverystatus": "Delivery",
    "divisionname": "Srinagar",
    "regionname": "Srinagar HQ",
    "circlename": "Jammukashmir",
    "Taluk": "Damhal Hanji Pora",
    "Districtname": "Kulgam",
    "statename": "JAMMU & KASHMIR"
  },
  {
    "pincode": "192233",
    "officename": "Damhal Hanji Pora S.O",
    "officeType": "S.O",
    "Deliverystatus": "Delivery",
    "divisionname": "Srinagar",
    "regionname": "Srinagar HQ",
    "circlename": "Jammukashmir",
    "Taluk": "Damhal Hanji Pora",
    "Districtname": "Kulgam",
    "statename": "JAMMU & KASHMIR"
  },
  {
    "pincode": "192233",
    "officename": "Gopalpora B.O",
    "officeType": "B.O",
    "Deliverystatus": "Delivery",
    "divisionname": "Srinagar",
    "regionname": "Srinagar HQ",
    "circlename": "Jammukashmir",
    "Taluk": "Damhal Hanji Pora",
    "Districtname": "Kulgam",
    "statename": "JAMMU & KASHMIR"
  },
  {
    "pincode": "192233",
    "officename": "Khull B.O",
    "officeType": "B.O",
    "Deliverystatus": "Delivery",
    "divisionname": "Srinagar",
    "regionname": "Srinagar HQ",
    "circlename": "Jammukashmir",
    "Taluk": "Damhal Hanji Pora",
    "Districtname": "Kulgam",
    "statename": "JAMMU & KASHMIR"
  },
  {
    "pincode": "192233",
    "officename": "Khuri Bata Pora B.O",
    "officeType": "B.O",
    "Deliverystatus": "Delivery",
    "divisionname": "Srinagar",
    "regionname": "Srinagar HQ",
    "circlename": "Jammukashmir",
    "Taluk": "Damhal Hanji Pora",
    "Districtname": "Kulgam",
    "statename": "JAMMU & KASHMIR"
  },
  {
    "pincode": "192233",
    "officename": "Manzgam B.O",
    "officeType": "B.O",
    "Deliverystatus": "Delivery",
    "divisionname": "Srinagar",
    "regionname": "Srinagar HQ",
    "circlename": "Jammukashmir",
    "Taluk": "Damhal Hanji Pora",
    "Districtname": "Kulgam",
    "statename": "JAMMU & KASHMIR"
  },
  {
    "pincode": "192233",
    "officename": "Nandimarg B.O",
    "officeType": "B.O",
    "Deliverystatus": "Delivery",
    "divisionname": "Srinagar",
    "regionname": "Srinagar HQ",
    "circlename": "Jammukashmir",
    "Taluk": "Damhal Hanji Pora",
    "Districtname": "Kulgam",
    "statename": "JAMMU & KASHMIR"
  },
  {
    "pincode": "192233",
    "officename": "Nasnoor B.O",
    "officeType": "B.O",
    "Deliverystatus": "Delivery",
    "divisionname": "Srinagar",
    "regionname": "Srinagar HQ",
    "circlename": "Jammukashmir",
    "Taluk": "Damhal Hanji Pora",
    "Districtname": "Kulgam",
    "statename": "JAMMU & KASHMIR"
  },
  {
    "pincode": "192233",
    "officename": "Nehama B.O",
    "officeType": "B.O",
    "Deliverystatus": "Delivery",
    "divisionname": "Srinagar",
    "regionname": "Srinagar HQ",
    "circlename": "Jammukashmir",
    "Taluk": "Damhal Hanji Pora",
    "Districtname": "Kulgam",
    "statename": "JAMMU & KASHMIR"
  }
]
