[
  {
    "pincode": "192232",
    "officename": "Awenura B.O",
    "officeType": "B.O",
    "Deliverystatus": "Delivery",
    "divisionname": "Srinagar",
    "regionname": "Srinagar HQ",
    "circlename": "Jammukashmir",
    "Taluk": "Awenura",
    "Districtname": "Ananthnag",
    "statename": "JAMMU & KASHMIR"
  },
  {
    "pincode": "192232",
    "officename": "Behibagh B.O",
    "officeType": "B.O",
    "Deliverystatus": "Delivery",
    "divisionname": "Srinagar",
    "regionname": "Srinagar HQ",
    "circlename": "Jammukashmir",
    "Taluk": "Behibagh",
    "Districtname": "Ananthnag",
    "statename": "JAMMU & KASHMIR"
  },
  {
    "pincode": "192232",
    "officename": "Bugam B.O",
    "officeType": "B.O",
    "Deliverystatus": "Delivery",
    "divisionname": "Srinagar",
    "regionname": "Srinagar HQ",
    "circlename": "Jammukashmir",
    "Taluk": "Bugam",
    "Districtname": "Ananthnag",
    "statename": "JAMMU & KASHMIR"
  },
  {
    "pincode": "192232",
    "officename": "Demidulla B.O",
    "officeType": "B.O",
    "Deliverystatus": "Delivery",
    "divisionname": "Srinagar",
    "regionname": "Srinagar HQ",
    "circlename": "Jammukashmir",
    "Taluk": "Demidulla",
    "Districtname": "Ananthnag",
    "statename": "JAMMU & KASHMIR"
  },
  {
    "pincode": "192232",
    "officename": "Frisal B.O",
    "officeType": "B.O",
    "Deliverystatus": "Delivery",
    "divisionname": "Srinagar",
    "regionname": "Srinagar HQ",
    "circlename": "Jammukashmir",
    "Taluk": "Frisal",
    "Districtname": "Ananthnag",
    "statename": "JAMMU & KASHMIR"
  },
  {
    "pincode": "192232",
    "officename": "Katrasoo B.O",
    "officeType": "B.O",
    "Deliverystatus": "Delivery",
    "divisionname": "Srinagar",
    "regionname": "Srinagar HQ",
    "circlename": "Jammukashmir",
    "Taluk": "Katrasoo",
    "Districtname": "Ananthnag",
    "statename": "JAMMU & KASHMIR"
  },
  {
    "pincode": "192232",
    "officename": "Khigogipora B.O",
    "officeType": "B.O",
    "Deliverystatus": "Delivery",
    "divisionname": "Srinagar",
    "regionname": "Srinagar HQ",
    "circlename": "Jammukashmir",
    "Taluk": "Khigogipora",
    "Districtname": "Ananthnag",
    "statename": "JAMMU & KASHMIR"
  },
  {
    "pincode": "192232",
    "officename": "M/gufan B.O",
    "officeType": "B.O",
    "Deliverystatus": "Delivery",
    "divisionname": "Srinagar",
    "regionname": "Srinagar HQ",
    "circlename": "Jammukashmir",
    "Taluk": "M/gufan",
    "Districtname": "Ananthnag",
    "statename": "JAMMU & KASHMIR"
  },
  {
    "pincode": "192232",
    "officename": "Noonmai B.O",
    "officeType": "B.O",
    "Deliverystatus": "Delivery",
    "divisionname": "Srinagar",
    "regionname": "Srinagar HQ",
    "circlename": "Jammukashmir",
    "Taluk": "Noonmai",
    "Districtname": "Ananthnag",
    "statename": "JAMMU & KASHMIR"
  },
  {
    "pincode": "192232",
    "officename": "Reban Gund B.O",
    "officeType": "B.O",
    "Deliverystatus": "Delivery",
    "divisionname": "Srinagar",
    "regionname": "Srinagar HQ",
    "circlename": "Jammukashmir",
    "Taluk": "Reban Gund",
    "Districtname": "Ananthnag",
    "statename": "JAMMU & KASHMIR"
  },
  {
    "pincode": "192232",
    "officename": "Tarigam B.O",
    "officeType": "B.O",
    "Deliverystatus": "Delivery",
    "divisionname": "Srinagar",
    "regionname": "Srinagar HQ",
    "circlename": "Jammukashmir",
    "Taluk": "Tarigam",
    "Districtname": "Ananthnag",
    "statename": "JAMMU & KASHMIR"
  },
  {
    "pincode": "192232",
    "officename": "Yaripora S.O",
    "officeType": "S.O",
    "Deliverystatus": "Delivery",
    "divisionname": "Srinagar",
    "regionname": "Srinagar HQ",
    "circlename": "Jammukashmir",
    "Taluk": "Yaripora",
    "Districtname": "Ananthnag",
    "statename": "JAMMU & KASHMIR"
  }
]
