[
  {
    "pincode": "192211",
    "officename": "Dooru S.O",
    "officeType": "S.O",
    "Deliverystatus": "Delivery",
    "divisionname": "Srinagar",
    "regionname": "Srinagar HQ",
    "circlename": "Jammukashmir",
    "Taluk": "Dooru",
    "Districtname": "Ananthnag",
    "statename": "JAMMU & KASHMIR"
  },
  {
    "pincode": "192211",
    "officename": "Fatehpora B.O",
    "officeType": "B.O",
    "Deliverystatus": "Delivery",
    "divisionname": "Srinagar",
    "regionname": "Srinagar HQ",
    "circlename": "Jammukashmir",
    "Taluk": "",
    "Districtname": "Ananthnag",
    "statename": "JAMMU & KASHMIR"
  },
  {
    "pincode": "192211",
    "officename": "Gosani Gund B.O",
    "officeType": "B.O",
    "Deliverystatus": "Delivery",
    "divisionname": "Srinagar",
    "regionname": "Srinagar HQ",
    "circlename": "Jammukashmir",
    "Taluk": "",
    "Districtname": "Ananthnag",
    "statename": "JAMMU & KASHMIR"
  },
  {
    "pincode": "192211",
    "officename": "Hakura Badasgam B.O",
    "officeType": "B.O",
    "Deliverystatus": "Delivery",
    "divisionname": "Srinagar",
    "regionname": "Srinagar HQ",
    "circlename": "Jammukashmir",
    "Taluk": "",
    "Districtname": "Ananthnag",
    "statename": "JAMMU & KASHMIR"
  },
  {
    "pincode": "192211",
    "officename": "Hiller Shahabad B.O",
    "officeType": "B.O",
    "Deliverystatus": "Delivery",
    "divisionname": "Srinagar",
    "regionname": "Srinagar HQ",
    "circlename": "Jammukashmir",
    "Taluk": "",
    "Districtname": "Ananthnag",
    "statename": "JAMMU & KASHMIR"
  },
  {
    "pincode": "192211",
    "officename": "Kriri Nowpora B.O",
    "officeType": "B.O",
    "Deliverystatus": "Delivery",
    "divisionname": "Srinagar",
    "regionname": "Srinagar HQ",
    "circlename": "Jammukashmir",
    "Taluk": "",
    "Districtname": "Ananthnag",
    "statename": "JAMMU & KASHMIR"
  },
  {
    "pincode": "192211",
    "officename": "Larkipora B.O",
    "officeType": "B.O",
    "Deliverystatus": "Delivery",
    "divisionname": "Srinagar",
    "regionname": "Srinagar HQ",
    "circlename": "Jammukashmir",
    "Taluk": "",
    "Districtname": "Ananthnag",
    "statename": "JAMMU & KASHMIR"
  },
  {
    "pincode": "192211",
    "officename": "Obindora B.O",
    "officeType": "B.O",
    "Deliverystatus": "Delivery",
    "divisionname": "Srinagar",
    "regionname": "Srinagar HQ",
    "circlename": "Jammukashmir",
    "Taluk": "",
    "Districtname": "Pulwama",
    "statename": "JAMMU & KASHMIR"
  }
]
