[
  {
    "pincode": "192305",
    "officename": "Achan S.O",
    "officeType": "S.O",
    "Deliverystatus": "Delivery",
    "divisionname": "Srinagar",
    "regionname": "Srinagar HQ",
    "circlename": "Jammukashmir",
    "Taluk": "Achan",
    "Districtname": "Ananthnag",
    "statename": "JAMMU & KASHMIR"
  },
  {
    "pincode": "192305",
    "officename": "Aglar B.O",
    "officeType": "B.O",
    "Deliverystatus": "Delivery",
    "divisionname": "Srinagar",
    "regionname": "Srinagar HQ",
    "circlename": "Jammukashmir",
    "Taluk": "",
    "Districtname": "Shopian",
    "statename": "JAMMU & KASHMIR"
  },
  {
    "pincode": "192305",
    "officename": "Chakura B.O",
    "officeType": "B.O",
    "Deliverystatus": "Delivery",
    "divisionname": "Srinagar",
    "regionname": "Srinagar HQ",
    "circlename": "Jammukashmir",
    "Taluk": "Pulwama",
    "Districtname": "Ananthnag",
    "statename": "JAMMU & KASHMIR"
  },
  {
    "pincode": "192305",
    "officename": "Hef Shermal B.O",
    "officeType": "B.O",
    "Deliverystatus": "Delivery",
    "divisionname": "Srinagar",
    "regionname": "Srinagar HQ",
    "circlename": "Jammukashmir",
    "Taluk": "Shopian",
    "Districtname": "Ananthnag",
    "statename": "JAMMU & KASHMIR"
  },
  {
    "pincode": "192305",
    "officename": "Litter B.O",
    "officeType": "B.O",
    "Deliverystatus": "Delivery",
    "divisionname": "Srinagar",
    "regionname": "Srinagar HQ",
    "circlename": "Jammukashmir",
    "Taluk": "Pulwama",
    "Districtname": "Ananthnag",
    "statename": "JAMMU & KASHMIR"
  },
  {
    "pincode": "192305",
    "officename": "Sugan B.O",
    "officeType": "B.O",
    "Deliverystatus": "Delivery",
    "divisionname": "Srinagar",
    "regionname": "Srinagar HQ",
    "circlename": "Jammukashmir",
    "Taluk": "Pulwama",
    "Districtname": "Ananthnag",
    "statename": "JAMMU & KASHMIR"
  },
  {
    "pincode": "192305",
    "officename": "Turka Wangam B.O",
    "officeType": "B.O",
    "Deliverystatus": "Delivery",
    "divisionname": "Srinagar",
    "regionname": "Srinagar HQ",
    "circlename": "Jammukashmir",
    "Taluk": "Shopian",
    "Districtname": "Ananthnag",
    "statename": "JAMMU & KASHMIR"
  },
  {
    "pincode": "192305",
    "officename": "Wachi B.O",
    "officeType": "B.O",
    "Deliverystatus": "Delivery",
    "divisionname": "Srinagar",
    "regionname": "Srinagar HQ",
    "circlename": "Jammukashmir",
    "Taluk": "Pulwama",
    "Districtname": "Ananthnag",
    "statename": "JAMMU & KASHMIR"
  },
  {
    "pincode": "192305",
    "officename": "Wasoora B.O",
    "officeType": "B.O",
    "Deliverystatus": "Delivery",
    "divisionname": "Srinagar",
    "regionname": "Srinagar HQ",
    "circlename": "Jammukashmir",
    "Taluk": "Pulwama",
    "Districtname": "Ananthnag",
    "statename": "JAMMU & KASHMIR"
  }
]
