[
  {
    "pincode": "192303",
    "officename": "Batpora B.O",
    "officeType": "B.O",
    "Deliverystatus": "Delivery",
    "divisionname": "Srinagar",
    "regionname": "Srinagar HQ",
    "circlename": "Jammukashmir",
    "Taluk": "Batpora",
    "Districtname": "Pulwama",
    "statename": "JAMMU & KASHMIR"
  },
  {
    "pincode": "192303",
    "officename": "Herman B.O",
    "officeType": "B.O",
    "Deliverystatus": "Delivery",
    "divisionname": "Srinagar",
    "regionname": "Srinagar HQ",
    "circlename": "Jammukashmir",
    "Taluk": "",
    "Districtname": "Pulwama",
    "statename": "JAMMU & KASHMIR"
  },
  {
    "pincode": "192303",
    "officename": "Hirapora B.O",
    "officeType": "B.O",
    "Deliverystatus": "Delivery",
    "divisionname": "Srinagar",
    "regionname": "Srinagar HQ",
    "circlename": "Jammukashmir",
    "Taluk": "",
    "Districtname": "Pulwama",
    "statename": "JAMMU & KASHMIR"
  },
  {
    "pincode": "192303",
    "officename": "Kharawara B.O",
    "officeType": "B.O",
    "Deliverystatus": "Delivery",
    "divisionname": "Srinagar",
    "regionname": "Srinagar HQ",
    "circlename": "Jammukashmir",
    "Taluk": "",
    "Districtname": "Pulwama",
    "statename": "JAMMU & KASHMIR"
  },
  {
    "pincode": "192303",
    "officename": "Memendar B.O",
    "officeType": "B.O",
    "Deliverystatus": "Delivery",
    "divisionname": "Srinagar",
    "regionname": "Srinagar HQ",
    "circlename": "Jammukashmir",
    "Taluk": "",
    "Districtname": "Pulwama",
    "statename": "JAMMU & KASHMIR"
  },
  {
    "pincode": "192303",
    "officename": "Nadigam B.O",
    "officeType": "B.O",
    "Deliverystatus": "Delivery",
    "divisionname": "Srinagar",
    "regionname": "Srinagar HQ",
    "circlename": "Jammukashmir",
    "Taluk": "",
    "Districtname": "Pulwama",
    "statename": "JAMMU & KASHMIR"
  },
  {
    "pincode": "192303",
    "officename": "Narapora B.O",
    "officeType": "B.O",
    "Deliverystatus": "Delivery",
    "divisionname": "Srinagar",
    "regionname": "Srinagar HQ",
    "circlename": "Jammukashmir",
    "Taluk": "",
    "Districtname": "Pulwama",
    "statename": "JAMMU & KASHMIR"
  },
  {
    "pincode": "192303",
    "officename": "Pinjoora B.O",
    "officeType": "B.O",
    "Deliverystatus": "Delivery",
    "divisionname": "Srinagar",
    "regionname": "Srinagar HQ",
    "circlename": "Jammukashmir",
    "Taluk": "",
    "Districtname": "Pulwama",
    "statename": "JAMMU & KASHMIR"
  },
  {
    "pincode": "192303",
    "officename": "Ramnagri B.O",
    "officeType": "B.O",
    "Deliverystatus": "Delivery",
    "divisionname": "Srinagar",
    "regionname": "Srinagar HQ",
    "circlename": "Jammukashmir",
    "Taluk": "",
    "Districtname": "Pulwama",
    "statename": "JAMMU & KASHMIR"
  },
  {
    "pincode": "192303",
    "officename": "Saidpora B.O",
    "officeType": "B.O",
    "Deliverystatus": "Delivery",
    "divisionname": "Srinagar",
    "regionname": "Srinagar HQ",
    "circlename": "Jammukashmir",
    "Taluk": "",
    "Districtname": "Pulwama",
    "statename": "JAMMU & KASHMIR"
  },
  {
    "pincode": "192303",
    "officename": "Sedow B.O",
    "officeType": "B.O",
    "Deliverystatus": "Delivery",
    "divisionname": "Srinagar",
    "regionname": "Srinagar HQ",
    "circlename": "Jammukashmir",
    "Taluk": "",
    "Districtname": "Pulwama",
    "statename": "JAMMU & KASHMIR"
  },
  {
    "pincode": "192303",
    "officename": "Shopin S.O",
    "officeType": "S.O",
    "Deliverystatus": "Delivery",
    "divisionname": "Srinagar",
    "regionname": "Srinagar HQ",
    "circlename": "Jammukashmir",
    "Taluk": "Shopin",
    "Districtname": "Pulwama",
    "statename": "JAMMU & KASHMIR"
  },
  {
    "pincode": "192303",
    "officename": "Tankiya Sahib B.O",
    "officeType": "B.O",
    "Deliverystatus": "Delivery",
    "divisionname": "Srinagar",
    "regionname": "Srinagar HQ",
    "circlename": "Jammukashmir",
    "Taluk": "",
    "Districtname": "Pulwama",
    "statename": "JAMMU & KASHMIR"
  },
  {
    "pincode": "192303",
    "officename": "Trenz B.O",
    "officeType": "B.O",
    "Deliverystatus": "Delivery",
    "divisionname": "Srinagar",
    "regionname": "Srinagar HQ",
    "circlename": "Jammukashmir",
    "Taluk": "",
    "Districtname": "Pulwama",
    "statename": "JAMMU & KASHMIR"
  },
  {
    "pincode": "192303",
    "officename": "Vaheel Chatarwatan B.O",
    "officeType": "B.O",
    "Deliverystatus": "Delivery",
    "divisionname": "Srinagar",
    "regionname": "Srinagar HQ",
    "circlename": "Jammukashmir",
    "Taluk": "",
    "Districtname": "Pulwama",
    "statename": "JAMMU & KASHMIR"
  },
  {
    "pincode": "192303",
    "officename": "Zoora B.O",
    "officeType": "B.O",
    "Deliverystatus": "Delivery",
    "divisionname": "Srinagar",
    "regionname": "Srinagar HQ",
    "circlename": "Jammukashmir",
    "Taluk": "",
    "Districtname": "Pulwama",
    "statename": "JAMMU & KASHMIR"
  }
]
