[
  {
    "pincode": "192401",
    "officename": "Beerwara B.O",
    "officeType": "B.O",
    "Deliverystatus": "Delivery",
    "divisionname": "Srinagar",
    "regionname": "Srinagar HQ",
    "circlename": "Jammukashmir",
    "Taluk": "",
    "Districtname": "Ananthnag",
    "statename": "JAMMU & KASHMIR"
  },
  {
    "pincode": "192401",
    "officename": "Dalseer B.O",
    "officeType": "B.O",
    "Deliverystatus": "Delivery",
    "divisionname": "Srinagar",
    "regionname": "Srinagar HQ",
    "circlename": "Jammukashmir",
    "Taluk": "",
    "Districtname": "Ananthnag",
    "statename": "JAMMU & KASHMIR"
  },
  {
    "pincode": "192401",
    "officename": "Dhawtoo B.O",
    "officeType": "B.O",
    "Deliverystatus": "Delivery",
    "divisionname": "Srinagar",
    "regionname": "Srinagar HQ",
    "circlename": "Jammukashmir",
    "Taluk": "",
    "Districtname": "Ananthnag",
    "statename": "JAMMU & KASHMIR"
  },
  {
    "pincode": "192401",
    "officename": "Hugam B.O",
    "officeType": "B.O",
    "Deliverystatus": "Delivery",
    "divisionname": "Srinagar",
    "regionname": "Srinagar HQ",
    "circlename": "Jammukashmir",
    "Taluk": "",
    "Districtname": "Ananthnag",
    "statename": "JAMMU & KASHMIR"
  },
  {
    "pincode": "192401",
    "officename": "Kathsoo B.O",
    "officeType": "B.O",
    "Deliverystatus": "Delivery",
    "divisionname": "Srinagar",
    "regionname": "Srinagar HQ",
    "circlename": "Jammukashmir",
    "Taluk": "",
    "Districtname": "Ananthnag",
    "statename": "JAMMU & KASHMIR"
  },
  {
    "pincode": "192401",
    "officename": "Kharam B.O",
    "officeType": "B.O",
    "Deliverystatus": "Delivery",
    "divisionname": "Srinagar",
    "regionname": "Srinagar HQ",
    "circlename": "Jammukashmir",
    "Taluk": "",
    "Districtname": "Ananthnag",
    "statename": "JAMMU & KASHMIR"
  },
  {
    "pincode": "192401",
    "officename": "Kullar B.O",
    "officeType": "B.O",
    "Deliverystatus": "Delivery",
    "divisionname": "Srinagar",
    "regionname": "Srinagar HQ",
    "circlename": "Jammukashmir",
    "Taluk": "",
    "Districtname": "Ananthnag",
    "statename": "JAMMU & KASHMIR"
  },
  {
    "pincode": "192401",
    "officename": "Mohind B.O",
    "officeType": "B.O",
    "Deliverystatus": "Delivery",
    "divisionname": "Srinagar",
    "regionname": "Srinagar HQ",
    "circlename": "Jammukashmir",
    "Taluk": "",
    "Districtname": "Ananthnag",
    "statename": "JAMMU & KASHMIR"
  },
  {
    "pincode": "192401",
    "officename": "Sallar B.O",
    "officeType": "B.O",
    "Deliverystatus": "Delivery",
    "divisionname": "Srinagar",
    "regionname": "Srinagar HQ",
    "circlename": "Jammukashmir",
    "Taluk": "",
    "Districtname": "Ananthnag",
    "statename": "JAMMU & KASHMIR"
  },
  {
    "pincode": "192401",
    "officename": "Sirhama B.O",
    "officeType": "B.O",
    "Deliverystatus": "Delivery",
    "divisionname": "Srinagar",
    "regionname": "Srinagar HQ",
    "circlename": "Jammukashmir",
    "Taluk": "",
    "Districtname": "Ananthnag",
    "statename": "JAMMU & KASHMIR"
  },
  {
    "pincode": "192401",
    "officename": "Srigufwaea S.O",
    "officeType": "S.O",
    "Deliverystatus": "Delivery",
    "divisionname": "Srinagar",
    "regionname": "Srinagar HQ",
    "circlename": "Jammukashmir",
    "Taluk": "",
    "Districtname": "Ananthnag",
    "statename": "JAMMU & KASHMIR"
  },
  {
    "pincode": "192401",
    "officename": "Wallarhama B.O",
    "officeType": "B.O",
    "Deliverystatus": "Delivery",
    "divisionname": "Srinagar",
    "regionname": "Srinagar HQ",
    "circlename": "Jammukashmir",
    "Taluk": "",
    "Districtname": "Ananthnag",
    "statename": "JAMMU & KASHMIR"
  }
]
