[
  {
    "pincode": "193122",
    "officename": "Bijhama B.O",
    "officeType": "B.O",
    "Deliverystatus": "Delivery",
    "divisionname": "Baramulla",
    "regionname": "Srinagar HQ",
    "circlename": "Jammukashmir",
    "Taluk": "Uri",
    "Districtname": "Baramulla",
    "statename": "JAMMU & KASHMIR"
  },
  {
    "pincode": "193122",
    "officename": "Boniyar B.O",
    "officeType": "B.O",
    "Deliverystatus": "Delivery",
    "divisionname": "Baramulla",
    "regionname": "Srinagar HQ",
    "circlename": "Jammukashmir",
    "Taluk": "Uri",
    "Districtname": "Baramulla",
    "statename": "JAMMU & KASHMIR"
  },
  {
    "pincode": "193122",
    "officename": "Chandanwari B.O",
    "officeType": "B.O",
    "Deliverystatus": "Delivery",
    "divisionname": "Baramulla",
    "regionname": "Srinagar HQ",
    "circlename": "Jammukashmir",
    "Taluk": "Uri",
    "Districtname": "Baramulla",
    "statename": "JAMMU & KASHMIR"
  },
  {
    "pincode": "193122",
    "officename": "Dhanisaidan B.O",
    "officeType": "B.O",
    "Deliverystatus": "Delivery",
    "divisionname": "Baramulla",
    "regionname": "Srinagar HQ",
    "circlename": "Jammukashmir",
    "Taluk": "Uri",
    "Districtname": "Baramulla",
    "statename": "JAMMU & KASHMIR"
  },
  {
    "pincode": "193122",
    "officename": "Gingle B.O",
    "officeType": "B.O",
    "Deliverystatus": "Delivery",
    "divisionname": "Baramulla",
    "regionname": "Srinagar HQ",
    "circlename": "Jammukashmir",
    "Taluk": "Uri",
    "Districtname": "Baramulla",
    "statename": "JAMMU & KASHMIR"
  },
  {
    "pincode": "193122",
    "officename": "Ijara B.O",
    "officeType": "B.O",
    "Deliverystatus": "Delivery",
    "divisionname": "Baramulla",
    "regionname": "Srinagar HQ",
    "circlename": "Jammukashmir",
    "Taluk": "Uri",
    "Districtname": "Baramulla",
    "statename": "JAMMU & KASHMIR"
  },
  {
    "pincode": "193122",
    "officename": "Lachipora B.O",
    "officeType": "B.O",
    "Deliverystatus": "Delivery",
    "divisionname": "Baramulla",
    "regionname": "Srinagar HQ",
    "circlename": "Jammukashmir",
    "Taluk": "Uri",
    "Districtname": "Baramulla",
    "statename": "JAMMU & KASHMIR"
  },
  {
    "pincode": "193122",
    "officename": "Mohara S.O",
    "officeType": "S.O",
    "Deliverystatus": "Delivery",
    "divisionname": "Baramulla",
    "regionname": "Srinagar HQ",
    "circlename": "Jammukashmir",
    "Taluk": "Uri",
    "Districtname": "Baramulla",
    "statename": "JAMMU & KASHMIR"
  },
  {
    "pincode": "193122",
    "officename": "Nowshera B.O",
    "officeType": "B.O",
    "Deliverystatus": "Delivery",
    "divisionname": "Baramulla",
    "regionname": "Srinagar HQ",
    "circlename": "Jammukashmir",
    "Taluk": "Uri",
    "Districtname": "Baramulla",
    "statename": "JAMMU & KASHMIR"
  },
  {
    "pincode": "193122",
    "officename": "Pringal B.O",
    "officeType": "B.O",
    "Deliverystatus": "Delivery",
    "divisionname": "Baramulla",
    "regionname": "Srinagar HQ",
    "circlename": "Jammukashmir",
    "Taluk": "Uri",
    "Districtname": "Baramulla",
    "statename": "JAMMU & KASHMIR"
  },
  {
    "pincode": "193122",
    "officename": "Salamabad B.O",
    "officeType": "B.O",
    "Deliverystatus": "Delivery",
    "divisionname": "Baramulla",
    "regionname": "Srinagar HQ",
    "circlename": "Jammukashmir",
    "Taluk": "Uri",
    "Districtname": "Baramulla",
    "statename": "JAMMU & KASHMIR"
  },
  {
    "pincode": "193122",
    "officename": "Trikanjan B.O",
    "officeType": "B.O",
    "Deliverystatus": "Delivery",
    "divisionname": "Baramulla",
    "regionname": "Srinagar HQ",
    "circlename": "Jammukashmir",
    "Taluk": "Uri",
    "Districtname": "Baramulla",
    "statename": "JAMMU & KASHMIR"
  }
]
