[
  {
    "pincode": "193121",
    "officename": "Andergam B.O",
    "officeType": "B.O",
    "Deliverystatus": "Delivery",
    "divisionname": "Baramulla",
    "regionname": "Srinagar HQ",
    "circlename": "Jammukashmir",
    "Taluk": "Pattan",
    "Districtname": "Baramulla",
    "statename": "JAMMU & KASHMIR"
  },
  {
    "pincode": "193121",
    "officename": "Check Sariwarpora B.O",
    "officeType": "B.O",
    "Deliverystatus": "Delivery",
    "divisionname": "Baramulla",
    "regionname": "Srinagar HQ",
    "circlename": "Jammukashmir",
    "Taluk": "Pattan",
    "Districtname": "Baramulla",
    "statename": "JAMMU & KASHMIR"
  },
  {
    "pincode": "193121",
    "officename": "Ganasthan B.O",
    "officeType": "B.O",
    "Deliverystatus": "Delivery",
    "divisionname": "Baramulla",
    "regionname": "Srinagar HQ",
    "circlename": "Jammukashmir",
    "Taluk": "Pattan",
    "Districtname": "Baramulla",
    "statename": "JAMMU & KASHMIR"
  },
  {
    "pincode": "193121",
    "officename": "Goshbugh B.O",
    "officeType": "B.O",
    "Deliverystatus": "Delivery",
    "divisionname": "Baramulla",
    "regionname": "Srinagar HQ",
    "circlename": "Jammukashmir",
    "Taluk": "Pattan",
    "Districtname": "Baramulla",
    "statename": "JAMMU & KASHMIR"
  },
  {
    "pincode": "193121",
    "officename": "Gund Ibrahim B.O",
    "officeType": "B.O",
    "Deliverystatus": "Delivery",
    "divisionname": "Baramulla",
    "regionname": "Srinagar HQ",
    "circlename": "Jammukashmir",
    "Taluk": "Pattan",
    "Districtname": "Baramulla",
    "statename": "JAMMU & KASHMIR"
  },
  {
    "pincode": "193121",
    "officename": "Hanjiwera B.O",
    "officeType": "B.O",
    "Deliverystatus": "Delivery",
    "divisionname": "Baramulla",
    "regionname": "Srinagar HQ",
    "circlename": "Jammukashmir",
    "Taluk": "Pattan",
    "Districtname": "Baramulla",
    "statename": "JAMMU & KASHMIR"
  },
  {
    "pincode": "193121",
    "officename": "Khanpeth B.O",
    "officeType": "B.O",
    "Deliverystatus": "Delivery",
    "divisionname": "Baramulla",
    "regionname": "Srinagar HQ",
    "circlename": "Jammukashmir",
    "Taluk": "Pattan",
    "Districtname": "Baramulla",
    "statename": "JAMMU & KASHMIR"
  },
  {
    "pincode": "193121",
    "officename": "Khore B.O",
    "officeType": "B.O",
    "Deliverystatus": "Delivery",
    "divisionname": "Baramulla",
    "regionname": "Srinagar HQ",
    "circlename": "Jammukashmir",
    "Taluk": "Pattan",
    "Districtname": "Baramulla",
    "statename": "JAMMU & KASHMIR"
  },
  {
    "pincode": "193121",
    "officename": "Lalpora Bangil B.O",
    "officeType": "B.O",
    "Deliverystatus": "Delivery",
    "divisionname": "Baramulla",
    "regionname": "Srinagar HQ",
    "circlename": "Jammukashmir",
    "Taluk": "Pattan",
    "Districtname": "Baramulla",
    "statename": "JAMMU & KASHMIR"
  },
  {
    "pincode": "193121",
    "officename": "Mamoosa B.O",
    "officeType": "B.O",
    "Deliverystatus": "Delivery",
    "divisionname": "Baramulla",
    "regionname": "Srinagar HQ",
    "circlename": "Jammukashmir",
    "Taluk": "Pattan",
    "Districtname": "Baramulla",
    "statename": "JAMMU & KASHMIR"
  },
  {
    "pincode": "193121",
    "officename": "Matipora B.O",
    "officeType": "B.O",
    "Deliverystatus": "Delivery",
    "divisionname": "Baramulla",
    "regionname": "Srinagar HQ",
    "circlename": "Jammukashmir",
    "Taluk": "Pattan",
    "Districtname": "Baramulla",
    "statename": "JAMMU & KASHMIR"
  },
  {
    "pincode": "193121",
    "officename": "Mirgund B.O",
    "officeType": "B.O",
    "Deliverystatus": "Delivery",
    "divisionname": "Baramulla",
    "regionname": "Srinagar HQ",
    "circlename": "Jammukashmir",
    "Taluk": "Pattan",
    "Districtname": "Baramulla",
    "statename": "JAMMU & KASHMIR"
  },
  {
    "pincode": "193121",
    "officename": "Nehalpora B.O",
    "officeType": "B.O",
    "Deliverystatus": "Delivery",
    "divisionname": "Baramulla",
    "regionname": "Srinagar HQ",
    "circlename": "Jammukashmir",
    "Taluk": "Pattan",
    "Districtname": "Baramulla",
    "statename": "JAMMU & KASHMIR"
  },
  {
    "pincode": "193121",
    "officename": "Palhallan B.O",
    "officeType": "B.O",
    "Deliverystatus": "Delivery",
    "divisionname": "Baramulla",
    "regionname": "Srinagar HQ",
    "circlename": "Jammukashmir",
    "Taluk": "Pattan",
    "Districtname": "Baramulla",
    "statename": "JAMMU & KASHMIR"
  },
  {
    "pincode": "193121",
    "officename": "Pattan S.O",
    "officeType": "S.O",
    "Deliverystatus": "Delivery",
    "divisionname": "Baramulla",
    "regionname": "Srinagar HQ",
    "circlename": "Jammukashmir",
    "Taluk": "Pattan",
    "Districtname": "Baramulla",
    "statename": "JAMMU & KASHMIR"
  },
  {
    "pincode": "193121",
    "officename": "Seru Dangerpora B.O",
    "officeType": "B.O",
    "Deliverystatus": "Delivery",
    "divisionname": "Baramulla",
    "regionname": "Srinagar HQ",
    "circlename": "Jammukashmir",
    "Taluk": "Pattan",
    "Districtname": "Baramulla",
    "statename": "JAMMU & KASHMIR"
  },
  {
    "pincode": "193121",
    "officename": "Shirpora Bangil B.O",
    "officeType": "B.O",
    "Deliverystatus": "Delivery",
    "divisionname": "Baramulla",
    "regionname": "Srinagar HQ",
    "circlename": "Jammukashmir",
    "Taluk": "Pattan",
    "Districtname": "Baramulla",
    "statename": "JAMMU & KASHMIR"
  },
  {
    "pincode": "193121",
    "officename": "Singhpora B.O",
    "officeType": "B.O",
    "Deliverystatus": "Delivery",
    "divisionname": "Baramulla",
    "regionname": "Srinagar HQ",
    "circlename": "Jammukashmir",
    "Taluk": "Pattan",
    "Districtname": "Baramulla",
    "statename": "JAMMU & KASHMIR"
  },
  {
    "pincode": "193121",
    "officename": "Tapper Waripora B.O",
    "officeType": "B.O",
    "Deliverystatus": "Delivery",
    "divisionname": "Baramulla",
    "regionname": "Srinagar HQ",
    "circlename": "Jammukashmir",
    "Taluk": "Pattan",
    "Districtname": "Baramulla",
    "statename": "JAMMU & KASHMIR"
  },
  {
    "pincode": "193121",
    "officename": "Yal B.O",
    "officeType": "B.O",
    "Deliverystatus": "Delivery",
    "divisionname": "Baramulla",
    "regionname": "Srinagar HQ",
    "circlename": "Jammukashmir",
    "Taluk": "Pattan",
    "Districtname": "Baramulla",
    "statename": "JAMMU & KASHMIR"
  }
]
