[
  {
    "pincode": "193101",
    "officename": "Baramulla H.O",
    "officeType": "H.O",
    "Deliverystatus": "Delivery",
    "divisionname": "Baramulla",
    "regionname": "Srinagar HQ",
    "circlename": "Jammukashmir",
    "Taluk": "Baramulla",
    "Districtname": "Baramulla",
    "statename": "JAMMU & KASHMIR"
  },
  {
    "pincode": "193101",
    "officename": "Chandooda B.O",
    "officeType": "B.O",
    "Deliverystatus": "Delivery",
    "divisionname": "Baramulla",
    "regionname": "Srinagar HQ",
    "circlename": "Jammukashmir",
    "Taluk": "Baramulla",
    "Districtname": "Baramulla",
    "statename": "JAMMU & KASHMIR"
  },
  {
    "pincode": "193101",
    "officename": "Gantmulla B.O",
    "officeType": "B.O",
    "Deliverystatus": "Delivery",
    "divisionname": "Baramulla",
    "regionname": "Srinagar HQ",
    "circlename": "Jammukashmir",
    "Taluk": "Baramulla",
    "Districtname": "Baramulla",
    "statename": "JAMMU & KASHMIR"
  },
  {
    "pincode": "193101",
    "officename": "Gohan B.O",
    "officeType": "B.O",
    "Deliverystatus": "Delivery",
    "divisionname": "Baramulla",
    "regionname": "Srinagar HQ",
    "circlename": "Jammukashmir",
    "Taluk": "Baramulla",
    "Districtname": "Baramulla",
    "statename": "JAMMU & KASHMIR"
  },
  {
    "pincode": "193101",
    "officename": "Heavan B.O",
    "officeType": "B.O",
    "Deliverystatus": "Delivery",
    "divisionname": "Baramulla",
    "regionname": "Srinagar HQ",
    "circlename": "Jammukashmir",
    "Taluk": "Baramulla",
    "Districtname": "Baramulla",
    "statename": "JAMMU & KASHMIR"
  },
  {
    "pincode": "193101",
    "officename": "Kachawa Muqam B.O",
    "officeType": "B.O",
    "Deliverystatus": "Delivery",
    "divisionname": "Baramulla",
    "regionname": "Srinagar HQ",
    "circlename": "Jammukashmir",
    "Taluk": "Baramulla",
    "Districtname": "Baramulla",
    "statename": "JAMMU & KASHMIR"
  },
  {
    "pincode": "193101",
    "officename": "Kalantra B.O",
    "officeType": "B.O",
    "Deliverystatus": "Delivery",
    "divisionname": "Baramulla",
    "regionname": "Srinagar HQ",
    "circlename": "Jammukashmir",
    "Taluk": "Baramulla",
    "Districtname": "Baramulla",
    "statename": "JAMMU & KASHMIR"
  },
  {
    "pincode": "193101",
    "officename": "Khadnyar B.O",
    "officeType": "B.O",
    "Deliverystatus": "Delivery",
    "divisionname": "Baramulla",
    "regionname": "Srinagar HQ",
    "circlename": "Jammukashmir",
    "Taluk": "Baramulla",
    "Districtname": "Baramulla",
    "statename": "JAMMU & KASHMIR"
  },
  {
    "pincode": "193101",
    "officename": "Khanpora B.O",
    "officeType": "B.O",
    "Deliverystatus": "Delivery",
    "divisionname": "Baramulla",
    "regionname": "Srinagar HQ",
    "circlename": "Jammukashmir",
    "Taluk": "Baramulla",
    "Districtname": "Baramulla",
    "statename": "JAMMU & KASHMIR"
  },
  {
    "pincode": "193101",
    "officename": "Laridora B.O",
    "officeType": "B.O",
    "Deliverystatus": "Delivery",
    "divisionname": "Baramulla",
    "regionname": "Srinagar HQ",
    "circlename": "Jammukashmir",
    "Taluk": "Baramulla",
    "Districtname": "Baramulla",
    "statename": "JAMMU & KASHMIR"
  },
  {
    "pincode": "193101",
    "officename": "Malpora B.O",
    "officeType": "B.O",
    "Deliverystatus": "Delivery",
    "divisionname": "Baramulla",
    "regionname": "Srinagar HQ",
    "circlename": "Jammukashmir",
    "Taluk": "Baramulla",
    "Districtname": "Baramulla",
    "statename": "JAMMU & KASHMIR"
  },
  {
    "pincode": "193101",
    "officename": "Rajghat B.O",
    "officeType": "B.O",
    "Deliverystatus": "Non-Delivery",
    "divisionname": "Baramulla",
    "regionname": "Srinagar HQ",
    "circlename": "Jammukashmir",
    "Taluk": "Baramulla",
    "Districtname": "Baramulla",
    "statename": "JAMMU & KASHMIR"
  },
  {
    "pincode": "193101",
    "officename": "Shree B.O",
    "officeType": "B.O",
    "Deliverystatus": "Delivery",
    "divisionname": "Baramulla",
    "regionname": "Srinagar HQ",
    "circlename": "Jammukashmir",
    "Taluk": "Baramulla",
    "Districtname": "Baramulla",
    "statename": "JAMMU & KASHMIR"
  },
  {
    "pincode": "193101",
    "officename": "Sultanpora B.O",
    "officeType": "B.O",
    "Deliverystatus": "Delivery",
    "divisionname": "Baramulla",
    "regionname": "Srinagar HQ",
    "circlename": "Jammukashmir",
    "Taluk": "Bandipora",
    "Districtname": "Baramulla",
    "statename": "JAMMU & KASHMIR"
  },
  {
    "pincode": "193101",
    "officename": "Ushukura B.O",
    "officeType": "B.O",
    "Deliverystatus": "Delivery",
    "divisionname": "Baramulla",
    "regionname": "Srinagar HQ",
    "circlename": "Jammukashmir",
    "Taluk": "Baramulla",
    "Districtname": "Baramulla",
    "statename": "JAMMU & KASHMIR"
  }
]
