[
  {
    "pincode": "193221",
    "officename": "Chowgal B.O",
    "officeType": "B.O",
    "Deliverystatus": "Delivery",
    "divisionname": "Baramulla",
    "regionname": "Srinagar HQ",
    "circlename": "Jammukashmir",
    "Taluk": "Handwara",
    "Districtname": "Kupwara",
    "statename": "JAMMU & KASHMIR"
  },
  {
    "pincode": "193221",
    "officename": "Handwara S.O",
    "officeType": "S.O",
    "Deliverystatus": "Delivery",
    "divisionname": "Baramulla",
    "regionname": "Srinagar HQ",
    "circlename": "Jammukashmir",
    "Taluk": "Handwara",
    "Districtname": "Kupwara",
    "statename": "JAMMU & KASHMIR"
  },
  {
    "pincode": "193221",
    "officename": "Kandi B.O",
    "officeType": "B.O",
    "Deliverystatus": "Delivery",
    "divisionname": "Baramulla",
    "regionname": "Srinagar HQ",
    "circlename": "Jammukashmir",
    "Taluk": "Handwara",
    "Districtname": "Kupwara",
    "statename": "JAMMU & KASHMIR"
  },
  {
    "pincode": "193221",
    "officename": "Magam B.O",
    "officeType": "B.O",
    "Deliverystatus": "Delivery",
    "divisionname": "Baramulla",
    "regionname": "Srinagar HQ",
    "circlename": "Jammukashmir",
    "Taluk": "Handwara",
    "Districtname": "Kupwara",
    "statename": "JAMMU & KASHMIR"
  },
  {
    "pincode": "193221",
    "officename": "Natnusa B.O",
    "officeType": "B.O",
    "Deliverystatus": "Delivery",
    "divisionname": "Baramulla",
    "regionname": "Srinagar HQ",
    "circlename": "Jammukashmir",
    "Taluk": "Handwara",
    "Districtname": "Kupwara",
    "statename": "JAMMU & KASHMIR"
  },
  {
    "pincode": "193221",
    "officename": "Satkuji B.O",
    "officeType": "B.O",
    "Deliverystatus": "Delivery",
    "divisionname": "Baramulla",
    "regionname": "Srinagar HQ",
    "circlename": "Jammukashmir",
    "Taluk": "Handwara",
    "Districtname": "Kupwara",
    "statename": "JAMMU & KASHMIR"
  },
  {
    "pincode": "193221",
    "officename": "Shilhal B.O",
    "officeType": "B.O",
    "Deliverystatus": "Delivery",
    "divisionname": "Baramulla",
    "regionname": "Srinagar HQ",
    "circlename": "Jammukashmir",
    "Taluk": "Handwara",
    "Districtname": "Kupwara",
    "statename": "JAMMU & KASHMIR"
  },
  {
    "pincode": "193221",
    "officename": "Turkapora B.O",
    "officeType": "B.O",
    "Deliverystatus": "Delivery",
    "divisionname": "Baramulla",
    "regionname": "Srinagar HQ",
    "circlename": "Jammukashmir",
    "Taluk": "Handwara",
    "Districtname": "Kupwara",
    "statename": "JAMMU & KASHMIR"
  },
  {
    "pincode": "193221",
    "officename": "Wader Nichama B.O",
    "officeType": "B.O",
    "Deliverystatus": "Delivery",
    "divisionname": "Baramulla",
    "regionname": "Srinagar HQ",
    "circlename": "Jammukashmir",
    "Taluk": "Handwara",
    "Districtname": "Kupwara",
    "statename": "JAMMU & KASHMIR"
  },
  {
    "pincode": "193221",
    "officename": "Wadipora B.O",
    "officeType": "B.O",
    "Deliverystatus": "Delivery",
    "divisionname": "Baramulla",
    "regionname": "Srinagar HQ",
    "circlename": "Jammukashmir",
    "Taluk": "Handwara",
    "Districtname": "Kupwara",
    "statename": "JAMMU & KASHMIR"
  },
  {
    "pincode": "193221",
    "officename": "Wagat B.O",
    "officeType": "B.O",
    "Deliverystatus": "Delivery",
    "divisionname": "Baramulla",
    "regionname": "Srinagar HQ",
    "circlename": "Jammukashmir",
    "Taluk": "Hadwara",
    "Districtname": "Kupwara",
    "statename": "JAMMU & KASHMIR"
  },
  {
    "pincode": "193221",
    "officename": "Zachaldara B.O",
    "officeType": "B.O",
    "Deliverystatus": "Delivery",
    "divisionname": "Baramulla",
    "regionname": "Srinagar HQ",
    "circlename": "Jammukashmir",
    "Taluk": "Handwara",
    "Districtname": "Kupwara",
    "statename": "JAMMU & KASHMIR"
  }
]
