[
  {
    "pincode": "193223",
    "officename": "Chandigam B.O",
    "officeType": "B.O",
    "Deliverystatus": "Delivery",
    "divisionname": "Baramulla",
    "regionname": "Srinagar HQ",
    "circlename": "Jammukashmir",
    "Taluk": "Sogam",
    "Districtname": "Kupwara",
    "statename": "JAMMU & KASHMIR"
  },
  {
    "pincode": "193223",
    "officename": "Cheerkoot B.O",
    "officeType": "B.O",
    "Deliverystatus": "Delivery",
    "divisionname": "Baramulla",
    "regionname": "Srinagar HQ",
    "circlename": "Jammukashmir",
    "Taluk": "Sogam",
    "Districtname": "Kupwara",
    "statename": "JAMMU & KASHMIR"
  },
  {
    "pincode": "193223",
    "officename": "Dardpora B.O",
    "officeType": "B.O",
    "Deliverystatus": "Delivery",
    "divisionname": "Baramulla",
    "regionname": "Srinagar HQ",
    "circlename": "Jammukashmir",
    "Taluk": "Sogam",
    "Districtname": "Kupwara",
    "statename": "JAMMU & KASHMIR"
  },
  {
    "pincode": "193223",
    "officename": "Dever Inderbugh B.O",
    "officeType": "B.O",
    "Deliverystatus": "Delivery",
    "divisionname": "Baramulla",
    "regionname": "Srinagar HQ",
    "circlename": "Jammukashmir",
    "Taluk": "Sogam",
    "Districtname": "Kupwara",
    "statename": "JAMMU & KASHMIR"
  },
  {
    "pincode": "193223",
    "officename": "Gogal B.O",
    "officeType": "B.O",
    "Deliverystatus": "Delivery",
    "divisionname": "Baramulla",
    "regionname": "Srinagar HQ",
    "circlename": "Jammukashmir",
    "Taluk": "Sogam",
    "Districtname": "Kupwara",
    "statename": "JAMMU & KASHMIR"
  },
  {
    "pincode": "193223",
    "officename": "Krusan B.O",
    "officeType": "B.O",
    "Deliverystatus": "Delivery",
    "divisionname": "Baramulla",
    "regionname": "Srinagar HQ",
    "circlename": "Jammukashmir",
    "Taluk": "Sogam",
    "Districtname": "Kupwara",
    "statename": "JAMMU & KASHMIR"
  },
  {
    "pincode": "193223",
    "officename": "Kuligam B.O",
    "officeType": "B.O",
    "Deliverystatus": "Delivery",
    "divisionname": "Baramulla",
    "regionname": "Srinagar HQ",
    "circlename": "Jammukashmir",
    "Taluk": "Sogam",
    "Districtname": "Kupwara",
    "statename": "JAMMU & KASHMIR"
  },
  {
    "pincode": "193223",
    "officename": "Lalpora B.O",
    "officeType": "B.O",
    "Deliverystatus": "Delivery",
    "divisionname": "Baramulla",
    "regionname": "Srinagar HQ",
    "circlename": "Jammukashmir",
    "Taluk": "Sogam",
    "Districtname": "Kupwara",
    "statename": "JAMMU & KASHMIR"
  },
  {
    "pincode": "193223",
    "officename": "Maidanpora B.O",
    "officeType": "B.O",
    "Deliverystatus": "Delivery",
    "divisionname": "Baramulla",
    "regionname": "Srinagar HQ",
    "circlename": "Jammukashmir",
    "Taluk": "Sogam",
    "Districtname": "Kupwara",
    "statename": "JAMMU & KASHMIR"
  },
  {
    "pincode": "193223",
    "officename": "Putushay B.O",
    "officeType": "B.O",
    "Deliverystatus": "Delivery",
    "divisionname": "Baramulla",
    "regionname": "Srinagar HQ",
    "circlename": "Jammukashmir",
    "Taluk": "Sogam",
    "Districtname": "Kupwara",
    "statename": "JAMMU & KASHMIR"
  },
  {
    "pincode": "193223",
    "officename": "Sogam S.O",
    "officeType": "S.O",
    "Deliverystatus": "Delivery",
    "divisionname": "Baramulla",
    "regionname": "Srinagar HQ",
    "circlename": "Jammukashmir",
    "Taluk": "Kupwara",
    "Districtname": "Kupwara",
    "statename": "JAMMU & KASHMIR"
  },
  {
    "pincode": "193223",
    "officename": "Tekipora B.O",
    "officeType": "B.O",
    "Deliverystatus": "Delivery",
    "divisionname": "Baramulla",
    "regionname": "Srinagar HQ",
    "circlename": "Jammukashmir",
    "Taluk": "Sogam",
    "Districtname": "Kupwara",
    "statename": "JAMMU & KASHMIR"
  },
  {
    "pincode": "193223",
    "officename": "Vernow B.O",
    "officeType": "B.O",
    "Deliverystatus": "Delivery",
    "divisionname": "Baramulla",
    "regionname": "Srinagar HQ",
    "circlename": "Jammukashmir",
    "Taluk": "Sogam",
    "Districtname": "Kupwara",
    "statename": "JAMMU & KASHMIR"
  }
]
