[
  {
    "pincode": "193202",
    "officename": "Bulgam B.O",
    "officeType": "B.O",
    "Deliverystatus": "Delivery",
    "divisionname": "Baramulla",
    "regionname": "Srinagar HQ",
    "circlename": "Jammukashmir",
    "Taluk": "Sopore",
    "Districtname": "Baramulla",
    "statename": "JAMMU & KASHMIR"
  },
  {
    "pincode": "193202",
    "officename": "Haigam B.O",
    "officeType": "B.O",
    "Deliverystatus": "Delivery",
    "divisionname": "Baramulla",
    "regionname": "Srinagar HQ",
    "circlename": "Jammukashmir",
    "Taluk": "Sopore",
    "Districtname": "Baramulla",
    "statename": "JAMMU & KASHMIR"
  },
  {
    "pincode": "193202",
    "officename": "Jamia Qadim B.O",
    "officeType": "B.O",
    "Deliverystatus": "Non-Delivery",
    "divisionname": "Baramulla",
    "regionname": "Srinagar HQ",
    "circlename": "Jammukashmir",
    "Taluk": "Sopore",
    "Districtname": "Baramulla",
    "statename": "JAMMU & KASHMIR"
  },
  {
    "pincode": "193202",
    "officename": "Krankshivam B.O",
    "officeType": "B.O",
    "Deliverystatus": "Delivery",
    "divisionname": "Baramulla",
    "regionname": "Srinagar HQ",
    "circlename": "Jammukashmir",
    "Taluk": "Sopore",
    "Districtname": "Baramulla",
    "statename": "JAMMU & KASHMIR"
  },
  {
    "pincode": "193202",
    "officename": "Met , Sopore S.O",
    "officeType": "S.O",
    "Deliverystatus": "Delivery",
    "divisionname": "Baramulla",
    "regionname": "Srinagar HQ",
    "circlename": "Jammukashmir",
    "Taluk": "Sopore",
    "Districtname": "Baramulla",
    "statename": "JAMMU & KASHMIR"
  },
  {
    "pincode": "193202",
    "officename": "Sangrama B.O",
    "officeType": "B.O",
    "Deliverystatus": "Delivery",
    "divisionname": "Baramulla",
    "regionname": "Srinagar HQ",
    "circlename": "Jammukashmir",
    "Taluk": "Sopore",
    "Districtname": "Baramulla",
    "statename": "JAMMU & KASHMIR"
  },
  {
    "pincode": "193202",
    "officename": "Seer B.O",
    "officeType": "B.O",
    "Deliverystatus": "Delivery",
    "divisionname": "Baramulla",
    "regionname": "Srinagar HQ",
    "circlename": "Jammukashmir",
    "Taluk": "Sopore",
    "Districtname": "Baramulla",
    "statename": "JAMMU & KASHMIR"
  },
  {
    "pincode": "193202",
    "officename": "Tarzoo B.O",
    "officeType": "B.O",
    "Deliverystatus": "Delivery",
    "divisionname": "Baramulla",
    "regionname": "Srinagar HQ",
    "circlename": "Jammukashmir",
    "Taluk": "Uri",
    "Districtname": "Baramulla",
    "statename": "JAMMU & KASHMIR"
  }
]
