[
  {
    "pincode": "193501",
    "officename": "Amchikundal B.O",
    "officeType": "B.O",
    "Deliverystatus": "Delivery",
    "divisionname": "Baramulla",
    "regionname": "Srinagar HQ",
    "circlename": "Jammukashmir",
    "Taluk": "Sonawari",
    "Districtname": "Baramulla",
    "statename": "JAMMU & KASHMIR"
  },
  {
    "pincode": "193501",
    "officename": "Batvina B.O",
    "officeType": "B.O",
    "Deliverystatus": "Delivery",
    "divisionname": "Baramulla",
    "regionname": "Srinagar HQ",
    "circlename": "Jammukashmir",
    "Taluk": "Sonawari",
    "Districtname": "Baramulla",
    "statename": "JAMMU & KASHMIR"
  },
  {
    "pincode": "193501",
    "officename": "Gund Jahangir B.O",
    "officeType": "B.O",
    "Deliverystatus": "Delivery",
    "divisionname": "Baramulla",
    "regionname": "Srinagar HQ",
    "circlename": "Jammukashmir",
    "Taluk": "Sonawari",
    "Districtname": "Baramulla",
    "statename": "JAMMU & KASHMIR"
  },
  {
    "pincode": "193501",
    "officename": "Hajin B.O",
    "officeType": "B.O",
    "Deliverystatus": "Delivery",
    "divisionname": "Baramulla",
    "regionname": "Srinagar HQ",
    "circlename": "Jammukashmir",
    "Taluk": "Sonawari",
    "Districtname": "Baramulla",
    "statename": "JAMMU & KASHMIR"
  },
  {
    "pincode": "193501",
    "officename": "Madwan B.O",
    "officeType": "B.O",
    "Deliverystatus": "Delivery",
    "divisionname": "Baramulla",
    "regionname": "Srinagar HQ",
    "circlename": "Jammukashmir",
    "Taluk": "Sonawari",
    "Districtname": "Baramulla",
    "statename": "JAMMU & KASHMIR"
  },
  {
    "pincode": "193501",
    "officename": "Naidkhai B.O",
    "officeType": "B.O",
    "Deliverystatus": "Delivery",
    "divisionname": "Baramulla",
    "regionname": "Srinagar HQ",
    "circlename": "Jammukashmir",
    "Taluk": "Sonawari",
    "Districtname": "Baramulla",
    "statename": "JAMMU & KASHMIR"
  },
  {
    "pincode": "193501",
    "officename": "Nesbal B.O",
    "officeType": "B.O",
    "Deliverystatus": "Delivery",
    "divisionname": "Baramulla",
    "regionname": "Srinagar HQ",
    "circlename": "Jammukashmir",
    "Taluk": "Sonawari",
    "Districtname": "Baramulla",
    "statename": "JAMMU & KASHMIR"
  },
  {
    "pincode": "193501",
    "officename": "Nowgam B.O",
    "officeType": "B.O",
    "Deliverystatus": "Delivery",
    "divisionname": "Baramulla",
    "regionname": "Srinagar HQ",
    "circlename": "Jammukashmir",
    "Taluk": "Sonawari",
    "Districtname": "Baramulla",
    "statename": "JAMMU & KASHMIR"
  },
  {
    "pincode": "193501",
    "officename": "Panzinara B.O",
    "officeType": "B.O",
    "Deliverystatus": "Delivery",
    "divisionname": "Baramulla",
    "regionname": "Srinagar HQ",
    "circlename": "Jammukashmir",
    "Taluk": "Sonawari",
    "Districtname": "Baramulla",
    "statename": "JAMMU & KASHMIR"
  },
  {
    "pincode": "193501",
    "officename": "Shadipora B.O",
    "officeType": "B.O",
    "Deliverystatus": "Delivery",
    "divisionname": "Baramulla",
    "regionname": "Srinagar HQ",
    "circlename": "Jammukashmir",
    "Taluk": "Sonawari",
    "Districtname": "Baramulla",
    "statename": "JAMMU & KASHMIR"
  },
  {
    "pincode": "193501",
    "officename": "Shahgund B.O",
    "officeType": "B.O",
    "Deliverystatus": "Delivery",
    "divisionname": "Baramulla",
    "regionname": "Srinagar HQ",
    "circlename": "Jammukashmir",
    "Taluk": "Sonawari",
    "Districtname": "Baramulla",
    "statename": "JAMMU & KASHMIR"
  },
  {
    "pincode": "193501",
    "officename": "Sonawari S.O",
    "officeType": "S.O",
    "Deliverystatus": "Delivery",
    "divisionname": "Baramulla",
    "regionname": "Srinagar HQ",
    "circlename": "Jammukashmir",
    "Taluk": "Sonawari",
    "Districtname": "Baramulla",
    "statename": "JAMMU & KASHMIR"
  },
  {
    "pincode": "193501",
    "officename": "Sultanpora B.O",
    "officeType": "B.O",
    "Deliverystatus": "Delivery",
    "divisionname": "Baramulla",
    "regionname": "Srinagar HQ",
    "circlename": "Jammukashmir",
    "Taluk": "Sonawari",
    "Districtname": "Baramulla",
    "statename": "JAMMU & KASHMIR"
  }
]
