[
  {
    "pincode": "194101",
    "officename": "Bazgo B.O",
    "officeType": "B.O",
    "Deliverystatus": "Delivery",
    "divisionname": "Leh",
    "regionname": "Srinagar HQ",
    "circlename": "Jammukashmir",
    "Taluk": "Leh",
    "Districtname": "Leh",
    "statename": "JAMMU & KASHMIR"
  },
  {
    "pincode": "194101",
    "officename": "Chuchot Gongma B.O",
    "officeType": "B.O",
    "Deliverystatus": "Delivery",
    "divisionname": "Leh",
    "regionname": "Srinagar HQ",
    "circlename": "Jammukashmir",
    "Taluk": "Leh",
    "Districtname": "Leh",
    "statename": "JAMMU & KASHMIR"
  },
  {
    "pincode": "194101",
    "officename": "Chuchot Shama B.O",
    "officeType": "B.O",
    "Deliverystatus": "Delivery",
    "divisionname": "Leh",
    "regionname": "Srinagar HQ",
    "circlename": "Jammukashmir",
    "Taluk": "Leh",
    "Districtname": "Leh",
    "statename": "JAMMU & KASHMIR"
  },
  {
    "pincode": "194101",
    "officename": "Chuchot Yokma B.O",
    "officeType": "B.O",
    "Deliverystatus": "Delivery",
    "divisionname": "Leh",
    "regionname": "Srinagar HQ",
    "circlename": "Jammukashmir",
    "Taluk": "Leh",
    "Districtname": "Leh",
    "statename": "JAMMU & KASHMIR"
  },
  {
    "pincode": "194101",
    "officename": "Chuchul B.O",
    "officeType": "B.O",
    "Deliverystatus": "Delivery",
    "divisionname": "Leh",
    "regionname": "Srinagar HQ",
    "circlename": "Jammukashmir",
    "Taluk": "Leh",
    "Districtname": "Leh",
    "statename": "JAMMU & KASHMIR"
  },
  {
    "pincode": "194101",
    "officename": "Durbuk B.O",
    "officeType": "B.O",
    "Deliverystatus": "Delivery",
    "divisionname": "Leh",
    "regionname": "Srinagar HQ",
    "circlename": "Jammukashmir",
    "Taluk": "Leh",
    "Districtname": "Leh",
    "statename": "JAMMU & KASHMIR"
  },
  {
    "pincode": "194101",
    "officename": "Faing B.O",
    "officeType": "B.O",
    "Deliverystatus": "Delivery",
    "divisionname": "Leh",
    "regionname": "Srinagar HQ",
    "circlename": "Jammukashmir",
    "Taluk": "Leh",
    "Districtname": "Leh",
    "statename": "JAMMU & KASHMIR"
  },
  {
    "pincode": "194101",
    "officename": "Horzey B.O",
    "officeType": "B.O",
    "Deliverystatus": "Delivery",
    "divisionname": "Leh",
    "regionname": "Srinagar HQ",
    "circlename": "Jammukashmir",
    "Taluk": "Leh",
    "Districtname": "Leh",
    "statename": "JAMMU & KASHMIR"
  },
  {
    "pincode": "194101",
    "officename": "Leh City S.O",
    "officeType": "S.O",
    "Deliverystatus": "Non-Delivery",
    "divisionname": "Leh",
    "regionname": "Srinagar HQ",
    "circlename": "Jammukashmir",
    "Taluk": "",
    "Districtname": "Leh",
    "statename": "JAMMU & KASHMIR"
  },
  {
    "pincode": "194101",
    "officename": "Leh H.O",
    "officeType": "H.O",
    "Deliverystatus": "Delivery",
    "divisionname": "Leh",
    "regionname": "Srinagar HQ",
    "circlename": "Jammukashmir",
    "Taluk": "Ladakh",
    "Districtname": "Leh",
    "statename": "JAMMU & KASHMIR"
  },
  {
    "pincode": "194101",
    "officename": "Matho B.O",
    "officeType": "B.O",
    "Deliverystatus": "Delivery",
    "divisionname": "Leh",
    "regionname": "Srinagar HQ",
    "circlename": "Jammukashmir",
    "Taluk": "Leh",
    "Districtname": "Leh",
    "statename": "JAMMU & KASHMIR"
  },
  {
    "pincode": "194101",
    "officename": "Ney B.O",
    "officeType": "B.O",
    "Deliverystatus": "Delivery",
    "divisionname": "Leh",
    "regionname": "Srinagar HQ",
    "circlename": "Jammukashmir",
    "Taluk": "Leh",
    "Districtname": "Leh",
    "statename": "JAMMU & KASHMIR"
  },
  {
    "pincode": "194101",
    "officename": "Nomoo B.O",
    "officeType": "B.O",
    "Deliverystatus": "Delivery",
    "divisionname": "Leh",
    "regionname": "Srinagar HQ",
    "circlename": "Jammukashmir",
    "Taluk": "Leh",
    "Districtname": "Leh",
    "statename": "JAMMU & KASHMIR"
  },
  {
    "pincode": "194101",
    "officename": "Nyoma B.O",
    "officeType": "B.O",
    "Deliverystatus": "Delivery",
    "divisionname": "Leh",
    "regionname": "Srinagar HQ",
    "circlename": "Jammukashmir",
    "Taluk": "Leh",
    "Districtname": "Leh",
    "statename": "JAMMU & KASHMIR"
  },
  {
    "pincode": "194101",
    "officename": "Spituk B.O",
    "officeType": "B.O",
    "Deliverystatus": "Delivery",
    "divisionname": "Leh",
    "regionname": "Srinagar HQ",
    "circlename": "Jammukashmir",
    "Taluk": "Leh",
    "Districtname": "Leh",
    "statename": "JAMMU & KASHMIR"
  },
  {
    "pincode": "194101",
    "officename": "Stok B.O",
    "officeType": "B.O",
    "Deliverystatus": "Delivery",
    "divisionname": "Leh",
    "regionname": "Srinagar HQ",
    "circlename": "Jammukashmir",
    "Taluk": "Leh",
    "Districtname": "Leh",
    "statename": "JAMMU & KASHMIR"
  }
]
