[
  {
    "pincode": "194106",
    "officename": "Alchi B.O",
    "officeType": "B.O",
    "Deliverystatus": "Delivery",
    "divisionname": "Leh",
    "regionname": "Srinagar HQ",
    "circlename": "Jammukashmir",
    "Taluk": "Leh",
    "Districtname": "Leh",
    "statename": "JAMMU & KASHMIR"
  },
  {
    "pincode": "194106",
    "officename": "Biama B.O",
    "officeType": "B.O",
    "Deliverystatus": "Delivery",
    "divisionname": "Leh",
    "regionname": "Srinagar HQ",
    "circlename": "Jammukashmir",
    "Taluk": "Leh",
    "Districtname": "Leh",
    "statename": "JAMMU & KASHMIR"
  },
  {
    "pincode": "194106",
    "officename": "Dumkhar B.O",
    "officeType": "B.O",
    "Deliverystatus": "Delivery",
    "divisionname": "Leh",
    "regionname": "Srinagar HQ",
    "circlename": "Jammukashmir",
    "Taluk": "L:eh",
    "Districtname": "Leh",
    "statename": "JAMMU & KASHMIR"
  },
  {
    "pincode": "194106",
    "officename": "Hanoo B.O",
    "officeType": "B.O",
    "Deliverystatus": "Delivery",
    "divisionname": "Leh",
    "regionname": "Srinagar HQ",
    "circlename": "Jammukashmir",
    "Taluk": "Leh",
    "Districtname": "Leh",
    "statename": "JAMMU & KASHMIR"
  },
  {
    "pincode": "194106",
    "officename": "Hemis Shukpacahan B.O",
    "officeType": "B.O",
    "Deliverystatus": "Delivery",
    "divisionname": "Leh",
    "regionname": "Srinagar HQ",
    "circlename": "Jammukashmir",
    "Taluk": "Leh",
    "Districtname": "Leh",
    "statename": "JAMMU & KASHMIR"
  },
  {
    "pincode": "194106",
    "officename": "Khalsi S.O",
    "officeType": "S.O",
    "Deliverystatus": "Delivery",
    "divisionname": "Leh",
    "regionname": "Srinagar HQ",
    "circlename": "Jammukashmir",
    "Taluk": "Khalsi",
    "Districtname": "Leh",
    "statename": "JAMMU & KASHMIR"
  },
  {
    "pincode": "194106",
    "officename": "Lamayuru B.O",
    "officeType": "B.O",
    "Deliverystatus": "Delivery",
    "divisionname": "Leh",
    "regionname": "Srinagar HQ",
    "circlename": "Jammukashmir",
    "Taluk": "Leh",
    "Districtname": "Leh",
    "statename": "JAMMU & KASHMIR"
  },
  {
    "pincode": "194106",
    "officename": "Likir B.O",
    "officeType": "B.O",
    "Deliverystatus": "Delivery",
    "divisionname": "Leh",
    "regionname": "Srinagar HQ",
    "circlename": "Jammukashmir",
    "Taluk": "Leh",
    "Districtname": "Leh",
    "statename": "JAMMU & KASHMIR"
  },
  {
    "pincode": "194106",
    "officename": "Nurla B.O",
    "officeType": "B.O",
    "Deliverystatus": "Delivery",
    "divisionname": "Leh",
    "regionname": "Srinagar HQ",
    "circlename": "Jammukashmir",
    "Taluk": "Leh",
    "Districtname": "Leh",
    "statename": "JAMMU & KASHMIR"
  },
  {
    "pincode": "194106",
    "officename": "Sasapol B.O",
    "officeType": "B.O",
    "Deliverystatus": "Delivery",
    "divisionname": "Leh",
    "regionname": "Srinagar HQ",
    "circlename": "Jammukashmir",
    "Taluk": "Leh",
    "Districtname": "Leh",
    "statename": "JAMMU & KASHMIR"
  },
  {
    "pincode": "194106",
    "officename": "Skurbuchan B.O",
    "officeType": "B.O",
    "Deliverystatus": "Delivery",
    "divisionname": "Leh",
    "regionname": "Srinagar HQ",
    "circlename": "Jammukashmir",
    "Taluk": "Leh",
    "Districtname": "Leh",
    "statename": "JAMMU & KASHMIR"
  },
  {
    "pincode": "194106",
    "officename": "Takmachik B.O",
    "officeType": "B.O",
    "Deliverystatus": "Delivery",
    "divisionname": "Leh",
    "regionname": "Srinagar HQ",
    "circlename": "Jammukashmir",
    "Taluk": "Leh",
    "Districtname": "Leh",
    "statename": "JAMMU & KASHMIR"
  },
  {
    "pincode": "194106",
    "officename": "Temisgam B.O",
    "officeType": "B.O",
    "Deliverystatus": "Delivery",
    "divisionname": "Leh",
    "regionname": "Srinagar HQ",
    "circlename": "Jammukashmir",
    "Taluk": "Leh",
    "Districtname": "Leh",
    "statename": "JAMMU & KASHMIR"
  },
  {
    "pincode": "194106",
    "officename": "Tia B.O",
    "officeType": "B.O",
    "Deliverystatus": "Delivery",
    "divisionname": "Leh",
    "regionname": "Srinagar HQ",
    "circlename": "Jammukashmir",
    "Taluk": "Leh",
    "Districtname": "Leh",
    "statename": "JAMMU & KASHMIR"
  },
  {
    "pincode": "194106",
    "officename": "Wanla B.O",
    "officeType": "B.O",
    "Deliverystatus": "Delivery",
    "divisionname": "Leh",
    "regionname": "Srinagar HQ",
    "circlename": "Jammukashmir",
    "Taluk": "Leh",
    "Districtname": "Leh",
    "statename": "JAMMU & KASHMIR"
  }
]
