[
  {
    "pincode": "194201",
    "officename": "Chamray B.O",
    "officeType": "B.O",
    "Deliverystatus": "Delivery",
    "divisionname": "Leh",
    "regionname": "Srinagar HQ",
    "circlename": "Jammukashmir",
    "Taluk": "Leh",
    "Districtname": "Leh",
    "statename": "JAMMU & KASHMIR"
  },
  {
    "pincode": "194201",
    "officename": "Chumathang B.O",
    "officeType": "B.O",
    "Deliverystatus": "Delivery",
    "divisionname": "Leh",
    "regionname": "Srinagar HQ",
    "circlename": "Jammukashmir",
    "Taluk": "Leh",
    "Districtname": "Leh",
    "statename": "JAMMU & KASHMIR"
  },
  {
    "pincode": "194201",
    "officename": "Gia Meru B.O",
    "officeType": "B.O",
    "Deliverystatus": "Delivery",
    "divisionname": "Leh",
    "regionname": "Srinagar HQ",
    "circlename": "Jammukashmir",
    "Taluk": "Leh",
    "Districtname": "Leh",
    "statename": "JAMMU & KASHMIR"
  },
  {
    "pincode": "194201",
    "officename": "Hemis Changa B.O",
    "officeType": "B.O",
    "Deliverystatus": "Delivery",
    "divisionname": "Leh",
    "regionname": "Srinagar HQ",
    "circlename": "Jammukashmir",
    "Taluk": "Leh",
    "Districtname": "Leh",
    "statename": "JAMMU & KASHMIR"
  },
  {
    "pincode": "194201",
    "officename": "Hemiya B.O",
    "officeType": "B.O",
    "Deliverystatus": "Delivery",
    "divisionname": "Leh",
    "regionname": "Srinagar HQ",
    "circlename": "Jammukashmir",
    "Taluk": "Leh",
    "Districtname": "Leh",
    "statename": "JAMMU & KASHMIR"
  },
  {
    "pincode": "194201",
    "officename": "Igoo B.O",
    "officeType": "B.O",
    "Deliverystatus": "Delivery",
    "divisionname": "Leh",
    "regionname": "Srinagar HQ",
    "circlename": "Jammukashmir",
    "Taluk": "Leh",
    "Districtname": "Leh",
    "statename": "JAMMU & KASHMIR"
  },
  {
    "pincode": "194201",
    "officename": "Kairay B.O",
    "officeType": "B.O",
    "Deliverystatus": "Delivery",
    "divisionname": "Leh",
    "regionname": "Srinagar HQ",
    "circlename": "Jammukashmir",
    "Taluk": "Leh",
    "Districtname": "Leh",
    "statename": "JAMMU & KASHMIR"
  },
  {
    "pincode": "194201",
    "officename": "Karoo B.O",
    "officeType": "B.O",
    "Deliverystatus": "Delivery",
    "divisionname": "Leh",
    "regionname": "Srinagar HQ",
    "circlename": "Jammukashmir",
    "Taluk": "Leh",
    "Districtname": "Leh",
    "statename": "JAMMU & KASHMIR"
  },
  {
    "pincode": "194201",
    "officename": "Kungyam B.O",
    "officeType": "B.O",
    "Deliverystatus": "Delivery",
    "divisionname": "Leh",
    "regionname": "Srinagar HQ",
    "circlename": "Jammukashmir",
    "Taluk": "Leh",
    "Districtname": "Leh",
    "statename": "JAMMU & KASHMIR"
  },
  {
    "pincode": "194201",
    "officename": "Sakti B.O",
    "officeType": "B.O",
    "Deliverystatus": "Delivery",
    "divisionname": "Leh",
    "regionname": "Srinagar HQ",
    "circlename": "Jammukashmir",
    "Taluk": "Leh",
    "Districtname": "Leh",
    "statename": "JAMMU & KASHMIR"
  },
  {
    "pincode": "194201",
    "officename": "Shara B.O",
    "officeType": "B.O",
    "Deliverystatus": "Delivery",
    "divisionname": "Leh",
    "regionname": "Srinagar HQ",
    "circlename": "Jammukashmir",
    "Taluk": "Leh",
    "Districtname": "Leh",
    "statename": "JAMMU & KASHMIR"
  },
  {
    "pincode": "194201",
    "officename": "Shey B.O",
    "officeType": "B.O",
    "Deliverystatus": "Delivery",
    "divisionname": "Leh",
    "regionname": "Srinagar HQ",
    "circlename": "Jammukashmir",
    "Taluk": "Leh",
    "Districtname": "Leh",
    "statename": "JAMMU & KASHMIR"
  },
  {
    "pincode": "194201",
    "officename": "Thiksay S.O",
    "officeType": "S.O",
    "Deliverystatus": "Delivery",
    "divisionname": "Leh",
    "regionname": "Srinagar HQ",
    "circlename": "Jammukashmir",
    "Taluk": "Leh",
    "Districtname": "Leh",
    "statename": "JAMMU & KASHMIR"
  }
]
