[
  {
    "pincode": "194301",
    "officename": "Barsoo B.O",
    "officeType": "B.O",
    "Deliverystatus": "Delivery",
    "divisionname": "Leh",
    "regionname": "Srinagar HQ",
    "circlename": "Jammukashmir",
    "Taluk": "Kargil",
    "Districtname": "Kargil",
    "statename": "JAMMU & KASHMIR"
  },
  {
    "pincode": "194301",
    "officename": "Khasgam Thuina B.O",
    "officeType": "B.O",
    "Deliverystatus": "Delivery",
    "divisionname": "Leh",
    "regionname": "Srinagar HQ",
    "circlename": "Jammukashmir",
    "Taluk": "Kargil Kargil",
    "Districtname": "Kargil",
    "statename": "JAMMU & KASHMIR"
  },
  {
    "pincode": "194301",
    "officename": "Lankarchey B.O",
    "officeType": "B.O",
    "Deliverystatus": "Delivery",
    "divisionname": "Leh",
    "regionname": "Srinagar HQ",
    "circlename": "Jammukashmir",
    "Taluk": "Kargil",
    "Districtname": "Kargil",
    "statename": "JAMMU & KASHMIR"
  },
  {
    "pincode": "194301",
    "officename": "Namsuru B.O",
    "officeType": "B.O",
    "Deliverystatus": "Delivery",
    "divisionname": "Leh",
    "regionname": "Srinagar HQ",
    "circlename": "Jammukashmir",
    "Taluk": "Kargil",
    "Districtname": "Kargil",
    "statename": "JAMMU & KASHMIR"
  },
  {
    "pincode": "194301",
    "officename": "Omba B.O",
    "officeType": "B.O",
    "Deliverystatus": "Delivery",
    "divisionname": "Leh",
    "regionname": "Srinagar HQ",
    "circlename": "Jammukashmir",
    "Taluk": "Kargil Kargil",
    "Districtname": "Kargil",
    "statename": "JAMMU & KASHMIR"
  },
  {
    "pincode": "194301",
    "officename": "Panikhar B.O",
    "officeType": "B.O",
    "Deliverystatus": "Delivery",
    "divisionname": "Leh",
    "regionname": "Srinagar HQ",
    "circlename": "Jammukashmir",
    "Taluk": "Kargil",
    "Districtname": "Kargil",
    "statename": "JAMMU & KASHMIR"
  },
  {
    "pincode": "194301",
    "officename": "Parkachik B.O",
    "officeType": "B.O",
    "Deliverystatus": "Delivery",
    "divisionname": "Leh",
    "regionname": "Srinagar HQ",
    "circlename": "Jammukashmir",
    "Taluk": "Kargil",
    "Districtname": "Kargil",
    "statename": "JAMMU & KASHMIR"
  },
  {
    "pincode": "194301",
    "officename": "Purthikchey B.O",
    "officeType": "B.O",
    "Deliverystatus": "Delivery",
    "divisionname": "Leh",
    "regionname": "Srinagar HQ",
    "circlename": "Jammukashmir",
    "Taluk": "Kargil",
    "Districtname": "Kargil",
    "statename": "JAMMU & KASHMIR"
  },
  {
    "pincode": "194301",
    "officename": "Sangra B.O",
    "officeType": "B.O",
    "Deliverystatus": "Delivery",
    "divisionname": "Leh",
    "regionname": "Srinagar HQ",
    "circlename": "Jammukashmir",
    "Taluk": "Kargl",
    "Districtname": "Kargil",
    "statename": "JAMMU & KASHMIR"
  },
  {
    "pincode": "194301",
    "officename": "Sankoo S.O",
    "officeType": "S.O",
    "Deliverystatus": "Delivery",
    "divisionname": "Leh",
    "regionname": "Srinagar HQ",
    "circlename": "Jammukashmir",
    "Taluk": "Sankoo",
    "Districtname": "Kargil",
    "statename": "JAMMU & KASHMIR"
  },
  {
    "pincode": "194301",
    "officename": "Tikat B.O",
    "officeType": "B.O",
    "Deliverystatus": "Delivery",
    "divisionname": "Leh",
    "regionname": "Srinagar HQ",
    "circlename": "Jammukashmir",
    "Taluk": "Kargil",
    "Districtname": "Kargil",
    "statename": "JAMMU & KASHMIR"
  },
  {
    "pincode": "194301",
    "officename": "Yuljuk B.O",
    "officeType": "B.O",
    "Deliverystatus": "Delivery",
    "divisionname": "Leh",
    "regionname": "Srinagar HQ",
    "circlename": "Jammukashmir",
    "Taluk": "Kargil",
    "Districtname": "Kargil",
    "statename": "JAMMU & KASHMIR"
  }
]
