[
  {
    "pincode": "202140",
    "officename": "Akrawat B.O",
    "officeType": "B.O",
    "Deliverystatus": "Delivery",
    "divisionname": "Aligarh",
    "regionname": "Agra",
    "circlename": "Uttar Pradesh",
    "Taluk": "",
    "Districtname": "Aligarh",
    "statename": "UTTAR PRADESH"
  },
  {
    "pincode": "202140",
    "officename": "Andla B.O",
    "officeType": "B.O",
    "Deliverystatus": "Delivery",
    "divisionname": "Aligarh",
    "regionname": "Agra",
    "circlename": "Uttar Pradesh",
    "Taluk": "",
    "Districtname": "Aligarh",
    "statename": "UTTAR PRADESH"
  },
  {
    "pincode": "202140",
    "officename": "Badon B.O",
    "officeType": "B.O",
    "Deliverystatus": "Delivery",
    "divisionname": "Aligarh",
    "regionname": "Agra",
    "circlename": "Uttar Pradesh",
    "Taluk": "",
    "Districtname": "Aligarh",
    "statename": "UTTAR PRADESH"
  },
  {
    "pincode": "202140",
    "officename": "Beharipur B.O",
    "officeType": "B.O",
    "Deliverystatus": "Delivery",
    "divisionname": "Aligarh",
    "regionname": "Agra",
    "circlename": "Uttar Pradesh",
    "Taluk": "",
    "Districtname": "Aligarh",
    "statename": "UTTAR PRADESH"
  },
  {
    "pincode": "202140",
    "officename": "Dunai B.O",
    "officeType": "B.O",
    "Deliverystatus": "Delivery",
    "divisionname": "Aligarh",
    "regionname": "Agra",
    "circlename": "Uttar Pradesh",
    "Taluk": "",
    "Districtname": "Aligarh",
    "statename": "UTTAR PRADESH"
  },
  {
    "pincode": "202140",
    "officename": "Ismailpur B.O",
    "officeType": "B.O",
    "Deliverystatus": "Delivery",
    "divisionname": "Aligarh",
    "regionname": "Agra",
    "circlename": "Uttar Pradesh",
    "Taluk": "",
    "Districtname": "Aligarh",
    "statename": "UTTAR PRADESH"
  },
  {
    "pincode": "202140",
    "officename": "Jiroli Dor B.O",
    "officeType": "B.O",
    "Deliverystatus": "Delivery",
    "divisionname": "Aligarh",
    "regionname": "Agra",
    "circlename": "Uttar Pradesh",
    "Taluk": "",
    "Districtname": "Aligarh",
    "statename": "UTTAR PRADESH"
  },
  {
    "pincode": "202140",
    "officename": "Kiratpur Nimana B.O",
    "officeType": "B.O",
    "Deliverystatus": "Delivery",
    "divisionname": "Aligarh",
    "regionname": "Agra",
    "circlename": "Uttar Pradesh",
    "Taluk": "",
    "Districtname": "Aligarh",
    "statename": "UTTAR PRADESH"
  },
  {
    "pincode": "202140",
    "officename": "Lodha S.O",
    "officeType": "S.O",
    "Deliverystatus": "Delivery",
    "divisionname": "Aligarh",
    "regionname": "Agra",
    "circlename": "Uttar Pradesh",
    "Taluk": "Aligarh",
    "Districtname": "Aligarh",
    "statename": "UTTAR PRADESH"
  },
  {
    "pincode": "202140",
    "officename": "Majupur B.O",
    "officeType": "B.O",
    "Deliverystatus": "Delivery",
    "divisionname": "Aligarh",
    "regionname": "Agra",
    "circlename": "Uttar Pradesh",
    "Taluk": "",
    "Districtname": "Aligarh",
    "statename": "UTTAR PRADESH"
  },
  {
    "pincode": "202140",
    "officename": "Rait B.O",
    "officeType": "B.O",
    "Deliverystatus": "Delivery",
    "divisionname": "Aligarh",
    "regionname": "Agra",
    "circlename": "Uttar Pradesh",
    "Taluk": "",
    "Districtname": "Aligarh",
    "statename": "UTTAR PRADESH"
  },
  {
    "pincode": "202140",
    "officename": "Shikharan B.O",
    "officeType": "B.O",
    "Deliverystatus": "Delivery",
    "divisionname": "Aligarh",
    "regionname": "Agra",
    "circlename": "Uttar Pradesh",
    "Taluk": "",
    "Districtname": "Aligarh",
    "statename": "UTTAR PRADESH"
  }
]
