[
  {
    "pincode": "202123",
    "officename": "Dhantauli B.O",
    "officeType": "B.O",
    "Deliverystatus": "Delivery",
    "divisionname": "Aligarh",
    "regionname": "Agra",
    "circlename": "Uttar Pradesh",
    "Taluk": "Aligarh",
    "Districtname": "Aligarh",
    "statename": "UTTAR PRADESH"
  },
  {
    "pincode": "202123",
    "officename": "Digsari B.O",
    "officeType": "B.O",
    "Deliverystatus": "Delivery",
    "divisionname": "Aligarh",
    "regionname": "Agra",
    "circlename": "Uttar Pradesh",
    "Taluk": "Aligarh",
    "Districtname": "Aligarh",
    "statename": "UTTAR PRADESH"
  },
  {
    "pincode": "202123",
    "officename": "Gonda S.O",
    "officeType": "S.O",
    "Deliverystatus": "Delivery",
    "divisionname": "Aligarh",
    "regionname": "Agra",
    "circlename": "Uttar Pradesh",
    "Taluk": "Aligarh",
    "Districtname": "Aligarh",
    "statename": "UTTAR PRADESH"
  },
  {
    "pincode": "202123",
    "officename": "Kemthal B.O",
    "officeType": "B.O",
    "Deliverystatus": "Delivery",
    "divisionname": "Aligarh",
    "regionname": "Agra",
    "circlename": "Uttar Pradesh",
    "Taluk": "Aligarh",
    "Districtname": "Aligarh",
    "statename": "UTTAR PRADESH"
  },
  {
    "pincode": "202123",
    "officename": "Manti Basai B.O",
    "officeType": "B.O",
    "Deliverystatus": "Delivery",
    "divisionname": "Aligarh",
    "regionname": "Agra",
    "circlename": "Uttar Pradesh",
    "Taluk": "Aligarh",
    "Districtname": "Aligarh",
    "statename": "UTTAR PRADESH"
  },
  {
    "pincode": "202123",
    "officename": "Nagla Birkhu B.O",
    "officeType": "B.O",
    "Deliverystatus": "Delivery",
    "divisionname": "Aligarh",
    "regionname": "Agra",
    "circlename": "Uttar Pradesh",
    "Taluk": "Aligarh",
    "Districtname": "Aligarh",
    "statename": "UTTAR PRADESH"
  },
  {
    "pincode": "202123",
    "officename": "Nagla Jagdeo B.O",
    "officeType": "B.O",
    "Deliverystatus": "Delivery",
    "divisionname": "Aligarh",
    "regionname": "Agra",
    "circlename": "Uttar Pradesh",
    "Taluk": "Aligarh",
    "Districtname": "Aligarh",
    "statename": "UTTAR PRADESH"
  },
  {
    "pincode": "202123",
    "officename": "Nagla Jhujhar B.O",
    "officeType": "B.O",
    "Deliverystatus": "Delivery",
    "divisionname": "Aligarh",
    "regionname": "Agra",
    "circlename": "Uttar Pradesh",
    "Taluk": "Aligarh",
    "Districtname": "Aligarh",
    "statename": "UTTAR PRADESH"
  },
  {
    "pincode": "202123",
    "officename": "Pachawari B.O",
    "officeType": "B.O",
    "Deliverystatus": "Delivery",
    "divisionname": "Aligarh",
    "regionname": "Agra",
    "circlename": "Uttar Pradesh",
    "Taluk": "Aligarh",
    "Districtname": "Aligarh",
    "statename": "UTTAR PRADESH"
  },
  {
    "pincode": "202123",
    "officename": "Paindapur B.O",
    "officeType": "B.O",
    "Deliverystatus": "Delivery",
    "divisionname": "Aligarh",
    "regionname": "Agra",
    "circlename": "Uttar Pradesh",
    "Taluk": "Aligarh",
    "Districtname": "Aligarh",
    "statename": "UTTAR PRADESH"
  },
  {
    "pincode": "202123",
    "officename": "Rajawal B.O",
    "officeType": "B.O",
    "Deliverystatus": "Delivery",
    "divisionname": "Aligarh",
    "regionname": "Agra",
    "circlename": "Uttar Pradesh",
    "Taluk": "Aligarh",
    "Districtname": "Aligarh",
    "statename": "UTTAR PRADESH"
  },
  {
    "pincode": "202123",
    "officename": "Sehri Madangarhi B.O",
    "officeType": "B.O",
    "Deliverystatus": "Delivery",
    "divisionname": "Aligarh",
    "regionname": "Agra",
    "circlename": "Uttar Pradesh",
    "Taluk": "Aligarh",
    "Districtname": "Aligarh",
    "statename": "UTTAR PRADESH"
  },
  {
    "pincode": "202123",
    "officename": "Talesara B.O",
    "officeType": "B.O",
    "Deliverystatus": "Delivery",
    "divisionname": "Aligarh",
    "regionname": "Agra",
    "circlename": "Uttar Pradesh",
    "Taluk": "Aligarh",
    "Districtname": "Aligarh",
    "statename": "UTTAR PRADESH"
  }
]
