[
  {
    "pincode": "202129",
    "officename": "Alampur Rani Barla B.O",
    "officeType": "B.O",
    "Deliverystatus": "Delivery",
    "divisionname": "Aligarh",
    "regionname": "Agra",
    "circlename": "Uttar Pradesh",
    "Taluk": "Aligarh",
    "Districtname": "Aligarh",
    "statename": "UTTAR PRADESH"
  },
  {
    "pincode": "202129",
    "officename": "Barla B.O",
    "officeType": "B.O",
    "Deliverystatus": "Delivery",
    "divisionname": "Aligarh",
    "regionname": "Agra",
    "circlename": "Uttar Pradesh",
    "Taluk": "",
    "Districtname": "Aligarh",
    "statename": "UTTAR PRADESH"
  },
  {
    "pincode": "202129",
    "officename": "Bhilet Ramnagar B.O",
    "officeType": "B.O",
    "Deliverystatus": "Delivery",
    "divisionname": "Aligarh",
    "regionname": "Agra",
    "circlename": "Uttar Pradesh",
    "Taluk": "",
    "Districtname": "Aligarh",
    "statename": "UTTAR PRADESH"
  },
  {
    "pincode": "202129",
    "officename": "Datawali B.O",
    "officeType": "B.O",
    "Deliverystatus": "Delivery",
    "divisionname": "Aligarh",
    "regionname": "Agra",
    "circlename": "Uttar Pradesh",
    "Taluk": "Aligarh",
    "Districtname": "Aligarh",
    "statename": "UTTAR PRADESH"
  },
  {
    "pincode": "202129",
    "officename": "Hasona Jagmohanpur B.O",
    "officeType": "B.O",
    "Deliverystatus": "Delivery",
    "divisionname": "Aligarh",
    "regionname": "Agra",
    "circlename": "Uttar Pradesh",
    "Taluk": "Aligarh",
    "Districtname": "Aligarh",
    "statename": "UTTAR PRADESH"
  },
  {
    "pincode": "202129",
    "officename": "Kauriyaganj S.O",
    "officeType": "S.O",
    "Deliverystatus": "Delivery",
    "divisionname": "Aligarh",
    "regionname": "Agra",
    "circlename": "Uttar Pradesh",
    "Taluk": "Aligarh",
    "Districtname": "Aligarh",
    "statename": "UTTAR PRADESH"
  },
  {
    "pincode": "202129",
    "officename": "Kutubour Amarpur B.O",
    "officeType": "B.O",
    "Deliverystatus": "Delivery",
    "divisionname": "Aligarh",
    "regionname": "Agra",
    "circlename": "Uttar Pradesh",
    "Taluk": "Aligarh",
    "Districtname": "Aligarh",
    "statename": "UTTAR PRADESH"
  },
  {
    "pincode": "202129",
    "officename": "Pahari Pur B.O",
    "officeType": "B.O",
    "Deliverystatus": "Delivery",
    "divisionname": "Aligarh",
    "regionname": "Agra",
    "circlename": "Uttar Pradesh",
    "Taluk": "Aligarh",
    "Districtname": "Aligarh",
    "statename": "UTTAR PRADESH"
  },
  {
    "pincode": "202129",
    "officename": "Phusauli B.O",
    "officeType": "B.O",
    "Deliverystatus": "Delivery",
    "divisionname": "Aligarh",
    "regionname": "Agra",
    "circlename": "Uttar Pradesh",
    "Taluk": "Aligarh",
    "Districtname": "Aligarh",
    "statename": "UTTAR PRADESH"
  },
  {
    "pincode": "202129",
    "officename": "Pipoli B.O",
    "officeType": "B.O",
    "Deliverystatus": "Delivery",
    "divisionname": "Aligarh",
    "regionname": "Agra",
    "circlename": "Uttar Pradesh",
    "Taluk": "",
    "Districtname": "Aligarh",
    "statename": "UTTAR PRADESH"
  },
  {
    "pincode": "202129",
    "officename": "Shahagarh B.O",
    "officeType": "B.O",
    "Deliverystatus": "Delivery",
    "divisionname": "Aligarh",
    "regionname": "Agra",
    "circlename": "Uttar Pradesh",
    "Taluk": "Aligarh",
    "Districtname": "Aligarh",
    "statename": "UTTAR PRADESH"
  },
  {
    "pincode": "202129",
    "officename": "Utra B.O",
    "officeType": "B.O",
    "Deliverystatus": "Delivery",
    "divisionname": "Aligarh",
    "regionname": "Agra",
    "circlename": "Uttar Pradesh",
    "Taluk": "Aligarh",
    "Districtname": "Aligarh",
    "statename": "UTTAR PRADESH"
  }
]
