[
  {
    "pincode": "202131",
    "officename": "Badesara B.O",
    "officeType": "B.O",
    "Deliverystatus": "Delivery",
    "divisionname": "Aligarh",
    "regionname": "Agra",
    "circlename": "Uttar Pradesh",
    "Taluk": "Aligarh",
    "Districtname": "Aligarh",
    "statename": "UTTAR PRADESH"
  },
  {
    "pincode": "202131",
    "officename": "Bijauli S.O",
    "officeType": "S.O",
    "Deliverystatus": "Delivery",
    "divisionname": "Aligarh",
    "regionname": "Agra",
    "circlename": "Uttar Pradesh",
    "Taluk": "Aligarh",
    "Districtname": "Aligarh",
    "statename": "UTTAR PRADESH"
  },
  {
    "pincode": "202131",
    "officename": "Chandaua Goverdhanapur B.O",
    "officeType": "B.O",
    "Deliverystatus": "Delivery",
    "divisionname": "Aligarh",
    "regionname": "Agra",
    "circlename": "Uttar Pradesh",
    "Taluk": "Aligarh",
    "Districtname": "Aligarh",
    "statename": "UTTAR PRADESH"
  },
  {
    "pincode": "202131",
    "officename": "Dudhma B.O",
    "officeType": "B.O",
    "Deliverystatus": "Delivery",
    "divisionname": "Aligarh",
    "regionname": "Agra",
    "circlename": "Uttar Pradesh",
    "Taluk": "Aligarh",
    "Districtname": "Aligarh",
    "statename": "UTTAR PRADESH"
  },
  {
    "pincode": "202131",
    "officename": "Gehtoli Nirmal B.O",
    "officeType": "B.O",
    "Deliverystatus": "Delivery",
    "divisionname": "Aligarh",
    "regionname": "Agra",
    "circlename": "Uttar Pradesh",
    "Taluk": "Aligarh",
    "Districtname": "Aligarh",
    "statename": "UTTAR PRADESH"
  },
  {
    "pincode": "202131",
    "officename": "Nahal B.O",
    "officeType": "B.O",
    "Deliverystatus": "Delivery",
    "divisionname": "Aligarh",
    "regionname": "Agra",
    "circlename": "Uttar Pradesh",
    "Taluk": "Aligarh",
    "Districtname": "Aligarh",
    "statename": "UTTAR PRADESH"
  },
  {
    "pincode": "202131",
    "officename": "Pali Mukimpur B.O",
    "officeType": "B.O",
    "Deliverystatus": "Delivery",
    "divisionname": "Aligarh",
    "regionname": "Agra",
    "circlename": "Uttar Pradesh",
    "Taluk": "Aligarh",
    "Districtname": "Aligarh",
    "statename": "UTTAR PRADESH"
  },
  {
    "pincode": "202131",
    "officename": "Panehra B.O",
    "officeType": "B.O",
    "Deliverystatus": "Delivery",
    "divisionname": "Aligarh",
    "regionname": "Agra",
    "circlename": "Uttar Pradesh",
    "Taluk": "Aligarh",
    "Districtname": "Aligarh",
    "statename": "UTTAR PRADESH"
  },
  {
    "pincode": "202131",
    "officename": "Pipari B.O",
    "officeType": "B.O",
    "Deliverystatus": "Delivery",
    "divisionname": "Aligarh",
    "regionname": "Agra",
    "circlename": "Uttar Pradesh",
    "Taluk": "Aligarh",
    "Districtname": "Aligarh",
    "statename": "UTTAR PRADESH"
  },
  {
    "pincode": "202131",
    "officename": "Rajatau B.O",
    "officeType": "B.O",
    "Deliverystatus": "Delivery",
    "divisionname": "Aligarh",
    "regionname": "Agra",
    "circlename": "Uttar Pradesh",
    "Taluk": "Aligarh",
    "Districtname": "Aligarh",
    "statename": "UTTAR PRADESH"
  }
]
