[
  {
    "pincode": "202124",
    "officename": "Bhaiyan B.O",
    "officeType": "B.O",
    "Deliverystatus": "Delivery",
    "divisionname": "Aligarh",
    "regionname": "Agra",
    "circlename": "Uttar Pradesh",
    "Taluk": "Aligarh",
    "Districtname": "Aligarh",
    "statename": "UTTAR PRADESH"
  },
  {
    "pincode": "202124",
    "officename": "Chhaichhau B.O",
    "officeType": "B.O",
    "Deliverystatus": "Delivery",
    "divisionname": "Aligarh",
    "regionname": "Agra",
    "circlename": "Uttar Pradesh",
    "Taluk": "Aligarh",
    "Districtname": "Aligarh",
    "statename": "UTTAR PRADESH"
  },
  {
    "pincode": "202124",
    "officename": "Gidauli B.O",
    "officeType": "B.O",
    "Deliverystatus": "Delivery",
    "divisionname": "Aligarh",
    "regionname": "Agra",
    "circlename": "Uttar Pradesh",
    "Taluk": "Aligarh",
    "Districtname": "Aligarh",
    "statename": "UTTAR PRADESH"
  },
  {
    "pincode": "202124",
    "officename": "Harautha B.O",
    "officeType": "B.O",
    "Deliverystatus": "Delivery",
    "divisionname": "Aligarh",
    "regionname": "Agra",
    "circlename": "Uttar Pradesh",
    "Taluk": "Aligarh",
    "Districtname": "Aligarh",
    "statename": "UTTAR PRADESH"
  },
  {
    "pincode": "202124",
    "officename": "Iglas S.O",
    "officeType": "S.O",
    "Deliverystatus": "Delivery",
    "divisionname": "Aligarh",
    "regionname": "Agra",
    "circlename": "Uttar Pradesh",
    "Taluk": "Aligarh",
    "Districtname": "Aligarh",
    "statename": "UTTAR PRADESH"
  },
  {
    "pincode": "202124",
    "officename": "Iglas Thana B.O",
    "officeType": "B.O",
    "Deliverystatus": "Delivery",
    "divisionname": "Aligarh",
    "regionname": "Agra",
    "circlename": "Uttar Pradesh",
    "Taluk": "Aligarh",
    "Districtname": "Aligarh",
    "statename": "UTTAR PRADESH"
  },
  {
    "pincode": "202124",
    "officename": "Kajrauth B.O",
    "officeType": "B.O",
    "Deliverystatus": "Delivery",
    "divisionname": "Aligarh",
    "regionname": "Agra",
    "circlename": "Uttar Pradesh",
    "Taluk": "Aligarh",
    "Districtname": "Aligarh",
    "statename": "UTTAR PRADESH"
  },
  {
    "pincode": "202124",
    "officename": "Kalayanpur Bhagirathpur B.O",
    "officeType": "B.O",
    "Deliverystatus": "Delivery",
    "divisionname": "Aligarh",
    "regionname": "Agra",
    "circlename": "Uttar Pradesh",
    "Taluk": "",
    "Districtname": "Agra",
    "statename": "UTTAR PRADESH"
  },
  {
    "pincode": "202124",
    "officename": "Kalua Bhilet B.O",
    "officeType": "B.O",
    "Deliverystatus": "Delivery",
    "divisionname": "Aligarh",
    "regionname": "Agra",
    "circlename": "Uttar Pradesh",
    "Taluk": "Aligarh",
    "Districtname": "Aligarh",
    "statename": "UTTAR PRADESH"
  },
  {
    "pincode": "202124",
    "officename": "Matroi B.O",
    "officeType": "B.O",
    "Deliverystatus": "Delivery",
    "divisionname": "Aligarh",
    "regionname": "Agra",
    "circlename": "Uttar Pradesh",
    "Taluk": "Aligarh",
    "Districtname": "Aligarh",
    "statename": "UTTAR PRADESH"
  },
  {
    "pincode": "202124",
    "officename": "Mohreni B.O",
    "officeType": "B.O",
    "Deliverystatus": "Delivery",
    "divisionname": "Aligarh",
    "regionname": "Agra",
    "circlename": "Uttar Pradesh",
    "Taluk": "Aligarh",
    "Districtname": "Aligarh",
    "statename": "UTTAR PRADESH"
  },
  {
    "pincode": "202124",
    "officename": "Sahara Khurd B.O",
    "officeType": "B.O",
    "Deliverystatus": "Delivery",
    "divisionname": "Aligarh",
    "regionname": "Agra",
    "circlename": "Uttar Pradesh",
    "Taluk": "Aligarh",
    "Districtname": "Aligarh",
    "statename": "UTTAR PRADESH"
  },
  {
    "pincode": "202124",
    "officename": "Salempur B.O",
    "officeType": "B.O",
    "Deliverystatus": "Delivery",
    "divisionname": "Aligarh",
    "regionname": "Agra",
    "circlename": "Uttar Pradesh",
    "Taluk": "Aligarh",
    "Districtname": "Aligarh",
    "statename": "UTTAR PRADESH"
  },
  {
    "pincode": "202124",
    "officename": "Simardhari B.O",
    "officeType": "B.O",
    "Deliverystatus": "Delivery",
    "divisionname": "Aligarh",
    "regionname": "Agra",
    "circlename": "Uttar Pradesh",
    "Taluk": "Aligarh",
    "Districtname": "Aligarh",
    "statename": "UTTAR PRADESH"
  }
]
