[
  {
    "pincode": "203131",
    "officename": "Agaura  Hameerpur B.O",
    "officeType": "B.O",
    "Deliverystatus": "Delivery",
    "divisionname": "Bulandshahar",
    "regionname": "Agra",
    "circlename": "Uttar Pradesh",
    "Taluk": "Bulandshahr",
    "Districtname": "Bulandshahr",
    "statename": "UTTAR PRADESH"
  },
  {
    "pincode": "203131",
    "officename": "Ahmadgarh B.O",
    "officeType": "B.O",
    "Deliverystatus": "Delivery",
    "divisionname": "Bulandshahar",
    "regionname": "Agra",
    "circlename": "Uttar Pradesh",
    "Taluk": "Shikarpur",
    "Districtname": "Bulandshahr",
    "statename": "UTTAR PRADESH"
  },
  {
    "pincode": "203131",
    "officename": "Arniya B.O",
    "officeType": "B.O",
    "Deliverystatus": "Delivery",
    "divisionname": "Bulandshahar",
    "regionname": "Agra",
    "circlename": "Uttar Pradesh",
    "Taluk": "Khurja",
    "Districtname": "Bulandshahr",
    "statename": "UTTAR PRADESH"
  },
  {
    "pincode": "203131",
    "officename": "Bada Gaon B.O",
    "officeType": "B.O",
    "Deliverystatus": "Delivery",
    "divisionname": "Bulandshahar",
    "regionname": "Agra",
    "circlename": "Uttar Pradesh",
    "Taluk": "Khurja",
    "Districtname": "Bulandshahr",
    "statename": "UTTAR PRADESH"
  },
  {
    "pincode": "203131",
    "officename": "Bagrai  Khurd B.O",
    "officeType": "B.O",
    "Deliverystatus": "Delivery",
    "divisionname": "Bulandshahar",
    "regionname": "Agra",
    "circlename": "Uttar Pradesh",
    "Taluk": "Khurja",
    "Districtname": "Bulandshahr",
    "statename": "UTTAR PRADESH"
  },
  {
    "pincode": "203131",
    "officename": "Banail B.O",
    "officeType": "B.O",
    "Deliverystatus": "Delivery",
    "divisionname": "Bulandshahar",
    "regionname": "Agra",
    "circlename": "Uttar Pradesh",
    "Taluk": "Khurja",
    "Districtname": "Bulandshahr",
    "statename": "UTTAR PRADESH"
  },
  {
    "pincode": "203131",
    "officename": "Bhatwara B.O",
    "officeType": "B.O",
    "Deliverystatus": "Delivery",
    "divisionname": "Bulandshahar",
    "regionname": "Agra",
    "circlename": "Uttar Pradesh",
    "Taluk": "Khurja",
    "Districtname": "Bulandshahr",
    "statename": "UTTAR PRADESH"
  },
  {
    "pincode": "203131",
    "officename": "Bichoula B.O",
    "officeType": "B.O",
    "Deliverystatus": "Delivery",
    "divisionname": "Bulandshahar",
    "regionname": "Agra",
    "circlename": "Uttar Pradesh",
    "Taluk": "Khurja",
    "Districtname": "Bulandshahr",
    "statename": "UTTAR PRADESH"
  },
  {
    "pincode": "203131",
    "officename": "Bilaspur B.O",
    "officeType": "B.O",
    "Deliverystatus": "Delivery",
    "divisionname": "Bulandshahar",
    "regionname": "Agra",
    "circlename": "Uttar Pradesh",
    "Taluk": "Sikandrabad",
    "Districtname": "Gautam Buddha Nagar",
    "statename": "UTTAR PRADESH"
  },
  {
    "pincode": "203131",
    "officename": "Dashhera  Kherli B.O",
    "officeType": "B.O",
    "Deliverystatus": "Delivery",
    "divisionname": "Bulandshahar",
    "regionname": "Agra",
    "circlename": "Uttar Pradesh",
    "Taluk": "Khurja",
    "Districtname": "Bulandshahr",
    "statename": "UTTAR PRADESH"
  },
  {
    "pincode": "203131",
    "officename": "Dharpa Chuhar Pur B.O",
    "officeType": "B.O",
    "Deliverystatus": "Delivery",
    "divisionname": "Bulandshahar",
    "regionname": "Agra",
    "circlename": "Uttar Pradesh",
    "Taluk": "Khurja",
    "Districtname": "Bulandshahr",
    "statename": "UTTAR PRADESH"
  },
  {
    "pincode": "203131",
    "officename": "Dinoul B.O",
    "officeType": "B.O",
    "Deliverystatus": "Delivery",
    "divisionname": "Bulandshahar",
    "regionname": "Agra",
    "circlename": "Uttar Pradesh",
    "Taluk": "Khurja",
    "Districtname": "Bulandshahr",
    "statename": "UTTAR PRADESH"
  },
  {
    "pincode": "203131",
    "officename": "Gt Road  Khurja S.O",
    "officeType": "S.O",
    "Deliverystatus": "Non-Delivery",
    "divisionname": "Bulandshahar",
    "regionname": "Agra",
    "circlename": "Uttar Pradesh",
    "Taluk": "Khurja",
    "Districtname": "Bulandshahr",
    "statename": "UTTAR PRADESH"
  },
  {
    "pincode": "203131",
    "officename": "Jarara B.O",
    "officeType": "B.O",
    "Deliverystatus": "Delivery",
    "divisionname": "Bulandshahar",
    "regionname": "Agra",
    "circlename": "Uttar Pradesh",
    "Taluk": "Khurja",
    "Districtname": "Bulandshahr",
    "statename": "UTTAR PRADESH"
  },
  {
    "pincode": "203131",
    "officename": "Jawal B.O",
    "officeType": "B.O",
    "Deliverystatus": "Delivery",
    "divisionname": "Bulandshahar",
    "regionname": "Agra",
    "circlename": "Uttar Pradesh",
    "Taluk": "Khurja",
    "Districtname": "Bulandshahr",
    "statename": "UTTAR PRADESH"
  },
  {
    "pincode": "203131",
    "officename": "Kalena B.O",
    "officeType": "B.O",
    "Deliverystatus": "Delivery",
    "divisionname": "Bulandshahar",
    "regionname": "Agra",
    "circlename": "Uttar Pradesh",
    "Taluk": "Khurja",
    "Districtname": "Bulandshahr",
    "statename": "UTTAR PRADESH"
  },
  {
    "pincode": "203131",
    "officename": "Kehroula B.O",
    "officeType": "B.O",
    "Deliverystatus": "Non-Delivery",
    "divisionname": "Bulandshahar",
    "regionname": "Agra",
    "circlename": "Uttar Pradesh",
    "Taluk": "Khurja",
    "Districtname": "Bulandshahr",
    "statename": "UTTAR PRADESH"
  },
  {
    "pincode": "203131",
    "officename": "Khurja  Chowk S.O",
    "officeType": "S.O",
    "Deliverystatus": "Non-Delivery",
    "divisionname": "Bulandshahar",
    "regionname": "Agra",
    "circlename": "Uttar Pradesh",
    "Taluk": "Khurja",
    "Districtname": "Bulandshahr",
    "statename": "UTTAR PRADESH"
  },
  {
    "pincode": "203131",
    "officename": "Khurja H.O",
    "officeType": "H.O",
    "Deliverystatus": "Delivery",
    "divisionname": "Bulandshahar",
    "regionname": "Agra",
    "circlename": "Uttar Pradesh",
    "Taluk": "Khurja",
    "Districtname": "Bulandshahr",
    "statename": "UTTAR PRADESH"
  },
  {
    "pincode": "203131",
    "officename": "Kirra B.O",
    "officeType": "B.O",
    "Deliverystatus": "Non-Delivery",
    "divisionname": "Bulandshahar",
    "regionname": "Agra",
    "circlename": "Uttar Pradesh",
    "Taluk": "Khurja",
    "Districtname": "Bulandshahr",
    "statename": "UTTAR PRADESH"
  },
  {
    "pincode": "203131",
    "officename": "Meerpur B.O",
    "officeType": "B.O",
    "Deliverystatus": "Delivery",
    "divisionname": "Bulandshahar",
    "regionname": "Agra",
    "circlename": "Uttar Pradesh",
    "Taluk": "Khurja",
    "Districtname": "Bulandshahr",
    "statename": "UTTAR PRADESH"
  },
  {
    "pincode": "203131",
    "officename": "Munda  Khera B.O",
    "officeType": "B.O",
    "Deliverystatus": "Delivery",
    "divisionname": "Bulandshahar",
    "regionname": "Agra",
    "circlename": "Uttar Pradesh",
    "Taluk": "Khurja",
    "Districtname": "Bulandshahr",
    "statename": "UTTAR PRADESH"
  },
  {
    "pincode": "203131",
    "officename": "Muni B.O",
    "officeType": "B.O",
    "Deliverystatus": "Delivery",
    "divisionname": "Bulandshahar",
    "regionname": "Agra",
    "circlename": "Uttar Pradesh",
    "Taluk": "Khurja",
    "Districtname": "Bulandshahr",
    "statename": "UTTAR PRADESH"
  },
  {
    "pincode": "203131",
    "officename": "Nagla Mahiuddinpur B.O",
    "officeType": "B.O",
    "Deliverystatus": "Delivery",
    "divisionname": "Bulandshahar",
    "regionname": "Agra",
    "circlename": "Uttar Pradesh",
    "Taluk": "Khurja",
    "Districtname": "Bulandshahr",
    "statename": "UTTAR PRADESH"
  },
  {
    "pincode": "203131",
    "officename": "Raniaoli B.O",
    "officeType": "B.O",
    "Deliverystatus": "Delivery",
    "divisionname": "Bulandshahar",
    "regionname": "Agra",
    "circlename": "Uttar Pradesh",
    "Taluk": "Khurja",
    "Districtname": "Bulandshahr",
    "statename": "UTTAR PRADESH"
  },
  {
    "pincode": "203131",
    "officename": "Roop  Wash Pachgain B.O",
    "officeType": "B.O",
    "Deliverystatus": "Delivery",
    "divisionname": "Bulandshahar",
    "regionname": "Agra",
    "circlename": "Uttar Pradesh",
    "Taluk": "Khurja",
    "Districtname": "Bulandshahr",
    "statename": "UTTAR PRADESH"
  },
  {
    "pincode": "203131",
    "officename": "Seekri B.O",
    "officeType": "B.O",
    "Deliverystatus": "Delivery",
    "divisionname": "Bulandshahar",
    "regionname": "Agra",
    "circlename": "Uttar Pradesh",
    "Taluk": "Khurja",
    "Districtname": "Bulandshahr",
    "statename": "UTTAR PRADESH"
  },
  {
    "pincode": "203131",
    "officename": "Senda  Faridpur B.O",
    "officeType": "B.O",
    "Deliverystatus": "Delivery",
    "divisionname": "Bulandshahar",
    "regionname": "Agra",
    "circlename": "Uttar Pradesh",
    "Taluk": "Khurja",
    "Districtname": "Bulandshahr",
    "statename": "UTTAR PRADESH"
  },
  {
    "pincode": "203131",
    "officename": "Shahbaz Pur B.O",
    "officeType": "B.O",
    "Deliverystatus": "Delivery",
    "divisionname": "Bulandshahar",
    "regionname": "Agra",
    "circlename": "Uttar Pradesh",
    "Taluk": "Khurja",
    "Districtname": "Bulandshahr",
    "statename": "UTTAR PRADESH"
  },
  {
    "pincode": "203131",
    "officename": "Subhash  Road  Khurja S.O",
    "officeType": "S.O",
    "Deliverystatus": "Non-Delivery",
    "divisionname": "Bulandshahar",
    "regionname": "Agra",
    "circlename": "Uttar Pradesh",
    "Taluk": "Khurja",
    "Districtname": "Bulandshahr",
    "statename": "UTTAR PRADESH"
  },
  {
    "pincode": "203131",
    "officename": "Surjawaly B.O",
    "officeType": "B.O",
    "Deliverystatus": "Delivery",
    "divisionname": "Bulandshahar",
    "regionname": "Agra",
    "circlename": "Uttar Pradesh",
    "Taluk": "Khurja",
    "Districtname": "Bulandshahr",
    "statename": "UTTAR PRADESH"
  }
]
