[
  {
    "pincode": "203141",
    "officename": "Bhaipur B.O",
    "officeType": "B.O",
    "Deliverystatus": "Delivery",
    "divisionname": "Bulandshahar",
    "regionname": "Agra",
    "circlename": "Uttar Pradesh",
    "Taluk": "Jewer",
    "Districtname": "Bulandshahr",
    "statename": "UTTAR PRADESH"
  },
  {
    "pincode": "203141",
    "officename": "Bhunna  Jattan B.O",
    "officeType": "B.O",
    "Deliverystatus": "Delivery",
    "divisionname": "Bulandshahar",
    "regionname": "Agra",
    "circlename": "Uttar Pradesh",
    "Taluk": "Jewer",
    "Districtname": "Gautam Buddha Nagar",
    "statename": "UTTAR PRADESH"
  },
  {
    "pincode": "203141",
    "officename": "Chhapana B.O",
    "officeType": "B.O",
    "Deliverystatus": "Non-Delivery",
    "divisionname": "Bulandshahar",
    "regionname": "Agra",
    "circlename": "Uttar Pradesh",
    "Taluk": "Jewer",
    "Districtname": "Gautam Buddha Nagar",
    "statename": "UTTAR PRADESH"
  },
  {
    "pincode": "203141",
    "officename": "Chingrawly B.O",
    "officeType": "B.O",
    "Deliverystatus": "Delivery",
    "divisionname": "Bulandshahar",
    "regionname": "Agra",
    "circlename": "Uttar Pradesh",
    "Taluk": "Jewer",
    "Districtname": "Gautam Buddha Nagar",
    "statename": "UTTAR PRADESH"
  },
  {
    "pincode": "203141",
    "officename": "Firoujpur B.O",
    "officeType": "B.O",
    "Deliverystatus": "Delivery",
    "divisionname": "Bulandshahar",
    "regionname": "Agra",
    "circlename": "Uttar Pradesh",
    "Taluk": "Jewer",
    "Districtname": "Bulandshahr",
    "statename": "UTTAR PRADESH"
  },
  {
    "pincode": "203141",
    "officename": "Gotheny B.O",
    "officeType": "B.O",
    "Deliverystatus": "Non-Delivery",
    "divisionname": "Bulandshahar",
    "regionname": "Agra",
    "circlename": "Uttar Pradesh",
    "Taluk": "Jewer",
    "Districtname": "Gautam Buddha Nagar",
    "statename": "UTTAR PRADESH"
  },
  {
    "pincode": "203141",
    "officename": "Hasanpur B.O",
    "officeType": "B.O",
    "Deliverystatus": "Delivery",
    "divisionname": "Bulandshahar",
    "regionname": "Agra",
    "circlename": "Uttar Pradesh",
    "Taluk": "Jewar",
    "Districtname": "Gautam Buddha Nagar",
    "statename": "UTTAR PRADESH"
  },
  {
    "pincode": "203141",
    "officename": "Jahangirpur S.O",
    "officeType": "S.O",
    "Deliverystatus": "Delivery",
    "divisionname": "Bulandshahar",
    "regionname": "Agra",
    "circlename": "Uttar Pradesh",
    "Taluk": "Jewar",
    "Districtname": "Gautam Buddha Nagar",
    "statename": "UTTAR PRADESH"
  },
  {
    "pincode": "203141",
    "officename": "Jawan B.O",
    "officeType": "B.O",
    "Deliverystatus": "Delivery",
    "divisionname": "Bulandshahar",
    "regionname": "Agra",
    "circlename": "Uttar Pradesh",
    "Taluk": "Jewer",
    "Districtname": "Gautam Buddha Nagar",
    "statename": "UTTAR PRADESH"
  },
  {
    "pincode": "203141",
    "officename": "Lodana B.O",
    "officeType": "B.O",
    "Deliverystatus": "Delivery",
    "divisionname": "Bulandshahar",
    "regionname": "Agra",
    "circlename": "Uttar Pradesh",
    "Taluk": "Jewer",
    "Districtname": "Gautam Buddha Nagar",
    "statename": "UTTAR PRADESH"
  },
  {
    "pincode": "203141",
    "officename": "Mansoor Pur Hasanpur B.O",
    "officeType": "B.O",
    "Deliverystatus": "Delivery",
    "divisionname": "Bulandshahar",
    "regionname": "Agra",
    "circlename": "Uttar Pradesh",
    "Taluk": "Khurja",
    "Districtname": "Gautam Buddha Nagar",
    "statename": "UTTAR PRADESH"
  },
  {
    "pincode": "203141",
    "officename": "Narmohamadpur B.O",
    "officeType": "B.O",
    "Deliverystatus": "Non-Delivery",
    "divisionname": "Bulandshahar",
    "regionname": "Agra",
    "circlename": "Uttar Pradesh",
    "Taluk": "Jewer",
    "Districtname": "Gautam Buddha Nagar",
    "statename": "UTTAR PRADESH"
  },
  {
    "pincode": "203141",
    "officename": "Ram  Garhi B.O",
    "officeType": "B.O",
    "Deliverystatus": "Delivery",
    "divisionname": "Bulandshahar",
    "regionname": "Agra",
    "circlename": "Uttar Pradesh",
    "Taluk": "Jewer",
    "Districtname": "Bulandshahr",
    "statename": "UTTAR PRADESH"
  },
  {
    "pincode": "203141",
    "officename": "Shahpur  Kala B.O",
    "officeType": "B.O",
    "Deliverystatus": "Delivery",
    "divisionname": "Bulandshahar",
    "regionname": "Agra",
    "circlename": "Uttar Pradesh",
    "Taluk": "Jewer",
    "Districtname": "Bulandshahr",
    "statename": "UTTAR PRADESH"
  }
]
