[
  {
    "pincode": "203394",
    "officename": "Bansuri B.O",
    "officeType": "B.O",
    "Deliverystatus": "Delivery",
    "divisionname": "Bulandshahar",
    "regionname": "Agra",
    "circlename": "Uttar Pradesh",
    "Taluk": "Anoop Shahr",
    "Districtname": "Bulandshahr",
    "statename": "UTTAR PRADESH"
  },
  {
    "pincode": "203394",
    "officename": "Chandauk B.O",
    "officeType": "B.O",
    "Deliverystatus": "Delivery",
    "divisionname": "Bulandshahar",
    "regionname": "Agra",
    "circlename": "Uttar Pradesh",
    "Taluk": "Bulandshahr",
    "Districtname": "Bulandshahr",
    "statename": "UTTAR PRADESH"
  },
  {
    "pincode": "203394",
    "officename": "Charora B.O",
    "officeType": "B.O",
    "Deliverystatus": "Delivery",
    "divisionname": "Bulandshahar",
    "regionname": "Agra",
    "circlename": "Uttar Pradesh",
    "Taluk": "Anoop Shahr",
    "Districtname": "Bulandshahr",
    "statename": "UTTAR PRADESH"
  },
  {
    "pincode": "203394",
    "officename": "Darora B.O",
    "officeType": "B.O",
    "Deliverystatus": "Delivery",
    "divisionname": "Bulandshahar",
    "regionname": "Agra",
    "circlename": "Uttar Pradesh",
    "Taluk": "Anoop Shahr",
    "Districtname": "Bulandshahr",
    "statename": "UTTAR PRADESH"
  },
  {
    "pincode": "203394",
    "officename": "Dhalana B.O",
    "officeType": "B.O",
    "Deliverystatus": "Delivery",
    "divisionname": "Bulandshahar",
    "regionname": "Agra",
    "circlename": "Uttar Pradesh",
    "Taluk": "Anoop Shahr",
    "Districtname": "Bulandshahr",
    "statename": "UTTAR PRADESH"
  },
  {
    "pincode": "203394",
    "officename": "Guraoli B.O",
    "officeType": "B.O",
    "Deliverystatus": "Delivery",
    "divisionname": "Bulandshahar",
    "regionname": "Agra",
    "circlename": "Uttar Pradesh",
    "Taluk": "Anoop Shahr",
    "Districtname": "Bulandshahr",
    "statename": "UTTAR PRADESH"
  },
  {
    "pincode": "203394",
    "officename": "Jahangirabad Mandi S.O",
    "officeType": "S.O",
    "Deliverystatus": "Non-Delivery",
    "divisionname": "Bulandshahar",
    "regionname": "Agra",
    "circlename": "Uttar Pradesh",
    "Taluk": "Anupshashr",
    "Districtname": "Bulandshahr",
    "statename": "UTTAR PRADESH"
  },
  {
    "pincode": "203394",
    "officename": "Jahangirabad S.O (Bulandshahr)",
    "officeType": "S.O",
    "Deliverystatus": "Delivery",
    "divisionname": "Bulandshahar",
    "regionname": "Agra",
    "circlename": "Uttar Pradesh",
    "Taluk": "Anupshahr",
    "Districtname": "Bulandshahr",
    "statename": "UTTAR PRADESH"
  },
  {
    "pincode": "203394",
    "officename": "Jakheta B.O",
    "officeType": "B.O",
    "Deliverystatus": "Delivery",
    "divisionname": "Bulandshahar",
    "regionname": "Agra",
    "circlename": "Uttar Pradesh",
    "Taluk": "Sikarpur",
    "Districtname": "Bulandshahr",
    "statename": "UTTAR PRADESH"
  },
  {
    "pincode": "203394",
    "officename": "Jaleel Pur B.O",
    "officeType": "B.O",
    "Deliverystatus": "Delivery",
    "divisionname": "Bulandshahar",
    "regionname": "Agra",
    "circlename": "Uttar Pradesh",
    "Taluk": "Anoop Shahr",
    "Districtname": "Bulandshahr",
    "statename": "UTTAR PRADESH"
  },
  {
    "pincode": "203394",
    "officename": "Jatpura B.O",
    "officeType": "B.O",
    "Deliverystatus": "Delivery",
    "divisionname": "Bulandshahar",
    "regionname": "Agra",
    "circlename": "Uttar Pradesh",
    "Taluk": "Anoop Shahr",
    "Districtname": "Bulandshahr",
    "statename": "UTTAR PRADESH"
  },
  {
    "pincode": "203394",
    "officename": "Kakrai B.O",
    "officeType": "B.O",
    "Deliverystatus": "Delivery",
    "divisionname": "Bulandshahar",
    "regionname": "Agra",
    "circlename": "Uttar Pradesh",
    "Taluk": "Anoop Shahr",
    "Districtname": "Bulandshahr",
    "statename": "UTTAR PRADESH"
  },
  {
    "pincode": "203394",
    "officename": "Khadana B.O",
    "officeType": "B.O",
    "Deliverystatus": "Delivery",
    "divisionname": "Bulandshahar",
    "regionname": "Agra",
    "circlename": "Uttar Pradesh",
    "Taluk": "Anupshahr",
    "Districtname": "Bulandshahr",
    "statename": "UTTAR PRADESH"
  },
  {
    "pincode": "203394",
    "officename": "Khalor B.O",
    "officeType": "B.O",
    "Deliverystatus": "Delivery",
    "divisionname": "Bulandshahar",
    "regionname": "Agra",
    "circlename": "Uttar Pradesh",
    "Taluk": "Anoop Shahr",
    "Districtname": "Bulandshahr",
    "statename": "UTTAR PRADESH"
  },
  {
    "pincode": "203394",
    "officename": "Khanoda B.O",
    "officeType": "B.O",
    "Deliverystatus": "Delivery",
    "divisionname": "Bulandshahar",
    "regionname": "Agra",
    "circlename": "Uttar Pradesh",
    "Taluk": "Anoop Shahr",
    "Districtname": "Bulandshahr",
    "statename": "UTTAR PRADESH"
  },
  {
    "pincode": "203394",
    "officename": "Navi Nagar B.O",
    "officeType": "B.O",
    "Deliverystatus": "Delivery",
    "divisionname": "Bulandshahar",
    "regionname": "Agra",
    "circlename": "Uttar Pradesh",
    "Taluk": "Anoop Shahr",
    "Districtname": "Bulandshahr",
    "statename": "UTTAR PRADESH"
  },
  {
    "pincode": "203394",
    "officename": "Sakhani B.O",
    "officeType": "B.O",
    "Deliverystatus": "Delivery",
    "divisionname": "Bulandshahar",
    "regionname": "Agra",
    "circlename": "Uttar Pradesh",
    "Taluk": "Anoop Shahr",
    "Districtname": "Bulandshahr",
    "statename": "UTTAR PRADESH"
  },
  {
    "pincode": "203394",
    "officename": "Tauli B.O",
    "officeType": "B.O",
    "Deliverystatus": "Delivery",
    "divisionname": "Bulandshahar",
    "regionname": "Agra",
    "circlename": "Uttar Pradesh",
    "Taluk": "Anoop Shahr",
    "Districtname": "Bulandshahr",
    "statename": "UTTAR PRADESH"
  },
  {
    "pincode": "203394",
    "officename": "Titota Veer B.O",
    "officeType": "B.O",
    "Deliverystatus": "Delivery",
    "divisionname": "Bulandshahar",
    "regionname": "Agra",
    "circlename": "Uttar Pradesh",
    "Taluk": "Anoop Shahr",
    "Districtname": "Bulandshahr",
    "statename": "UTTAR PRADESH"
  }
]
