[
  {
    "pincode": "203398",
    "officename": "Ahar B.O",
    "officeType": "B.O",
    "Deliverystatus": "Delivery",
    "divisionname": "Bulandshahar",
    "regionname": "Agra",
    "circlename": "Uttar Pradesh",
    "Taluk": "Anupshaher",
    "Districtname": "Bulandshahr",
    "statename": "UTTAR PRADESH"
  },
  {
    "pincode": "203398",
    "officename": "Amargarh B.O",
    "officeType": "B.O",
    "Deliverystatus": "Delivery",
    "divisionname": "Bulandshahar",
    "regionname": "Agra",
    "circlename": "Uttar Pradesh",
    "Taluk": "Anupshaher",
    "Districtname": "Bulandshahr",
    "statename": "UTTAR PRADESH"
  },
  {
    "pincode": "203398",
    "officename": "Auranga Bad Taherpur B.O",
    "officeType": "B.O",
    "Deliverystatus": "Delivery",
    "divisionname": "Bulandshahar",
    "regionname": "Agra",
    "circlename": "Uttar Pradesh",
    "Taluk": "Bulandshahr",
    "Districtname": "Bulandshahr",
    "statename": "UTTAR PRADESH"
  },
  {
    "pincode": "203398",
    "officename": "Barhpura B.O",
    "officeType": "B.O",
    "Deliverystatus": "Delivery",
    "divisionname": "Bulandshahar",
    "regionname": "Agra",
    "circlename": "Uttar Pradesh",
    "Taluk": "Bulandshahr",
    "Districtname": "Bulandshahr",
    "statename": "UTTAR PRADESH"
  },
  {
    "pincode": "203398",
    "officename": "Darawer B.O",
    "officeType": "B.O",
    "Deliverystatus": "Non-Delivery",
    "divisionname": "Bulandshahar",
    "regionname": "Agra",
    "circlename": "Uttar Pradesh",
    "Taluk": "Anupshaher",
    "Districtname": "Bulandshahr",
    "statename": "UTTAR PRADESH"
  },
  {
    "pincode": "203398",
    "officename": "Doulatpur   Kala B.O",
    "officeType": "B.O",
    "Deliverystatus": "Delivery",
    "divisionname": "Bulandshahar",
    "regionname": "Agra",
    "circlename": "Uttar Pradesh",
    "Taluk": "Anupshahr",
    "Districtname": "Bulandshahr",
    "statename": "UTTAR PRADESH"
  },
  {
    "pincode": "203398",
    "officename": "Ghungharwaly B.O",
    "officeType": "B.O",
    "Deliverystatus": "Delivery",
    "divisionname": "Bulandshahar",
    "regionname": "Agra",
    "circlename": "Uttar Pradesh",
    "Taluk": "Anupshhar",
    "Districtname": "Bulandshahr",
    "statename": "UTTAR PRADESH"
  },
  {
    "pincode": "203398",
    "officename": "Khandoi B.O",
    "officeType": "B.O",
    "Deliverystatus": "Delivery",
    "divisionname": "Bulandshahar",
    "regionname": "Agra",
    "circlename": "Uttar Pradesh",
    "Taluk": "Anupshahr",
    "Districtname": "Bulandshahr",
    "statename": "UTTAR PRADESH"
  },
  {
    "pincode": "203398",
    "officename": "Mauwa  Khera B.O",
    "officeType": "B.O",
    "Deliverystatus": "Delivery",
    "divisionname": "Bulandshahar",
    "regionname": "Agra",
    "circlename": "Uttar Pradesh",
    "Taluk": "Anupshaher",
    "Districtname": "Bulandshahr",
    "statename": "UTTAR PRADESH"
  },
  {
    "pincode": "203398",
    "officename": "Mawai B.O",
    "officeType": "B.O",
    "Deliverystatus": "Delivery",
    "divisionname": "Bulandshahar",
    "regionname": "Agra",
    "circlename": "Uttar Pradesh",
    "Taluk": "Anupshahr",
    "Districtname": "Bulandshahr",
    "statename": "UTTAR PRADESH"
  },
  {
    "pincode": "203398",
    "officename": "Mohersha B.O",
    "officeType": "B.O",
    "Deliverystatus": "Delivery",
    "divisionname": "Bulandshahar",
    "regionname": "Agra",
    "circlename": "Uttar Pradesh",
    "Taluk": "Anupshaher",
    "Districtname": "Bulandshahr",
    "statename": "UTTAR PRADESH"
  },
  {
    "pincode": "203398",
    "officename": "Narsena B.O",
    "officeType": "B.O",
    "Deliverystatus": "Non-Delivery",
    "divisionname": "Bulandshahar",
    "regionname": "Agra",
    "circlename": "Uttar Pradesh",
    "Taluk": "Anupshahr",
    "Districtname": "Bulandshahr",
    "statename": "UTTAR PRADESH"
  },
  {
    "pincode": "203398",
    "officename": "Shikoi B.O",
    "officeType": "B.O",
    "Deliverystatus": "Delivery",
    "divisionname": "Bulandshahar",
    "regionname": "Agra",
    "circlename": "Uttar Pradesh",
    "Taluk": "Anupshaher",
    "Districtname": "Bulandshahr",
    "statename": "UTTAR PRADESH"
  },
  {
    "pincode": "203398",
    "officename": "Thana  Gajraula B.O",
    "officeType": "B.O",
    "Deliverystatus": "Delivery",
    "divisionname": "Bulandshahar",
    "regionname": "Agra",
    "circlename": "Uttar Pradesh",
    "Taluk": "Anupshaher",
    "Districtname": "Bulandshahr",
    "statename": "UTTAR PRADESH"
  },
  {
    "pincode": "203398",
    "officename": "Uncha Gaon S.O",
    "officeType": "S.O",
    "Deliverystatus": "Delivery",
    "divisionname": "Bulandshahar",
    "regionname": "Agra",
    "circlename": "Uttar Pradesh",
    "Taluk": "Anupshahr",
    "Districtname": "Bulandshahr",
    "statename": "UTTAR PRADESH"
  }
]
