[
  {
    "pincode": "203408",
    "officename": "Asawar B.O",
    "officeType": "B.O",
    "Deliverystatus": "Delivery",
    "divisionname": "Bulandshahar",
    "regionname": "Agra",
    "circlename": "Uttar Pradesh",
    "Taluk": "Bulandshahr",
    "Districtname": "Bulandshahr",
    "statename": "UTTAR PRADESH"
  },
  {
    "pincode": "203408",
    "officename": "Asfabad Chandpura B.O",
    "officeType": "B.O",
    "Deliverystatus": "Delivery",
    "divisionname": "Bulandshahar",
    "regionname": "Agra",
    "circlename": "Uttar Pradesh",
    "Taluk": "Bulandshahr",
    "Districtname": "Bulandshahr",
    "statename": "UTTAR PRADESH"
  },
  {
    "pincode": "203408",
    "officename": "Baghwala B.O",
    "officeType": "B.O",
    "Deliverystatus": "Delivery",
    "divisionname": "Bulandshahar",
    "regionname": "Agra",
    "circlename": "Uttar Pradesh",
    "Taluk": "Bulandshahr",
    "Districtname": "Bulandshahr",
    "statename": "UTTAR PRADESH"
  },
  {
    "pincode": "203408",
    "officename": "Banboai B.O",
    "officeType": "B.O",
    "Deliverystatus": "Non-Delivery",
    "divisionname": "Bulandshahar",
    "regionname": "Agra",
    "circlename": "Uttar Pradesh",
    "Taluk": "Bulandshahr",
    "Districtname": "Bulandshahr",
    "statename": "UTTAR PRADESH"
  },
  {
    "pincode": "203408",
    "officename": "Baral B.O",
    "officeType": "B.O",
    "Deliverystatus": "Delivery",
    "divisionname": "Bulandshahar",
    "regionname": "Agra",
    "circlename": "Uttar Pradesh",
    "Taluk": "Bulandshahr",
    "Districtname": "Bulandshahr",
    "statename": "UTTAR PRADESH"
  },
  {
    "pincode": "203408",
    "officename": "Bhatauna B.O",
    "officeType": "B.O",
    "Deliverystatus": "Delivery",
    "divisionname": "Bulandshahar",
    "regionname": "Agra",
    "circlename": "Uttar Pradesh",
    "Taluk": "Bulandshahr",
    "Districtname": "Bulandshahr",
    "statename": "UTTAR PRADESH"
  },
  {
    "pincode": "203408",
    "officename": "Chaprawat B.O",
    "officeType": "B.O",
    "Deliverystatus": "Delivery",
    "divisionname": "Bulandshahar",
    "regionname": "Agra",
    "circlename": "Uttar Pradesh",
    "Taluk": "Bulandshahr",
    "Districtname": "Bulandshahr",
    "statename": "UTTAR PRADESH"
  },
  {
    "pincode": "203408",
    "officename": "Garhiya Manpur B.O",
    "officeType": "B.O",
    "Deliverystatus": "Delivery",
    "divisionname": "Bulandshahar",
    "regionname": "Agra",
    "circlename": "Uttar Pradesh",
    "Taluk": "Bulandshahr",
    "Districtname": "Bulandshahr",
    "statename": "UTTAR PRADESH"
  },
  {
    "pincode": "203408",
    "officename": "Ginora Shekh B.O",
    "officeType": "B.O",
    "Deliverystatus": "Delivery",
    "divisionname": "Bulandshahar",
    "regionname": "Agra",
    "circlename": "Uttar Pradesh",
    "Taluk": "Bulandshahr",
    "Districtname": "Bulandshahr",
    "statename": "UTTAR PRADESH"
  },
  {
    "pincode": "203408",
    "officename": "Gulaothi S.O",
    "officeType": "S.O",
    "Deliverystatus": "Delivery",
    "divisionname": "Bulandshahar",
    "regionname": "Agra",
    "circlename": "Uttar Pradesh",
    "Taluk": "Bulandshahr",
    "Districtname": "Bulandshahr",
    "statename": "UTTAR PRADESH"
  },
  {
    "pincode": "203408",
    "officename": "Harchana B.O",
    "officeType": "B.O",
    "Deliverystatus": "Delivery",
    "divisionname": "Bulandshahar",
    "regionname": "Agra",
    "circlename": "Uttar Pradesh",
    "Taluk": "Bulandshahr",
    "Districtname": "Bulandshahr",
    "statename": "UTTAR PRADESH"
  },
  {
    "pincode": "203408",
    "officename": "Isapur B.O",
    "officeType": "B.O",
    "Deliverystatus": "Delivery",
    "divisionname": "Bulandshahar",
    "regionname": "Agra",
    "circlename": "Uttar Pradesh",
    "Taluk": "Bulandshahr",
    "Districtname": "Bulandshahr",
    "statename": "UTTAR PRADESH"
  },
  {
    "pincode": "203408",
    "officename": "Khushhalpur B.O",
    "officeType": "B.O",
    "Deliverystatus": "Delivery",
    "divisionname": "Bulandshahar",
    "regionname": "Agra",
    "circlename": "Uttar Pradesh",
    "Taluk": "Bulandshahr",
    "Districtname": "Bulandshahr",
    "statename": "UTTAR PRADESH"
  },
  {
    "pincode": "203408",
    "officename": "Kisoli B.O",
    "officeType": "B.O",
    "Deliverystatus": "Delivery",
    "divisionname": "Bulandshahar",
    "regionname": "Agra",
    "circlename": "Uttar Pradesh",
    "Taluk": "Bulandshahr",
    "Districtname": "Bulandshahr",
    "statename": "UTTAR PRADESH"
  },
  {
    "pincode": "203408",
    "officename": "Kota B.O",
    "officeType": "B.O",
    "Deliverystatus": "Delivery",
    "divisionname": "Bulandshahar",
    "regionname": "Agra",
    "circlename": "Uttar Pradesh",
    "Taluk": "Bulandshahr",
    "Districtname": "Bulandshahr",
    "statename": "UTTAR PRADESH"
  },
  {
    "pincode": "203408",
    "officename": "Kurli B.O",
    "officeType": "B.O",
    "Deliverystatus": "Non-Delivery",
    "divisionname": "Bulandshahar",
    "regionname": "Agra",
    "circlename": "Uttar Pradesh",
    "Taluk": "Bulandshahr",
    "Districtname": "Bulandshahr",
    "statename": "UTTAR PRADESH"
  },
  {
    "pincode": "203408",
    "officename": "Mohana B.O",
    "officeType": "B.O",
    "Deliverystatus": "Non-Delivery",
    "divisionname": "Bulandshahar",
    "regionname": "Agra",
    "circlename": "Uttar Pradesh",
    "Taluk": "Bulandshahr",
    "Districtname": "Bulandshahr",
    "statename": "UTTAR PRADESH"
  },
  {
    "pincode": "203408",
    "officename": "Obs Gulaothi S.O",
    "officeType": "S.O",
    "Deliverystatus": "Non-Delivery",
    "divisionname": "Bulandshahar",
    "regionname": "Agra",
    "circlename": "Uttar Pradesh",
    "Taluk": "Bulandshahr",
    "Districtname": "Bulandshahr",
    "statename": "UTTAR PRADESH"
  },
  {
    "pincode": "203408",
    "officename": "Oledha B.O",
    "officeType": "B.O",
    "Deliverystatus": "Non-Delivery",
    "divisionname": "Bulandshahar",
    "regionname": "Agra",
    "circlename": "Uttar Pradesh",
    "Taluk": "Bulandshahr",
    "Districtname": "Bulandshahr",
    "statename": "UTTAR PRADESH"
  },
  {
    "pincode": "203408",
    "officename": "Pitubash B.O",
    "officeType": "B.O",
    "Deliverystatus": "Delivery",
    "divisionname": "Bulandshahar",
    "regionname": "Agra",
    "circlename": "Uttar Pradesh",
    "Taluk": "Bulandshahr",
    "Districtname": "Bulandshahr",
    "statename": "UTTAR PRADESH"
  },
  {
    "pincode": "203408",
    "officename": "Senta B.O",
    "officeType": "B.O",
    "Deliverystatus": "Delivery",
    "divisionname": "Bulandshahar",
    "regionname": "Agra",
    "circlename": "Uttar Pradesh",
    "Taluk": "Bulandshahr",
    "Districtname": "Bulandshahr",
    "statename": "UTTAR PRADESH"
  }
]
