[
  {
    "pincode": "204101",
    "officename": "Ahabaranpur B.O",
    "officeType": "B.O",
    "Deliverystatus": "Delivery",
    "divisionname": "Aligarh",
    "regionname": "Agra",
    "circlename": "Uttar Pradesh",
    "Taluk": "",
    "Districtname": "Hathras",
    "statename": "UTTAR PRADESH"
  },
  {
    "pincode": "204101",
    "officename": "Ahen B.O",
    "officeType": "B.O",
    "Deliverystatus": "Delivery",
    "divisionname": "Aligarh",
    "regionname": "Agra",
    "circlename": "Uttar Pradesh",
    "Taluk": "",
    "Districtname": "Hathras",
    "statename": "UTTAR PRADESH"
  },
  {
    "pincode": "204101",
    "officename": "Allehpur B.O",
    "officeType": "B.O",
    "Deliverystatus": "Delivery",
    "divisionname": "Aligarh",
    "regionname": "Agra",
    "circlename": "Uttar Pradesh",
    "Taluk": "",
    "Districtname": "Hathras",
    "statename": "UTTAR PRADESH"
  },
  {
    "pincode": "204101",
    "officename": "Arjunpur B.O",
    "officeType": "B.O",
    "Deliverystatus": "Delivery",
    "divisionname": "Aligarh",
    "regionname": "Agra",
    "circlename": "Uttar Pradesh",
    "Taluk": "",
    "Districtname": "Hathras",
    "statename": "UTTAR PRADESH"
  },
  {
    "pincode": "204101",
    "officename": "Bisana B.O",
    "officeType": "B.O",
    "Deliverystatus": "Delivery",
    "divisionname": "Aligarh",
    "regionname": "Agra",
    "circlename": "Uttar Pradesh",
    "Taluk": "",
    "Districtname": "Hathras",
    "statename": "UTTAR PRADESH"
  },
  {
    "pincode": "204101",
    "officename": "Gangcholi B.O",
    "officeType": "B.O",
    "Deliverystatus": "Delivery",
    "divisionname": "Aligarh",
    "regionname": "Agra",
    "circlename": "Uttar Pradesh",
    "Taluk": "",
    "Districtname": "Hathras",
    "statename": "UTTAR PRADESH"
  },
  {
    "pincode": "204101",
    "officename": "Garhi Balna B.O",
    "officeType": "B.O",
    "Deliverystatus": "Delivery",
    "divisionname": "Aligarh",
    "regionname": "Agra",
    "circlename": "Uttar Pradesh",
    "Taluk": "",
    "Districtname": "Hathras",
    "statename": "UTTAR PRADESH"
  },
  {
    "pincode": "204101",
    "officename": "Hathras City S.O",
    "officeType": "S.O",
    "Deliverystatus": "Non-Delivery",
    "divisionname": "Aligarh",
    "regionname": "Agra",
    "circlename": "Uttar Pradesh",
    "Taluk": "Aligarh",
    "Districtname": "Hathras",
    "statename": "UTTAR PRADESH"
  },
  {
    "pincode": "204101",
    "officename": "Hathras S.O",
    "officeType": "S.O",
    "Deliverystatus": "Delivery",
    "divisionname": "Aligarh",
    "regionname": "Agra",
    "circlename": "Uttar Pradesh",
    "Taluk": "Aligarh",
    "Districtname": "Hathras",
    "statename": "UTTAR PRADESH"
  },
  {
    "pincode": "204101",
    "officename": "Hatisa Bhagwantpur B.O",
    "officeType": "B.O",
    "Deliverystatus": "Delivery",
    "divisionname": "Aligarh",
    "regionname": "Agra",
    "circlename": "Uttar Pradesh",
    "Taluk": "",
    "Districtname": "Hathras",
    "statename": "UTTAR PRADESH"
  },
  {
    "pincode": "204101",
    "officename": "I A Hathras S.O",
    "officeType": "S.O",
    "Deliverystatus": "Non-Delivery",
    "divisionname": "Aligarh",
    "regionname": "Agra",
    "circlename": "Uttar Pradesh",
    "Taluk": "Aligarh",
    "Districtname": "Hathras",
    "statename": "UTTAR PRADESH"
  },
  {
    "pincode": "204101",
    "officename": "Jogia B.O",
    "officeType": "B.O",
    "Deliverystatus": "Delivery",
    "divisionname": "Aligarh",
    "regionname": "Agra",
    "circlename": "Uttar Pradesh",
    "Taluk": "",
    "Districtname": "Hathras",
    "statename": "UTTAR PRADESH"
  },
  {
    "pincode": "204101",
    "officename": "Karas B.O",
    "officeType": "B.O",
    "Deliverystatus": "Delivery",
    "divisionname": "Aligarh",
    "regionname": "Agra",
    "circlename": "Uttar Pradesh",
    "Taluk": "",
    "Districtname": "Hathras",
    "statename": "UTTAR PRADESH"
  },
  {
    "pincode": "204101",
    "officename": "Koka B.O",
    "officeType": "B.O",
    "Deliverystatus": "Delivery",
    "divisionname": "Aligarh",
    "regionname": "Agra",
    "circlename": "Uttar Pradesh",
    "Taluk": "",
    "Districtname": "Hathras",
    "statename": "UTTAR PRADESH"
  },
  {
    "pincode": "204101",
    "officename": "Kunwarpur B.O",
    "officeType": "B.O",
    "Deliverystatus": "Delivery",
    "divisionname": "Aligarh",
    "regionname": "Agra",
    "circlename": "Uttar Pradesh",
    "Taluk": "",
    "Districtname": "Hathras",
    "statename": "UTTAR PRADESH"
  },
  {
    "pincode": "204101",
    "officename": "L C Hathras B.O",
    "officeType": "B.O",
    "Deliverystatus": "Delivery",
    "divisionname": "Aligarh",
    "regionname": "Agra",
    "circlename": "Uttar Pradesh",
    "Taluk": "Aligarh",
    "Districtname": "Hathras",
    "statename": "UTTAR PRADESH"
  },
  {
    "pincode": "204101",
    "officename": "Ladpur B.O",
    "officeType": "B.O",
    "Deliverystatus": "Delivery",
    "divisionname": "Aligarh",
    "regionname": "Agra",
    "circlename": "Uttar Pradesh",
    "Taluk": "",
    "Districtname": "Hathras",
    "statename": "UTTAR PRADESH"
  },
  {
    "pincode": "204101",
    "officename": "Lakhnu B.O",
    "officeType": "B.O",
    "Deliverystatus": "Delivery",
    "divisionname": "Aligarh",
    "regionname": "Agra",
    "circlename": "Uttar Pradesh",
    "Taluk": "",
    "Districtname": "Hathras",
    "statename": "UTTAR PRADESH"
  },
  {
    "pincode": "204101",
    "officename": "Luheta Khurd B.O",
    "officeType": "B.O",
    "Deliverystatus": "Delivery",
    "divisionname": "Aligarh",
    "regionname": "Agra",
    "circlename": "Uttar Pradesh",
    "Taluk": "",
    "Districtname": "Hathras",
    "statename": "UTTAR PRADESH"
  },
  {
    "pincode": "204101",
    "officename": "M M Hathras S.O",
    "officeType": "S.O",
    "Deliverystatus": "Non-Delivery",
    "divisionname": "Aligarh",
    "regionname": "Agra",
    "circlename": "Uttar Pradesh",
    "Taluk": "Aligarh",
    "Districtname": "Hathras",
    "statename": "UTTAR PRADESH"
  },
  {
    "pincode": "204101",
    "officename": "Meetai B.O",
    "officeType": "B.O",
    "Deliverystatus": "Delivery",
    "divisionname": "Aligarh",
    "regionname": "Agra",
    "circlename": "Uttar Pradesh",
    "Taluk": "",
    "Districtname": "Hathras",
    "statename": "UTTAR PRADESH"
  },
  {
    "pincode": "204101",
    "officename": "Nayaganj Hathras S.O",
    "officeType": "S.O",
    "Deliverystatus": "Non-Delivery",
    "divisionname": "Aligarh",
    "regionname": "Agra",
    "circlename": "Uttar Pradesh",
    "Taluk": "Aligarh",
    "Districtname": "Hathras",
    "statename": "UTTAR PRADESH"
  },
  {
    "pincode": "204101",
    "officename": "Parsara B.O",
    "officeType": "B.O",
    "Deliverystatus": "Delivery",
    "divisionname": "Aligarh",
    "regionname": "Agra",
    "circlename": "Uttar Pradesh",
    "Taluk": "",
    "Districtname": "Hathras",
    "statename": "UTTAR PRADESH"
  },
  {
    "pincode": "204101",
    "officename": "Ruheri B.O",
    "officeType": "B.O",
    "Deliverystatus": "Delivery",
    "divisionname": "Aligarh",
    "regionname": "Agra",
    "circlename": "Uttar Pradesh",
    "Taluk": "",
    "Districtname": "Hathras",
    "statename": "UTTAR PRADESH"
  },
  {
    "pincode": "204101",
    "officename": "Sokhana B.O",
    "officeType": "B.O",
    "Deliverystatus": "Delivery",
    "divisionname": "Aligarh",
    "regionname": "Agra",
    "circlename": "Uttar Pradesh",
    "Taluk": "",
    "Districtname": "Hathras",
    "statename": "UTTAR PRADESH"
  },
  {
    "pincode": "204101",
    "officename": "Tehra B.O",
    "officeType": "B.O",
    "Deliverystatus": "Delivery",
    "divisionname": "Aligarh",
    "regionname": "Agra",
    "circlename": "Uttar Pradesh",
    "Taluk": "",
    "Districtname": "Hathras",
    "statename": "UTTAR PRADESH"
  },
  {
    "pincode": "204101",
    "officename": "Tochhigarh B.O",
    "officeType": "B.O",
    "Deliverystatus": "Delivery",
    "divisionname": "Aligarh",
    "regionname": "Agra",
    "circlename": "Uttar Pradesh",
    "Taluk": "Aligarh",
    "Districtname": "Hathras",
    "statename": "UTTAR PRADESH"
  },
  {
    "pincode": "204101",
    "officename": "Tuksan B.O",
    "officeType": "B.O",
    "Deliverystatus": "Delivery",
    "divisionname": "Aligarh",
    "regionname": "Agra",
    "circlename": "Uttar Pradesh",
    "Taluk": "",
    "Districtname": "Hathras",
    "statename": "UTTAR PRADESH"
  },
  {
    "pincode": "204101",
    "officename": "Veernagar B.O",
    "officeType": "B.O",
    "Deliverystatus": "Delivery",
    "divisionname": "Aligarh",
    "regionname": "Agra",
    "circlename": "Uttar Pradesh",
    "Taluk": "",
    "Districtname": "Hathras",
    "statename": "UTTAR PRADESH"
  }
]
