[
  {
    "pincode": "204214",
    "officename": "Barsauli B.O",
    "officeType": "B.O",
    "Deliverystatus": "Delivery",
    "divisionname": "Aligarh",
    "regionname": "Agra",
    "circlename": "Uttar Pradesh",
    "Taluk": "",
    "Districtname": "Hathras",
    "statename": "UTTAR PRADESH"
  },
  {
    "pincode": "204214",
    "officename": "Basgoi B.O",
    "officeType": "B.O",
    "Deliverystatus": "Delivery",
    "divisionname": "Aligarh",
    "regionname": "Agra",
    "circlename": "Uttar Pradesh",
    "Taluk": "Aligarh",
    "Districtname": "Hathras",
    "statename": "UTTAR PRADESH"
  },
  {
    "pincode": "204214",
    "officename": "Bhenkuri B.O",
    "officeType": "B.O",
    "Deliverystatus": "Delivery",
    "divisionname": "Aligarh",
    "regionname": "Agra",
    "circlename": "Uttar Pradesh",
    "Taluk": "Aligarh",
    "Districtname": "Hathras",
    "statename": "UTTAR PRADESH"
  },
  {
    "pincode": "204214",
    "officename": "Bhuraka B.O",
    "officeType": "B.O",
    "Deliverystatus": "Delivery",
    "divisionname": "Aligarh",
    "regionname": "Agra",
    "circlename": "Uttar Pradesh",
    "Taluk": "Aligarh",
    "Districtname": "Hathras",
    "statename": "UTTAR PRADESH"
  },
  {
    "pincode": "204214",
    "officename": "Jansoi B.O",
    "officeType": "B.O",
    "Deliverystatus": "Delivery",
    "divisionname": "Aligarh",
    "regionname": "Agra",
    "circlename": "Uttar Pradesh",
    "Taluk": "Aligarh",
    "Districtname": "Hathras",
    "statename": "UTTAR PRADESH"
  },
  {
    "pincode": "204214",
    "officename": "Mendamai B.O",
    "officeType": "B.O",
    "Deliverystatus": "Delivery",
    "divisionname": "Aligarh",
    "regionname": "Agra",
    "circlename": "Uttar Pradesh",
    "Taluk": "Aligarh",
    "Districtname": "Hathras",
    "statename": "UTTAR PRADESH"
  },
  {
    "pincode": "204214",
    "officename": "Nagaria Patti B.O",
    "officeType": "B.O",
    "Deliverystatus": "Delivery",
    "divisionname": "Aligarh",
    "regionname": "Agra",
    "circlename": "Uttar Pradesh",
    "Taluk": "Aligarh",
    "Districtname": "Hathras",
    "statename": "UTTAR PRADESH"
  },
  {
    "pincode": "204214",
    "officename": "Nagla Veer Sahai B.O",
    "officeType": "B.O",
    "Deliverystatus": "Delivery",
    "divisionname": "Aligarh",
    "regionname": "Agra",
    "circlename": "Uttar Pradesh",
    "Taluk": "Aligarh",
    "Districtname": "Hathras",
    "statename": "UTTAR PRADESH"
  },
  {
    "pincode": "204214",
    "officename": "Pora B.O",
    "officeType": "B.O",
    "Deliverystatus": "Delivery",
    "divisionname": "Aligarh",
    "regionname": "Agra",
    "circlename": "Uttar Pradesh",
    "Taluk": "Aligarh",
    "Districtname": "Hathras",
    "statename": "UTTAR PRADESH"
  },
  {
    "pincode": "204214",
    "officename": "Purdilpur S.O",
    "officeType": "S.O",
    "Deliverystatus": "Delivery",
    "divisionname": "Aligarh",
    "regionname": "Agra",
    "circlename": "Uttar Pradesh",
    "Taluk": "Aligarh",
    "Districtname": "Hathras",
    "statename": "UTTAR PRADESH"
  }
]
