[
  {
    "pincode": "205264",
    "officename": "Andani B.O",
    "officeType": "B.O",
    "Deliverystatus": "Non-Delivery",
    "divisionname": "Mainpuri",
    "regionname": "Agra",
    "circlename": "Uttar Pradesh",
    "Taluk": "Karahal",
    "Districtname": "Mainpuri",
    "statename": "UTTAR PRADESH"
  },
  {
    "pincode": "205264",
    "officename": "Atirajpur B.O",
    "officeType": "B.O",
    "Deliverystatus": "Delivery",
    "divisionname": "Mainpuri",
    "regionname": "Agra",
    "circlename": "Uttar Pradesh",
    "Taluk": "",
    "Districtname": "Mainpuri",
    "statename": "UTTAR PRADESH"
  },
  {
    "pincode": "205264",
    "officename": "Bamtapur B.O",
    "officeType": "B.O",
    "Deliverystatus": "Delivery",
    "divisionname": "Mainpuri",
    "regionname": "Agra",
    "circlename": "Uttar Pradesh",
    "Taluk": "Karhal",
    "Districtname": "Mainpuri",
    "statename": "UTTAR PRADESH"
  },
  {
    "pincode": "205264",
    "officename": "Bhidaura B.O",
    "officeType": "B.O",
    "Deliverystatus": "Non-Delivery",
    "divisionname": "Mainpuri",
    "regionname": "Agra",
    "circlename": "Uttar Pradesh",
    "Taluk": "Kahal",
    "Districtname": "Mainpuri",
    "statename": "UTTAR PRADESH"
  },
  {
    "pincode": "205264",
    "officename": "Chandpura B.O",
    "officeType": "B.O",
    "Deliverystatus": "Non-Delivery",
    "divisionname": "Mainpuri",
    "regionname": "Agra",
    "circlename": "Uttar Pradesh",
    "Taluk": "Karhal",
    "Districtname": "Mainpuri",
    "statename": "UTTAR PRADESH"
  },
  {
    "pincode": "205264",
    "officename": "Grhiya B.O",
    "officeType": "B.O",
    "Deliverystatus": "Non-Delivery",
    "divisionname": "Mainpuri",
    "regionname": "Agra",
    "circlename": "Uttar Pradesh",
    "Taluk": "Kahal",
    "Districtname": "Mainpuri",
    "statename": "UTTAR PRADESH"
  },
  {
    "pincode": "205264",
    "officename": "Karhal S.O (Mainpuri)",
    "officeType": "S.O",
    "Deliverystatus": "Delivery",
    "divisionname": "Mainpuri",
    "regionname": "Agra",
    "circlename": "Uttar Pradesh",
    "Taluk": "Karahal",
    "Districtname": "Mainpuri",
    "statename": "UTTAR PRADESH"
  },
  {
    "pincode": "205264",
    "officename": "Kirthua B.O",
    "officeType": "B.O",
    "Deliverystatus": "Non-Delivery",
    "divisionname": "Mainpuri",
    "regionname": "Agra",
    "circlename": "Uttar Pradesh",
    "Taluk": "Kahal",
    "Districtname": "Mainpuri",
    "statename": "UTTAR PRADESH"
  },
  {
    "pincode": "205264",
    "officename": "Nagla Dik B.O",
    "officeType": "B.O",
    "Deliverystatus": "Delivery",
    "divisionname": "Mainpuri",
    "regionname": "Agra",
    "circlename": "Uttar Pradesh",
    "Taluk": "",
    "Districtname": "Mainpuri",
    "statename": "UTTAR PRADESH"
  },
  {
    "pincode": "205264",
    "officename": "Nakau B.O",
    "officeType": "B.O",
    "Deliverystatus": "Non-Delivery",
    "divisionname": "Mainpuri",
    "regionname": "Agra",
    "circlename": "Uttar Pradesh",
    "Taluk": "Kahal",
    "Districtname": "Mainpuri",
    "statename": "UTTAR PRADESH"
  },
  {
    "pincode": "205264",
    "officename": "Pairar Shahpur B.O",
    "officeType": "B.O",
    "Deliverystatus": "Non-Delivery",
    "divisionname": "Mainpuri",
    "regionname": "Agra",
    "circlename": "Uttar Pradesh",
    "Taluk": "Kahal",
    "Districtname": "Mainpuri",
    "statename": "UTTAR PRADESH"
  },
  {
    "pincode": "205264",
    "officename": "Shjhajipur B.O",
    "officeType": "B.O",
    "Deliverystatus": "Non-Delivery",
    "divisionname": "Mainpuri",
    "regionname": "Agra",
    "circlename": "Uttar Pradesh",
    "Taluk": "Kahal",
    "Districtname": "Mainpuri",
    "statename": "UTTAR PRADESH"
  },
  {
    "pincode": "205264",
    "officename": "Urthan B.O",
    "officeType": "B.O",
    "Deliverystatus": "Non-Delivery",
    "divisionname": "Mainpuri",
    "regionname": "Agra",
    "circlename": "Uttar Pradesh",
    "Taluk": "Karhal",
    "Districtname": "Mainpuri",
    "statename": "UTTAR PRADESH"
  }
]
