[
  {
    "pincode": "205263",
    "officename": "Achalpur B.O",
    "officeType": "B.O",
    "Deliverystatus": "Delivery",
    "divisionname": "Mainpuri",
    "regionname": "Agra",
    "circlename": "Uttar Pradesh",
    "Taluk": "Mainpuri",
    "Districtname": "Mainpuri",
    "statename": "UTTAR PRADESH"
  },
  {
    "pincode": "205263",
    "officename": "Chetai B.O",
    "officeType": "B.O",
    "Deliverystatus": "Delivery",
    "divisionname": "Mainpuri",
    "regionname": "Agra",
    "circlename": "Uttar Pradesh",
    "Taluk": "Mainpuri",
    "Districtname": "Mainpuri",
    "statename": "UTTAR PRADESH"
  },
  {
    "pincode": "205263",
    "officename": "Isai Gopalpur B.O",
    "officeType": "B.O",
    "Deliverystatus": "Delivery",
    "divisionname": "Mainpuri",
    "regionname": "Agra",
    "circlename": "Uttar Pradesh",
    "Taluk": "Mainpuri",
    "Districtname": "Mainpuri",
    "statename": "UTTAR PRADESH"
  },
  {
    "pincode": "205263",
    "officename": "Jeonti S.O",
    "officeType": "S.O",
    "Deliverystatus": "Delivery",
    "divisionname": "Mainpuri",
    "regionname": "Agra",
    "circlename": "Uttar Pradesh",
    "Taluk": "Mainpuri",
    "Districtname": "Mainpuri",
    "statename": "UTTAR PRADESH"
  },
  {
    "pincode": "205263",
    "officename": "Madhan B.O",
    "officeType": "B.O",
    "Deliverystatus": "Delivery",
    "divisionname": "Mainpuri",
    "regionname": "Agra",
    "circlename": "Uttar Pradesh",
    "Taluk": "Mainpuri",
    "Districtname": "Mainpuri",
    "statename": "UTTAR PRADESH"
  },
  {
    "pincode": "205263",
    "officename": "Manauna B.O",
    "officeType": "B.O",
    "Deliverystatus": "Delivery",
    "divisionname": "Mainpuri",
    "regionname": "Agra",
    "circlename": "Uttar Pradesh",
    "Taluk": "Mainpuri",
    "Districtname": "Mainpuri",
    "statename": "UTTAR PRADESH"
  },
  {
    "pincode": "205263",
    "officename": "Paronkh B.O",
    "officeType": "B.O",
    "Deliverystatus": "Delivery",
    "divisionname": "Mainpuri",
    "regionname": "Agra",
    "circlename": "Uttar Pradesh",
    "Taluk": "Mainpuri",
    "Districtname": "Mainpuri",
    "statename": "UTTAR PRADESH"
  },
  {
    "pincode": "205263",
    "officename": "Thorwa B.O",
    "officeType": "B.O",
    "Deliverystatus": "Delivery",
    "divisionname": "Mainpuri",
    "regionname": "Agra",
    "circlename": "Uttar Pradesh",
    "Taluk": "Mainpuri",
    "Districtname": "Mainpuri",
    "statename": "UTTAR PRADESH"
  },
  {
    "pincode": "205263",
    "officename": "Ujhaiya- Fakirpur B.O",
    "officeType": "B.O",
    "Deliverystatus": "Delivery",
    "divisionname": "Mainpuri",
    "regionname": "Agra",
    "circlename": "Uttar Pradesh",
    "Taluk": "Mainpuri",
    "Districtname": "Mainpuri",
    "statename": "UTTAR PRADESH"
  }
]
