[
  {
    "pincode": "205268",
    "officename": "Auchha B.O",
    "officeType": "B.O",
    "Deliverystatus": "Delivery",
    "divisionname": "Mainpuri",
    "regionname": "Agra",
    "circlename": "Uttar Pradesh",
    "Taluk": "Mainpuri",
    "Districtname": "Mainpuri",
    "statename": "UTTAR PRADESH"
  },
  {
    "pincode": "205268",
    "officename": "Kurra S.O",
    "officeType": "S.O",
    "Deliverystatus": "Delivery",
    "divisionname": "Mainpuri",
    "regionname": "Agra",
    "circlename": "Uttar Pradesh",
    "Taluk": "Karahal",
    "Districtname": "Mainpuri",
    "statename": "UTTAR PRADESH"
  },
  {
    "pincode": "205268",
    "officename": "Mohabbatpur B.O",
    "officeType": "B.O",
    "Deliverystatus": "Non-Delivery",
    "divisionname": "Mainpuri",
    "regionname": "Agra",
    "circlename": "Uttar Pradesh",
    "Taluk": "Karhal",
    "Districtname": "Mainpuri",
    "statename": "UTTAR PRADESH"
  },
  {
    "pincode": "205268",
    "officename": "Patara B.O",
    "officeType": "B.O",
    "Deliverystatus": "Delivery",
    "divisionname": "Mainpuri",
    "regionname": "Agra",
    "circlename": "Uttar Pradesh",
    "Taluk": "Karahal",
    "Districtname": "Mainpuri",
    "statename": "UTTAR PRADESH"
  },
  {
    "pincode": "205268",
    "officename": "Ranipur B.O",
    "officeType": "B.O",
    "Deliverystatus": "Delivery",
    "divisionname": "Mainpuri",
    "regionname": "Agra",
    "circlename": "Uttar Pradesh",
    "Taluk": "Karahal",
    "Districtname": "Mainpuri",
    "statename": "UTTAR PRADESH"
  },
  {
    "pincode": "205268",
    "officename": "Sahan B.O",
    "officeType": "B.O",
    "Deliverystatus": "Delivery",
    "divisionname": "Mainpuri",
    "regionname": "Agra",
    "circlename": "Uttar Pradesh",
    "Taluk": "Karhal",
    "Districtname": "Mainpuri",
    "statename": "UTTAR PRADESH"
  },
  {
    "pincode": "205268",
    "officename": "Sauj B.O",
    "officeType": "B.O",
    "Deliverystatus": "Delivery",
    "divisionname": "Mainpuri",
    "regionname": "Agra",
    "circlename": "Uttar Pradesh",
    "Taluk": "Karhal",
    "Districtname": "Mainpuri",
    "statename": "UTTAR PRADESH"
  },
  {
    "pincode": "205268",
    "officename": "Takharau B.O",
    "officeType": "B.O",
    "Deliverystatus": "Delivery",
    "divisionname": "Mainpuri",
    "regionname": "Agra",
    "circlename": "Uttar Pradesh",
    "Taluk": "Karahal",
    "Districtname": "Mainpuri",
    "statename": "UTTAR PRADESH"
  },
  {
    "pincode": "205268",
    "officename": "Vinayakpur B.O",
    "officeType": "B.O",
    "Deliverystatus": "Delivery",
    "divisionname": "Mainpuri",
    "regionname": "Agra",
    "circlename": "Uttar Pradesh",
    "Taluk": "Karhal",
    "Districtname": "Mainpuri",
    "statename": "UTTAR PRADESH"
  }
]
