[
  {
    "pincode": "206129",
    "officename": "Bakhriya B.O",
    "officeType": "B.O",
    "Deliverystatus": "Delivery",
    "divisionname": "Etawah",
    "regionname": "Agra",
    "circlename": "Uttar Pradesh",
    "Taluk": "Auraiya",
    "Districtname": "Auraiya",
    "statename": "UTTAR PRADESH"
  },
  {
    "pincode": "206129",
    "officename": "Bhason B.O",
    "officeType": "B.O",
    "Deliverystatus": "Delivery",
    "divisionname": "Etawah",
    "regionname": "Agra",
    "circlename": "Uttar Pradesh",
    "Taluk": "Auraiya",
    "Districtname": "Auraiya",
    "statename": "UTTAR PRADESH"
  },
  {
    "pincode": "206129",
    "officename": "Bhikhepur B.O",
    "officeType": "B.O",
    "Deliverystatus": "Delivery",
    "divisionname": "Etawah",
    "regionname": "Agra",
    "circlename": "Uttar Pradesh",
    "Taluk": "Auraiya",
    "Districtname": "Auraiya",
    "statename": "UTTAR PRADESH"
  },
  {
    "pincode": "206129",
    "officename": "Birhuni B.O",
    "officeType": "B.O",
    "Deliverystatus": "Delivery",
    "divisionname": "Etawah",
    "regionname": "Agra",
    "circlename": "Uttar Pradesh",
    "Taluk": "Auraiya",
    "Districtname": "Auraiya",
    "statename": "UTTAR PRADESH"
  },
  {
    "pincode": "206129",
    "officename": "Chapta B.O",
    "officeType": "B.O",
    "Deliverystatus": "Delivery",
    "divisionname": "Etawah",
    "regionname": "Agra",
    "circlename": "Uttar Pradesh",
    "Taluk": "Auraiya",
    "Districtname": "Auraiya",
    "statename": "UTTAR PRADESH"
  },
  {
    "pincode": "206129",
    "officename": "Karampur B.O",
    "officeType": "B.O",
    "Deliverystatus": "Delivery",
    "divisionname": "Etawah",
    "regionname": "Agra",
    "circlename": "Uttar Pradesh",
    "Taluk": "Auraiya",
    "Districtname": "Auraiya",
    "statename": "UTTAR PRADESH"
  },
  {
    "pincode": "206129",
    "officename": "Mahmoodpur B.O",
    "officeType": "B.O",
    "Deliverystatus": "Delivery",
    "divisionname": "Etawah",
    "regionname": "Agra",
    "circlename": "Uttar Pradesh",
    "Taluk": "Auraiya",
    "Districtname": "Auraiya",
    "statename": "UTTAR PRADESH"
  },
  {
    "pincode": "206129",
    "officename": "Muradganj S.O",
    "officeType": "S.O",
    "Deliverystatus": "Delivery",
    "divisionname": "Etawah",
    "regionname": "Agra",
    "circlename": "Uttar Pradesh",
    "Taluk": "Auraiya",
    "Districtname": "Auraiya",
    "statename": "UTTAR PRADESH"
  },
  {
    "pincode": "206129",
    "officename": "Nigra B.O",
    "officeType": "B.O",
    "Deliverystatus": "Delivery",
    "divisionname": "Etawah",
    "regionname": "Agra",
    "circlename": "Uttar Pradesh",
    "Taluk": "Auraiya",
    "Districtname": "Auraiya",
    "statename": "UTTAR PRADESH"
  },
  {
    "pincode": "206129",
    "officename": "Phariha B.O",
    "officeType": "B.O",
    "Deliverystatus": "Delivery",
    "divisionname": "Etawah",
    "regionname": "Agra",
    "circlename": "Uttar Pradesh",
    "Taluk": "Auraiya",
    "Districtname": "Auraiya",
    "statename": "UTTAR PRADESH"
  },
  {
    "pincode": "206129",
    "officename": "Roshangpur B.O",
    "officeType": "B.O",
    "Deliverystatus": "Delivery",
    "divisionname": "Etawah",
    "regionname": "Agra",
    "circlename": "Uttar Pradesh",
    "Taluk": "Auraiya",
    "Districtname": "Auraiya",
    "statename": "UTTAR PRADESH"
  },
  {
    "pincode": "206129",
    "officename": "Sikharna B.O",
    "officeType": "B.O",
    "Deliverystatus": "Delivery",
    "divisionname": "Etawah",
    "regionname": "Agra",
    "circlename": "Uttar Pradesh",
    "Taluk": "Auraiya",
    "Districtname": "Auraiya",
    "statename": "UTTAR PRADESH"
  },
  {
    "pincode": "206129",
    "officename": "Ucha B.O",
    "officeType": "B.O",
    "Deliverystatus": "Delivery",
    "divisionname": "Etawah",
    "regionname": "Agra",
    "circlename": "Uttar Pradesh",
    "Taluk": "Auraiya",
    "Districtname": "Auraiya",
    "statename": "UTTAR PRADESH"
  }
]
