[
  {
    "pincode": "206127",
    "officename": "Bahadurpurghar B.O",
    "officeType": "B.O",
    "Deliverystatus": "Delivery",
    "divisionname": "Etawah",
    "regionname": "Agra",
    "circlename": "Uttar Pradesh",
    "Taluk": "Chakar Nagar",
    "Districtname": "Etawah",
    "statename": "UTTAR PRADESH"
  },
  {
    "pincode": "206127",
    "officename": "Bidhipura B.O",
    "officeType": "B.O",
    "Deliverystatus": "Delivery",
    "divisionname": "Etawah",
    "regionname": "Agra",
    "circlename": "Uttar Pradesh",
    "Taluk": "Chakar Nagar",
    "Districtname": "Etawah",
    "statename": "UTTAR PRADESH"
  },
  {
    "pincode": "206127",
    "officename": "Chandrapura B.O",
    "officeType": "B.O",
    "Deliverystatus": "Delivery",
    "divisionname": "Etawah",
    "regionname": "Agra",
    "circlename": "Uttar Pradesh",
    "Taluk": "Chakar Nagar",
    "Districtname": "Etawah",
    "statename": "UTTAR PRADESH"
  },
  {
    "pincode": "206127",
    "officename": "Chindauli B.O",
    "officeType": "B.O",
    "Deliverystatus": "Delivery",
    "divisionname": "Etawah",
    "regionname": "Agra",
    "circlename": "Uttar Pradesh",
    "Taluk": "Chakar Nagar",
    "Districtname": "Etawah",
    "statename": "UTTAR PRADESH"
  },
  {
    "pincode": "206127",
    "officename": "Durgapura B.O",
    "officeType": "B.O",
    "Deliverystatus": "Delivery",
    "divisionname": "Etawah",
    "regionname": "Agra",
    "circlename": "Uttar Pradesh",
    "Taluk": "Bharthana",
    "Districtname": "Etawah",
    "statename": "UTTAR PRADESH"
  },
  {
    "pincode": "206127",
    "officename": "Ekari B.O",
    "officeType": "B.O",
    "Deliverystatus": "Delivery",
    "divisionname": "Etawah",
    "regionname": "Agra",
    "circlename": "Uttar Pradesh",
    "Taluk": "Chakar Nagar",
    "Districtname": "Etawah",
    "statename": "UTTAR PRADESH"
  },
  {
    "pincode": "206127",
    "officename": "Eknaur B.O",
    "officeType": "B.O",
    "Deliverystatus": "Delivery",
    "divisionname": "Etawah",
    "regionname": "Agra",
    "circlename": "Uttar Pradesh",
    "Taluk": "Chakar Nagar",
    "Districtname": "Etawah",
    "statename": "UTTAR PRADESH"
  },
  {
    "pincode": "206127",
    "officename": "Lakhana S.O",
    "officeType": "S.O",
    "Deliverystatus": "Delivery",
    "divisionname": "Etawah",
    "regionname": "Agra",
    "circlename": "Uttar Pradesh",
    "Taluk": "Chakar Nagar",
    "Districtname": "Etawah",
    "statename": "UTTAR PRADESH"
  },
  {
    "pincode": "206127",
    "officename": "Nandgaon B.O",
    "officeType": "B.O",
    "Deliverystatus": "Delivery",
    "divisionname": "Etawah",
    "regionname": "Agra",
    "circlename": "Uttar Pradesh",
    "Taluk": "Chakar Nagar",
    "Districtname": "Etawah",
    "statename": "UTTAR PRADESH"
  },
  {
    "pincode": "206127",
    "officename": "Paharpura B.O",
    "officeType": "B.O",
    "Deliverystatus": "Delivery",
    "divisionname": "Etawah",
    "regionname": "Agra",
    "circlename": "Uttar Pradesh",
    "Taluk": "Chakar Nagar",
    "Districtname": "Etawah",
    "statename": "UTTAR PRADESH"
  },
  {
    "pincode": "206127",
    "officename": "Takrupur B.O",
    "officeType": "B.O",
    "Deliverystatus": "Delivery",
    "divisionname": "Etawah",
    "regionname": "Agra",
    "circlename": "Uttar Pradesh",
    "Taluk": "Chakar Nagar",
    "Districtname": "Etawah",
    "statename": "UTTAR PRADESH"
  }
]
