[
  {
    "pincode": "206121",
    "officename": "Ajitmal S.O",
    "officeType": "S.O",
    "Deliverystatus": "Delivery",
    "divisionname": "Etawah",
    "regionname": "Agra",
    "circlename": "Uttar Pradesh",
    "Taluk": "Auraiya",
    "Districtname": "Auraiya",
    "statename": "UTTAR PRADESH"
  },
  {
    "pincode": "206121",
    "officename": "Amaota B.O",
    "officeType": "B.O",
    "Deliverystatus": "Delivery",
    "divisionname": "Etawah",
    "regionname": "Agra",
    "circlename": "Uttar Pradesh",
    "Taluk": "Auraiya",
    "Districtname": "Auraiya",
    "statename": "UTTAR PRADESH"
  },
  {
    "pincode": "206121",
    "officename": "Atsoo B.O",
    "officeType": "B.O",
    "Deliverystatus": "Delivery",
    "divisionname": "Etawah",
    "regionname": "Agra",
    "circlename": "Uttar Pradesh",
    "Taluk": "Auraiya",
    "Districtname": "Auraiya",
    "statename": "UTTAR PRADESH"
  },
  {
    "pincode": "206121",
    "officename": "Babain B.O",
    "officeType": "B.O",
    "Deliverystatus": "Delivery",
    "divisionname": "Etawah",
    "regionname": "Agra",
    "circlename": "Uttar Pradesh",
    "Taluk": "Auraiya",
    "Districtname": "Auraiya",
    "statename": "UTTAR PRADESH"
  },
  {
    "pincode": "206121",
    "officename": "Babarpur S.O (Auraiya)",
    "officeType": "S.O",
    "Deliverystatus": "Non-Delivery",
    "divisionname": "Etawah",
    "regionname": "Agra",
    "circlename": "Uttar Pradesh",
    "Taluk": "Auraiya",
    "Districtname": "Auraiya",
    "statename": "UTTAR PRADESH"
  },
  {
    "pincode": "206121",
    "officename": "Badera B.O",
    "officeType": "B.O",
    "Deliverystatus": "Delivery",
    "divisionname": "Etawah",
    "regionname": "Agra",
    "circlename": "Uttar Pradesh",
    "Taluk": "Auraiya",
    "Districtname": "Auraiya",
    "statename": "UTTAR PRADESH"
  },
  {
    "pincode": "206121",
    "officename": "Ballapur B.O",
    "officeType": "B.O",
    "Deliverystatus": "Delivery",
    "divisionname": "Etawah",
    "regionname": "Agra",
    "circlename": "Uttar Pradesh",
    "Taluk": "Auraiya",
    "Districtname": "Auraiya",
    "statename": "UTTAR PRADESH"
  },
  {
    "pincode": "206121",
    "officename": "Bhareh B.O",
    "officeType": "B.O",
    "Deliverystatus": "Delivery",
    "divisionname": "Etawah",
    "regionname": "Agra",
    "circlename": "Uttar Pradesh",
    "Taluk": "Auraiya",
    "Districtname": "Auraiya",
    "statename": "UTTAR PRADESH"
  },
  {
    "pincode": "206121",
    "officename": "Bhurepurkalan B.O",
    "officeType": "B.O",
    "Deliverystatus": "Delivery",
    "divisionname": "Etawah",
    "regionname": "Agra",
    "circlename": "Uttar Pradesh",
    "Taluk": "Auraiya",
    "Districtname": "Auraiya",
    "statename": "UTTAR PRADESH"
  },
  {
    "pincode": "206121",
    "officename": "Bilawan B.O",
    "officeType": "B.O",
    "Deliverystatus": "Delivery",
    "divisionname": "Etawah",
    "regionname": "Agra",
    "circlename": "Uttar Pradesh",
    "Taluk": "Auraiya",
    "Districtname": "Auraiya",
    "statename": "UTTAR PRADESH"
  },
  {
    "pincode": "206121",
    "officename": "Gada Kasda B.O",
    "officeType": "B.O",
    "Deliverystatus": "Delivery",
    "divisionname": "Etawah",
    "regionname": "Agra",
    "circlename": "Uttar Pradesh",
    "Taluk": "Auraiya",
    "Districtname": "Auraiya",
    "statename": "UTTAR PRADESH"
  },
  {
    "pincode": "206121",
    "officename": "Gauhani Kalan B.O",
    "officeType": "B.O",
    "Deliverystatus": "Delivery",
    "divisionname": "Etawah",
    "regionname": "Agra",
    "circlename": "Uttar Pradesh",
    "Taluk": "Auraiya",
    "Districtname": "Auraiya",
    "statename": "UTTAR PRADESH"
  },
  {
    "pincode": "206121",
    "officename": "Janishnagar B.O",
    "officeType": "B.O",
    "Deliverystatus": "Delivery",
    "divisionname": "Etawah",
    "regionname": "Agra",
    "circlename": "Uttar Pradesh",
    "Taluk": "Auraiya",
    "Districtname": "Auraiya",
    "statename": "UTTAR PRADESH"
  },
  {
    "pincode": "206121",
    "officename": "Juhikha B.O",
    "officeType": "B.O",
    "Deliverystatus": "Delivery",
    "divisionname": "Etawah",
    "regionname": "Agra",
    "circlename": "Uttar Pradesh",
    "Taluk": "Auraiya",
    "Districtname": "Auraiya",
    "statename": "UTTAR PRADESH"
  },
  {
    "pincode": "206121",
    "officename": "Kariawali B.O",
    "officeType": "B.O",
    "Deliverystatus": "Delivery",
    "divisionname": "Etawah",
    "regionname": "Agra",
    "circlename": "Uttar Pradesh",
    "Taluk": "Auraiya",
    "Districtname": "Auraiya",
    "statename": "UTTAR PRADESH"
  },
  {
    "pincode": "206121",
    "officename": "Khetupur B.O",
    "officeType": "B.O",
    "Deliverystatus": "Delivery",
    "divisionname": "Etawah",
    "regionname": "Agra",
    "circlename": "Uttar Pradesh",
    "Taluk": "Auraiy",
    "Districtname": "Auraiya",
    "statename": "UTTAR PRADESH"
  },
  {
    "pincode": "206121",
    "officename": "Senganpur B.O",
    "officeType": "B.O",
    "Deliverystatus": "Delivery",
    "divisionname": "Etawah",
    "regionname": "Agra",
    "circlename": "Uttar Pradesh",
    "Taluk": "Auraiya",
    "Districtname": "Auraiya",
    "statename": "UTTAR PRADESH"
  },
  {
    "pincode": "206121",
    "officename": "Sohari Garhia B.O",
    "officeType": "B.O",
    "Deliverystatus": "Delivery",
    "divisionname": "Etawah",
    "regionname": "Agra",
    "circlename": "Uttar Pradesh",
    "Taluk": "Auraiya",
    "Districtname": "Auraiya",
    "statename": "UTTAR PRADESH"
  }
]
