[
  {
    "pincode": "206122",
    "officename": "Auraiya H.O",
    "officeType": "H.O",
    "Deliverystatus": "Delivery",
    "divisionname": "Etawah",
    "regionname": "Agra",
    "circlename": "Uttar Pradesh",
    "Taluk": "Auraiya",
    "Districtname": "Auraiya",
    "statename": "UTTAR PRADESH"
  },
  {
    "pincode": "206122",
    "officename": "Ayana B.O",
    "officeType": "B.O",
    "Deliverystatus": "Delivery",
    "divisionname": "Etawah",
    "regionname": "Agra",
    "circlename": "Uttar Pradesh",
    "Taluk": "Auraiya",
    "Districtname": "Auraiya",
    "statename": "UTTAR PRADESH"
  },
  {
    "pincode": "206122",
    "officename": "Badharipur B.O",
    "officeType": "B.O",
    "Deliverystatus": "Delivery",
    "divisionname": "Etawah",
    "regionname": "Agra",
    "circlename": "Uttar Pradesh",
    "Taluk": "Auraiya",
    "Districtname": "Auraiya",
    "statename": "UTTAR PRADESH"
  },
  {
    "pincode": "206122",
    "officename": "Bamuripur B.O",
    "officeType": "B.O",
    "Deliverystatus": "Delivery",
    "divisionname": "Etawah",
    "regionname": "Agra",
    "circlename": "Uttar Pradesh",
    "Taluk": "Auraiya",
    "Districtname": "Auraiya",
    "statename": "UTTAR PRADESH"
  },
  {
    "pincode": "206122",
    "officename": "Bharsen B.O",
    "officeType": "B.O",
    "Deliverystatus": "Delivery",
    "divisionname": "Etawah",
    "regionname": "Agra",
    "circlename": "Uttar Pradesh",
    "Taluk": "Auraiya",
    "Districtname": "Auraiya",
    "statename": "UTTAR PRADESH"
  },
  {
    "pincode": "206122",
    "officename": "Bhaupur B.O",
    "officeType": "B.O",
    "Deliverystatus": "Delivery",
    "divisionname": "Etawah",
    "regionname": "Agra",
    "circlename": "Uttar Pradesh",
    "Taluk": "Auraiya",
    "Districtname": "Auraiya",
    "statename": "UTTAR PRADESH"
  },
  {
    "pincode": "206122",
    "officename": "Burhadana B.O",
    "officeType": "B.O",
    "Deliverystatus": "Delivery",
    "divisionname": "Etawah",
    "regionname": "Agra",
    "circlename": "Uttar Pradesh",
    "Taluk": "Auraiya",
    "Districtname": "Auraiya",
    "statename": "UTTAR PRADESH"
  },
  {
    "pincode": "206122",
    "officename": "Chirhuli B.O",
    "officeType": "B.O",
    "Deliverystatus": "Delivery",
    "divisionname": "Etawah",
    "regionname": "Agra",
    "circlename": "Uttar Pradesh",
    "Taluk": "Auraiya",
    "Districtname": "Auraiya",
    "statename": "UTTAR PRADESH"
  },
  {
    "pincode": "206122",
    "officename": "Daulatpur B.O",
    "officeType": "B.O",
    "Deliverystatus": "Delivery",
    "divisionname": "Etawah",
    "regionname": "Agra",
    "circlename": "Uttar Pradesh",
    "Taluk": "Auraiya",
    "Districtname": "Auraiya",
    "statename": "UTTAR PRADESH"
  },
  {
    "pincode": "206122",
    "officename": "Haidarpur B.O",
    "officeType": "B.O",
    "Deliverystatus": "Delivery",
    "divisionname": "Etawah",
    "regionname": "Agra",
    "circlename": "Uttar Pradesh",
    "Taluk": "Auraiya",
    "Districtname": "Auraiya",
    "statename": "UTTAR PRADESH"
  },
  {
    "pincode": "206122",
    "officename": "Ikaurapur B.O",
    "officeType": "B.O",
    "Deliverystatus": "Delivery",
    "divisionname": "Etawah",
    "regionname": "Agra",
    "circlename": "Uttar Pradesh",
    "Taluk": "Auraiya",
    "Districtname": "Auraiya",
    "statename": "UTTAR PRADESH"
  },
  {
    "pincode": "206122",
    "officename": "Jaitapur B.O",
    "officeType": "B.O",
    "Deliverystatus": "Delivery",
    "divisionname": "Etawah",
    "regionname": "Agra",
    "circlename": "Uttar Pradesh",
    "Taluk": "Auraiya",
    "Districtname": "Auraiya",
    "statename": "UTTAR PRADESH"
  },
  {
    "pincode": "206122",
    "officename": "Kakhaotoo B.O",
    "officeType": "B.O",
    "Deliverystatus": "Delivery",
    "divisionname": "Etawah",
    "regionname": "Agra",
    "circlename": "Uttar Pradesh",
    "Taluk": "Auraiya",
    "Districtname": "Auraiya",
    "statename": "UTTAR PRADESH"
  },
  {
    "pincode": "206122",
    "officename": "Keontra B.O",
    "officeType": "B.O",
    "Deliverystatus": "Delivery",
    "divisionname": "Etawah",
    "regionname": "Agra",
    "circlename": "Uttar Pradesh",
    "Taluk": "Auraiya",
    "Districtname": "Auraiya",
    "statename": "UTTAR PRADESH"
  },
  {
    "pincode": "206122",
    "officename": "Khanpur B.O",
    "officeType": "B.O",
    "Deliverystatus": "Delivery",
    "divisionname": "Etawah",
    "regionname": "Agra",
    "circlename": "Uttar Pradesh",
    "Taluk": "Auraiya",
    "Districtname": "Auraiya",
    "statename": "UTTAR PRADESH"
  },
  {
    "pincode": "206122",
    "officename": "Kharka B.O",
    "officeType": "B.O",
    "Deliverystatus": "Delivery",
    "divisionname": "Etawah",
    "regionname": "Agra",
    "circlename": "Uttar Pradesh",
    "Taluk": "Auraiya",
    "Districtname": "Auraiya",
    "statename": "UTTAR PRADESH"
  },
  {
    "pincode": "206122",
    "officename": "Kudarkot B.O",
    "officeType": "B.O",
    "Deliverystatus": "Delivery",
    "divisionname": "Etawah",
    "regionname": "Agra",
    "circlename": "Uttar Pradesh",
    "Taluk": "Bidhuna",
    "Districtname": "Auraiya",
    "statename": "UTTAR PRADESH"
  },
  {
    "pincode": "206122",
    "officename": "Luhiapur B.O",
    "officeType": "B.O",
    "Deliverystatus": "Delivery",
    "divisionname": "Etawah",
    "regionname": "Agra",
    "circlename": "Uttar Pradesh",
    "Taluk": "Auraiya",
    "Districtname": "Auraiya",
    "statename": "UTTAR PRADESH"
  },
  {
    "pincode": "206122",
    "officename": "Narainpur S.O (Auraiya)",
    "officeType": "S.O",
    "Deliverystatus": "Non-Delivery",
    "divisionname": "Etawah",
    "regionname": "Agra",
    "circlename": "Uttar Pradesh",
    "Taluk": "Auraiya",
    "Districtname": "Auraiya",
    "statename": "UTTAR PRADESH"
  },
  {
    "pincode": "206122",
    "officename": "Panhar B.O",
    "officeType": "B.O",
    "Deliverystatus": "Delivery",
    "divisionname": "Etawah",
    "regionname": "Agra",
    "circlename": "Uttar Pradesh",
    "Taluk": "Auraiya",
    "Districtname": "Auraiya",
    "statename": "UTTAR PRADESH"
  },
  {
    "pincode": "206122",
    "officename": "Sahabda B.O",
    "officeType": "B.O",
    "Deliverystatus": "Delivery",
    "divisionname": "Etawah",
    "regionname": "Agra",
    "circlename": "Uttar Pradesh",
    "Taluk": "Auraiya",
    "Districtname": "Auraiya",
    "statename": "UTTAR PRADESH"
  },
  {
    "pincode": "206122",
    "officename": "Sanphar B.O",
    "officeType": "B.O",
    "Deliverystatus": "Delivery",
    "divisionname": "Etawah",
    "regionname": "Agra",
    "circlename": "Uttar Pradesh",
    "Taluk": "Auraiya",
    "Districtname": "Auraiya",
    "statename": "UTTAR PRADESH"
  },
  {
    "pincode": "206122",
    "officename": "Sherpur Saraiya B.O",
    "officeType": "B.O",
    "Deliverystatus": "Delivery",
    "divisionname": "Etawah",
    "regionname": "Agra",
    "circlename": "Uttar Pradesh",
    "Taluk": "Auraiya",
    "Districtname": "Auraiya",
    "statename": "UTTAR PRADESH"
  },
  {
    "pincode": "206122",
    "officename": "Tilak Nagar B.O",
    "officeType": "B.O",
    "Deliverystatus": "Non-Delivery",
    "divisionname": "Etawah",
    "regionname": "Agra",
    "circlename": "Uttar Pradesh",
    "Taluk": "Auraiya",
    "Districtname": "Auraiya",
    "statename": "UTTAR PRADESH"
  }
]
