[
  {
    "pincode": "206124",
    "officename": "Bakewar S.O",
    "officeType": "S.O",
    "Deliverystatus": "Delivery",
    "divisionname": "Etawah",
    "regionname": "Agra",
    "circlename": "Uttar Pradesh",
    "Taluk": "Bharthana",
    "Districtname": "Etawah",
    "statename": "UTTAR PRADESH"
  },
  {
    "pincode": "206124",
    "officename": "Bijoli B.O",
    "officeType": "B.O",
    "Deliverystatus": "Delivery",
    "divisionname": "Etawah",
    "regionname": "Agra",
    "circlename": "Uttar Pradesh",
    "Taluk": "Bharthana",
    "Districtname": "Etawah",
    "statename": "UTTAR PRADESH"
  },
  {
    "pincode": "206124",
    "officename": "Fatehpura B.O",
    "officeType": "B.O",
    "Deliverystatus": "Delivery",
    "divisionname": "Etawah",
    "regionname": "Agra",
    "circlename": "Uttar Pradesh",
    "Taluk": "Bharthana",
    "Districtname": "Etawah",
    "statename": "UTTAR PRADESH"
  },
  {
    "pincode": "206124",
    "officename": "Ghughsina B.O",
    "officeType": "B.O",
    "Deliverystatus": "Delivery",
    "divisionname": "Etawah",
    "regionname": "Agra",
    "circlename": "Uttar Pradesh",
    "Taluk": "Bharthana",
    "Districtname": "Etawah",
    "statename": "UTTAR PRADESH"
  },
  {
    "pincode": "206124",
    "officename": "Gulabpura B.O",
    "officeType": "B.O",
    "Deliverystatus": "Delivery",
    "divisionname": "Etawah",
    "regionname": "Agra",
    "circlename": "Uttar Pradesh",
    "Taluk": "Bharthana",
    "Districtname": "Etawah",
    "statename": "UTTAR PRADESH"
  },
  {
    "pincode": "206124",
    "officename": "Ingurri B.O",
    "officeType": "B.O",
    "Deliverystatus": "Delivery",
    "divisionname": "Etawah",
    "regionname": "Agra",
    "circlename": "Uttar Pradesh",
    "Taluk": "Bharthana",
    "Districtname": "Etawah",
    "statename": "UTTAR PRADESH"
  },
  {
    "pincode": "206124",
    "officename": "Kunetha B.O",
    "officeType": "B.O",
    "Deliverystatus": "Delivery",
    "divisionname": "Etawah",
    "regionname": "Agra",
    "circlename": "Uttar Pradesh",
    "Taluk": "Bharthana",
    "Districtname": "Etawah",
    "statename": "UTTAR PRADESH"
  },
  {
    "pincode": "206124",
    "officename": "Ludhiani B.O",
    "officeType": "B.O",
    "Deliverystatus": "Delivery",
    "divisionname": "Etawah",
    "regionname": "Agra",
    "circlename": "Uttar Pradesh",
    "Taluk": "Bharthana",
    "Districtname": "Etawah",
    "statename": "UTTAR PRADESH"
  },
  {
    "pincode": "206124",
    "officename": "Prithvirampur B.O",
    "officeType": "B.O",
    "Deliverystatus": "Delivery",
    "divisionname": "Etawah",
    "regionname": "Agra",
    "circlename": "Uttar Pradesh",
    "Taluk": "Bharthana",
    "Districtname": "Etawah",
    "statename": "UTTAR PRADESH"
  },
  {
    "pincode": "206124",
    "officename": "Sherpur B.O",
    "officeType": "B.O",
    "Deliverystatus": "Delivery",
    "divisionname": "Etawah",
    "regionname": "Agra",
    "circlename": "Uttar Pradesh",
    "Taluk": "Bharthana",
    "Districtname": "Etawah",
    "statename": "UTTAR PRADESH"
  }
]
