[
  {
    "pincode": "206247",
    "officename": "Adhasi B.O",
    "officeType": "B.O",
    "Deliverystatus": "Delivery",
    "divisionname": "Etawah",
    "regionname": "Agra",
    "circlename": "Uttar Pradesh",
    "Taluk": "Auraiya",
    "Districtname": "Auraiya",
    "statename": "UTTAR PRADESH"
  },
  {
    "pincode": "206247",
    "officename": "Ata B.O",
    "officeType": "B.O",
    "Deliverystatus": "Delivery",
    "divisionname": "Etawah",
    "regionname": "Agra",
    "circlename": "Uttar Pradesh",
    "Taluk": "Auraiya",
    "Districtname": "Auraiya",
    "statename": "UTTAR PRADESH"
  },
  {
    "pincode": "206247",
    "officename": "Bhagya Nagar B.O",
    "officeType": "B.O",
    "Deliverystatus": "Delivery",
    "divisionname": "Etawah",
    "regionname": "Agra",
    "circlename": "Uttar Pradesh",
    "Taluk": "Auraiya",
    "Districtname": "Auraiya",
    "statename": "UTTAR PRADESH"
  },
  {
    "pincode": "206247",
    "officename": "Fatehpur Beni B.O",
    "officeType": "B.O",
    "Deliverystatus": "Delivery",
    "divisionname": "Etawah",
    "regionname": "Agra",
    "circlename": "Uttar Pradesh",
    "Taluk": "Auraiya",
    "Districtname": "Auraiya",
    "statename": "UTTAR PRADESH"
  },
  {
    "pincode": "206247",
    "officename": "Jua B.O",
    "officeType": "B.O",
    "Deliverystatus": "Delivery",
    "divisionname": "Etawah",
    "regionname": "Agra",
    "circlename": "Uttar Pradesh",
    "Taluk": "Auraiya",
    "Districtname": "Auraiya",
    "statename": "UTTAR PRADESH"
  },
  {
    "pincode": "206247",
    "officename": "Murhi B.O",
    "officeType": "B.O",
    "Deliverystatus": "Delivery",
    "divisionname": "Etawah",
    "regionname": "Agra",
    "circlename": "Uttar Pradesh",
    "Taluk": "Auraiya",
    "Districtname": "Auraiya",
    "statename": "UTTAR PRADESH"
  },
  {
    "pincode": "206247",
    "officename": "Phaphund S.O",
    "officeType": "S.O",
    "Deliverystatus": "Delivery",
    "divisionname": "Etawah",
    "regionname": "Agra",
    "circlename": "Uttar Pradesh",
    "Taluk": "Auraiya",
    "Districtname": "Auraiya",
    "statename": "UTTAR PRADESH"
  },
  {
    "pincode": "206247",
    "officename": "Salhapur B.O",
    "officeType": "B.O",
    "Deliverystatus": "Delivery",
    "divisionname": "Etawah",
    "regionname": "Agra",
    "circlename": "Uttar Pradesh",
    "Taluk": "Auraiya",
    "Districtname": "Auraiya",
    "statename": "UTTAR PRADESH"
  }
]
