[
  {
    "pincode": "206253",
    "officename": "Abhinaypur Pathakpur B.O",
    "officeType": "B.O",
    "Deliverystatus": "Delivery",
    "divisionname": "Etawah",
    "regionname": "Agra",
    "circlename": "Uttar Pradesh",
    "Taluk": "Saifai",
    "Districtname": "Etawah",
    "statename": "UTTAR PRADESH"
  },
  {
    "pincode": "206253",
    "officename": "Baroli Khurd B.O",
    "officeType": "B.O",
    "Deliverystatus": "Delivery",
    "divisionname": "Etawah",
    "regionname": "Agra",
    "circlename": "Uttar Pradesh",
    "Taluk": "Saifai",
    "Districtname": "Etawah",
    "statename": "UTTAR PRADESH"
  },
  {
    "pincode": "206253",
    "officename": "Basrehar S.O",
    "officeType": "S.O",
    "Deliverystatus": "Delivery",
    "divisionname": "Etawah",
    "regionname": "Agra",
    "circlename": "Uttar Pradesh",
    "Taluk": "Etawah",
    "Districtname": "Etawah",
    "statename": "UTTAR PRADESH"
  },
  {
    "pincode": "206253",
    "officename": "Chakwa Bujurg B.O",
    "officeType": "B.O",
    "Deliverystatus": "Delivery",
    "divisionname": "Etawah",
    "regionname": "Agra",
    "circlename": "Uttar Pradesh",
    "Taluk": "Saifai",
    "Districtname": "Etawah",
    "statename": "UTTAR PRADESH"
  },
  {
    "pincode": "206253",
    "officename": "Hardoi B.O",
    "officeType": "B.O",
    "Deliverystatus": "Delivery",
    "divisionname": "Etawah",
    "regionname": "Agra",
    "circlename": "Uttar Pradesh",
    "Taluk": "Saifai",
    "Districtname": "Etawah",
    "statename": "UTTAR PRADESH"
  },
  {
    "pincode": "206253",
    "officename": "Kathua B.O",
    "officeType": "B.O",
    "Deliverystatus": "Delivery",
    "divisionname": "Etawah",
    "regionname": "Agra",
    "circlename": "Uttar Pradesh",
    "Taluk": "Saifai",
    "Districtname": "Etawah",
    "statename": "UTTAR PRADESH"
  },
  {
    "pincode": "206253",
    "officename": "Kharduli B.O",
    "officeType": "B.O",
    "Deliverystatus": "Delivery",
    "divisionname": "Etawah",
    "regionname": "Agra",
    "circlename": "Uttar Pradesh",
    "Taluk": "Saifai",
    "Districtname": "Etawah",
    "statename": "UTTAR PRADESH"
  },
  {
    "pincode": "206253",
    "officename": "Kharkauli B.O",
    "officeType": "B.O",
    "Deliverystatus": "Delivery",
    "divisionname": "Etawah",
    "regionname": "Agra",
    "circlename": "Uttar Pradesh",
    "Taluk": "Saifai",
    "Districtname": "Etawah",
    "statename": "UTTAR PRADESH"
  },
  {
    "pincode": "206253",
    "officename": "Kheda Helu B.O",
    "officeType": "B.O",
    "Deliverystatus": "Delivery",
    "divisionname": "Etawah",
    "regionname": "Agra",
    "circlename": "Uttar Pradesh",
    "Taluk": "Saifai",
    "Districtname": "Etawah",
    "statename": "UTTAR PRADESH"
  },
  {
    "pincode": "206253",
    "officename": "Kumahwar B.O",
    "officeType": "B.O",
    "Deliverystatus": "Delivery",
    "divisionname": "Etawah",
    "regionname": "Agra",
    "circlename": "Uttar Pradesh",
    "Taluk": "Saifai",
    "Districtname": "Etawah",
    "statename": "UTTAR PRADESH"
  },
  {
    "pincode": "206253",
    "officename": "Rahin B.O",
    "officeType": "B.O",
    "Deliverystatus": "Delivery",
    "divisionname": "Etawah",
    "regionname": "Agra",
    "circlename": "Uttar Pradesh",
    "Taluk": "Saifai",
    "Districtname": "Etawah",
    "statename": "UTTAR PRADESH"
  },
  {
    "pincode": "206253",
    "officename": "Santoshpur Ghat B.O",
    "officeType": "B.O",
    "Deliverystatus": "Delivery",
    "divisionname": "Etawah",
    "regionname": "Agra",
    "circlename": "Uttar Pradesh",
    "Taluk": "Saifai",
    "Districtname": "Etawah",
    "statename": "UTTAR PRADESH"
  },
  {
    "pincode": "206253",
    "officename": "Sirsa B.O",
    "officeType": "B.O",
    "Deliverystatus": "Delivery",
    "divisionname": "Etawah",
    "regionname": "Agra",
    "circlename": "Uttar Pradesh",
    "Taluk": "Saifai",
    "Districtname": "Etawah",
    "statename": "UTTAR PRADESH"
  }
]
