[
  {
    "pincode": "206242",
    "officename": "Baharpura B.O",
    "officeType": "B.O",
    "Deliverystatus": "Delivery",
    "divisionname": "Etawah",
    "regionname": "Agra",
    "circlename": "Uttar Pradesh",
    "Taluk": "Bharthana",
    "Districtname": "Etawah",
    "statename": "UTTAR PRADESH"
  },
  {
    "pincode": "206242",
    "officename": "Ber B.O",
    "officeType": "B.O",
    "Deliverystatus": "Delivery",
    "divisionname": "Etawah",
    "regionname": "Agra",
    "circlename": "Uttar Pradesh",
    "Taluk": "Bharthana",
    "Districtname": "Etawah",
    "statename": "UTTAR PRADESH"
  },
  {
    "pincode": "206242",
    "officename": "Bharthana S.O",
    "officeType": "S.O",
    "Deliverystatus": "Delivery",
    "divisionname": "Etawah",
    "regionname": "Agra",
    "circlename": "Uttar Pradesh",
    "Taluk": "Bharthana",
    "Districtname": "Etawah",
    "statename": "UTTAR PRADESH"
  },
  {
    "pincode": "206242",
    "officename": "Birondhi B.O",
    "officeType": "B.O",
    "Deliverystatus": "Delivery",
    "divisionname": "Etawah",
    "regionname": "Agra",
    "circlename": "Uttar Pradesh",
    "Taluk": "Bharthana",
    "Districtname": "Etawah",
    "statename": "UTTAR PRADESH"
  },
  {
    "pincode": "206242",
    "officename": "Garhwana B.O",
    "officeType": "B.O",
    "Deliverystatus": "Delivery",
    "divisionname": "Etawah",
    "regionname": "Agra",
    "circlename": "Uttar Pradesh",
    "Taluk": "Bharthana",
    "Districtname": "Etawah",
    "statename": "UTTAR PRADESH"
  },
  {
    "pincode": "206242",
    "officename": "Girdharipura B.O",
    "officeType": "B.O",
    "Deliverystatus": "Delivery",
    "divisionname": "Etawah",
    "regionname": "Agra",
    "circlename": "Uttar Pradesh",
    "Taluk": "Bharthana",
    "Districtname": "Etawah",
    "statename": "UTTAR PRADESH"
  },
  {
    "pincode": "206242",
    "officename": "Kakrahi B.O",
    "officeType": "B.O",
    "Deliverystatus": "Delivery",
    "divisionname": "Etawah",
    "regionname": "Agra",
    "circlename": "Uttar Pradesh",
    "Taluk": "Bharthana",
    "Districtname": "Etawah",
    "statename": "UTTAR PRADESH"
  },
  {
    "pincode": "206242",
    "officename": "Kandheshi Pachar B.O",
    "officeType": "B.O",
    "Deliverystatus": "Delivery",
    "divisionname": "Etawah",
    "regionname": "Agra",
    "circlename": "Uttar Pradesh",
    "Taluk": "Bharthana",
    "Districtname": "Etawah",
    "statename": "UTTAR PRADESH"
  },
  {
    "pincode": "206242",
    "officename": "Kudrail B.O",
    "officeType": "B.O",
    "Deliverystatus": "Delivery",
    "divisionname": "Etawah",
    "regionname": "Agra",
    "circlename": "Uttar Pradesh",
    "Taluk": "Bharthana",
    "Districtname": "Etawah",
    "statename": "UTTAR PRADESH"
  },
  {
    "pincode": "206242",
    "officename": "Kunwara B.O",
    "officeType": "B.O",
    "Deliverystatus": "Delivery",
    "divisionname": "Etawah",
    "regionname": "Agra",
    "circlename": "Uttar Pradesh",
    "Taluk": "Bharthana",
    "Districtname": "Etawah",
    "statename": "UTTAR PRADESH"
  },
  {
    "pincode": "206242",
    "officename": "Kushna B.O",
    "officeType": "B.O",
    "Deliverystatus": "Delivery",
    "divisionname": "Etawah",
    "regionname": "Agra",
    "circlename": "Uttar Pradesh",
    "Taluk": "Bharthana",
    "Districtname": "Etawah",
    "statename": "UTTAR PRADESH"
  },
  {
    "pincode": "206242",
    "officename": "Malhausi B.O",
    "officeType": "B.O",
    "Deliverystatus": "Delivery",
    "divisionname": "Etawah",
    "regionname": "Agra",
    "circlename": "Uttar Pradesh",
    "Taluk": "Bharthana",
    "Districtname": "Etawah",
    "statename": "UTTAR PRADESH"
  },
  {
    "pincode": "206242",
    "officename": "Maman B.O",
    "officeType": "B.O",
    "Deliverystatus": "Delivery",
    "divisionname": "Etawah",
    "regionname": "Agra",
    "circlename": "Uttar Pradesh",
    "Taluk": "Bharthana",
    "Districtname": "Etawah",
    "statename": "UTTAR PRADESH"
  },
  {
    "pincode": "206242",
    "officename": "Merhi Dudhi B.O",
    "officeType": "B.O",
    "Deliverystatus": "Delivery",
    "divisionname": "Etawah",
    "regionname": "Agra",
    "circlename": "Uttar Pradesh",
    "Taluk": "Bharthana",
    "Districtname": "Etawah",
    "statename": "UTTAR PRADESH"
  },
  {
    "pincode": "206242",
    "officename": "Nagaria Yadwan B.O",
    "officeType": "B.O",
    "Deliverystatus": "Delivery",
    "divisionname": "Etawah",
    "regionname": "Agra",
    "circlename": "Uttar Pradesh",
    "Taluk": "Bharthna",
    "Districtname": "Etawah",
    "statename": "UTTAR PRADESH"
  },
  {
    "pincode": "206242",
    "officename": "Pali Khurd B.O",
    "officeType": "B.O",
    "Deliverystatus": "Delivery",
    "divisionname": "Etawah",
    "regionname": "Agra",
    "circlename": "Uttar Pradesh",
    "Taluk": "Bharthana",
    "Districtname": "Etawah",
    "statename": "UTTAR PRADESH"
  },
  {
    "pincode": "206242",
    "officename": "Ramain B.O",
    "officeType": "B.O",
    "Deliverystatus": "Delivery",
    "divisionname": "Etawah",
    "regionname": "Agra",
    "circlename": "Uttar Pradesh",
    "Taluk": "Bharthana",
    "Districtname": "Etawah",
    "statename": "UTTAR PRADESH"
  },
  {
    "pincode": "206242",
    "officename": "Sainfi B.O",
    "officeType": "B.O",
    "Deliverystatus": "Delivery",
    "divisionname": "Etawah",
    "regionname": "Agra",
    "circlename": "Uttar Pradesh",
    "Taluk": "Bharthana",
    "Districtname": "Etawah",
    "statename": "UTTAR PRADESH"
  },
  {
    "pincode": "206242",
    "officename": "Samhon B.O",
    "officeType": "B.O",
    "Deliverystatus": "Delivery",
    "divisionname": "Etawah",
    "regionname": "Agra",
    "circlename": "Uttar Pradesh",
    "Taluk": "Bharthana",
    "Districtname": "Etawah",
    "statename": "UTTAR PRADESH"
  },
  {
    "pincode": "206242",
    "officename": "Samthar B.O",
    "officeType": "B.O",
    "Deliverystatus": "Delivery",
    "divisionname": "Etawah",
    "regionname": "Agra",
    "circlename": "Uttar Pradesh",
    "Taluk": "Bharthana",
    "Districtname": "Etawah",
    "statename": "UTTAR PRADESH"
  },
  {
    "pincode": "206242",
    "officename": "Sarai Chauri B.O",
    "officeType": "B.O",
    "Deliverystatus": "Delivery",
    "divisionname": "Etawah",
    "regionname": "Agra",
    "circlename": "Uttar Pradesh",
    "Taluk": "Bharthana",
    "Districtname": "Etawah",
    "statename": "UTTAR PRADESH"
  },
  {
    "pincode": "206242",
    "officename": "Sarawa B.O",
    "officeType": "B.O",
    "Deliverystatus": "Delivery",
    "divisionname": "Etawah",
    "regionname": "Agra",
    "circlename": "Uttar Pradesh",
    "Taluk": "Bharthana",
    "Districtname": "Etawah",
    "statename": "UTTAR PRADESH"
  },
  {
    "pincode": "206242",
    "officename": "Takha B.O",
    "officeType": "B.O",
    "Deliverystatus": "Delivery",
    "divisionname": "Etawah",
    "regionname": "Agra",
    "circlename": "Uttar Pradesh",
    "Taluk": "Bharthana",
    "Districtname": "Etawah",
    "statename": "UTTAR PRADESH"
  },
  {
    "pincode": "206242",
    "officename": "Umarsenda B.O",
    "officeType": "B.O",
    "Deliverystatus": "Delivery",
    "divisionname": "Etawah",
    "regionname": "Agra",
    "circlename": "Uttar Pradesh",
    "Taluk": "Bharthana",
    "Districtname": "Etawah",
    "statename": "UTTAR PRADESH"
  }
]
