[
  {
    "pincode": "207123",
    "officename": "Barahdwari S.O",
    "officeType": "S.O",
    "Deliverystatus": "Non-Delivery",
    "divisionname": "Etah",
    "regionname": "Agra",
    "circlename": "Uttar Pradesh",
    "Taluk": "Kasganj",
    "Districtname": "Etah",
    "statename": "UTTAR PRADESH"
  },
  {
    "pincode": "207123",
    "officename": "Behta B.O",
    "officeType": "B.O",
    "Deliverystatus": "Delivery",
    "divisionname": "Etah",
    "regionname": "Agra",
    "circlename": "Uttar Pradesh",
    "Taluk": "Kasganj",
    "Districtname": "Etah",
    "statename": "UTTAR PRADESH"
  },
  {
    "pincode": "207123",
    "officename": "Gorha B.O",
    "officeType": "B.O",
    "Deliverystatus": "Delivery",
    "divisionname": "Etah",
    "regionname": "Agra",
    "circlename": "Uttar Pradesh",
    "Taluk": "Kasganj",
    "Districtname": "Etah",
    "statename": "UTTAR PRADESH"
  },
  {
    "pincode": "207123",
    "officename": "Kasganj RS S.O",
    "officeType": "S.O",
    "Deliverystatus": "Non-Delivery",
    "divisionname": "Etah",
    "regionname": "Agra",
    "circlename": "Uttar Pradesh",
    "Taluk": "Kasganj",
    "Districtname": "Etah",
    "statename": "UTTAR PRADESH"
  },
  {
    "pincode": "207123",
    "officename": "Kasganj S.O",
    "officeType": "S.O",
    "Deliverystatus": "Delivery",
    "divisionname": "Etah",
    "regionname": "Agra",
    "circlename": "Uttar Pradesh",
    "Taluk": "Kasganj",
    "Districtname": "Etah",
    "statename": "UTTAR PRADESH"
  },
  {
    "pincode": "207123",
    "officename": "Kayampur Baheria B.O",
    "officeType": "B.O",
    "Deliverystatus": "Delivery",
    "divisionname": "Etah",
    "regionname": "Agra",
    "circlename": "Uttar Pradesh",
    "Taluk": "Kasganj",
    "Districtname": "Etah",
    "statename": "UTTAR PRADESH"
  },
  {
    "pincode": "207123",
    "officename": "Mahdva B.O",
    "officeType": "B.O",
    "Deliverystatus": "Delivery",
    "divisionname": "Etah",
    "regionname": "Agra",
    "circlename": "Uttar Pradesh",
    "Taluk": "Kasganj",
    "Districtname": "Etah",
    "statename": "UTTAR PRADESH"
  },
  {
    "pincode": "207123",
    "officename": "Mihari B.O",
    "officeType": "B.O",
    "Deliverystatus": "Delivery",
    "divisionname": "Etah",
    "regionname": "Agra",
    "circlename": "Uttar Pradesh",
    "Taluk": "Kasganj",
    "Districtname": "Etah",
    "statename": "UTTAR PRADESH"
  },
  {
    "pincode": "207123",
    "officename": "Nagla Katila B.O",
    "officeType": "B.O",
    "Deliverystatus": "Delivery",
    "divisionname": "Etah",
    "regionname": "Agra",
    "circlename": "Uttar Pradesh",
    "Taluk": "Kasganj",
    "Districtname": "Etah",
    "statename": "UTTAR PRADESH"
  },
  {
    "pincode": "207123",
    "officename": "Pathreki B.O",
    "officeType": "B.O",
    "Deliverystatus": "Delivery",
    "divisionname": "Etah",
    "regionname": "Agra",
    "circlename": "Uttar Pradesh",
    "Taluk": "Kasganj",
    "Districtname": "Etah",
    "statename": "UTTAR PRADESH"
  },
  {
    "pincode": "207123",
    "officename": "Rekhpur B.O",
    "officeType": "B.O",
    "Deliverystatus": "Delivery",
    "divisionname": "Etah",
    "regionname": "Agra",
    "circlename": "Uttar Pradesh",
    "Taluk": "Kasganj",
    "Districtname": "Etah",
    "statename": "UTTAR PRADESH"
  },
  {
    "pincode": "207123",
    "officename": "Salai B.O",
    "officeType": "B.O",
    "Deliverystatus": "Delivery",
    "divisionname": "Etah",
    "regionname": "Agra",
    "circlename": "Uttar Pradesh",
    "Taluk": "Kasganj",
    "Districtname": "Etah",
    "statename": "UTTAR PRADESH"
  },
  {
    "pincode": "207123",
    "officename": "Tilsai B.O",
    "officeType": "B.O",
    "Deliverystatus": "Delivery",
    "divisionname": "Etah",
    "regionname": "Agra",
    "circlename": "Uttar Pradesh",
    "Taluk": "Kasganj",
    "Districtname": "Etah",
    "statename": "UTTAR PRADESH"
  }
]
