[
  {
    "pincode": "207241",
    "officename": "Abhaipura B.O",
    "officeType": "B.O",
    "Deliverystatus": "Delivery",
    "divisionname": "Etah",
    "regionname": "Agra",
    "circlename": "Uttar Pradesh",
    "Taluk": "Kasganj",
    "Districtname": "Etah",
    "statename": "UTTAR PRADESH"
  },
  {
    "pincode": "207241",
    "officename": "Amanpur S.O",
    "officeType": "S.O",
    "Deliverystatus": "Delivery",
    "divisionname": "Etah",
    "regionname": "Agra",
    "circlename": "Uttar Pradesh",
    "Taluk": "Kasganj",
    "Districtname": "Etah",
    "statename": "UTTAR PRADESH"
  },
  {
    "pincode": "207241",
    "officename": "Arjunpur Nauabad B.O",
    "officeType": "B.O",
    "Deliverystatus": "Delivery",
    "divisionname": "Etah",
    "regionname": "Agra",
    "circlename": "Uttar Pradesh",
    "Taluk": "Kasganj",
    "Districtname": "Etah",
    "statename": "UTTAR PRADESH"
  },
  {
    "pincode": "207241",
    "officename": "Karsana B.O",
    "officeType": "B.O",
    "Deliverystatus": "Delivery",
    "divisionname": "Etah",
    "regionname": "Agra",
    "circlename": "Uttar Pradesh",
    "Taluk": "Kasganj",
    "Districtname": "Etah",
    "statename": "UTTAR PRADESH"
  },
  {
    "pincode": "207241",
    "officename": "Nadarmai B.O",
    "officeType": "B.O",
    "Deliverystatus": "Delivery",
    "divisionname": "Etah",
    "regionname": "Agra",
    "circlename": "Uttar Pradesh",
    "Taluk": "Kasganj",
    "Districtname": "Etah",
    "statename": "UTTAR PRADESH"
  },
  {
    "pincode": "207241",
    "officename": "Partappur B.O",
    "officeType": "B.O",
    "Deliverystatus": "Delivery",
    "divisionname": "Etah",
    "regionname": "Agra",
    "circlename": "Uttar Pradesh",
    "Taluk": "Kasganj",
    "Districtname": "Etah",
    "statename": "UTTAR PRADESH"
  },
  {
    "pincode": "207241",
    "officename": "Samaspur Dengri B.O",
    "officeType": "B.O",
    "Deliverystatus": "Delivery",
    "divisionname": "Etah",
    "regionname": "Agra",
    "circlename": "Uttar Pradesh",
    "Taluk": "Kasganj",
    "Districtname": "Etah",
    "statename": "UTTAR PRADESH"
  },
  {
    "pincode": "207241",
    "officename": "Sarsai Narau B.O",
    "officeType": "B.O",
    "Deliverystatus": "Delivery",
    "divisionname": "Etah",
    "regionname": "Agra",
    "circlename": "Uttar Pradesh",
    "Taluk": "Kasganj",
    "Districtname": "Etah",
    "statename": "UTTAR PRADESH"
  },
  {
    "pincode": "207241",
    "officename": "Sujrai B.O",
    "officeType": "B.O",
    "Deliverystatus": "Delivery",
    "divisionname": "Etah",
    "regionname": "Agra",
    "circlename": "Uttar Pradesh",
    "Taluk": "Kasganj",
    "Districtname": "Etah",
    "statename": "UTTAR PRADESH"
  },
  {
    "pincode": "207241",
    "officename": "Tharachithara B.O",
    "officeType": "B.O",
    "Deliverystatus": "Delivery",
    "divisionname": "Etah",
    "regionname": "Agra",
    "circlename": "Uttar Pradesh",
    "Taluk": "Kasganj",
    "Districtname": "Etah",
    "statename": "UTTAR PRADESH"
  }
]
