[
  {
    "pincode": "207245",
    "officename": "Amirasa B.O",
    "officeType": "B.O",
    "Deliverystatus": "Delivery",
    "divisionname": "Etah",
    "regionname": "Agra",
    "circlename": "Uttar Pradesh",
    "Taluk": "Kasganj",
    "Districtname": "Etah",
    "statename": "UTTAR PRADESH"
  },
  {
    "pincode": "207245",
    "officename": "Faroli B.O",
    "officeType": "B.O",
    "Deliverystatus": "Delivery",
    "divisionname": "Etah",
    "regionname": "Agra",
    "circlename": "Uttar Pradesh",
    "Taluk": "Kasganj",
    "Districtname": "Etah",
    "statename": "UTTAR PRADESH"
  },
  {
    "pincode": "207245",
    "officename": "Jahangirpur B.O",
    "officeType": "B.O",
    "Deliverystatus": "Delivery",
    "divisionname": "Etah",
    "regionname": "Agra",
    "circlename": "Uttar Pradesh",
    "Taluk": "Kasganj",
    "Districtname": "Etah",
    "statename": "UTTAR PRADESH"
  },
  {
    "pincode": "207245",
    "officename": "Kachhela B.O",
    "officeType": "B.O",
    "Deliverystatus": "Delivery",
    "divisionname": "Etah",
    "regionname": "Agra",
    "circlename": "Uttar Pradesh",
    "Taluk": "Kasganj",
    "Districtname": "Etah",
    "statename": "UTTAR PRADESH"
  },
  {
    "pincode": "207245",
    "officename": "Khojpur B.O",
    "officeType": "B.O",
    "Deliverystatus": "Delivery",
    "divisionname": "Etah",
    "regionname": "Agra",
    "circlename": "Uttar Pradesh",
    "Taluk": "",
    "Districtname": "Etah",
    "statename": "UTTAR PRADESH"
  },
  {
    "pincode": "207245",
    "officename": "Myasur B.O",
    "officeType": "B.O",
    "Deliverystatus": "Delivery",
    "divisionname": "Etah",
    "regionname": "Agra",
    "circlename": "Uttar Pradesh",
    "Taluk": "Kasganj",
    "Districtname": "Etah",
    "statename": "UTTAR PRADESH"
  },
  {
    "pincode": "207245",
    "officename": "Sahawar S.O",
    "officeType": "S.O",
    "Deliverystatus": "Delivery",
    "divisionname": "Etah",
    "regionname": "Agra",
    "circlename": "Uttar Pradesh",
    "Taluk": "Patiali",
    "Districtname": "Etah",
    "statename": "UTTAR PRADESH"
  },
  {
    "pincode": "207245",
    "officename": "Yakootganj B.O",
    "officeType": "B.O",
    "Deliverystatus": "Delivery",
    "divisionname": "Etah",
    "regionname": "Agra",
    "circlename": "Uttar Pradesh",
    "Taluk": "Kasganj",
    "Districtname": "Etah",
    "statename": "UTTAR PRADESH"
  }
]
