[
  {
    "pincode": "207244",
    "officename": "Alliyapur B.O",
    "officeType": "B.O",
    "Deliverystatus": "Delivery",
    "divisionname": "Etah",
    "regionname": "Agra",
    "circlename": "Uttar Pradesh",
    "Taluk": "Aliganj",
    "Districtname": "Etah",
    "statename": "UTTAR PRADESH"
  },
  {
    "pincode": "207244",
    "officename": "Bhargain B.O",
    "officeType": "B.O",
    "Deliverystatus": "Delivery",
    "divisionname": "Etah",
    "regionname": "Agra",
    "circlename": "Uttar Pradesh",
    "Taluk": "Aliganj",
    "Districtname": "Etah",
    "statename": "UTTAR PRADESH"
  },
  {
    "pincode": "207244",
    "officename": "Bijora B.O",
    "officeType": "B.O",
    "Deliverystatus": "Delivery",
    "divisionname": "Etah",
    "regionname": "Agra",
    "circlename": "Uttar Pradesh",
    "Taluk": "Aliganj",
    "Districtname": "Etah",
    "statename": "UTTAR PRADESH"
  },
  {
    "pincode": "207244",
    "officename": "Bilsad B.O",
    "officeType": "B.O",
    "Deliverystatus": "Delivery",
    "divisionname": "Etah",
    "regionname": "Agra",
    "circlename": "Uttar Pradesh",
    "Taluk": "Aliganj",
    "Districtname": "Etah",
    "statename": "UTTAR PRADESH"
  },
  {
    "pincode": "207244",
    "officename": "Gariya Jagannath B.O",
    "officeType": "B.O",
    "Deliverystatus": "Delivery",
    "divisionname": "Etah",
    "regionname": "Agra",
    "circlename": "Uttar Pradesh",
    "Taluk": "Aliganj",
    "Districtname": "Etah",
    "statename": "UTTAR PRADESH"
  },
  {
    "pincode": "207244",
    "officename": "Luhari Kherra B.O",
    "officeType": "B.O",
    "Deliverystatus": "Delivery",
    "divisionname": "Etah",
    "regionname": "Agra",
    "circlename": "Uttar Pradesh",
    "Taluk": "Aliganj",
    "Districtname": "Etah",
    "statename": "UTTAR PRADESH"
  },
  {
    "pincode": "207244",
    "officename": "Majhola B.O",
    "officeType": "B.O",
    "Deliverystatus": "Delivery",
    "divisionname": "Etah",
    "regionname": "Agra",
    "circlename": "Uttar Pradesh",
    "Taluk": "Aliganj",
    "Districtname": "Etah",
    "statename": "UTTAR PRADESH"
  },
  {
    "pincode": "207244",
    "officename": "Mokampur B.O",
    "officeType": "B.O",
    "Deliverystatus": "Delivery",
    "divisionname": "Etah",
    "regionname": "Agra",
    "circlename": "Uttar Pradesh",
    "Taluk": "Aliganj",
    "Districtname": "Etah",
    "statename": "UTTAR PRADESH"
  },
  {
    "pincode": "207244",
    "officename": "Nagla Pohpi B.O",
    "officeType": "B.O",
    "Deliverystatus": "Delivery",
    "divisionname": "Etah",
    "regionname": "Agra",
    "circlename": "Uttar Pradesh",
    "Taluk": "Patiali",
    "Districtname": "Etah",
    "statename": "UTTAR PRADESH"
  },
  {
    "pincode": "207244",
    "officename": "Raja Ka Rampur S.O",
    "officeType": "S.O",
    "Deliverystatus": "Delivery",
    "divisionname": "Etah",
    "regionname": "Agra",
    "circlename": "Uttar Pradesh",
    "Taluk": "Aliganj",
    "Districtname": "Etah",
    "statename": "UTTAR PRADESH"
  },
  {
    "pincode": "207244",
    "officename": "Shahpur Tehla B.O",
    "officeType": "B.O",
    "Deliverystatus": "Delivery",
    "divisionname": "Etah",
    "regionname": "Agra",
    "circlename": "Uttar Pradesh",
    "Taluk": "Patiyali",
    "Districtname": "Etah",
    "statename": "UTTAR PRADESH"
  }
]
