[
  {
    "pincode": "207301",
    "officename": "Awagarh S.O",
    "officeType": "S.O",
    "Deliverystatus": "Delivery",
    "divisionname": "Etah",
    "regionname": "Agra",
    "circlename": "Uttar Pradesh",
    "Taluk": "Etah",
    "Districtname": "Etah",
    "statename": "UTTAR PRADESH"
  },
  {
    "pincode": "207301",
    "officename": "Barabhodela B.O",
    "officeType": "B.O",
    "Deliverystatus": "Delivery",
    "divisionname": "Etah",
    "regionname": "Agra",
    "circlename": "Uttar Pradesh",
    "Taluk": "Jaleshar",
    "Districtname": "Etah",
    "statename": "UTTAR PRADESH"
  },
  {
    "pincode": "207301",
    "officename": "Baraikalyanpur B.O",
    "officeType": "B.O",
    "Deliverystatus": "Delivery",
    "divisionname": "Etah",
    "regionname": "Agra",
    "circlename": "Uttar Pradesh",
    "Taluk": "Jaleshar",
    "Districtname": "Etah",
    "statename": "UTTAR PRADESH"
  },
  {
    "pincode": "207301",
    "officename": "Basundhara B.O",
    "officeType": "B.O",
    "Deliverystatus": "Delivery",
    "divisionname": "Etah",
    "regionname": "Agra",
    "circlename": "Uttar Pradesh",
    "Taluk": "Etah",
    "Districtname": "Etah",
    "statename": "UTTAR PRADESH"
  },
  {
    "pincode": "207301",
    "officename": "Borakalan B.O",
    "officeType": "B.O",
    "Deliverystatus": "Delivery",
    "divisionname": "Etah",
    "regionname": "Agra",
    "circlename": "Uttar Pradesh",
    "Taluk": "Jalesher",
    "Districtname": "Etah",
    "statename": "UTTAR PRADESH"
  },
  {
    "pincode": "207301",
    "officename": "Gahrana B.O",
    "officeType": "B.O",
    "Deliverystatus": "Delivery",
    "divisionname": "Etah",
    "regionname": "Agra",
    "circlename": "Uttar Pradesh",
    "Taluk": "Jalesher",
    "Districtname": "Etah",
    "statename": "UTTAR PRADESH"
  },
  {
    "pincode": "207301",
    "officename": "Jalukhera B.O",
    "officeType": "B.O",
    "Deliverystatus": "Delivery",
    "divisionname": "Etah",
    "regionname": "Agra",
    "circlename": "Uttar Pradesh",
    "Taluk": "Jalesher",
    "Districtname": "Etah",
    "statename": "UTTAR PRADESH"
  },
  {
    "pincode": "207301",
    "officename": "Jarani Kalan B.O",
    "officeType": "B.O",
    "Deliverystatus": "Delivery",
    "divisionname": "Etah",
    "regionname": "Agra",
    "circlename": "Uttar Pradesh",
    "Taluk": "Jalesher",
    "Districtname": "Etah",
    "statename": "UTTAR PRADESH"
  },
  {
    "pincode": "207301",
    "officename": "Kaytha B.O",
    "officeType": "B.O",
    "Deliverystatus": "Delivery",
    "divisionname": "Etah",
    "regionname": "Agra",
    "circlename": "Uttar Pradesh",
    "Taluk": "Firojabad",
    "Districtname": "Firozabad",
    "statename": "UTTAR PRADESH"
  },
  {
    "pincode": "207301",
    "officename": "Khatout B.O",
    "officeType": "B.O",
    "Deliverystatus": "Delivery",
    "divisionname": "Etah",
    "regionname": "Agra",
    "circlename": "Uttar Pradesh",
    "Taluk": "Jalesher",
    "Districtname": "Etah",
    "statename": "UTTAR PRADESH"
  },
  {
    "pincode": "207301",
    "officename": "Narura B.O",
    "officeType": "B.O",
    "Deliverystatus": "Delivery",
    "divisionname": "Etah",
    "regionname": "Agra",
    "circlename": "Uttar Pradesh",
    "Taluk": "Jalesher",
    "Districtname": "Etah",
    "statename": "UTTAR PRADESH"
  },
  {
    "pincode": "207301",
    "officename": "Pipehra B.O",
    "officeType": "B.O",
    "Deliverystatus": "Delivery",
    "divisionname": "Etah",
    "regionname": "Agra",
    "circlename": "Uttar Pradesh",
    "Taluk": "Jalesher",
    "Districtname": "Etah",
    "statename": "UTTAR PRADESH"
  },
  {
    "pincode": "207301",
    "officename": "Pondari B.O",
    "officeType": "B.O",
    "Deliverystatus": "Delivery",
    "divisionname": "Etah",
    "regionname": "Agra",
    "circlename": "Uttar Pradesh",
    "Taluk": "Jalesher",
    "Districtname": "Etah",
    "statename": "UTTAR PRADESH"
  },
  {
    "pincode": "207301",
    "officename": "Rohina Mirjapur B.O",
    "officeType": "B.O",
    "Deliverystatus": "Delivery",
    "divisionname": "Etah",
    "regionname": "Agra",
    "circlename": "Uttar Pradesh",
    "Taluk": "Jalesher",
    "Districtname": "Etah",
    "statename": "UTTAR PRADESH"
  },
  {
    "pincode": "207301",
    "officename": "Tikathar B.O",
    "officeType": "B.O",
    "Deliverystatus": "Delivery",
    "divisionname": "Etah",
    "regionname": "Agra",
    "circlename": "Uttar Pradesh",
    "Taluk": "Jalesar",
    "Districtname": "Etah",
    "statename": "UTTAR PRADESH"
  }
]
