[
  {
    "pincode": "208002",
    "officename": "Agriculture College S.O",
    "officeType": "S.O",
    "Deliverystatus": "Non-Delivery",
    "divisionname": "Kanpur City",
    "regionname": "Kanpur",
    "circlename": "Uttar Pradesh",
    "Taluk": "Csa",
    "Districtname": "Kanpur Nagar",
    "statename": "UTTAR PRADESH"
  },
  {
    "pincode": "208002",
    "officename": "Arya Nagar S.O (Kanpur Nagar)",
    "officeType": "S.O",
    "Deliverystatus": "Non-Delivery",
    "divisionname": "Kanpur City",
    "regionname": "Kanpur",
    "circlename": "Uttar Pradesh",
    "Taluk": "Arya Nagar",
    "Districtname": "Kanpur Nagar",
    "statename": "UTTAR PRADESH"
  },
  {
    "pincode": "208002",
    "officename": "Employeement Exchange S.O",
    "officeType": "S.O",
    "Deliverystatus": "Non-Delivery",
    "divisionname": "Kanpur City",
    "regionname": "Kanpur",
    "circlename": "Uttar Pradesh",
    "Taluk": "G T Road",
    "Districtname": "Kanpur Nagar",
    "statename": "UTTAR PRADESH"
  },
  {
    "pincode": "208002",
    "officename": "Gsvm Medical College S.O",
    "officeType": "S.O",
    "Deliverystatus": "Non-Delivery",
    "divisionname": "Kanpur City",
    "regionname": "Kanpur",
    "circlename": "Uttar Pradesh",
    "Taluk": "Medical College",
    "Districtname": "Kanpur Nagar",
    "statename": "UTTAR PRADESH"
  },
  {
    "pincode": "208002",
    "officename": "Hbti S.O",
    "officeType": "S.O",
    "Deliverystatus": "Non-Delivery",
    "divisionname": "Kanpur City",
    "regionname": "Kanpur",
    "circlename": "Uttar Pradesh",
    "Taluk": "Kesa Colony",
    "Districtname": "Kanpur Nagar",
    "statename": "UTTAR PRADESH"
  },
  {
    "pincode": "208002",
    "officename": "Kheora B.O",
    "officeType": "B.O",
    "Deliverystatus": "Delivery",
    "divisionname": "Kanpur City",
    "regionname": "Kanpur",
    "circlename": "Uttar Pradesh",
    "Taluk": "Kheora",
    "Districtname": "Kanpur Nagar",
    "statename": "UTTAR PRADESH"
  },
  {
    "pincode": "208002",
    "officename": "Motijheel S.O (Kanpur Nagar)",
    "officeType": "S.O",
    "Deliverystatus": "Non-Delivery",
    "divisionname": "Kanpur City",
    "regionname": "Kanpur",
    "circlename": "Uttar Pradesh",
    "Taluk": "Motijheel",
    "Districtname": "Kanpur Nagar",
    "statename": "UTTAR PRADESH"
  },
  {
    "pincode": "208002",
    "officename": "N C Line S.O",
    "officeType": "S.O",
    "Deliverystatus": "Non-Delivery",
    "divisionname": "Kanpur City",
    "regionname": "Kanpur",
    "circlename": "Uttar Pradesh",
    "Taluk": "Arya Nagar",
    "Districtname": "Kanpur Nagar",
    "statename": "UTTAR PRADESH"
  },
  {
    "pincode": "208002",
    "officename": "Nawabganj H.O",
    "officeType": "H.O",
    "Deliverystatus": "Delivery",
    "divisionname": "Kanpur City",
    "regionname": "Kanpur",
    "circlename": "Uttar Pradesh",
    "Taluk": "Nawabganj",
    "Districtname": "Kanpur Nagar",
    "statename": "UTTAR PRADESH"
  },
  {
    "pincode": "208002",
    "officename": "Purana Kanpur S.O",
    "officeType": "S.O",
    "Deliverystatus": "Non-Delivery",
    "divisionname": "Kanpur City",
    "regionname": "Kanpur",
    "circlename": "Uttar Pradesh",
    "Taluk": "Purana Kanpur",
    "Districtname": "Kanpur Nagar",
    "statename": "UTTAR PRADESH"
  },
  {
    "pincode": "208002",
    "officename": "Swarup Nagar S.O",
    "officeType": "S.O",
    "Deliverystatus": "Non-Delivery",
    "divisionname": "Kanpur City",
    "regionname": "Kanpur",
    "circlename": "Uttar Pradesh",
    "Taluk": "Swarup Nagar",
    "Districtname": "Kanpur Nagar",
    "statename": "UTTAR PRADESH"
  }
]
