[
  {
    "pincode": "209121",
    "officename": "Bharatpur Piyaso B.O",
    "officeType": "B.O",
    "Deliverystatus": "Delivery",
    "divisionname": "Kanpur Moffusil",
    "regionname": "Kanpur",
    "circlename": "Uttar Pradesh",
    "Taluk": "Kanpur Dehat",
    "Districtname": "Kanpur Dehat",
    "statename": "UTTAR PRADESH"
  },
  {
    "pincode": "209121",
    "officename": "Durooli B.O",
    "officeType": "B.O",
    "Deliverystatus": "Delivery",
    "divisionname": "Kanpur Moffusil",
    "regionname": "Kanpur",
    "circlename": "Uttar Pradesh",
    "Taluk": "Kanpur Dehat",
    "Districtname": "Kanpur Dehat",
    "statename": "UTTAR PRADESH"
  },
  {
    "pincode": "209121",
    "officename": "Duwari B.O",
    "officeType": "B.O",
    "Deliverystatus": "Delivery",
    "divisionname": "Kanpur Moffusil",
    "regionname": "Kanpur",
    "circlename": "Uttar Pradesh",
    "Taluk": "Kanpu Dehat",
    "Districtname": "Kanpur Dehat",
    "statename": "UTTAR PRADESH"
  },
  {
    "pincode": "209121",
    "officename": "Gajner B.O",
    "officeType": "B.O",
    "Deliverystatus": "Delivery",
    "divisionname": "Kanpur Moffusil",
    "regionname": "Kanpur",
    "circlename": "Uttar Pradesh",
    "Taluk": "Kanpur Dehat",
    "Districtname": "Kanpur Dehat",
    "statename": "UTTAR PRADESH"
  },
  {
    "pincode": "209121",
    "officename": "Gangruli B.O",
    "officeType": "B.O",
    "Deliverystatus": "Delivery",
    "divisionname": "Kanpur Moffusil",
    "regionname": "Kanpur",
    "circlename": "Uttar Pradesh",
    "Taluk": "Kanpur Dehat",
    "Districtname": "Kanpur Dehat",
    "statename": "UTTAR PRADESH"
  },
  {
    "pincode": "209121",
    "officename": "Hathai B.O",
    "officeType": "B.O",
    "Deliverystatus": "Delivery",
    "divisionname": "Kanpur Moffusil",
    "regionname": "Kanpur",
    "circlename": "Uttar Pradesh",
    "Taluk": "Kanpur Dehat",
    "Districtname": "Kanpur Dehat",
    "statename": "UTTAR PRADESH"
  },
  {
    "pincode": "209121",
    "officename": "Karsa B.O",
    "officeType": "B.O",
    "Deliverystatus": "Delivery",
    "divisionname": "Kanpur Moffusil",
    "regionname": "Kanpur",
    "circlename": "Uttar Pradesh",
    "Taluk": "Kanpur Dehat",
    "Districtname": "Kanpur Dehat",
    "statename": "UTTAR PRADESH"
  },
  {
    "pincode": "209121",
    "officename": "Kathethi (E.U.P-7895) B.O",
    "officeType": "B.O",
    "Deliverystatus": "Delivery",
    "divisionname": "Kanpur Moffusil",
    "regionname": "Kanpur",
    "circlename": "Uttar Pradesh",
    "Taluk": "Kanpur Dehat",
    "Districtname": "Kanpur Dehat",
    "statename": "UTTAR PRADESH"
  },
  {
    "pincode": "209121",
    "officename": "Kausum B.O",
    "officeType": "B.O",
    "Deliverystatus": "Delivery",
    "divisionname": "Kanpur Moffusil",
    "regionname": "Kanpur",
    "circlename": "Uttar Pradesh",
    "Taluk": "Kanpur Dehat",
    "Districtname": "Kanpur Dehat",
    "statename": "UTTAR PRADESH"
  },
  {
    "pincode": "209121",
    "officename": "Lohari B.O",
    "officeType": "B.O",
    "Deliverystatus": "Delivery",
    "divisionname": "Kanpur Moffusil",
    "regionname": "Kanpur",
    "circlename": "Uttar Pradesh",
    "Taluk": "Kanpur Dehat",
    "Districtname": "Kanpur Dehat",
    "statename": "UTTAR PRADESH"
  },
  {
    "pincode": "209121",
    "officename": "Manethu B.O",
    "officeType": "B.O",
    "Deliverystatus": "Delivery",
    "divisionname": "Kanpur Moffusil",
    "regionname": "Kanpur",
    "circlename": "Uttar Pradesh",
    "Taluk": "Kanpur Dehat",
    "Districtname": "Kanpur Dehat",
    "statename": "UTTAR PRADESH"
  },
  {
    "pincode": "209121",
    "officename": "Mangta B.O",
    "officeType": "B.O",
    "Deliverystatus": "Delivery",
    "divisionname": "Kanpur Moffusil",
    "regionname": "Kanpur",
    "circlename": "Uttar Pradesh",
    "Taluk": "Kanpur Dehat",
    "Districtname": "Kanpur Dehat",
    "statename": "UTTAR PRADESH"
  },
  {
    "pincode": "209121",
    "officename": "Ninama B.O",
    "officeType": "B.O",
    "Deliverystatus": "Delivery",
    "divisionname": "Kanpur Moffusil",
    "regionname": "Kanpur",
    "circlename": "Uttar Pradesh",
    "Taluk": "Kanpur Dehat",
    "Districtname": "Kanpur Dehat",
    "statename": "UTTAR PRADESH"
  },
  {
    "pincode": "209121",
    "officename": "Pama R.S. B.O",
    "officeType": "B.O",
    "Deliverystatus": "Delivery",
    "divisionname": "Kanpur Moffusil",
    "regionname": "Kanpur",
    "circlename": "Uttar Pradesh",
    "Taluk": "Kanpur Dehat",
    "Districtname": "Kanpur Dehat",
    "statename": "UTTAR PRADESH"
  },
  {
    "pincode": "209121",
    "officename": "Rasulpur Gogumau(E.U.P-7906) B.O",
    "officeType": "B.O",
    "Deliverystatus": "Delivery",
    "divisionname": "Kanpur Moffusil",
    "regionname": "Kanpur",
    "circlename": "Uttar Pradesh",
    "Taluk": "Kanpur Dehat",
    "Districtname": "Kanpur Dehat",
    "statename": "UTTAR PRADESH"
  },
  {
    "pincode": "209121",
    "officename": "Sairua B.O",
    "officeType": "B.O",
    "Deliverystatus": "Delivery",
    "divisionname": "Kanpur Moffusil",
    "regionname": "Kanpur",
    "circlename": "Uttar Pradesh",
    "Taluk": "Kanpur Dehat",
    "Districtname": "Kanpur Dehat",
    "statename": "UTTAR PRADESH"
  },
  {
    "pincode": "209121",
    "officename": "Saitha B.O",
    "officeType": "B.O",
    "Deliverystatus": "Delivery",
    "divisionname": "Kanpur Moffusil",
    "regionname": "Kanpur",
    "circlename": "Uttar Pradesh",
    "Taluk": "Kanpur Dehat",
    "Districtname": "Kanpur Dehat",
    "statename": "UTTAR PRADESH"
  },
  {
    "pincode": "209121",
    "officename": "Sarwankhera S.O",
    "officeType": "S.O",
    "Deliverystatus": "Delivery",
    "divisionname": "Kanpur Moffusil",
    "regionname": "Kanpur",
    "circlename": "Uttar Pradesh",
    "Taluk": "Kanpur Dehat",
    "Districtname": "Kanpur Dehat",
    "statename": "UTTAR PRADESH"
  },
  {
    "pincode": "209121",
    "officename": "Sultanur B.O",
    "officeType": "B.O",
    "Deliverystatus": "Delivery",
    "divisionname": "Kanpur Moffusil",
    "regionname": "Kanpur",
    "circlename": "Uttar Pradesh",
    "Taluk": "Kanpur Dehat",
    "Districtname": "Kanpur Dehat",
    "statename": "UTTAR PRADESH"
  },
  {
    "pincode": "209121",
    "officename": "Zithrauli B.O",
    "officeType": "B.O",
    "Deliverystatus": "Delivery",
    "divisionname": "Kanpur Moffusil",
    "regionname": "Kanpur",
    "circlename": "Uttar Pradesh",
    "Taluk": "Kanpur Dehat",
    "Districtname": "Kanpur Dehat",
    "statename": "UTTAR PRADESH"
  },
  {
    "pincode": "209121",
    "officename": "Zuniya B.O",
    "officeType": "B.O",
    "Deliverystatus": "Delivery",
    "divisionname": "Kanpur Moffusil",
    "regionname": "Kanpur",
    "circlename": "Uttar Pradesh",
    "Taluk": "Kanpur Dehat",
    "Districtname": "Kanpur Dehat",
    "statename": "UTTAR PRADESH"
  }
]
