[
  {
    "pincode": "209214",
    "officename": "Bharu B.O",
    "officeType": "B.O",
    "Deliverystatus": "Delivery",
    "divisionname": "Kanpur City",
    "regionname": "Kanpur",
    "circlename": "Uttar Pradesh",
    "Taluk": "Bharu",
    "Districtname": "Kanpur Nagar",
    "statename": "UTTAR PRADESH"
  },
  {
    "pincode": "209214",
    "officename": "Bidhnoo S.O",
    "officeType": "S.O",
    "Deliverystatus": "Delivery",
    "divisionname": "Kanpur City",
    "regionname": "Kanpur",
    "circlename": "Uttar Pradesh",
    "Taluk": "Bidhnoo",
    "Districtname": "Kanpur Nagar",
    "statename": "UTTAR PRADESH"
  },
  {
    "pincode": "209214",
    "officename": "Chaurai B.O",
    "officeType": "B.O",
    "Deliverystatus": "Delivery",
    "divisionname": "Kanpur City",
    "regionname": "Kanpur",
    "circlename": "Uttar Pradesh",
    "Taluk": "Chaurai",
    "Districtname": "Kanpur Nagar",
    "statename": "UTTAR PRADESH"
  },
  {
    "pincode": "209214",
    "officename": "Chhatarpur B.O",
    "officeType": "B.O",
    "Deliverystatus": "Delivery",
    "divisionname": "Kanpur City",
    "regionname": "Kanpur",
    "circlename": "Uttar Pradesh",
    "Taluk": "Chhatarpur",
    "Districtname": "Kanpur Nagar",
    "statename": "UTTAR PRADESH"
  },
  {
    "pincode": "209214",
    "officename": "Dehli Ujagar B.O",
    "officeType": "B.O",
    "Deliverystatus": "Delivery",
    "divisionname": "Kanpur City",
    "regionname": "Kanpur",
    "circlename": "Uttar Pradesh",
    "Taluk": "Dehli Ujagar",
    "Districtname": "Kanpur Nagar",
    "statename": "UTTAR PRADESH"
  },
  {
    "pincode": "209214",
    "officename": "Deosarh B.O",
    "officeType": "B.O",
    "Deliverystatus": "Delivery",
    "divisionname": "Kanpur City",
    "regionname": "Kanpur",
    "circlename": "Uttar Pradesh",
    "Taluk": "Deosarh",
    "Districtname": "Kanpur Nagar",
    "statename": "UTTAR PRADESH"
  },
  {
    "pincode": "209214",
    "officename": "Gayatri Seedh Peeth Khadeshar B.O",
    "officeType": "B.O",
    "Deliverystatus": "Delivery",
    "divisionname": "Kanpur City",
    "regionname": "Kanpur",
    "circlename": "Uttar Pradesh",
    "Taluk": "Gayatri Seedh Peeth Khadeshar",
    "Districtname": "Kanpur Nagar",
    "statename": "UTTAR PRADESH"
  },
  {
    "pincode": "209214",
    "officename": "Hardauli B.O",
    "officeType": "B.O",
    "Deliverystatus": "Delivery",
    "divisionname": "Kanpur City",
    "regionname": "Kanpur",
    "circlename": "Uttar Pradesh",
    "Taluk": "Hardauli",
    "Districtname": "Kanpur Nagar",
    "statename": "UTTAR PRADESH"
  },
  {
    "pincode": "209214",
    "officename": "Jamu B.O",
    "officeType": "B.O",
    "Deliverystatus": "Delivery",
    "divisionname": "Kanpur City",
    "regionname": "Kanpur",
    "circlename": "Uttar Pradesh",
    "Taluk": "Jamu",
    "Districtname": "Kanpur Nagar",
    "statename": "UTTAR PRADESH"
  },
  {
    "pincode": "209214",
    "officename": "Kadari Champatpur B.O",
    "officeType": "B.O",
    "Deliverystatus": "Delivery",
    "divisionname": "Kanpur City",
    "regionname": "Kanpur",
    "circlename": "Uttar Pradesh",
    "Taluk": "Kadari Champatpur",
    "Districtname": "Kanpur Nagar",
    "statename": "UTTAR PRADESH"
  },
  {
    "pincode": "209214",
    "officename": "Kaindha B.O",
    "officeType": "B.O",
    "Deliverystatus": "Delivery",
    "divisionname": "Kanpur City",
    "regionname": "Kanpur",
    "circlename": "Uttar Pradesh",
    "Taluk": "Kaindha",
    "Districtname": "Kanpur Nagar",
    "statename": "UTTAR PRADESH"
  },
  {
    "pincode": "209214",
    "officename": "Kathara B.O",
    "officeType": "B.O",
    "Deliverystatus": "Delivery",
    "divisionname": "Kanpur City",
    "regionname": "Kanpur",
    "circlename": "Uttar Pradesh",
    "Taluk": "Kathara",
    "Districtname": "Kanpur Nagar",
    "statename": "UTTAR PRADESH"
  },
  {
    "pincode": "209214",
    "officename": "Katherua B.O",
    "officeType": "B.O",
    "Deliverystatus": "Delivery",
    "divisionname": "Kanpur City",
    "regionname": "Kanpur",
    "circlename": "Uttar Pradesh",
    "Taluk": "Katherua",
    "Districtname": "Kanpur Nagar",
    "statename": "UTTAR PRADESH"
  },
  {
    "pincode": "209214",
    "officename": "Ramaipur B.O",
    "officeType": "B.O",
    "Deliverystatus": "Delivery",
    "divisionname": "Kanpur City",
    "regionname": "Kanpur",
    "circlename": "Uttar Pradesh",
    "Taluk": "Ramaipur",
    "Districtname": "Kanpur Nagar",
    "statename": "UTTAR PRADESH"
  },
  {
    "pincode": "209214",
    "officename": "Sapai B.O",
    "officeType": "B.O",
    "Deliverystatus": "Delivery",
    "divisionname": "Kanpur City",
    "regionname": "Kanpur",
    "circlename": "Uttar Pradesh",
    "Taluk": "Sapai",
    "Districtname": "Kanpur Nagar",
    "statename": "UTTAR PRADESH"
  },
  {
    "pincode": "209214",
    "officename": "Sirhi Itra B.O",
    "officeType": "B.O",
    "Deliverystatus": "Delivery",
    "divisionname": "Kanpur City",
    "regionname": "Kanpur",
    "circlename": "Uttar Pradesh",
    "Taluk": "Sirhi Itra",
    "Districtname": "Kanpur Nagar",
    "statename": "UTTAR PRADESH"
  },
  {
    "pincode": "209214",
    "officename": "Udaipur B.O",
    "officeType": "B.O",
    "Deliverystatus": "Delivery",
    "divisionname": "Kanpur City",
    "regionname": "Kanpur",
    "circlename": "Uttar Pradesh",
    "Taluk": "Udaipur",
    "Districtname": "Kanpur Nagar",
    "statename": "UTTAR PRADESH"
  }
]
