[
  {
    "pincode": "209204",
    "officename": "Aonaha B.O",
    "officeType": "B.O",
    "Deliverystatus": "Delivery",
    "divisionname": "Kanpur Moffusil",
    "regionname": "Kanpur",
    "circlename": "Uttar Pradesh",
    "Taluk": "Sheoli",
    "Districtname": "Kanpur Dehat",
    "statename": "UTTAR PRADESH"
  },
  {
    "pincode": "209204",
    "officename": "Bairi Sawai B.O",
    "officeType": "B.O",
    "Deliverystatus": "Delivery",
    "divisionname": "Kanpur Moffusil",
    "regionname": "Kanpur",
    "circlename": "Uttar Pradesh",
    "Taluk": "Sheoli",
    "Districtname": "Kanpur Dehat",
    "statename": "UTTAR PRADESH"
  },
  {
    "pincode": "209204",
    "officename": "Bannapur B.O",
    "officeType": "B.O",
    "Deliverystatus": "Delivery",
    "divisionname": "Kanpur Moffusil",
    "regionname": "Kanpur",
    "circlename": "Uttar Pradesh",
    "Taluk": "Sheoli",
    "Districtname": "Kanpur Dehat",
    "statename": "UTTAR PRADESH"
  },
  {
    "pincode": "209204",
    "officename": "Barra Tharra B.O",
    "officeType": "B.O",
    "Deliverystatus": "Delivery",
    "divisionname": "Kanpur Moffusil",
    "regionname": "Kanpur",
    "circlename": "Uttar Pradesh",
    "Taluk": "Sheoli",
    "Districtname": "Kanpur Dehat",
    "statename": "UTTAR PRADESH"
  },
  {
    "pincode": "209204",
    "officename": "Bhavaiya B.O",
    "officeType": "B.O",
    "Deliverystatus": "Delivery",
    "divisionname": "Kanpur Moffusil",
    "regionname": "Kanpur",
    "circlename": "Uttar Pradesh",
    "Taluk": "Sheoli",
    "Districtname": "Kanpur Dehat",
    "statename": "UTTAR PRADESH"
  },
  {
    "pincode": "209204",
    "officename": "Bhiwan B.O",
    "officeType": "B.O",
    "Deliverystatus": "Delivery",
    "divisionname": "Kanpur Moffusil",
    "regionname": "Kanpur",
    "circlename": "Uttar Pradesh",
    "Taluk": "Sheoli",
    "Districtname": "Kanpur Dehat",
    "statename": "UTTAR PRADESH"
  },
  {
    "pincode": "209204",
    "officename": "Dalipangar B.O",
    "officeType": "B.O",
    "Deliverystatus": "Delivery",
    "divisionname": "Kanpur Moffusil",
    "regionname": "Kanpur",
    "circlename": "Uttar Pradesh",
    "Taluk": "Sheoli",
    "Districtname": "Kanpur Dehat",
    "statename": "UTTAR PRADESH"
  },
  {
    "pincode": "209204",
    "officename": "Kunjehi B.O",
    "officeType": "B.O",
    "Deliverystatus": "Delivery",
    "divisionname": "Kanpur Moffusil",
    "regionname": "Kanpur",
    "circlename": "Uttar Pradesh",
    "Taluk": "Sheoli",
    "Districtname": "Kanpur Dehat",
    "statename": "UTTAR PRADESH"
  },
  {
    "pincode": "209204",
    "officename": "Nigoha B.O",
    "officeType": "B.O",
    "Deliverystatus": "Delivery",
    "divisionname": "Kanpur Moffusil",
    "regionname": "Kanpur",
    "circlename": "Uttar Pradesh",
    "Taluk": "Sheoli",
    "Districtname": "Kanpur Dehat",
    "statename": "UTTAR PRADESH"
  },
  {
    "pincode": "209204",
    "officename": "Oriya B.O",
    "officeType": "B.O",
    "Deliverystatus": "Delivery",
    "divisionname": "Kanpur Moffusil",
    "regionname": "Kanpur",
    "circlename": "Uttar Pradesh",
    "Taluk": "Sheoli",
    "Districtname": "Kanpur Dehat",
    "statename": "UTTAR PRADESH"
  },
  {
    "pincode": "209204",
    "officename": "Sakhrez B.O",
    "officeType": "B.O",
    "Deliverystatus": "Delivery",
    "divisionname": "Kanpur Moffusil",
    "regionname": "Kanpur",
    "circlename": "Uttar Pradesh",
    "Taluk": "Sheoli",
    "Districtname": "Kanpur Dehat",
    "statename": "UTTAR PRADESH"
  },
  {
    "pincode": "209204",
    "officename": "Sakrawa B.O",
    "officeType": "B.O",
    "Deliverystatus": "Delivery",
    "divisionname": "Kanpur Moffusil",
    "regionname": "Kanpur",
    "circlename": "Uttar Pradesh",
    "Taluk": "Sheoli",
    "Districtname": "Kanpur Dehat",
    "statename": "UTTAR PRADESH"
  },
  {
    "pincode": "209204",
    "officename": "Sheoli S.O",
    "officeType": "S.O",
    "Deliverystatus": "Delivery",
    "divisionname": "Kanpur Moffusil",
    "regionname": "Kanpur",
    "circlename": "Uttar Pradesh",
    "Taluk": "Kanpur Dehat",
    "Districtname": "Kanpur Dehat",
    "statename": "UTTAR PRADESH"
  }
]
