[
  {
    "pincode": "209208",
    "officename": "Bamhrauli B.O",
    "officeType": "B.O",
    "Deliverystatus": "Delivery",
    "divisionname": "Kanpur Moffusil",
    "regionname": "Kanpur",
    "circlename": "Uttar Pradesh",
    "Taluk": "Kanpur Dehat",
    "Districtname": "Kanpur Dehat",
    "statename": "UTTAR PRADESH"
  },
  {
    "pincode": "209208",
    "officename": "Bamhrauli Ghat B.O",
    "officeType": "B.O",
    "Deliverystatus": "Delivery",
    "divisionname": "Kanpur Moffusil",
    "regionname": "Kanpur",
    "circlename": "Uttar Pradesh",
    "Taluk": "Kanpur Dehat",
    "Districtname": "Kanpur Dehat",
    "statename": "UTTAR PRADESH"
  },
  {
    "pincode": "209208",
    "officename": "Dheli B.O",
    "officeType": "B.O",
    "Deliverystatus": "Delivery",
    "divisionname": "Kanpur Moffusil",
    "regionname": "Kanpur",
    "circlename": "Uttar Pradesh",
    "Taluk": "Kanpur  Dehat",
    "Districtname": "Kanpur Dehat",
    "statename": "UTTAR PRADESH"
  },
  {
    "pincode": "209208",
    "officename": "Gadatha B.O",
    "officeType": "B.O",
    "Deliverystatus": "Delivery",
    "divisionname": "Kanpur Moffusil",
    "regionname": "Kanpur",
    "circlename": "Uttar Pradesh",
    "Taluk": "Kanpur Dehat",
    "Districtname": "Kanpur Dehat",
    "statename": "UTTAR PRADESH"
  },
  {
    "pincode": "209208",
    "officename": "Katri B.O",
    "officeType": "B.O",
    "Deliverystatus": "Delivery",
    "divisionname": "Kanpur Moffusil",
    "regionname": "Kanpur",
    "circlename": "Uttar Pradesh",
    "Taluk": "Kanpur Dehta",
    "Districtname": "Kanpur Dehat",
    "statename": "UTTAR PRADESH"
  },
  {
    "pincode": "209208",
    "officename": "Makhauli B.O",
    "officeType": "B.O",
    "Deliverystatus": "Delivery",
    "divisionname": "Kanpur Moffusil",
    "regionname": "Kanpur",
    "circlename": "Uttar Pradesh",
    "Taluk": "Kanpur Dehat",
    "Districtname": "Kanpur Dehat",
    "statename": "UTTAR PRADESH"
  },
  {
    "pincode": "209208",
    "officename": "Musa Nagar S.O",
    "officeType": "S.O",
    "Deliverystatus": "Delivery",
    "divisionname": "Kanpur Moffusil",
    "regionname": "Kanpur",
    "circlename": "Uttar Pradesh",
    "Taluk": "Kanpur Dehat",
    "Districtname": "Kanpur Dehat",
    "statename": "UTTAR PRADESH"
  },
  {
    "pincode": "209208",
    "officename": "Singrasipur B.O",
    "officeType": "B.O",
    "Deliverystatus": "Delivery",
    "divisionname": "Kanpur Moffusil",
    "regionname": "Kanpur",
    "circlename": "Uttar Pradesh",
    "Taluk": "Kanpur Dehat",
    "Districtname": "Kanpur Dehat",
    "statename": "UTTAR PRADESH"
  }
]
