[
  {
    "pincode": "209206",
    "officename": "Akbarpur B.O",
    "officeType": "B.O",
    "Deliverystatus": "Delivery",
    "divisionname": "Kanpur Moffusil",
    "regionname": "Kanpur",
    "circlename": "Uttar Pradesh",
    "Taluk": "Ghatampur",
    "Districtname": "Kanpur Dehat",
    "statename": "UTTAR PRADESH"
  },
  {
    "pincode": "209206",
    "officename": "Asdhna B.O",
    "officeType": "B.O",
    "Deliverystatus": "Delivery",
    "divisionname": "Kanpur Moffusil",
    "regionname": "Kanpur",
    "circlename": "Uttar Pradesh",
    "Taluk": "Ghatampur",
    "Districtname": "Kanpur Dehat",
    "statename": "UTTAR PRADESH"
  },
  {
    "pincode": "209206",
    "officename": "Bara Daulatpur B.O",
    "officeType": "B.O",
    "Deliverystatus": "Delivery",
    "divisionname": "Kanpur Moffusil",
    "regionname": "Kanpur",
    "circlename": "Uttar Pradesh",
    "Taluk": "Ghatampur",
    "Districtname": "Kanpur Dehat",
    "statename": "UTTAR PRADESH"
  },
  {
    "pincode": "209206",
    "officename": "Bari Mahtaen B.O",
    "officeType": "B.O",
    "Deliverystatus": "Delivery",
    "divisionname": "Kanpur Moffusil",
    "regionname": "Kanpur",
    "circlename": "Uttar Pradesh",
    "Taluk": "Ghatampur",
    "Districtname": "Kanpur Dehat",
    "statename": "UTTAR PRADESH"
  },
  {
    "pincode": "209206",
    "officename": "Bhadras B.O",
    "officeType": "B.O",
    "Deliverystatus": "Delivery",
    "divisionname": "Kanpur Moffusil",
    "regionname": "Kanpur",
    "circlename": "Uttar Pradesh",
    "Taluk": "Ghatampur",
    "Districtname": "Kanpur Dehat",
    "statename": "UTTAR PRADESH"
  },
  {
    "pincode": "209206",
    "officename": "Bhadwara B.O",
    "officeType": "B.O",
    "Deliverystatus": "Delivery",
    "divisionname": "Kanpur Moffusil",
    "regionname": "Kanpur",
    "circlename": "Uttar Pradesh",
    "Taluk": "Ghatampur",
    "Districtname": "Kanpur Dehat",
    "statename": "UTTAR PRADESH"
  },
  {
    "pincode": "209206",
    "officename": "Chanwar B.O",
    "officeType": "B.O",
    "Deliverystatus": "Delivery",
    "divisionname": "Kanpur Moffusil",
    "regionname": "Kanpur",
    "circlename": "Uttar Pradesh",
    "Taluk": "Ghatampur",
    "Districtname": "Kanpur Dehat",
    "statename": "UTTAR PRADESH"
  },
  {
    "pincode": "209206",
    "officename": "Dhamna Bujurg B.O",
    "officeType": "B.O",
    "Deliverystatus": "Delivery",
    "divisionname": "Kanpur Moffusil",
    "regionname": "Kanpur",
    "circlename": "Uttar Pradesh",
    "Taluk": "Ghatampur",
    "Districtname": "Kanpur Dehat",
    "statename": "UTTAR PRADESH"
  },
  {
    "pincode": "209206",
    "officename": "Dharmangadpur B.O",
    "officeType": "B.O",
    "Deliverystatus": "Delivery",
    "divisionname": "Kanpur Moffusil",
    "regionname": "Kanpur",
    "circlename": "Uttar Pradesh",
    "Taluk": "Ghatampur",
    "Districtname": "Kanpur Dehat",
    "statename": "UTTAR PRADESH"
  },
  {
    "pincode": "209206",
    "officename": "Ghatampur S.O",
    "officeType": "S.O",
    "Deliverystatus": "Delivery",
    "divisionname": "Kanpur Moffusil",
    "regionname": "Kanpur",
    "circlename": "Uttar Pradesh",
    "Taluk": "Ghatampur",
    "Districtname": "Kanpur Dehat",
    "statename": "UTTAR PRADESH"
  },
  {
    "pincode": "209206",
    "officename": "Gujela B.O",
    "officeType": "B.O",
    "Deliverystatus": "Delivery",
    "divisionname": "Kanpur Moffusil",
    "regionname": "Kanpur",
    "circlename": "Uttar Pradesh",
    "Taluk": "Ghatampur",
    "Districtname": "Kanpur Dehat",
    "statename": "UTTAR PRADESH"
  },
  {
    "pincode": "209206",
    "officename": "Harbansh Pur B.O",
    "officeType": "B.O",
    "Deliverystatus": "Delivery",
    "divisionname": "Kanpur Moffusil",
    "regionname": "Kanpur",
    "circlename": "Uttar Pradesh",
    "Taluk": "Ghatampur",
    "Districtname": "Kanpur Dehat",
    "statename": "UTTAR PRADESH"
  },
  {
    "pincode": "209206",
    "officename": "Itrra B.O",
    "officeType": "B.O",
    "Deliverystatus": "Delivery",
    "divisionname": "Kanpur Moffusil",
    "regionname": "Kanpur",
    "circlename": "Uttar Pradesh",
    "Taluk": "Ghatampur",
    "Districtname": "Kanpur Dehat",
    "statename": "UTTAR PRADESH"
  },
  {
    "pincode": "209206",
    "officename": "Jajpur B.O",
    "officeType": "B.O",
    "Deliverystatus": "Delivery",
    "divisionname": "Kanpur Moffusil",
    "regionname": "Kanpur",
    "circlename": "Uttar Pradesh",
    "Taluk": "Ghatampur",
    "Districtname": "Kanpur Dehat",
    "statename": "UTTAR PRADESH"
  },
  {
    "pincode": "209206",
    "officename": "Kaitha B.O",
    "officeType": "B.O",
    "Deliverystatus": "Delivery",
    "divisionname": "Kanpur Moffusil",
    "regionname": "Kanpur",
    "circlename": "Uttar Pradesh",
    "Taluk": "Ghatampur",
    "Districtname": "Kanpur Dehat",
    "statename": "UTTAR PRADESH"
  },
  {
    "pincode": "209206",
    "officename": "Kohara B.O",
    "officeType": "B.O",
    "Deliverystatus": "Delivery",
    "divisionname": "Kanpur Moffusil",
    "regionname": "Kanpur",
    "circlename": "Uttar Pradesh",
    "Taluk": "Ghatampur",
    "Districtname": "Kanpur Dehat",
    "statename": "UTTAR PRADESH"
  },
  {
    "pincode": "209206",
    "officename": "Korea B.O",
    "officeType": "B.O",
    "Deliverystatus": "Delivery",
    "divisionname": "Kanpur Moffusil",
    "regionname": "Kanpur",
    "circlename": "Uttar Pradesh",
    "Taluk": "Ghatampur",
    "Districtname": "Kanpur Dehat",
    "statename": "UTTAR PRADESH"
  },
  {
    "pincode": "209206",
    "officename": "Kotra Makrandpur B.O",
    "officeType": "B.O",
    "Deliverystatus": "Delivery",
    "divisionname": "Kanpur Moffusil",
    "regionname": "Kanpur",
    "circlename": "Uttar Pradesh",
    "Taluk": "Ghatampur",
    "Districtname": "Kanpur Dehat",
    "statename": "UTTAR PRADESH"
  },
  {
    "pincode": "209206",
    "officename": "Kuwankhera B.O",
    "officeType": "B.O",
    "Deliverystatus": "Delivery",
    "divisionname": "Kanpur Moffusil",
    "regionname": "Kanpur",
    "circlename": "Uttar Pradesh",
    "Taluk": "Ghatampur",
    "Districtname": "Kanpur Dehat",
    "statename": "UTTAR PRADESH"
  },
  {
    "pincode": "209206",
    "officename": "Nauranga B.O",
    "officeType": "B.O",
    "Deliverystatus": "Delivery",
    "divisionname": "Kanpur Moffusil",
    "regionname": "Kanpur",
    "circlename": "Uttar Pradesh",
    "Taluk": "Ghatampur",
    "Districtname": "Kanpur Dehat",
    "statename": "UTTAR PRADESH"
  },
  {
    "pincode": "209206",
    "officename": "Parachand B.O",
    "officeType": "B.O",
    "Deliverystatus": "Delivery",
    "divisionname": "Kanpur Moffusil",
    "regionname": "Kanpur",
    "circlename": "Uttar Pradesh",
    "Taluk": "Ghatampur",
    "Districtname": "Kanpur Dehat",
    "statename": "UTTAR PRADESH"
  },
  {
    "pincode": "209206",
    "officename": "Patrsa B.O",
    "officeType": "B.O",
    "Deliverystatus": "Delivery",
    "divisionname": "Kanpur Moffusil",
    "regionname": "Kanpur",
    "circlename": "Uttar Pradesh",
    "Taluk": "Ghatampur",
    "Districtname": "Kanpur Dehat",
    "statename": "UTTAR PRADESH"
  },
  {
    "pincode": "209206",
    "officename": "Pras B.O",
    "officeType": "B.O",
    "Deliverystatus": "Delivery",
    "divisionname": "Kanpur Moffusil",
    "regionname": "Kanpur",
    "circlename": "Uttar Pradesh",
    "Taluk": "Ghatampur",
    "Districtname": "Kanpur Dehat",
    "statename": "UTTAR PRADESH"
  },
  {
    "pincode": "209206",
    "officename": "Rar B.O",
    "officeType": "B.O",
    "Deliverystatus": "Delivery",
    "divisionname": "Kanpur Moffusil",
    "regionname": "Kanpur",
    "circlename": "Uttar Pradesh",
    "Taluk": "Ghatampur",
    "Districtname": "Kanpur Dehat",
    "statename": "UTTAR PRADESH"
  },
  {
    "pincode": "209206",
    "officename": "Rawaipur B.O",
    "officeType": "B.O",
    "Deliverystatus": "Delivery",
    "divisionname": "Kanpur Moffusil",
    "regionname": "Kanpur",
    "circlename": "Uttar Pradesh",
    "Taluk": "Ghatampur",
    "Districtname": "Kanpur Dehat",
    "statename": "UTTAR PRADESH"
  },
  {
    "pincode": "209206",
    "officename": "Revna B.O",
    "officeType": "B.O",
    "Deliverystatus": "Delivery",
    "divisionname": "Kanpur Moffusil",
    "regionname": "Kanpur",
    "circlename": "Uttar Pradesh",
    "Taluk": "Ghatampur",
    "Districtname": "Kanpur Dehat",
    "statename": "UTTAR PRADESH"
  },
  {
    "pincode": "209206",
    "officename": "Roop Nagar B.O",
    "officeType": "B.O",
    "Deliverystatus": "Delivery",
    "divisionname": "Kanpur Moffusil",
    "regionname": "Kanpur",
    "circlename": "Uttar Pradesh",
    "Taluk": "Ghatampur",
    "Districtname": "Kanpur Dehat",
    "statename": "UTTAR PRADESH"
  },
  {
    "pincode": "209206",
    "officename": "Sadar Bazar Ghatampur B.O",
    "officeType": "B.O",
    "Deliverystatus": "Delivery",
    "divisionname": "Kanpur Moffusil",
    "regionname": "Kanpur",
    "circlename": "Uttar Pradesh",
    "Taluk": "Ghatampur",
    "Districtname": "Kanpur Dehat",
    "statename": "UTTAR PRADESH"
  },
  {
    "pincode": "209206",
    "officename": "Srinagar B.O",
    "officeType": "B.O",
    "Deliverystatus": "Delivery",
    "divisionname": "Kanpur Moffusil",
    "regionname": "Kanpur",
    "circlename": "Uttar Pradesh",
    "Taluk": "Ghatampur",
    "Districtname": "Kanpur Dehat",
    "statename": "UTTAR PRADESH"
  }
]
