[
  {
    "pincode": "209217",
    "officename": "Baikuthpur B.O",
    "officeType": "B.O",
    "Deliverystatus": "Delivery",
    "divisionname": "Kanpur City",
    "regionname": "Kanpur",
    "circlename": "Uttar Pradesh",
    "Taluk": "Baikunthpur",
    "Districtname": "Kanpur Nagar",
    "statename": "UTTAR PRADESH"
  },
  {
    "pincode": "209217",
    "officename": "Itra B.O",
    "officeType": "B.O",
    "Deliverystatus": "Delivery",
    "divisionname": "Kanpur City",
    "regionname": "Kanpur",
    "circlename": "Uttar Pradesh",
    "Taluk": "Itra",
    "Districtname": "Kanpur Nagar",
    "statename": "UTTAR PRADESH"
  },
  {
    "pincode": "209217",
    "officename": "Mandhana S.O",
    "officeType": "S.O",
    "Deliverystatus": "Delivery",
    "divisionname": "Kanpur City",
    "regionname": "Kanpur",
    "circlename": "Uttar Pradesh",
    "Taluk": "Mandhana",
    "Districtname": "Kanpur Nagar",
    "statename": "UTTAR PRADESH"
  },
  {
    "pincode": "209217",
    "officename": "Naramau S.O",
    "officeType": "S.O",
    "Deliverystatus": "Non-Delivery",
    "divisionname": "Kanpur City",
    "regionname": "Kanpur",
    "circlename": "Uttar Pradesh",
    "Taluk": "Naramau",
    "Districtname": "Kanpur Nagar",
    "statename": "UTTAR PRADESH"
  },
  {
    "pincode": "209217",
    "officename": "Pachor B.O",
    "officeType": "B.O",
    "Deliverystatus": "Delivery",
    "divisionname": "Kanpur City",
    "regionname": "Kanpur",
    "circlename": "Uttar Pradesh",
    "Taluk": "Pachor",
    "Districtname": "Kanpur Nagar",
    "statename": "UTTAR PRADESH"
  },
  {
    "pincode": "209217",
    "officename": "Pem B.O",
    "officeType": "B.O",
    "Deliverystatus": "Delivery",
    "divisionname": "Kanpur City",
    "regionname": "Kanpur",
    "circlename": "Uttar Pradesh",
    "Taluk": "Pem",
    "Districtname": "Kanpur Nagar",
    "statename": "UTTAR PRADESH"
  },
  {
    "pincode": "209217",
    "officename": "Tatya Ganj B.O",
    "officeType": "B.O",
    "Deliverystatus": "Delivery",
    "divisionname": "Kanpur City",
    "regionname": "Kanpur",
    "circlename": "Uttar Pradesh",
    "Taluk": "Tatyaganj",
    "Districtname": "Kanpur Nagar",
    "statename": "UTTAR PRADESH"
  },
  {
    "pincode": "209217",
    "officename": "Tikra B.O",
    "officeType": "B.O",
    "Deliverystatus": "Delivery",
    "divisionname": "Kanpur City",
    "regionname": "Kanpur",
    "circlename": "Uttar Pradesh",
    "Taluk": "Tikra",
    "Districtname": "Kanpur Nagar",
    "statename": "UTTAR PRADESH"
  }
]
