[
  {
    "pincode": "209308",
    "officename": "Barnaon B.O",
    "officeType": "B.O",
    "Deliverystatus": "Delivery",
    "divisionname": "Kanpur Moffusil",
    "regionname": "Kanpur",
    "circlename": "Uttar Pradesh",
    "Taluk": "Kanpur Dehat",
    "Districtname": "Kanpur Dehat",
    "statename": "UTTAR PRADESH"
  },
  {
    "pincode": "209308",
    "officename": "Jahagirabad B.O",
    "officeType": "B.O",
    "Deliverystatus": "Delivery",
    "divisionname": "Kanpur Moffusil",
    "regionname": "Kanpur",
    "circlename": "Uttar Pradesh",
    "Taluk": "Kanpur Dehat",
    "Districtname": "Kanpur Dehat",
    "statename": "UTTAR PRADESH"
  },
  {
    "pincode": "209308",
    "officename": "Padri Lalpur B.O",
    "officeType": "B.O",
    "Deliverystatus": "Delivery",
    "divisionname": "Kanpur Moffusil",
    "regionname": "Kanpur",
    "circlename": "Uttar Pradesh",
    "Taluk": "Kanpur Dehat",
    "Districtname": "Kanpur Dehat",
    "statename": "UTTAR PRADESH"
  },
  {
    "pincode": "209308",
    "officename": "Patara S.O (Kanpur Dehat)",
    "officeType": "S.O",
    "Deliverystatus": "Delivery",
    "divisionname": "Kanpur Moffusil",
    "regionname": "Kanpur",
    "circlename": "Uttar Pradesh",
    "Taluk": "Kanpur Dehat",
    "Districtname": "Kanpur Dehat",
    "statename": "UTTAR PRADESH"
  },
  {
    "pincode": "209308",
    "officename": "Rampur B.O",
    "officeType": "B.O",
    "Deliverystatus": "Delivery",
    "divisionname": "Kanpur Moffusil",
    "regionname": "Kanpur",
    "circlename": "Uttar Pradesh",
    "Taluk": "Kanpur Dehat",
    "Districtname": "Kanpur Dehat",
    "statename": "UTTAR PRADESH"
  },
  {
    "pincode": "209308",
    "officename": "Shambhua B.O",
    "officeType": "B.O",
    "Deliverystatus": "Delivery",
    "divisionname": "Kanpur Moffusil",
    "regionname": "Kanpur",
    "circlename": "Uttar Pradesh",
    "Taluk": "Kanpur Dehat",
    "Districtname": "Kanpur Dehat",
    "statename": "UTTAR PRADESH"
  },
  {
    "pincode": "209308",
    "officename": "Targaon B.O",
    "officeType": "B.O",
    "Deliverystatus": "Delivery",
    "divisionname": "Kanpur Moffusil",
    "regionname": "Kanpur",
    "circlename": "Uttar Pradesh",
    "Taluk": "Kanpur Dehat",
    "Districtname": "Kanpur Dehat",
    "statename": "UTTAR PRADESH"
  },
  {
    "pincode": "209308",
    "officename": "Tilsara B.O",
    "officeType": "B.O",
    "Deliverystatus": "Delivery",
    "divisionname": "Kanpur Moffusil",
    "regionname": "Kanpur",
    "circlename": "Uttar Pradesh",
    "Taluk": "Kanpur Dehat",
    "Districtname": "Kanpur Dehat",
    "statename": "UTTAR PRADESH"
  }
]
