[
  {
    "pincode": "209401",
    "officename": "Amour B.O",
    "officeType": "B.O",
    "Deliverystatus": "Delivery",
    "divisionname": "Kanpur City",
    "regionname": "Kanpur",
    "circlename": "Uttar Pradesh",
    "Taluk": "Amour",
    "Districtname": "Kanpur Nagar",
    "statename": "UTTAR PRADESH"
  },
  {
    "pincode": "209401",
    "officename": "Aranjhami B.O",
    "officeType": "B.O",
    "Deliverystatus": "Delivery",
    "divisionname": "Kanpur City",
    "regionname": "Kanpur",
    "circlename": "Uttar Pradesh",
    "Taluk": "Aranjhami",
    "Districtname": "Kanpur Nagar",
    "statename": "UTTAR PRADESH"
  },
  {
    "pincode": "209401",
    "officename": "Baraigarh B.O",
    "officeType": "B.O",
    "Deliverystatus": "Delivery",
    "divisionname": "Kanpur City",
    "regionname": "Kanpur",
    "circlename": "Uttar Pradesh",
    "Taluk": "Baraigarh",
    "Districtname": "Kanpur Nagar",
    "statename": "UTTAR PRADESH"
  },
  {
    "pincode": "209401",
    "officename": "Bausar B.O",
    "officeType": "B.O",
    "Deliverystatus": "Delivery",
    "divisionname": "Kanpur City",
    "regionname": "Kanpur",
    "circlename": "Uttar Pradesh",
    "Taluk": "Bausar",
    "Districtname": "Kanpur Nagar",
    "statename": "UTTAR PRADESH"
  },
  {
    "pincode": "209401",
    "officename": "Behta Gambhirpur B.O",
    "officeType": "B.O",
    "Deliverystatus": "Delivery",
    "divisionname": "Kanpur City",
    "regionname": "Kanpur",
    "circlename": "Uttar Pradesh",
    "Taluk": "Behta Gambhirpur",
    "Districtname": "Kanpur Nagar",
    "statename": "UTTAR PRADESH"
  },
  {
    "pincode": "209401",
    "officename": "Gazipur B.O",
    "officeType": "B.O",
    "Deliverystatus": "Delivery",
    "divisionname": "Kanpur City",
    "regionname": "Kanpur",
    "circlename": "Uttar Pradesh",
    "Taluk": "Gazipur",
    "Districtname": "Kanpur Nagar",
    "statename": "UTTAR PRADESH"
  },
  {
    "pincode": "209401",
    "officename": "Gopalpur B.O",
    "officeType": "B.O",
    "Deliverystatus": "Delivery",
    "divisionname": "Kanpur City",
    "regionname": "Kanpur",
    "circlename": "Uttar Pradesh",
    "Taluk": "Gopalpur",
    "Districtname": "Kanpur Nagar",
    "statename": "UTTAR PRADESH"
  },
  {
    "pincode": "209401",
    "officename": "Harchandkhera B.O",
    "officeType": "B.O",
    "Deliverystatus": "Delivery",
    "divisionname": "Kanpur City",
    "regionname": "Kanpur",
    "circlename": "Uttar Pradesh",
    "Taluk": "Harchand Khera",
    "Districtname": "Kanpur Nagar",
    "statename": "UTTAR PRADESH"
  },
  {
    "pincode": "209401",
    "officename": "Kudani B.O",
    "officeType": "B.O",
    "Deliverystatus": "Delivery",
    "divisionname": "Kanpur City",
    "regionname": "Kanpur",
    "circlename": "Uttar Pradesh",
    "Taluk": "Kudani",
    "Districtname": "Kanpur Nagar",
    "statename": "UTTAR PRADESH"
  },
  {
    "pincode": "209401",
    "officename": "Narwal S.O",
    "officeType": "S.O",
    "Deliverystatus": "Delivery",
    "divisionname": "Kanpur City",
    "regionname": "Kanpur",
    "circlename": "Uttar Pradesh",
    "Taluk": "Narwal",
    "Districtname": "Kanpur Nagar",
    "statename": "UTTAR PRADESH"
  },
  {
    "pincode": "209401",
    "officename": "Nasra B.O",
    "officeType": "B.O",
    "Deliverystatus": "Delivery",
    "divisionname": "Kanpur City",
    "regionname": "Kanpur",
    "circlename": "Uttar Pradesh",
    "Taluk": "Nasra",
    "Districtname": "Kanpur Nagar",
    "statename": "UTTAR PRADESH"
  },
  {
    "pincode": "209401",
    "officename": "Palhepur B.O",
    "officeType": "B.O",
    "Deliverystatus": "Delivery",
    "divisionname": "Kanpur City",
    "regionname": "Kanpur",
    "circlename": "Uttar Pradesh",
    "Taluk": "Palhepur",
    "Districtname": "Kanpur Nagar",
    "statename": "UTTAR PRADESH"
  },
  {
    "pincode": "209401",
    "officename": "Pali Bhogipur B.O",
    "officeType": "B.O",
    "Deliverystatus": "Delivery",
    "divisionname": "Kanpur City",
    "regionname": "Kanpur",
    "circlename": "Uttar Pradesh",
    "Taluk": "Palibhogipur",
    "Districtname": "Kanpur Nagar",
    "statename": "UTTAR PRADESH"
  },
  {
    "pincode": "209401",
    "officename": "Rasulpur Umra B.O",
    "officeType": "B.O",
    "Deliverystatus": "Delivery",
    "divisionname": "Kanpur City",
    "regionname": "Kanpur",
    "circlename": "Uttar Pradesh",
    "Taluk": "Rasulpur Umra",
    "Districtname": "Kanpur Nagar",
    "statename": "UTTAR PRADESH"
  },
  {
    "pincode": "209401",
    "officename": "Sarh B.O",
    "officeType": "B.O",
    "Deliverystatus": "Delivery",
    "divisionname": "Kanpur City",
    "regionname": "Kanpur",
    "circlename": "Uttar Pradesh",
    "Taluk": "Sarh",
    "Districtname": "Kanpur Nagar",
    "statename": "UTTAR PRADESH"
  },
  {
    "pincode": "209401",
    "officename": "Sawaijpur B.O",
    "officeType": "B.O",
    "Deliverystatus": "Delivery",
    "divisionname": "Kanpur City",
    "regionname": "Kanpur",
    "circlename": "Uttar Pradesh",
    "Taluk": "Swaijpur",
    "Districtname": "Kanpur Nagar",
    "statename": "UTTAR PRADESH"
  },
  {
    "pincode": "209401",
    "officename": "Semarjhal B.O",
    "officeType": "B.O",
    "Deliverystatus": "Delivery",
    "divisionname": "Kanpur City",
    "regionname": "Kanpur",
    "circlename": "Uttar Pradesh",
    "Taluk": "Semarjhal",
    "Districtname": "Kanpur Nagar",
    "statename": "UTTAR PRADESH"
  }
]
