[
  {
    "pincode": "209601",
    "officename": "Barhpur B.O",
    "officeType": "B.O",
    "Deliverystatus": "Non-Delivery",
    "divisionname": "Fatehgarh",
    "regionname": "Kanpur",
    "circlename": "Uttar Pradesh",
    "Taluk": "Farrukhabad",
    "Districtname": "Farrukhabad",
    "statename": "UTTAR PRADESH"
  },
  {
    "pincode": "209601",
    "officename": "Bazaza Bazar S.O",
    "officeType": "S.O",
    "Deliverystatus": "Non-Delivery",
    "divisionname": "Fatehgarh",
    "regionname": "Kanpur",
    "circlename": "Uttar Pradesh",
    "Taluk": "Farrukhabad",
    "Districtname": "Farrukhabad",
    "statename": "UTTAR PRADESH"
  },
  {
    "pincode": "209601",
    "officename": "Bharka B.O",
    "officeType": "B.O",
    "Deliverystatus": "Delivery",
    "divisionname": "Fatehgarh",
    "regionname": "Kanpur",
    "circlename": "Uttar Pradesh",
    "Taluk": "",
    "Districtname": "Farrukhabad",
    "statename": "UTTAR PRADESH"
  },
  {
    "pincode": "209601",
    "officename": "Bholeypur S.O",
    "officeType": "S.O",
    "Deliverystatus": "Non-Delivery",
    "divisionname": "Fatehgarh",
    "regionname": "Kanpur",
    "circlename": "Uttar Pradesh",
    "Taluk": "Farrukhabad",
    "Districtname": "Farrukhabad",
    "statename": "UTTAR PRADESH"
  },
  {
    "pincode": "209601",
    "officename": "Civil Lines B.O",
    "officeType": "B.O",
    "Deliverystatus": "Non-Delivery",
    "divisionname": "Fatehgarh",
    "regionname": "Kanpur",
    "circlename": "Uttar Pradesh",
    "Taluk": "Farrukhabad",
    "Districtname": "Farrukhabad",
    "statename": "UTTAR PRADESH"
  },
  {
    "pincode": "209601",
    "officename": "Distt. Jail S.O (Farrukhabad)",
    "officeType": "S.O",
    "Deliverystatus": "Non-Delivery",
    "divisionname": "Fatehgarh",
    "regionname": "Kanpur",
    "circlename": "Uttar Pradesh",
    "Taluk": "Farrukhabad",
    "Districtname": "Farrukhabad",
    "statename": "UTTAR PRADESH"
  },
  {
    "pincode": "209601",
    "officename": "Fatehgarh H.O",
    "officeType": "H.O",
    "Deliverystatus": "Delivery",
    "divisionname": "Fatehgarh",
    "regionname": "Kanpur",
    "circlename": "Uttar Pradesh",
    "Taluk": "Farrukhabad",
    "Districtname": "Farrukhabad",
    "statename": "UTTAR PRADESH"
  },
  {
    "pincode": "209601",
    "officename": "Fatehgarh R.S. S.O",
    "officeType": "S.O",
    "Deliverystatus": "Non-Delivery",
    "divisionname": "Fatehgarh",
    "regionname": "Kanpur",
    "circlename": "Uttar Pradesh",
    "Taluk": "Farrukhabad",
    "Districtname": "Farrukhabad",
    "statename": "UTTAR PRADESH"
  },
  {
    "pincode": "209601",
    "officename": "Ghatiaghat B.O",
    "officeType": "B.O",
    "Deliverystatus": "Delivery",
    "divisionname": "Fatehgarh",
    "regionname": "Kanpur",
    "circlename": "Uttar Pradesh",
    "Taluk": "",
    "Districtname": "Farrukhabad",
    "statename": "UTTAR PRADESH"
  },
  {
    "pincode": "209601",
    "officename": "J.N.V.Road S.O",
    "officeType": "S.O",
    "Deliverystatus": "Non-Delivery",
    "divisionname": "Fatehgarh",
    "regionname": "Kanpur",
    "circlename": "Uttar Pradesh",
    "Taluk": "Farrukhabad",
    "Districtname": "Farrukhabad",
    "statename": "UTTAR PRADESH"
  },
  {
    "pincode": "209601",
    "officename": "Kotwali Road Ftg. S.O",
    "officeType": "S.O",
    "Deliverystatus": "Non-Delivery",
    "divisionname": "Fatehgarh",
    "regionname": "Kanpur",
    "circlename": "Uttar Pradesh",
    "Taluk": "Farrukhabad",
    "Districtname": "Farrukhabad",
    "statename": "UTTAR PRADESH"
  },
  {
    "pincode": "209601",
    "officename": "Kutchery Fatehgarh S.O",
    "officeType": "S.O",
    "Deliverystatus": "Non-Delivery",
    "divisionname": "Fatehgarh",
    "regionname": "Kanpur",
    "circlename": "Uttar Pradesh",
    "Taluk": "Farrukhabad",
    "Districtname": "Farrukhabad",
    "statename": "UTTAR PRADESH"
  },
  {
    "pincode": "209601",
    "officename": "Maseni B.O",
    "officeType": "B.O",
    "Deliverystatus": "Delivery",
    "divisionname": "Fatehgarh",
    "regionname": "Kanpur",
    "circlename": "Uttar Pradesh",
    "Taluk": "",
    "Districtname": "Farrukhabad",
    "statename": "UTTAR PRADESH"
  },
  {
    "pincode": "209601",
    "officename": "RRC Fatehgarh S.O",
    "officeType": "S.O",
    "Deliverystatus": "Non-Delivery",
    "divisionname": "Fatehgarh",
    "regionname": "Kanpur",
    "circlename": "Uttar Pradesh",
    "Taluk": "Farrukhabad",
    "Districtname": "Farrukhabad",
    "statename": "UTTAR PRADESH"
  },
  {
    "pincode": "209601",
    "officename": "Sarah B.O",
    "officeType": "B.O",
    "Deliverystatus": "Delivery",
    "divisionname": "Fatehgarh",
    "regionname": "Kanpur",
    "circlename": "Uttar Pradesh",
    "Taluk": "",
    "Districtname": "Farrukhabad",
    "statename": "UTTAR PRADESH"
  }
]
