[
  {
    "pincode": "209651",
    "officename": "Barakeshav B.O",
    "officeType": "B.O",
    "Deliverystatus": "Delivery",
    "divisionname": "Fatehgarh",
    "regionname": "Kanpur",
    "circlename": "Uttar Pradesh",
    "Taluk": "Farrukhabad",
    "Districtname": "Farrukhabad",
    "statename": "UTTAR PRADESH"
  },
  {
    "pincode": "209651",
    "officename": "Gosarpur B.O",
    "officeType": "B.O",
    "Deliverystatus": "Delivery",
    "divisionname": "Fatehgarh",
    "regionname": "Kanpur",
    "circlename": "Uttar Pradesh",
    "Taluk": "Farrukhabad",
    "Districtname": "Farrukhabad",
    "statename": "UTTAR PRADESH"
  },
  {
    "pincode": "209651",
    "officename": "Maudha B.O",
    "officeType": "B.O",
    "Deliverystatus": "Delivery",
    "divisionname": "Fatehgarh",
    "regionname": "Kanpur",
    "circlename": "Uttar Pradesh",
    "Taluk": "Farrukhabad",
    "Districtname": "Farrukhabad",
    "statename": "UTTAR PRADESH"
  },
  {
    "pincode": "209651",
    "officename": "Mohamdabad S.O",
    "officeType": "S.O",
    "Deliverystatus": "Delivery",
    "divisionname": "Fatehgarh",
    "regionname": "Kanpur",
    "circlename": "Uttar Pradesh",
    "Taluk": "Farrukhabad",
    "Districtname": "Farrukhabad",
    "statename": "UTTAR PRADESH"
  },
  {
    "pincode": "209651",
    "officename": "Rohila B.O",
    "officeType": "B.O",
    "Deliverystatus": "Delivery",
    "divisionname": "Fatehgarh",
    "regionname": "Kanpur",
    "circlename": "Uttar Pradesh",
    "Taluk": "Farrukhabad",
    "Districtname": "Farrukhabad",
    "statename": "UTTAR PRADESH"
  },
  {
    "pincode": "209651",
    "officename": "Sakwai B.O",
    "officeType": "B.O",
    "Deliverystatus": "Delivery",
    "divisionname": "Fatehgarh",
    "regionname": "Kanpur",
    "circlename": "Uttar Pradesh",
    "Taluk": "Farrukhabad",
    "Districtname": "Farrukhabad",
    "statename": "UTTAR PRADESH"
  },
  {
    "pincode": "209651",
    "officename": "Sirauli B.O",
    "officeType": "B.O",
    "Deliverystatus": "Delivery",
    "divisionname": "Fatehgarh",
    "regionname": "Kanpur",
    "circlename": "Uttar Pradesh",
    "Taluk": "Farrukhabad",
    "Districtname": "Farrukhabad",
    "statename": "UTTAR PRADESH"
  },
  {
    "pincode": "209651",
    "officename": "Tajpur B.O",
    "officeType": "B.O",
    "Deliverystatus": "Delivery",
    "divisionname": "Fatehgarh",
    "regionname": "Kanpur",
    "circlename": "Uttar Pradesh",
    "Taluk": "Farrukhabad",
    "Districtname": "Farrukhabad",
    "statename": "UTTAR PRADESH"
  }
]
