[
  {
    "pincode": "209739",
    "officename": "Danmandi B.O",
    "officeType": "B.O",
    "Deliverystatus": "Delivery",
    "divisionname": "Fatehgarh",
    "regionname": "Kanpur",
    "circlename": "Uttar Pradesh",
    "Taluk": "Farrukhabad",
    "Districtname": "Farrukhabad",
    "statename": "UTTAR PRADESH"
  },
  {
    "pincode": "209739",
    "officename": "Daraura B.O",
    "officeType": "B.O",
    "Deliverystatus": "Delivery",
    "divisionname": "Fatehgarh",
    "regionname": "Kanpur",
    "circlename": "Uttar Pradesh",
    "Taluk": "Farrukhabad",
    "Districtname": "Farrukhabad",
    "statename": "UTTAR PRADESH"
  },
  {
    "pincode": "209739",
    "officename": "Gadanpur Turra B.O",
    "officeType": "B.O",
    "Deliverystatus": "Delivery",
    "divisionname": "Fatehgarh",
    "regionname": "Kanpur",
    "circlename": "Uttar Pradesh",
    "Taluk": "Farrukhabad",
    "Districtname": "Farrukhabad",
    "statename": "UTTAR PRADESH"
  },
  {
    "pincode": "209739",
    "officename": "Jahanganj S.O",
    "officeType": "S.O",
    "Deliverystatus": "Delivery",
    "divisionname": "Fatehgarh",
    "regionname": "Kanpur",
    "circlename": "Uttar Pradesh",
    "Taluk": "Farrukhabad",
    "Districtname": "Farrukhabad",
    "statename": "UTTAR PRADESH"
  },
  {
    "pincode": "209739",
    "officename": "Jarari B.O",
    "officeType": "B.O",
    "Deliverystatus": "Delivery",
    "divisionname": "Fatehgarh",
    "regionname": "Kanpur",
    "circlename": "Uttar Pradesh",
    "Taluk": "Farrukhabad",
    "Districtname": "Farrukhabad",
    "statename": "UTTAR PRADESH"
  },
  {
    "pincode": "209739",
    "officename": "Jhasi B.O",
    "officeType": "B.O",
    "Deliverystatus": "Delivery",
    "divisionname": "Fatehgarh",
    "regionname": "Kanpur",
    "circlename": "Uttar Pradesh",
    "Taluk": "Farrukhabad",
    "Districtname": "Farrukhabad",
    "statename": "UTTAR PRADESH"
  },
  {
    "pincode": "209739",
    "officename": "Kandhrapur B.O",
    "officeType": "B.O",
    "Deliverystatus": "Delivery",
    "divisionname": "Fatehgarh",
    "regionname": "Kanpur",
    "circlename": "Uttar Pradesh",
    "Taluk": "Farrukhabad",
    "Districtname": "Farrukhabad",
    "statename": "UTTAR PRADESH"
  },
  {
    "pincode": "209739",
    "officename": "Musakhiria B.O",
    "officeType": "B.O",
    "Deliverystatus": "Delivery",
    "divisionname": "Fatehgarh",
    "regionname": "Kanpur",
    "circlename": "Uttar Pradesh",
    "Taluk": "Farrukhabad",
    "Districtname": "Farrukhabad",
    "statename": "UTTAR PRADESH"
  },
  {
    "pincode": "209739",
    "officename": "Rajeypur Tappa Mandal B.O",
    "officeType": "B.O",
    "Deliverystatus": "Delivery",
    "divisionname": "Fatehgarh",
    "regionname": "Kanpur",
    "circlename": "Uttar Pradesh",
    "Taluk": "Farrukhabad",
    "Districtname": "Farrukhabad",
    "statename": "UTTAR PRADESH"
  }
]
