[
  {
    "pincode": "209723",
    "officename": "Agaus B.O",
    "officeType": "B.O",
    "Deliverystatus": "Delivery",
    "divisionname": "Fatehgarh",
    "regionname": "Kanpur",
    "circlename": "Uttar Pradesh",
    "Taluk": "Kannauj",
    "Districtname": "Kannauj",
    "statename": "UTTAR PRADESH"
  },
  {
    "pincode": "209723",
    "officename": "Bahosi B.O",
    "officeType": "B.O",
    "Deliverystatus": "Delivery",
    "divisionname": "Fatehgarh",
    "regionname": "Kanpur",
    "circlename": "Uttar Pradesh",
    "Taluk": "Kannauj",
    "Districtname": "Kannauj",
    "statename": "UTTAR PRADESH"
  },
  {
    "pincode": "209723",
    "officename": "Belamau Saraiya B.O",
    "officeType": "B.O",
    "Deliverystatus": "Delivery",
    "divisionname": "Fatehgarh",
    "regionname": "Kanpur",
    "circlename": "Uttar Pradesh",
    "Taluk": "Kannauj",
    "Districtname": "Kannauj",
    "statename": "UTTAR PRADESH"
  },
  {
    "pincode": "209723",
    "officename": "Bhagwantpur B.O",
    "officeType": "B.O",
    "Deliverystatus": "Delivery",
    "divisionname": "Fatehgarh",
    "regionname": "Kanpur",
    "circlename": "Uttar Pradesh",
    "Taluk": "Kannauj",
    "Districtname": "Kannauj",
    "statename": "UTTAR PRADESH"
  },
  {
    "pincode": "209723",
    "officename": "Indergarh S.O (Kannauj)",
    "officeType": "S.O",
    "Deliverystatus": "Delivery",
    "divisionname": "Fatehgarh",
    "regionname": "Kanpur",
    "circlename": "Uttar Pradesh",
    "Taluk": "Kannauj",
    "Districtname": "Kannauj",
    "statename": "UTTAR PRADESH"
  },
  {
    "pincode": "209723",
    "officename": "Kalsan B.O",
    "officeType": "B.O",
    "Deliverystatus": "Delivery",
    "divisionname": "Fatehgarh",
    "regionname": "Kanpur",
    "circlename": "Uttar Pradesh",
    "Taluk": "Kannauj",
    "Districtname": "Kannauj",
    "statename": "UTTAR PRADESH"
  },
  {
    "pincode": "209723",
    "officename": "Lakh B.O",
    "officeType": "B.O",
    "Deliverystatus": "Delivery",
    "divisionname": "Fatehgarh",
    "regionname": "Kanpur",
    "circlename": "Uttar Pradesh",
    "Taluk": "Kannauj",
    "Districtname": "Kannauj",
    "statename": "UTTAR PRADESH"
  },
  {
    "pincode": "209723",
    "officename": "Madhpura B.O",
    "officeType": "B.O",
    "Deliverystatus": "Delivery",
    "divisionname": "Fatehgarh",
    "regionname": "Kanpur",
    "circlename": "Uttar Pradesh",
    "Taluk": "Kannauj",
    "Districtname": "Kannauj",
    "statename": "UTTAR PRADESH"
  },
  {
    "pincode": "209723",
    "officename": "Parsaramau Majhretha B.O",
    "officeType": "B.O",
    "Deliverystatus": "Delivery",
    "divisionname": "Fatehgarh",
    "regionname": "Kanpur",
    "circlename": "Uttar Pradesh",
    "Taluk": "Kannauj",
    "Districtname": "Kannauj",
    "statename": "UTTAR PRADESH"
  },
  {
    "pincode": "209723",
    "officename": "Pura Rai B.O",
    "officeType": "B.O",
    "Deliverystatus": "Delivery",
    "divisionname": "Fatehgarh",
    "regionname": "Kanpur",
    "circlename": "Uttar Pradesh",
    "Taluk": "Kannauj",
    "Districtname": "Kannauj",
    "statename": "UTTAR PRADESH"
  }
]
