[
  {
    "pincode": "209738",
    "officename": "Deodha B.O",
    "officeType": "B.O",
    "Deliverystatus": "Delivery",
    "divisionname": "Fatehgarh",
    "regionname": "Kanpur",
    "circlename": "Uttar Pradesh",
    "Taluk": "Kannauj",
    "Districtname": "Kannauj",
    "statename": "UTTAR PRADESH"
  },
  {
    "pincode": "209738",
    "officename": "Ferozpur B.O",
    "officeType": "B.O",
    "Deliverystatus": "Delivery",
    "divisionname": "Fatehgarh",
    "regionname": "Kanpur",
    "circlename": "Uttar Pradesh",
    "Taluk": "Kannauj",
    "Districtname": "Kannauj",
    "statename": "UTTAR PRADESH"
  },
  {
    "pincode": "209738",
    "officename": "Khanpur B.O",
    "officeType": "B.O",
    "Deliverystatus": "Delivery",
    "divisionname": "Fatehgarh",
    "regionname": "Kanpur",
    "circlename": "Uttar Pradesh",
    "Taluk": "Kannauj",
    "Districtname": "Kannauj",
    "statename": "UTTAR PRADESH"
  },
  {
    "pincode": "209738",
    "officename": "Kudhina B.O",
    "officeType": "B.O",
    "Deliverystatus": "Delivery",
    "divisionname": "Fatehgarh",
    "regionname": "Kanpur",
    "circlename": "Uttar Pradesh",
    "Taluk": "Kannauj",
    "Districtname": "Kannauj",
    "statename": "UTTAR PRADESH"
  },
  {
    "pincode": "209738",
    "officename": "Mawai Bilwari B.O",
    "officeType": "B.O",
    "Deliverystatus": "Delivery",
    "divisionname": "Fatehgarh",
    "regionname": "Kanpur",
    "circlename": "Uttar Pradesh",
    "Taluk": "Kannauj",
    "Districtname": "Kannauj",
    "statename": "UTTAR PRADESH"
  },
  {
    "pincode": "209738",
    "officename": "Miruan Marha B.O",
    "officeType": "B.O",
    "Deliverystatus": "Delivery",
    "divisionname": "Fatehgarh",
    "regionname": "Kanpur",
    "circlename": "Uttar Pradesh",
    "Taluk": "Kannauj",
    "Districtname": "Kannauj",
    "statename": "UTTAR PRADESH"
  },
  {
    "pincode": "209738",
    "officename": "Rampur Majhila B.O",
    "officeType": "B.O",
    "Deliverystatus": "Delivery",
    "divisionname": "Fatehgarh",
    "regionname": "Kanpur",
    "circlename": "Uttar Pradesh",
    "Taluk": "Kannauj",
    "Districtname": "Kannauj",
    "statename": "UTTAR PRADESH"
  },
  {
    "pincode": "209738",
    "officename": "Umarda S.O",
    "officeType": "S.O",
    "Deliverystatus": "Delivery",
    "divisionname": "Fatehgarh",
    "regionname": "Kanpur",
    "circlename": "Uttar Pradesh",
    "Taluk": "Kannauj",
    "Districtname": "Kannauj",
    "statename": "UTTAR PRADESH"
  }
]
