[
  {
    "pincode": "209743",
    "officename": "Dhirpur B.O",
    "officeType": "B.O",
    "Deliverystatus": "Delivery",
    "divisionname": "Fatehgarh",
    "regionname": "Kanpur",
    "circlename": "Uttar Pradesh",
    "Taluk": "Farrukhabad",
    "Districtname": "Farrukhabad",
    "statename": "UTTAR PRADESH"
  },
  {
    "pincode": "209743",
    "officename": "Jyonta B.O",
    "officeType": "B.O",
    "Deliverystatus": "Delivery",
    "divisionname": "Fatehgarh",
    "regionname": "Kanpur",
    "circlename": "Uttar Pradesh",
    "Taluk": "Farrukhabad",
    "Districtname": "Farrukhabad",
    "statename": "UTTAR PRADESH"
  },
  {
    "pincode": "209743",
    "officename": "Kanheypur B.O",
    "officeType": "B.O",
    "Deliverystatus": "Delivery",
    "divisionname": "Fatehgarh",
    "regionname": "Kanpur",
    "circlename": "Uttar Pradesh",
    "Taluk": "Farrukhabad",
    "Districtname": "Farrukhabad",
    "statename": "UTTAR PRADESH"
  },
  {
    "pincode": "209743",
    "officename": "Khimseypur S.O",
    "officeType": "S.O",
    "Deliverystatus": "Delivery",
    "divisionname": "Fatehgarh",
    "regionname": "Kanpur",
    "circlename": "Uttar Pradesh",
    "Taluk": "Farrukhabad",
    "Districtname": "Farrukhabad",
    "statename": "UTTAR PRADESH"
  },
  {
    "pincode": "209743",
    "officename": "Madanpur B.O",
    "officeType": "B.O",
    "Deliverystatus": "Delivery",
    "divisionname": "Fatehgarh",
    "regionname": "Kanpur",
    "circlename": "Uttar Pradesh",
    "Taluk": "Farrukhabad",
    "Districtname": "Farrukhabad",
    "statename": "UTTAR PRADESH"
  },
  {
    "pincode": "209743",
    "officename": "Mahoi B.O",
    "officeType": "B.O",
    "Deliverystatus": "Delivery",
    "divisionname": "Fatehgarh",
    "regionname": "Kanpur",
    "circlename": "Uttar Pradesh",
    "Taluk": "Farrukhabad",
    "Districtname": "Farrukhabad",
    "statename": "UTTAR PRADESH"
  },
  {
    "pincode": "209743",
    "officename": "Sahaspur B.O",
    "officeType": "B.O",
    "Deliverystatus": "Delivery",
    "divisionname": "Fatehgarh",
    "regionname": "Kanpur",
    "circlename": "Uttar Pradesh",
    "Taluk": "Farrukhabad",
    "Districtname": "Farrukhabad",
    "statename": "UTTAR PRADESH"
  },
  {
    "pincode": "209743",
    "officename": "Ugrapur Sultan Patti B.O",
    "officeType": "B.O",
    "Deliverystatus": "Delivery",
    "divisionname": "Fatehgarh",
    "regionname": "Kanpur",
    "circlename": "Uttar Pradesh",
    "Taluk": "Farrukhabad",
    "Districtname": "Farrukhabad",
    "statename": "UTTAR PRADESH"
  }
]
