[
  {
    "pincode": "209728",
    "officename": "Aruha B.O",
    "officeType": "B.O",
    "Deliverystatus": "Delivery",
    "divisionname": "Fatehgarh",
    "regionname": "Kanpur",
    "circlename": "Uttar Pradesh",
    "Taluk": "Kannauj",
    "Districtname": "Kannauj",
    "statename": "UTTAR PRADESH"
  },
  {
    "pincode": "209728",
    "officename": "Bahadurpur Majhgaon B.O",
    "officeType": "B.O",
    "Deliverystatus": "Delivery",
    "divisionname": "Fatehgarh",
    "regionname": "Kanpur",
    "circlename": "Uttar Pradesh",
    "Taluk": "Kannauj",
    "Districtname": "Kannauj",
    "statename": "UTTAR PRADESH"
  },
  {
    "pincode": "209728",
    "officename": "Bangawan Kharg B.O",
    "officeType": "B.O",
    "Deliverystatus": "Delivery",
    "divisionname": "Fatehgarh",
    "regionname": "Kanpur",
    "circlename": "Uttar Pradesh",
    "Taluk": "Kannauj",
    "Districtname": "Kannauj",
    "statename": "UTTAR PRADESH"
  },
  {
    "pincode": "209728",
    "officename": "Behta Rampur B.O",
    "officeType": "B.O",
    "Deliverystatus": "Delivery",
    "divisionname": "Fatehgarh",
    "regionname": "Kanpur",
    "circlename": "Uttar Pradesh",
    "Taluk": "Kannauj",
    "Districtname": "Kannauj",
    "statename": "UTTAR PRADESH"
  },
  {
    "pincode": "209728",
    "officename": "Chapunna B.O",
    "officeType": "B.O",
    "Deliverystatus": "Delivery",
    "divisionname": "Fatehgarh",
    "regionname": "Kanpur",
    "circlename": "Uttar Pradesh",
    "Taluk": "Kannauj",
    "Districtname": "Kannauj",
    "statename": "UTTAR PRADESH"
  },
  {
    "pincode": "209728",
    "officename": "Gulariyapur B.O",
    "officeType": "B.O",
    "Deliverystatus": "Delivery",
    "divisionname": "Fatehgarh",
    "regionname": "Kanpur",
    "circlename": "Uttar Pradesh",
    "Taluk": "Kannauj",
    "Districtname": "Kannauj",
    "statename": "UTTAR PRADESH"
  },
  {
    "pincode": "209728",
    "officename": "Gyaspur B.O",
    "officeType": "B.O",
    "Deliverystatus": "Delivery",
    "divisionname": "Fatehgarh",
    "regionname": "Kanpur",
    "circlename": "Uttar Pradesh",
    "Taluk": "Kannauj",
    "Districtname": "Kannauj",
    "statename": "UTTAR PRADESH"
  },
  {
    "pincode": "209728",
    "officename": "Haseran B.O",
    "officeType": "B.O",
    "Deliverystatus": "Delivery",
    "divisionname": "Fatehgarh",
    "regionname": "Kanpur",
    "circlename": "Uttar Pradesh",
    "Taluk": "Kannauj",
    "Districtname": "Kannauj",
    "statename": "UTTAR PRADESH"
  },
  {
    "pincode": "209728",
    "officename": "Ishampur B.O",
    "officeType": "B.O",
    "Deliverystatus": "Delivery",
    "divisionname": "Fatehgarh",
    "regionname": "Kanpur",
    "circlename": "Uttar Pradesh",
    "Taluk": "Kannauj",
    "Districtname": "Kannauj",
    "statename": "UTTAR PRADESH"
  },
  {
    "pincode": "209728",
    "officename": "Khadini B.O",
    "officeType": "B.O",
    "Deliverystatus": "Delivery",
    "divisionname": "Fatehgarh",
    "regionname": "Kanpur",
    "circlename": "Uttar Pradesh",
    "Taluk": "Kannauj",
    "Districtname": "Kannauj",
    "statename": "UTTAR PRADESH"
  },
  {
    "pincode": "209728",
    "officename": "Kisai Jagdishpur B.O",
    "officeType": "B.O",
    "Deliverystatus": "Delivery",
    "divisionname": "Fatehgarh",
    "regionname": "Kanpur",
    "circlename": "Uttar Pradesh",
    "Taluk": "Kannauj",
    "Districtname": "Kannauj",
    "statename": "UTTAR PRADESH"
  },
  {
    "pincode": "209728",
    "officename": "Murra B.O",
    "officeType": "B.O",
    "Deliverystatus": "Delivery",
    "divisionname": "Fatehgarh",
    "regionname": "Kanpur",
    "circlename": "Uttar Pradesh",
    "Taluk": "Kannauj",
    "Districtname": "Kannauj",
    "statename": "UTTAR PRADESH"
  },
  {
    "pincode": "209728",
    "officename": "Nademau B.O",
    "officeType": "B.O",
    "Deliverystatus": "Delivery",
    "divisionname": "Fatehgarh",
    "regionname": "Kanpur",
    "circlename": "Uttar Pradesh",
    "Taluk": "Kannauj",
    "Districtname": "Kannauj",
    "statename": "UTTAR PRADESH"
  },
  {
    "pincode": "209728",
    "officename": "Nizampur B.O",
    "officeType": "B.O",
    "Deliverystatus": "Delivery",
    "divisionname": "Fatehgarh",
    "regionname": "Kanpur",
    "circlename": "Uttar Pradesh",
    "Taluk": "Kannauj",
    "Districtname": "Kannauj",
    "statename": "UTTAR PRADESH"
  },
  {
    "pincode": "209728",
    "officename": "Sakatpur B.O",
    "officeType": "B.O",
    "Deliverystatus": "Delivery",
    "divisionname": "Fatehgarh",
    "regionname": "Kanpur",
    "circlename": "Uttar Pradesh",
    "Taluk": "Kannauj",
    "Districtname": "Kannauj",
    "statename": "UTTAR PRADESH"
  },
  {
    "pincode": "209728",
    "officename": "Sarai Theku B.O",
    "officeType": "B.O",
    "Deliverystatus": "Delivery",
    "divisionname": "Fatehgarh",
    "regionname": "Kanpur",
    "circlename": "Uttar Pradesh",
    "Taluk": "Kannauj",
    "Districtname": "Kannauj",
    "statename": "UTTAR PRADESH"
  },
  {
    "pincode": "209728",
    "officename": "Saurikh S.O",
    "officeType": "S.O",
    "Deliverystatus": "Delivery",
    "divisionname": "Fatehgarh",
    "regionname": "Kanpur",
    "circlename": "Uttar Pradesh",
    "Taluk": "Kannauj",
    "Districtname": "Kannauj",
    "statename": "UTTAR PRADESH"
  }
]
