[
  {
    "pincode": "209866",
    "officename": "Aakampur B.O",
    "officeType": "B.O",
    "Deliverystatus": "Delivery",
    "divisionname": "Kanpur Moffusil",
    "regionname": "Kanpur",
    "circlename": "Uttar Pradesh",
    "Taluk": "Unnaao",
    "Districtname": "Unnao",
    "statename": "UTTAR PRADESH"
  },
  {
    "pincode": "209866",
    "officename": "Bihar S.O",
    "officeType": "S.O",
    "Deliverystatus": "Delivery",
    "divisionname": "Kanpur Moffusil",
    "regionname": "Kanpur",
    "circlename": "Uttar Pradesh",
    "Taluk": "Bihar",
    "Districtname": "Unnao",
    "statename": "UTTAR PRADESH"
  },
  {
    "pincode": "209866",
    "officename": "Chainpur B.O",
    "officeType": "B.O",
    "Deliverystatus": "Delivery",
    "divisionname": "Kanpur Moffusil",
    "regionname": "Kanpur",
    "circlename": "Uttar Pradesh",
    "Taluk": "Unnao",
    "Districtname": "Unnao",
    "statename": "UTTAR PRADESH"
  },
  {
    "pincode": "209866",
    "officename": "Gaura B.O",
    "officeType": "B.O",
    "Deliverystatus": "Delivery",
    "divisionname": "Kanpur Moffusil",
    "regionname": "Kanpur",
    "circlename": "Uttar Pradesh",
    "Taluk": "Unnao",
    "Districtname": "Unnao",
    "statename": "UTTAR PRADESH"
  },
  {
    "pincode": "209866",
    "officename": "Kundenpur B.O",
    "officeType": "B.O",
    "Deliverystatus": "Delivery",
    "divisionname": "Kanpur Moffusil",
    "regionname": "Kanpur",
    "circlename": "Uttar Pradesh",
    "Taluk": "Unnao",
    "Districtname": "Unnao",
    "statename": "UTTAR PRADESH"
  },
  {
    "pincode": "209866",
    "officename": "Malona B.O",
    "officeType": "B.O",
    "Deliverystatus": "Delivery",
    "divisionname": "Kanpur Moffusil",
    "regionname": "Kanpur",
    "circlename": "Uttar Pradesh",
    "Taluk": "Unnao",
    "Districtname": "Unnao",
    "statename": "UTTAR PRADESH"
  },
  {
    "pincode": "209866",
    "officename": "Mankapur B.O",
    "officeType": "B.O",
    "Deliverystatus": "Delivery",
    "divisionname": "Kanpur Moffusil",
    "regionname": "Kanpur",
    "circlename": "Uttar Pradesh",
    "Taluk": "Unnao",
    "Districtname": "Unnao",
    "statename": "UTTAR PRADESH"
  },
  {
    "pincode": "209866",
    "officename": "Pakrakhurd B.O",
    "officeType": "B.O",
    "Deliverystatus": "Delivery",
    "divisionname": "Kanpur Moffusil",
    "regionname": "Kanpur",
    "circlename": "Uttar Pradesh",
    "Taluk": "Unnao",
    "Districtname": "Unnao",
    "statename": "UTTAR PRADESH"
  },
  {
    "pincode": "209866",
    "officename": "Pokhri B.O",
    "officeType": "B.O",
    "Deliverystatus": "Delivery",
    "divisionname": "Kanpur Moffusil",
    "regionname": "Kanpur",
    "circlename": "Uttar Pradesh",
    "Taluk": "Unnao",
    "Districtname": "Unnao",
    "statename": "UTTAR PRADESH"
  },
  {
    "pincode": "209866",
    "officename": "Sumerpur B.O",
    "officeType": "B.O",
    "Deliverystatus": "Delivery",
    "divisionname": "Kanpur Moffusil",
    "regionname": "Kanpur",
    "circlename": "Uttar Pradesh",
    "Taluk": "Unnao",
    "Districtname": "Unnao",
    "statename": "UTTAR PRADESH"
  },
  {
    "pincode": "209866",
    "officename": "Zamipur B.O",
    "officeType": "B.O",
    "Deliverystatus": "Delivery",
    "divisionname": "Kanpur Moffusil",
    "regionname": "Kanpur",
    "circlename": "Uttar Pradesh",
    "Taluk": "Unnao",
    "Districtname": "Unnao",
    "statename": "UTTAR PRADESH"
  }
]
