[
  {
    "pincode": "209865",
    "officename": "Behta Bhawani B.O",
    "officeType": "B.O",
    "Deliverystatus": "Delivery",
    "divisionname": "Kanpur Moffusil",
    "regionname": "Kanpur",
    "circlename": "Uttar Pradesh",
    "Taluk": "Unnao",
    "Districtname": "Unnao",
    "statename": "UTTAR PRADESH"
  },
  {
    "pincode": "209865",
    "officename": "Bighapur S.O",
    "officeType": "S.O",
    "Deliverystatus": "Delivery",
    "divisionname": "Kanpur Moffusil",
    "regionname": "Kanpur",
    "circlename": "Uttar Pradesh",
    "Taluk": "Unnao",
    "Districtname": "Unnao",
    "statename": "UTTAR PRADESH"
  },
  {
    "pincode": "209865",
    "officename": "Bisen Mau B.O",
    "officeType": "B.O",
    "Deliverystatus": "Delivery",
    "divisionname": "Kanpur Moffusil",
    "regionname": "Kanpur",
    "circlename": "Uttar Pradesh",
    "Taluk": "Unnao",
    "Districtname": "Unnao",
    "statename": "UTTAR PRADESH"
  },
  {
    "pincode": "209865",
    "officename": "Garha Kola B.O",
    "officeType": "B.O",
    "Deliverystatus": "Delivery",
    "divisionname": "Kanpur Moffusil",
    "regionname": "Kanpur",
    "circlename": "Uttar Pradesh",
    "Taluk": "Unnao",
    "Districtname": "Unnao",
    "statename": "UTTAR PRADESH"
  },
  {
    "pincode": "209865",
    "officename": "Ghatampur B.O",
    "officeType": "B.O",
    "Deliverystatus": "Delivery",
    "divisionname": "Kanpur Moffusil",
    "regionname": "Kanpur",
    "circlename": "Uttar Pradesh",
    "Taluk": "Unnao",
    "Districtname": "Unnao",
    "statename": "UTTAR PRADESH"
  },
  {
    "pincode": "209865",
    "officename": "Kharoli B.O",
    "officeType": "B.O",
    "Deliverystatus": "Delivery",
    "divisionname": "Kanpur Moffusil",
    "regionname": "Kanpur",
    "circlename": "Uttar Pradesh",
    "Taluk": "Unnao",
    "Districtname": "Unnao",
    "statename": "UTTAR PRADESH"
  },
  {
    "pincode": "209865",
    "officename": "Kulaha Bagha B.O",
    "officeType": "B.O",
    "Deliverystatus": "Delivery",
    "divisionname": "Kanpur Moffusil",
    "regionname": "Kanpur",
    "circlename": "Uttar Pradesh",
    "Taluk": "Unnao",
    "Districtname": "Unnao",
    "statename": "UTTAR PRADESH"
  },
  {
    "pincode": "209865",
    "officename": "Osiya B.O",
    "officeType": "B.O",
    "Deliverystatus": "Delivery",
    "divisionname": "Kanpur Moffusil",
    "regionname": "Kanpur",
    "circlename": "Uttar Pradesh",
    "Taluk": "Unnao",
    "Districtname": "Unnao",
    "statename": "UTTAR PRADESH"
  },
  {
    "pincode": "209865",
    "officename": "Pali B.O",
    "officeType": "B.O",
    "Deliverystatus": "Delivery",
    "divisionname": "Kanpur Moffusil",
    "regionname": "Kanpur",
    "circlename": "Uttar Pradesh",
    "Taluk": "Unnao",
    "Districtname": "Unnao",
    "statename": "UTTAR PRADESH"
  },
  {
    "pincode": "209865",
    "officename": "Raithana B.O",
    "officeType": "B.O",
    "Deliverystatus": "Delivery",
    "divisionname": "Kanpur Moffusil",
    "regionname": "Kanpur",
    "circlename": "Uttar Pradesh",
    "Taluk": "Unnao",
    "Districtname": "Unnao",
    "statename": "UTTAR PRADESH"
  },
  {
    "pincode": "209865",
    "officename": "Rujhai B.O",
    "officeType": "B.O",
    "Deliverystatus": "Delivery",
    "divisionname": "Kanpur Moffusil",
    "regionname": "Kanpur",
    "circlename": "Uttar Pradesh",
    "Taluk": "Unnao",
    "Districtname": "Unnao",
    "statename": "UTTAR PRADESH"
  }
]
