[
  {
    "pincode": "209870",
    "officename": "Asawar B.O",
    "officeType": "B.O",
    "Deliverystatus": "Delivery",
    "divisionname": "Kanpur Moffusil",
    "regionname": "Kanpur",
    "circlename": "Uttar Pradesh",
    "Taluk": "Unnao",
    "Districtname": "Unnao",
    "statename": "UTTAR PRADESH"
  },
  {
    "pincode": "209870",
    "officename": "Auras B.O",
    "officeType": "B.O",
    "Deliverystatus": "Delivery",
    "divisionname": "Kanpur Moffusil",
    "regionname": "Kanpur",
    "circlename": "Uttar Pradesh",
    "Taluk": "Unnao",
    "Districtname": "Unnao",
    "statename": "UTTAR PRADESH"
  },
  {
    "pincode": "209870",
    "officename": "Bachhaauli B.O",
    "officeType": "B.O",
    "Deliverystatus": "Delivery",
    "divisionname": "Kanpur Moffusil",
    "regionname": "Kanpur",
    "circlename": "Uttar Pradesh",
    "Taluk": "Unnao",
    "Districtname": "Unnao",
    "statename": "UTTAR PRADESH"
  },
  {
    "pincode": "209870",
    "officename": "Badhwa Kola B.O",
    "officeType": "B.O",
    "Deliverystatus": "Delivery",
    "divisionname": "Kanpur Moffusil",
    "regionname": "Kanpur",
    "circlename": "Uttar Pradesh",
    "Taluk": "Unnao",
    "Districtname": "Unnao",
    "statename": "UTTAR PRADESH"
  },
  {
    "pincode": "209870",
    "officename": "Barithana B.O",
    "officeType": "B.O",
    "Deliverystatus": "Delivery",
    "divisionname": "Kanpur Moffusil",
    "regionname": "Kanpur",
    "circlename": "Uttar Pradesh",
    "Taluk": "Unnao",
    "Districtname": "Unnao",
    "statename": "UTTAR PRADESH"
  },
  {
    "pincode": "209870",
    "officename": "Birsinghpur B.O",
    "officeType": "B.O",
    "Deliverystatus": "Delivery",
    "divisionname": "Kanpur Moffusil",
    "regionname": "Kanpur",
    "circlename": "Uttar Pradesh",
    "Taluk": "Unnao",
    "Districtname": "Unnao",
    "statename": "UTTAR PRADESH"
  },
  {
    "pincode": "209870",
    "officename": "Hedrabad B.O",
    "officeType": "B.O",
    "Deliverystatus": "Delivery",
    "divisionname": "Kanpur Moffusil",
    "regionname": "Kanpur",
    "circlename": "Uttar Pradesh",
    "Taluk": "Unnao",
    "Districtname": "Unnao",
    "statename": "UTTAR PRADESH"
  },
  {
    "pincode": "209870",
    "officename": "Kodra B.O",
    "officeType": "B.O",
    "Deliverystatus": "Delivery",
    "divisionname": "Kanpur Moffusil",
    "regionname": "Kanpur",
    "circlename": "Uttar Pradesh",
    "Taluk": "Unnao",
    "Districtname": "Unnao",
    "statename": "UTTAR PRADESH"
  },
  {
    "pincode": "209870",
    "officename": "Laglesra B.O",
    "officeType": "B.O",
    "Deliverystatus": "Delivery",
    "divisionname": "Kanpur Moffusil",
    "regionname": "Kanpur",
    "circlename": "Uttar Pradesh",
    "Taluk": "Unnao",
    "Districtname": "Unnao",
    "statename": "UTTAR PRADESH"
  },
  {
    "pincode": "209870",
    "officename": "Mawai Dhamiyan B.O",
    "officeType": "B.O",
    "Deliverystatus": "Delivery",
    "divisionname": "Kanpur Moffusil",
    "regionname": "Kanpur",
    "circlename": "Uttar Pradesh",
    "Taluk": "Unnao",
    "Districtname": "Unnao",
    "statename": "UTTAR PRADESH"
  },
  {
    "pincode": "209870",
    "officename": "Mirzapur Ajgaon B.O",
    "officeType": "B.O",
    "Deliverystatus": "Delivery",
    "divisionname": "Kanpur Moffusil",
    "regionname": "Kanpur",
    "circlename": "Uttar Pradesh",
    "Taluk": "Unnao",
    "Districtname": "Unnao",
    "statename": "UTTAR PRADESH"
  },
  {
    "pincode": "209870",
    "officename": "Mirzapur B.O",
    "officeType": "B.O",
    "Deliverystatus": "Delivery",
    "divisionname": "Kanpur Moffusil",
    "regionname": "Kanpur",
    "circlename": "Uttar Pradesh",
    "Taluk": "Unnao",
    "Districtname": "Unnao",
    "statename": "UTTAR PRADESH"
  },
  {
    "pincode": "209870",
    "officename": "Miyanganj B.O",
    "officeType": "B.O",
    "Deliverystatus": "Delivery",
    "divisionname": "Kanpur Moffusil",
    "regionname": "Kanpur",
    "circlename": "Uttar Pradesh",
    "Taluk": "Unnao",
    "Districtname": "Unnao",
    "statename": "UTTAR PRADESH"
  },
  {
    "pincode": "209870",
    "officename": "Mustafabad B.O",
    "officeType": "B.O",
    "Deliverystatus": "Delivery",
    "divisionname": "Kanpur Moffusil",
    "regionname": "Kanpur",
    "circlename": "Uttar Pradesh",
    "Taluk": "Unnao",
    "Districtname": "Unnao",
    "statename": "UTTAR PRADESH"
  },
  {
    "pincode": "209870",
    "officename": "Purthiyawa B.O",
    "officeType": "B.O",
    "Deliverystatus": "Delivery",
    "divisionname": "Kanpur Moffusil",
    "regionname": "Kanpur",
    "circlename": "Uttar Pradesh",
    "Taluk": "Unnao",
    "Districtname": "Unnao",
    "statename": "UTTAR PRADESH"
  },
  {
    "pincode": "209870",
    "officename": "Rampur Gaderuwa B.O",
    "officeType": "B.O",
    "Deliverystatus": "Delivery",
    "divisionname": "Kanpur Moffusil",
    "regionname": "Kanpur",
    "circlename": "Uttar Pradesh",
    "Taluk": "Unna",
    "Districtname": "Unnao",
    "statename": "UTTAR PRADESH"
  },
  {
    "pincode": "209870",
    "officename": "Rasulabad S.O (Unnao)",
    "officeType": "S.O",
    "Deliverystatus": "Delivery",
    "divisionname": "Kanpur Moffusil",
    "regionname": "Kanpur",
    "circlename": "Uttar Pradesh",
    "Taluk": "Unnao",
    "Districtname": "Unnao",
    "statename": "UTTAR PRADESH"
  },
  {
    "pincode": "209870",
    "officename": "Saray Malkaadim B.O",
    "officeType": "B.O",
    "Deliverystatus": "Delivery",
    "divisionname": "Kanpur Moffusil",
    "regionname": "Kanpur",
    "circlename": "Uttar Pradesh",
    "Taluk": "Unnao",
    "Districtname": "Unnao",
    "statename": "UTTAR PRADESH"
  },
  {
    "pincode": "209870",
    "officename": "Sorauli Khanpur B.O",
    "officeType": "B.O",
    "Deliverystatus": "Delivery",
    "divisionname": "Kanpur Moffusil",
    "regionname": "Kanpur",
    "circlename": "Uttar Pradesh",
    "Taluk": "Unnao",
    "Districtname": "Unnao",
    "statename": "UTTAR PRADESH"
  },
  {
    "pincode": "209870",
    "officename": "Tiyar B.O",
    "officeType": "B.O",
    "Deliverystatus": "Delivery",
    "divisionname": "Kanpur Moffusil",
    "regionname": "Kanpur",
    "circlename": "Uttar Pradesh",
    "Taluk": "Unnao",
    "Districtname": "Unnao",
    "statename": "UTTAR PRADESH"
  },
  {
    "pincode": "209870",
    "officename": "Udshah B.O",
    "officeType": "B.O",
    "Deliverystatus": "Delivery",
    "divisionname": "Kanpur Moffusil",
    "regionname": "Kanpur",
    "circlename": "Uttar Pradesh",
    "Taluk": "Unnao",
    "Districtname": "Unnao",
    "statename": "UTTAR PRADESH"
  }
]
