[
  {
    "pincode": "209867",
    "officename": "Akbarpur B.O",
    "officeType": "B.O",
    "Deliverystatus": "Delivery",
    "divisionname": "Kanpur Moffusil",
    "regionname": "Kanpur",
    "circlename": "Uttar Pradesh",
    "Taluk": "Unnao",
    "Districtname": "Unnao",
    "statename": "UTTAR PRADESH"
  },
  {
    "pincode": "209867",
    "officename": "Akwabad B.O",
    "officeType": "B.O",
    "Deliverystatus": "Delivery",
    "divisionname": "Kanpur Moffusil",
    "regionname": "Kanpur",
    "circlename": "Uttar Pradesh",
    "Taluk": "Unnao",
    "Districtname": "Unnao",
    "statename": "UTTAR PRADESH"
  },
  {
    "pincode": "209867",
    "officename": "Bardaha B.O",
    "officeType": "B.O",
    "Deliverystatus": "Delivery",
    "divisionname": "Kanpur Moffusil",
    "regionname": "Kanpur",
    "circlename": "Uttar Pradesh",
    "Taluk": "Unnao",
    "Districtname": "Unnao",
    "statename": "UTTAR PRADESH"
  },
  {
    "pincode": "209867",
    "officename": "Dhani Khera B.O",
    "officeType": "B.O",
    "Deliverystatus": "Delivery",
    "divisionname": "Kanpur Moffusil",
    "regionname": "Kanpur",
    "circlename": "Uttar Pradesh",
    "Taluk": "Unnao",
    "Districtname": "Unnao",
    "statename": "UTTAR PRADESH"
  },
  {
    "pincode": "209867",
    "officename": "Indemau B.O",
    "officeType": "B.O",
    "Deliverystatus": "Delivery",
    "divisionname": "Kanpur Moffusil",
    "regionname": "Kanpur",
    "circlename": "Uttar Pradesh",
    "Taluk": "Unnao",
    "Districtname": "Unnao",
    "statename": "UTTAR PRADESH"
  },
  {
    "pincode": "209867",
    "officename": "Majhgawan Sevak B.O",
    "officeType": "B.O",
    "Deliverystatus": "Delivery",
    "divisionname": "Kanpur Moffusil",
    "regionname": "Kanpur",
    "circlename": "Uttar Pradesh",
    "Taluk": "Unnao",
    "Districtname": "Unnao",
    "statename": "UTTAR PRADESH"
  },
  {
    "pincode": "209867",
    "officename": "Panhan B.O",
    "officeType": "B.O",
    "Deliverystatus": "Delivery",
    "divisionname": "Kanpur Moffusil",
    "regionname": "Kanpur",
    "circlename": "Uttar Pradesh",
    "Taluk": "Unnao",
    "Districtname": "Unnao",
    "statename": "UTTAR PRADESH"
  },
  {
    "pincode": "209867",
    "officename": "Parsanda B.O",
    "officeType": "B.O",
    "Deliverystatus": "Delivery",
    "divisionname": "Kanpur Moffusil",
    "regionname": "Kanpur",
    "circlename": "Uttar Pradesh",
    "Taluk": "Unnao",
    "Districtname": "Unnao",
    "statename": "UTTAR PRADESH"
  },
  {
    "pincode": "209867",
    "officename": "Patan S.O (Unnao)",
    "officeType": "S.O",
    "Deliverystatus": "Delivery",
    "divisionname": "Kanpur Moffusil",
    "regionname": "Kanpur",
    "circlename": "Uttar Pradesh",
    "Taluk": "Unnao",
    "Districtname": "Unnao",
    "statename": "UTTAR PRADESH"
  },
  {
    "pincode": "209867",
    "officename": "Shukla Khera B.O",
    "officeType": "B.O",
    "Deliverystatus": "Delivery",
    "divisionname": "Kanpur Moffusil",
    "regionname": "Kanpur",
    "circlename": "Uttar Pradesh",
    "Taluk": "Unnao",
    "Districtname": "Unnao",
    "statename": "UTTAR PRADESH"
  },
  {
    "pincode": "209867",
    "officename": "Sijni B.O",
    "officeType": "B.O",
    "Deliverystatus": "Delivery",
    "divisionname": "Kanpur Moffusil",
    "regionname": "Kanpur",
    "circlename": "Uttar Pradesh",
    "Taluk": "Unnao",
    "Districtname": "Unnao",
    "statename": "UTTAR PRADESH"
  },
  {
    "pincode": "209867",
    "officename": "Vazidpur B.O",
    "officeType": "B.O",
    "Deliverystatus": "Delivery",
    "divisionname": "Kanpur Moffusil",
    "regionname": "Kanpur",
    "circlename": "Uttar Pradesh",
    "Taluk": "Unnao",
    "Districtname": "Unnao",
    "statename": "UTTAR PRADESH"
  }
]
