[
  {
    "pincode": "209859",
    "officename": "Arjunamau B.O",
    "officeType": "B.O",
    "Deliverystatus": "Delivery",
    "divisionname": "Kanpur Moffusil",
    "regionname": "Kanpur",
    "circlename": "Uttar Pradesh",
    "Taluk": "Unnao",
    "Districtname": "Unnao",
    "statename": "UTTAR PRADESH"
  },
  {
    "pincode": "209859",
    "officename": "Asawar B.O",
    "officeType": "B.O",
    "Deliverystatus": "Delivery",
    "divisionname": "Kanpur Moffusil",
    "regionname": "Kanpur",
    "circlename": "Uttar Pradesh",
    "Taluk": "Uunao",
    "Districtname": "Unnao",
    "statename": "UTTAR PRADESH"
  },
  {
    "pincode": "209859",
    "officename": "Asha Khera B.O",
    "officeType": "B.O",
    "Deliverystatus": "Delivery",
    "divisionname": "Kanpur Moffusil",
    "regionname": "Kanpur",
    "circlename": "Uttar Pradesh",
    "Taluk": "Unnao",
    "Districtname": "Unnao",
    "statename": "UTTAR PRADESH"
  },
  {
    "pincode": "209859",
    "officename": "Asoha B.O",
    "officeType": "B.O",
    "Deliverystatus": "Delivery",
    "divisionname": "Kanpur Moffusil",
    "regionname": "Kanpur",
    "circlename": "Uttar Pradesh",
    "Taluk": "Unnao",
    "Districtname": "Unnao",
    "statename": "UTTAR PRADESH"
  },
  {
    "pincode": "209859",
    "officename": "Chauper B.O",
    "officeType": "B.O",
    "Deliverystatus": "Delivery",
    "divisionname": "Kanpur Moffusil",
    "regionname": "Kanpur",
    "circlename": "Uttar Pradesh",
    "Taluk": "Unnao",
    "Districtname": "Unnao",
    "statename": "UTTAR PRADESH"
  },
  {
    "pincode": "209859",
    "officename": "Darehata B.O",
    "officeType": "B.O",
    "Deliverystatus": "Delivery",
    "divisionname": "Kanpur Moffusil",
    "regionname": "Kanpur",
    "circlename": "Uttar Pradesh",
    "Taluk": "Unnao",
    "Districtname": "Unnao",
    "statename": "UTTAR PRADESH"
  },
  {
    "pincode": "209859",
    "officename": "Kantha B.O",
    "officeType": "B.O",
    "Deliverystatus": "Delivery",
    "divisionname": "Kanpur Moffusil",
    "regionname": "Kanpur",
    "circlename": "Uttar Pradesh",
    "Taluk": "Unnao",
    "Districtname": "Unnao",
    "statename": "UTTAR PRADESH"
  },
  {
    "pincode": "209859",
    "officename": "Katehru B.O",
    "officeType": "B.O",
    "Deliverystatus": "Delivery",
    "divisionname": "Kanpur Moffusil",
    "regionname": "Kanpur",
    "circlename": "Uttar Pradesh",
    "Taluk": "Unnao",
    "Districtname": "Unnao",
    "statename": "UTTAR PRADESH"
  },
  {
    "pincode": "209859",
    "officename": "Kusumbhi B.O",
    "officeType": "B.O",
    "Deliverystatus": "Delivery",
    "divisionname": "Kanpur Moffusil",
    "regionname": "Kanpur",
    "circlename": "Uttar Pradesh",
    "Taluk": "Unnao",
    "Districtname": "Unnao",
    "statename": "UTTAR PRADESH"
  },
  {
    "pincode": "209859",
    "officename": "Mirrikalan B.O",
    "officeType": "B.O",
    "Deliverystatus": "Delivery",
    "divisionname": "Kanpur Moffusil",
    "regionname": "Kanpur",
    "circlename": "Uttar Pradesh",
    "Taluk": "Unnao",
    "Districtname": "Unnao",
    "statename": "UTTAR PRADESH"
  },
  {
    "pincode": "209859",
    "officename": "Nawabganj S.O (Unnao)",
    "officeType": "S.O",
    "Deliverystatus": "Delivery",
    "divisionname": "Kanpur Moffusil",
    "regionname": "Kanpur",
    "circlename": "Uttar Pradesh",
    "Taluk": "Unnao",
    "Districtname": "Unnao",
    "statename": "UTTAR PRADESH"
  },
  {
    "pincode": "209859",
    "officename": "Sahrawa B.O",
    "officeType": "B.O",
    "Deliverystatus": "Delivery",
    "divisionname": "Kanpur Moffusil",
    "regionname": "Kanpur",
    "circlename": "Uttar Pradesh",
    "Taluk": "Unnao",
    "Districtname": "Unnao",
    "statename": "UTTAR PRADESH"
  },
  {
    "pincode": "209859",
    "officename": "Sohramau B.O",
    "officeType": "B.O",
    "Deliverystatus": "Delivery",
    "divisionname": "Kanpur Moffusil",
    "regionname": "Kanpur",
    "circlename": "Uttar Pradesh",
    "Taluk": "Unnao",
    "Districtname": "Unnao",
    "statename": "UTTAR PRADESH"
  }
]
