[
  {
    "pincode": "210120",
    "officename": "Arjunah B.O",
    "officeType": "B.O",
    "Deliverystatus": "Delivery",
    "divisionname": "Banda",
    "regionname": "Kanpur",
    "circlename": "Uttar Pradesh",
    "Taluk": "Banda",
    "Districtname": "Banda",
    "statename": "UTTAR PRADESH"
  },
  {
    "pincode": "210120",
    "officename": "Ghauraunda B.O",
    "officeType": "B.O",
    "Deliverystatus": "Delivery",
    "divisionname": "Banda",
    "regionname": "Kanpur",
    "circlename": "Uttar Pradesh",
    "Taluk": "Banda",
    "Districtname": "Banda",
    "statename": "UTTAR PRADESH"
  },
  {
    "pincode": "210120",
    "officename": "Hastam B.O",
    "officeType": "B.O",
    "Deliverystatus": "Delivery",
    "divisionname": "Banda",
    "regionname": "Kanpur",
    "circlename": "Uttar Pradesh",
    "Taluk": "Banda",
    "Districtname": "Banda",
    "statename": "UTTAR PRADESH"
  },
  {
    "pincode": "210120",
    "officename": "Katrawal B.O",
    "officeType": "B.O",
    "Deliverystatus": "Delivery",
    "divisionname": "Banda",
    "regionname": "Kanpur",
    "circlename": "Uttar Pradesh",
    "Taluk": "Banda",
    "Districtname": "Banda",
    "statename": "UTTAR PRADESH"
  },
  {
    "pincode": "210120",
    "officename": "Khurand R.S. S.O",
    "officeType": "S.O",
    "Deliverystatus": "Delivery",
    "divisionname": "Banda",
    "regionname": "Kanpur",
    "circlename": "Uttar Pradesh",
    "Taluk": "Banda",
    "Districtname": "Banda",
    "statename": "UTTAR PRADESH"
  },
  {
    "pincode": "210120",
    "officename": "Khurhand B.O",
    "officeType": "B.O",
    "Deliverystatus": "Delivery",
    "divisionname": "Banda",
    "regionname": "Kanpur",
    "circlename": "Uttar Pradesh",
    "Taluk": "Banda",
    "Districtname": "Banda",
    "statename": "UTTAR PRADESH"
  },
  {
    "pincode": "210120",
    "officename": "Mahua B.O",
    "officeType": "B.O",
    "Deliverystatus": "Delivery",
    "divisionname": "Banda",
    "regionname": "Kanpur",
    "circlename": "Uttar Pradesh",
    "Taluk": "Banda",
    "Districtname": "Banda",
    "statename": "UTTAR PRADESH"
  },
  {
    "pincode": "210120",
    "officename": "Makri B.O",
    "officeType": "B.O",
    "Deliverystatus": "Delivery",
    "divisionname": "Banda",
    "regionname": "Kanpur",
    "circlename": "Uttar Pradesh",
    "Taluk": "Banda",
    "Districtname": "Banda",
    "statename": "UTTAR PRADESH"
  },
  {
    "pincode": "210120",
    "officename": "Malehra Newada B.O",
    "officeType": "B.O",
    "Deliverystatus": "Delivery",
    "divisionname": "Banda",
    "regionname": "Kanpur",
    "circlename": "Uttar Pradesh",
    "Taluk": "Banda",
    "Districtname": "Banda",
    "statename": "UTTAR PRADESH"
  },
  {
    "pincode": "210120",
    "officename": "Nagnedi B.O",
    "officeType": "B.O",
    "Deliverystatus": "Delivery",
    "divisionname": "Banda",
    "regionname": "Kanpur",
    "circlename": "Uttar Pradesh",
    "Taluk": "Banda",
    "Districtname": "Banda",
    "statename": "UTTAR PRADESH"
  },
  {
    "pincode": "210120",
    "officename": "Sahewa B.O",
    "officeType": "B.O",
    "Deliverystatus": "Delivery",
    "divisionname": "Banda",
    "regionname": "Kanpur",
    "circlename": "Uttar Pradesh",
    "Taluk": "Banda",
    "Districtname": "Banda",
    "statename": "UTTAR PRADESH"
  },
  {
    "pincode": "210120",
    "officename": "Saunta Syondha B.O",
    "officeType": "B.O",
    "Deliverystatus": "Delivery",
    "divisionname": "Banda",
    "regionname": "Kanpur",
    "circlename": "Uttar Pradesh",
    "Taluk": "Banda",
    "Districtname": "Banda",
    "statename": "UTTAR PRADESH"
  }
]
