[
  {
    "pincode": "210123",
    "officename": "Bichhwahi B.O",
    "officeType": "B.O",
    "Deliverystatus": "Delivery",
    "divisionname": "Banda",
    "regionname": "Kanpur",
    "circlename": "Uttar Pradesh",
    "Taluk": "Banda",
    "Districtname": "Banda",
    "statename": "UTTAR PRADESH"
  },
  {
    "pincode": "210123",
    "officename": "Chillatara S.O",
    "officeType": "S.O",
    "Deliverystatus": "Delivery",
    "divisionname": "Banda",
    "regionname": "Kanpur",
    "circlename": "Uttar Pradesh",
    "Taluk": "Banda",
    "Districtname": "Banda",
    "statename": "UTTAR PRADESH"
  },
  {
    "pincode": "210123",
    "officename": "Dighwat B.O",
    "officeType": "B.O",
    "Deliverystatus": "Delivery",
    "divisionname": "Banda",
    "regionname": "Kanpur",
    "circlename": "Uttar Pradesh",
    "Taluk": "Banda",
    "Districtname": "Banda",
    "statename": "UTTAR PRADESH"
  },
  {
    "pincode": "210123",
    "officename": "Gugauli B.O",
    "officeType": "B.O",
    "Deliverystatus": "Delivery",
    "divisionname": "Banda",
    "regionname": "Kanpur",
    "circlename": "Uttar Pradesh",
    "Taluk": "Banda",
    "Districtname": "Banda",
    "statename": "UTTAR PRADESH"
  },
  {
    "pincode": "210123",
    "officename": "Jauharpur B.O",
    "officeType": "B.O",
    "Deliverystatus": "Delivery",
    "divisionname": "Banda",
    "regionname": "Kanpur",
    "circlename": "Uttar Pradesh",
    "Taluk": "Banda",
    "Districtname": "Banda",
    "statename": "UTTAR PRADESH"
  },
  {
    "pincode": "210123",
    "officename": "Padarathpur B.O",
    "officeType": "B.O",
    "Deliverystatus": "Delivery",
    "divisionname": "Banda",
    "regionname": "Kanpur",
    "circlename": "Uttar Pradesh",
    "Taluk": "Banda",
    "Districtname": "Banda",
    "statename": "UTTAR PRADESH"
  },
  {
    "pincode": "210123",
    "officename": "Palra B.O",
    "officeType": "B.O",
    "Deliverystatus": "Delivery",
    "divisionname": "Banda",
    "regionname": "Kanpur",
    "circlename": "Uttar Pradesh",
    "Taluk": "Banda",
    "Districtname": "Banda",
    "statename": "UTTAR PRADESH"
  },
  {
    "pincode": "210123",
    "officename": "Piprahari B.O",
    "officeType": "B.O",
    "Deliverystatus": "Delivery",
    "divisionname": "Banda",
    "regionname": "Kanpur",
    "circlename": "Uttar Pradesh",
    "Taluk": "Banda",
    "Districtname": "Banda",
    "statename": "UTTAR PRADESH"
  },
  {
    "pincode": "210123",
    "officename": "Sadimadanpur B.O",
    "officeType": "B.O",
    "Deliverystatus": "Delivery",
    "divisionname": "Banda",
    "regionname": "Kanpur",
    "circlename": "Uttar Pradesh",
    "Taluk": "Banda",
    "Districtname": "Banda",
    "statename": "UTTAR PRADESH"
  }
]
