[
  {
    "pincode": "210125",
    "officename": "Armar B.O",
    "officeType": "B.O",
    "Deliverystatus": "Delivery",
    "divisionname": "Banda",
    "regionname": "Kanpur",
    "circlename": "Uttar Pradesh",
    "Taluk": "Banda",
    "Districtname": "Banda",
    "statename": "UTTAR PRADESH"
  },
  {
    "pincode": "210125",
    "officename": "Audaha B.O",
    "officeType": "B.O",
    "Deliverystatus": "Delivery",
    "divisionname": "Banda",
    "regionname": "Kanpur",
    "circlename": "Uttar Pradesh",
    "Taluk": "Banda",
    "Districtname": "Banda",
    "statename": "UTTAR PRADESH"
  },
  {
    "pincode": "210125",
    "officename": "Bachhaunha B.O",
    "officeType": "B.O",
    "Deliverystatus": "Delivery",
    "divisionname": "Banda",
    "regionname": "Kanpur",
    "circlename": "Uttar Pradesh",
    "Taluk": "Banda",
    "Districtname": "Banda",
    "statename": "UTTAR PRADESH"
  },
  {
    "pincode": "210125",
    "officename": "Banthari B.O",
    "officeType": "B.O",
    "Deliverystatus": "Delivery",
    "divisionname": "Banda",
    "regionname": "Kanpur",
    "circlename": "Uttar Pradesh",
    "Taluk": "Banda",
    "Districtname": "Banda",
    "statename": "UTTAR PRADESH"
  },
  {
    "pincode": "210125",
    "officename": "Berraon B.O",
    "officeType": "B.O",
    "Deliverystatus": "Delivery",
    "divisionname": "Banda",
    "regionname": "Kanpur",
    "circlename": "Uttar Pradesh",
    "Taluk": "Banda",
    "Districtname": "Banda",
    "statename": "UTTAR PRADESH"
  },
  {
    "pincode": "210125",
    "officename": "Bira B.O",
    "officeType": "B.O",
    "Deliverystatus": "Delivery",
    "divisionname": "Banda",
    "regionname": "Kanpur",
    "circlename": "Uttar Pradesh",
    "Taluk": "Banda",
    "Districtname": "Banda",
    "statename": "UTTAR PRADESH"
  },
  {
    "pincode": "210125",
    "officename": "Budhauli B.O",
    "officeType": "B.O",
    "Deliverystatus": "Delivery",
    "divisionname": "Banda",
    "regionname": "Kanpur",
    "circlename": "Uttar Pradesh",
    "Taluk": "Banda",
    "Districtname": "Banda",
    "statename": "UTTAR PRADESH"
  },
  {
    "pincode": "210125",
    "officename": "Charka B.O",
    "officeType": "B.O",
    "Deliverystatus": "Delivery",
    "divisionname": "Banda",
    "regionname": "Kanpur",
    "circlename": "Uttar Pradesh",
    "Taluk": "Banda",
    "Districtname": "Banda",
    "statename": "UTTAR PRADESH"
  },
  {
    "pincode": "210125",
    "officename": "Ingua B.O",
    "officeType": "B.O",
    "Deliverystatus": "Delivery",
    "divisionname": "Banda",
    "regionname": "Kanpur",
    "circlename": "Uttar Pradesh",
    "Taluk": "Banda",
    "Districtname": "Banda",
    "statename": "UTTAR PRADESH"
  },
  {
    "pincode": "210125",
    "officename": "Kamasin S.O",
    "officeType": "S.O",
    "Deliverystatus": "Delivery",
    "divisionname": "Banda",
    "regionname": "Kanpur",
    "circlename": "Uttar Pradesh",
    "Taluk": "Banda",
    "Districtname": "Banda",
    "statename": "UTTAR PRADESH"
  },
  {
    "pincode": "210125",
    "officename": "Kharauli B.O",
    "officeType": "B.O",
    "Deliverystatus": "Delivery",
    "divisionname": "Banda",
    "regionname": "Kanpur",
    "circlename": "Uttar Pradesh",
    "Taluk": "Banda",
    "Districtname": "Banda",
    "statename": "UTTAR PRADESH"
  },
  {
    "pincode": "210125",
    "officename": "Lakhanpur B.O",
    "officeType": "B.O",
    "Deliverystatus": "Delivery",
    "divisionname": "Banda",
    "regionname": "Kanpur",
    "circlename": "Uttar Pradesh",
    "Taluk": "Banda",
    "Districtname": "Banda",
    "statename": "UTTAR PRADESH"
  },
  {
    "pincode": "210125",
    "officename": "Lohra B.O",
    "officeType": "B.O",
    "Deliverystatus": "Delivery",
    "divisionname": "Banda",
    "regionname": "Kanpur",
    "circlename": "Uttar Pradesh",
    "Taluk": "Banda",
    "Districtname": "Banda",
    "statename": "UTTAR PRADESH"
  },
  {
    "pincode": "210125",
    "officename": "Mamsi Khurd B.O",
    "officeType": "B.O",
    "Deliverystatus": "Delivery",
    "divisionname": "Banda",
    "regionname": "Kanpur",
    "circlename": "Uttar Pradesh",
    "Taluk": "Banda",
    "Districtname": "Banda",
    "statename": "UTTAR PRADESH"
  },
  {
    "pincode": "210125",
    "officename": "Marka B.O",
    "officeType": "B.O",
    "Deliverystatus": "Delivery",
    "divisionname": "Banda",
    "regionname": "Kanpur",
    "circlename": "Uttar Pradesh",
    "Taluk": "Banda",
    "Districtname": "Banda",
    "statename": "UTTAR PRADESH"
  },
  {
    "pincode": "210125",
    "officename": "Mau B.O",
    "officeType": "B.O",
    "Deliverystatus": "Delivery",
    "divisionname": "Banda",
    "regionname": "Kanpur",
    "circlename": "Uttar Pradesh",
    "Taluk": "Banda",
    "Districtname": "Banda",
    "statename": "UTTAR PRADESH"
  },
  {
    "pincode": "210125",
    "officename": "Museewan B.O",
    "officeType": "B.O",
    "Deliverystatus": "Delivery",
    "divisionname": "Banda",
    "regionname": "Kanpur",
    "circlename": "Uttar Pradesh",
    "Taluk": "Banda",
    "Districtname": "Banda",
    "statename": "UTTAR PRADESH"
  },
  {
    "pincode": "210125",
    "officename": "Narayanpur B.O",
    "officeType": "B.O",
    "Deliverystatus": "Delivery",
    "divisionname": "Banda",
    "regionname": "Kanpur",
    "circlename": "Uttar Pradesh",
    "Taluk": "Banda",
    "Districtname": "Banda",
    "statename": "UTTAR PRADESH"
  },
  {
    "pincode": "210125",
    "officename": "Pachhauhan B.O",
    "officeType": "B.O",
    "Deliverystatus": "Delivery",
    "divisionname": "Banda",
    "regionname": "Kanpur",
    "circlename": "Uttar Pradesh",
    "Taluk": "Banda",
    "Districtname": "Banda",
    "statename": "UTTAR PRADESH"
  },
  {
    "pincode": "210125",
    "officename": "Pannah B.O",
    "officeType": "B.O",
    "Deliverystatus": "Delivery",
    "divisionname": "Banda",
    "regionname": "Kanpur",
    "circlename": "Uttar Pradesh",
    "Taluk": "Banda",
    "Districtname": "Banda",
    "statename": "UTTAR PRADESH"
  },
  {
    "pincode": "210125",
    "officename": "Parsauli B.O",
    "officeType": "B.O",
    "Deliverystatus": "Delivery",
    "divisionname": "Banda",
    "regionname": "Kanpur",
    "circlename": "Uttar Pradesh",
    "Taluk": "Banda",
    "Districtname": "Banda",
    "statename": "UTTAR PRADESH"
  },
  {
    "pincode": "210125",
    "officename": "Sandasani B.O",
    "officeType": "B.O",
    "Deliverystatus": "Delivery",
    "divisionname": "Banda",
    "regionname": "Kanpur",
    "circlename": "Uttar Pradesh",
    "Taluk": "Banda",
    "Districtname": "Banda",
    "statename": "UTTAR PRADESH"
  },
  {
    "pincode": "210125",
    "officename": "Satnyaon B.O",
    "officeType": "B.O",
    "Deliverystatus": "Delivery",
    "divisionname": "Banda",
    "regionname": "Kanpur",
    "circlename": "Uttar Pradesh",
    "Taluk": "Banda",
    "Districtname": "Banda",
    "statename": "UTTAR PRADESH"
  },
  {
    "pincode": "210125",
    "officename": "Tilausa B.O",
    "officeType": "B.O",
    "Deliverystatus": "Delivery",
    "divisionname": "Banda",
    "regionname": "Kanpur",
    "circlename": "Uttar Pradesh",
    "Taluk": "Banda",
    "Districtname": "Banda",
    "statename": "UTTAR PRADESH"
  }
]
