[
  {
    "pincode": "210209",
    "officename": "Barha Kotra B.O",
    "officeType": "B.O",
    "Deliverystatus": "Delivery",
    "divisionname": "Banda",
    "regionname": "Kanpur",
    "circlename": "Uttar Pradesh",
    "Taluk": "Banda",
    "Districtname": "Chitrakoot",
    "statename": "UTTAR PRADESH"
  },
  {
    "pincode": "210209",
    "officename": "Baria B.O",
    "officeType": "B.O",
    "Deliverystatus": "Delivery",
    "divisionname": "Banda",
    "regionname": "Kanpur",
    "circlename": "Uttar Pradesh",
    "Taluk": "Banda",
    "Districtname": "Chitrakoot",
    "statename": "UTTAR PRADESH"
  },
  {
    "pincode": "210209",
    "officename": "Barua B.O",
    "officeType": "B.O",
    "Deliverystatus": "Delivery",
    "divisionname": "Banda",
    "regionname": "Kanpur",
    "circlename": "Uttar Pradesh",
    "Taluk": "Banda",
    "Districtname": "Chitrakoot",
    "statename": "UTTAR PRADESH"
  },
  {
    "pincode": "210209",
    "officename": "Biyawal B.O",
    "officeType": "B.O",
    "Deliverystatus": "Delivery",
    "divisionname": "Banda",
    "regionname": "Kanpur",
    "circlename": "Uttar Pradesh",
    "Taluk": "Banda",
    "Districtname": "Chitrakoot",
    "statename": "UTTAR PRADESH"
  },
  {
    "pincode": "210209",
    "officename": "Chhibon B.O",
    "officeType": "B.O",
    "Deliverystatus": "Delivery",
    "divisionname": "Banda",
    "regionname": "Kanpur",
    "circlename": "Uttar Pradesh",
    "Taluk": "Banda",
    "Districtname": "Chitrakoot",
    "statename": "UTTAR PRADESH"
  },
  {
    "pincode": "210209",
    "officename": "Hanna Vinaika B.O",
    "officeType": "B.O",
    "Deliverystatus": "Delivery",
    "divisionname": "Banda",
    "regionname": "Kanpur",
    "circlename": "Uttar Pradesh",
    "Taluk": "Banda",
    "Districtname": "Banda",
    "statename": "UTTAR PRADESH"
  },
  {
    "pincode": "210209",
    "officename": "Hatwa B.O",
    "officeType": "B.O",
    "Deliverystatus": "Delivery",
    "divisionname": "Banda",
    "regionname": "Kanpur",
    "circlename": "Uttar Pradesh",
    "Taluk": "Banda",
    "Districtname": "Chitrakoot",
    "statename": "UTTAR PRADESH"
  },
  {
    "pincode": "210209",
    "officename": "Khandeho B.O",
    "officeType": "B.O",
    "Deliverystatus": "Delivery",
    "divisionname": "Banda",
    "regionname": "Kanpur",
    "circlename": "Uttar Pradesh",
    "Taluk": "Banda",
    "Districtname": "Chitrakoot",
    "statename": "UTTAR PRADESH"
  },
  {
    "pincode": "210209",
    "officename": "Khaptiha B.O",
    "officeType": "B.O",
    "Deliverystatus": "Delivery",
    "divisionname": "Banda",
    "regionname": "Kanpur",
    "circlename": "Uttar Pradesh",
    "Taluk": "Banda",
    "Districtname": "Chitrakoot",
    "statename": "UTTAR PRADESH"
  },
  {
    "pincode": "210209",
    "officename": "Lauri B.O",
    "officeType": "B.O",
    "Deliverystatus": "Delivery",
    "divisionname": "Banda",
    "regionname": "Kanpur",
    "circlename": "Uttar Pradesh",
    "Taluk": "Banda",
    "Districtname": "Chitrakoot",
    "statename": "UTTAR PRADESH"
  },
  {
    "pincode": "210209",
    "officename": "Mandaur B.O",
    "officeType": "B.O",
    "Deliverystatus": "Delivery",
    "divisionname": "Banda",
    "regionname": "Kanpur",
    "circlename": "Uttar Pradesh",
    "Taluk": "Banda",
    "Districtname": "Chitrakoot",
    "statename": "UTTAR PRADESH"
  },
  {
    "pincode": "210209",
    "officename": "Mauchhibu S.O",
    "officeType": "S.O",
    "Deliverystatus": "Delivery",
    "divisionname": "Banda",
    "regionname": "Kanpur",
    "circlename": "Uttar Pradesh",
    "Taluk": "Banda",
    "Districtname": "Chitrakoot",
    "statename": "UTTAR PRADESH"
  },
  {
    "pincode": "210209",
    "officename": "Nibi B.O",
    "officeType": "B.O",
    "Deliverystatus": "Delivery",
    "divisionname": "Banda",
    "regionname": "Kanpur",
    "circlename": "Uttar Pradesh",
    "Taluk": "Banda",
    "Districtname": "Chitrakoot",
    "statename": "UTTAR PRADESH"
  },
  {
    "pincode": "210209",
    "officename": "Pardawan B.O",
    "officeType": "B.O",
    "Deliverystatus": "Delivery",
    "divisionname": "Banda",
    "regionname": "Kanpur",
    "circlename": "Uttar Pradesh",
    "Taluk": "Banda",
    "Districtname": "Chitrakoot",
    "statename": "UTTAR PRADESH"
  },
  {
    "pincode": "210209",
    "officename": "Purab Patai B.O",
    "officeType": "B.O",
    "Deliverystatus": "Delivery",
    "divisionname": "Banda",
    "regionname": "Kanpur",
    "circlename": "Uttar Pradesh",
    "Taluk": "Banda",
    "Districtname": "Chitrakoot",
    "statename": "UTTAR PRADESH"
  },
  {
    "pincode": "210209",
    "officename": "Ram Nagar B.O",
    "officeType": "B.O",
    "Deliverystatus": "Delivery",
    "divisionname": "Banda",
    "regionname": "Kanpur",
    "circlename": "Uttar Pradesh",
    "Taluk": "Banda",
    "Districtname": "Chitrakoot",
    "statename": "UTTAR PRADESH"
  },
  {
    "pincode": "210209",
    "officename": "Sirwawal B.O",
    "officeType": "B.O",
    "Deliverystatus": "Delivery",
    "divisionname": "Banda",
    "regionname": "Kanpur",
    "circlename": "Uttar Pradesh",
    "Taluk": "Banda",
    "Districtname": "Chitrakoot",
    "statename": "UTTAR PRADESH"
  }
]
