[
  {
    "pincode": "210301",
    "officename": "Hamirpur DB S.O",
    "officeType": "S.O",
    "Deliverystatus": "Non-Delivery",
    "divisionname": "Banda",
    "regionname": "Kanpur",
    "circlename": "Uttar Pradesh",
    "Taluk": "Hamirpur",
    "Districtname": "Hamirpur",
    "statename": "UTTAR PRADESH"
  },
  {
    "pincode": "210301",
    "officename": "Hamirpur H.O",
    "officeType": "H.O",
    "Deliverystatus": "Delivery",
    "divisionname": "Banda",
    "regionname": "Kanpur",
    "circlename": "Uttar Pradesh",
    "Taluk": "Hamirpur",
    "Districtname": "Hamirpur",
    "statename": "UTTAR PRADESH"
  },
  {
    "pincode": "210301",
    "officename": "Kalaulitir B.O",
    "officeType": "B.O",
    "Deliverystatus": "Delivery",
    "divisionname": "Banda",
    "regionname": "Kanpur",
    "circlename": "Uttar Pradesh",
    "Taluk": "",
    "Districtname": "Hamirpur",
    "statename": "UTTAR PRADESH"
  },
  {
    "pincode": "210301",
    "officename": "Kuchhechha B.O",
    "officeType": "B.O",
    "Deliverystatus": "Delivery",
    "divisionname": "Banda",
    "regionname": "Kanpur",
    "circlename": "Uttar Pradesh",
    "Taluk": "Hamirpur",
    "Districtname": "Hamirpur",
    "statename": "UTTAR PRADESH"
  },
  {
    "pincode": "210301",
    "officename": "Manjhoopur B.O",
    "officeType": "B.O",
    "Deliverystatus": "Delivery",
    "divisionname": "Banda",
    "regionname": "Kanpur",
    "circlename": "Uttar Pradesh",
    "Taluk": "Hamirpur",
    "Districtname": "Hamirpur",
    "statename": "UTTAR PRADESH"
  },
  {
    "pincode": "210301",
    "officename": "Pauthia Bujurg B.O",
    "officeType": "B.O",
    "Deliverystatus": "Delivery",
    "divisionname": "Banda",
    "regionname": "Kanpur",
    "circlename": "Uttar Pradesh",
    "Taluk": "",
    "Districtname": "Hamirpur",
    "statename": "UTTAR PRADESH"
  },
  {
    "pincode": "210301",
    "officename": "Tikrauli B.O",
    "officeType": "B.O",
    "Deliverystatus": "Delivery",
    "divisionname": "Banda",
    "regionname": "Kanpur",
    "circlename": "Uttar Pradesh",
    "Taluk": "Hamirpur",
    "Districtname": "Hamirpur",
    "statename": "UTTAR PRADESH"
  },
  {
    "pincode": "210301",
    "officename": "Ujnedi B.O",
    "officeType": "B.O",
    "Deliverystatus": "Delivery",
    "divisionname": "Banda",
    "regionname": "Kanpur",
    "circlename": "Uttar Pradesh",
    "Taluk": "Hamirpur",
    "Districtname": "Hamirpur",
    "statename": "UTTAR PRADESH"
  }
]
