[
  {
    "pincode": "210429",
    "officename": "Bahadurpur Kalan B.O",
    "officeType": "B.O",
    "Deliverystatus": "Delivery",
    "divisionname": "Banda",
    "regionname": "Kanpur",
    "circlename": "Uttar Pradesh",
    "Taluk": "Hamirpur",
    "Districtname": "Mahoba",
    "statename": "UTTAR PRADESH"
  },
  {
    "pincode": "210429",
    "officename": "Bendo B.O",
    "officeType": "B.O",
    "Deliverystatus": "Delivery",
    "divisionname": "Banda",
    "regionname": "Kanpur",
    "circlename": "Uttar Pradesh",
    "Taluk": "Hamirpur",
    "Districtname": "Mahoba",
    "statename": "UTTAR PRADESH"
  },
  {
    "pincode": "210429",
    "officename": "Bharwara B.O",
    "officeType": "B.O",
    "Deliverystatus": "Delivery",
    "divisionname": "Banda",
    "regionname": "Kanpur",
    "circlename": "Uttar Pradesh",
    "Taluk": "Hamirpur",
    "Districtname": "Mahoba",
    "statename": "UTTAR PRADESH"
  },
  {
    "pincode": "210429",
    "officename": "Bijaypur B.O",
    "officeType": "B.O",
    "Deliverystatus": "Delivery",
    "divisionname": "Banda",
    "regionname": "Kanpur",
    "circlename": "Uttar Pradesh",
    "Taluk": "Hamirpur",
    "Districtname": "Mahoba",
    "statename": "UTTAR PRADESH"
  },
  {
    "pincode": "210429",
    "officename": "Budero B.O",
    "officeType": "B.O",
    "Deliverystatus": "Delivery",
    "divisionname": "Banda",
    "regionname": "Kanpur",
    "circlename": "Uttar Pradesh",
    "Taluk": "Hamirpur",
    "Districtname": "Hamirpur",
    "statename": "UTTAR PRADESH"
  },
  {
    "pincode": "210429",
    "officename": "Dulara B.O",
    "officeType": "B.O",
    "Deliverystatus": "Delivery",
    "divisionname": "Banda",
    "regionname": "Kanpur",
    "circlename": "Uttar Pradesh",
    "Taluk": "Hamirpur",
    "Districtname": "Mahoba",
    "statename": "UTTAR PRADESH"
  },
  {
    "pincode": "210429",
    "officename": "Gaurahari B.O",
    "officeType": "B.O",
    "Deliverystatus": "Delivery",
    "divisionname": "Banda",
    "regionname": "Kanpur",
    "circlename": "Uttar Pradesh",
    "Taluk": "Hamirpur",
    "Districtname": "Mahoba",
    "statename": "UTTAR PRADESH"
  },
  {
    "pincode": "210429",
    "officename": "Kaithi B.O",
    "officeType": "B.O",
    "Deliverystatus": "Delivery",
    "divisionname": "Banda",
    "regionname": "Kanpur",
    "circlename": "Uttar Pradesh",
    "Taluk": "Hamirpur",
    "Districtname": "Mahoba",
    "statename": "UTTAR PRADESH"
  },
  {
    "pincode": "210429",
    "officename": "Kankuwan B.O",
    "officeType": "B.O",
    "Deliverystatus": "Delivery",
    "divisionname": "Banda",
    "regionname": "Kanpur",
    "circlename": "Uttar Pradesh",
    "Taluk": "Hamirpur",
    "Districtname": "Mahoba",
    "statename": "UTTAR PRADESH"
  },
  {
    "pincode": "210429",
    "officename": "Kashipur B.O",
    "officeType": "B.O",
    "Deliverystatus": "Delivery",
    "divisionname": "Banda",
    "regionname": "Kanpur",
    "circlename": "Uttar Pradesh",
    "Taluk": "Hamirpur",
    "Districtname": "Mahoba",
    "statename": "UTTAR PRADESH"
  },
  {
    "pincode": "210429",
    "officename": "Kilahua B.O",
    "officeType": "B.O",
    "Deliverystatus": "Delivery",
    "divisionname": "Banda",
    "regionname": "Kanpur",
    "circlename": "Uttar Pradesh",
    "Taluk": "Hamirpur",
    "Districtname": "Mahoba",
    "statename": "UTTAR PRADESH"
  },
  {
    "pincode": "210429",
    "officename": "Kohaniya B.O",
    "officeType": "B.O",
    "Deliverystatus": "Delivery",
    "divisionname": "Banda",
    "regionname": "Kanpur",
    "circlename": "Uttar Pradesh",
    "Taluk": "Hamirpur",
    "Districtname": "Mahoba",
    "statename": "UTTAR PRADESH"
  },
  {
    "pincode": "210429",
    "officename": "Mahua B.O",
    "officeType": "B.O",
    "Deliverystatus": "Delivery",
    "divisionname": "Banda",
    "regionname": "Kanpur",
    "circlename": "Uttar Pradesh",
    "Taluk": "Hamirpur",
    "Districtname": "Mahoba",
    "statename": "UTTAR PRADESH"
  },
  {
    "pincode": "210429",
    "officename": "Masoodpura B.O",
    "officeType": "B.O",
    "Deliverystatus": "Delivery",
    "divisionname": "Banda",
    "regionname": "Kanpur",
    "circlename": "Uttar Pradesh",
    "Taluk": "Hamirpur",
    "Districtname": "Mahoba",
    "statename": "UTTAR PRADESH"
  },
  {
    "pincode": "210429",
    "officename": "Paharia B.O",
    "officeType": "B.O",
    "Deliverystatus": "Delivery",
    "divisionname": "Banda",
    "regionname": "Kanpur",
    "circlename": "Uttar Pradesh",
    "Taluk": "Hamirpur",
    "Districtname": "Mahoba",
    "statename": "UTTAR PRADESH"
  },
  {
    "pincode": "210429",
    "officename": "Panwari S.O",
    "officeType": "S.O",
    "Deliverystatus": "Delivery",
    "divisionname": "Banda",
    "regionname": "Kanpur",
    "circlename": "Uttar Pradesh",
    "Taluk": "Hamirpur",
    "Districtname": "Mahoba",
    "statename": "UTTAR PRADESH"
  },
  {
    "pincode": "210429",
    "officename": "Roori Kalan B.O",
    "officeType": "B.O",
    "Deliverystatus": "Delivery",
    "divisionname": "Banda",
    "regionname": "Kanpur",
    "circlename": "Uttar Pradesh",
    "Taluk": "Hamirpur",
    "Districtname": "Mahoba",
    "statename": "UTTAR PRADESH"
  },
  {
    "pincode": "210429",
    "officename": "Syondhi B.O",
    "officeType": "B.O",
    "Deliverystatus": "Delivery",
    "divisionname": "Banda",
    "regionname": "Kanpur",
    "circlename": "Uttar Pradesh",
    "Taluk": "Hamirpur",
    "Districtname": "Mahoba",
    "statename": "UTTAR PRADESH"
  },
  {
    "pincode": "210429",
    "officename": "Teiya B.O",
    "officeType": "B.O",
    "Deliverystatus": "Delivery",
    "divisionname": "Banda",
    "regionname": "Kanpur",
    "circlename": "Uttar Pradesh",
    "Taluk": "Hamirpur",
    "Districtname": "Mahoba",
    "statename": "UTTAR PRADESH"
  },
  {
    "pincode": "210429",
    "officename": "Umari B.O",
    "officeType": "B.O",
    "Deliverystatus": "Delivery",
    "divisionname": "Banda",
    "regionname": "Kanpur",
    "circlename": "Uttar Pradesh",
    "Taluk": "Hamirpur",
    "Districtname": "Mahoba",
    "statename": "UTTAR PRADESH"
  }
]
