[
  {
    "pincode": "210424",
    "officename": "Bila Dakhin B.O",
    "officeType": "B.O",
    "Deliverystatus": "Delivery",
    "divisionname": "Banda",
    "regionname": "Kanpur",
    "circlename": "Uttar Pradesh",
    "Taluk": "Hamirpur",
    "Districtname": "Mahoba",
    "statename": "UTTAR PRADESH"
  },
  {
    "pincode": "210424",
    "officename": "Chhani Kalan B.O",
    "officeType": "B.O",
    "Deliverystatus": "Delivery",
    "divisionname": "Banda",
    "regionname": "Kanpur",
    "circlename": "Uttar Pradesh",
    "Taluk": "Hamirpur",
    "Districtname": "Mahoba",
    "statename": "UTTAR PRADESH"
  },
  {
    "pincode": "210424",
    "officename": "Dharaun B.O",
    "officeType": "B.O",
    "Deliverystatus": "Delivery",
    "divisionname": "Banda",
    "regionname": "Kanpur",
    "circlename": "Uttar Pradesh",
    "Taluk": "Hamirpur",
    "Districtname": "Mahoba",
    "statename": "UTTAR PRADESH"
  },
  {
    "pincode": "210424",
    "officename": "Ganj B.O",
    "officeType": "B.O",
    "Deliverystatus": "Delivery",
    "divisionname": "Banda",
    "regionname": "Kanpur",
    "circlename": "Uttar Pradesh",
    "Taluk": "Hamirpur",
    "Districtname": "Mahoba",
    "statename": "UTTAR PRADESH"
  },
  {
    "pincode": "210424",
    "officename": "Garha B.O",
    "officeType": "B.O",
    "Deliverystatus": "Delivery",
    "divisionname": "Banda",
    "regionname": "Kanpur",
    "circlename": "Uttar Pradesh",
    "Taluk": "Hamirpur",
    "Districtname": "Hamirpur",
    "statename": "UTTAR PRADESH"
  },
  {
    "pincode": "210424",
    "officename": "Kabrai S.O",
    "officeType": "S.O",
    "Deliverystatus": "Delivery",
    "divisionname": "Banda",
    "regionname": "Kanpur",
    "circlename": "Uttar Pradesh",
    "Taluk": "Hamirpur",
    "Districtname": "Mahoba",
    "statename": "UTTAR PRADESH"
  },
  {
    "pincode": "210424",
    "officename": "Khajuriha Pahra B.O",
    "officeType": "B.O",
    "Deliverystatus": "Delivery",
    "divisionname": "Banda",
    "regionname": "Kanpur",
    "circlename": "Uttar Pradesh",
    "Taluk": "Hamirpur",
    "Districtname": "Mahoba",
    "statename": "UTTAR PRADESH"
  },
  {
    "pincode": "210424",
    "officename": "Mahewa B.O",
    "officeType": "B.O",
    "Deliverystatus": "Delivery",
    "divisionname": "Banda",
    "regionname": "Kanpur",
    "circlename": "Uttar Pradesh",
    "Taluk": "Hamirpur",
    "Districtname": "Mahoba",
    "statename": "UTTAR PRADESH"
  },
  {
    "pincode": "210424",
    "officename": "Makarbai B.O",
    "officeType": "B.O",
    "Deliverystatus": "Delivery",
    "divisionname": "Banda",
    "regionname": "Kanpur",
    "circlename": "Uttar Pradesh",
    "Taluk": "Hamirpur",
    "Districtname": "Mahoba",
    "statename": "UTTAR PRADESH"
  },
  {
    "pincode": "210424",
    "officename": "Parsaha B.O",
    "officeType": "B.O",
    "Deliverystatus": "Delivery",
    "divisionname": "Banda",
    "regionname": "Kanpur",
    "circlename": "Uttar Pradesh",
    "Taluk": "Hamirpur",
    "Districtname": "Mahoba",
    "statename": "UTTAR PRADESH"
  },
  {
    "pincode": "210424",
    "officename": "Patha B.O",
    "officeType": "B.O",
    "Deliverystatus": "Delivery",
    "divisionname": "Banda",
    "regionname": "Kanpur",
    "circlename": "Uttar Pradesh",
    "Taluk": "Hamirpur",
    "Districtname": "Mahoba",
    "statename": "UTTAR PRADESH"
  },
  {
    "pincode": "210424",
    "officename": "Pewai Sunaicha B.O",
    "officeType": "B.O",
    "Deliverystatus": "Delivery",
    "divisionname": "Banda",
    "regionname": "Kanpur",
    "circlename": "Uttar Pradesh",
    "Taluk": "Hamirpur",
    "Districtname": "Mahoba",
    "statename": "UTTAR PRADESH"
  },
  {
    "pincode": "210424",
    "officename": "Rewai Sunaicha B.O",
    "officeType": "B.O",
    "Deliverystatus": "Delivery",
    "divisionname": "Banda",
    "regionname": "Kanpur",
    "circlename": "Uttar Pradesh",
    "Taluk": "Hamirpur",
    "Districtname": "Mahoba",
    "statename": "UTTAR PRADESH"
  },
  {
    "pincode": "210424",
    "officename": "Sheohar B.O",
    "officeType": "B.O",
    "Deliverystatus": "Delivery",
    "divisionname": "Banda",
    "regionname": "Kanpur",
    "circlename": "Uttar Pradesh",
    "Taluk": "Hamirpur",
    "Districtname": "Mahoba",
    "statename": "UTTAR PRADESH"
  },
  {
    "pincode": "210424",
    "officename": "Singhaupur Baghari B.O",
    "officeType": "B.O",
    "Deliverystatus": "Delivery",
    "divisionname": "Banda",
    "regionname": "Kanpur",
    "circlename": "Uttar Pradesh",
    "Taluk": "Hamirpur",
    "Districtname": "Mahoba",
    "statename": "UTTAR PRADESH"
  },
  {
    "pincode": "210424",
    "officename": "Sukaura B.O",
    "officeType": "B.O",
    "Deliverystatus": "Delivery",
    "divisionname": "Banda",
    "regionname": "Kanpur",
    "circlename": "Uttar Pradesh",
    "Taluk": "Hamirpur",
    "Districtname": "Hamirpur",
    "statename": "UTTAR PRADESH"
  }
]
