[
  {
    "pincode": "210507",
    "officename": "Artara B.O",
    "officeType": "B.O",
    "Deliverystatus": "Delivery",
    "divisionname": "Banda",
    "regionname": "Kanpur",
    "circlename": "Uttar Pradesh",
    "Taluk": "Hamirpur",
    "Districtname": "Hamirpur",
    "statename": "UTTAR PRADESH"
  },
  {
    "pincode": "210507",
    "officename": "Bhaismari B.O",
    "officeType": "B.O",
    "Deliverystatus": "Delivery",
    "divisionname": "Banda",
    "regionname": "Kanpur",
    "circlename": "Uttar Pradesh",
    "Taluk": "Hamirpur",
    "Districtname": "Hamirpur",
    "statename": "UTTAR PRADESH"
  },
  {
    "pincode": "210507",
    "officename": "Bhamai B.O",
    "officeType": "B.O",
    "Deliverystatus": "Delivery",
    "divisionname": "Banda",
    "regionname": "Kanpur",
    "circlename": "Uttar Pradesh",
    "Taluk": "Hamirpur",
    "Districtname": "Hamirpur",
    "statename": "UTTAR PRADESH"
  },
  {
    "pincode": "210507",
    "officename": "Bhulsi B.O",
    "officeType": "B.O",
    "Deliverystatus": "Delivery",
    "divisionname": "Banda",
    "regionname": "Kanpur",
    "circlename": "Uttar Pradesh",
    "Taluk": "Hamirpur",
    "Districtname": "Hamirpur",
    "statename": "UTTAR PRADESH"
  },
  {
    "pincode": "210507",
    "officename": "Bigahna B.O",
    "officeType": "B.O",
    "Deliverystatus": "Delivery",
    "divisionname": "Banda",
    "regionname": "Kanpur",
    "circlename": "Uttar Pradesh",
    "Taluk": "Hamirpur",
    "Districtname": "Hamirpur",
    "statename": "UTTAR PRADESH"
  },
  {
    "pincode": "210507",
    "officename": "Biharka B.O",
    "officeType": "B.O",
    "Deliverystatus": "Delivery",
    "divisionname": "Banda",
    "regionname": "Kanpur",
    "circlename": "Uttar Pradesh",
    "Taluk": "Hamirpur",
    "Districtname": "Hamirpur",
    "statename": "UTTAR PRADESH"
  },
  {
    "pincode": "210507",
    "officename": "Garha B.O",
    "officeType": "B.O",
    "Deliverystatus": "Delivery",
    "divisionname": "Banda",
    "regionname": "Kanpur",
    "circlename": "Uttar Pradesh",
    "Taluk": "Hamirpur",
    "Districtname": "Hamirpur",
    "statename": "UTTAR PRADESH"
  },
  {
    "pincode": "210507",
    "officename": "Gyondi B.O",
    "officeType": "B.O",
    "Deliverystatus": "Delivery",
    "divisionname": "Banda",
    "regionname": "Kanpur",
    "circlename": "Uttar Pradesh",
    "Taluk": "Hamirpur",
    "Districtname": "Mahoba",
    "statename": "UTTAR PRADESH"
  },
  {
    "pincode": "210507",
    "officename": "Ichauli B.O",
    "officeType": "B.O",
    "Deliverystatus": "Delivery",
    "divisionname": "Banda",
    "regionname": "Kanpur",
    "circlename": "Uttar Pradesh",
    "Taluk": "Hamirpur",
    "Districtname": "Hamirpur",
    "statename": "UTTAR PRADESH"
  },
  {
    "pincode": "210507",
    "officename": "Kaithi B.O",
    "officeType": "B.O",
    "Deliverystatus": "Delivery",
    "divisionname": "Banda",
    "regionname": "Kanpur",
    "circlename": "Uttar Pradesh",
    "Taluk": "Hamirpur",
    "Districtname": "Hamirpur",
    "statename": "UTTAR PRADESH"
  },
  {
    "pincode": "210507",
    "officename": "Kamharia B.O",
    "officeType": "B.O",
    "Deliverystatus": "Delivery",
    "divisionname": "Banda",
    "regionname": "Kanpur",
    "circlename": "Uttar Pradesh",
    "Taluk": "Hamirpur",
    "Districtname": "Hamirpur",
    "statename": "UTTAR PRADESH"
  },
  {
    "pincode": "210507",
    "officename": "Khandeh B.O",
    "officeType": "B.O",
    "Deliverystatus": "Delivery",
    "divisionname": "Banda",
    "regionname": "Kanpur",
    "circlename": "Uttar Pradesh",
    "Taluk": "Hamirpur",
    "Districtname": "Hamirpur",
    "statename": "UTTAR PRADESH"
  },
  {
    "pincode": "210507",
    "officename": "Kishwahi B.O",
    "officeType": "B.O",
    "Deliverystatus": "Delivery",
    "divisionname": "Banda",
    "regionname": "Kanpur",
    "circlename": "Uttar Pradesh",
    "Taluk": "Hamirpur",
    "Districtname": "Hamirpur",
    "statename": "UTTAR PRADESH"
  },
  {
    "pincode": "210507",
    "officename": "Kunetha B.O",
    "officeType": "B.O",
    "Deliverystatus": "Delivery",
    "divisionname": "Banda",
    "regionname": "Kanpur",
    "circlename": "Uttar Pradesh",
    "Taluk": "Hamirpur",
    "Districtname": "Hamirpur",
    "statename": "UTTAR PRADESH"
  },
  {
    "pincode": "210507",
    "officename": "Makraon B.O",
    "officeType": "B.O",
    "Deliverystatus": "Delivery",
    "divisionname": "Banda",
    "regionname": "Kanpur",
    "circlename": "Uttar Pradesh",
    "Taluk": "Hamirpur",
    "Districtname": "Hamirpur",
    "statename": "UTTAR PRADESH"
  },
  {
    "pincode": "210507",
    "officename": "Mehuna Mundera B.O",
    "officeType": "B.O",
    "Deliverystatus": "Delivery",
    "divisionname": "Banda",
    "regionname": "Kanpur",
    "circlename": "Uttar Pradesh",
    "Taluk": "Hamirpur",
    "Districtname": "Hamirpur",
    "statename": "UTTAR PRADESH"
  },
  {
    "pincode": "210507",
    "officename": "Naraich B.O",
    "officeType": "B.O",
    "Deliverystatus": "Delivery",
    "divisionname": "Banda",
    "regionname": "Kanpur",
    "circlename": "Uttar Pradesh",
    "Taluk": "Hamirpur",
    "Districtname": "Hamirpur",
    "statename": "UTTAR PRADESH"
  },
  {
    "pincode": "210507",
    "officename": "Padhori B.O",
    "officeType": "B.O",
    "Deliverystatus": "Delivery",
    "divisionname": "Banda",
    "regionname": "Kanpur",
    "circlename": "Uttar Pradesh",
    "Taluk": "Hamirpur",
    "Districtname": "Hamirpur",
    "statename": "UTTAR PRADESH"
  },
  {
    "pincode": "210507",
    "officename": "Parchhat B.O",
    "officeType": "B.O",
    "Deliverystatus": "Delivery",
    "divisionname": "Banda",
    "regionname": "Kanpur",
    "circlename": "Uttar Pradesh",
    "Taluk": "Hamirpur",
    "Districtname": "Hamirpur",
    "statename": "UTTAR PRADESH"
  },
  {
    "pincode": "210507",
    "officename": "Ragaul S.O",
    "officeType": "S.O",
    "Deliverystatus": "Delivery",
    "divisionname": "Banda",
    "regionname": "Kanpur",
    "circlename": "Uttar Pradesh",
    "Taluk": "Hamirpur",
    "Districtname": "Hamirpur",
    "statename": "UTTAR PRADESH"
  },
  {
    "pincode": "210507",
    "officename": "Ragaul Tahsil B.O",
    "officeType": "B.O",
    "Deliverystatus": "Delivery",
    "divisionname": "Banda",
    "regionname": "Kanpur",
    "circlename": "Uttar Pradesh",
    "Taluk": "Hamirpur",
    "Districtname": "Hamirpur",
    "statename": "UTTAR PRADESH"
  },
  {
    "pincode": "210507",
    "officename": "Sisolar B.O",
    "officeType": "B.O",
    "Deliverystatus": "Delivery",
    "divisionname": "Banda",
    "regionname": "Kanpur",
    "circlename": "Uttar Pradesh",
    "Taluk": "Hamirpur",
    "Districtname": "Hamirpur",
    "statename": "UTTAR PRADESH"
  },
  {
    "pincode": "210507",
    "officename": "Urdana B.O",
    "officeType": "B.O",
    "Deliverystatus": "Delivery",
    "divisionname": "Banda",
    "regionname": "Kanpur",
    "circlename": "Uttar Pradesh",
    "Taluk": "Hamirpur",
    "Districtname": "Hamirpur",
    "statename": "UTTAR PRADESH"
  }
]
