[
  {
    "pincode": "210504",
    "officename": "Chhirka B.O",
    "officeType": "B.O",
    "Deliverystatus": "Delivery",
    "divisionname": "Banda",
    "regionname": "Kanpur",
    "circlename": "Uttar Pradesh",
    "Taluk": "Hamirpur",
    "Districtname": "Hamirpur",
    "statename": "UTTAR PRADESH"
  },
  {
    "pincode": "210504",
    "officename": "Chichara B.O",
    "officeType": "B.O",
    "Deliverystatus": "Delivery",
    "divisionname": "Banda",
    "regionname": "Kanpur",
    "circlename": "Uttar Pradesh",
    "Taluk": "",
    "Districtname": "Hamirpur",
    "statename": "UTTAR PRADESH"
  },
  {
    "pincode": "210504",
    "officename": "Gusiyari B.O",
    "officeType": "B.O",
    "Deliverystatus": "Delivery",
    "divisionname": "Banda",
    "regionname": "Kanpur",
    "circlename": "Uttar Pradesh",
    "Taluk": "",
    "Districtname": "Hamirpur",
    "statename": "UTTAR PRADESH"
  },
  {
    "pincode": "210504",
    "officename": "Kahra B.O",
    "officeType": "B.O",
    "Deliverystatus": "Delivery",
    "divisionname": "Banda",
    "regionname": "Kanpur",
    "circlename": "Uttar Pradesh",
    "Taluk": "",
    "Districtname": "Hamirpur",
    "statename": "UTTAR PRADESH"
  },
  {
    "pincode": "210504",
    "officename": "Karahiya B.O",
    "officeType": "B.O",
    "Deliverystatus": "Delivery",
    "divisionname": "Banda",
    "regionname": "Kanpur",
    "circlename": "Uttar Pradesh",
    "Taluk": "",
    "Districtname": "Hamirpur",
    "statename": "UTTAR PRADESH"
  },
  {
    "pincode": "210504",
    "officename": "Khanna S.O",
    "officeType": "S.O",
    "Deliverystatus": "Delivery",
    "divisionname": "Banda",
    "regionname": "Kanpur",
    "circlename": "Uttar Pradesh",
    "Taluk": "Hamirpur",
    "Districtname": "Mahoba",
    "statename": "UTTAR PRADESH"
  },
  {
    "pincode": "210504",
    "officename": "Khiruhi B.O",
    "officeType": "B.O",
    "Deliverystatus": "Delivery",
    "divisionname": "Banda",
    "regionname": "Kanpur",
    "circlename": "Uttar Pradesh",
    "Taluk": "Hamirpur",
    "Districtname": "Hamirpur",
    "statename": "UTTAR PRADESH"
  },
  {
    "pincode": "210504",
    "officename": "Mawai Khurd B.O",
    "officeType": "B.O",
    "Deliverystatus": "Delivery",
    "divisionname": "Banda",
    "regionname": "Kanpur",
    "circlename": "Uttar Pradesh",
    "Taluk": "Hamirpur",
    "Districtname": "Hamirpur",
    "statename": "UTTAR PRADESH"
  },
  {
    "pincode": "210504",
    "officename": "Pewan B.O",
    "officeType": "B.O",
    "Deliverystatus": "Delivery",
    "divisionname": "Banda",
    "regionname": "Kanpur",
    "circlename": "Uttar Pradesh",
    "Taluk": "Hamirpur",
    "Districtname": "Mahoba",
    "statename": "UTTAR PRADESH"
  },
  {
    "pincode": "210504",
    "officename": "Rewan B.O",
    "officeType": "B.O",
    "Deliverystatus": "Delivery",
    "divisionname": "Banda",
    "regionname": "Kanpur",
    "circlename": "Uttar Pradesh",
    "Taluk": "Hamirpur",
    "Districtname": "Mahoba",
    "statename": "UTTAR PRADESH"
  },
  {
    "pincode": "210504",
    "officename": "Sirsi Kalan B.O",
    "officeType": "B.O",
    "Deliverystatus": "Delivery",
    "divisionname": "Banda",
    "regionname": "Kanpur",
    "circlename": "Uttar Pradesh",
    "Taluk": "Hamirpur",
    "Districtname": "Mahoba",
    "statename": "UTTAR PRADESH"
  },
  {
    "pincode": "210504",
    "officename": "Sirsi Khurd B.O",
    "officeType": "B.O",
    "Deliverystatus": "Delivery",
    "divisionname": "Banda",
    "regionname": "Kanpur",
    "circlename": "Uttar Pradesh",
    "Taluk": "Hamirpur",
    "Districtname": "Mahoba",
    "statename": "UTTAR PRADESH"
  }
]
