[
  {
    "pincode": "210502",
    "officename": "Atariyan B.O",
    "officeType": "B.O",
    "Deliverystatus": "Delivery",
    "divisionname": "Banda",
    "regionname": "Kanpur",
    "circlename": "Uttar Pradesh",
    "Taluk": "Hamirpur",
    "Districtname": "Hamirpur",
    "statename": "UTTAR PRADESH"
  },
  {
    "pincode": "210502",
    "officename": "Banki B.O",
    "officeType": "B.O",
    "Deliverystatus": "Delivery",
    "divisionname": "Banda",
    "regionname": "Kanpur",
    "circlename": "Uttar Pradesh",
    "Taluk": "Hamirpur",
    "Districtname": "Hamirpur",
    "statename": "UTTAR PRADESH"
  },
  {
    "pincode": "210502",
    "officename": "Baruwa Sumerpur S.O",
    "officeType": "S.O",
    "Deliverystatus": "Delivery",
    "divisionname": "Banda",
    "regionname": "Kanpur",
    "circlename": "Uttar Pradesh",
    "Taluk": "Hamirpur",
    "Districtname": "Hamirpur",
    "statename": "UTTAR PRADESH"
  },
  {
    "pincode": "210502",
    "officename": "Birkhera B.O",
    "officeType": "B.O",
    "Deliverystatus": "Delivery",
    "divisionname": "Banda",
    "regionname": "Kanpur",
    "circlename": "Uttar Pradesh",
    "Taluk": "Hamirpur",
    "Districtname": "Hamirpur",
    "statename": "UTTAR PRADESH"
  },
  {
    "pincode": "210502",
    "officename": "Chandpura B.O",
    "officeType": "B.O",
    "Deliverystatus": "Delivery",
    "divisionname": "Banda",
    "regionname": "Kanpur",
    "circlename": "Uttar Pradesh",
    "Taluk": "Hamirpur",
    "Districtname": "Hamirpur",
    "statename": "UTTAR PRADESH"
  },
  {
    "pincode": "210502",
    "officename": "Kundaura B.O",
    "officeType": "B.O",
    "Deliverystatus": "Delivery",
    "divisionname": "Banda",
    "regionname": "Kanpur",
    "circlename": "Uttar Pradesh",
    "Taluk": "Hamirpur",
    "Districtname": "Hamirpur",
    "statename": "UTTAR PRADESH"
  },
  {
    "pincode": "210502",
    "officename": "Nadehra B.O",
    "officeType": "B.O",
    "Deliverystatus": "Delivery",
    "divisionname": "Banda",
    "regionname": "Kanpur",
    "circlename": "Uttar Pradesh",
    "Taluk": "Hamirpur",
    "Districtname": "Hamirpur",
    "statename": "UTTAR PRADESH"
  },
  {
    "pincode": "210502",
    "officename": "Pachkhura B.O",
    "officeType": "B.O",
    "Deliverystatus": "Delivery",
    "divisionname": "Banda",
    "regionname": "Kanpur",
    "circlename": "Uttar Pradesh",
    "Taluk": "Hamirpur",
    "Districtname": "Hamirpur",
    "statename": "UTTAR PRADESH"
  },
  {
    "pincode": "210502",
    "officename": "Pandhari B.O",
    "officeType": "B.O",
    "Deliverystatus": "Delivery",
    "divisionname": "Banda",
    "regionname": "Kanpur",
    "circlename": "Uttar Pradesh",
    "Taluk": "Hamirpur",
    "Districtname": "Hamirpur",
    "statename": "UTTAR PRADESH"
  },
  {
    "pincode": "210502",
    "officename": "Surauli Bzg. B.O",
    "officeType": "B.O",
    "Deliverystatus": "Delivery",
    "divisionname": "Banda",
    "regionname": "Kanpur",
    "circlename": "Uttar Pradesh",
    "Taluk": "Hamirpur",
    "Districtname": "Hamirpur",
    "statename": "UTTAR PRADESH"
  },
  {
    "pincode": "210502",
    "officename": "Terha B.O",
    "officeType": "B.O",
    "Deliverystatus": "Delivery",
    "divisionname": "Banda",
    "regionname": "Kanpur",
    "circlename": "Uttar Pradesh",
    "Taluk": "Hamirpur",
    "Districtname": "Hamirpur",
    "statename": "UTTAR PRADESH"
  }
]
