[
  {
    "pincode": "211012",
    "officename": "Asrawey Kalan B.O",
    "officeType": "B.O",
    "Deliverystatus": "Delivery",
    "divisionname": "Allahabad",
    "regionname": "Allahabad",
    "circlename": "Uttar Pradesh",
    "Taluk": "Allahabad **",
    "Districtname": "Allahabad",
    "statename": "UTTAR PRADESH"
  },
  {
    "pincode": "211012",
    "officename": "Bamhrauli Uparhar B.O",
    "officeType": "B.O",
    "Deliverystatus": "Delivery",
    "divisionname": "Allahabad",
    "regionname": "Allahabad",
    "circlename": "Uttar Pradesh",
    "Taluk": "Allahabad",
    "Districtname": "Allahabad",
    "statename": "UTTAR PRADESH"
  },
  {
    "pincode": "211012",
    "officename": "Bamrauli Air Port S.O",
    "officeType": "S.O",
    "Deliverystatus": "Non-Delivery",
    "divisionname": "Allahabad",
    "regionname": "Allahabad",
    "circlename": "Uttar Pradesh",
    "Taluk": "Allahabad",
    "Districtname": "Allahabad",
    "statename": "UTTAR PRADESH"
  },
  {
    "pincode": "211012",
    "officename": "Bamrauli S.O",
    "officeType": "S.O",
    "Deliverystatus": "Delivery",
    "divisionname": "Allahabad",
    "regionname": "Allahabad",
    "circlename": "Uttar Pradesh",
    "Taluk": "Allahabad",
    "Districtname": "Allahabad",
    "statename": "UTTAR PRADESH"
  },
  {
    "pincode": "211012",
    "officename": "Bhagwatpur B.O",
    "officeType": "B.O",
    "Deliverystatus": "Delivery",
    "divisionname": "Allahabad",
    "regionname": "Allahabad",
    "circlename": "Uttar Pradesh",
    "Taluk": "Allahabad",
    "Districtname": "Allahabad",
    "statename": "UTTAR PRADESH"
  },
  {
    "pincode": "211012",
    "officename": "Bisauna B.O",
    "officeType": "B.O",
    "Deliverystatus": "Delivery",
    "divisionname": "Allahabad",
    "regionname": "Allahabad",
    "circlename": "Uttar Pradesh",
    "Taluk": "Allahabad",
    "Districtname": "Allahabad",
    "statename": "UTTAR PRADESH"
  },
  {
    "pincode": "211012",
    "officename": "Ganja B.O",
    "officeType": "B.O",
    "Deliverystatus": "Delivery",
    "divisionname": "Allahabad",
    "regionname": "Allahabad",
    "circlename": "Uttar Pradesh",
    "Taluk": "Allahabad",
    "Districtname": "Allahabad",
    "statename": "UTTAR PRADESH"
  },
  {
    "pincode": "211012",
    "officename": "Gauspur Katahula B.O",
    "officeType": "B.O",
    "Deliverystatus": "Delivery",
    "divisionname": "Allahabad",
    "regionname": "Allahabad",
    "circlename": "Uttar Pradesh",
    "Taluk": "Allahabad **",
    "Districtname": "Allahabad",
    "statename": "UTTAR PRADESH"
  },
  {
    "pincode": "211012",
    "officename": "Jalalpur Ghosi B.O",
    "officeType": "B.O",
    "Deliverystatus": "Delivery",
    "divisionname": "Allahabad",
    "regionname": "Allahabad",
    "circlename": "Uttar Pradesh",
    "Taluk": "Allahabad",
    "Districtname": "Allahabad",
    "statename": "UTTAR PRADESH"
  },
  {
    "pincode": "211012",
    "officename": "Karehnda B.O",
    "officeType": "B.O",
    "Deliverystatus": "Delivery",
    "divisionname": "Allahabad",
    "regionname": "Allahabad",
    "circlename": "Uttar Pradesh",
    "Taluk": "Allahabad **",
    "Districtname": "Allahabad",
    "statename": "UTTAR PRADESH"
  },
  {
    "pincode": "211012",
    "officename": "Mandardeeh Mafi B.O",
    "officeType": "B.O",
    "Deliverystatus": "Delivery",
    "divisionname": "Allahabad",
    "regionname": "Allahabad",
    "circlename": "Uttar Pradesh",
    "Taluk": "Allahabad **",
    "Districtname": "Allahabad",
    "statename": "UTTAR PRADESH"
  },
  {
    "pincode": "211012",
    "officename": "Pipalgaon B.O",
    "officeType": "B.O",
    "Deliverystatus": "Delivery",
    "divisionname": "Allahabad",
    "regionname": "Allahabad",
    "circlename": "Uttar Pradesh",
    "Taluk": "Allahabad **",
    "Districtname": "Allahabad",
    "statename": "UTTAR PRADESH"
  },
  {
    "pincode": "211012",
    "officename": "Shergarh B.O",
    "officeType": "B.O",
    "Deliverystatus": "Delivery",
    "divisionname": "Allahabad",
    "regionname": "Allahabad",
    "circlename": "Uttar Pradesh",
    "Taluk": "Allahabad",
    "Districtname": "Allahabad",
    "statename": "UTTAR PRADESH"
  }
]
