[
  {
    "pincode": "211003",
    "officename": "Ahmadganj S.O",
    "officeType": "S.O",
    "Deliverystatus": "Non-Delivery",
    "divisionname": "Allahabad",
    "regionname": "Allahabad",
    "circlename": "Uttar Pradesh",
    "Taluk": "Allahabad",
    "Districtname": "Allahabad",
    "statename": "UTTAR PRADESH"
  },
  {
    "pincode": "211003",
    "officename": "Allahabad Chowk S.O",
    "officeType": "S.O",
    "Deliverystatus": "Non-Delivery",
    "divisionname": "Allahabad",
    "regionname": "Allahabad",
    "circlename": "Uttar Pradesh",
    "Taluk": "Allahabad",
    "Districtname": "Allahabad",
    "statename": "UTTAR PRADESH"
  },
  {
    "pincode": "211003",
    "officename": "Allahabad City S.O",
    "officeType": "S.O",
    "Deliverystatus": "Delivery",
    "divisionname": "Allahabad",
    "regionname": "Allahabad",
    "circlename": "Uttar Pradesh",
    "Taluk": "Allahabad",
    "Districtname": "Allahabad",
    "statename": "UTTAR PRADESH"
  },
  {
    "pincode": "211003",
    "officename": "Attarsuiya S.O",
    "officeType": "S.O",
    "Deliverystatus": "Non-Delivery",
    "divisionname": "Allahabad",
    "regionname": "Allahabad",
    "circlename": "Uttar Pradesh",
    "Taluk": "Allahabad",
    "Districtname": "Allahabad",
    "statename": "UTTAR PRADESH"
  },
  {
    "pincode": "211003",
    "officename": "Bahadurganj S.O (Allahabad)",
    "officeType": "S.O",
    "Deliverystatus": "Non-Delivery",
    "divisionname": "Allahabad",
    "regionname": "Allahabad",
    "circlename": "Uttar Pradesh",
    "Taluk": "Allahabad",
    "Districtname": "Allahabad",
    "statename": "UTTAR PRADESH"
  },
  {
    "pincode": "211003",
    "officename": "Bai Ka Bagh S.O",
    "officeType": "S.O",
    "Deliverystatus": "Non-Delivery",
    "divisionname": "Allahabad",
    "regionname": "Allahabad",
    "circlename": "Uttar Pradesh",
    "Taluk": "Allahabad",
    "Districtname": "Allahabad",
    "statename": "UTTAR PRADESH"
  },
  {
    "pincode": "211003",
    "officename": "Darashahazmal S.O",
    "officeType": "S.O",
    "Deliverystatus": "Non-Delivery",
    "divisionname": "Allahabad",
    "regionname": "Allahabad",
    "circlename": "Uttar Pradesh",
    "Taluk": "Allahabad",
    "Districtname": "Allahabad",
    "statename": "UTTAR PRADESH"
  },
  {
    "pincode": "211003",
    "officename": "Hindi Sahitya Sammelan S.O",
    "officeType": "S.O",
    "Deliverystatus": "Non-Delivery",
    "divisionname": "Allahabad",
    "regionname": "Allahabad",
    "circlename": "Uttar Pradesh",
    "Taluk": "Allahabad",
    "Districtname": "Allahabad",
    "statename": "UTTAR PRADESH"
  },
  {
    "pincode": "211003",
    "officename": "Kalyani Devi S.O",
    "officeType": "S.O",
    "Deliverystatus": "Non-Delivery",
    "divisionname": "Allahabad",
    "regionname": "Allahabad",
    "circlename": "Uttar Pradesh",
    "Taluk": "Allahabad",
    "Districtname": "Allahabad",
    "statename": "UTTAR PRADESH"
  },
  {
    "pincode": "211003",
    "officename": "Katghar S.O (Allahabad)",
    "officeType": "S.O",
    "Deliverystatus": "Non-Delivery",
    "divisionname": "Allahabad",
    "regionname": "Allahabad",
    "circlename": "Uttar Pradesh",
    "Taluk": "Allahabad",
    "Districtname": "Allahabad",
    "statename": "UTTAR PRADESH"
  },
  {
    "pincode": "211003",
    "officename": "Krishna Nagar S.O (Allahabad)",
    "officeType": "S.O",
    "Deliverystatus": "Non-Delivery",
    "divisionname": "Allahabad",
    "regionname": "Allahabad",
    "circlename": "Uttar Pradesh",
    "Taluk": "Allahabad",
    "Districtname": "Allahabad",
    "statename": "UTTAR PRADESH"
  },
  {
    "pincode": "211003",
    "officename": "Leader Road B.O",
    "officeType": "B.O",
    "Deliverystatus": "Non-Delivery",
    "divisionname": "Allahabad",
    "regionname": "Allahabad",
    "circlename": "Uttar Pradesh",
    "Taluk": "Allahabad",
    "Districtname": "Allahabad",
    "statename": "UTTAR PRADESH"
  },
  {
    "pincode": "211003",
    "officename": "Mutthiganj S.O",
    "officeType": "S.O",
    "Deliverystatus": "Non-Delivery",
    "divisionname": "Allahabad",
    "regionname": "Allahabad",
    "circlename": "Uttar Pradesh",
    "Taluk": "Allahabad",
    "Districtname": "Allahabad",
    "statename": "UTTAR PRADESH"
  },
  {
    "pincode": "211003",
    "officename": "Nehru Nagar S.O (Allahabad)",
    "officeType": "S.O",
    "Deliverystatus": "Non-Delivery",
    "divisionname": "Allahabad",
    "regionname": "Allahabad",
    "circlename": "Uttar Pradesh",
    "Taluk": "Allahabad",
    "Districtname": "Allahabad",
    "statename": "UTTAR PRADESH"
  },
  {
    "pincode": "211003",
    "officename": "New Bairahana S.O",
    "officeType": "S.O",
    "Deliverystatus": "Non-Delivery",
    "divisionname": "Allahabad",
    "regionname": "Allahabad",
    "circlename": "Uttar Pradesh",
    "Taluk": "Allahabad",
    "Districtname": "Allahabad",
    "statename": "UTTAR PRADESH"
  },
  {
    "pincode": "211003",
    "officename": "Prayag Mahila Vidyapith S.O",
    "officeType": "S.O",
    "Deliverystatus": "Non-Delivery",
    "divisionname": "Allahabad",
    "regionname": "Allahabad",
    "circlename": "Uttar Pradesh",
    "Taluk": "Allahabad",
    "Districtname": "Allahabad",
    "statename": "UTTAR PRADESH"
  },
  {
    "pincode": "211003",
    "officename": "S R Marg S.O",
    "officeType": "S.O",
    "Deliverystatus": "Non-Delivery",
    "divisionname": "Allahabad",
    "regionname": "Allahabad",
    "circlename": "Uttar Pradesh",
    "Taluk": "Allahabad",
    "Districtname": "Allahabad",
    "statename": "UTTAR PRADESH"
  },
  {
    "pincode": "211003",
    "officename": "Satti Chaura S.O",
    "officeType": "S.O",
    "Deliverystatus": "Non-Delivery",
    "divisionname": "Allahabad",
    "regionname": "Allahabad",
    "circlename": "Uttar Pradesh",
    "Taluk": "Allahabad",
    "Districtname": "Allahabad",
    "statename": "UTTAR PRADESH"
  },
  {
    "pincode": "211003",
    "officename": "Tirath Raj Aushadhalaya S.O",
    "officeType": "S.O",
    "Deliverystatus": "Non-Delivery",
    "divisionname": "Allahabad",
    "regionname": "Allahabad",
    "circlename": "Uttar Pradesh",
    "Taluk": "Allahabad",
    "Districtname": "Allahabad",
    "statename": "UTTAR PRADESH"
  },
  {
    "pincode": "211003",
    "officename": "Triveni Marg S.O",
    "officeType": "S.O",
    "Deliverystatus": "Non-Delivery",
    "divisionname": "Allahabad",
    "regionname": "Allahabad",
    "circlename": "Uttar Pradesh",
    "Taluk": "Allahabad",
    "Districtname": "Allahabad",
    "statename": "UTTAR PRADESH"
  },
  {
    "pincode": "211003",
    "officename": "V N Marg S.O",
    "officeType": "S.O",
    "Deliverystatus": "Non-Delivery",
    "divisionname": "Allahabad",
    "regionname": "Allahabad",
    "circlename": "Uttar Pradesh",
    "Taluk": "Allahabad",
    "Districtname": "Allahabad",
    "statename": "UTTAR PRADESH"
  }
]
