[
  {
    "pincode": "212107",
    "officename": "Bara B.O",
    "officeType": "B.O",
    "Deliverystatus": "Delivery",
    "divisionname": "Allahabad",
    "regionname": "Allahabad",
    "circlename": "Uttar Pradesh",
    "Taluk": "Allahabad",
    "Districtname": "Allahabad",
    "statename": "UTTAR PRADESH"
  },
  {
    "pincode": "212107",
    "officename": "Belamundi B.O",
    "officeType": "B.O",
    "Deliverystatus": "Delivery",
    "divisionname": "Allahabad",
    "regionname": "Allahabad",
    "circlename": "Uttar Pradesh",
    "Taluk": "Allahabad",
    "Districtname": "Allahabad",
    "statename": "UTTAR PRADESH"
  },
  {
    "pincode": "212107",
    "officename": "Bhita B.O",
    "officeType": "B.O",
    "Deliverystatus": "Delivery",
    "divisionname": "Allahabad",
    "regionname": "Allahabad",
    "circlename": "Uttar Pradesh",
    "Taluk": "Allahabad",
    "Districtname": "Allahabad",
    "statename": "UTTAR PRADESH"
  },
  {
    "pincode": "212107",
    "officename": "Chhatahra B.O",
    "officeType": "B.O",
    "Deliverystatus": "Delivery",
    "divisionname": "Allahabad",
    "regionname": "Allahabad",
    "circlename": "Uttar Pradesh",
    "Taluk": "Allahabad",
    "Districtname": "Allahabad",
    "statename": "UTTAR PRADESH"
  },
  {
    "pincode": "212107",
    "officename": "Chhiri B.O",
    "officeType": "B.O",
    "Deliverystatus": "Delivery",
    "divisionname": "Allahabad",
    "regionname": "Allahabad",
    "circlename": "Uttar Pradesh",
    "Taluk": "Allahabad",
    "Districtname": "Allahabad",
    "statename": "UTTAR PRADESH"
  },
  {
    "pincode": "212107",
    "officename": "Chilla B.O",
    "officeType": "B.O",
    "Deliverystatus": "Delivery",
    "divisionname": "Allahabad",
    "regionname": "Allahabad",
    "circlename": "Uttar Pradesh",
    "Taluk": "Bara",
    "Districtname": "Allahabad",
    "statename": "UTTAR PRADESH"
  },
  {
    "pincode": "212107",
    "officename": "Dhara B.O",
    "officeType": "B.O",
    "Deliverystatus": "Delivery",
    "divisionname": "Allahabad",
    "regionname": "Allahabad",
    "circlename": "Uttar Pradesh",
    "Taluk": "Bara",
    "Districtname": "Allahabad",
    "statename": "UTTAR PRADESH"
  },
  {
    "pincode": "212107",
    "officename": "Dubaha B.O",
    "officeType": "B.O",
    "Deliverystatus": "Delivery",
    "divisionname": "Allahabad",
    "regionname": "Allahabad",
    "circlename": "Uttar Pradesh",
    "Taluk": "Allahabad",
    "Districtname": "Allahabad",
    "statename": "UTTAR PRADESH"
  },
  {
    "pincode": "212107",
    "officename": "Jasra S.O",
    "officeType": "S.O",
    "Deliverystatus": "Delivery",
    "divisionname": "Allahabad",
    "regionname": "Allahabad",
    "circlename": "Uttar Pradesh",
    "Taluk": "Jasra",
    "Districtname": "Allahabad",
    "statename": "UTTAR PRADESH"
  },
  {
    "pincode": "212107",
    "officename": "Kanti B.O",
    "officeType": "B.O",
    "Deliverystatus": "Delivery",
    "divisionname": "Allahabad",
    "regionname": "Allahabad",
    "circlename": "Uttar Pradesh",
    "Taluk": "Bara",
    "Districtname": "Allahabad",
    "statename": "UTTAR PRADESH"
  },
  {
    "pincode": "212107",
    "officename": "Lalapur Bhatpura B.O",
    "officeType": "B.O",
    "Deliverystatus": "Delivery",
    "divisionname": "Allahabad",
    "regionname": "Allahabad",
    "circlename": "Uttar Pradesh",
    "Taluk": "Allahabad",
    "Districtname": "Allahabad",
    "statename": "UTTAR PRADESH"
  },
  {
    "pincode": "212107",
    "officename": "Leondi B.O",
    "officeType": "B.O",
    "Deliverystatus": "Delivery",
    "divisionname": "Allahabad",
    "regionname": "Allahabad",
    "circlename": "Uttar Pradesh",
    "Taluk": "Bara",
    "Districtname": "Allahabad",
    "statename": "UTTAR PRADESH"
  },
  {
    "pincode": "212107",
    "officename": "Lohgara B.O",
    "officeType": "B.O",
    "Deliverystatus": "Delivery",
    "divisionname": "Allahabad",
    "regionname": "Allahabad",
    "circlename": "Uttar Pradesh",
    "Taluk": "Bara",
    "Districtname": "Allahabad",
    "statename": "UTTAR PRADESH"
  },
  {
    "pincode": "212107",
    "officename": "Manpur B.O",
    "officeType": "B.O",
    "Deliverystatus": "Delivery",
    "divisionname": "Allahabad",
    "regionname": "Allahabad",
    "circlename": "Uttar Pradesh",
    "Taluk": "Bara",
    "Districtname": "Allahabad",
    "statename": "UTTAR PRADESH"
  },
  {
    "pincode": "212107",
    "officename": "Naganpur B.O",
    "officeType": "B.O",
    "Deliverystatus": "Delivery",
    "divisionname": "Allahabad",
    "regionname": "Allahabad",
    "circlename": "Uttar Pradesh",
    "Taluk": "Bara",
    "Districtname": "Allahabad",
    "statename": "UTTAR PRADESH"
  },
  {
    "pincode": "212107",
    "officename": "Naudhiya Tarhar B.O",
    "officeType": "B.O",
    "Deliverystatus": "Delivery",
    "divisionname": "Allahabad",
    "regionname": "Allahabad",
    "circlename": "Uttar Pradesh",
    "Taluk": "Allahabad",
    "Districtname": "Allahabad",
    "statename": "UTTAR PRADESH"
  },
  {
    "pincode": "212107",
    "officename": "Nayanwar B.O",
    "officeType": "B.O",
    "Deliverystatus": "Delivery",
    "divisionname": "Allahabad",
    "regionname": "Allahabad",
    "circlename": "Uttar Pradesh",
    "Taluk": "Bara",
    "Districtname": "Allahabad",
    "statename": "UTTAR PRADESH"
  },
  {
    "pincode": "212107",
    "officename": "Othgi Tarhar B.O",
    "officeType": "B.O",
    "Deliverystatus": "Delivery",
    "divisionname": "Allahabad",
    "regionname": "Allahabad",
    "circlename": "Uttar Pradesh",
    "Taluk": "Bara",
    "Districtname": "Allahabad",
    "statename": "UTTAR PRADESH"
  },
  {
    "pincode": "212107",
    "officename": "Panduwa B.O",
    "officeType": "B.O",
    "Deliverystatus": "Delivery",
    "divisionname": "Allahabad",
    "regionname": "Allahabad",
    "circlename": "Uttar Pradesh",
    "Taluk": "Bara",
    "Districtname": "Allahabad",
    "statename": "UTTAR PRADESH"
  },
  {
    "pincode": "212107",
    "officename": "Panwar B.O",
    "officeType": "B.O",
    "Deliverystatus": "Delivery",
    "divisionname": "Allahabad",
    "regionname": "Allahabad",
    "circlename": "Uttar Pradesh",
    "Taluk": "Bara",
    "Districtname": "Allahabad",
    "statename": "UTTAR PRADESH"
  },
  {
    "pincode": "212107",
    "officename": "Tatarganj B.O",
    "officeType": "B.O",
    "Deliverystatus": "Delivery",
    "divisionname": "Allahabad",
    "regionname": "Allahabad",
    "circlename": "Uttar Pradesh",
    "Taluk": "Bara",
    "Districtname": "Allahabad",
    "statename": "UTTAR PRADESH"
  }
]
