[
  {
    "pincode": "212201",
    "officename": "Balak Mau B.O",
    "officeType": "B.O",
    "Deliverystatus": "Delivery",
    "divisionname": "Allahabad",
    "regionname": "Allahabad",
    "circlename": "Uttar Pradesh",
    "Taluk": "Sirathu",
    "Districtname": "Kaushambi",
    "statename": "UTTAR PRADESH"
  },
  {
    "pincode": "212201",
    "officename": "Bamrauli B.O",
    "officeType": "B.O",
    "Deliverystatus": "Delivery",
    "divisionname": "Allahabad",
    "regionname": "Allahabad",
    "circlename": "Uttar Pradesh",
    "Taluk": "Allahabad **",
    "Districtname": "Allahabad",
    "statename": "UTTAR PRADESH"
  },
  {
    "pincode": "212201",
    "officename": "Bharwari S.O (Kaushambi)",
    "officeType": "S.O",
    "Deliverystatus": "Delivery",
    "divisionname": "Allahabad",
    "regionname": "Allahabad",
    "circlename": "Uttar Pradesh",
    "Taluk": "Manjhanpur",
    "Districtname": "Kaushambi",
    "statename": "UTTAR PRADESH"
  },
  {
    "pincode": "212201",
    "officename": "Bisara B.O",
    "officeType": "B.O",
    "Deliverystatus": "Delivery",
    "divisionname": "Allahabad",
    "regionname": "Allahabad",
    "circlename": "Uttar Pradesh",
    "Taluk": "Sirathu",
    "Districtname": "Kaushambi",
    "statename": "UTTAR PRADESH"
  },
  {
    "pincode": "212201",
    "officename": "Dariyapur Majhiyawan B.O",
    "officeType": "B.O",
    "Deliverystatus": "Delivery",
    "divisionname": "Allahabad",
    "regionname": "Allahabad",
    "circlename": "Uttar Pradesh",
    "Taluk": "Manjhanpur",
    "Districtname": "Kaushambi",
    "statename": "UTTAR PRADESH"
  },
  {
    "pincode": "212201",
    "officename": "Guwara Gayyabpur B.O",
    "officeType": "B.O",
    "Deliverystatus": "Delivery",
    "divisionname": "Allahabad",
    "regionname": "Allahabad",
    "circlename": "Uttar Pradesh",
    "Taluk": "Manjhanpur",
    "Districtname": "Kaushambi",
    "statename": "UTTAR PRADESH"
  },
  {
    "pincode": "212201",
    "officename": "Kakorha B.O",
    "officeType": "B.O",
    "Deliverystatus": "Delivery",
    "divisionname": "Allahabad",
    "regionname": "Allahabad",
    "circlename": "Uttar Pradesh",
    "Taluk": "Sirathu",
    "Districtname": "Kaushambi",
    "statename": "UTTAR PRADESH"
  },
  {
    "pincode": "212201",
    "officename": "Kasia Pashchim B.O",
    "officeType": "B.O",
    "Deliverystatus": "Delivery",
    "divisionname": "Allahabad",
    "regionname": "Allahabad",
    "circlename": "Uttar Pradesh",
    "Taluk": "Chail",
    "Districtname": "Kaushambi",
    "statename": "UTTAR PRADESH"
  },
  {
    "pincode": "212201",
    "officename": "Kasia Purab B.O",
    "officeType": "B.O",
    "Deliverystatus": "Delivery",
    "divisionname": "Allahabad",
    "regionname": "Allahabad",
    "circlename": "Uttar Pradesh",
    "Taluk": "Sirathu",
    "Districtname": "Kaushambi",
    "statename": "UTTAR PRADESH"
  },
  {
    "pincode": "212201",
    "officename": "Kokhraj B.O",
    "officeType": "B.O",
    "Deliverystatus": "Delivery",
    "divisionname": "Allahabad",
    "regionname": "Allahabad",
    "circlename": "Uttar Pradesh",
    "Taluk": "Chail",
    "Districtname": "Kaushambi",
    "statename": "UTTAR PRADESH"
  },
  {
    "pincode": "212201",
    "officename": "Muratganj ED B.O",
    "officeType": "B.O",
    "Deliverystatus": "Delivery",
    "divisionname": "Allahabad",
    "regionname": "Allahabad",
    "circlename": "Uttar Pradesh",
    "Taluk": "Phulpur",
    "Districtname": "Allahabad",
    "statename": "UTTAR PRADESH"
  }
]
