[
  {
    "pincode": "212202",
    "officename": "Amirsa B.O",
    "officeType": "B.O",
    "Deliverystatus": "Delivery",
    "divisionname": "Allahabad",
    "regionname": "Allahabad",
    "circlename": "Uttar Pradesh",
    "Taluk": "Chail",
    "Districtname": "Kaushambi",
    "statename": "UTTAR PRADESH"
  },
  {
    "pincode": "212202",
    "officename": "Bhikhpur Mendwara B.O",
    "officeType": "B.O",
    "Deliverystatus": "Delivery",
    "divisionname": "Allahabad",
    "regionname": "Allahabad",
    "circlename": "Uttar Pradesh",
    "Taluk": "Chail",
    "Districtname": "Kaushambi",
    "statename": "UTTAR PRADESH"
  },
  {
    "pincode": "212202",
    "officename": "Boonda B.O",
    "officeType": "B.O",
    "Deliverystatus": "Delivery",
    "divisionname": "Allahabad",
    "regionname": "Allahabad",
    "circlename": "Uttar Pradesh",
    "Taluk": "Chail",
    "Districtname": "Kaushambi",
    "statename": "UTTAR PRADESH"
  },
  {
    "pincode": "212202",
    "officename": "Chail S.O (Kaushambi)",
    "officeType": "S.O",
    "Deliverystatus": "Delivery",
    "divisionname": "Allahabad",
    "regionname": "Allahabad",
    "circlename": "Uttar Pradesh",
    "Taluk": "Chail",
    "Districtname": "Kaushambi",
    "statename": "UTTAR PRADESH"
  },
  {
    "pincode": "212202",
    "officename": "Chalauli B.O",
    "officeType": "B.O",
    "Deliverystatus": "Delivery",
    "divisionname": "Allahabad",
    "regionname": "Allahabad",
    "circlename": "Uttar Pradesh",
    "Taluk": "Chail",
    "Districtname": "Kaushambi",
    "statename": "UTTAR PRADESH"
  },
  {
    "pincode": "212202",
    "officename": "Faridpur Salem B.O",
    "officeType": "B.O",
    "Deliverystatus": "Delivery",
    "divisionname": "Allahabad",
    "regionname": "Allahabad",
    "circlename": "Uttar Pradesh",
    "Taluk": "Chail",
    "Districtname": "Kaushambi",
    "statename": "UTTAR PRADESH"
  },
  {
    "pincode": "212202",
    "officename": "Inguwa (Kathgaon) B.O",
    "officeType": "B.O",
    "Deliverystatus": "Delivery",
    "divisionname": "Allahabad",
    "regionname": "Allahabad",
    "circlename": "Uttar Pradesh",
    "Taluk": "Chail",
    "Districtname": "Kaushambi",
    "statename": "UTTAR PRADESH"
  },
  {
    "pincode": "212202",
    "officename": "Jalalpur Sana B.O",
    "officeType": "B.O",
    "Deliverystatus": "Delivery",
    "divisionname": "Allahabad",
    "regionname": "Allahabad",
    "circlename": "Uttar Pradesh",
    "Taluk": "Chail",
    "Districtname": "Kaushambi",
    "statename": "UTTAR PRADESH"
  },
  {
    "pincode": "212202",
    "officename": "Kasenda B.O",
    "officeType": "B.O",
    "Deliverystatus": "Delivery",
    "divisionname": "Allahabad",
    "regionname": "Allahabad",
    "circlename": "Uttar Pradesh",
    "Taluk": "Chail",
    "Districtname": "Kaushambi",
    "statename": "UTTAR PRADESH"
  },
  {
    "pincode": "212202",
    "officename": "Tilgodi B.O",
    "officeType": "B.O",
    "Deliverystatus": "Delivery",
    "divisionname": "Allahabad",
    "regionname": "Allahabad",
    "circlename": "Uttar Pradesh",
    "Taluk": "Chail",
    "Districtname": "Kaushambi",
    "statename": "UTTAR PRADESH"
  }
]
