[
  {
    "pincode": "212214",
    "officename": "Alwara B.O",
    "officeType": "B.O",
    "Deliverystatus": "Delivery",
    "divisionname": "Allahabad",
    "regionname": "Allahabad",
    "circlename": "Uttar Pradesh",
    "Taluk": "Manjhanpur",
    "Districtname": "Kaushambi",
    "statename": "UTTAR PRADESH"
  },
  {
    "pincode": "212214",
    "officename": "Andhawan B.O",
    "officeType": "B.O",
    "Deliverystatus": "Delivery",
    "divisionname": "Allahabad",
    "regionname": "Allahabad",
    "circlename": "Uttar Pradesh",
    "Taluk": "Manjhanpur",
    "Districtname": "Kaushambi",
    "statename": "UTTAR PRADESH"
  },
  {
    "pincode": "212214",
    "officename": "Bairampur B.O",
    "officeType": "B.O",
    "Deliverystatus": "Delivery",
    "divisionname": "Allahabad",
    "regionname": "Allahabad",
    "circlename": "Uttar Pradesh",
    "Taluk": "Manjhanpur",
    "Districtname": "Kaushambi",
    "statename": "UTTAR PRADESH"
  },
  {
    "pincode": "212214",
    "officename": "Champaha Bazar B.O",
    "officeType": "B.O",
    "Deliverystatus": "Delivery",
    "divisionname": "Allahabad",
    "regionname": "Allahabad",
    "circlename": "Uttar Pradesh",
    "Taluk": "Manjhanpur",
    "Districtname": "Kaushambi",
    "statename": "UTTAR PRADESH"
  },
  {
    "pincode": "212214",
    "officename": "Goraju B.O",
    "officeType": "B.O",
    "Deliverystatus": "Delivery",
    "divisionname": "Allahabad",
    "regionname": "Allahabad",
    "circlename": "Uttar Pradesh",
    "Taluk": "Sirathu",
    "Districtname": "Kaushambi",
    "statename": "UTTAR PRADESH"
  },
  {
    "pincode": "212214",
    "officename": "Katari B.O",
    "officeType": "B.O",
    "Deliverystatus": "Delivery",
    "divisionname": "Allahabad",
    "regionname": "Allahabad",
    "circlename": "Uttar Pradesh",
    "Taluk": "Manjhanpur",
    "Districtname": "Kaushambi",
    "statename": "UTTAR PRADESH"
  },
  {
    "pincode": "212214",
    "officename": "Kaushambi B.O",
    "officeType": "B.O",
    "Deliverystatus": "Delivery",
    "divisionname": "Allahabad",
    "regionname": "Allahabad",
    "circlename": "Uttar Pradesh",
    "Taluk": "Manjhanpur",
    "Districtname": "Kaushambi",
    "statename": "UTTAR PRADESH"
  },
  {
    "pincode": "212214",
    "officename": "Pashchim Sarira S.O",
    "officeType": "S.O",
    "Deliverystatus": "Delivery",
    "divisionname": "Allahabad",
    "regionname": "Allahabad",
    "circlename": "Uttar Pradesh",
    "Taluk": "Manjhanpur",
    "Districtname": "Kaushambi",
    "statename": "UTTAR PRADESH"
  },
  {
    "pincode": "212214",
    "officename": "Purab Sarira B.O",
    "officeType": "B.O",
    "Deliverystatus": "Delivery",
    "divisionname": "Allahabad",
    "regionname": "Allahabad",
    "circlename": "Uttar Pradesh",
    "Taluk": "Manjhanpur",
    "Districtname": "Kaushambi",
    "statename": "UTTAR PRADESH"
  },
  {
    "pincode": "212214",
    "officename": "Ramaipur B.O",
    "officeType": "B.O",
    "Deliverystatus": "Delivery",
    "divisionname": "Allahabad",
    "regionname": "Allahabad",
    "circlename": "Uttar Pradesh",
    "Taluk": "Manjhanpur",
    "Districtname": "Kaushambi",
    "statename": "UTTAR PRADESH"
  }
]
