[
  {
    "pincode": "212507",
    "officename": "Bakajalalpur B.O",
    "officeType": "B.O",
    "Deliverystatus": "Non-Delivery",
    "divisionname": "Allahabad",
    "regionname": "Allahabad",
    "circlename": "Uttar Pradesh",
    "Taluk": "Mau Aima",
    "Districtname": "Allahabad",
    "statename": "UTTAR PRADESH"
  },
  {
    "pincode": "212507",
    "officename": "Chhata B.O",
    "officeType": "B.O",
    "Deliverystatus": "Non-Delivery",
    "divisionname": "Allahabad",
    "regionname": "Allahabad",
    "circlename": "Uttar Pradesh",
    "Taluk": "Phulpur",
    "Districtname": "Allahabad",
    "statename": "UTTAR PRADESH"
  },
  {
    "pincode": "212507",
    "officename": "Chhitpalgarh B.O",
    "officeType": "B.O",
    "Deliverystatus": "Non-Delivery",
    "divisionname": "Allahabad",
    "regionname": "Allahabad",
    "circlename": "Uttar Pradesh",
    "Taluk": "Soraon",
    "Districtname": "Allahabad",
    "statename": "UTTAR PRADESH"
  },
  {
    "pincode": "212507",
    "officename": "Harisenganj B.O",
    "officeType": "B.O",
    "Deliverystatus": "Non-Delivery",
    "divisionname": "Allahabad",
    "regionname": "Allahabad",
    "circlename": "Uttar Pradesh",
    "Taluk": "Mau Aima",
    "Districtname": "Allahabad",
    "statename": "UTTAR PRADESH"
  },
  {
    "pincode": "212507",
    "officename": "Kiraon B.O",
    "officeType": "B.O",
    "Deliverystatus": "Non-Delivery",
    "divisionname": "Allahabad",
    "regionname": "Allahabad",
    "circlename": "Uttar Pradesh",
    "Taluk": "Handia",
    "Districtname": "Allahabad",
    "statename": "UTTAR PRADESH"
  },
  {
    "pincode": "212507",
    "officename": "Mau Aima S.O",
    "officeType": "S.O",
    "Deliverystatus": "Delivery",
    "divisionname": "Allahabad",
    "regionname": "Allahabad",
    "circlename": "Uttar Pradesh",
    "Taluk": "Allahabad",
    "Districtname": "Allahabad",
    "statename": "UTTAR PRADESH"
  },
  {
    "pincode": "212507",
    "officename": "Mehraunda B.O",
    "officeType": "B.O",
    "Deliverystatus": "Non-Delivery",
    "divisionname": "Allahabad",
    "regionname": "Allahabad",
    "circlename": "Uttar Pradesh",
    "Taluk": "Mau Aima",
    "Districtname": "Allahabad",
    "statename": "UTTAR PRADESH"
  },
  {
    "pincode": "212507",
    "officename": "Mohd.Pur Gheempur B.O",
    "officeType": "B.O",
    "Deliverystatus": "Non-Delivery",
    "divisionname": "Allahabad",
    "regionname": "Allahabad",
    "circlename": "Uttar Pradesh",
    "Taluk": "Soraon",
    "Districtname": "Allahabad",
    "statename": "UTTAR PRADESH"
  },
  {
    "pincode": "212507",
    "officename": "Nai Bazar B.O",
    "officeType": "B.O",
    "Deliverystatus": "Non-Delivery",
    "divisionname": "Allahabad",
    "regionname": "Allahabad",
    "circlename": "Uttar Pradesh",
    "Taluk": "Soraon",
    "Districtname": "Allahabad",
    "statename": "UTTAR PRADESH"
  },
  {
    "pincode": "212507",
    "officename": "Narainganj B.O",
    "officeType": "B.O",
    "Deliverystatus": "Non-Delivery",
    "divisionname": "Allahabad",
    "regionname": "Allahabad",
    "circlename": "Uttar Pradesh",
    "Taluk": "Soraon",
    "Districtname": "Allahabad",
    "statename": "UTTAR PRADESH"
  },
  {
    "pincode": "212507",
    "officename": "Newada B.O",
    "officeType": "B.O",
    "Deliverystatus": "Non-Delivery",
    "divisionname": "Allahabad",
    "regionname": "Allahabad",
    "circlename": "Uttar Pradesh",
    "Taluk": "Sirathu",
    "Districtname": "Kaushambi",
    "statename": "UTTAR PRADESH"
  },
  {
    "pincode": "212507",
    "officename": "Siswan B.O",
    "officeType": "B.O",
    "Deliverystatus": "Non-Delivery",
    "divisionname": "Allahabad",
    "regionname": "Allahabad",
    "circlename": "Uttar Pradesh",
    "Taluk": "Soraon",
    "Districtname": "Allahabad",
    "statename": "UTTAR PRADESH"
  },
  {
    "pincode": "212507",
    "officename": "Tejpur B.O",
    "officeType": "B.O",
    "Deliverystatus": "Non-Delivery",
    "divisionname": "Allahabad",
    "regionname": "Allahabad",
    "circlename": "Uttar Pradesh",
    "Taluk": "Soraon",
    "Districtname": "Allahabad",
    "statename": "UTTAR PRADESH"
  },
  {
    "pincode": "212507",
    "officename": "Umariasari B.O",
    "officeType": "B.O",
    "Deliverystatus": "Non-Delivery",
    "divisionname": "Allahabad",
    "regionname": "Allahabad",
    "circlename": "Uttar Pradesh",
    "Taluk": "Mauaima",
    "Districtname": "Allahabad",
    "statename": "UTTAR PRADESH"
  }
]
