[
  {
    "pincode": "212657",
    "officename": "Bakewar Sarai B.O",
    "officeType": "B.O",
    "Deliverystatus": "Delivery",
    "divisionname": "Fatehpur",
    "regionname": "Kanpur",
    "circlename": "Uttar Pradesh",
    "Taluk": "Fatehpur",
    "Districtname": "Fatehpur",
    "statename": "UTTAR PRADESH"
  },
  {
    "pincode": "212657",
    "officename": "Bara B.O",
    "officeType": "B.O",
    "Deliverystatus": "Delivery",
    "divisionname": "Fatehpur",
    "regionname": "Kanpur",
    "circlename": "Uttar Pradesh",
    "Taluk": "Fatehpur",
    "Districtname": "Fatehpur",
    "statename": "UTTAR PRADESH"
  },
  {
    "pincode": "212657",
    "officename": "Barigawan B.O",
    "officeType": "B.O",
    "Deliverystatus": "Delivery",
    "divisionname": "Fatehpur",
    "regionname": "Kanpur",
    "circlename": "Uttar Pradesh",
    "Taluk": "Fatehpur",
    "Districtname": "Fatehpur",
    "statename": "UTTAR PRADESH"
  },
  {
    "pincode": "212657",
    "officename": "Basant Khera B.O",
    "officeType": "B.O",
    "Deliverystatus": "Delivery",
    "divisionname": "Fatehpur",
    "regionname": "Kanpur",
    "circlename": "Uttar Pradesh",
    "Taluk": "Fatehpur",
    "Districtname": "Fatehpur",
    "statename": "UTTAR PRADESH"
  },
  {
    "pincode": "212657",
    "officename": "Bhaisauli B.O",
    "officeType": "B.O",
    "Deliverystatus": "Delivery",
    "divisionname": "Fatehpur",
    "regionname": "Kanpur",
    "circlename": "Uttar Pradesh",
    "Taluk": "Fatehpur",
    "Districtname": "Fatehpur",
    "statename": "UTTAR PRADESH"
  },
  {
    "pincode": "212657",
    "officename": "Bijauli B.O",
    "officeType": "B.O",
    "Deliverystatus": "Delivery",
    "divisionname": "Fatehpur",
    "regionname": "Kanpur",
    "circlename": "Uttar Pradesh",
    "Taluk": "Fatehpur",
    "Districtname": "Fatehpur",
    "statename": "UTTAR PRADESH"
  },
  {
    "pincode": "212657",
    "officename": "Bijuri B.O",
    "officeType": "B.O",
    "Deliverystatus": "Delivery",
    "divisionname": "Fatehpur",
    "regionname": "Kanpur",
    "circlename": "Uttar Pradesh",
    "Taluk": "Fatehpur",
    "Districtname": "Fatehpur",
    "statename": "UTTAR PRADESH"
  },
  {
    "pincode": "212657",
    "officename": "Deomai B.O",
    "officeType": "B.O",
    "Deliverystatus": "Delivery",
    "divisionname": "Fatehpur",
    "regionname": "Kanpur",
    "circlename": "Uttar Pradesh",
    "Taluk": "Fatehpur",
    "Districtname": "Fatehpur",
    "statename": "UTTAR PRADESH"
  },
  {
    "pincode": "212657",
    "officename": "Deori Bujurg B.O",
    "officeType": "B.O",
    "Deliverystatus": "Delivery",
    "divisionname": "Fatehpur",
    "regionname": "Kanpur",
    "circlename": "Uttar Pradesh",
    "Taluk": "Fatehpur",
    "Districtname": "Fatehpur",
    "statename": "UTTAR PRADESH"
  },
  {
    "pincode": "212657",
    "officename": "Digharua B.O",
    "officeType": "B.O",
    "Deliverystatus": "Delivery",
    "divisionname": "Fatehpur",
    "regionname": "Kanpur",
    "circlename": "Uttar Pradesh",
    "Taluk": "Fatehpur",
    "Districtname": "Fatehpur",
    "statename": "UTTAR PRADESH"
  },
  {
    "pincode": "212657",
    "officename": "Jafarganj B.O",
    "officeType": "B.O",
    "Deliverystatus": "Delivery",
    "divisionname": "Fatehpur",
    "regionname": "Kanpur",
    "circlename": "Uttar Pradesh",
    "Taluk": "Fatehpur",
    "Districtname": "Fatehpur",
    "statename": "UTTAR PRADESH"
  },
  {
    "pincode": "212657",
    "officename": "Khajuha S.O",
    "officeType": "S.O",
    "Deliverystatus": "Delivery",
    "divisionname": "Fatehpur",
    "regionname": "Kanpur",
    "circlename": "Uttar Pradesh",
    "Taluk": "Fatehpur",
    "Districtname": "Fatehpur",
    "statename": "UTTAR PRADESH"
  },
  {
    "pincode": "212657",
    "officename": "Khotila Sijauli B.O",
    "officeType": "B.O",
    "Deliverystatus": "Delivery",
    "divisionname": "Fatehpur",
    "regionname": "Kanpur",
    "circlename": "Uttar Pradesh",
    "Taluk": "Fatehpur",
    "Districtname": "Fatehpur",
    "statename": "UTTAR PRADESH"
  },
  {
    "pincode": "212657",
    "officename": "Missi B.O",
    "officeType": "B.O",
    "Deliverystatus": "Delivery",
    "divisionname": "Fatehpur",
    "regionname": "Kanpur",
    "circlename": "Uttar Pradesh",
    "Taluk": "Fatehpur",
    "Districtname": "Fatehpur",
    "statename": "UTTAR PRADESH"
  },
  {
    "pincode": "212657",
    "officename": "Musafa B.O",
    "officeType": "B.O",
    "Deliverystatus": "Delivery",
    "divisionname": "Fatehpur",
    "regionname": "Kanpur",
    "circlename": "Uttar Pradesh",
    "Taluk": "Fatehpur",
    "Districtname": "Fatehpur",
    "statename": "UTTAR PRADESH"
  },
  {
    "pincode": "212657",
    "officename": "Naraicha B.O",
    "officeType": "B.O",
    "Deliverystatus": "Delivery",
    "divisionname": "Fatehpur",
    "regionname": "Kanpur",
    "circlename": "Uttar Pradesh",
    "Taluk": "Fatehpur",
    "Districtname": "Fatehpur",
    "statename": "UTTAR PRADESH"
  },
  {
    "pincode": "212657",
    "officename": "Selawan B.O",
    "officeType": "B.O",
    "Deliverystatus": "Delivery",
    "divisionname": "Fatehpur",
    "regionname": "Kanpur",
    "circlename": "Uttar Pradesh",
    "Taluk": "Fatehpur",
    "Districtname": "Fatehpur",
    "statename": "UTTAR PRADESH"
  },
  {
    "pincode": "212657",
    "officename": "Sultangarh B.O",
    "officeType": "B.O",
    "Deliverystatus": "Delivery",
    "divisionname": "Fatehpur",
    "regionname": "Kanpur",
    "circlename": "Uttar Pradesh",
    "Taluk": "Fatehpur",
    "Districtname": "Fatehpur",
    "statename": "UTTAR PRADESH"
  }
]
