[
  {
    "pincode": "212665",
    "officename": "Abhaipur B.O",
    "officeType": "B.O",
    "Deliverystatus": "Delivery",
    "divisionname": "Fatehpur",
    "regionname": "Kanpur",
    "circlename": "Uttar Pradesh",
    "Taluk": "Fatehpur",
    "Districtname": "Fatehpur",
    "statename": "UTTAR PRADESH"
  },
  {
    "pincode": "212665",
    "officename": "Aung B.O",
    "officeType": "B.O",
    "Deliverystatus": "Delivery",
    "divisionname": "Fatehpur",
    "regionname": "Kanpur",
    "circlename": "Uttar Pradesh",
    "Taluk": "Fatehpur",
    "Districtname": "Fatehpur",
    "statename": "UTTAR PRADESH"
  },
  {
    "pincode": "212665",
    "officename": "Gugauli B.O",
    "officeType": "B.O",
    "Deliverystatus": "Delivery",
    "divisionname": "Fatehpur",
    "regionname": "Kanpur",
    "circlename": "Uttar Pradesh",
    "Taluk": "Fatehpur",
    "Districtname": "Fatehpur",
    "statename": "UTTAR PRADESH"
  },
  {
    "pincode": "212665",
    "officename": "Khadra B.O",
    "officeType": "B.O",
    "Deliverystatus": "Delivery",
    "divisionname": "Fatehpur",
    "regionname": "Kanpur",
    "circlename": "Uttar Pradesh",
    "Taluk": "Fatehpur",
    "Districtname": "Fatehpur",
    "statename": "UTTAR PRADESH"
  },
  {
    "pincode": "212665",
    "officename": "Korsam B.O",
    "officeType": "B.O",
    "Deliverystatus": "Delivery",
    "divisionname": "Fatehpur",
    "regionname": "Kanpur",
    "circlename": "Uttar Pradesh",
    "Taluk": "Fatehpur",
    "Districtname": "Fatehpur",
    "statename": "UTTAR PRADESH"
  },
  {
    "pincode": "212665",
    "officename": "Madokipur B.O",
    "officeType": "B.O",
    "Deliverystatus": "Delivery",
    "divisionname": "Fatehpur",
    "regionname": "Kanpur",
    "circlename": "Uttar Pradesh",
    "Taluk": "Fatehpur",
    "Districtname": "Fatehpur",
    "statename": "UTTAR PRADESH"
  },
  {
    "pincode": "212665",
    "officename": "Mauhar S.O",
    "officeType": "S.O",
    "Deliverystatus": "Delivery",
    "divisionname": "Fatehpur",
    "regionname": "Kanpur",
    "circlename": "Uttar Pradesh",
    "Taluk": "Fatehpur",
    "Districtname": "Fatehpur",
    "statename": "UTTAR PRADESH"
  },
  {
    "pincode": "212665",
    "officename": "Mirai B.O",
    "officeType": "B.O",
    "Deliverystatus": "Delivery",
    "divisionname": "Fatehpur",
    "regionname": "Kanpur",
    "circlename": "Uttar Pradesh",
    "Taluk": "Fatehpur",
    "Districtname": "Fatehpur",
    "statename": "UTTAR PRADESH"
  },
  {
    "pincode": "212665",
    "officename": "Padhara B.O",
    "officeType": "B.O",
    "Deliverystatus": "Delivery",
    "divisionname": "Fatehpur",
    "regionname": "Kanpur",
    "circlename": "Uttar Pradesh",
    "Taluk": "Fatehpur",
    "Districtname": "Fatehpur",
    "statename": "UTTAR PRADESH"
  },
  {
    "pincode": "212665",
    "officename": "Shadipur B.O",
    "officeType": "B.O",
    "Deliverystatus": "Delivery",
    "divisionname": "Fatehpur",
    "regionname": "Kanpur",
    "circlename": "Uttar Pradesh",
    "Taluk": "Fatehpur",
    "Districtname": "Fatehpur",
    "statename": "UTTAR PRADESH"
  },
  {
    "pincode": "212665",
    "officename": "Sheorajpur B.O",
    "officeType": "B.O",
    "Deliverystatus": "Delivery",
    "divisionname": "Fatehpur",
    "regionname": "Kanpur",
    "circlename": "Uttar Pradesh",
    "Taluk": "Fatehpur",
    "Districtname": "Fatehpur",
    "statename": "UTTAR PRADESH"
  }
]
