[
  {
    "pincode": "212658",
    "officename": "Anjana Bhairaon B.O",
    "officeType": "B.O",
    "Deliverystatus": "Delivery",
    "divisionname": "Fatehpur",
    "regionname": "Kanpur",
    "circlename": "Uttar Pradesh",
    "Taluk": "Fatehpur",
    "Districtname": "Fatehpur",
    "statename": "UTTAR PRADESH"
  },
  {
    "pincode": "212658",
    "officename": "Beonti B.O",
    "officeType": "B.O",
    "Deliverystatus": "Delivery",
    "divisionname": "Fatehpur",
    "regionname": "Kanpur",
    "circlename": "Uttar Pradesh",
    "Taluk": "Fatehpur",
    "Districtname": "Fatehpur",
    "statename": "UTTAR PRADESH"
  },
  {
    "pincode": "212658",
    "officename": "Chandapur B.O",
    "officeType": "B.O",
    "Deliverystatus": "Delivery",
    "divisionname": "Fatehpur",
    "regionname": "Kanpur",
    "circlename": "Uttar Pradesh",
    "Taluk": "Fatehpur",
    "Districtname": "Fatehpur",
    "statename": "UTTAR PRADESH"
  },
  {
    "pincode": "212658",
    "officename": "Ekdala B.O",
    "officeType": "B.O",
    "Deliverystatus": "Delivery",
    "divisionname": "Fatehpur",
    "regionname": "Kanpur",
    "circlename": "Uttar Pradesh",
    "Taluk": "Fatehpur",
    "Districtname": "Fatehpur",
    "statename": "UTTAR PRADESH"
  },
  {
    "pincode": "212658",
    "officename": "Garha B.O",
    "officeType": "B.O",
    "Deliverystatus": "Delivery",
    "divisionname": "Fatehpur",
    "regionname": "Kanpur",
    "circlename": "Uttar Pradesh",
    "Taluk": "Fatehpur",
    "Districtname": "Fatehpur",
    "statename": "UTTAR PRADESH"
  },
  {
    "pincode": "212658",
    "officename": "Kishanpur S.O (Fatehpur)",
    "officeType": "S.O",
    "Deliverystatus": "Delivery",
    "divisionname": "Fatehpur",
    "regionname": "Kanpur",
    "circlename": "Uttar Pradesh",
    "Taluk": "Fatehpur",
    "Districtname": "Fatehpur",
    "statename": "UTTAR PRADESH"
  },
  {
    "pincode": "212658",
    "officename": "Malookbari B.O",
    "officeType": "B.O",
    "Deliverystatus": "Delivery",
    "divisionname": "Fatehpur",
    "regionname": "Kanpur",
    "circlename": "Uttar Pradesh",
    "Taluk": "Fatehpur",
    "Districtname": "Fatehpur",
    "statename": "UTTAR PRADESH"
  },
  {
    "pincode": "212658",
    "officename": "Narauli B.O",
    "officeType": "B.O",
    "Deliverystatus": "Delivery",
    "divisionname": "Fatehpur",
    "regionname": "Kanpur",
    "circlename": "Uttar Pradesh",
    "Taluk": "Fatehpur",
    "Districtname": "Fatehpur",
    "statename": "UTTAR PRADESH"
  },
  {
    "pincode": "212658",
    "officename": "Paharpur B.O",
    "officeType": "B.O",
    "Deliverystatus": "Delivery",
    "divisionname": "Fatehpur",
    "regionname": "Kanpur",
    "circlename": "Uttar Pradesh",
    "Taluk": "Fatehpur",
    "Districtname": "Fatehpur",
    "statename": "UTTAR PRADESH"
  },
  {
    "pincode": "212658",
    "officename": "Raipur Bhasraul B.O",
    "officeType": "B.O",
    "Deliverystatus": "Delivery",
    "divisionname": "Fatehpur",
    "regionname": "Kanpur",
    "circlename": "Uttar Pradesh",
    "Taluk": "Fatehpur",
    "Districtname": "Fatehpur",
    "statename": "UTTAR PRADESH"
  },
  {
    "pincode": "212658",
    "officename": "Rari B.O",
    "officeType": "B.O",
    "Deliverystatus": "Delivery",
    "divisionname": "Fatehpur",
    "regionname": "Kanpur",
    "circlename": "Uttar Pradesh",
    "Taluk": "Fatehpur",
    "Districtname": "Fatehpur",
    "statename": "UTTAR PRADESH"
  },
  {
    "pincode": "212658",
    "officename": "Sarauli B.O",
    "officeType": "B.O",
    "Deliverystatus": "Delivery",
    "divisionname": "Fatehpur",
    "regionname": "Kanpur",
    "circlename": "Uttar Pradesh",
    "Taluk": "Fatehpur",
    "Districtname": "Fatehpur",
    "statename": "UTTAR PRADESH"
  },
  {
    "pincode": "212658",
    "officename": "Sarkandi B.O",
    "officeType": "B.O",
    "Deliverystatus": "Delivery",
    "divisionname": "Fatehpur",
    "regionname": "Kanpur",
    "circlename": "Uttar Pradesh",
    "Taluk": "Fatehpur",
    "Districtname": "Fatehpur",
    "statename": "UTTAR PRADESH"
  }
]
