[
  {
    "pincode": "212650",
    "officename": "Amilihapal B.O",
    "officeType": "B.O",
    "Deliverystatus": "Delivery",
    "divisionname": "Fatehpur",
    "regionname": "Kanpur",
    "circlename": "Uttar Pradesh",
    "Taluk": "Fatehpur",
    "Districtname": "Fatehpur",
    "statename": "UTTAR PRADESH"
  },
  {
    "pincode": "212650",
    "officename": "Chheolaha S.O",
    "officeType": "S.O",
    "Deliverystatus": "Delivery",
    "divisionname": "Fatehpur",
    "regionname": "Kanpur",
    "circlename": "Uttar Pradesh",
    "Taluk": "Fatehpur",
    "Districtname": "Fatehpur",
    "statename": "UTTAR PRADESH"
  },
  {
    "pincode": "212650",
    "officename": "Gaura Bujurg B.O",
    "officeType": "B.O",
    "Deliverystatus": "Delivery",
    "divisionname": "Fatehpur",
    "regionname": "Kanpur",
    "circlename": "Uttar Pradesh",
    "Taluk": "Fatehpur",
    "Districtname": "Fatehpur",
    "statename": "UTTAR PRADESH"
  },
  {
    "pincode": "212650",
    "officename": "Hasaupur B.O",
    "officeType": "B.O",
    "Deliverystatus": "Delivery",
    "divisionname": "Fatehpur",
    "regionname": "Kanpur",
    "circlename": "Uttar Pradesh",
    "Taluk": "Fatehpur",
    "Districtname": "Fatehpur",
    "statename": "UTTAR PRADESH"
  },
  {
    "pincode": "212650",
    "officename": "Karmon B.O",
    "officeType": "B.O",
    "Deliverystatus": "Delivery",
    "divisionname": "Fatehpur",
    "regionname": "Kanpur",
    "circlename": "Uttar Pradesh",
    "Taluk": "Fatehpur",
    "Districtname": "Fatehpur",
    "statename": "UTTAR PRADESH"
  },
  {
    "pincode": "212650",
    "officename": "Nizamuddinpur B.O",
    "officeType": "B.O",
    "Deliverystatus": "Delivery",
    "divisionname": "Fatehpur",
    "regionname": "Kanpur",
    "circlename": "Uttar Pradesh",
    "Taluk": "Fatehpur",
    "Districtname": "Fatehpur",
    "statename": "UTTAR PRADESH"
  },
  {
    "pincode": "212650",
    "officename": "Salempur B.O",
    "officeType": "B.O",
    "Deliverystatus": "Delivery",
    "divisionname": "Fatehpur",
    "regionname": "Kanpur",
    "circlename": "Uttar Pradesh",
    "Taluk": "Fatehpur",
    "Districtname": "Fatehpur",
    "statename": "UTTAR PRADESH"
  },
  {
    "pincode": "212650",
    "officename": "Yauhan B.O",
    "officeType": "B.O",
    "Deliverystatus": "Delivery",
    "divisionname": "Fatehpur",
    "regionname": "Kanpur",
    "circlename": "Uttar Pradesh",
    "Taluk": "Fatehpur",
    "Districtname": "Fatehpur",
    "statename": "UTTAR PRADESH"
  }
]
