[
  {
    "pincode": "212652",
    "officename": "Akbarpur Churai B.O",
    "officeType": "B.O",
    "Deliverystatus": "Delivery",
    "divisionname": "Fatehpur",
    "regionname": "Kanpur",
    "circlename": "Uttar Pradesh",
    "Taluk": "Fatehpur",
    "Districtname": "Fatehpur",
    "statename": "UTTAR PRADESH"
  },
  {
    "pincode": "212652",
    "officename": "Bandipur B.O",
    "officeType": "B.O",
    "Deliverystatus": "Delivery",
    "divisionname": "Fatehpur",
    "regionname": "Kanpur",
    "circlename": "Uttar Pradesh",
    "Taluk": "Fatehpur",
    "Districtname": "Fatehpur",
    "statename": "UTTAR PRADESH"
  },
  {
    "pincode": "212652",
    "officename": "Hathgaon S.O",
    "officeType": "S.O",
    "Deliverystatus": "Delivery",
    "divisionname": "Fatehpur",
    "regionname": "Kanpur",
    "circlename": "Uttar Pradesh",
    "Taluk": "Fatehpur",
    "Districtname": "Fatehpur",
    "statename": "UTTAR PRADESH"
  },
  {
    "pincode": "212652",
    "officename": "Itaily B.O",
    "officeType": "B.O",
    "Deliverystatus": "Delivery",
    "divisionname": "Fatehpur",
    "regionname": "Kanpur",
    "circlename": "Uttar Pradesh",
    "Taluk": "Fatehpur",
    "Districtname": "Fatehpur",
    "statename": "UTTAR PRADESH"
  },
  {
    "pincode": "212652",
    "officename": "Kaseruwa B.O",
    "officeType": "B.O",
    "Deliverystatus": "Delivery",
    "divisionname": "Fatehpur",
    "regionname": "Kanpur",
    "circlename": "Uttar Pradesh",
    "Taluk": "Fatehpur",
    "Districtname": "Fatehpur",
    "statename": "UTTAR PRADESH"
  },
  {
    "pincode": "212652",
    "officename": "Katra Kasimpur B.O",
    "officeType": "B.O",
    "Deliverystatus": "Delivery",
    "divisionname": "Fatehpur",
    "regionname": "Kanpur",
    "circlename": "Uttar Pradesh",
    "Taluk": "Fatehpur",
    "Districtname": "Fatehpur",
    "statename": "UTTAR PRADESH"
  },
  {
    "pincode": "212652",
    "officename": "Mohamdabad B.O",
    "officeType": "B.O",
    "Deliverystatus": "Delivery",
    "divisionname": "Fatehpur",
    "regionname": "Kanpur",
    "circlename": "Uttar Pradesh",
    "Taluk": "Fatehpur",
    "Districtname": "Fatehpur",
    "statename": "UTTAR PRADESH"
  },
  {
    "pincode": "212652",
    "officename": "Paigamberpur B.O",
    "officeType": "B.O",
    "Deliverystatus": "Delivery",
    "divisionname": "Fatehpur",
    "regionname": "Kanpur",
    "circlename": "Uttar Pradesh",
    "Taluk": "Fatehpur",
    "Districtname": "Fatehpur",
    "statename": "UTTAR PRADESH"
  },
  {
    "pincode": "212652",
    "officename": "Patti B.O",
    "officeType": "B.O",
    "Deliverystatus": "Delivery",
    "divisionname": "Fatehpur",
    "regionname": "Kanpur",
    "circlename": "Uttar Pradesh",
    "Taluk": "Fatehpur",
    "Districtname": "Fatehpur",
    "statename": "UTTAR PRADESH"
  },
  {
    "pincode": "212652",
    "officename": "Raipur Muwari B.O",
    "officeType": "B.O",
    "Deliverystatus": "Delivery",
    "divisionname": "Fatehpur",
    "regionname": "Kanpur",
    "circlename": "Uttar Pradesh",
    "Taluk": "Fatehpur",
    "Districtname": "Fatehpur",
    "statename": "UTTAR PRADESH"
  },
  {
    "pincode": "212652",
    "officename": "Saraisaba B.O",
    "officeType": "B.O",
    "Deliverystatus": "Delivery",
    "divisionname": "Fatehpur",
    "regionname": "Kanpur",
    "circlename": "Uttar Pradesh",
    "Taluk": "Fatehpur",
    "Districtname": "Fatehpur",
    "statename": "UTTAR PRADESH"
  },
  {
    "pincode": "212652",
    "officename": "Semramanapur B.O",
    "officeType": "B.O",
    "Deliverystatus": "Delivery",
    "divisionname": "Fatehpur",
    "regionname": "Kanpur",
    "circlename": "Uttar Pradesh",
    "Taluk": "Fatehpur",
    "Districtname": "Fatehpur",
    "statename": "UTTAR PRADESH"
  },
  {
    "pincode": "212652",
    "officename": "Shahpur B.O",
    "officeType": "B.O",
    "Deliverystatus": "Delivery",
    "divisionname": "Fatehpur",
    "regionname": "Kanpur",
    "circlename": "Uttar Pradesh",
    "Taluk": "Fatehpur",
    "Districtname": "Fatehpur",
    "statename": "UTTAR PRADESH"
  },
  {
    "pincode": "212652",
    "officename": "Sithaura B.O",
    "officeType": "B.O",
    "Deliverystatus": "Delivery",
    "divisionname": "Fatehpur",
    "regionname": "Kanpur",
    "circlename": "Uttar Pradesh",
    "Taluk": "Fatehpur",
    "Districtname": "Fatehpur",
    "statename": "UTTAR PRADESH"
  }
]
