[
  {
    "pincode": "221307",
    "officename": "Benipur Kundariya B.O",
    "officeType": "B.O",
    "Deliverystatus": "Delivery",
    "divisionname": "Varanasi West",
    "regionname": "Allahabad",
    "circlename": "Uttar Pradesh",
    "Taluk": "Varanasi",
    "Districtname": "Varanasi",
    "statename": "UTTAR PRADESH"
  },
  {
    "pincode": "221307",
    "officename": "Domaila B.O",
    "officeType": "B.O",
    "Deliverystatus": "Delivery",
    "divisionname": "Varanasi West",
    "regionname": "Allahabad",
    "circlename": "Uttar Pradesh",
    "Taluk": "Varanasi",
    "Districtname": "Varanasi",
    "statename": "UTTAR PRADESH"
  },
  {
    "pincode": "221307",
    "officename": "Gorai B.O",
    "officeType": "B.O",
    "Deliverystatus": "Delivery",
    "divisionname": "Varanasi West",
    "regionname": "Allahabad",
    "circlename": "Uttar Pradesh",
    "Taluk": "Varanasi",
    "Districtname": "Varanasi",
    "statename": "UTTAR PRADESH"
  },
  {
    "pincode": "221307",
    "officename": "Kardhana B.O",
    "officeType": "B.O",
    "Deliverystatus": "Delivery",
    "divisionname": "Varanasi West",
    "regionname": "Allahabad",
    "circlename": "Uttar Pradesh",
    "Taluk": "Varanasi",
    "Districtname": "Varanasi",
    "statename": "UTTAR PRADESH"
  },
  {
    "pincode": "221307",
    "officename": "Khochawan B.O",
    "officeType": "B.O",
    "Deliverystatus": "Delivery",
    "divisionname": "Varanasi West",
    "regionname": "Allahabad",
    "circlename": "Uttar Pradesh",
    "Taluk": "Varanasi",
    "Districtname": "Varanasi",
    "statename": "UTTAR PRADESH"
  },
  {
    "pincode": "221307",
    "officename": "Mankaiya B.O",
    "officeType": "B.O",
    "Deliverystatus": "Delivery",
    "divisionname": "Varanasi West",
    "regionname": "Allahabad",
    "circlename": "Uttar Pradesh",
    "Taluk": "Varanasi",
    "Districtname": "Varanasi",
    "statename": "UTTAR PRADESH"
  },
  {
    "pincode": "221307",
    "officename": "Mirzamurad S.O",
    "officeType": "S.O",
    "Deliverystatus": "Delivery",
    "divisionname": "Varanasi West",
    "regionname": "Allahabad",
    "circlename": "Uttar Pradesh",
    "Taluk": "Varanasi",
    "Districtname": "Varanasi",
    "statename": "UTTAR PRADESH"
  },
  {
    "pincode": "221307",
    "officename": "Thathara B.O",
    "officeType": "B.O",
    "Deliverystatus": "Delivery",
    "divisionname": "Varanasi West",
    "regionname": "Allahabad",
    "circlename": "Uttar Pradesh",
    "Taluk": "Varanasi",
    "Districtname": "Varanasi",
    "statename": "UTTAR PRADESH"
  }
]
