[
  {
    "pincode": "221309",
    "officename": "Baripur B.O",
    "officeType": "B.O",
    "Deliverystatus": "Delivery",
    "divisionname": "Varanasi West",
    "regionname": "Allahabad",
    "circlename": "Uttar Pradesh",
    "Taluk": "Gyanpur",
    "Districtname": "Sant Ravidas Nagar",
    "statename": "UTTAR PRADESH"
  },
  {
    "pincode": "221309",
    "officename": "Berawa Paharpur B.O",
    "officeType": "B.O",
    "Deliverystatus": "Delivery",
    "divisionname": "Varanasi West",
    "regionname": "Allahabad",
    "circlename": "Uttar Pradesh",
    "Taluk": "Gyanpur",
    "Districtname": "Sant Ravidas Nagar",
    "statename": "UTTAR PRADESH"
  },
  {
    "pincode": "221309",
    "officename": "Chhechhuwan B.O",
    "officeType": "B.O",
    "Deliverystatus": "Delivery",
    "divisionname": "Varanasi West",
    "regionname": "Allahabad",
    "circlename": "Uttar Pradesh",
    "Taluk": "Gyanpur",
    "Districtname": "Sant Ravidas Nagar",
    "statename": "UTTAR PRADESH"
  },
  {
    "pincode": "221309",
    "officename": "Dhantulsi B.O",
    "officeType": "B.O",
    "Deliverystatus": "Delivery",
    "divisionname": "Varanasi West",
    "regionname": "Allahabad",
    "circlename": "Uttar Pradesh",
    "Taluk": "Gyanpur",
    "Districtname": "Sant Ravidas Nagar",
    "statename": "UTTAR PRADESH"
  },
  {
    "pincode": "221309",
    "officename": "Digh B.O",
    "officeType": "B.O",
    "Deliverystatus": "Delivery",
    "divisionname": "Varanasi West",
    "regionname": "Allahabad",
    "circlename": "Uttar Pradesh",
    "Taluk": "Gyanpur",
    "Districtname": "Sant Ravidas Nagar",
    "statename": "UTTAR PRADESH"
  },
  {
    "pincode": "221309",
    "officename": "Ithara B.O",
    "officeType": "B.O",
    "Deliverystatus": "Delivery",
    "divisionname": "Varanasi West",
    "regionname": "Allahabad",
    "circlename": "Uttar Pradesh",
    "Taluk": "Gyanpur",
    "Districtname": "Sant Ravidas Nagar",
    "statename": "UTTAR PRADESH"
  },
  {
    "pincode": "221309",
    "officename": "Katra Bazar B.O",
    "officeType": "B.O",
    "Deliverystatus": "Delivery",
    "divisionname": "Varanasi West",
    "regionname": "Allahabad",
    "circlename": "Uttar Pradesh",
    "Taluk": "Bhadohi",
    "Districtname": "Sant Ravidas Nagar",
    "statename": "UTTAR PRADESH"
  },
  {
    "pincode": "221309",
    "officename": "Koirauna S.O",
    "officeType": "S.O",
    "Deliverystatus": "Delivery",
    "divisionname": "Varanasi West",
    "regionname": "Allahabad",
    "circlename": "Uttar Pradesh",
    "Taluk": "Gyanpur",
    "Districtname": "Sant Ravidas Nagar",
    "statename": "UTTAR PRADESH"
  },
  {
    "pincode": "221309",
    "officename": "Narepar Sitamarhi B.O",
    "officeType": "B.O",
    "Deliverystatus": "Delivery",
    "divisionname": "Varanasi West",
    "regionname": "Allahabad",
    "circlename": "Uttar Pradesh",
    "Taluk": "Gyanpur",
    "Districtname": "Sant Ravidas Nagar",
    "statename": "UTTAR PRADESH"
  }
]
