[
  {
    "pincode": "221405",
    "officename": "Basantpur B.O",
    "officeType": "B.O",
    "Deliverystatus": "Delivery",
    "divisionname": "Varanasi West",
    "regionname": "Allahabad",
    "circlename": "Uttar Pradesh",
    "Taluk": "Varanasi",
    "Districtname": "Varanasi",
    "statename": "UTTAR PRADESH"
  },
  {
    "pincode": "221405",
    "officename": "Daipur B.O",
    "officeType": "B.O",
    "Deliverystatus": "Delivery",
    "divisionname": "Varanasi West",
    "regionname": "Allahabad",
    "circlename": "Uttar Pradesh",
    "Taluk": "Varanasi",
    "Districtname": "Varanasi",
    "statename": "UTTAR PRADESH"
  },
  {
    "pincode": "221405",
    "officename": "Hariharpur B.O",
    "officeType": "B.O",
    "Deliverystatus": "Delivery",
    "divisionname": "Varanasi West",
    "regionname": "Allahabad",
    "circlename": "Uttar Pradesh",
    "Taluk": "Varanasi",
    "Districtname": "Varanasi",
    "statename": "UTTAR PRADESH"
  },
  {
    "pincode": "221405",
    "officename": "Hathi Bazar S.O",
    "officeType": "S.O",
    "Deliverystatus": "Delivery",
    "divisionname": "Varanasi West",
    "regionname": "Allahabad",
    "circlename": "Uttar Pradesh",
    "Taluk": "Varanasi",
    "Districtname": "Varanasi",
    "statename": "UTTAR PRADESH"
  },
  {
    "pincode": "221405",
    "officename": "Jansa Bazar B.O",
    "officeType": "B.O",
    "Deliverystatus": "Delivery",
    "divisionname": "Varanasi West",
    "regionname": "Allahabad",
    "circlename": "Uttar Pradesh",
    "Taluk": "Pindra **",
    "Districtname": "Varanasi",
    "statename": "UTTAR PRADESH"
  },
  {
    "pincode": "221405",
    "officename": "Khewali B.O",
    "officeType": "B.O",
    "Deliverystatus": "Delivery",
    "divisionname": "Varanasi West",
    "regionname": "Allahabad",
    "circlename": "Uttar Pradesh",
    "Taluk": "Varanasi",
    "Districtname": "Varanasi",
    "statename": "UTTAR PRADESH"
  },
  {
    "pincode": "221405",
    "officename": "Raisipur B.O",
    "officeType": "B.O",
    "Deliverystatus": "Delivery",
    "divisionname": "Varanasi West",
    "regionname": "Allahabad",
    "circlename": "Uttar Pradesh",
    "Taluk": "Varanasi",
    "Districtname": "Varanasi",
    "statename": "UTTAR PRADESH"
  },
  {
    "pincode": "221405",
    "officename": "Rameswar B.O",
    "officeType": "B.O",
    "Deliverystatus": "Delivery",
    "divisionname": "Varanasi West",
    "regionname": "Allahabad",
    "circlename": "Uttar Pradesh",
    "Taluk": "Varanasi",
    "Districtname": "Varanasi",
    "statename": "UTTAR PRADESH"
  }
]
