[
  {
    "pincode": "221404",
    "officename": "Abarana B.O",
    "officeType": "B.O",
    "Deliverystatus": "Delivery",
    "divisionname": "Varanasi West",
    "regionname": "Allahabad",
    "circlename": "Uttar Pradesh",
    "Taluk": "Gyanpur",
    "Districtname": "Sant Ravidas Nagar",
    "statename": "UTTAR PRADESH"
  },
  {
    "pincode": "221404",
    "officename": "Abhiya B.O",
    "officeType": "B.O",
    "Deliverystatus": "Delivery",
    "divisionname": "Varanasi West",
    "regionname": "Allahabad",
    "circlename": "Uttar Pradesh",
    "Taluk": "Bhadohi",
    "Districtname": "Sant Ravidas Nagar",
    "statename": "UTTAR PRADESH"
  },
  {
    "pincode": "221404",
    "officename": "Abholi B.O",
    "officeType": "B.O",
    "Deliverystatus": "Delivery",
    "divisionname": "Varanasi West",
    "regionname": "Allahabad",
    "circlename": "Uttar Pradesh",
    "Taluk": "Gyanpur",
    "Districtname": "Sant Ravidas Nagar",
    "statename": "UTTAR PRADESH"
  },
  {
    "pincode": "221404",
    "officename": "Bauribojh B.O",
    "officeType": "B.O",
    "Deliverystatus": "Delivery",
    "divisionname": "Varanasi West",
    "regionname": "Allahabad",
    "circlename": "Uttar Pradesh",
    "Taluk": "Gyanpur",
    "Districtname": "Sant Ravidas Nagar",
    "statename": "UTTAR PRADESH"
  },
  {
    "pincode": "221404",
    "officename": "Bhanda B.O",
    "officeType": "B.O",
    "Deliverystatus": "Delivery",
    "divisionname": "Varanasi West",
    "regionname": "Allahabad",
    "circlename": "Uttar Pradesh",
    "Taluk": "Gyanpur",
    "Districtname": "Sant Ravidas Nagar",
    "statename": "UTTAR PRADESH"
  },
  {
    "pincode": "221404",
    "officename": "Bhikharirampur B.O",
    "officeType": "B.O",
    "Deliverystatus": "Delivery",
    "divisionname": "Varanasi West",
    "regionname": "Allahabad",
    "circlename": "Uttar Pradesh",
    "Taluk": "Gyanpur",
    "Districtname": "Sant Ravidas Nagar",
    "statename": "UTTAR PRADESH"
  },
  {
    "pincode": "221404",
    "officename": "Bhori B.O",
    "officeType": "B.O",
    "Deliverystatus": "Delivery",
    "divisionname": "Varanasi West",
    "regionname": "Allahabad",
    "circlename": "Uttar Pradesh",
    "Taluk": "Gyanpur",
    "Districtname": "Sant Ravidas Nagar",
    "statename": "UTTAR PRADESH"
  },
  {
    "pincode": "221404",
    "officename": "Bisauli Kripalpur B.O",
    "officeType": "B.O",
    "Deliverystatus": "Delivery",
    "divisionname": "Varanasi West",
    "regionname": "Allahabad",
    "circlename": "Uttar Pradesh",
    "Taluk": "Gyanpur",
    "Districtname": "Sant Ravidas Nagar",
    "statename": "UTTAR PRADESH"
  },
  {
    "pincode": "221404",
    "officename": "Durgaganj B.O",
    "officeType": "B.O",
    "Deliverystatus": "Delivery",
    "divisionname": "Varanasi West",
    "regionname": "Allahabad",
    "circlename": "Uttar Pradesh",
    "Taluk": "Bhadohi",
    "Districtname": "Sant Ravidas Nagar",
    "statename": "UTTAR PRADESH"
  },
  {
    "pincode": "221404",
    "officename": "Ekauni B.O",
    "officeType": "B.O",
    "Deliverystatus": "Delivery",
    "divisionname": "Varanasi West",
    "regionname": "Allahabad",
    "circlename": "Uttar Pradesh",
    "Taluk": "Gyanpur",
    "Districtname": "Sant Ravidas Nagar",
    "statename": "UTTAR PRADESH"
  },
  {
    "pincode": "221404",
    "officename": "Gaura B.O",
    "officeType": "B.O",
    "Deliverystatus": "Delivery",
    "divisionname": "Varanasi West",
    "regionname": "Allahabad",
    "circlename": "Uttar Pradesh",
    "Taluk": "Gyanpur",
    "Districtname": "Sant Ravidas Nagar",
    "statename": "UTTAR PRADESH"
  },
  {
    "pincode": "221404",
    "officename": "Kador B.O",
    "officeType": "B.O",
    "Deliverystatus": "Delivery",
    "divisionname": "Varanasi West",
    "regionname": "Allahabad",
    "circlename": "Uttar Pradesh",
    "Taluk": "Gyanpur",
    "Districtname": "Sant Ravidas Nagar",
    "statename": "UTTAR PRADESH"
  },
  {
    "pincode": "221404",
    "officename": "Matethu B.O",
    "officeType": "B.O",
    "Deliverystatus": "Delivery",
    "divisionname": "Varanasi West",
    "regionname": "Allahabad",
    "circlename": "Uttar Pradesh",
    "Taluk": "Gyanpur",
    "Districtname": "Sant Ravidas Nagar",
    "statename": "UTTAR PRADESH"
  },
  {
    "pincode": "221404",
    "officename": "Patti Bejaon B.O",
    "officeType": "B.O",
    "Deliverystatus": "Delivery",
    "divisionname": "Varanasi West",
    "regionname": "Allahabad",
    "circlename": "Uttar Pradesh",
    "Taluk": "Bhadohi",
    "Districtname": "Sant Ravidas Nagar",
    "statename": "UTTAR PRADESH"
  },
  {
    "pincode": "221404",
    "officename": "Sanda B.O",
    "officeType": "B.O",
    "Deliverystatus": "Delivery",
    "divisionname": "Varanasi West",
    "regionname": "Allahabad",
    "circlename": "Uttar Pradesh",
    "Taluk": "Gyanpur",
    "Districtname": "Sant Ravidas Nagar",
    "statename": "UTTAR PRADESH"
  },
  {
    "pincode": "221404",
    "officename": "Sarai Kansrai B.O",
    "officeType": "B.O",
    "Deliverystatus": "Delivery",
    "divisionname": "Varanasi West",
    "regionname": "Allahabad",
    "circlename": "Uttar Pradesh",
    "Taluk": "Gyanpur",
    "Districtname": "Sant Ravidas Nagar",
    "statename": "UTTAR PRADESH"
  },
  {
    "pincode": "221404",
    "officename": "Suriyawan S.O",
    "officeType": "S.O",
    "Deliverystatus": "Delivery",
    "divisionname": "Varanasi West",
    "regionname": "Allahabad",
    "circlename": "Uttar Pradesh",
    "Taluk": "Bhadohi",
    "Districtname": "Sant Ravidas Nagar",
    "statename": "UTTAR PRADESH"
  }
]
