[
  {
    "pincode": "221401",
    "officename": "Asanao Bazar B.O",
    "officeType": "B.O",
    "Deliverystatus": "Delivery",
    "divisionname": "Varanasi West",
    "regionname": "Allahabad",
    "circlename": "Uttar Pradesh",
    "Taluk": "Gyanpur",
    "Districtname": "Sant Ravidas Nagar",
    "statename": "UTTAR PRADESH"
  },
  {
    "pincode": "221401",
    "officename": "Bhadohi S.O",
    "officeType": "S.O",
    "Deliverystatus": "Delivery",
    "divisionname": "Varanasi West",
    "regionname": "Allahabad",
    "circlename": "Uttar Pradesh",
    "Taluk": "Bhadohi",
    "Districtname": "Sant Ravidas Nagar",
    "statename": "UTTAR PRADESH"
  },
  {
    "pincode": "221401",
    "officename": "Katra Bazar S.O (Varanasi)",
    "officeType": "S.O",
    "Deliverystatus": "Non-Delivery",
    "divisionname": "Varanasi West",
    "regionname": "Allahabad",
    "circlename": "Uttar Pradesh",
    "Taluk": "Varanasi",
    "Districtname": "Varanasi",
    "statename": "UTTAR PRADESH"
  },
  {
    "pincode": "221401",
    "officename": "Munsiladpur B.O",
    "officeType": "B.O",
    "Deliverystatus": "Delivery",
    "divisionname": "Varanasi West",
    "regionname": "Allahabad",
    "circlename": "Uttar Pradesh",
    "Taluk": "Gyanpur",
    "Districtname": "Sant Ravidas Nagar",
    "statename": "UTTAR PRADESH"
  },
  {
    "pincode": "221401",
    "officename": "Pipris B.O",
    "officeType": "B.O",
    "Deliverystatus": "Delivery",
    "divisionname": "Varanasi West",
    "regionname": "Allahabad",
    "circlename": "Uttar Pradesh",
    "Taluk": "Gyanpur",
    "Districtname": "Sant Ravidas Nagar",
    "statename": "UTTAR PRADESH"
  },
  {
    "pincode": "221401",
    "officename": "Raya B.O",
    "officeType": "B.O",
    "Deliverystatus": "Delivery",
    "divisionname": "Varanasi West",
    "regionname": "Allahabad",
    "circlename": "Uttar Pradesh",
    "Taluk": "Gyanpur",
    "Districtname": "Sant Ravidas Nagar",
    "statename": "UTTAR PRADESH"
  },
  {
    "pincode": "221401",
    "officename": "Sarroi B.O",
    "officeType": "B.O",
    "Deliverystatus": "Delivery",
    "divisionname": "Varanasi West",
    "regionname": "Allahabad",
    "circlename": "Uttar Pradesh",
    "Taluk": "Bhadohi",
    "Districtname": "Sant Ravidas Nagar",
    "statename": "UTTAR PRADESH"
  },
  {
    "pincode": "221401",
    "officename": "Uchetha B.O",
    "officeType": "B.O",
    "Deliverystatus": "Delivery",
    "divisionname": "Varanasi West",
    "regionname": "Allahabad",
    "circlename": "Uttar Pradesh",
    "Taluk": "Gyanpur",
    "Districtname": "Sant Ravidas Nagar",
    "statename": "UTTAR PRADESH"
  }
]
