[
  {
    "pincode": "221503",
    "officename": "Bamaila B.O",
    "officeType": "B.O",
    "Deliverystatus": "Non-Delivery",
    "divisionname": "Allahabad",
    "regionname": "Allahabad",
    "circlename": "Uttar Pradesh",
    "Taluk": "Handia",
    "Districtname": "Allahabad",
    "statename": "UTTAR PRADESH"
  },
  {
    "pincode": "221503",
    "officename": "Beerapur B.O",
    "officeType": "B.O",
    "Deliverystatus": "Non-Delivery",
    "divisionname": "Allahabad",
    "regionname": "Allahabad",
    "circlename": "Uttar Pradesh",
    "Taluk": "Handia",
    "Districtname": "Allahabad",
    "statename": "UTTAR PRADESH"
  },
  {
    "pincode": "221503",
    "officename": "Bhopatpur B.O",
    "officeType": "B.O",
    "Deliverystatus": "Non-Delivery",
    "divisionname": "Allahabad",
    "regionname": "Allahabad",
    "circlename": "Uttar Pradesh",
    "Taluk": "Handia",
    "Districtname": "Allahabad",
    "statename": "UTTAR PRADESH"
  },
  {
    "pincode": "221503",
    "officename": "Dhanupur B.O",
    "officeType": "B.O",
    "Deliverystatus": "Delivery",
    "divisionname": "Allahabad",
    "regionname": "Allahabad",
    "circlename": "Uttar Pradesh",
    "Taluk": "Allahabad",
    "Districtname": "Allahabad",
    "statename": "UTTAR PRADESH"
  },
  {
    "pincode": "221503",
    "officename": "Handi T I B.O",
    "officeType": "B.O",
    "Deliverystatus": "Delivery",
    "divisionname": "Allahabad",
    "regionname": "Allahabad",
    "circlename": "Uttar Pradesh",
    "Taluk": "Allahabad",
    "Districtname": "Allahabad",
    "statename": "UTTAR PRADESH"
  },
  {
    "pincode": "221503",
    "officename": "Handia S.O",
    "officeType": "S.O",
    "Deliverystatus": "Delivery",
    "divisionname": "Allahabad",
    "regionname": "Allahabad",
    "circlename": "Uttar Pradesh",
    "Taluk": "Handia",
    "Districtname": "Allahabad",
    "statename": "UTTAR PRADESH"
  },
  {
    "pincode": "221503",
    "officename": "Haripur Marron B.O",
    "officeType": "B.O",
    "Deliverystatus": "Non-Delivery",
    "divisionname": "Allahabad",
    "regionname": "Allahabad",
    "circlename": "Uttar Pradesh",
    "Taluk": "Handia",
    "Districtname": "Allahabad",
    "statename": "UTTAR PRADESH"
  },
  {
    "pincode": "221503",
    "officename": "Jagdishpur B.O",
    "officeType": "B.O",
    "Deliverystatus": "Non-Delivery",
    "divisionname": "Allahabad",
    "regionname": "Allahabad",
    "circlename": "Uttar Pradesh",
    "Taluk": "Handia",
    "Districtname": "Allahabad",
    "statename": "UTTAR PRADESH"
  },
  {
    "pincode": "221503",
    "officename": "Jaguwa B.O",
    "officeType": "B.O",
    "Deliverystatus": "Non-Delivery",
    "divisionname": "Allahabad",
    "regionname": "Allahabad",
    "circlename": "Uttar Pradesh",
    "Taluk": "Handia",
    "Districtname": "Allahabad",
    "statename": "UTTAR PRADESH"
  },
  {
    "pincode": "221503",
    "officename": "Katahra B.O",
    "officeType": "B.O",
    "Deliverystatus": "Non-Delivery",
    "divisionname": "Allahabad",
    "regionname": "Allahabad",
    "circlename": "Uttar Pradesh",
    "Taluk": "Handia",
    "Districtname": "Allahabad",
    "statename": "UTTAR PRADESH"
  },
  {
    "pincode": "221503",
    "officename": "Lakshagrih B.O",
    "officeType": "B.O",
    "Deliverystatus": "Non-Delivery",
    "divisionname": "Allahabad",
    "regionname": "Allahabad",
    "circlename": "Uttar Pradesh",
    "Taluk": "Handia",
    "Districtname": "Allahabad",
    "statename": "UTTAR PRADESH"
  },
  {
    "pincode": "221503",
    "officename": "Mawaiya Hindwani B.O",
    "officeType": "B.O",
    "Deliverystatus": "Non-Delivery",
    "divisionname": "Allahabad",
    "regionname": "Allahabad",
    "circlename": "Uttar Pradesh",
    "Taluk": "Handia",
    "Districtname": "Allahabad",
    "statename": "UTTAR PRADESH"
  },
  {
    "pincode": "221503",
    "officename": "Prithvipur B.O",
    "officeType": "B.O",
    "Deliverystatus": "Non-Delivery",
    "divisionname": "Allahabad",
    "regionname": "Allahabad",
    "circlename": "Uttar Pradesh",
    "Taluk": "Handia",
    "Districtname": "Allahabad",
    "statename": "UTTAR PRADESH"
  },
  {
    "pincode": "221503",
    "officename": "Shahipur B.O",
    "officeType": "B.O",
    "Deliverystatus": "Non-Delivery",
    "divisionname": "Allahabad",
    "regionname": "Allahabad",
    "circlename": "Uttar Pradesh",
    "Taluk": "Handia",
    "Districtname": "Allahabad",
    "statename": "UTTAR PRADESH"
  },
  {
    "pincode": "221503",
    "officename": "Sirsa Chauraha B.O",
    "officeType": "B.O",
    "Deliverystatus": "Non-Delivery",
    "divisionname": "Allahabad",
    "regionname": "Allahabad",
    "circlename": "Uttar Pradesh",
    "Taluk": "Handia",
    "Districtname": "Allahabad",
    "statename": "UTTAR PRADESH"
  },
  {
    "pincode": "221503",
    "officename": "Siyadeeh B.O",
    "officeType": "B.O",
    "Deliverystatus": "Non-Delivery",
    "divisionname": "Allahabad",
    "regionname": "Allahabad",
    "circlename": "Uttar Pradesh",
    "Taluk": "Handia",
    "Districtname": "Allahabad",
    "statename": "UTTAR PRADESH"
  }
]
