[
  {
    "pincode": "221603",
    "officename": "Banpokhara B.O",
    "officeType": "B.O",
    "Deliverystatus": "Delivery",
    "divisionname": "Azamgarh",
    "regionname": "Gorakhpur",
    "circlename": "Uttar Pradesh",
    "Taluk": "Madhuban",
    "Districtname": "Mau",
    "statename": "UTTAR PRADESH"
  },
  {
    "pincode": "221603",
    "officename": "Baundih B.O",
    "officeType": "B.O",
    "Deliverystatus": "Delivery",
    "divisionname": "Azamgarh",
    "regionname": "Gorakhpur",
    "circlename": "Uttar Pradesh",
    "Taluk": "Madhuban",
    "Districtname": "Mau",
    "statename": "UTTAR PRADESH"
  },
  {
    "pincode": "221603",
    "officename": "Bharopur B.O",
    "officeType": "B.O",
    "Deliverystatus": "Delivery",
    "divisionname": "Azamgarh",
    "regionname": "Gorakhpur",
    "circlename": "Uttar Pradesh",
    "Taluk": "Madhuban",
    "Districtname": "Mau",
    "statename": "UTTAR PRADESH"
  },
  {
    "pincode": "221603",
    "officename": "Fatehpur Talratoy B.O",
    "officeType": "B.O",
    "Deliverystatus": "Delivery",
    "divisionname": "Azamgarh",
    "regionname": "Gorakhpur",
    "circlename": "Uttar Pradesh",
    "Taluk": "Madhuban",
    "Districtname": "Mau",
    "statename": "UTTAR PRADESH"
  },
  {
    "pincode": "221603",
    "officename": "Jajaauli B.O",
    "officeType": "B.O",
    "Deliverystatus": "Delivery",
    "divisionname": "Azamgarh",
    "regionname": "Gorakhpur",
    "circlename": "Uttar Pradesh",
    "Taluk": "Madhuban",
    "Districtname": "Mau",
    "statename": "UTTAR PRADESH"
  },
  {
    "pincode": "221603",
    "officename": "Katghar Shankar B.O",
    "officeType": "B.O",
    "Deliverystatus": "Delivery",
    "divisionname": "Azamgarh",
    "regionname": "Gorakhpur",
    "circlename": "Uttar Pradesh",
    "Taluk": "Madhuban",
    "Districtname": "Mau",
    "statename": "UTTAR PRADESH"
  },
  {
    "pincode": "221603",
    "officename": "Lalanpur B.O",
    "officeType": "B.O",
    "Deliverystatus": "Delivery",
    "divisionname": "Azamgarh",
    "regionname": "Gorakhpur",
    "circlename": "Uttar Pradesh",
    "Taluk": "Burhanpur",
    "Districtname": "Azamgarh",
    "statename": "UTTAR PRADESH"
  },
  {
    "pincode": "221603",
    "officename": "Madhu Ban S.O",
    "officeType": "S.O",
    "Deliverystatus": "Delivery",
    "divisionname": "Azamgarh",
    "regionname": "Gorakhpur",
    "circlename": "Uttar Pradesh",
    "Taluk": "Madhu Ban",
    "Districtname": "Mau",
    "statename": "UTTAR PRADESH"
  },
  {
    "pincode": "221603",
    "officename": "Nathupur B.O",
    "officeType": "B.O",
    "Deliverystatus": "Delivery",
    "divisionname": "Azamgarh",
    "regionname": "Gorakhpur",
    "circlename": "Uttar Pradesh",
    "Taluk": "Mehnagar **",
    "Districtname": "Azamgarh",
    "statename": "UTTAR PRADESH"
  },
  {
    "pincode": "221603",
    "officename": "Saundih B.O",
    "officeType": "B.O",
    "Deliverystatus": "Delivery",
    "divisionname": "Azamgarh",
    "regionname": "Gorakhpur",
    "circlename": "Uttar Pradesh",
    "Taluk": "Madhuban",
    "Districtname": "Mau",
    "statename": "UTTAR PRADESH"
  },
  {
    "pincode": "221603",
    "officename": "Siddha Ahilashpur B.O",
    "officeType": "B.O",
    "Deliverystatus": "Delivery",
    "divisionname": "Azamgarh",
    "regionname": "Gorakhpur",
    "circlename": "Uttar Pradesh",
    "Taluk": "Maduban",
    "Districtname": "Mau",
    "statename": "UTTAR PRADESH"
  },
  {
    "pincode": "221603",
    "officename": "Sipaibrahima Bad B.O",
    "officeType": "B.O",
    "Deliverystatus": "Delivery",
    "divisionname": "Azamgarh",
    "regionname": "Gorakhpur",
    "circlename": "Uttar Pradesh",
    "Taluk": "Madhuban",
    "Districtname": "Mau",
    "statename": "UTTAR PRADESH"
  },
  {
    "pincode": "221603",
    "officename": "Undaura B.O",
    "officeType": "B.O",
    "Deliverystatus": "Delivery",
    "divisionname": "Azamgarh",
    "regionname": "Gorakhpur",
    "circlename": "Uttar Pradesh",
    "Taluk": "Ghosi",
    "Districtname": "Mau",
    "statename": "UTTAR PRADESH"
  }
]
