[
  {
    "pincode": "221705",
    "officename": "Ardauna B.O",
    "officeType": "B.O",
    "Deliverystatus": "Delivery",
    "divisionname": "Azamgarh",
    "regionname": "Gorakhpur",
    "circlename": "Uttar Pradesh",
    "Taluk": "Sadar",
    "Districtname": "Mau",
    "statename": "UTTAR PRADESH"
  },
  {
    "pincode": "221705",
    "officename": "Chakarka B.O",
    "officeType": "B.O",
    "Deliverystatus": "Delivery",
    "divisionname": "Azamgarh",
    "regionname": "Gorakhpur",
    "circlename": "Uttar Pradesh",
    "Taluk": "Sadar",
    "Districtname": "Mau",
    "statename": "UTTAR PRADESH"
  },
  {
    "pincode": "221705",
    "officename": "Duwraon B.O",
    "officeType": "B.O",
    "Deliverystatus": "Delivery",
    "divisionname": "Azamgarh",
    "regionname": "Gorakhpur",
    "circlename": "Uttar Pradesh",
    "Taluk": "Sadar",
    "Districtname": "Mau",
    "statename": "UTTAR PRADESH"
  },
  {
    "pincode": "221705",
    "officename": "Gahana B.O",
    "officeType": "B.O",
    "Deliverystatus": "Delivery",
    "divisionname": "Azamgarh",
    "regionname": "Gorakhpur",
    "circlename": "Uttar Pradesh",
    "Taluk": "Sadar",
    "Districtname": "Mau",
    "statename": "UTTAR PRADESH"
  },
  {
    "pincode": "221705",
    "officename": "Gahani B.O",
    "officeType": "B.O",
    "Deliverystatus": "Delivery",
    "divisionname": "Azamgarh",
    "regionname": "Gorakhpur",
    "circlename": "Uttar Pradesh",
    "Taluk": "Sadar",
    "Districtname": "Mau",
    "statename": "UTTAR PRADESH"
  },
  {
    "pincode": "221705",
    "officename": "Haldharpur S.O",
    "officeType": "S.O",
    "Deliverystatus": "Delivery",
    "divisionname": "Azamgarh",
    "regionname": "Gorakhpur",
    "circlename": "Uttar Pradesh",
    "Taluk": "Sadar",
    "Districtname": "Mau",
    "statename": "UTTAR PRADESH"
  },
  {
    "pincode": "221705",
    "officename": "Kirath Sarai B.O",
    "officeType": "B.O",
    "Deliverystatus": "Delivery",
    "divisionname": "Azamgarh",
    "regionname": "Gorakhpur",
    "circlename": "Uttar Pradesh",
    "Taluk": "Sadar",
    "Districtname": "Mau",
    "statename": "UTTAR PRADESH"
  },
  {
    "pincode": "221705",
    "officename": "Pahasa B.O",
    "officeType": "B.O",
    "Deliverystatus": "Delivery",
    "divisionname": "Azamgarh",
    "regionname": "Gorakhpur",
    "circlename": "Uttar Pradesh",
    "Taluk": "Sadar",
    "Districtname": "Mau",
    "statename": "UTTAR PRADESH"
  },
  {
    "pincode": "221705",
    "officename": "Pardaha B.O",
    "officeType": "B.O",
    "Deliverystatus": "Delivery",
    "divisionname": "Azamgarh",
    "regionname": "Gorakhpur",
    "circlename": "Uttar Pradesh",
    "Taluk": "Sadar",
    "Districtname": "Mau",
    "statename": "UTTAR PRADESH"
  },
  {
    "pincode": "221705",
    "officename": "Sarvan B.O",
    "officeType": "B.O",
    "Deliverystatus": "Delivery",
    "divisionname": "Azamgarh",
    "regionname": "Gorakhpur",
    "circlename": "Uttar Pradesh",
    "Taluk": "Sadar",
    "Districtname": "Mau",
    "statename": "UTTAR PRADESH"
  },
  {
    "pincode": "221705",
    "officename": "Talai Pur B.O",
    "officeType": "B.O",
    "Deliverystatus": "Delivery",
    "divisionname": "Azamgarh",
    "regionname": "Gorakhpur",
    "circlename": "Uttar Pradesh",
    "Taluk": "",
    "Districtname": "Mau",
    "statename": "UTTAR PRADESH"
  },
  {
    "pincode": "221705",
    "officename": "Umapur B.O",
    "officeType": "B.O",
    "Deliverystatus": "Delivery",
    "divisionname": "Azamgarh",
    "regionname": "Gorakhpur",
    "circlename": "Uttar Pradesh",
    "Taluk": "Sadar",
    "Districtname": "Mau",
    "statename": "UTTAR PRADESH"
  }
]
