[
  {
    "pincode": "221711",
    "officename": "Atrauli B.O",
    "officeType": "B.O",
    "Deliverystatus": "Delivery",
    "divisionname": "Ballia",
    "regionname": "Gorakhpur",
    "circlename": "Uttar Pradesh",
    "Taluk": "Rasra",
    "Districtname": "Ballia",
    "statename": "UTTAR PRADESH"
  },
  {
    "pincode": "221711",
    "officename": "Bachhaipur B.O",
    "officeType": "B.O",
    "Deliverystatus": "Delivery",
    "divisionname": "Ballia",
    "regionname": "Gorakhpur",
    "circlename": "Uttar Pradesh",
    "Taluk": "Rasra",
    "Districtname": "Ballia",
    "statename": "UTTAR PRADESH"
  },
  {
    "pincode": "221711",
    "officename": "Bhimpura B.O",
    "officeType": "B.O",
    "Deliverystatus": "Delivery",
    "divisionname": "Ballia",
    "regionname": "Gorakhpur",
    "circlename": "Uttar Pradesh",
    "Taluk": "Bilthara Road",
    "Districtname": "Ballia",
    "statename": "UTTAR PRADESH"
  },
  {
    "pincode": "221711",
    "officename": "Biharaharpur B.O",
    "officeType": "B.O",
    "Deliverystatus": "Delivery",
    "divisionname": "Ballia",
    "regionname": "Gorakhpur",
    "circlename": "Uttar Pradesh",
    "Taluk": "Rasra",
    "Districtname": "Ballia",
    "statename": "UTTAR PRADESH"
  },
  {
    "pincode": "221711",
    "officename": "Chachaya B.O",
    "officeType": "B.O",
    "Deliverystatus": "Delivery",
    "divisionname": "Ballia",
    "regionname": "Gorakhpur",
    "circlename": "Uttar Pradesh",
    "Taluk": "Rasra",
    "Districtname": "Ballia",
    "statename": "UTTAR PRADESH"
  },
  {
    "pincode": "221711",
    "officename": "Chandi B.O",
    "officeType": "B.O",
    "Deliverystatus": "Delivery",
    "divisionname": "Ballia",
    "regionname": "Gorakhpur",
    "circlename": "Uttar Pradesh",
    "Taluk": "Bilthara Road",
    "Districtname": "Ballia",
    "statename": "UTTAR PRADESH"
  },
  {
    "pincode": "221711",
    "officename": "Deoriha B.O",
    "officeType": "B.O",
    "Deliverystatus": "Delivery",
    "divisionname": "Ballia",
    "regionname": "Gorakhpur",
    "circlename": "Uttar Pradesh",
    "Taluk": "Rasra",
    "Districtname": "Ballia",
    "statename": "UTTAR PRADESH"
  },
  {
    "pincode": "221711",
    "officename": "Dihwa B.O",
    "officeType": "B.O",
    "Deliverystatus": "Delivery",
    "divisionname": "Ballia",
    "regionname": "Gorakhpur",
    "circlename": "Uttar Pradesh",
    "Taluk": "Sikandarpur",
    "Districtname": "Ballia",
    "statename": "UTTAR PRADESH"
  },
  {
    "pincode": "221711",
    "officename": "Ekail B.O",
    "officeType": "B.O",
    "Deliverystatus": "Delivery",
    "divisionname": "Ballia",
    "regionname": "Gorakhpur",
    "circlename": "Uttar Pradesh",
    "Taluk": "Sikandarpur",
    "Districtname": "Ballia",
    "statename": "UTTAR PRADESH"
  },
  {
    "pincode": "221711",
    "officename": "Gothain B.O",
    "officeType": "B.O",
    "Deliverystatus": "Delivery",
    "divisionname": "Ballia",
    "regionname": "Gorakhpur",
    "circlename": "Uttar Pradesh",
    "Taluk": "Rasra",
    "Districtname": "Ballia",
    "statename": "UTTAR PRADESH"
  },
  {
    "pincode": "221711",
    "officename": "Inds0 B.O",
    "officeType": "B.O",
    "Deliverystatus": "Delivery",
    "divisionname": "Ballia",
    "regionname": "Gorakhpur",
    "circlename": "Uttar Pradesh",
    "Taluk": "Bilthara Road",
    "Districtname": "Ballia",
    "statename": "UTTAR PRADESH"
  },
  {
    "pincode": "221711",
    "officename": "Khanwar B.O",
    "officeType": "B.O",
    "Deliverystatus": "Delivery",
    "divisionname": "Ballia",
    "regionname": "Gorakhpur",
    "circlename": "Uttar Pradesh",
    "Taluk": "Rasra",
    "Districtname": "Ballia",
    "statename": "UTTAR PRADESH"
  },
  {
    "pincode": "221711",
    "officename": "Kodai B.O",
    "officeType": "B.O",
    "Deliverystatus": "Delivery",
    "divisionname": "Ballia",
    "regionname": "Gorakhpur",
    "circlename": "Uttar Pradesh",
    "Taluk": "Rasra",
    "Districtname": "Ballia",
    "statename": "UTTAR PRADESH"
  },
  {
    "pincode": "221711",
    "officename": "Lahasani B.O",
    "officeType": "B.O",
    "Deliverystatus": "Delivery",
    "divisionname": "Ballia",
    "regionname": "Gorakhpur",
    "circlename": "Uttar Pradesh",
    "Taluk": "Bilthjara Road",
    "Districtname": "Ballia",
    "statename": "UTTAR PRADESH"
  },
  {
    "pincode": "221711",
    "officename": "Malapharsenpur B.O",
    "officeType": "B.O",
    "Deliverystatus": "Delivery",
    "divisionname": "Ballia",
    "regionname": "Gorakhpur",
    "circlename": "Uttar Pradesh",
    "Taluk": "Rasra",
    "Districtname": "Ballia",
    "statename": "UTTAR PRADESH"
  },
  {
    "pincode": "221711",
    "officename": "Nagra S.O (Ballia)",
    "officeType": "S.O",
    "Deliverystatus": "Delivery",
    "divisionname": "Ballia",
    "regionname": "Gorakhpur",
    "circlename": "Uttar Pradesh",
    "Taluk": "Rasra",
    "Districtname": "Ballia",
    "statename": "UTTAR PRADESH"
  },
  {
    "pincode": "221711",
    "officename": "Nanaura B.O",
    "officeType": "B.O",
    "Deliverystatus": "Delivery",
    "divisionname": "Ballia",
    "regionname": "Gorakhpur",
    "circlename": "Uttar Pradesh",
    "Taluk": "Rasra",
    "Districtname": "Ballia",
    "statename": "UTTAR PRADESH"
  },
  {
    "pincode": "221711",
    "officename": "Narhi B.O",
    "officeType": "B.O",
    "Deliverystatus": "Delivery",
    "divisionname": "Ballia",
    "regionname": "Gorakhpur",
    "circlename": "Uttar Pradesh",
    "Taluk": "Rasra",
    "Districtname": "Ballia",
    "statename": "UTTAR PRADESH"
  },
  {
    "pincode": "221711",
    "officename": "Nikasi B.O",
    "officeType": "B.O",
    "Deliverystatus": "Delivery",
    "divisionname": "Ballia",
    "regionname": "Gorakhpur",
    "circlename": "Uttar Pradesh",
    "Taluk": "Rasra",
    "Districtname": "Ballia",
    "statename": "UTTAR PRADESH"
  },
  {
    "pincode": "221711",
    "officename": "Parasia B.O",
    "officeType": "B.O",
    "Deliverystatus": "Delivery",
    "divisionname": "Ballia",
    "regionname": "Gorakhpur",
    "circlename": "Uttar Pradesh",
    "Taluk": "Bilthara Road",
    "Districtname": "Ballia",
    "statename": "UTTAR PRADESH"
  },
  {
    "pincode": "221711",
    "officename": "Sultanpur B.O",
    "officeType": "B.O",
    "Deliverystatus": "Delivery",
    "divisionname": "Ballia",
    "regionname": "Gorakhpur",
    "circlename": "Uttar Pradesh",
    "Taluk": "Rasra",
    "Districtname": "Ballia",
    "statename": "UTTAR PRADESH"
  },
  {
    "pincode": "221711",
    "officename": "Tadi Bada Gaon B.O",
    "officeType": "B.O",
    "Deliverystatus": "Delivery",
    "divisionname": "Ballia",
    "regionname": "Gorakhpur",
    "circlename": "Uttar Pradesh",
    "Taluk": "Bilthara Road",
    "Districtname": "Ballia",
    "statename": "UTTAR PRADESH"
  },
  {
    "pincode": "221711",
    "officename": "Triloknanda B.O",
    "officeType": "B.O",
    "Deliverystatus": "Delivery",
    "divisionname": "Ballia",
    "regionname": "Gorakhpur",
    "circlename": "Uttar Pradesh",
    "Taluk": "Bilthra Road",
    "Districtname": "Ballia",
    "statename": "UTTAR PRADESH"
  }
]
