[
  {
    "pincode": "221718",
    "officename": "Charauan B.O",
    "officeType": "B.O",
    "Deliverystatus": "Delivery",
    "divisionname": "Ballia",
    "regionname": "Gorakhpur",
    "circlename": "Uttar Pradesh",
    "Taluk": "Bilthra Road",
    "Districtname": "Ballia",
    "statename": "UTTAR PRADESH"
  },
  {
    "pincode": "221718",
    "officename": "Gauapar B.O",
    "officeType": "B.O",
    "Deliverystatus": "Delivery",
    "divisionname": "Ballia",
    "regionname": "Gorakhpur",
    "circlename": "Uttar Pradesh",
    "Taluk": "Bilthra Road",
    "Districtname": "Ballia",
    "statename": "UTTAR PRADESH"
  },
  {
    "pincode": "221718",
    "officename": "Jamuaon B.O",
    "officeType": "B.O",
    "Deliverystatus": "Delivery",
    "divisionname": "Ballia",
    "regionname": "Gorakhpur",
    "circlename": "Uttar Pradesh",
    "Taluk": "Belthra Road",
    "Districtname": "Ballia",
    "statename": "UTTAR PRADESH"
  },
  {
    "pincode": "221718",
    "officename": "Khandwa S.O",
    "officeType": "S.O",
    "Deliverystatus": "Delivery",
    "divisionname": "Ballia",
    "regionname": "Gorakhpur",
    "circlename": "Uttar Pradesh",
    "Taluk": "Bilthra Road",
    "Districtname": "Ballia",
    "statename": "UTTAR PRADESH"
  },
  {
    "pincode": "221718",
    "officename": "Palia Khas B.O",
    "officeType": "B.O",
    "Deliverystatus": "Delivery",
    "divisionname": "Ballia",
    "regionname": "Gorakhpur",
    "circlename": "Uttar Pradesh",
    "Taluk": "Bilthra Road",
    "Districtname": "Ballia",
    "statename": "UTTAR PRADESH"
  },
  {
    "pincode": "221718",
    "officename": "Rachauli B.O",
    "officeType": "B.O",
    "Deliverystatus": "Delivery",
    "divisionname": "Ballia",
    "regionname": "Gorakhpur",
    "circlename": "Uttar Pradesh",
    "Taluk": "Bilthra Road",
    "Districtname": "Ballia",
    "statename": "UTTAR PRADESH"
  },
  {
    "pincode": "221718",
    "officename": "Rampur Kanungoa B.O",
    "officeType": "B.O",
    "Deliverystatus": "Delivery",
    "divisionname": "Ballia",
    "regionname": "Gorakhpur",
    "circlename": "Uttar Pradesh",
    "Taluk": "Bilthra Road",
    "Districtname": "Ballia",
    "statename": "UTTAR PRADESH"
  },
  {
    "pincode": "221718",
    "officename": "Rupwar Bhagwanpur B.O",
    "officeType": "B.O",
    "Deliverystatus": "Delivery",
    "divisionname": "Ballia",
    "regionname": "Gorakhpur",
    "circlename": "Uttar Pradesh",
    "Taluk": "Bilthra Road",
    "Districtname": "Ballia",
    "statename": "UTTAR PRADESH"
  },
  {
    "pincode": "221718",
    "officename": "Sikarhata B.O",
    "officeType": "B.O",
    "Deliverystatus": "Delivery",
    "divisionname": "Ballia",
    "regionname": "Gorakhpur",
    "circlename": "Uttar Pradesh",
    "Taluk": "Bilthararoad",
    "Districtname": "Ballia",
    "statename": "UTTAR PRADESH"
  },
  {
    "pincode": "221718",
    "officename": "Sisyandkala B.O",
    "officeType": "B.O",
    "Deliverystatus": "Delivery",
    "divisionname": "Ballia",
    "regionname": "Gorakhpur",
    "circlename": "Uttar Pradesh",
    "Taluk": "Bilthra Road",
    "Districtname": "Ballia",
    "statename": "UTTAR PRADESH"
  },
  {
    "pincode": "221718",
    "officename": "Telma B.O",
    "officeType": "B.O",
    "Deliverystatus": "Delivery",
    "divisionname": "Ballia",
    "regionname": "Gorakhpur",
    "circlename": "Uttar Pradesh",
    "Taluk": "Bilthararoad",
    "Districtname": "Ballia",
    "statename": "UTTAR PRADESH"
  }
]
