[
  {
    "pincode": "221701",
    "officename": "Asanwar B.O",
    "officeType": "B.O",
    "Deliverystatus": "Delivery",
    "divisionname": "Ballia",
    "regionname": "Gorakhpur",
    "circlename": "Uttar Pradesh",
    "Taluk": "Rasra",
    "Districtname": "Ballia",
    "statename": "UTTAR PRADESH"
  },
  {
    "pincode": "221701",
    "officename": "Aundi B.O",
    "officeType": "B.O",
    "Deliverystatus": "Delivery",
    "divisionname": "Ballia",
    "regionname": "Gorakhpur",
    "circlename": "Uttar Pradesh",
    "Taluk": "Rasra",
    "Districtname": "Ballia",
    "statename": "UTTAR PRADESH"
  },
  {
    "pincode": "221701",
    "officename": "Chhibbi B.O",
    "officeType": "B.O",
    "Deliverystatus": "Delivery",
    "divisionname": "Ballia",
    "regionname": "Gorakhpur",
    "circlename": "Uttar Pradesh",
    "Taluk": "Rasra",
    "Districtname": "Ballia",
    "statename": "UTTAR PRADESH"
  },
  {
    "pincode": "221701",
    "officename": "Chilkahar S.O",
    "officeType": "S.O",
    "Deliverystatus": "Delivery",
    "divisionname": "Ballia",
    "regionname": "Gorakhpur",
    "circlename": "Uttar Pradesh",
    "Taluk": "Rasra",
    "Districtname": "Ballia",
    "statename": "UTTAR PRADESH"
  },
  {
    "pincode": "221701",
    "officename": "Dumari B.O",
    "officeType": "B.O",
    "Deliverystatus": "Delivery",
    "divisionname": "Ballia",
    "regionname": "Gorakhpur",
    "circlename": "Uttar Pradesh",
    "Taluk": "Rasra",
    "Districtname": "Ballia",
    "statename": "UTTAR PRADESH"
  },
  {
    "pincode": "221701",
    "officename": "Gopalpur B.O",
    "officeType": "B.O",
    "Deliverystatus": "Delivery",
    "divisionname": "Ballia",
    "regionname": "Gorakhpur",
    "circlename": "Uttar Pradesh",
    "Taluk": "Rasra",
    "Districtname": "Ballia",
    "statename": "UTTAR PRADESH"
  },
  {
    "pincode": "221701",
    "officename": "Hajauli B.O",
    "officeType": "B.O",
    "Deliverystatus": "Delivery",
    "divisionname": "Ballia",
    "regionname": "Gorakhpur",
    "circlename": "Uttar Pradesh",
    "Taluk": "Rasra",
    "Districtname": "Ballia",
    "statename": "UTTAR PRADESH"
  },
  {
    "pincode": "221701",
    "officename": "Kajhari B.O",
    "officeType": "B.O",
    "Deliverystatus": "Delivery",
    "divisionname": "Ballia",
    "regionname": "Gorakhpur",
    "circlename": "Uttar Pradesh",
    "Taluk": "Rasra",
    "Districtname": "Ballia",
    "statename": "UTTAR PRADESH"
  },
  {
    "pincode": "221701",
    "officename": "Kopawan B.O",
    "officeType": "B.O",
    "Deliverystatus": "Delivery",
    "divisionname": "Ballia",
    "regionname": "Gorakhpur",
    "circlename": "Uttar Pradesh",
    "Taluk": "Rasra",
    "Districtname": "Ballia",
    "statename": "UTTAR PRADESH"
  },
  {
    "pincode": "221701",
    "officename": "Naraon B.O",
    "officeType": "B.O",
    "Deliverystatus": "Delivery",
    "divisionname": "Ballia",
    "regionname": "Gorakhpur",
    "circlename": "Uttar Pradesh",
    "Taluk": "Rasra",
    "Districtname": "Ballia",
    "statename": "UTTAR PRADESH"
  },
  {
    "pincode": "221701",
    "officename": "Sanwara B.O",
    "officeType": "B.O",
    "Deliverystatus": "Delivery",
    "divisionname": "Ballia",
    "regionname": "Gorakhpur",
    "circlename": "Uttar Pradesh",
    "Taluk": "Rasra",
    "Districtname": "Ballia",
    "statename": "UTTAR PRADESH"
  },
  {
    "pincode": "221701",
    "officename": "Sinhachawar B.O",
    "officeType": "B.O",
    "Deliverystatus": "Delivery",
    "divisionname": "Ballia",
    "regionname": "Gorakhpur",
    "circlename": "Uttar Pradesh",
    "Taluk": "Rasra",
    "Districtname": "Ballia",
    "statename": "UTTAR PRADESH"
  },
  {
    "pincode": "221701",
    "officename": "Tikadeori B.O",
    "officeType": "B.O",
    "Deliverystatus": "Delivery",
    "divisionname": "Ballia",
    "regionname": "Gorakhpur",
    "circlename": "Uttar Pradesh",
    "Taluk": "Rasra",
    "Districtname": "Ballia",
    "statename": "UTTAR PRADESH"
  },
  {
    "pincode": "221701",
    "officename": "Uchera B.O",
    "officeType": "B.O",
    "Deliverystatus": "Delivery",
    "divisionname": "Ballia",
    "regionname": "Gorakhpur",
    "circlename": "Uttar Pradesh",
    "Taluk": "Rasra",
    "Districtname": "Ballia",
    "statename": "UTTAR PRADESH"
  }
]
