[
  {
    "pincode": "222002",
    "officename": "Civil Court S.O (Jaunpur)",
    "officeType": "S.O",
    "Deliverystatus": "Non-Delivery",
    "divisionname": "Jaunpur",
    "regionname": "Allahabad",
    "circlename": "Uttar Pradesh",
    "Taluk": "Jaunpur",
    "Districtname": "Jaunpur",
    "statename": "UTTAR PRADESH"
  },
  {
    "pincode": "222002",
    "officename": "Collectrate Compound S.O",
    "officeType": "S.O",
    "Deliverystatus": "Non-Delivery",
    "divisionname": "Jaunpur",
    "regionname": "Allahabad",
    "circlename": "Uttar Pradesh",
    "Taluk": "Jaunpur",
    "Districtname": "Jaunpur",
    "statename": "UTTAR PRADESH"
  },
  {
    "pincode": "222002",
    "officename": "College Colony S.O",
    "officeType": "S.O",
    "Deliverystatus": "Non-Delivery",
    "divisionname": "Jaunpur",
    "regionname": "Allahabad",
    "circlename": "Uttar Pradesh",
    "Taluk": "Jaunpur",
    "Districtname": "Jaunpur",
    "statename": "UTTAR PRADESH"
  },
  {
    "pincode": "222002",
    "officename": "Dharmapur B.O",
    "officeType": "B.O",
    "Deliverystatus": "Delivery",
    "divisionname": "Jaunpur",
    "regionname": "Allahabad",
    "circlename": "Uttar Pradesh",
    "Taluk": "",
    "Districtname": "Jaunpur",
    "statename": "UTTAR PRADESH"
  },
  {
    "pincode": "222002",
    "officename": "Harbaspur B.O",
    "officeType": "B.O",
    "Deliverystatus": "Delivery",
    "divisionname": "Jaunpur",
    "regionname": "Allahabad",
    "circlename": "Uttar Pradesh",
    "Taluk": "Jaunpur",
    "Districtname": "Jaunpur",
    "statename": "UTTAR PRADESH"
  },
  {
    "pincode": "222002",
    "officename": "Jagdishpur B.O",
    "officeType": "B.O",
    "Deliverystatus": "Delivery",
    "divisionname": "Jaunpur",
    "regionname": "Allahabad",
    "circlename": "Uttar Pradesh",
    "Taluk": "Jaunpur",
    "Districtname": "Jaunpur",
    "statename": "UTTAR PRADESH"
  },
  {
    "pincode": "222002",
    "officename": "Jaunpur Kty. S.O",
    "officeType": "S.O",
    "Deliverystatus": "Delivery",
    "divisionname": "Jaunpur",
    "regionname": "Allahabad",
    "circlename": "Uttar Pradesh",
    "Taluk": "Jaunpur",
    "Districtname": "Jaunpur",
    "statename": "UTTAR PRADESH"
  },
  {
    "pincode": "222002",
    "officename": "Kalichabad B.O",
    "officeType": "B.O",
    "Deliverystatus": "Delivery",
    "divisionname": "Jaunpur",
    "regionname": "Allahabad",
    "circlename": "Uttar Pradesh",
    "Taluk": "Jaunpur",
    "Districtname": "Jaunpur",
    "statename": "UTTAR PRADESH"
  },
  {
    "pincode": "222002",
    "officename": "Kirtapur B.O",
    "officeType": "B.O",
    "Deliverystatus": "Delivery",
    "divisionname": "Jaunpur",
    "regionname": "Allahabad",
    "circlename": "Uttar Pradesh",
    "Taluk": "Jaunpur",
    "Districtname": "Jaunpur",
    "statename": "UTTAR PRADESH"
  },
  {
    "pincode": "222002",
    "officename": "Muradganj B.O",
    "officeType": "B.O",
    "Deliverystatus": "Delivery",
    "divisionname": "Jaunpur",
    "regionname": "Allahabad",
    "circlename": "Uttar Pradesh",
    "Taluk": "Jaunpur",
    "Districtname": "Jaunpur",
    "statename": "UTTAR PRADESH"
  },
  {
    "pincode": "222002",
    "officename": "Premapur B.O",
    "officeType": "B.O",
    "Deliverystatus": "Delivery",
    "divisionname": "Jaunpur",
    "regionname": "Allahabad",
    "circlename": "Uttar Pradesh",
    "Taluk": "Jaunpur",
    "Districtname": "Jaunpur",
    "statename": "UTTAR PRADESH"
  },
  {
    "pincode": "222002",
    "officename": "Pukhta Sarai S.O",
    "officeType": "S.O",
    "Deliverystatus": "Non-Delivery",
    "divisionname": "Jaunpur",
    "regionname": "Allahabad",
    "circlename": "Uttar Pradesh",
    "Taluk": "Jaunpur",
    "Districtname": "Jaunpur",
    "statename": "UTTAR PRADESH"
  },
  {
    "pincode": "222002",
    "officename": "Purani Bazar B.O",
    "officeType": "B.O",
    "Deliverystatus": "Non-Delivery",
    "divisionname": "Jaunpur",
    "regionname": "Allahabad",
    "circlename": "Uttar Pradesh",
    "Taluk": "Jaunpur",
    "Districtname": "Jaunpur",
    "statename": "UTTAR PRADESH"
  },
  {
    "pincode": "222002",
    "officename": "Shitla Chaukiya B.O",
    "officeType": "B.O",
    "Deliverystatus": "Delivery",
    "divisionname": "Jaunpur",
    "regionname": "Allahabad",
    "circlename": "Uttar Pradesh",
    "Taluk": "Jaunpur",
    "Districtname": "Jaunpur",
    "statename": "UTTAR PRADESH"
  },
  {
    "pincode": "222002",
    "officename": "Shivapar B.O",
    "officeType": "B.O",
    "Deliverystatus": "Delivery",
    "divisionname": "Jaunpur",
    "regionname": "Allahabad",
    "circlename": "Uttar Pradesh",
    "Taluk": "Jaunpur",
    "Districtname": "Jaunpur",
    "statename": "UTTAR PRADESH"
  },
  {
    "pincode": "222002",
    "officename": "T.D. College S.O",
    "officeType": "S.O",
    "Deliverystatus": "Non-Delivery",
    "divisionname": "Jaunpur",
    "regionname": "Allahabad",
    "circlename": "Uttar Pradesh",
    "Taluk": "Jaunpur",
    "Districtname": "Jaunpur",
    "statename": "UTTAR PRADESH"
  },
  {
    "pincode": "222002",
    "officename": "Umarpur S.O",
    "officeType": "S.O",
    "Deliverystatus": "Non-Delivery",
    "divisionname": "Jaunpur",
    "regionname": "Allahabad",
    "circlename": "Uttar Pradesh",
    "Taluk": "Jaunpur",
    "Districtname": "Jaunpur",
    "statename": "UTTAR PRADESH"
  }
]
