[
  {
    "pincode": "222161",
    "officename": "Ajoshi B.O",
    "officeType": "B.O",
    "Deliverystatus": "Delivery",
    "divisionname": "Jaunpur",
    "regionname": "Allahabad",
    "circlename": "Uttar Pradesh",
    "Taluk": "Mariahun",
    "Districtname": "Jaunpur",
    "statename": "UTTAR PRADESH"
  },
  {
    "pincode": "222161",
    "officename": "Barigaon Newada B.O",
    "officeType": "B.O",
    "Deliverystatus": "Delivery",
    "divisionname": "Jaunpur",
    "regionname": "Allahabad",
    "circlename": "Uttar Pradesh",
    "Taluk": "Mariahu",
    "Districtname": "Jaunpur",
    "statename": "UTTAR PRADESH"
  },
  {
    "pincode": "222161",
    "officename": "Belawa Bazar B.O",
    "officeType": "B.O",
    "Deliverystatus": "Delivery",
    "divisionname": "Jaunpur",
    "regionname": "Allahabad",
    "circlename": "Uttar Pradesh",
    "Taluk": "Mariahu",
    "Districtname": "Jaunpur",
    "statename": "UTTAR PRADESH"
  },
  {
    "pincode": "222161",
    "officename": "Belgahan B.O",
    "officeType": "B.O",
    "Deliverystatus": "Delivery",
    "divisionname": "Jaunpur",
    "regionname": "Allahabad",
    "circlename": "Uttar Pradesh",
    "Taluk": "Mariahun",
    "Districtname": "Jaunpur",
    "statename": "UTTAR PRADESH"
  },
  {
    "pincode": "222161",
    "officename": "Bujurga B.O",
    "officeType": "B.O",
    "Deliverystatus": "Delivery",
    "divisionname": "Jaunpur",
    "regionname": "Allahabad",
    "circlename": "Uttar Pradesh",
    "Taluk": "Mariahun",
    "Districtname": "Jaunpur",
    "statename": "UTTAR PRADESH"
  },
  {
    "pincode": "222161",
    "officename": "Chorari B.O",
    "officeType": "B.O",
    "Deliverystatus": "Delivery",
    "divisionname": "Jaunpur",
    "regionname": "Allahabad",
    "circlename": "Uttar Pradesh",
    "Taluk": "Mariahu",
    "Districtname": "Jaunpur",
    "statename": "UTTAR PRADESH"
  },
  {
    "pincode": "222161",
    "officename": "Daudi B.O",
    "officeType": "B.O",
    "Deliverystatus": "Delivery",
    "divisionname": "Jaunpur",
    "regionname": "Allahabad",
    "circlename": "Uttar Pradesh",
    "Taluk": "Mariahu",
    "Districtname": "Jaunpur",
    "statename": "UTTAR PRADESH"
  },
  {
    "pincode": "222161",
    "officename": "Itaye B.O",
    "officeType": "B.O",
    "Deliverystatus": "Delivery",
    "divisionname": "Jaunpur",
    "regionname": "Allahabad",
    "circlename": "Uttar Pradesh",
    "Taluk": "Mariahu",
    "Districtname": "Jaunpur",
    "statename": "UTTAR PRADESH"
  },
  {
    "pincode": "222161",
    "officename": "Jagarnathpur B.O",
    "officeType": "B.O",
    "Deliverystatus": "Delivery",
    "divisionname": "Jaunpur",
    "regionname": "Allahabad",
    "circlename": "Uttar Pradesh",
    "Taluk": "Mariahun",
    "Districtname": "Jaunpur",
    "statename": "UTTAR PRADESH"
  },
  {
    "pincode": "222161",
    "officename": "Jiaramau B.O",
    "officeType": "B.O",
    "Deliverystatus": "Delivery",
    "divisionname": "Jaunpur",
    "regionname": "Allahabad",
    "circlename": "Uttar Pradesh",
    "Taluk": "Mariahun",
    "Districtname": "Jaunpur",
    "statename": "UTTAR PRADESH"
  },
  {
    "pincode": "222161",
    "officename": "Khajurahawa B.O",
    "officeType": "B.O",
    "Deliverystatus": "Delivery",
    "divisionname": "Jaunpur",
    "regionname": "Allahabad",
    "circlename": "Uttar Pradesh",
    "Taluk": "Mariahun",
    "Districtname": "Jaunpur",
    "statename": "UTTAR PRADESH"
  },
  {
    "pincode": "222161",
    "officename": "Kishunpur B.O",
    "officeType": "B.O",
    "Deliverystatus": "Delivery",
    "divisionname": "Jaunpur",
    "regionname": "Allahabad",
    "circlename": "Uttar Pradesh",
    "Taluk": "Mariahu",
    "Districtname": "Jaunpur",
    "statename": "UTTAR PRADESH"
  },
  {
    "pincode": "222161",
    "officename": "Kuttupur B.O",
    "officeType": "B.O",
    "Deliverystatus": "Delivery",
    "divisionname": "Jaunpur",
    "regionname": "Allahabad",
    "circlename": "Uttar Pradesh",
    "Taluk": "Mariahu",
    "Districtname": "Jaunpur",
    "statename": "UTTAR PRADESH"
  },
  {
    "pincode": "222161",
    "officename": "Mainpur B.O",
    "officeType": "B.O",
    "Deliverystatus": "Delivery",
    "divisionname": "Jaunpur",
    "regionname": "Allahabad",
    "circlename": "Uttar Pradesh",
    "Taluk": "Mariahu",
    "Districtname": "Jaunpur",
    "statename": "UTTAR PRADESH"
  },
  {
    "pincode": "222161",
    "officename": "Mariahun Bazar S.O",
    "officeType": "S.O",
    "Deliverystatus": "Non-Delivery",
    "divisionname": "Jaunpur",
    "regionname": "Allahabad",
    "circlename": "Uttar Pradesh",
    "Taluk": "Mariahu",
    "Districtname": "Jaunpur",
    "statename": "UTTAR PRADESH"
  },
  {
    "pincode": "222161",
    "officename": "Mariahun S.O",
    "officeType": "S.O",
    "Deliverystatus": "Delivery",
    "divisionname": "Jaunpur",
    "regionname": "Allahabad",
    "circlename": "Uttar Pradesh",
    "Taluk": "Mariahun",
    "Districtname": "Jaunpur",
    "statename": "UTTAR PRADESH"
  },
  {
    "pincode": "222161",
    "officename": "Mithepar B.O",
    "officeType": "B.O",
    "Deliverystatus": "Delivery",
    "divisionname": "Jaunpur",
    "regionname": "Allahabad",
    "circlename": "Uttar Pradesh",
    "Taluk": "Mariahun",
    "Districtname": "Jaunpur",
    "statename": "UTTAR PRADESH"
  },
  {
    "pincode": "222161",
    "officename": "Mokalpur B.O",
    "officeType": "B.O",
    "Deliverystatus": "Delivery",
    "divisionname": "Jaunpur",
    "regionname": "Allahabad",
    "circlename": "Uttar Pradesh",
    "Taluk": "Mariahun",
    "Districtname": "Jaunpur",
    "statename": "UTTAR PRADESH"
  },
  {
    "pincode": "222161",
    "officename": "Ramnagar Vidhmauwa B.O",
    "officeType": "B.O",
    "Deliverystatus": "Delivery",
    "divisionname": "Jaunpur",
    "regionname": "Allahabad",
    "circlename": "Uttar Pradesh",
    "Taluk": "Mariahu",
    "Districtname": "Jaunpur",
    "statename": "UTTAR PRADESH"
  },
  {
    "pincode": "222161",
    "officename": "Seur B.O",
    "officeType": "B.O",
    "Deliverystatus": "Delivery",
    "divisionname": "Jaunpur",
    "regionname": "Allahabad",
    "circlename": "Uttar Pradesh",
    "Taluk": "Mariahu",
    "Districtname": "Jaunpur",
    "statename": "UTTAR PRADESH"
  },
  {
    "pincode": "222161",
    "officename": "Shitalganj B.O",
    "officeType": "B.O",
    "Deliverystatus": "Delivery",
    "divisionname": "Jaunpur",
    "regionname": "Allahabad",
    "circlename": "Uttar Pradesh",
    "Taluk": "Badlapur",
    "Districtname": "Jaunpur",
    "statename": "UTTAR PRADESH"
  },
  {
    "pincode": "222161",
    "officename": "Sudanipur B.O",
    "officeType": "B.O",
    "Deliverystatus": "Delivery",
    "divisionname": "Jaunpur",
    "regionname": "Allahabad",
    "circlename": "Uttar Pradesh",
    "Taluk": "Mariahun",
    "Districtname": "Jaunpur",
    "statename": "UTTAR PRADESH"
  }
]
