[
  {
    "pincode": "222133",
    "officename": "Aara B.O",
    "officeType": "B.O",
    "Deliverystatus": "Delivery",
    "divisionname": "Jaunpur",
    "regionname": "Allahabad",
    "circlename": "Uttar Pradesh",
    "Taluk": "Jaunpur",
    "Districtname": "Jaunpur",
    "statename": "UTTAR PRADESH"
  },
  {
    "pincode": "222133",
    "officename": "Baghendra B.O",
    "officeType": "B.O",
    "Deliverystatus": "Delivery",
    "divisionname": "Jaunpur",
    "regionname": "Allahabad",
    "circlename": "Uttar Pradesh",
    "Taluk": "Jaunpur",
    "Districtname": "Jaunpur",
    "statename": "UTTAR PRADESH"
  },
  {
    "pincode": "222133",
    "officename": "Bhadeora B.O",
    "officeType": "B.O",
    "Deliverystatus": "Delivery",
    "divisionname": "Jaunpur",
    "regionname": "Allahabad",
    "circlename": "Uttar Pradesh",
    "Taluk": "Kerakat",
    "Districtname": "Jaunpur",
    "statename": "UTTAR PRADESH"
  },
  {
    "pincode": "222133",
    "officename": "Chorsand B.O",
    "officeType": "B.O",
    "Deliverystatus": "Delivery",
    "divisionname": "Jaunpur",
    "regionname": "Allahabad",
    "circlename": "Uttar Pradesh",
    "Taluk": "Jaunpur",
    "Districtname": "Jaunpur",
    "statename": "UTTAR PRADESH"
  },
  {
    "pincode": "222133",
    "officename": "Gaurabadshahpur S.O",
    "officeType": "S.O",
    "Deliverystatus": "Delivery",
    "divisionname": "Jaunpur",
    "regionname": "Allahabad",
    "circlename": "Uttar Pradesh",
    "Taluk": "Jaunpur",
    "Districtname": "Jaunpur",
    "statename": "UTTAR PRADESH"
  },
  {
    "pincode": "222133",
    "officename": "Kukuhan B.O",
    "officeType": "B.O",
    "Deliverystatus": "Delivery",
    "divisionname": "Jaunpur",
    "regionname": "Allahabad",
    "circlename": "Uttar Pradesh",
    "Taluk": "Badlapur",
    "Districtname": "Jaunpur",
    "statename": "UTTAR PRADESH"
  },
  {
    "pincode": "222133",
    "officename": "Nayansand B.O",
    "officeType": "B.O",
    "Deliverystatus": "Delivery",
    "divisionname": "Jaunpur",
    "regionname": "Allahabad",
    "circlename": "Uttar Pradesh",
    "Taluk": "Jaunpur",
    "Districtname": "Jaunpur",
    "statename": "UTTAR PRADESH"
  },
  {
    "pincode": "222133",
    "officename": "Pilikhini B.O",
    "officeType": "B.O",
    "Deliverystatus": "Delivery",
    "divisionname": "Jaunpur",
    "regionname": "Allahabad",
    "circlename": "Uttar Pradesh",
    "Taluk": "Jaunpur",
    "Districtname": "Jaunpur",
    "statename": "UTTAR PRADESH"
  },
  {
    "pincode": "222133",
    "officename": "Umari B.O",
    "officeType": "B.O",
    "Deliverystatus": "Delivery",
    "divisionname": "Jaunpur",
    "regionname": "Allahabad",
    "circlename": "Uttar Pradesh",
    "Taluk": "Jaunpur",
    "Districtname": "Jaunpur",
    "statename": "UTTAR PRADESH"
  }
]
