[
  {
    "pincode": "222175",
    "officename": "Baharipur B.O",
    "officeType": "B.O",
    "Deliverystatus": "Delivery",
    "divisionname": "Jaunpur",
    "regionname": "Allahabad",
    "circlename": "Uttar Pradesh",
    "Taluk": "Badalapur",
    "Districtname": "Jaunpur",
    "statename": "UTTAR PRADESH"
  },
  {
    "pincode": "222175",
    "officename": "Gonauli B.O",
    "officeType": "B.O",
    "Deliverystatus": "Delivery",
    "divisionname": "Jaunpur",
    "regionname": "Allahabad",
    "circlename": "Uttar Pradesh",
    "Taluk": "Badalapur",
    "Districtname": "Jaunpur",
    "statename": "UTTAR PRADESH"
  },
  {
    "pincode": "222175",
    "officename": "Kilai B.O",
    "officeType": "B.O",
    "Deliverystatus": "Delivery",
    "divisionname": "Jaunpur",
    "regionname": "Allahabad",
    "circlename": "Uttar Pradesh",
    "Taluk": "Badlapur",
    "Districtname": "Jaunpur",
    "statename": "UTTAR PRADESH"
  },
  {
    "pincode": "222175",
    "officename": "Kumarpatti B.O",
    "officeType": "B.O",
    "Deliverystatus": "Delivery",
    "divisionname": "Jaunpur",
    "regionname": "Allahabad",
    "circlename": "Uttar Pradesh",
    "Taluk": "Badlapur",
    "Districtname": "Jaunpur",
    "statename": "UTTAR PRADESH"
  },
  {
    "pincode": "222175",
    "officename": "Nakahara B.O",
    "officeType": "B.O",
    "Deliverystatus": "Delivery",
    "divisionname": "Jaunpur",
    "regionname": "Allahabad",
    "circlename": "Uttar Pradesh",
    "Taluk": "Badlapur",
    "Districtname": "Jaunpur",
    "statename": "UTTAR PRADESH"
  },
  {
    "pincode": "222175",
    "officename": "Pahetiapur B.O",
    "officeType": "B.O",
    "Deliverystatus": "Delivery",
    "divisionname": "Jaunpur",
    "regionname": "Allahabad",
    "circlename": "Uttar Pradesh",
    "Taluk": "Badlapur",
    "Districtname": "Jaunpur",
    "statename": "UTTAR PRADESH"
  },
  {
    "pincode": "222175",
    "officename": "Singramau S.O",
    "officeType": "S.O",
    "Deliverystatus": "Delivery",
    "divisionname": "Jaunpur",
    "regionname": "Allahabad",
    "circlename": "Uttar Pradesh",
    "Taluk": "Badlapur",
    "Districtname": "Jaunpur",
    "statename": "UTTAR PRADESH"
  },
  {
    "pincode": "222175",
    "officename": "Sirkina B.O",
    "officeType": "B.O",
    "Deliverystatus": "Delivery",
    "divisionname": "Jaunpur",
    "regionname": "Allahabad",
    "circlename": "Uttar Pradesh",
    "Taluk": "Badlapur",
    "Districtname": "Jaunpur",
    "statename": "UTTAR PRADESH"
  },
  {
    "pincode": "222175",
    "officename": "Thakurganj B.O",
    "officeType": "B.O",
    "Deliverystatus": "Delivery",
    "divisionname": "Jaunpur",
    "regionname": "Allahabad",
    "circlename": "Uttar Pradesh",
    "Taluk": "Badlapur",
    "Districtname": "Jaunpur",
    "statename": "UTTAR PRADESH"
  }
]
