[
  {
    "pincode": "223103",
    "officename": "Bazar Arasia B.O",
    "officeType": "B.O",
    "Deliverystatus": "Delivery",
    "divisionname": "Jaunpur",
    "regionname": "Allahabad",
    "circlename": "Uttar Pradesh",
    "Taluk": "Shahganj",
    "Districtname": "Jaunpur",
    "statename": "UTTAR PRADESH"
  },
  {
    "pincode": "223103",
    "officename": "Bishunpur B.O",
    "officeType": "B.O",
    "Deliverystatus": "Delivery",
    "divisionname": "Jaunpur",
    "regionname": "Allahabad",
    "circlename": "Uttar Pradesh",
    "Taluk": "Shahganj",
    "Districtname": "Jaunpur",
    "statename": "UTTAR PRADESH"
  },
  {
    "pincode": "223103",
    "officename": "Dehari B.O",
    "officeType": "B.O",
    "Deliverystatus": "Delivery",
    "divisionname": "Jaunpur",
    "regionname": "Allahabad",
    "circlename": "Uttar Pradesh",
    "Taluk": "Shahganj",
    "Districtname": "Jaunpur",
    "statename": "UTTAR PRADESH"
  },
  {
    "pincode": "223103",
    "officename": "Gairwah B.O",
    "officeType": "B.O",
    "Deliverystatus": "Delivery",
    "divisionname": "Jaunpur",
    "regionname": "Allahabad",
    "circlename": "Uttar Pradesh",
    "Taluk": "Shahganj",
    "Districtname": "Jaunpur",
    "statename": "UTTAR PRADESH"
  },
  {
    "pincode": "223103",
    "officename": "Gurbari B.O",
    "officeType": "B.O",
    "Deliverystatus": "Delivery",
    "divisionname": "Jaunpur",
    "regionname": "Allahabad",
    "circlename": "Uttar Pradesh",
    "Taluk": "Shahganj",
    "Districtname": "Jaunpur",
    "statename": "UTTAR PRADESH"
  },
  {
    "pincode": "223103",
    "officename": "Jamunia B.O",
    "officeType": "B.O",
    "Deliverystatus": "Delivery",
    "divisionname": "Jaunpur",
    "regionname": "Allahabad",
    "circlename": "Uttar Pradesh",
    "Taluk": "Shahganj",
    "Districtname": "Jaunpur",
    "statename": "UTTAR PRADESH"
  },
  {
    "pincode": "223103",
    "officename": "Patti Chakesar B.O",
    "officeType": "B.O",
    "Deliverystatus": "Delivery",
    "divisionname": "Jaunpur",
    "regionname": "Allahabad",
    "circlename": "Uttar Pradesh",
    "Taluk": "Shahganj",
    "Districtname": "Jaunpur",
    "statename": "UTTAR PRADESH"
  },
  {
    "pincode": "223103",
    "officename": "Saraimohiddin S.O",
    "officeType": "S.O",
    "Deliverystatus": "Delivery",
    "divisionname": "Jaunpur",
    "regionname": "Allahabad",
    "circlename": "Uttar Pradesh",
    "Taluk": "Shahganj",
    "Districtname": "Jaunpur",
    "statename": "UTTAR PRADESH"
  },
  {
    "pincode": "223103",
    "officename": "Sultanpur Ghughuri B.O",
    "officeType": "B.O",
    "Deliverystatus": "Delivery",
    "divisionname": "Jaunpur",
    "regionname": "Allahabad",
    "circlename": "Uttar Pradesh",
    "Taluk": "Shahganj",
    "Districtname": "Jaunpur",
    "statename": "UTTAR PRADESH"
  }
]
