[
  {
    "pincode": "223221",
    "officename": "Aharaula S.O",
    "officeType": "S.O",
    "Deliverystatus": "Delivery",
    "divisionname": "Azamgarh",
    "regionname": "Gorakhpur",
    "circlename": "Uttar Pradesh",
    "Taluk": "Budanpur",
    "Districtname": "Azamgarh",
    "statename": "UTTAR PRADESH"
  },
  {
    "pincode": "223221",
    "officename": "Baraipur B.O",
    "officeType": "B.O",
    "Deliverystatus": "Delivery",
    "divisionname": "Azamgarh",
    "regionname": "Gorakhpur",
    "circlename": "Uttar Pradesh",
    "Taluk": "Budan Pur",
    "Districtname": "Azamgarh",
    "statename": "UTTAR PRADESH"
  },
  {
    "pincode": "223221",
    "officename": "Bhimal Patti B.O",
    "officeType": "B.O",
    "Deliverystatus": "Delivery",
    "divisionname": "Azamgarh",
    "regionname": "Gorakhpur",
    "circlename": "Uttar Pradesh",
    "Taluk": "Nizamabad",
    "Districtname": "Azamgarh",
    "statename": "UTTAR PRADESH"
  },
  {
    "pincode": "223221",
    "officename": "Bilari B.O",
    "officeType": "B.O",
    "Deliverystatus": "Delivery",
    "divisionname": "Azamgarh",
    "regionname": "Gorakhpur",
    "circlename": "Uttar Pradesh",
    "Taluk": "Budan Pur",
    "Districtname": "Azamgarh",
    "statename": "UTTAR PRADESH"
  },
  {
    "pincode": "223221",
    "officename": "Chhitauna B.O",
    "officeType": "B.O",
    "Deliverystatus": "Delivery",
    "divisionname": "Azamgarh",
    "regionname": "Gorakhpur",
    "circlename": "Uttar Pradesh",
    "Taluk": "Mehnagar **",
    "Districtname": "Azamgarh",
    "statename": "UTTAR PRADESH"
  },
  {
    "pincode": "223221",
    "officename": "Daniyalpur B.O",
    "officeType": "B.O",
    "Deliverystatus": "Delivery",
    "divisionname": "Azamgarh",
    "regionname": "Gorakhpur",
    "circlename": "Uttar Pradesh",
    "Taluk": "Budan Pur",
    "Districtname": "Azamgarh",
    "statename": "UTTAR PRADESH"
  },
  {
    "pincode": "223221",
    "officename": "Edilpur B.O",
    "officeType": "B.O",
    "Deliverystatus": "Delivery",
    "divisionname": "Azamgarh",
    "regionname": "Gorakhpur",
    "circlename": "Uttar Pradesh",
    "Taluk": "Mehnagar **",
    "Districtname": "Azamgarh",
    "statename": "UTTAR PRADESH"
  },
  {
    "pincode": "223221",
    "officename": "Gahaji B.O",
    "officeType": "B.O",
    "Deliverystatus": "Delivery",
    "divisionname": "Azamgarh",
    "regionname": "Gorakhpur",
    "circlename": "Uttar Pradesh",
    "Taluk": "Nizamabad",
    "Districtname": "Azamgarh",
    "statename": "UTTAR PRADESH"
  },
  {
    "pincode": "223221",
    "officename": "Gauri B.O",
    "officeType": "B.O",
    "Deliverystatus": "Delivery",
    "divisionname": "Azamgarh",
    "regionname": "Gorakhpur",
    "circlename": "Uttar Pradesh",
    "Taluk": "Budan Pur",
    "Districtname": "Azamgarh",
    "statename": "UTTAR PRADESH"
  },
  {
    "pincode": "223221",
    "officename": "Khajuri B.O",
    "officeType": "B.O",
    "Deliverystatus": "Delivery",
    "divisionname": "Azamgarh",
    "regionname": "Gorakhpur",
    "circlename": "Uttar Pradesh",
    "Taluk": "Mehnagar **",
    "Districtname": "Azamgarh",
    "statename": "UTTAR PRADESH"
  },
  {
    "pincode": "223221",
    "officename": "Kushmahara B.O",
    "officeType": "B.O",
    "Deliverystatus": "Delivery",
    "divisionname": "Azamgarh",
    "regionname": "Gorakhpur",
    "circlename": "Uttar Pradesh",
    "Taluk": "Mehnagar **",
    "Districtname": "Azamgarh",
    "statename": "UTTAR PRADESH"
  },
  {
    "pincode": "223221",
    "officename": "Samsabad B.O",
    "officeType": "B.O",
    "Deliverystatus": "Delivery",
    "divisionname": "Azamgarh",
    "regionname": "Gorakhpur",
    "circlename": "Uttar Pradesh",
    "Taluk": "Mehnagar **",
    "Districtname": "Azamgarh",
    "statename": "UTTAR PRADESH"
  },
  {
    "pincode": "223221",
    "officename": "Sarain B.O",
    "officeType": "B.O",
    "Deliverystatus": "Delivery",
    "divisionname": "Azamgarh",
    "regionname": "Gorakhpur",
    "circlename": "Uttar Pradesh",
    "Taluk": "Azamgarh",
    "Districtname": "Azamgarh",
    "statename": "UTTAR PRADESH"
  },
  {
    "pincode": "223221",
    "officename": "Sukhi Pur B.O",
    "officeType": "B.O",
    "Deliverystatus": "Delivery",
    "divisionname": "Azamgarh",
    "regionname": "Gorakhpur",
    "circlename": "Uttar Pradesh",
    "Taluk": "Phool Pur",
    "Districtname": "Azamgarh",
    "statename": "UTTAR PRADESH"
  },
  {
    "pincode": "223221",
    "officename": "Vinoa Puri B.O",
    "officeType": "B.O",
    "Deliverystatus": "Delivery",
    "divisionname": "Azamgarh",
    "regionname": "Gorakhpur",
    "circlename": "Uttar Pradesh",
    "Taluk": "Budan Pur",
    "Districtname": "Azamgarh",
    "statename": "UTTAR PRADESH"
  },
  {
    "pincode": "223221",
    "officename": "Youdhisthirpatti. B.O",
    "officeType": "B.O",
    "Deliverystatus": "Delivery",
    "divisionname": "Azamgarh",
    "regionname": "Gorakhpur",
    "circlename": "Uttar Pradesh",
    "Taluk": "Budan Pur",
    "Districtname": "Azamgarh",
    "statename": "UTTAR PRADESH"
  }
]
