[
  {
    "pincode": "224001",
    "officename": "Acharya Nagar S.O",
    "officeType": "S.O",
    "Deliverystatus": "Non-Delivery",
    "divisionname": "Faizabad",
    "regionname": "Lucknow  HQ",
    "circlename": "Uttar Pradesh",
    "Taluk": "Faizabad",
    "Districtname": "Faizabad",
    "statename": "UTTAR PRADESH"
  },
  {
    "pincode": "224001",
    "officename": "Chirra Mohammad Pur B.O",
    "officeType": "B.O",
    "Deliverystatus": "Delivery",
    "divisionname": "Faizabad",
    "regionname": "Lucknow  HQ",
    "circlename": "Uttar Pradesh",
    "Taluk": "Faizabad",
    "Districtname": "Faizabad",
    "statename": "UTTAR PRADESH"
  },
  {
    "pincode": "224001",
    "officename": "Deokali B.O",
    "officeType": "B.O",
    "Deliverystatus": "Non-Delivery",
    "divisionname": "Faizabad",
    "regionname": "Lucknow  HQ",
    "circlename": "Uttar Pradesh",
    "Taluk": "Faizabad",
    "Districtname": "Faizabad",
    "statename": "UTTAR PRADESH"
  },
  {
    "pincode": "224001",
    "officename": "Dharamarg S.O",
    "officeType": "S.O",
    "Deliverystatus": "Non-Delivery",
    "divisionname": "Faizabad",
    "regionname": "Lucknow  HQ",
    "circlename": "Uttar Pradesh",
    "Taluk": "Faizabad",
    "Districtname": "Faizabad",
    "statename": "UTTAR PRADESH"
  },
  {
    "pincode": "224001",
    "officename": "Faizabad Cantt S.O",
    "officeType": "S.O",
    "Deliverystatus": "Non-Delivery",
    "divisionname": "Faizabad",
    "regionname": "Lucknow  HQ",
    "circlename": "Uttar Pradesh",
    "Taluk": "Faizabad",
    "Districtname": "Faizabad",
    "statename": "UTTAR PRADESH"
  },
  {
    "pincode": "224001",
    "officename": "Faizabad City S.O",
    "officeType": "S.O",
    "Deliverystatus": "Non-Delivery",
    "divisionname": "Faizabad",
    "regionname": "Lucknow  HQ",
    "circlename": "Uttar Pradesh",
    "Taluk": "Faizabad",
    "Districtname": "Faizabad",
    "statename": "UTTAR PRADESH"
  },
  {
    "pincode": "224001",
    "officename": "Faizabad H.O",
    "officeType": "H.O",
    "Deliverystatus": "Delivery",
    "divisionname": "Faizabad",
    "regionname": "Lucknow  HQ",
    "circlename": "Uttar Pradesh",
    "Taluk": "Faizabad",
    "Districtname": "Faizabad",
    "statename": "UTTAR PRADESH"
  },
  {
    "pincode": "224001",
    "officename": "Faizabad Kutchery S.O",
    "officeType": "S.O",
    "Deliverystatus": "Non-Delivery",
    "divisionname": "Faizabad",
    "regionname": "Lucknow  HQ",
    "circlename": "Uttar Pradesh",
    "Taluk": "Faizabad",
    "Districtname": "Faizabad",
    "statename": "UTTAR PRADESH"
  },
  {
    "pincode": "224001",
    "officename": "Faizabad RS S.O",
    "officeType": "S.O",
    "Deliverystatus": "Non-Delivery",
    "divisionname": "Faizabad",
    "regionname": "Lucknow  HQ",
    "circlename": "Uttar Pradesh",
    "Taluk": "Faizabad",
    "Districtname": "Faizabad",
    "statename": "UTTAR PRADESH"
  },
  {
    "pincode": "224001",
    "officename": "Fatehganj S.O (Faizabad)",
    "officeType": "S.O",
    "Deliverystatus": "Non-Delivery",
    "divisionname": "Faizabad",
    "regionname": "Lucknow  HQ",
    "circlename": "Uttar Pradesh",
    "Taluk": "Faizabad",
    "Districtname": "Faizabad",
    "statename": "UTTAR PRADESH"
  },
  {
    "pincode": "224001",
    "officename": "Gadopur Majhwa B.O",
    "officeType": "B.O",
    "Deliverystatus": "Delivery",
    "divisionname": "Faizabad",
    "regionname": "Lucknow  HQ",
    "circlename": "Uttar Pradesh",
    "Taluk": "Faizabad",
    "Districtname": "Faizabad",
    "statename": "UTTAR PRADESH"
  },
  {
    "pincode": "224001",
    "officename": "Gopalpur B.O",
    "officeType": "B.O",
    "Deliverystatus": "Delivery",
    "divisionname": "Faizabad",
    "regionname": "Lucknow  HQ",
    "circlename": "Uttar Pradesh",
    "Taluk": "Faizabad",
    "Districtname": "Faizabad",
    "statename": "UTTAR PRADESH"
  },
  {
    "pincode": "224001",
    "officename": "Haripur Jalalabad B.O",
    "officeType": "B.O",
    "Deliverystatus": "Delivery",
    "divisionname": "Faizabad",
    "regionname": "Lucknow  HQ",
    "circlename": "Uttar Pradesh",
    "Taluk": "Faizabad",
    "Districtname": "Faizabad",
    "statename": "UTTAR PRADESH"
  },
  {
    "pincode": "224001",
    "officename": "Janpad Chikitsalaya S.O",
    "officeType": "S.O",
    "Deliverystatus": "Non-Delivery",
    "divisionname": "Faizabad",
    "regionname": "Lucknow  HQ",
    "circlename": "Uttar Pradesh",
    "Taluk": "Faizabad",
    "Districtname": "Faizabad",
    "statename": "UTTAR PRADESH"
  },
  {
    "pincode": "224001",
    "officename": "Kandhari Bazar S.O",
    "officeType": "S.O",
    "Deliverystatus": "Non-Delivery",
    "divisionname": "Faizabad",
    "regionname": "Lucknow  HQ",
    "circlename": "Uttar Pradesh",
    "Taluk": "Faizabad",
    "Districtname": "Faizabad",
    "statename": "UTTAR PRADESH"
  },
  {
    "pincode": "224001",
    "officename": "Kot Sarai B.O",
    "officeType": "B.O",
    "Deliverystatus": "Delivery",
    "divisionname": "Faizabad",
    "regionname": "Lucknow  HQ",
    "circlename": "Uttar Pradesh",
    "Taluk": "Faizabad",
    "Districtname": "Faizabad",
    "statename": "UTTAR PRADESH"
  },
  {
    "pincode": "224001",
    "officename": "Lalbagh S.O (Faizabad)",
    "officeType": "S.O",
    "Deliverystatus": "Non-Delivery",
    "divisionname": "Faizabad",
    "regionname": "Lucknow  HQ",
    "circlename": "Uttar Pradesh",
    "Taluk": "Faizabad",
    "Districtname": "Faizabad",
    "statename": "UTTAR PRADESH"
  },
  {
    "pincode": "224001",
    "officename": "Mandi Samiti S.O",
    "officeType": "S.O",
    "Deliverystatus": "Non-Delivery",
    "divisionname": "Faizabad",
    "regionname": "Lucknow  HQ",
    "circlename": "Uttar Pradesh",
    "Taluk": "Faizabad",
    "Districtname": "Faizabad",
    "statename": "UTTAR PRADESH"
  },
  {
    "pincode": "224001",
    "officename": "Mau Yaduwanshpur B.O",
    "officeType": "B.O",
    "Deliverystatus": "Delivery",
    "divisionname": "Faizabad",
    "regionname": "Lucknow  HQ",
    "circlename": "Uttar Pradesh",
    "Taluk": "Faizabad",
    "Districtname": "Faizabad",
    "statename": "UTTAR PRADESH"
  },
  {
    "pincode": "224001",
    "officename": "Motibagah S.O",
    "officeType": "S.O",
    "Deliverystatus": "Non-Delivery",
    "divisionname": "Faizabad",
    "regionname": "Lucknow  HQ",
    "circlename": "Uttar Pradesh",
    "Taluk": "Faizabad",
    "Districtname": "Faizabad",
    "statename": "UTTAR PRADESH"
  },
  {
    "pincode": "224001",
    "officename": "Mumtaj Nagar B.O",
    "officeType": "B.O",
    "Deliverystatus": "Delivery",
    "divisionname": "Faizabad",
    "regionname": "Lucknow  HQ",
    "circlename": "Uttar Pradesh",
    "Taluk": "Faizabad",
    "Districtname": "Faizabad",
    "statename": "UTTAR PRADESH"
  },
  {
    "pincode": "224001",
    "officename": "Naka Muzzafra B.O",
    "officeType": "B.O",
    "Deliverystatus": "Non-Delivery",
    "divisionname": "Faizabad",
    "regionname": "Lucknow  HQ",
    "circlename": "Uttar Pradesh",
    "Taluk": "Faizabad",
    "Districtname": "Faizabad",
    "statename": "UTTAR PRADESH"
  },
  {
    "pincode": "224001",
    "officename": "Niywan S.O",
    "officeType": "S.O",
    "Deliverystatus": "Non-Delivery",
    "divisionname": "Faizabad",
    "regionname": "Lucknow  HQ",
    "circlename": "Uttar Pradesh",
    "Taluk": "Faizabad",
    "Districtname": "Faizabad",
    "statename": "UTTAR PRADESH"
  },
  {
    "pincode": "224001",
    "officename": "Ramnagar Colony S.O",
    "officeType": "S.O",
    "Deliverystatus": "Non-Delivery",
    "divisionname": "Faizabad",
    "regionname": "Lucknow  HQ",
    "circlename": "Uttar Pradesh",
    "Taluk": "Faizabad",
    "Districtname": "Faizabad",
    "statename": "UTTAR PRADESH"
  },
  {
    "pincode": "224001",
    "officename": "Sadar Bazar S.O (Faizabad)",
    "officeType": "S.O",
    "Deliverystatus": "Non-Delivery",
    "divisionname": "Faizabad",
    "regionname": "Lucknow  HQ",
    "circlename": "Uttar Pradesh",
    "Taluk": "Faizabad",
    "Districtname": "Faizabad",
    "statename": "UTTAR PRADESH"
  },
  {
    "pincode": "224001",
    "officename": "Sahadatganj B.O",
    "officeType": "B.O",
    "Deliverystatus": "Non-Delivery",
    "divisionname": "Faizabad",
    "regionname": "Lucknow  HQ",
    "circlename": "Uttar Pradesh",
    "Taluk": "Faizabad",
    "Districtname": "Faizabad",
    "statename": "UTTAR PRADESH"
  },
  {
    "pincode": "224001",
    "officename": "Sahebganj S.O (Faizabad)",
    "officeType": "S.O",
    "Deliverystatus": "Non-Delivery",
    "divisionname": "Faizabad",
    "regionname": "Lucknow  HQ",
    "circlename": "Uttar Pradesh",
    "Taluk": "Faizabad",
    "Districtname": "Faizabad",
    "statename": "UTTAR PRADESH"
  },
  {
    "pincode": "224001",
    "officename": "Sariyawan B.O",
    "officeType": "B.O",
    "Deliverystatus": "Delivery",
    "divisionname": "Faizabad",
    "regionname": "Lucknow  HQ",
    "circlename": "Uttar Pradesh",
    "Taluk": "Faizabad",
    "Districtname": "Faizabad",
    "statename": "UTTAR PRADESH"
  },
  {
    "pincode": "224001",
    "officename": "Water Works B.O",
    "officeType": "B.O",
    "Deliverystatus": "Non-Delivery",
    "divisionname": "Faizabad",
    "regionname": "Lucknow  HQ",
    "circlename": "Uttar Pradesh",
    "Taluk": "Faizabad",
    "Districtname": "Faizabad",
    "statename": "UTTAR PRADESH"
  }
]
