[
  {
    "pincode": "224126",
    "officename": "Baragaon RS S.O",
    "officeType": "S.O",
    "Deliverystatus": "Delivery",
    "divisionname": "Faizabad",
    "regionname": "Lucknow  HQ",
    "circlename": "Uttar Pradesh",
    "Taluk": "Sohawal",
    "Districtname": "Faizabad",
    "statename": "UTTAR PRADESH"
  },
  {
    "pincode": "224126",
    "officename": "Gondwa B.O",
    "officeType": "B.O",
    "Deliverystatus": "Delivery",
    "divisionname": "Faizabad",
    "regionname": "Lucknow  HQ",
    "circlename": "Uttar Pradesh",
    "Taluk": "Sohawal",
    "Districtname": "Faizabad",
    "statename": "UTTAR PRADESH"
  },
  {
    "pincode": "224126",
    "officename": "Hajipur B.O",
    "officeType": "B.O",
    "Deliverystatus": "Delivery",
    "divisionname": "Faizabad",
    "regionname": "Lucknow  HQ",
    "circlename": "Uttar Pradesh",
    "Taluk": "Sohawal",
    "Districtname": "Faizabad",
    "statename": "UTTAR PRADESH"
  },
  {
    "pincode": "224126",
    "officename": "Kareru B.O",
    "officeType": "B.O",
    "Deliverystatus": "Delivery",
    "divisionname": "Faizabad",
    "regionname": "Lucknow  HQ",
    "circlename": "Uttar Pradesh",
    "Taluk": "Sohawal",
    "Districtname": "Faizabad",
    "statename": "UTTAR PRADESH"
  },
  {
    "pincode": "224126",
    "officename": "Maholi Uprahar B.O",
    "officeType": "B.O",
    "Deliverystatus": "Delivery",
    "divisionname": "Faizabad",
    "regionname": "Lucknow  HQ",
    "circlename": "Uttar Pradesh",
    "Taluk": "Sohawal **",
    "Districtname": "Faizabad",
    "statename": "UTTAR PRADESH"
  },
  {
    "pincode": "224126",
    "officename": "Pirkhauli B.O",
    "officeType": "B.O",
    "Deliverystatus": "Delivery",
    "divisionname": "Faizabad",
    "regionname": "Lucknow  HQ",
    "circlename": "Uttar Pradesh",
    "Taluk": "Sohawal",
    "Districtname": "Faizabad",
    "statename": "UTTAR PRADESH"
  },
  {
    "pincode": "224126",
    "officename": "Ramnagar Dhaurahra B.O",
    "officeType": "B.O",
    "Deliverystatus": "Delivery",
    "divisionname": "Faizabad",
    "regionname": "Lucknow  HQ",
    "circlename": "Uttar Pradesh",
    "Taluk": "Sohawal",
    "Districtname": "Faizabad",
    "statename": "UTTAR PRADESH"
  },
  {
    "pincode": "224126",
    "officename": "Sarangpur B.O",
    "officeType": "B.O",
    "Deliverystatus": "Delivery",
    "divisionname": "Faizabad",
    "regionname": "Lucknow  HQ",
    "circlename": "Uttar Pradesh",
    "Taluk": "Sohawal",
    "Districtname": "Faizabad",
    "statename": "UTTAR PRADESH"
  },
  {
    "pincode": "224126",
    "officename": "Seewar B.O",
    "officeType": "B.O",
    "Deliverystatus": "Delivery",
    "divisionname": "Faizabad",
    "regionname": "Lucknow  HQ",
    "circlename": "Uttar Pradesh",
    "Taluk": "Sohawal",
    "Districtname": "Faizabad",
    "statename": "UTTAR PRADESH"
  }
]
