[
  {
    "pincode": "224146",
    "officename": "Husainpur B.O",
    "officeType": "B.O",
    "Deliverystatus": "Delivery",
    "divisionname": "Faizabad",
    "regionname": "Lucknow  HQ",
    "circlename": "Uttar Pradesh",
    "Taluk": "Akberpur",
    "Districtname": "Ambedkar Nagar",
    "statename": "UTTAR PRADESH"
  },
  {
    "pincode": "224146",
    "officename": "Jafarganj S.O",
    "officeType": "S.O",
    "Deliverystatus": "Delivery",
    "divisionname": "Faizabad",
    "regionname": "Lucknow  HQ",
    "circlename": "Uttar Pradesh",
    "Taluk": "Akbarpur",
    "Districtname": "Ambedkar Nagar",
    "statename": "UTTAR PRADESH"
  },
  {
    "pincode": "224146",
    "officename": "Kakardilla B.O",
    "officeType": "B.O",
    "Deliverystatus": "Delivery",
    "divisionname": "Faizabad",
    "regionname": "Lucknow  HQ",
    "circlename": "Uttar Pradesh",
    "Taluk": "Jalalpur",
    "Districtname": "Ambedkar Nagar",
    "statename": "UTTAR PRADESH"
  },
  {
    "pincode": "224146",
    "officename": "Kartora B.O",
    "officeType": "B.O",
    "Deliverystatus": "Delivery",
    "divisionname": "Faizabad",
    "regionname": "Lucknow  HQ",
    "circlename": "Uttar Pradesh",
    "Taluk": "Akberpur",
    "Districtname": "Ambedkar Nagar",
    "statename": "UTTAR PRADESH"
  },
  {
    "pincode": "224146",
    "officename": "Saidapur B.O",
    "officeType": "B.O",
    "Deliverystatus": "Delivery",
    "divisionname": "Faizabad",
    "regionname": "Lucknow  HQ",
    "circlename": "Uttar Pradesh",
    "Taluk": "Akbarpur",
    "Districtname": "Ambedkar Nagar",
    "statename": "UTTAR PRADESH"
  },
  {
    "pincode": "224146",
    "officename": "Saidpur Bhitari B.O",
    "officeType": "B.O",
    "Deliverystatus": "Delivery",
    "divisionname": "Faizabad",
    "regionname": "Lucknow  HQ",
    "circlename": "Uttar Pradesh",
    "Taluk": "Akbarpur",
    "Districtname": "Ambedkar Nagar",
    "statename": "UTTAR PRADESH"
  },
  {
    "pincode": "224146",
    "officename": "Shikrohar B.O",
    "officeType": "B.O",
    "Deliverystatus": "Delivery",
    "divisionname": "Faizabad",
    "regionname": "Lucknow  HQ",
    "circlename": "Uttar Pradesh",
    "Taluk": "Akbarpur",
    "Districtname": "Ambedkar Nagar",
    "statename": "UTTAR PRADESH"
  },
  {
    "pincode": "224146",
    "officename": "Tara Khurd B.O",
    "officeType": "B.O",
    "Deliverystatus": "Delivery",
    "divisionname": "Faizabad",
    "regionname": "Lucknow  HQ",
    "circlename": "Uttar Pradesh",
    "Taluk": "Akbarpur",
    "Districtname": "Ambedkar Nagar",
    "statename": "UTTAR PRADESH"
  }
]
