[
  {
    "pincode": "224164",
    "officename": "Anjrauli B.O",
    "officeType": "B.O",
    "Deliverystatus": "Delivery",
    "divisionname": "Faizabad",
    "regionname": "Lucknow  HQ",
    "circlename": "Uttar Pradesh",
    "Taluk": "Milkipur",
    "Districtname": "Faizabad",
    "statename": "UTTAR PRADESH"
  },
  {
    "pincode": "224164",
    "officename": "Bhimatali B.O",
    "officeType": "B.O",
    "Deliverystatus": "Delivery",
    "divisionname": "Faizabad",
    "regionname": "Lucknow  HQ",
    "circlename": "Uttar Pradesh",
    "Taluk": "Milkipur",
    "Districtname": "Faizabad",
    "statename": "UTTAR PRADESH"
  },
  {
    "pincode": "224164",
    "officename": "Chitaura B.O",
    "officeType": "B.O",
    "Deliverystatus": "Delivery",
    "divisionname": "Faizabad",
    "regionname": "Lucknow  HQ",
    "circlename": "Uttar Pradesh",
    "Taluk": "Milkipur",
    "Districtname": "Faizabad",
    "statename": "UTTAR PRADESH"
  },
  {
    "pincode": "224164",
    "officename": "Dhanaicha B.O",
    "officeType": "B.O",
    "Deliverystatus": "Delivery",
    "divisionname": "Faizabad",
    "regionname": "Lucknow  HQ",
    "circlename": "Uttar Pradesh",
    "Taluk": "Milkipur",
    "Districtname": "Faizabad",
    "statename": "UTTAR PRADESH"
  },
  {
    "pincode": "224164",
    "officename": "Ghatauli B.O",
    "officeType": "B.O",
    "Deliverystatus": "Delivery",
    "divisionname": "Faizabad",
    "regionname": "Lucknow  HQ",
    "circlename": "Uttar Pradesh",
    "Taluk": "Milkipur",
    "Districtname": "Faizabad",
    "statename": "UTTAR PRADESH"
  },
  {
    "pincode": "224164",
    "officename": "Gokula B.O",
    "officeType": "B.O",
    "Deliverystatus": "Delivery",
    "divisionname": "Faizabad",
    "regionname": "Lucknow  HQ",
    "circlename": "Uttar Pradesh",
    "Taluk": "Milkipur",
    "Districtname": "Faizabad",
    "statename": "UTTAR PRADESH"
  },
  {
    "pincode": "224164",
    "officename": "Manjhanpur B.O",
    "officeType": "B.O",
    "Deliverystatus": "Delivery",
    "divisionname": "Faizabad",
    "regionname": "Lucknow  HQ",
    "circlename": "Uttar Pradesh",
    "Taluk": "Milkipur",
    "Districtname": "Faizabad",
    "statename": "UTTAR PRADESH"
  },
  {
    "pincode": "224164",
    "officename": "Marui Ganeshpur B.O",
    "officeType": "B.O",
    "Deliverystatus": "Delivery",
    "divisionname": "Faizabad",
    "regionname": "Lucknow  HQ",
    "circlename": "Uttar Pradesh",
    "Taluk": "Milkipur",
    "Districtname": "Faizabad",
    "statename": "UTTAR PRADESH"
  },
  {
    "pincode": "224164",
    "officename": "Milkipur S.O",
    "officeType": "S.O",
    "Deliverystatus": "Delivery",
    "divisionname": "Faizabad",
    "regionname": "Lucknow  HQ",
    "circlename": "Uttar Pradesh",
    "Taluk": "Milkipur",
    "Districtname": "Faizabad",
    "statename": "UTTAR PRADESH"
  },
  {
    "pincode": "224164",
    "officename": "Nimari B.O",
    "officeType": "B.O",
    "Deliverystatus": "Delivery",
    "divisionname": "Faizabad",
    "regionname": "Lucknow  HQ",
    "circlename": "Uttar Pradesh",
    "Taluk": "Milkipur",
    "Districtname": "Faizabad",
    "statename": "UTTAR PRADESH"
  },
  {
    "pincode": "224164",
    "officename": "Parsawan Khurd B.O",
    "officeType": "B.O",
    "Deliverystatus": "Delivery",
    "divisionname": "Faizabad",
    "regionname": "Lucknow  HQ",
    "circlename": "Uttar Pradesh",
    "Taluk": "Tanda",
    "Districtname": "Ambedkar Nagar",
    "statename": "UTTAR PRADESH"
  },
  {
    "pincode": "224164",
    "officename": "Ranapur B.O",
    "officeType": "B.O",
    "Deliverystatus": "Delivery",
    "divisionname": "Faizabad",
    "regionname": "Lucknow  HQ",
    "circlename": "Uttar Pradesh",
    "Taluk": "Milkipur",
    "Districtname": "Faizabad",
    "statename": "UTTAR PRADESH"
  },
  {
    "pincode": "224164",
    "officename": "Tendha Khurd B.O",
    "officeType": "B.O",
    "Deliverystatus": "Delivery",
    "divisionname": "Faizabad",
    "regionname": "Lucknow  HQ",
    "circlename": "Uttar Pradesh",
    "Taluk": "Milkipur",
    "Districtname": "Faizabad",
    "statename": "UTTAR PRADESH"
  },
  {
    "pincode": "224164",
    "officename": "Upadhyapur B.O",
    "officeType": "B.O",
    "Deliverystatus": "Delivery",
    "divisionname": "Faizabad",
    "regionname": "Lucknow  HQ",
    "circlename": "Uttar Pradesh",
    "Taluk": "Jalalpur",
    "Districtname": "Ambedkar Nagar",
    "statename": "UTTAR PRADESH"
  }
]
