[
  {
    "pincode": "224121",
    "officename": "Amaniganj S.O",
    "officeType": "S.O",
    "Deliverystatus": "Delivery",
    "divisionname": "Faizabad",
    "regionname": "Lucknow  HQ",
    "circlename": "Uttar Pradesh",
    "Taluk": "Milkipur",
    "Districtname": "Faizabad",
    "statename": "UTTAR PRADESH"
  },
  {
    "pincode": "224121",
    "officename": "Bakauli B.O",
    "officeType": "B.O",
    "Deliverystatus": "Delivery",
    "divisionname": "Faizabad",
    "regionname": "Lucknow  HQ",
    "circlename": "Uttar Pradesh",
    "Taluk": "Milkipur",
    "Districtname": "Faizabad",
    "statename": "UTTAR PRADESH"
  },
  {
    "pincode": "224121",
    "officename": "Chandaura B.O",
    "officeType": "B.O",
    "Deliverystatus": "Delivery",
    "divisionname": "Faizabad",
    "regionname": "Lucknow  HQ",
    "circlename": "Uttar Pradesh",
    "Taluk": "Milkipur",
    "Districtname": "Faizabad",
    "statename": "UTTAR PRADESH"
  },
  {
    "pincode": "224121",
    "officename": "Dharauli B.O",
    "officeType": "B.O",
    "Deliverystatus": "Delivery",
    "divisionname": "Faizabad",
    "regionname": "Lucknow  HQ",
    "circlename": "Uttar Pradesh",
    "Taluk": "Milkipur",
    "Districtname": "Faizabad",
    "statename": "UTTAR PRADESH"
  },
  {
    "pincode": "224121",
    "officename": "Gaddopur B.O",
    "officeType": "B.O",
    "Deliverystatus": "Delivery",
    "divisionname": "Faizabad",
    "regionname": "Lucknow  HQ",
    "circlename": "Uttar Pradesh",
    "Taluk": "Milkipur",
    "Districtname": "Faizabad",
    "statename": "UTTAR PRADESH"
  },
  {
    "pincode": "224121",
    "officename": "Gauhania B.O",
    "officeType": "B.O",
    "Deliverystatus": "Delivery",
    "divisionname": "Faizabad",
    "regionname": "Lucknow  HQ",
    "circlename": "Uttar Pradesh",
    "Taluk": "Milkipur",
    "Districtname": "Faizabad",
    "statename": "UTTAR PRADESH"
  },
  {
    "pincode": "224121",
    "officename": "Harakhpur B.O",
    "officeType": "B.O",
    "Deliverystatus": "Delivery",
    "divisionname": "Faizabad",
    "regionname": "Lucknow  HQ",
    "circlename": "Uttar Pradesh",
    "Taluk": "Milkipur",
    "Districtname": "Faizabad",
    "statename": "UTTAR PRADESH"
  },
  {
    "pincode": "224121",
    "officename": "Mahmedpur B.O",
    "officeType": "B.O",
    "Deliverystatus": "Delivery",
    "divisionname": "Faizabad",
    "regionname": "Lucknow  HQ",
    "circlename": "Uttar Pradesh",
    "Taluk": "Tanda",
    "Districtname": "Ambedkar Nagar",
    "statename": "UTTAR PRADESH"
  },
  {
    "pincode": "224121",
    "officename": "Mahuwa B.O",
    "officeType": "B.O",
    "Deliverystatus": "Delivery",
    "divisionname": "Faizabad",
    "regionname": "Lucknow  HQ",
    "circlename": "Uttar Pradesh",
    "Taluk": "Milkipur",
    "Districtname": "Faizabad",
    "statename": "UTTAR PRADESH"
  },
  {
    "pincode": "224121",
    "officename": "Mamudiha B.O",
    "officeType": "B.O",
    "Deliverystatus": "Delivery",
    "divisionname": "Faizabad",
    "regionname": "Lucknow  HQ",
    "circlename": "Uttar Pradesh",
    "Taluk": "Milkipur",
    "Districtname": "Faizabad",
    "statename": "UTTAR PRADESH"
  },
  {
    "pincode": "224121",
    "officename": "Nandauli B.O",
    "officeType": "B.O",
    "Deliverystatus": "Delivery",
    "divisionname": "Faizabad",
    "regionname": "Lucknow  HQ",
    "circlename": "Uttar Pradesh",
    "Taluk": "Milkipur",
    "Districtname": "Faizabad",
    "statename": "UTTAR PRADESH"
  },
  {
    "pincode": "224121",
    "officename": "Raipatti B.O",
    "officeType": "B.O",
    "Deliverystatus": "Delivery",
    "divisionname": "Faizabad",
    "regionname": "Lucknow  HQ",
    "circlename": "Uttar Pradesh",
    "Taluk": "Milkipur",
    "Districtname": "Faizabad",
    "statename": "UTTAR PRADESH"
  },
  {
    "pincode": "224121",
    "officename": "Ramnagar Amawan Sufi B.O",
    "officeType": "B.O",
    "Deliverystatus": "Delivery",
    "divisionname": "Faizabad",
    "regionname": "Lucknow  HQ",
    "circlename": "Uttar Pradesh",
    "Taluk": "Milkipur",
    "Districtname": "Faizabad",
    "statename": "UTTAR PRADESH"
  },
  {
    "pincode": "224121",
    "officename": "Sarauli B.O",
    "officeType": "B.O",
    "Deliverystatus": "Delivery",
    "divisionname": "Faizabad",
    "regionname": "Lucknow  HQ",
    "circlename": "Uttar Pradesh",
    "Taluk": "Milkipur",
    "Districtname": "Faizabad",
    "statename": "UTTAR PRADESH"
  },
  {
    "pincode": "224121",
    "officename": "Taldholi B.O",
    "officeType": "B.O",
    "Deliverystatus": "Delivery",
    "divisionname": "Faizabad",
    "regionname": "Lucknow  HQ",
    "circlename": "Uttar Pradesh",
    "Taluk": "Milkipur",
    "Districtname": "Faizabad",
    "statename": "UTTAR PRADESH"
  }
]
