[
  {
    "pincode": "224206",
    "officename": "Basantpur B.O",
    "officeType": "B.O",
    "Deliverystatus": "Delivery",
    "divisionname": "Faizabad",
    "regionname": "Lucknow  HQ",
    "circlename": "Uttar Pradesh",
    "Taluk": "Bikapur",
    "Districtname": "Faizabad",
    "statename": "UTTAR PRADESH"
  },
  {
    "pincode": "224206",
    "officename": "Bhaironpur Tikari B.O",
    "officeType": "B.O",
    "Deliverystatus": "Delivery",
    "divisionname": "Faizabad",
    "regionname": "Lucknow  HQ",
    "circlename": "Uttar Pradesh",
    "Taluk": "Allapur **",
    "Districtname": "Ambedkar Nagar",
    "statename": "UTTAR PRADESH"
  },
  {
    "pincode": "224206",
    "officename": "Bhav Nathpur B.O",
    "officeType": "B.O",
    "Deliverystatus": "Delivery",
    "divisionname": "Faizabad",
    "regionname": "Lucknow  HQ",
    "circlename": "Uttar Pradesh",
    "Taluk": "Bikapur",
    "Districtname": "Faizabad",
    "statename": "UTTAR PRADESH"
  },
  {
    "pincode": "224206",
    "officename": "Bodahari B.O",
    "officeType": "B.O",
    "Deliverystatus": "Delivery",
    "divisionname": "Faizabad",
    "regionname": "Lucknow  HQ",
    "circlename": "Uttar Pradesh",
    "Taluk": "Milkipur",
    "Districtname": "Faizabad",
    "statename": "UTTAR PRADESH"
  },
  {
    "pincode": "224206",
    "officename": "Katari B.O",
    "officeType": "B.O",
    "Deliverystatus": "Delivery",
    "divisionname": "Faizabad",
    "regionname": "Lucknow  HQ",
    "circlename": "Uttar Pradesh",
    "Taluk": "Bikapur",
    "Districtname": "Faizabad",
    "statename": "UTTAR PRADESH"
  },
  {
    "pincode": "224206",
    "officename": "Khajurahat S.O",
    "officeType": "S.O",
    "Deliverystatus": "Delivery",
    "divisionname": "Faizabad",
    "regionname": "Lucknow  HQ",
    "circlename": "Uttar Pradesh",
    "Taluk": "Faizabad",
    "Districtname": "Faizabad",
    "statename": "UTTAR PRADESH"
  },
  {
    "pincode": "224206",
    "officename": "Koro Raghopur B.O",
    "officeType": "B.O",
    "Deliverystatus": "Delivery",
    "divisionname": "Faizabad",
    "regionname": "Lucknow  HQ",
    "circlename": "Uttar Pradesh",
    "Taluk": "Tanda",
    "Districtname": "Ambedkar Nagar",
    "statename": "UTTAR PRADESH"
  },
  {
    "pincode": "224206",
    "officename": "Mahawan B.O",
    "officeType": "B.O",
    "Deliverystatus": "Delivery",
    "divisionname": "Faizabad",
    "regionname": "Lucknow  HQ",
    "circlename": "Uttar Pradesh",
    "Taluk": "Tanda",
    "Districtname": "Ambedkar Nagar",
    "statename": "UTTAR PRADESH"
  },
  {
    "pincode": "224206",
    "officename": "Mangari B.O",
    "officeType": "B.O",
    "Deliverystatus": "Delivery",
    "divisionname": "Faizabad",
    "regionname": "Lucknow  HQ",
    "circlename": "Uttar Pradesh",
    "Taluk": "Allapur **",
    "Districtname": "Ambedkar Nagar",
    "statename": "UTTAR PRADESH"
  },
  {
    "pincode": "224206",
    "officename": "Marui Sahai Singh B.O",
    "officeType": "B.O",
    "Deliverystatus": "Delivery",
    "divisionname": "Faizabad",
    "regionname": "Lucknow  HQ",
    "circlename": "Uttar Pradesh",
    "Taluk": "Bikapur",
    "Districtname": "Faizabad",
    "statename": "UTTAR PRADESH"
  },
  {
    "pincode": "224206",
    "officename": "Nuawan Baidara B.O",
    "officeType": "B.O",
    "Deliverystatus": "Delivery",
    "divisionname": "Faizabad",
    "regionname": "Lucknow  HQ",
    "circlename": "Uttar Pradesh",
    "Taluk": "Tanda",
    "Districtname": "Ambedkar Nagar",
    "statename": "UTTAR PRADESH"
  },
  {
    "pincode": "224206",
    "officename": "Ramnagar Chaukia B.O",
    "officeType": "B.O",
    "Deliverystatus": "Delivery",
    "divisionname": "Faizabad",
    "regionname": "Lucknow  HQ",
    "circlename": "Uttar Pradesh",
    "Taluk": "Allapur **",
    "Districtname": "Ambedkar Nagar",
    "statename": "UTTAR PRADESH"
  }
]
