[
  {
    "pincode": "225125",
    "officename": "Chiraiya B.O",
    "officeType": "B.O",
    "Deliverystatus": "Delivery",
    "divisionname": "Barabanki",
    "regionname": "Lucknow  HQ",
    "circlename": "Uttar Pradesh",
    "Taluk": "Haider Garh",
    "Districtname": "Barabanki",
    "statename": "UTTAR PRADESH"
  },
  {
    "pincode": "225125",
    "officename": "Gerawan B.O",
    "officeType": "B.O",
    "Deliverystatus": "Delivery",
    "divisionname": "Barabanki",
    "regionname": "Lucknow  HQ",
    "circlename": "Uttar Pradesh",
    "Taluk": "Haider Garh",
    "Districtname": "Barabanki",
    "statename": "UTTAR PRADESH"
  },
  {
    "pincode": "225125",
    "officename": "Islampur B.O",
    "officeType": "B.O",
    "Deliverystatus": "Delivery",
    "divisionname": "Barabanki",
    "regionname": "Lucknow  HQ",
    "circlename": "Uttar Pradesh",
    "Taluk": "Haider Garh",
    "Districtname": "Barabanki",
    "statename": "UTTAR PRADESH"
  },
  {
    "pincode": "225125",
    "officename": "Jameen Husainabad B.O",
    "officeType": "B.O",
    "Deliverystatus": "Delivery",
    "divisionname": "Barabanki",
    "regionname": "Lucknow  HQ",
    "circlename": "Uttar Pradesh",
    "Taluk": "Haider Garh",
    "Districtname": "Barabanki",
    "statename": "UTTAR PRADESH"
  },
  {
    "pincode": "225125",
    "officename": "Magauwan B.O",
    "officeType": "B.O",
    "Deliverystatus": "Delivery",
    "divisionname": "Barabanki",
    "regionname": "Lucknow  HQ",
    "circlename": "Uttar Pradesh",
    "Taluk": "Haider Garh",
    "Districtname": "Barabanki",
    "statename": "UTTAR PRADESH"
  },
  {
    "pincode": "225125",
    "officename": "Palia B.O",
    "officeType": "B.O",
    "Deliverystatus": "Delivery",
    "divisionname": "Barabanki",
    "regionname": "Lucknow  HQ",
    "circlename": "Uttar Pradesh",
    "Taluk": "Haider Garh",
    "Districtname": "Barabanki",
    "statename": "UTTAR PRADESH"
  },
  {
    "pincode": "225125",
    "officename": "Sarai Gopi B.O",
    "officeType": "B.O",
    "Deliverystatus": "Delivery",
    "divisionname": "Barabanki",
    "regionname": "Lucknow  HQ",
    "circlename": "Uttar Pradesh",
    "Taluk": "Haider Garh",
    "Districtname": "Barabanki",
    "statename": "UTTAR PRADESH"
  },
  {
    "pincode": "225125",
    "officename": "Sharifabad B.O",
    "officeType": "B.O",
    "Deliverystatus": "Delivery",
    "divisionname": "Barabanki",
    "regionname": "Lucknow  HQ",
    "circlename": "Uttar Pradesh",
    "Taluk": "Haider Garh",
    "Districtname": "Barabanki",
    "statename": "UTTAR PRADESH"
  },
  {
    "pincode": "225125",
    "officename": "Subeha S.O",
    "officeType": "S.O",
    "Deliverystatus": "Delivery",
    "divisionname": "Barabanki",
    "regionname": "Lucknow  HQ",
    "circlename": "Uttar Pradesh",
    "Taluk": "Haider Garh",
    "Districtname": "Barabanki",
    "statename": "UTTAR PRADESH"
  }
]
