[
  {
    "pincode": "225204",
    "officename": "Bansa Sharif B.O",
    "officeType": "B.O",
    "Deliverystatus": "Delivery",
    "divisionname": "Barabanki",
    "regionname": "Lucknow  HQ",
    "circlename": "Uttar Pradesh",
    "Taluk": "Nawabganj",
    "Districtname": "Barabanki",
    "statename": "UTTAR PRADESH"
  },
  {
    "pincode": "225204",
    "officename": "Baragaon B.O",
    "officeType": "B.O",
    "Deliverystatus": "Delivery",
    "divisionname": "Barabanki",
    "regionname": "Lucknow  HQ",
    "circlename": "Uttar Pradesh",
    "Taluk": "Nawabganj",
    "Districtname": "Barabanki",
    "statename": "UTTAR PRADESH"
  },
  {
    "pincode": "225204",
    "officename": "Bhayara B.O",
    "officeType": "B.O",
    "Deliverystatus": "Delivery",
    "divisionname": "Barabanki",
    "regionname": "Lucknow  HQ",
    "circlename": "Uttar Pradesh",
    "Taluk": "Nawabganj",
    "Districtname": "Barabanki",
    "statename": "UTTAR PRADESH"
  },
  {
    "pincode": "225204",
    "officename": "Bindaura B.O",
    "officeType": "B.O",
    "Deliverystatus": "Delivery",
    "divisionname": "Barabanki",
    "regionname": "Lucknow  HQ",
    "circlename": "Uttar Pradesh",
    "Taluk": "Ramnagar",
    "Districtname": "Barabanki",
    "statename": "UTTAR PRADESH"
  },
  {
    "pincode": "225204",
    "officename": "Budhwara B.O",
    "officeType": "B.O",
    "Deliverystatus": "Delivery",
    "divisionname": "Barabanki",
    "regionname": "Lucknow  HQ",
    "circlename": "Uttar Pradesh",
    "Taluk": "Nawabganj",
    "Districtname": "Barabanki",
    "statename": "UTTAR PRADESH"
  },
  {
    "pincode": "225204",
    "officename": "Masauli S.O",
    "officeType": "S.O",
    "Deliverystatus": "Delivery",
    "divisionname": "Barabanki",
    "regionname": "Lucknow  HQ",
    "circlename": "Uttar Pradesh",
    "Taluk": "Nawabganj",
    "Districtname": "Barabanki",
    "statename": "UTTAR PRADESH"
  },
  {
    "pincode": "225204",
    "officename": "Nainamau B.O",
    "officeType": "B.O",
    "Deliverystatus": "Delivery",
    "divisionname": "Barabanki",
    "regionname": "Lucknow  HQ",
    "circlename": "Uttar Pradesh",
    "Taluk": "Nawabganj",
    "Districtname": "Barabanki",
    "statename": "UTTAR PRADESH"
  },
  {
    "pincode": "225204",
    "officename": "Naseernagar B.O",
    "officeType": "B.O",
    "Deliverystatus": "Delivery",
    "divisionname": "Barabanki",
    "regionname": "Lucknow  HQ",
    "circlename": "Uttar Pradesh",
    "Taluk": "Nawabganj",
    "Districtname": "Barabanki",
    "statename": "UTTAR PRADESH"
  },
  {
    "pincode": "225204",
    "officename": "Neola Karsanda B.O",
    "officeType": "B.O",
    "Deliverystatus": "Delivery",
    "divisionname": "Barabanki",
    "regionname": "Lucknow  HQ",
    "circlename": "Uttar Pradesh",
    "Taluk": "Nawabganj",
    "Districtname": "Barabanki",
    "statename": "UTTAR PRADESH"
  },
  {
    "pincode": "225204",
    "officename": "Niyamatpur B.O",
    "officeType": "B.O",
    "Deliverystatus": "Delivery",
    "divisionname": "Barabanki",
    "regionname": "Lucknow  HQ",
    "circlename": "Uttar Pradesh",
    "Taluk": "Nawabganj",
    "Districtname": "Barabanki",
    "statename": "UTTAR PRADESH"
  }
]
