[
  {
    "pincode": "225302",
    "officename": "Anwari B.O",
    "officeType": "B.O",
    "Deliverystatus": "Delivery",
    "divisionname": "Barabanki",
    "regionname": "Lucknow  HQ",
    "circlename": "Uttar Pradesh",
    "Taluk": "Fateh Pur",
    "Districtname": "Barabanki",
    "statename": "UTTAR PRADESH"
  },
  {
    "pincode": "225302",
    "officename": "Atahara B.O",
    "officeType": "B.O",
    "Deliverystatus": "Delivery",
    "divisionname": "Barabanki",
    "regionname": "Lucknow  HQ",
    "circlename": "Uttar Pradesh",
    "Taluk": "Fateh Pur",
    "Districtname": "Barabanki",
    "statename": "UTTAR PRADESH"
  },
  {
    "pincode": "225302",
    "officename": "Bahrauli B.O",
    "officeType": "B.O",
    "Deliverystatus": "Delivery",
    "divisionname": "Barabanki",
    "regionname": "Lucknow  HQ",
    "circlename": "Uttar Pradesh",
    "Taluk": "Fateh Pur",
    "Districtname": "Barabanki",
    "statename": "UTTAR PRADESH"
  },
  {
    "pincode": "225302",
    "officename": "Barhaidih Maholia B.O",
    "officeType": "B.O",
    "Deliverystatus": "Delivery",
    "divisionname": "Barabanki",
    "regionname": "Lucknow  HQ",
    "circlename": "Uttar Pradesh",
    "Taluk": "Fatehpur",
    "Districtname": "Barabanki",
    "statename": "UTTAR PRADESH"
  },
  {
    "pincode": "225302",
    "officename": "Dadera B.O",
    "officeType": "B.O",
    "Deliverystatus": "Delivery",
    "divisionname": "Barabanki",
    "regionname": "Lucknow  HQ",
    "circlename": "Uttar Pradesh",
    "Taluk": "Fateh Pur",
    "Districtname": "Barabanki",
    "statename": "UTTAR PRADESH"
  },
  {
    "pincode": "225302",
    "officename": "Darawan B.O",
    "officeType": "B.O",
    "Deliverystatus": "Delivery",
    "divisionname": "Barabanki",
    "regionname": "Lucknow  HQ",
    "circlename": "Uttar Pradesh",
    "Taluk": "Fateh Pur",
    "Districtname": "Barabanki",
    "statename": "UTTAR PRADESH"
  },
  {
    "pincode": "225302",
    "officename": "Gariya Bazar B.O",
    "officeType": "B.O",
    "Deliverystatus": "Delivery",
    "divisionname": "Barabanki",
    "regionname": "Lucknow  HQ",
    "circlename": "Uttar Pradesh",
    "Taluk": "Fatehpur",
    "Districtname": "Barabanki",
    "statename": "UTTAR PRADESH"
  },
  {
    "pincode": "225302",
    "officename": "Ghunghter B.O",
    "officeType": "B.O",
    "Deliverystatus": "Delivery",
    "divisionname": "Barabanki",
    "regionname": "Lucknow  HQ",
    "circlename": "Uttar Pradesh",
    "Taluk": "Fateh Pur",
    "Districtname": "Barabanki",
    "statename": "UTTAR PRADESH"
  },
  {
    "pincode": "225302",
    "officename": "Kursi S.O",
    "officeType": "S.O",
    "Deliverystatus": "Delivery",
    "divisionname": "Barabanki",
    "regionname": "Lucknow  HQ",
    "circlename": "Uttar Pradesh",
    "Taluk": "Fateh Pur",
    "Districtname": "Barabanki",
    "statename": "UTTAR PRADESH"
  },
  {
    "pincode": "225302",
    "officename": "Mohsand B.O",
    "officeType": "B.O",
    "Deliverystatus": "Delivery",
    "divisionname": "Barabanki",
    "regionname": "Lucknow  HQ",
    "circlename": "Uttar Pradesh",
    "Taluk": "Fateh Pur",
    "Districtname": "Barabanki",
    "statename": "UTTAR PRADESH"
  },
  {
    "pincode": "225302",
    "officename": "Nindoora B.O",
    "officeType": "B.O",
    "Deliverystatus": "Delivery",
    "divisionname": "Barabanki",
    "regionname": "Lucknow  HQ",
    "circlename": "Uttar Pradesh",
    "Taluk": "Fateh Pur",
    "Districtname": "Barabanki",
    "statename": "UTTAR PRADESH"
  },
  {
    "pincode": "225302",
    "officename": "Pandari B.O",
    "officeType": "B.O",
    "Deliverystatus": "Delivery",
    "divisionname": "Barabanki",
    "regionname": "Lucknow  HQ",
    "circlename": "Uttar Pradesh",
    "Taluk": "Fateh Pur",
    "Districtname": "Barabanki",
    "statename": "UTTAR PRADESH"
  },
  {
    "pincode": "225302",
    "officename": "Rasoolpur B.O",
    "officeType": "B.O",
    "Deliverystatus": "Delivery",
    "divisionname": "Barabanki",
    "regionname": "Lucknow  HQ",
    "circlename": "Uttar Pradesh",
    "Taluk": "Fateh Pur",
    "Districtname": "Barabanki",
    "statename": "UTTAR PRADESH"
  },
  {
    "pincode": "225302",
    "officename": "Sirsaipur B.O",
    "officeType": "B.O",
    "Deliverystatus": "Delivery",
    "divisionname": "Barabanki",
    "regionname": "Lucknow  HQ",
    "circlename": "Uttar Pradesh",
    "Taluk": "Fateh Pur",
    "Districtname": "Barabanki",
    "statename": "UTTAR PRADESH"
  },
  {
    "pincode": "225302",
    "officename": "Sulemabad B.O",
    "officeType": "B.O",
    "Deliverystatus": "Delivery",
    "divisionname": "Barabanki",
    "regionname": "Lucknow  HQ",
    "circlename": "Uttar Pradesh",
    "Taluk": "Fateh Pur",
    "Districtname": "Barabanki",
    "statename": "UTTAR PRADESH"
  },
  {
    "pincode": "225302",
    "officename": "Tikaitganj B.O",
    "officeType": "B.O",
    "Deliverystatus": "Delivery",
    "divisionname": "Barabanki",
    "regionname": "Lucknow  HQ",
    "circlename": "Uttar Pradesh",
    "Taluk": "Fatehpur",
    "Districtname": "Barabanki",
    "statename": "UTTAR PRADESH"
  }
]
