[
  {
    "pincode": "225401",
    "officename": "Aliabad S.O",
    "officeType": "S.O",
    "Deliverystatus": "Delivery",
    "divisionname": "Barabanki",
    "regionname": "Lucknow  HQ",
    "circlename": "Uttar Pradesh",
    "Taluk": "Ram Sanehi Ghat",
    "Districtname": "Barabanki",
    "statename": "UTTAR PRADESH"
  },
  {
    "pincode": "225401",
    "officename": "Badshahnagar B.O",
    "officeType": "B.O",
    "Deliverystatus": "Delivery",
    "divisionname": "Barabanki",
    "regionname": "Lucknow  HQ",
    "circlename": "Uttar Pradesh",
    "Taluk": "Ram Sanehi Ghat",
    "Districtname": "Barabanki",
    "statename": "UTTAR PRADESH"
  },
  {
    "pincode": "225401",
    "officename": "Chirra B.O",
    "officeType": "B.O",
    "Deliverystatus": "Delivery",
    "divisionname": "Barabanki",
    "regionname": "Lucknow  HQ",
    "circlename": "Uttar Pradesh",
    "Taluk": "Ram Sanehi Ghat",
    "Districtname": "Barabanki",
    "statename": "UTTAR PRADESH"
  },
  {
    "pincode": "225401",
    "officename": "Fattapur Kalan B.O",
    "officeType": "B.O",
    "Deliverystatus": "Delivery",
    "divisionname": "Barabanki",
    "regionname": "Lucknow  HQ",
    "circlename": "Uttar Pradesh",
    "Taluk": "Ram Sanehi Ghat",
    "Districtname": "Barabanki",
    "statename": "UTTAR PRADESH"
  },
  {
    "pincode": "225401",
    "officename": "Khetasarai B.O",
    "officeType": "B.O",
    "Deliverystatus": "Delivery",
    "divisionname": "Barabanki",
    "regionname": "Lucknow  HQ",
    "circlename": "Uttar Pradesh",
    "Taluk": "Ram Sanehi Ghat",
    "Districtname": "Barabanki",
    "statename": "UTTAR PRADESH"
  },
  {
    "pincode": "225401",
    "officename": "Puredalai B.O",
    "officeType": "B.O",
    "Deliverystatus": "Delivery",
    "divisionname": "Barabanki",
    "regionname": "Lucknow  HQ",
    "circlename": "Uttar Pradesh",
    "Taluk": "Ram Sanehi Ghat",
    "Districtname": "Barabanki",
    "statename": "UTTAR PRADESH"
  },
  {
    "pincode": "225401",
    "officename": "Rasoolpur B.O",
    "officeType": "B.O",
    "Deliverystatus": "Delivery",
    "divisionname": "Barabanki",
    "regionname": "Lucknow  HQ",
    "circlename": "Uttar Pradesh",
    "Taluk": "Ram Sanehi Ghat",
    "Districtname": "Barabanki",
    "statename": "UTTAR PRADESH"
  },
  {
    "pincode": "225401",
    "officename": "Sarai Barai B.O",
    "officeType": "B.O",
    "Deliverystatus": "Delivery",
    "divisionname": "Barabanki",
    "regionname": "Lucknow  HQ",
    "circlename": "Uttar Pradesh",
    "Taluk": "Ram Sanehi Ghat",
    "Districtname": "Barabanki",
    "statename": "UTTAR PRADESH"
  }
]
