[
  {
    "pincode": "225405",
    "officename": "Bhawaniyapur Kheoli B.O",
    "officeType": "B.O",
    "Deliverystatus": "Delivery",
    "divisionname": "Barabanki",
    "regionname": "Lucknow  HQ",
    "circlename": "Uttar Pradesh",
    "Taluk": "Ram Sanehi Ghat",
    "Districtname": "Barabanki",
    "statename": "UTTAR PRADESH"
  },
  {
    "pincode": "225405",
    "officename": "Ghazipur B.O",
    "officeType": "B.O",
    "Deliverystatus": "Delivery",
    "divisionname": "Barabanki",
    "regionname": "Lucknow  HQ",
    "circlename": "Uttar Pradesh",
    "Taluk": "Sirauli Gauspur",
    "Districtname": "Barabanki",
    "statename": "UTTAR PRADESH"
  },
  {
    "pincode": "225405",
    "officename": "Hathaunda S.O",
    "officeType": "S.O",
    "Deliverystatus": "Delivery",
    "divisionname": "Barabanki",
    "regionname": "Lucknow  HQ",
    "circlename": "Uttar Pradesh",
    "Taluk": "Ram Sanehi Ghat",
    "Districtname": "Barabanki",
    "statename": "UTTAR PRADESH"
  },
  {
    "pincode": "225405",
    "officename": "Hunsepur B.O",
    "officeType": "B.O",
    "Deliverystatus": "Delivery",
    "divisionname": "Barabanki",
    "regionname": "Lucknow  HQ",
    "circlename": "Uttar Pradesh",
    "Taluk": "Ram Sanehi Ghat",
    "Districtname": "Barabanki",
    "statename": "UTTAR PRADESH"
  },
  {
    "pincode": "225405",
    "officename": "Jariyari B.O",
    "officeType": "B.O",
    "Deliverystatus": "Delivery",
    "divisionname": "Barabanki",
    "regionname": "Lucknow  HQ",
    "circlename": "Uttar Pradesh",
    "Taluk": "Sirauli Gauspur",
    "Districtname": "Barabanki",
    "statename": "UTTAR PRADESH"
  },
  {
    "pincode": "225405",
    "officename": "Kithoori Daroga B.O",
    "officeType": "B.O",
    "Deliverystatus": "Delivery",
    "divisionname": "Barabanki",
    "regionname": "Lucknow  HQ",
    "circlename": "Uttar Pradesh",
    "Taluk": "Ramsanehighat",
    "Districtname": "Barabanki",
    "statename": "UTTAR PRADESH"
  },
  {
    "pincode": "225405",
    "officename": "Kotwa Sarak B.O",
    "officeType": "B.O",
    "Deliverystatus": "Delivery",
    "divisionname": "Barabanki",
    "regionname": "Lucknow  HQ",
    "circlename": "Uttar Pradesh",
    "Taluk": "Ram Sanehi Ghat",
    "Districtname": "Barabanki",
    "statename": "UTTAR PRADESH"
  },
  {
    "pincode": "225405",
    "officename": "Meruwa B.O",
    "officeType": "B.O",
    "Deliverystatus": "Delivery",
    "divisionname": "Barabanki",
    "regionname": "Lucknow  HQ",
    "circlename": "Uttar Pradesh",
    "Taluk": "Ramsanehighat",
    "Districtname": "Barabanki",
    "statename": "UTTAR PRADESH"
  },
  {
    "pincode": "225405",
    "officename": "Said Khanpur B.O",
    "officeType": "B.O",
    "Deliverystatus": "Delivery",
    "divisionname": "Barabanki",
    "regionname": "Lucknow  HQ",
    "circlename": "Uttar Pradesh",
    "Taluk": "Sirauli Gauspur",
    "Districtname": "Barabanki",
    "statename": "UTTAR PRADESH"
  },
  {
    "pincode": "225405",
    "officename": "Sanauli B.O",
    "officeType": "B.O",
    "Deliverystatus": "Delivery",
    "divisionname": "Barabanki",
    "regionname": "Lucknow  HQ",
    "circlename": "Uttar Pradesh",
    "Taluk": "Ram Sanehi Ghat",
    "Districtname": "Barabanki",
    "statename": "UTTAR PRADESH"
  },
  {
    "pincode": "225405",
    "officename": "Thorthia B.O",
    "officeType": "B.O",
    "Deliverystatus": "Delivery",
    "divisionname": "Barabanki",
    "regionname": "Lucknow  HQ",
    "circlename": "Uttar Pradesh",
    "Taluk": "Ram Sanehi Ghat",
    "Districtname": "Barabanki",
    "statename": "UTTAR PRADESH"
  }
]
