[
  {
    "pincode": "226004",
    "officename": "A N L Colony S.O",
    "officeType": "S.O",
    "Deliverystatus": "Non-Delivery",
    "divisionname": "Lucknow",
    "regionname": "Lucknow  HQ",
    "circlename": "Uttar Pradesh",
    "Taluk": "Lucknow",
    "Districtname": "Lucknow",
    "statename": "UTTAR PRADESH"
  },
  {
    "pincode": "226004",
    "officename": "Aishbagh S.O",
    "officeType": "S.O",
    "Deliverystatus": "Non-Delivery",
    "divisionname": "Lucknow",
    "regionname": "Lucknow  HQ",
    "circlename": "Uttar Pradesh",
    "Taluk": "Lucknow",
    "Districtname": "Lucknow",
    "statename": "UTTAR PRADESH"
  },
  {
    "pincode": "226004",
    "officename": "Arya Nagar S.O (Lucknow)",
    "officeType": "S.O",
    "Deliverystatus": "Non-Delivery",
    "divisionname": "Lucknow",
    "regionname": "Lucknow  HQ",
    "circlename": "Uttar Pradesh",
    "Taluk": "Lucknow",
    "Districtname": "Lucknow",
    "statename": "UTTAR PRADESH"
  },
  {
    "pincode": "226004",
    "officename": "Blunt Square S.O",
    "officeType": "S.O",
    "Deliverystatus": "Non-Delivery",
    "divisionname": "Lucknow",
    "regionname": "Lucknow  HQ",
    "circlename": "Uttar Pradesh",
    "Taluk": "Lucknow",
    "Districtname": "Lucknow",
    "statename": "UTTAR PRADESH"
  },
  {
    "pincode": "226004",
    "officename": "Charbagh S.O",
    "officeType": "S.O",
    "Deliverystatus": "Non-Delivery",
    "divisionname": "Lucknow",
    "regionname": "Lucknow  HQ",
    "circlename": "Uttar Pradesh",
    "Taluk": "Lucknow",
    "Districtname": "Lucknow",
    "statename": "UTTAR PRADESH"
  },
  {
    "pincode": "226004",
    "officename": "Gurdwara S.O",
    "officeType": "S.O",
    "Deliverystatus": "Non-Delivery",
    "divisionname": "Lucknow",
    "regionname": "Lucknow  HQ",
    "circlename": "Uttar Pradesh",
    "Taluk": "Lucknow",
    "Districtname": "Lucknow",
    "statename": "UTTAR PRADESH"
  },
  {
    "pincode": "226004",
    "officename": "Mill Road S.O",
    "officeType": "S.O",
    "Deliverystatus": "Non-Delivery",
    "divisionname": "Lucknow",
    "regionname": "Lucknow  HQ",
    "circlename": "Uttar Pradesh",
    "Taluk": "Lucknow",
    "Districtname": "Lucknow",
    "statename": "UTTAR PRADESH"
  },
  {
    "pincode": "226004",
    "officename": "Pandariba S.O",
    "officeType": "S.O",
    "Deliverystatus": "Non-Delivery",
    "divisionname": "Lucknow",
    "regionname": "Lucknow  HQ",
    "circlename": "Uttar Pradesh",
    "Taluk": "Lucknow",
    "Districtname": "Lucknow",
    "statename": "UTTAR PRADESH"
  },
  {
    "pincode": "226004",
    "officename": "R A College S.O",
    "officeType": "S.O",
    "Deliverystatus": "Non-Delivery",
    "divisionname": "Lucknow",
    "regionname": "Lucknow  HQ",
    "circlename": "Uttar Pradesh",
    "Taluk": "Lucknow",
    "Districtname": "Lucknow",
    "statename": "UTTAR PRADESH"
  },
  {
    "pincode": "226004",
    "officename": "Rajendranagar S.O (Lucknow)",
    "officeType": "S.O",
    "Deliverystatus": "Delivery",
    "divisionname": "Lucknow",
    "regionname": "Lucknow  HQ",
    "circlename": "Uttar Pradesh",
    "Taluk": "Lucknow",
    "Districtname": "Lucknow",
    "statename": "UTTAR PRADESH"
  }
]
