[
  {
    "pincode": "226020",
    "officename": "D M Road S.O",
    "officeType": "S.O",
    "Deliverystatus": "Non-Delivery",
    "divisionname": "Lucknow",
    "regionname": "Lucknow  HQ",
    "circlename": "Uttar Pradesh",
    "Taluk": "Lucknow",
    "Districtname": "Lucknow",
    "statename": "UTTAR PRADESH"
  },
  {
    "pincode": "226020",
    "officename": "Daliganj S.O",
    "officeType": "S.O",
    "Deliverystatus": "Non-Delivery",
    "divisionname": "Lucknow",
    "regionname": "Lucknow  HQ",
    "circlename": "Uttar Pradesh",
    "Taluk": "Lucknow",
    "Districtname": "Lucknow",
    "statename": "UTTAR PRADESH"
  },
  {
    "pincode": "226020",
    "officename": "Diguria B.O",
    "officeType": "B.O",
    "Deliverystatus": "Delivery",
    "divisionname": "Lucknow",
    "regionname": "Lucknow  HQ",
    "circlename": "Uttar Pradesh",
    "Taluk": "Lucknow",
    "Districtname": "Lucknow",
    "statename": "UTTAR PRADESH"
  },
  {
    "pincode": "226020",
    "officename": "Ghaila B.O",
    "officeType": "B.O",
    "Deliverystatus": "Delivery",
    "divisionname": "Lucknow",
    "regionname": "Lucknow  HQ",
    "circlename": "Uttar Pradesh",
    "Taluk": "Lucknow",
    "Districtname": "Lucknow",
    "statename": "UTTAR PRADESH"
  },
  {
    "pincode": "226020",
    "officename": "Lonikatra S.O",
    "officeType": "S.O",
    "Deliverystatus": "Non-Delivery",
    "divisionname": "Lucknow",
    "regionname": "Lucknow  HQ",
    "circlename": "Uttar Pradesh",
    "Taluk": "Lucknow",
    "Districtname": "Lucknow",
    "statename": "UTTAR PRADESH"
  },
  {
    "pincode": "226020",
    "officename": "Maharishi Vidya Mandir S.O",
    "officeType": "S.O",
    "Deliverystatus": "Non-Delivery",
    "divisionname": "Lucknow",
    "regionname": "Lucknow  HQ",
    "circlename": "Uttar Pradesh",
    "Taluk": "Lucknow",
    "Districtname": "Lucknow",
    "statename": "UTTAR PRADESH"
  },
  {
    "pincode": "226020",
    "officename": "Navinmandi S.O",
    "officeType": "S.O",
    "Deliverystatus": "Non-Delivery",
    "divisionname": "Lucknow",
    "regionname": "Lucknow  HQ",
    "circlename": "Uttar Pradesh",
    "Taluk": "Lucknow",
    "Districtname": "Lucknow",
    "statename": "UTTAR PRADESH"
  },
  {
    "pincode": "226020",
    "officename": "Niralanagar S.O",
    "officeType": "S.O",
    "Deliverystatus": "Delivery",
    "divisionname": "Lucknow",
    "regionname": "Lucknow  HQ",
    "circlename": "Uttar Pradesh",
    "Taluk": "Lucknow",
    "Districtname": "Lucknow",
    "statename": "UTTAR PRADESH"
  },
  {
    "pincode": "226020",
    "officename": "Triveni Nagar S.O",
    "officeType": "S.O",
    "Deliverystatus": "Non-Delivery",
    "divisionname": "Lucknow",
    "regionname": "Lucknow  HQ",
    "circlename": "Uttar Pradesh",
    "Taluk": "Lucknow",
    "Districtname": "Lucknow",
    "statename": "UTTAR PRADESH"
  }
]
