[
  {
    "pincode": "226018",
    "officename": "Aminabad Park S.O",
    "officeType": "S.O",
    "Deliverystatus": "Delivery",
    "divisionname": "Lucknow",
    "regionname": "Lucknow  HQ",
    "circlename": "Uttar Pradesh",
    "Taluk": "Lucknow",
    "Districtname": "Lucknow",
    "statename": "UTTAR PRADESH"
  },
  {
    "pincode": "226018",
    "officename": "Balrampur Hospital S.O",
    "officeType": "S.O",
    "Deliverystatus": "Non-Delivery",
    "divisionname": "Lucknow",
    "regionname": "Lucknow  HQ",
    "circlename": "Uttar Pradesh",
    "Taluk": "Lucknow",
    "Districtname": "Lucknow",
    "statename": "UTTAR PRADESH"
  },
  {
    "pincode": "226018",
    "officename": "Ganesh Ganj S.O (Lucknow)",
    "officeType": "S.O",
    "Deliverystatus": "Non-Delivery",
    "divisionname": "Lucknow",
    "regionname": "Lucknow  HQ",
    "circlename": "Uttar Pradesh",
    "Taluk": "Lucknow",
    "Districtname": "Lucknow",
    "statename": "UTTAR PRADESH"
  },
  {
    "pincode": "226018",
    "officename": "Golaganj S.O",
    "officeType": "S.O",
    "Deliverystatus": "Non-Delivery",
    "divisionname": "Lucknow",
    "regionname": "Lucknow  HQ",
    "circlename": "Uttar Pradesh",
    "Taluk": "Lucknow",
    "Districtname": "Lucknow",
    "statename": "UTTAR PRADESH"
  },
  {
    "pincode": "226018",
    "officename": "Naya Gaon S.O (Lucknow)",
    "officeType": "S.O",
    "Deliverystatus": "Non-Delivery",
    "divisionname": "Lucknow",
    "regionname": "Lucknow  HQ",
    "circlename": "Uttar Pradesh",
    "Taluk": "Lucknow",
    "Districtname": "Lucknow",
    "statename": "UTTAR PRADESH"
  },
  {
    "pincode": "226018",
    "officename": "New Ganeshganj S.O",
    "officeType": "S.O",
    "Deliverystatus": "Non-Delivery",
    "divisionname": "Lucknow",
    "regionname": "Lucknow  HQ",
    "circlename": "Uttar Pradesh",
    "Taluk": "Lucknow",
    "Districtname": "Lucknow",
    "statename": "UTTAR PRADESH"
  },
  {
    "pincode": "226018",
    "officename": "R B Colony S.O",
    "officeType": "S.O",
    "Deliverystatus": "Non-Delivery",
    "divisionname": "Lucknow",
    "regionname": "Lucknow  HQ",
    "circlename": "Uttar Pradesh",
    "Taluk": "Lucknow",
    "Districtname": "Lucknow",
    "statename": "UTTAR PRADESH"
  },
  {
    "pincode": "226018",
    "officename": "Shivaji Marg S.O (Lucknow)",
    "officeType": "S.O",
    "Deliverystatus": "Non-Delivery",
    "divisionname": "Lucknow",
    "regionname": "Lucknow  HQ",
    "circlename": "Uttar Pradesh",
    "Taluk": "Lucknow",
    "Districtname": "Lucknow",
    "statename": "UTTAR PRADESH"
  },
  {
    "pincode": "226018",
    "officename": "Sunderbagh S.O",
    "officeType": "S.O",
    "Deliverystatus": "Non-Delivery",
    "divisionname": "Lucknow",
    "regionname": "Lucknow  HQ",
    "circlename": "Uttar Pradesh",
    "Taluk": "Lucknow",
    "Districtname": "Lucknow",
    "statename": "UTTAR PRADESH"
  },
  {
    "pincode": "226018",
    "officename": "Wazirganj S.O (Lucknow)",
    "officeType": "S.O",
    "Deliverystatus": "Non-Delivery",
    "divisionname": "Lucknow",
    "regionname": "Lucknow  HQ",
    "circlename": "Uttar Pradesh",
    "Taluk": "Lucknow",
    "Districtname": "Lucknow",
    "statename": "UTTAR PRADESH"
  }
]
