[
  {
    "pincode": "226104",
    "officename": "Antagarhi B.O",
    "officeType": "B.O",
    "Deliverystatus": "Delivery",
    "divisionname": "Lucknow",
    "regionname": "Lucknow  HQ",
    "circlename": "Uttar Pradesh",
    "Taluk": "Malihabad",
    "Districtname": "Lucknow",
    "statename": "UTTAR PRADESH"
  },
  {
    "pincode": "226104",
    "officename": "Atari B.O",
    "officeType": "B.O",
    "Deliverystatus": "Delivery",
    "divisionname": "Lucknow",
    "regionname": "Lucknow  HQ",
    "circlename": "Uttar Pradesh",
    "Taluk": "Malihabad",
    "Districtname": "Lucknow",
    "statename": "UTTAR PRADESH"
  },
  {
    "pincode": "226104",
    "officename": "Badiyan B.O",
    "officeType": "B.O",
    "Deliverystatus": "Delivery",
    "divisionname": "Lucknow",
    "regionname": "Lucknow  HQ",
    "circlename": "Uttar Pradesh",
    "Taluk": "Malihabad",
    "Districtname": "Lucknow",
    "statename": "UTTAR PRADESH"
  },
  {
    "pincode": "226104",
    "officename": "Bazargaron B.O",
    "officeType": "B.O",
    "Deliverystatus": "Delivery",
    "divisionname": "Lucknow",
    "regionname": "Lucknow  HQ",
    "circlename": "Uttar Pradesh",
    "Taluk": "Malihabad",
    "Districtname": "Lucknow",
    "statename": "UTTAR PRADESH"
  },
  {
    "pincode": "226104",
    "officename": "Beerpur B.O",
    "officeType": "B.O",
    "Deliverystatus": "Delivery",
    "divisionname": "Lucknow",
    "regionname": "Lucknow  HQ",
    "circlename": "Uttar Pradesh",
    "Taluk": "Malihabad",
    "Districtname": "Lucknow",
    "statename": "UTTAR PRADESH"
  },
  {
    "pincode": "226104",
    "officename": "Bhagwantpur B.O",
    "officeType": "B.O",
    "Deliverystatus": "Delivery",
    "divisionname": "Lucknow",
    "regionname": "Lucknow  HQ",
    "circlename": "Uttar Pradesh",
    "Taluk": "Malihabad",
    "Districtname": "Lucknow",
    "statename": "UTTAR PRADESH"
  },
  {
    "pincode": "226104",
    "officename": "Bharwara B.O",
    "officeType": "B.O",
    "Deliverystatus": "Delivery",
    "divisionname": "Lucknow",
    "regionname": "Lucknow  HQ",
    "circlename": "Uttar Pradesh",
    "Taluk": "Malihabad",
    "Districtname": "Lucknow",
    "statename": "UTTAR PRADESH"
  },
  {
    "pincode": "226104",
    "officename": "Gahdon B.O",
    "officeType": "B.O",
    "Deliverystatus": "Delivery",
    "divisionname": "Lucknow",
    "regionname": "Lucknow  HQ",
    "circlename": "Uttar Pradesh",
    "Taluk": "Malihabad",
    "Districtname": "Lucknow",
    "statename": "UTTAR PRADESH"
  },
  {
    "pincode": "226104",
    "officename": "Gopramau B.O",
    "officeType": "B.O",
    "Deliverystatus": "Delivery",
    "divisionname": "Lucknow",
    "regionname": "Lucknow  HQ",
    "circlename": "Uttar Pradesh",
    "Taluk": "Malihabad",
    "Districtname": "Lucknow",
    "statename": "UTTAR PRADESH"
  },
  {
    "pincode": "226104",
    "officename": "Kharsara B.O",
    "officeType": "B.O",
    "Deliverystatus": "Delivery",
    "divisionname": "Lucknow",
    "regionname": "Lucknow  HQ",
    "circlename": "Uttar Pradesh",
    "Taluk": "Malihabad",
    "Districtname": "Lucknow",
    "statename": "UTTAR PRADESH"
  },
  {
    "pincode": "226104",
    "officename": "Mall S.O",
    "officeType": "S.O",
    "Deliverystatus": "Delivery",
    "divisionname": "Lucknow",
    "regionname": "Lucknow  HQ",
    "circlename": "Uttar Pradesh",
    "Taluk": "Malihabad",
    "Districtname": "Lucknow",
    "statename": "UTTAR PRADESH"
  },
  {
    "pincode": "226104",
    "officename": "Mawai Khurd B.O",
    "officeType": "B.O",
    "Deliverystatus": "Delivery",
    "divisionname": "Lucknow",
    "regionname": "Lucknow  HQ",
    "circlename": "Uttar Pradesh",
    "Taluk": "Malihabad",
    "Districtname": "Lucknow",
    "statename": "UTTAR PRADESH"
  },
  {
    "pincode": "226104",
    "officename": "Munnu Khera B.O",
    "officeType": "B.O",
    "Deliverystatus": "Delivery",
    "divisionname": "Lucknow",
    "regionname": "Lucknow  HQ",
    "circlename": "Uttar Pradesh",
    "Taluk": "Malihabad",
    "Districtname": "Lucknow",
    "statename": "UTTAR PRADESH"
  },
  {
    "pincode": "226104",
    "officename": "Nabipanah B.O",
    "officeType": "B.O",
    "Deliverystatus": "Delivery",
    "divisionname": "Lucknow",
    "regionname": "Lucknow  HQ",
    "circlename": "Uttar Pradesh",
    "Taluk": "Malihabad",
    "Districtname": "Lucknow",
    "statename": "UTTAR PRADESH"
  },
  {
    "pincode": "226104",
    "officename": "Pateona B.O",
    "officeType": "B.O",
    "Deliverystatus": "Delivery",
    "divisionname": "Lucknow",
    "regionname": "Lucknow  HQ",
    "circlename": "Uttar Pradesh",
    "Taluk": "Malihabad",
    "Districtname": "Lucknow",
    "statename": "UTTAR PRADESH"
  },
  {
    "pincode": "226104",
    "officename": "Raghunathpur B.O",
    "officeType": "B.O",
    "Deliverystatus": "Delivery",
    "divisionname": "Lucknow",
    "regionname": "Lucknow  HQ",
    "circlename": "Uttar Pradesh",
    "Taluk": "Malihabad",
    "Districtname": "Lucknow",
    "statename": "UTTAR PRADESH"
  },
  {
    "pincode": "226104",
    "officename": "Ranipara B.O",
    "officeType": "B.O",
    "Deliverystatus": "Delivery",
    "divisionname": "Lucknow",
    "regionname": "Lucknow  HQ",
    "circlename": "Uttar Pradesh",
    "Taluk": "Malihabad",
    "Districtname": "Lucknow",
    "statename": "UTTAR PRADESH"
  },
  {
    "pincode": "226104",
    "officename": "Salehnagar B.O",
    "officeType": "B.O",
    "Deliverystatus": "Delivery",
    "divisionname": "Lucknow",
    "regionname": "Lucknow  HQ",
    "circlename": "Uttar Pradesh",
    "Taluk": "Malihabad",
    "Districtname": "Lucknow",
    "statename": "UTTAR PRADESH"
  },
  {
    "pincode": "226104",
    "officename": "Thari B.O",
    "officeType": "B.O",
    "Deliverystatus": "Delivery",
    "divisionname": "Lucknow",
    "regionname": "Lucknow  HQ",
    "circlename": "Uttar Pradesh",
    "Taluk": "Malihabad",
    "Districtname": "Lucknow",
    "statename": "UTTAR PRADESH"
  },
  {
    "pincode": "226104",
    "officename": "Thawar B.O",
    "officeType": "B.O",
    "Deliverystatus": "Delivery",
    "divisionname": "Lucknow",
    "regionname": "Lucknow  HQ",
    "circlename": "Uttar Pradesh",
    "Taluk": "Malihabad",
    "Districtname": "Lucknow",
    "statename": "UTTAR PRADESH"
  },
  {
    "pincode": "226104",
    "officename": "Umrawal B.O",
    "officeType": "B.O",
    "Deliverystatus": "Delivery",
    "divisionname": "Lucknow",
    "regionname": "Lucknow  HQ",
    "circlename": "Uttar Pradesh",
    "Taluk": "Malihabad",
    "Districtname": "Lucknow",
    "statename": "UTTAR PRADESH"
  }
]
