[
  {
    "pincode": "226203",
    "officename": "Akariakalan B.O",
    "officeType": "B.O",
    "Deliverystatus": "Delivery",
    "divisionname": "Lucknow",
    "regionname": "Lucknow  HQ",
    "circlename": "Uttar Pradesh",
    "Taluk": "Bakshi Ka Ta",
    "Districtname": "Lucknow",
    "statename": "UTTAR PRADESH"
  },
  {
    "pincode": "226203",
    "officename": "Amaniganj B.O",
    "officeType": "B.O",
    "Deliverystatus": "Delivery",
    "divisionname": "Lucknow",
    "regionname": "Lucknow  HQ",
    "circlename": "Uttar Pradesh",
    "Taluk": "Bakshi Ka Ta",
    "Districtname": "Lucknow",
    "statename": "UTTAR PRADESH"
  },
  {
    "pincode": "226203",
    "officename": "Arjunpur B.O",
    "officeType": "B.O",
    "Deliverystatus": "Delivery",
    "divisionname": "Lucknow",
    "regionname": "Lucknow  HQ",
    "circlename": "Uttar Pradesh",
    "Taluk": "Bakshi Ka Ta",
    "Districtname": "Lucknow",
    "statename": "UTTAR PRADESH"
  },
  {
    "pincode": "226203",
    "officename": "Ateswa B.O",
    "officeType": "B.O",
    "Deliverystatus": "Delivery",
    "divisionname": "Lucknow",
    "regionname": "Lucknow  HQ",
    "circlename": "Uttar Pradesh",
    "Taluk": "Bakshi Ka Ta",
    "Districtname": "Lucknow",
    "statename": "UTTAR PRADESH"
  },
  {
    "pincode": "226203",
    "officename": "Bahargaon B.O",
    "officeType": "B.O",
    "Deliverystatus": "Delivery",
    "divisionname": "Lucknow",
    "regionname": "Lucknow  HQ",
    "circlename": "Uttar Pradesh",
    "Taluk": "Bakshi Ka Ta",
    "Districtname": "Lucknow",
    "statename": "UTTAR PRADESH"
  },
  {
    "pincode": "226203",
    "officename": "Bibipur B.O",
    "officeType": "B.O",
    "Deliverystatus": "Delivery",
    "divisionname": "Lucknow",
    "regionname": "Lucknow  HQ",
    "circlename": "Uttar Pradesh",
    "Taluk": "Bakshi Ka Ta",
    "Districtname": "Lucknow",
    "statename": "UTTAR PRADESH"
  },
  {
    "pincode": "226203",
    "officename": "Indara B.O",
    "officeType": "B.O",
    "Deliverystatus": "Delivery",
    "divisionname": "Lucknow",
    "regionname": "Lucknow  HQ",
    "circlename": "Uttar Pradesh",
    "Taluk": "Bakshi Ka Ta",
    "Districtname": "Lucknow",
    "statename": "UTTAR PRADESH"
  },
  {
    "pincode": "226203",
    "officename": "Itaunja S.O",
    "officeType": "S.O",
    "Deliverystatus": "Delivery",
    "divisionname": "Lucknow",
    "regionname": "Lucknow  HQ",
    "circlename": "Uttar Pradesh",
    "Taluk": "",
    "Districtname": "Lucknow",
    "statename": "UTTAR PRADESH"
  },
  {
    "pincode": "226203",
    "officename": "Jamkhanwa B.O",
    "officeType": "B.O",
    "Deliverystatus": "Delivery",
    "divisionname": "Lucknow",
    "regionname": "Lucknow  HQ",
    "circlename": "Uttar Pradesh",
    "Taluk": "Bakshi Ka Ta",
    "Districtname": "Lucknow",
    "statename": "UTTAR PRADESH"
  },
  {
    "pincode": "226203",
    "officename": "Khantari B.O",
    "officeType": "B.O",
    "Deliverystatus": "Delivery",
    "divisionname": "Lucknow",
    "regionname": "Lucknow  HQ",
    "circlename": "Uttar Pradesh",
    "Taluk": "Bakshi Ka Ta",
    "Districtname": "Lucknow",
    "statename": "UTTAR PRADESH"
  },
  {
    "pincode": "226203",
    "officename": "Kumharawan. B.O",
    "officeType": "B.O",
    "Deliverystatus": "Delivery",
    "divisionname": "Lucknow",
    "regionname": "Lucknow  HQ",
    "circlename": "Uttar Pradesh",
    "Taluk": "Bakshi Ka Ta",
    "Districtname": "Lucknow",
    "statename": "UTTAR PRADESH"
  },
  {
    "pincode": "226203",
    "officename": "Mahigawan B.O",
    "officeType": "B.O",
    "Deliverystatus": "Delivery",
    "divisionname": "Lucknow",
    "regionname": "Lucknow  HQ",
    "circlename": "Uttar Pradesh",
    "Taluk": "Bakshi Ka Ta",
    "Districtname": "Lucknow",
    "statename": "UTTAR PRADESH"
  },
  {
    "pincode": "226203",
    "officename": "Mahona B.O",
    "officeType": "B.O",
    "Deliverystatus": "Delivery",
    "divisionname": "Lucknow",
    "regionname": "Lucknow  HQ",
    "circlename": "Uttar Pradesh",
    "Taluk": "Bakshi Ka Ta",
    "Districtname": "Lucknow",
    "statename": "UTTAR PRADESH"
  },
  {
    "pincode": "226203",
    "officename": "Narosa B.O",
    "officeType": "B.O",
    "Deliverystatus": "Delivery",
    "divisionname": "Lucknow",
    "regionname": "Lucknow  HQ",
    "circlename": "Uttar Pradesh",
    "Taluk": "Bakshi Ka Talab",
    "Districtname": "Lucknow",
    "statename": "UTTAR PRADESH"
  },
  {
    "pincode": "226203",
    "officename": "Paharpur B.O",
    "officeType": "B.O",
    "Deliverystatus": "Delivery",
    "divisionname": "Lucknow",
    "regionname": "Lucknow  HQ",
    "circlename": "Uttar Pradesh",
    "Taluk": "Bakshi Ka Ta",
    "Districtname": "Lucknow",
    "statename": "UTTAR PRADESH"
  },
  {
    "pincode": "226203",
    "officename": "Sarai Damu B.O",
    "officeType": "B.O",
    "Deliverystatus": "Delivery",
    "divisionname": "Lucknow",
    "regionname": "Lucknow  HQ",
    "circlename": "Uttar Pradesh",
    "Taluk": "Bakshi Ka Ta",
    "Districtname": "Lucknow",
    "statename": "UTTAR PRADESH"
  },
  {
    "pincode": "226203",
    "officename": "Singhamau B.O",
    "officeType": "B.O",
    "Deliverystatus": "Delivery",
    "divisionname": "Lucknow",
    "regionname": "Lucknow  HQ",
    "circlename": "Uttar Pradesh",
    "Taluk": "Bakshi Ka Ta",
    "Districtname": "Lucknow",
    "statename": "UTTAR PRADESH"
  },
  {
    "pincode": "226203",
    "officename": "Usarana B.O",
    "officeType": "B.O",
    "Deliverystatus": "Delivery",
    "divisionname": "Lucknow",
    "regionname": "Lucknow  HQ",
    "circlename": "Uttar Pradesh",
    "Taluk": "Bakshi Ka Talab",
    "Districtname": "Lucknow",
    "statename": "UTTAR PRADESH"
  }
]
