[
  {
    "pincode": "227411",
    "officename": "Dakhin Gaon B.O",
    "officeType": "B.O",
    "Deliverystatus": "Delivery",
    "divisionname": "Sultanpur",
    "regionname": "Lucknow  HQ",
    "circlename": "Uttar Pradesh",
    "Taluk": "Gauraiganj",
    "Districtname": "Sultanpur",
    "statename": "UTTAR PRADESH"
  },
  {
    "pincode": "227411",
    "officename": "Kauhar B.O",
    "officeType": "B.O",
    "Deliverystatus": "Delivery",
    "divisionname": "Sultanpur",
    "regionname": "Lucknow  HQ",
    "circlename": "Uttar Pradesh",
    "Taluk": "Gauriganj",
    "Districtname": "Sultanpur",
    "statename": "UTTAR PRADESH"
  },
  {
    "pincode": "227411",
    "officename": "Kitiyawan B.O",
    "officeType": "B.O",
    "Deliverystatus": "Delivery",
    "divisionname": "Sultanpur",
    "regionname": "Lucknow  HQ",
    "circlename": "Uttar Pradesh",
    "Taluk": "Gauriganj",
    "Districtname": "Sultanpur",
    "statename": "UTTAR PRADESH"
  },
  {
    "pincode": "227411",
    "officename": "Korari Hir Shah B.O",
    "officeType": "B.O",
    "Deliverystatus": "Delivery",
    "divisionname": "Sultanpur",
    "regionname": "Lucknow  HQ",
    "circlename": "Uttar Pradesh",
    "Taluk": "Gauriganj",
    "Districtname": "Sultanpur",
    "statename": "UTTAR PRADESH"
  },
  {
    "pincode": "227411",
    "officename": "Kunda B.O",
    "officeType": "B.O",
    "Deliverystatus": "Delivery",
    "divisionname": "Sultanpur",
    "regionname": "Lucknow  HQ",
    "circlename": "Uttar Pradesh",
    "Taluk": "Gauriganj",
    "Districtname": "Sultanpur",
    "statename": "UTTAR PRADESH"
  },
  {
    "pincode": "227411",
    "officename": "Manapur B.O",
    "officeType": "B.O",
    "Deliverystatus": "Delivery",
    "divisionname": "Sultanpur",
    "regionname": "Lucknow  HQ",
    "circlename": "Uttar Pradesh",
    "Taluk": "Gauriganj",
    "Districtname": "Sultanpur",
    "statename": "UTTAR PRADESH"
  },
  {
    "pincode": "227411",
    "officename": "Sevain B.O",
    "officeType": "B.O",
    "Deliverystatus": "Delivery",
    "divisionname": "Sultanpur",
    "regionname": "Lucknow  HQ",
    "circlename": "Uttar Pradesh",
    "Taluk": "Gauriganj",
    "Districtname": "Sultanpur",
    "statename": "UTTAR PRADESH"
  },
  {
    "pincode": "227411",
    "officename": "Shahgarh S.O (Sultanpur)",
    "officeType": "S.O",
    "Deliverystatus": "Delivery",
    "divisionname": "Sultanpur",
    "regionname": "Lucknow  HQ",
    "circlename": "Uttar Pradesh",
    "Taluk": "Gauriganj",
    "Districtname": "Sultanpur",
    "statename": "UTTAR PRADESH"
  },
  {
    "pincode": "227411",
    "officename": "Tarawa B.O",
    "officeType": "B.O",
    "Deliverystatus": "Delivery",
    "divisionname": "Sultanpur",
    "regionname": "Lucknow  HQ",
    "circlename": "Uttar Pradesh",
    "Taluk": "Gauriganj",
    "Districtname": "Sultanpur",
    "statename": "UTTAR PRADESH"
  },
  {
    "pincode": "227411",
    "officename": "Tarsara B.O",
    "officeType": "B.O",
    "Deliverystatus": "Delivery",
    "divisionname": "Sultanpur",
    "regionname": "Lucknow  HQ",
    "circlename": "Uttar Pradesh",
    "Taluk": "Gauriganj",
    "Districtname": "Sultanpur",
    "statename": "UTTAR PRADESH"
  }
]
