[
  {
    "pincode": "227814",
    "officename": "Ainjar B.O",
    "officeType": "B.O",
    "Deliverystatus": "Delivery",
    "divisionname": "Sultanpur",
    "regionname": "Lucknow  HQ",
    "circlename": "Uttar Pradesh",
    "Taluk": "Sultanpur",
    "Districtname": "Sultanpur",
    "statename": "UTTAR PRADESH"
  },
  {
    "pincode": "227814",
    "officename": "Ataula S.O",
    "officeType": "S.O",
    "Deliverystatus": "Delivery",
    "divisionname": "Sultanpur",
    "regionname": "Lucknow  HQ",
    "circlename": "Uttar Pradesh",
    "Taluk": "Musafirkhana",
    "Districtname": "Sultanpur",
    "statename": "UTTAR PRADESH"
  },
  {
    "pincode": "227814",
    "officename": "Bahurahwan B.O",
    "officeType": "B.O",
    "Deliverystatus": "Delivery",
    "divisionname": "Sultanpur",
    "regionname": "Lucknow  HQ",
    "circlename": "Uttar Pradesh",
    "Taluk": "Musafirkhana",
    "Districtname": "Sultanpur",
    "statename": "UTTAR PRADESH"
  },
  {
    "pincode": "227814",
    "officename": "Baqghauna B.O",
    "officeType": "B.O",
    "Deliverystatus": "Delivery",
    "divisionname": "Sultanpur",
    "regionname": "Lucknow  HQ",
    "circlename": "Uttar Pradesh",
    "Taluk": "Musafirkhana",
    "Districtname": "Sultanpur",
    "statename": "UTTAR PRADESH"
  },
  {
    "pincode": "227814",
    "officename": "Barmhauli B.O",
    "officeType": "B.O",
    "Deliverystatus": "Delivery",
    "divisionname": "Sultanpur",
    "regionname": "Lucknow  HQ",
    "circlename": "Uttar Pradesh",
    "Taluk": "Musafirkhana",
    "Districtname": "Sultanpur",
    "statename": "UTTAR PRADESH"
  },
  {
    "pincode": "227814",
    "officename": "Deora B.O",
    "officeType": "B.O",
    "Deliverystatus": "Delivery",
    "divisionname": "Sultanpur",
    "regionname": "Lucknow  HQ",
    "circlename": "Uttar Pradesh",
    "Taluk": "Sultanpur",
    "Districtname": "Sultanpur",
    "statename": "UTTAR PRADESH"
  },
  {
    "pincode": "227814",
    "officename": "Kanehti B.O",
    "officeType": "B.O",
    "Deliverystatus": "Delivery",
    "divisionname": "Sultanpur",
    "regionname": "Lucknow  HQ",
    "circlename": "Uttar Pradesh",
    "Taluk": "Musafirkhana",
    "Districtname": "Sultanpur",
    "statename": "UTTAR PRADESH"
  },
  {
    "pincode": "227814",
    "officename": "Nandrai B.O",
    "officeType": "B.O",
    "Deliverystatus": "Delivery",
    "divisionname": "Sultanpur",
    "regionname": "Lucknow  HQ",
    "circlename": "Uttar Pradesh",
    "Taluk": "Sultanpur",
    "Districtname": "Sultanpur",
    "statename": "UTTAR PRADESH"
  },
  {
    "pincode": "227814",
    "officename": "Padare B.O",
    "officeType": "B.O",
    "Deliverystatus": "Delivery",
    "divisionname": "Sultanpur",
    "regionname": "Lucknow  HQ",
    "circlename": "Uttar Pradesh",
    "Taluk": "Sultanpur",
    "Districtname": "Sultanpur",
    "statename": "UTTAR PRADESH"
  },
  {
    "pincode": "227814",
    "officename": "Peero Saraia B.O",
    "officeType": "B.O",
    "Deliverystatus": "Delivery",
    "divisionname": "Sultanpur",
    "regionname": "Lucknow  HQ",
    "circlename": "Uttar Pradesh",
    "Taluk": "Sultanpur",
    "Districtname": "Sultanpur",
    "statename": "UTTAR PRADESH"
  },
  {
    "pincode": "227814",
    "officename": "Singhni B.O",
    "officeType": "B.O",
    "Deliverystatus": "Delivery",
    "divisionname": "Sultanpur",
    "regionname": "Lucknow  HQ",
    "circlename": "Uttar Pradesh",
    "Taluk": "Sultanpur",
    "Districtname": "Sultanpur",
    "statename": "UTTAR PRADESH"
  }
]
