[
  {
    "pincode": "227811",
    "officename": "Harkhumau B.O",
    "officeType": "B.O",
    "Deliverystatus": "Delivery",
    "divisionname": "Sultanpur",
    "regionname": "Lucknow  HQ",
    "circlename": "Uttar Pradesh",
    "Taluk": "Musafirkhana",
    "Districtname": "Sultanpur",
    "statename": "UTTAR PRADESH"
  },
  {
    "pincode": "227811",
    "officename": "Kisni B.O",
    "officeType": "B.O",
    "Deliverystatus": "Delivery",
    "divisionname": "Sultanpur",
    "regionname": "Lucknow  HQ",
    "circlename": "Uttar Pradesh",
    "Taluk": "Musafirkhana",
    "Districtname": "Sultanpur",
    "statename": "UTTAR PRADESH"
  },
  {
    "pincode": "227811",
    "officename": "Mahona B.O",
    "officeType": "B.O",
    "Deliverystatus": "Delivery",
    "divisionname": "Sultanpur",
    "regionname": "Lucknow  HQ",
    "circlename": "Uttar Pradesh",
    "Taluk": "Musafirkhana",
    "Districtname": "Sultanpur",
    "statename": "UTTAR PRADESH"
  },
  {
    "pincode": "227811",
    "officename": "Mardanpur B.O",
    "officeType": "B.O",
    "Deliverystatus": "Delivery",
    "divisionname": "Sultanpur",
    "regionname": "Lucknow  HQ",
    "circlename": "Uttar Pradesh",
    "Taluk": "Musafirkhana",
    "Districtname": "Sultanpur",
    "statename": "UTTAR PRADESH"
  },
  {
    "pincode": "227811",
    "officename": "Pali B.O",
    "officeType": "B.O",
    "Deliverystatus": "Delivery",
    "divisionname": "Sultanpur",
    "regionname": "Lucknow  HQ",
    "circlename": "Uttar Pradesh",
    "Taluk": "Musafirkhana",
    "Districtname": "Sultanpur",
    "statename": "UTTAR PRADESH"
  },
  {
    "pincode": "227811",
    "officename": "Phatefpur B.O",
    "officeType": "B.O",
    "Deliverystatus": "Delivery",
    "divisionname": "Sultanpur",
    "regionname": "Lucknow  HQ",
    "circlename": "Uttar Pradesh",
    "Taluk": "Musafirkhana",
    "Districtname": "Sultanpur",
    "statename": "UTTAR PRADESH"
  },
  {
    "pincode": "227811",
    "officename": "Sansarpur B.O",
    "officeType": "B.O",
    "Deliverystatus": "Delivery",
    "divisionname": "Sultanpur",
    "regionname": "Lucknow  HQ",
    "circlename": "Uttar Pradesh",
    "Taluk": "Musafirkhana",
    "Districtname": "Sultanpur",
    "statename": "UTTAR PRADESH"
  },
  {
    "pincode": "227811",
    "officename": "Seora B.O",
    "officeType": "B.O",
    "Deliverystatus": "Delivery",
    "divisionname": "Sultanpur",
    "regionname": "Lucknow  HQ",
    "circlename": "Uttar Pradesh",
    "Taluk": "Musafirkhana",
    "Districtname": "Sultanpur",
    "statename": "UTTAR PRADESH"
  },
  {
    "pincode": "227811",
    "officename": "Sukul Ka Bazar S.O",
    "officeType": "S.O",
    "Deliverystatus": "Delivery",
    "divisionname": "Sultanpur",
    "regionname": "Lucknow  HQ",
    "circlename": "Uttar Pradesh",
    "Taluk": "Musafirkhana",
    "Districtname": "Sultanpur",
    "statename": "UTTAR PRADESH"
  },
  {
    "pincode": "227811",
    "officename": "Teosi B.O",
    "officeType": "B.O",
    "Deliverystatus": "Delivery",
    "divisionname": "Sultanpur",
    "regionname": "Lucknow  HQ",
    "circlename": "Uttar Pradesh",
    "Taluk": "Musafirkhana",
    "Districtname": "Sultanpur",
    "statename": "UTTAR PRADESH"
  },
  {
    "pincode": "227811",
    "officename": "Unchgaon B.O",
    "officeType": "B.O",
    "Deliverystatus": "Delivery",
    "divisionname": "Sultanpur",
    "regionname": "Lucknow  HQ",
    "circlename": "Uttar Pradesh",
    "Taluk": "Musafirkhana",
    "Districtname": "Sultanpur",
    "statename": "UTTAR PRADESH"
  }
]
