[
  {
    "pincode": "227807",
    "officename": "Barehti B.O",
    "officeType": "B.O",
    "Deliverystatus": "Delivery",
    "divisionname": "Sultanpur",
    "regionname": "Lucknow  HQ",
    "circlename": "Uttar Pradesh",
    "Taluk": "Musafirkhana",
    "Districtname": "Sultanpur",
    "statename": "UTTAR PRADESH"
  },
  {
    "pincode": "227807",
    "officename": "Bhikhipur B.O",
    "officeType": "B.O",
    "Deliverystatus": "Delivery",
    "divisionname": "Sultanpur",
    "regionname": "Lucknow  HQ",
    "circlename": "Uttar Pradesh",
    "Taluk": "Musafirkhana",
    "Districtname": "Sultanpur",
    "statename": "UTTAR PRADESH"
  },
  {
    "pincode": "227807",
    "officename": "Bisara Pashchim B.O",
    "officeType": "B.O",
    "Deliverystatus": "Delivery",
    "divisionname": "Sultanpur",
    "regionname": "Lucknow  HQ",
    "circlename": "Uttar Pradesh",
    "Taluk": "Musafirkhana",
    "Districtname": "Sultanpur",
    "statename": "UTTAR PRADESH"
  },
  {
    "pincode": "227807",
    "officename": "Gunnaur B.O",
    "officeType": "B.O",
    "Deliverystatus": "Delivery",
    "divisionname": "Sultanpur",
    "regionname": "Lucknow  HQ",
    "circlename": "Uttar Pradesh",
    "Taluk": "Musafirkhana",
    "Districtname": "Sultanpur",
    "statename": "UTTAR PRADESH"
  },
  {
    "pincode": "227807",
    "officename": "Hardoia B.O",
    "officeType": "B.O",
    "Deliverystatus": "Delivery",
    "divisionname": "Sultanpur",
    "regionname": "Lucknow  HQ",
    "circlename": "Uttar Pradesh",
    "Taluk": "Musafirkhana",
    "Districtname": "Sultanpur",
    "statename": "UTTAR PRADESH"
  },
  {
    "pincode": "227807",
    "officename": "Harkaranpur B.O",
    "officeType": "B.O",
    "Deliverystatus": "Delivery",
    "divisionname": "Sultanpur",
    "regionname": "Lucknow  HQ",
    "circlename": "Uttar Pradesh",
    "Taluk": "Musafirkhana",
    "Districtname": "Sultanpur",
    "statename": "UTTAR PRADESH"
  },
  {
    "pincode": "227807",
    "officename": "Mayas B.O",
    "officeType": "B.O",
    "Deliverystatus": "Delivery",
    "divisionname": "Sultanpur",
    "regionname": "Lucknow  HQ",
    "circlename": "Uttar Pradesh",
    "Taluk": "Musafirkhana",
    "Districtname": "Sultanpur",
    "statename": "UTTAR PRADESH"
  },
  {
    "pincode": "227807",
    "officename": "Nayakot Dharauli B.O",
    "officeType": "B.O",
    "Deliverystatus": "Delivery",
    "divisionname": "Sultanpur",
    "regionname": "Lucknow  HQ",
    "circlename": "Uttar Pradesh",
    "Taluk": "Musafirkhana",
    "Districtname": "Sultanpur",
    "statename": "UTTAR PRADESH"
  },
  {
    "pincode": "227807",
    "officename": "Pindara S.O",
    "officeType": "S.O",
    "Deliverystatus": "Delivery",
    "divisionname": "Sultanpur",
    "regionname": "Lucknow  HQ",
    "circlename": "Uttar Pradesh",
    "Taluk": "Musafirkhana",
    "Districtname": "Sultanpur",
    "statename": "UTTAR PRADESH"
  }
]
