[
  {
    "pincode": "228155",
    "officename": "Bansi B.O",
    "officeType": "B.O",
    "Deliverystatus": "Delivery",
    "divisionname": "Sultanpur",
    "regionname": "Lucknow  HQ",
    "circlename": "Uttar Pradesh",
    "Taluk": "Sultanpur",
    "Districtname": "Sultanpur",
    "statename": "UTTAR PRADESH"
  },
  {
    "pincode": "228155",
    "officename": "Bhandara B.O",
    "officeType": "B.O",
    "Deliverystatus": "Delivery",
    "divisionname": "Sultanpur",
    "regionname": "Lucknow  HQ",
    "circlename": "Uttar Pradesh",
    "Taluk": "Sultanpur",
    "Districtname": "Sultanpur",
    "statename": "UTTAR PRADESH"
  },
  {
    "pincode": "228155",
    "officename": "Ferozpur Kala B.O",
    "officeType": "B.O",
    "Deliverystatus": "Delivery",
    "divisionname": "Sultanpur",
    "regionname": "Lucknow  HQ",
    "circlename": "Uttar Pradesh",
    "Taluk": "Sultanpur",
    "Districtname": "Sultanpur",
    "statename": "UTTAR PRADESH"
  },
  {
    "pincode": "228155",
    "officename": "Khadar Basantpur B.O",
    "officeType": "B.O",
    "Deliverystatus": "Delivery",
    "divisionname": "Sultanpur",
    "regionname": "Lucknow  HQ",
    "circlename": "Uttar Pradesh",
    "Taluk": "Sultanpur",
    "Districtname": "Sultanpur",
    "statename": "UTTAR PRADESH"
  },
  {
    "pincode": "228155",
    "officename": "Kurwar S.O",
    "officeType": "S.O",
    "Deliverystatus": "Delivery",
    "divisionname": "Sultanpur",
    "regionname": "Lucknow  HQ",
    "circlename": "Uttar Pradesh",
    "Taluk": "Sultanpur Sadar",
    "Districtname": "Sultanpur",
    "statename": "UTTAR PRADESH"
  },
  {
    "pincode": "228155",
    "officename": "Naugawan Tir B.O",
    "officeType": "B.O",
    "Deliverystatus": "Delivery",
    "divisionname": "Sultanpur",
    "regionname": "Lucknow  HQ",
    "circlename": "Uttar Pradesh",
    "Taluk": "Sultanpur",
    "Districtname": "Sultanpur",
    "statename": "UTTAR PRADESH"
  },
  {
    "pincode": "228155",
    "officename": "Parsipur B.O",
    "officeType": "B.O",
    "Deliverystatus": "Delivery",
    "divisionname": "Sultanpur",
    "regionname": "Lucknow  HQ",
    "circlename": "Uttar Pradesh",
    "Taluk": "Sultanpur",
    "Districtname": "Sultanpur",
    "statename": "UTTAR PRADESH"
  },
  {
    "pincode": "228155",
    "officename": "Rupapur B.O",
    "officeType": "B.O",
    "Deliverystatus": "Delivery",
    "divisionname": "Sultanpur",
    "regionname": "Lucknow  HQ",
    "circlename": "Uttar Pradesh",
    "Taluk": "Sultanpur",
    "Districtname": "Sultanpur",
    "statename": "UTTAR PRADESH"
  },
  {
    "pincode": "228155",
    "officename": "Sarkaura B.O",
    "officeType": "B.O",
    "Deliverystatus": "Delivery",
    "divisionname": "Sultanpur",
    "regionname": "Lucknow  HQ",
    "circlename": "Uttar Pradesh",
    "Taluk": "Sultanpur",
    "Districtname": "Sultanpur",
    "statename": "UTTAR PRADESH"
  },
  {
    "pincode": "228155",
    "officename": "Sohgauli B.O",
    "officeType": "B.O",
    "Deliverystatus": "Delivery",
    "divisionname": "Sultanpur",
    "regionname": "Lucknow  HQ",
    "circlename": "Uttar Pradesh",
    "Taluk": "Sultanpur",
    "Districtname": "Sultanpur",
    "statename": "UTTAR PRADESH"
  },
  {
    "pincode": "228155",
    "officename": "Tirchhe B.O",
    "officeType": "B.O",
    "Deliverystatus": "Delivery",
    "divisionname": "Sultanpur",
    "regionname": "Lucknow  HQ",
    "circlename": "Uttar Pradesh",
    "Taluk": "Sultanpur",
    "Districtname": "Sultanpur",
    "statename": "UTTAR PRADESH"
  }
]
