[
  {
    "pincode": "229202",
    "officename": "Bhojpur S.O (Raebareli)",
    "officeType": "S.O",
    "Deliverystatus": "Delivery",
    "divisionname": "Rae Bareilly",
    "regionname": "Lucknow  HQ",
    "circlename": "Uttar Pradesh",
    "Taluk": "Lalganj",
    "Districtname": "Raebareli",
    "statename": "UTTAR PRADESH"
  },
  {
    "pincode": "229202",
    "officename": "Bithooli B.O",
    "officeType": "B.O",
    "Deliverystatus": "Delivery",
    "divisionname": "Rae Bareilly",
    "regionname": "Lucknow  HQ",
    "circlename": "Uttar Pradesh",
    "Taluk": "Lalganj",
    "Districtname": "Raebareli",
    "statename": "UTTAR PRADESH"
  },
  {
    "pincode": "229202",
    "officename": "Chahotar B.O",
    "officeType": "B.O",
    "Deliverystatus": "Delivery",
    "divisionname": "Rae Bareilly",
    "regionname": "Lucknow  HQ",
    "circlename": "Uttar Pradesh",
    "Taluk": "Lalganj",
    "Districtname": "Raebareli",
    "statename": "UTTAR PRADESH"
  },
  {
    "pincode": "229202",
    "officename": "Daulatpur B.O",
    "officeType": "B.O",
    "Deliverystatus": "Delivery",
    "divisionname": "Rae Bareilly",
    "regionname": "Lucknow  HQ",
    "circlename": "Uttar Pradesh",
    "Taluk": "Lalganj",
    "Districtname": "Raebareli",
    "statename": "UTTAR PRADESH"
  },
  {
    "pincode": "229202",
    "officename": "Gahrauli B.O",
    "officeType": "B.O",
    "Deliverystatus": "Delivery",
    "divisionname": "Rae Bareilly",
    "regionname": "Lucknow  HQ",
    "circlename": "Uttar Pradesh",
    "Taluk": "Lalganj",
    "Districtname": "Raebareli",
    "statename": "UTTAR PRADESH"
  },
  {
    "pincode": "229202",
    "officename": "Kodra B.O",
    "officeType": "B.O",
    "Deliverystatus": "Delivery",
    "divisionname": "Rae Bareilly",
    "regionname": "Lucknow  HQ",
    "circlename": "Uttar Pradesh",
    "Taluk": "Maharajganj",
    "Districtname": "Raebareli",
    "statename": "UTTAR PRADESH"
  },
  {
    "pincode": "229202",
    "officename": "Nisgar B.O",
    "officeType": "B.O",
    "Deliverystatus": "Delivery",
    "divisionname": "Rae Bareilly",
    "regionname": "Lucknow  HQ",
    "circlename": "Uttar Pradesh",
    "Taluk": "Lalganj",
    "Districtname": "Raebareli",
    "statename": "UTTAR PRADESH"
  },
  {
    "pincode": "229202",
    "officename": "Usroo B.O",
    "officeType": "B.O",
    "Deliverystatus": "Delivery",
    "divisionname": "Rae Bareilly",
    "regionname": "Lucknow  HQ",
    "circlename": "Uttar Pradesh",
    "Taluk": "Lalganj",
    "Districtname": "Raebareli",
    "statename": "UTTAR PRADESH"
  }
]
