[
  {
    "pincode": "229216",
    "officename": "Bairua B.O",
    "officeType": "B.O",
    "Deliverystatus": "Delivery",
    "divisionname": "Rae Bareilly",
    "regionname": "Lucknow  HQ",
    "circlename": "Uttar Pradesh",
    "Taluk": "Lalganj",
    "Districtname": "Raebareli",
    "statename": "UTTAR PRADESH"
  },
  {
    "pincode": "229216",
    "officename": "Beni Madhiganj B.O",
    "officeType": "B.O",
    "Deliverystatus": "Delivery",
    "divisionname": "Rae Bareilly",
    "regionname": "Lucknow  HQ",
    "circlename": "Uttar Pradesh",
    "Taluk": "Lalganj",
    "Districtname": "Raebareli",
    "statename": "UTTAR PRADESH"
  },
  {
    "pincode": "229216",
    "officename": "Cheolaha S.O",
    "officeType": "S.O",
    "Deliverystatus": "Delivery",
    "divisionname": "Rae Bareilly",
    "regionname": "Lucknow  HQ",
    "circlename": "Uttar Pradesh",
    "Taluk": "Lalganj",
    "Districtname": "Raebareli",
    "statename": "UTTAR PRADESH"
  },
  {
    "pincode": "229216",
    "officename": "Gegason B.O",
    "officeType": "B.O",
    "Deliverystatus": "Delivery",
    "divisionname": "Rae Bareilly",
    "regionname": "Lucknow  HQ",
    "circlename": "Uttar Pradesh",
    "Taluk": "Lalganj",
    "Districtname": "Raebareli",
    "statename": "UTTAR PRADESH"
  },
  {
    "pincode": "229216",
    "officename": "Gopali Khera B.O",
    "officeType": "B.O",
    "Deliverystatus": "Delivery",
    "divisionname": "Rae Bareilly",
    "regionname": "Lucknow  HQ",
    "circlename": "Uttar Pradesh",
    "Taluk": "Lalganj",
    "Districtname": "Raebareli",
    "statename": "UTTAR PRADESH"
  },
  {
    "pincode": "229216",
    "officename": "Kahjurgaon B.O",
    "officeType": "B.O",
    "Deliverystatus": "Delivery",
    "divisionname": "Rae Bareilly",
    "regionname": "Lucknow  HQ",
    "circlename": "Uttar Pradesh",
    "Taluk": "Lalganj",
    "Districtname": "Raebareli",
    "statename": "UTTAR PRADESH"
  },
  {
    "pincode": "229216",
    "officename": "Musapur B.O",
    "officeType": "B.O",
    "Deliverystatus": "Delivery",
    "divisionname": "Rae Bareilly",
    "regionname": "Lucknow  HQ",
    "circlename": "Uttar Pradesh",
    "Taluk": "Lalganj",
    "Districtname": "Raebareli",
    "statename": "UTTAR PRADESH"
  },
  {
    "pincode": "229216",
    "officename": "Ralpur B.O",
    "officeType": "B.O",
    "Deliverystatus": "Delivery",
    "divisionname": "Rae Bareilly",
    "regionname": "Lucknow  HQ",
    "circlename": "Uttar Pradesh",
    "Taluk": "Lalganj",
    "Districtname": "Raebareli",
    "statename": "UTTAR PRADESH"
  },
  {
    "pincode": "229216",
    "officename": "Rampur Kala B.O",
    "officeType": "B.O",
    "Deliverystatus": "Delivery",
    "divisionname": "Rae Bareilly",
    "regionname": "Lucknow  HQ",
    "circlename": "Uttar Pradesh",
    "Taluk": "Lalganj",
    "Districtname": "Raebareli",
    "statename": "UTTAR PRADESH"
  },
  {
    "pincode": "229216",
    "officename": "Rautapur B.O",
    "officeType": "B.O",
    "Deliverystatus": "Delivery",
    "divisionname": "Rae Bareilly",
    "regionname": "Lucknow  HQ",
    "circlename": "Uttar Pradesh",
    "Taluk": "Lalganj",
    "Districtname": "Raebareli",
    "statename": "UTTAR PRADESH"
  },
  {
    "pincode": "229216",
    "officename": "Singhortara B.O",
    "officeType": "B.O",
    "Deliverystatus": "Delivery",
    "divisionname": "Rae Bareilly",
    "regionname": "Lucknow  HQ",
    "circlename": "Uttar Pradesh",
    "Taluk": "Lalganj",
    "Districtname": "Raebareli",
    "statename": "UTTAR PRADESH"
  }
]
