[
  {
    "pincode": "229212",
    "officename": "Deopur B.O",
    "officeType": "B.O",
    "Deliverystatus": "Delivery",
    "divisionname": "Rae Bareilly",
    "regionname": "Lucknow  HQ",
    "circlename": "Uttar Pradesh",
    "Taluk": "Lalganj",
    "Districtname": "Raebareli",
    "statename": "UTTAR PRADESH"
  },
  {
    "pincode": "229212",
    "officename": "Dhanpulpur B.O",
    "officeType": "B.O",
    "Deliverystatus": "Delivery",
    "divisionname": "Rae Bareilly",
    "regionname": "Lucknow  HQ",
    "circlename": "Uttar Pradesh",
    "Taluk": "Lalganj",
    "Districtname": "Raebareli",
    "statename": "UTTAR PRADESH"
  },
  {
    "pincode": "229212",
    "officename": "Gajpati Khera B.O",
    "officeType": "B.O",
    "Deliverystatus": "Delivery",
    "divisionname": "Rae Bareilly",
    "regionname": "Lucknow  HQ",
    "circlename": "Uttar Pradesh",
    "Taluk": "Lalganj",
    "Districtname": "Raebareli",
    "statename": "UTTAR PRADESH"
  },
  {
    "pincode": "229212",
    "officename": "Hathnasa B.O",
    "officeType": "B.O",
    "Deliverystatus": "Delivery",
    "divisionname": "Rae Bareilly",
    "regionname": "Lucknow  HQ",
    "circlename": "Uttar Pradesh",
    "Taluk": "Lalganj",
    "Districtname": "Raebareli",
    "statename": "UTTAR PRADESH"
  },
  {
    "pincode": "229212",
    "officename": "Ibrahimpur B.O",
    "officeType": "B.O",
    "Deliverystatus": "Delivery",
    "divisionname": "Rae Bareilly",
    "regionname": "Lucknow  HQ",
    "circlename": "Uttar Pradesh",
    "Taluk": "Lalganj",
    "Districtname": "Raebareli",
    "statename": "UTTAR PRADESH"
  },
  {
    "pincode": "229212",
    "officename": "Murarmau B.O",
    "officeType": "B.O",
    "Deliverystatus": "Delivery",
    "divisionname": "Rae Bareilly",
    "regionname": "Lucknow  HQ",
    "circlename": "Uttar Pradesh",
    "Taluk": "Lalganj",
    "Districtname": "Raebareli",
    "statename": "UTTAR PRADESH"
  },
  {
    "pincode": "229212",
    "officename": "Nibi B.O",
    "officeType": "B.O",
    "Deliverystatus": "Delivery",
    "divisionname": "Rae Bareilly",
    "regionname": "Lucknow  HQ",
    "circlename": "Uttar Pradesh",
    "Taluk": "Lalganj",
    "Districtname": "Raebareli",
    "statename": "UTTAR PRADESH"
  },
  {
    "pincode": "229212",
    "officename": "Samodha B.O",
    "officeType": "B.O",
    "Deliverystatus": "Delivery",
    "divisionname": "Rae Bareilly",
    "regionname": "Lucknow  HQ",
    "circlename": "Uttar Pradesh",
    "Taluk": "Lalganj",
    "Districtname": "Raebareli",
    "statename": "UTTAR PRADESH"
  },
  {
    "pincode": "229212",
    "officename": "Sareni S.O",
    "officeType": "S.O",
    "Deliverystatus": "Delivery",
    "divisionname": "Rae Bareilly",
    "regionname": "Lucknow  HQ",
    "circlename": "Uttar Pradesh",
    "Taluk": "Lalganj",
    "Districtname": "Raebareli",
    "statename": "UTTAR PRADESH"
  },
  {
    "pincode": "229212",
    "officename": "Satwa Khera B.O",
    "officeType": "B.O",
    "Deliverystatus": "Delivery",
    "divisionname": "Rae Bareilly",
    "regionname": "Lucknow  HQ",
    "circlename": "Uttar Pradesh",
    "Taluk": "Lalganj",
    "Districtname": "Raebareli",
    "statename": "UTTAR PRADESH"
  }
]
