[
  {
    "pincode": "229206",
    "officename": "Ajitpur B.O",
    "officeType": "B.O",
    "Deliverystatus": "Delivery",
    "divisionname": "Rae Bareilly",
    "regionname": "Lucknow  HQ",
    "circlename": "Uttar Pradesh",
    "Taluk": "Lalganj",
    "Districtname": "Raebareli",
    "statename": "UTTAR PRADESH"
  },
  {
    "pincode": "229206",
    "officename": "Akauni B.O",
    "officeType": "B.O",
    "Deliverystatus": "Delivery",
    "divisionname": "Rae Bareilly",
    "regionname": "Lucknow  HQ",
    "circlename": "Uttar Pradesh",
    "Taluk": "Lalganj",
    "Districtname": "Raebareli",
    "statename": "UTTAR PRADESH"
  },
  {
    "pincode": "229206",
    "officename": "Ambara Paschim B.O",
    "officeType": "B.O",
    "Deliverystatus": "Delivery",
    "divisionname": "Rae Bareilly",
    "regionname": "Lucknow  HQ",
    "circlename": "Uttar Pradesh",
    "Taluk": "Lalganj",
    "Districtname": "Raebareli",
    "statename": "UTTAR PRADESH"
  },
  {
    "pincode": "229206",
    "officename": "Bannamau B.O",
    "officeType": "B.O",
    "Deliverystatus": "Delivery",
    "divisionname": "Rae Bareilly",
    "regionname": "Lucknow  HQ",
    "circlename": "Uttar Pradesh",
    "Taluk": "Lalganj",
    "Districtname": "Raebareli",
    "statename": "UTTAR PRADESH"
  },
  {
    "pincode": "229206",
    "officename": "Bishun Khera B.O",
    "officeType": "B.O",
    "Deliverystatus": "Delivery",
    "divisionname": "Rae Bareilly",
    "regionname": "Lucknow  HQ",
    "circlename": "Uttar Pradesh",
    "Taluk": "Lalganj",
    "Districtname": "Raebareli",
    "statename": "UTTAR PRADESH"
  },
  {
    "pincode": "229206",
    "officename": "Deepemau B.O",
    "officeType": "B.O",
    "Deliverystatus": "Delivery",
    "divisionname": "Rae Bareilly",
    "regionname": "Lucknow  HQ",
    "circlename": "Uttar Pradesh",
    "Taluk": "Lalganj",
    "Districtname": "Raebareli",
    "statename": "UTTAR PRADESH"
  },
  {
    "pincode": "229206",
    "officename": "Kumraura B.O",
    "officeType": "B.O",
    "Deliverystatus": "Delivery",
    "divisionname": "Rae Bareilly",
    "regionname": "Lucknow  HQ",
    "circlename": "Uttar Pradesh",
    "Taluk": "Lalganj",
    "Districtname": "Raebareli",
    "statename": "UTTAR PRADESH"
  },
  {
    "pincode": "229206",
    "officename": "Lalganj (Raebareli) H.O",
    "officeType": "H.O",
    "Deliverystatus": "Delivery",
    "divisionname": "Rae Bareilly",
    "regionname": "Lucknow  HQ",
    "circlename": "Uttar Pradesh",
    "Taluk": "Lalganj",
    "Districtname": "Raebareli",
    "statename": "UTTAR PRADESH"
  },
  {
    "pincode": "229206",
    "officename": "Lalganj Bazar B.O",
    "officeType": "B.O",
    "Deliverystatus": "Delivery",
    "divisionname": "Rae Bareilly",
    "regionname": "Lucknow  HQ",
    "circlename": "Uttar Pradesh",
    "Taluk": "Lalganj",
    "Districtname": "Raebareli",
    "statename": "UTTAR PRADESH"
  },
  {
    "pincode": "229206",
    "officename": "Lalumau B.O",
    "officeType": "B.O",
    "Deliverystatus": "Delivery",
    "divisionname": "Rae Bareilly",
    "regionname": "Lucknow  HQ",
    "circlename": "Uttar Pradesh",
    "Taluk": "Lalganj",
    "Districtname": "Raebareli",
    "statename": "UTTAR PRADESH"
  },
  {
    "pincode": "229206",
    "officename": "Maha Khera B.O",
    "officeType": "B.O",
    "Deliverystatus": "Delivery",
    "divisionname": "Rae Bareilly",
    "regionname": "Lucknow  HQ",
    "circlename": "Uttar Pradesh",
    "Taluk": "Lalganj",
    "Districtname": "Raebareli",
    "statename": "UTTAR PRADESH"
  },
  {
    "pincode": "229206",
    "officename": "Merui B.O",
    "officeType": "B.O",
    "Deliverystatus": "Delivery",
    "divisionname": "Rae Bareilly",
    "regionname": "Lucknow  HQ",
    "circlename": "Uttar Pradesh",
    "Taluk": "Lalganj",
    "Districtname": "Raebareli",
    "statename": "UTTAR PRADESH"
  },
  {
    "pincode": "229206",
    "officename": "Semarpaha B.O",
    "officeType": "B.O",
    "Deliverystatus": "Delivery",
    "divisionname": "Rae Bareilly",
    "regionname": "Lucknow  HQ",
    "circlename": "Uttar Pradesh",
    "Taluk": "Lalganj",
    "Districtname": "Raebareli",
    "statename": "UTTAR PRADESH"
  }
]
