[
  {
    "pincode": "229401",
    "officename": "Babuganj B.O",
    "officeType": "B.O",
    "Deliverystatus": "Delivery",
    "divisionname": "Rae Bareilly",
    "regionname": "Lucknow  HQ",
    "circlename": "Uttar Pradesh",
    "Taluk": "Unchahar **",
    "Districtname": "Raebareli",
    "statename": "UTTAR PRADESH"
  },
  {
    "pincode": "229401",
    "officename": "Bhilampur B.O",
    "officeType": "B.O",
    "Deliverystatus": "Delivery",
    "divisionname": "Rae Bareilly",
    "regionname": "Lucknow  HQ",
    "circlename": "Uttar Pradesh",
    "Taluk": "Unchahar",
    "Districtname": "Raebareli",
    "statename": "UTTAR PRADESH"
  },
  {
    "pincode": "229401",
    "officename": "Bichiya Wadi B.O",
    "officeType": "B.O",
    "Deliverystatus": "Delivery",
    "divisionname": "Rae Bareilly",
    "regionname": "Lucknow  HQ",
    "circlename": "Uttar Pradesh",
    "Taluk": "Unchahar",
    "Districtname": "Raebareli",
    "statename": "UTTAR PRADESH"
  },
  {
    "pincode": "229401",
    "officename": "Gularhia Maj.Dhuta B.O",
    "officeType": "B.O",
    "Deliverystatus": "Delivery",
    "divisionname": "Rae Bareilly",
    "regionname": "Lucknow  HQ",
    "circlename": "Uttar Pradesh",
    "Taluk": "Salon",
    "Districtname": "Raebareli",
    "statename": "UTTAR PRADESH"
  },
  {
    "pincode": "229401",
    "officename": "Ishwardaspur B.O",
    "officeType": "B.O",
    "Deliverystatus": "Delivery",
    "divisionname": "Rae Bareilly",
    "regionname": "Lucknow  HQ",
    "circlename": "Uttar Pradesh",
    "Taluk": "Unchahar",
    "Districtname": "Raebareli",
    "statename": "UTTAR PRADESH"
  },
  {
    "pincode": "229401",
    "officename": "Itaurabujurg S.O",
    "officeType": "S.O",
    "Deliverystatus": "Delivery",
    "divisionname": "Rae Bareilly",
    "regionname": "Lucknow  HQ",
    "circlename": "Uttar Pradesh",
    "Taluk": "Unchahar",
    "Districtname": "Raebareli",
    "statename": "UTTAR PRADESH"
  },
  {
    "pincode": "229401",
    "officename": "Kaziana B.O",
    "officeType": "B.O",
    "Deliverystatus": "Delivery",
    "divisionname": "Rae Bareilly",
    "regionname": "Lucknow  HQ",
    "circlename": "Uttar Pradesh",
    "Taluk": "Unchahar",
    "Districtname": "Raebareli",
    "statename": "UTTAR PRADESH"
  },
  {
    "pincode": "229401",
    "officename": "Khairahni Pahargarh B.O",
    "officeType": "B.O",
    "Deliverystatus": "Delivery",
    "divisionname": "Rae Bareilly",
    "regionname": "Lucknow  HQ",
    "circlename": "Uttar Pradesh",
    "Taluk": "Unchahar",
    "Districtname": "Raebareli",
    "statename": "UTTAR PRADESH"
  },
  {
    "pincode": "229401",
    "officename": "Kishundaspur B.O",
    "officeType": "B.O",
    "Deliverystatus": "Delivery",
    "divisionname": "Rae Bareilly",
    "regionname": "Lucknow  HQ",
    "circlename": "Uttar Pradesh",
    "Taluk": "Unchahar",
    "Districtname": "Raebareli",
    "statename": "UTTAR PRADESH"
  },
  {
    "pincode": "229401",
    "officename": "Kotia Chitra B.O",
    "officeType": "B.O",
    "Deliverystatus": "Delivery",
    "divisionname": "Rae Bareilly",
    "regionname": "Lucknow  HQ",
    "circlename": "Uttar Pradesh",
    "Taluk": "Unchahar",
    "Districtname": "Raebareli",
    "statename": "UTTAR PRADESH"
  },
  {
    "pincode": "229401",
    "officename": "Kusumi B.O",
    "officeType": "B.O",
    "Deliverystatus": "Delivery",
    "divisionname": "Rae Bareilly",
    "regionname": "Lucknow  HQ",
    "circlename": "Uttar Pradesh",
    "Taluk": "Maharajganj",
    "Districtname": "Raebareli",
    "statename": "UTTAR PRADESH"
  },
  {
    "pincode": "229401",
    "officename": "Laxmiganj B.O",
    "officeType": "B.O",
    "Deliverystatus": "Delivery",
    "divisionname": "Rae Bareilly",
    "regionname": "Lucknow  HQ",
    "circlename": "Uttar Pradesh",
    "Taluk": "Unchahar **",
    "Districtname": "Raebareli",
    "statename": "UTTAR PRADESH"
  },
  {
    "pincode": "229401",
    "officename": "Mirzapur Aihari B.O",
    "officeType": "B.O",
    "Deliverystatus": "Delivery",
    "divisionname": "Rae Bareilly",
    "regionname": "Lucknow  HQ",
    "circlename": "Uttar Pradesh",
    "Taluk": "Unchahar",
    "Districtname": "Raebareli",
    "statename": "UTTAR PRADESH"
  },
  {
    "pincode": "229401",
    "officename": "Pari B.O",
    "officeType": "B.O",
    "Deliverystatus": "Delivery",
    "divisionname": "Rae Bareilly",
    "regionname": "Lucknow  HQ",
    "circlename": "Uttar Pradesh",
    "Taluk": "Unchahar",
    "Districtname": "Raebareli",
    "statename": "UTTAR PRADESH"
  },
  {
    "pincode": "229401",
    "officename": "Pure Jhampur B.O",
    "officeType": "B.O",
    "Deliverystatus": "Delivery",
    "divisionname": "Rae Bareilly",
    "regionname": "Lucknow  HQ",
    "circlename": "Uttar Pradesh",
    "Taluk": "Unchahar",
    "Districtname": "Raebareli",
    "statename": "UTTAR PRADESH"
  },
  {
    "pincode": "229401",
    "officename": "Reoli B.O",
    "officeType": "B.O",
    "Deliverystatus": "Delivery",
    "divisionname": "Rae Bareilly",
    "regionname": "Lucknow  HQ",
    "circlename": "Uttar Pradesh",
    "Taluk": "Unchahar",
    "Districtname": "Raebareli",
    "statename": "UTTAR PRADESH"
  },
  {
    "pincode": "229401",
    "officename": "Rohania B.O",
    "officeType": "B.O",
    "Deliverystatus": "Delivery",
    "divisionname": "Rae Bareilly",
    "regionname": "Lucknow  HQ",
    "circlename": "Uttar Pradesh",
    "Taluk": "Unchahar **",
    "Districtname": "Raebareli",
    "statename": "UTTAR PRADESH"
  },
  {
    "pincode": "229401",
    "officename": "Undwa B.O",
    "officeType": "B.O",
    "Deliverystatus": "Delivery",
    "divisionname": "Rae Bareilly",
    "regionname": "Lucknow  HQ",
    "circlename": "Uttar Pradesh",
    "Taluk": "Unchahar",
    "Districtname": "Raebareli",
    "statename": "UTTAR PRADESH"
  }
]
