[
  {
    "pincode": "230128",
    "officename": "Bhikhapur Kanidih B.O",
    "officeType": "B.O",
    "Deliverystatus": "Delivery",
    "divisionname": "Pratapgarh",
    "regionname": "Allahabad",
    "circlename": "Uttar Pradesh",
    "Taluk": "Kunda",
    "Districtname": "Pratapgarh",
    "statename": "UTTAR PRADESH"
  },
  {
    "pincode": "230128",
    "officename": "Chitamanpur Patna B.O",
    "officeType": "B.O",
    "Deliverystatus": "Delivery",
    "divisionname": "Pratapgarh",
    "regionname": "Allahabad",
    "circlename": "Uttar Pradesh",
    "Taluk": "Kunda",
    "Districtname": "Pratapgarh",
    "statename": "UTTAR PRADESH"
  },
  {
    "pincode": "230128",
    "officename": "Derwa S.O",
    "officeType": "S.O",
    "Deliverystatus": "Delivery",
    "divisionname": "Pratapgarh",
    "regionname": "Allahabad",
    "circlename": "Uttar Pradesh",
    "Taluk": "Kunda",
    "Districtname": "Pratapgarh",
    "statename": "UTTAR PRADESH"
  },
  {
    "pincode": "230128",
    "officename": "Dhingwas B.O",
    "officeType": "B.O",
    "Deliverystatus": "Delivery",
    "divisionname": "Pratapgarh",
    "regionname": "Allahabad",
    "circlename": "Uttar Pradesh",
    "Taluk": "Kunda",
    "Districtname": "Pratapgarh",
    "statename": "UTTAR PRADESH"
  },
  {
    "pincode": "230128",
    "officename": "Kushaha B.O",
    "officeType": "B.O",
    "Deliverystatus": "Delivery",
    "divisionname": "Pratapgarh",
    "regionname": "Allahabad",
    "circlename": "Uttar Pradesh",
    "Taluk": "Kunda",
    "Districtname": "Pratapgarh",
    "statename": "UTTAR PRADESH"
  },
  {
    "pincode": "230128",
    "officename": "Maheshganj B.O",
    "officeType": "B.O",
    "Deliverystatus": "Delivery",
    "divisionname": "Pratapgarh",
    "regionname": "Allahabad",
    "circlename": "Uttar Pradesh",
    "Taluk": "Kunda",
    "Districtname": "Pratapgarh",
    "statename": "UTTAR PRADESH"
  },
  {
    "pincode": "230128",
    "officename": "Mahrajganj B.O",
    "officeType": "B.O",
    "Deliverystatus": "Delivery",
    "divisionname": "Pratapgarh",
    "regionname": "Allahabad",
    "circlename": "Uttar Pradesh",
    "Taluk": "Kunda",
    "Districtname": "Pratapgarh",
    "statename": "UTTAR PRADESH"
  },
  {
    "pincode": "230128",
    "officename": "Pure Gajai B.O",
    "officeType": "B.O",
    "Deliverystatus": "Delivery",
    "divisionname": "Pratapgarh",
    "regionname": "Allahabad",
    "circlename": "Uttar Pradesh",
    "Taluk": "Kunda",
    "Districtname": "Pratapgarh",
    "statename": "UTTAR PRADESH"
  },
  {
    "pincode": "230128",
    "officename": "Raigarh B.O",
    "officeType": "B.O",
    "Deliverystatus": "Delivery",
    "divisionname": "Pratapgarh",
    "regionname": "Allahabad",
    "circlename": "Uttar Pradesh",
    "Taluk": "Kunda",
    "Districtname": "Pratapgarh",
    "statename": "UTTAR PRADESH"
  },
  {
    "pincode": "230128",
    "officename": "Rajapur Bindhan B.O",
    "officeType": "B.O",
    "Deliverystatus": "Delivery",
    "divisionname": "Pratapgarh",
    "regionname": "Allahabad",
    "circlename": "Uttar Pradesh",
    "Taluk": "Kudna",
    "Districtname": "Pratapgarh",
    "statename": "UTTAR PRADESH"
  },
  {
    "pincode": "230128",
    "officename": "Ram Nagar B.O",
    "officeType": "B.O",
    "Deliverystatus": "Delivery",
    "divisionname": "Pratapgarh",
    "regionname": "Allahabad",
    "circlename": "Uttar Pradesh",
    "Taluk": "Kunda",
    "Districtname": "Pratapgarh",
    "statename": "UTTAR PRADESH"
  },
  {
    "pincode": "230128",
    "officename": "Sarai Indrawat B.O",
    "officeType": "B.O",
    "Deliverystatus": "Delivery",
    "divisionname": "Pratapgarh",
    "regionname": "Allahabad",
    "circlename": "Uttar Pradesh",
    "Taluk": "Kunda",
    "Districtname": "Pratapgarh",
    "statename": "UTTAR PRADESH"
  }
]
