[
  {
    "pincode": "230132",
    "officename": "Ajhara B.O",
    "officeType": "B.O",
    "Deliverystatus": "Delivery",
    "divisionname": "Pratapgarh",
    "regionname": "Allahabad",
    "circlename": "Uttar Pradesh",
    "Taluk": "Lalgang",
    "Districtname": "Pratapgarh",
    "statename": "UTTAR PRADESH"
  },
  {
    "pincode": "230132",
    "officename": "Amawan B.O",
    "officeType": "B.O",
    "Deliverystatus": "Delivery",
    "divisionname": "Pratapgarh",
    "regionname": "Allahabad",
    "circlename": "Uttar Pradesh",
    "Taluk": "Lalganj",
    "Districtname": "Pratapgarh",
    "statename": "UTTAR PRADESH"
  },
  {
    "pincode": "230132",
    "officename": "Asrahi B.O",
    "officeType": "B.O",
    "Deliverystatus": "Delivery",
    "divisionname": "Pratapgarh",
    "regionname": "Allahabad",
    "circlename": "Uttar Pradesh",
    "Taluk": "Lalganj",
    "Districtname": "Pratapgarh",
    "statename": "UTTAR PRADESH"
  },
  {
    "pincode": "230132",
    "officename": "Balha B.O",
    "officeType": "B.O",
    "Deliverystatus": "Delivery",
    "divisionname": "Pratapgarh",
    "regionname": "Allahabad",
    "circlename": "Uttar Pradesh",
    "Taluk": "Lalganj",
    "Districtname": "Pratapgarh",
    "statename": "UTTAR PRADESH"
  },
  {
    "pincode": "230132",
    "officename": "Dawapur B.O",
    "officeType": "B.O",
    "Deliverystatus": "Delivery",
    "divisionname": "Pratapgarh",
    "regionname": "Allahabad",
    "circlename": "Uttar Pradesh",
    "Taluk": "Lalganj",
    "Districtname": "Pratapgarh",
    "statename": "UTTAR PRADESH"
  },
  {
    "pincode": "230132",
    "officename": "Idilpur B.O",
    "officeType": "B.O",
    "Deliverystatus": "Delivery",
    "divisionname": "Pratapgarh",
    "regionname": "Allahabad",
    "circlename": "Uttar Pradesh",
    "Taluk": "Lalganj",
    "Districtname": "Pratapgarh",
    "statename": "UTTAR PRADESH"
  },
  {
    "pincode": "230132",
    "officename": "Jalesharganj B.O",
    "officeType": "B.O",
    "Deliverystatus": "Delivery",
    "divisionname": "Pratapgarh",
    "regionname": "Allahabad",
    "circlename": "Uttar Pradesh",
    "Taluk": "Lalganj",
    "Districtname": "Pratapgarh",
    "statename": "UTTAR PRADESH"
  },
  {
    "pincode": "230132",
    "officename": "Jasmarha B.O",
    "officeType": "B.O",
    "Deliverystatus": "Delivery",
    "divisionname": "Pratapgarh",
    "regionname": "Allahabad",
    "circlename": "Uttar Pradesh",
    "Taluk": "Lalganj",
    "Districtname": "Pratapgarh",
    "statename": "UTTAR PRADESH"
  },
  {
    "pincode": "230132",
    "officename": "Kaprahi B.O",
    "officeType": "B.O",
    "Deliverystatus": "Delivery",
    "divisionname": "Pratapgarh",
    "regionname": "Allahabad",
    "circlename": "Uttar Pradesh",
    "Taluk": "Lalganj",
    "Districtname": "Pratapgarh",
    "statename": "UTTAR PRADESH"
  },
  {
    "pincode": "230132",
    "officename": "Khajuri B.O",
    "officeType": "B.O",
    "Deliverystatus": "Delivery",
    "divisionname": "Pratapgarh",
    "regionname": "Allahabad",
    "circlename": "Uttar Pradesh",
    "Taluk": "Pratapgarh",
    "Districtname": "Pratapgarh",
    "statename": "UTTAR PRADESH"
  },
  {
    "pincode": "230132",
    "officename": "Kumbhapur B.O",
    "officeType": "B.O",
    "Deliverystatus": "Delivery",
    "divisionname": "Pratapgarh",
    "regionname": "Allahabad",
    "circlename": "Uttar Pradesh",
    "Taluk": "Lalganj",
    "Districtname": "Pratapgarh",
    "statename": "UTTAR PRADESH"
  },
  {
    "pincode": "230132",
    "officename": "Lalganj (Pratapgarh) S.O",
    "officeType": "S.O",
    "Deliverystatus": "Delivery",
    "divisionname": "Pratapgarh",
    "regionname": "Allahabad",
    "circlename": "Uttar Pradesh",
    "Taluk": "Lalganj",
    "Districtname": "Pratapgarh",
    "statename": "UTTAR PRADESH"
  },
  {
    "pincode": "230132",
    "officename": "Purwara B.O",
    "officeType": "B.O",
    "Deliverystatus": "Delivery",
    "divisionname": "Pratapgarh",
    "regionname": "Allahabad",
    "circlename": "Uttar Pradesh",
    "Taluk": "Lalganj",
    "Districtname": "Pratapgarh",
    "statename": "UTTAR PRADESH"
  },
  {
    "pincode": "230132",
    "officename": "Rampur Baoli B.O",
    "officeType": "B.O",
    "Deliverystatus": "Delivery",
    "divisionname": "Pratapgarh",
    "regionname": "Allahabad",
    "circlename": "Uttar Pradesh",
    "Taluk": "Lalganj",
    "Districtname": "Pratapgarh",
    "statename": "UTTAR PRADESH"
  }
]
