[
  {
    "pincode": "230124",
    "officename": "Amargarh S.O (Pratapgarh)",
    "officeType": "S.O",
    "Deliverystatus": "Delivery",
    "divisionname": "Pratapgarh",
    "regionname": "Allahabad",
    "circlename": "Uttar Pradesh",
    "Taluk": "Patti",
    "Districtname": "Pratapgarh",
    "statename": "UTTAR PRADESH"
  },
  {
    "pincode": "230124",
    "officename": "Aspur Deosara B.O",
    "officeType": "B.O",
    "Deliverystatus": "Delivery",
    "divisionname": "Pratapgarh",
    "regionname": "Allahabad",
    "circlename": "Uttar Pradesh",
    "Taluk": "Patti",
    "Districtname": "Pratapgarh",
    "statename": "UTTAR PRADESH"
  },
  {
    "pincode": "230124",
    "officename": "Bhanaipur B.O",
    "officeType": "B.O",
    "Deliverystatus": "Delivery",
    "divisionname": "Pratapgarh",
    "regionname": "Allahabad",
    "circlename": "Uttar Pradesh",
    "Taluk": "Patti",
    "Districtname": "Pratapgarh",
    "statename": "UTTAR PRADESH"
  },
  {
    "pincode": "230124",
    "officename": "Dahi B.O",
    "officeType": "B.O",
    "Deliverystatus": "Delivery",
    "divisionname": "Pratapgarh",
    "regionname": "Allahabad",
    "circlename": "Uttar Pradesh",
    "Taluk": "Patti",
    "Districtname": "Pratapgarh",
    "statename": "UTTAR PRADESH"
  },
  {
    "pincode": "230124",
    "officename": "Dhaurahra B.O",
    "officeType": "B.O",
    "Deliverystatus": "Delivery",
    "divisionname": "Pratapgarh",
    "regionname": "Allahabad",
    "circlename": "Uttar Pradesh",
    "Taluk": "Patti",
    "Districtname": "Pratapgarh",
    "statename": "UTTAR PRADESH"
  },
  {
    "pincode": "230124",
    "officename": "Gadhiyawan B.O",
    "officeType": "B.O",
    "Deliverystatus": "Delivery",
    "divisionname": "Pratapgarh",
    "regionname": "Allahabad",
    "circlename": "Uttar Pradesh",
    "Taluk": "Patti",
    "Districtname": "Pratapgarh",
    "statename": "UTTAR PRADESH"
  },
  {
    "pincode": "230124",
    "officename": "Kabirpur B.O",
    "officeType": "B.O",
    "Deliverystatus": "Delivery",
    "divisionname": "Pratapgarh",
    "regionname": "Allahabad",
    "circlename": "Uttar Pradesh",
    "Taluk": "Patti",
    "Districtname": "Pratapgarh",
    "statename": "UTTAR PRADESH"
  },
  {
    "pincode": "230124",
    "officename": "Molnapur B.O",
    "officeType": "B.O",
    "Deliverystatus": "Delivery",
    "divisionname": "Pratapgarh",
    "regionname": "Allahabad",
    "circlename": "Uttar Pradesh",
    "Taluk": "Patti",
    "Districtname": "Pratapgarh",
    "statename": "UTTAR PRADESH"
  },
  {
    "pincode": "230124",
    "officename": "Parhat Khas B.O",
    "officeType": "B.O",
    "Deliverystatus": "Delivery",
    "divisionname": "Pratapgarh",
    "regionname": "Allahabad",
    "circlename": "Uttar Pradesh",
    "Taluk": "Patti",
    "Districtname": "Pratapgarh",
    "statename": "UTTAR PRADESH"
  },
  {
    "pincode": "230124",
    "officename": "Pure Dhani B.O",
    "officeType": "B.O",
    "Deliverystatus": "Delivery",
    "divisionname": "Pratapgarh",
    "regionname": "Allahabad",
    "circlename": "Uttar Pradesh",
    "Taluk": "Patti",
    "Districtname": "Pratapgarh",
    "statename": "UTTAR PRADESH"
  },
  {
    "pincode": "230124",
    "officename": "Sadaha B.O",
    "officeType": "B.O",
    "Deliverystatus": "Delivery",
    "divisionname": "Pratapgarh",
    "regionname": "Allahabad",
    "circlename": "Uttar Pradesh",
    "Taluk": "Patti",
    "Districtname": "Pratapgarh",
    "statename": "UTTAR PRADESH"
  }
]
