[
  {
    "pincode": "230202",
    "officename": "Bajha Bheet B.O",
    "officeType": "B.O",
    "Deliverystatus": "Delivery",
    "divisionname": "Pratapgarh",
    "regionname": "Allahabad",
    "circlename": "Uttar Pradesh",
    "Taluk": "Kunda",
    "Districtname": "Pratapgarh",
    "statename": "UTTAR PRADESH"
  },
  {
    "pincode": "230202",
    "officename": "Garhi Manikpur S.O",
    "officeType": "S.O",
    "Deliverystatus": "Delivery",
    "divisionname": "Pratapgarh",
    "regionname": "Allahabad",
    "circlename": "Uttar Pradesh",
    "Taluk": "Kunda",
    "Districtname": "Pratapgarh",
    "statename": "UTTAR PRADESH"
  },
  {
    "pincode": "230202",
    "officename": "Garhi Samsabad B.O",
    "officeType": "B.O",
    "Deliverystatus": "Delivery",
    "divisionname": "Pratapgarh",
    "regionname": "Allahabad",
    "circlename": "Uttar Pradesh",
    "Taluk": "Kunda",
    "Districtname": "Pratapgarh",
    "statename": "UTTAR PRADESH"
  },
  {
    "pincode": "230202",
    "officename": "Gotani B.O",
    "officeType": "B.O",
    "Deliverystatus": "Delivery",
    "divisionname": "Pratapgarh",
    "regionname": "Allahabad",
    "circlename": "Uttar Pradesh",
    "Taluk": "Kunda",
    "Districtname": "Pratapgarh",
    "statename": "UTTAR PRADESH"
  },
  {
    "pincode": "230202",
    "officename": "Jhonkwara B.O",
    "officeType": "B.O",
    "Deliverystatus": "Delivery",
    "divisionname": "Pratapgarh",
    "regionname": "Allahabad",
    "circlename": "Uttar Pradesh",
    "Taluk": "Kunda",
    "Districtname": "Pratapgarh",
    "statename": "UTTAR PRADESH"
  },
  {
    "pincode": "230202",
    "officename": "Lat Tara B.O",
    "officeType": "B.O",
    "Deliverystatus": "Delivery",
    "divisionname": "Pratapgarh",
    "regionname": "Allahabad",
    "circlename": "Uttar Pradesh",
    "Taluk": "Kunda",
    "Districtname": "Pratapgarh",
    "statename": "UTTAR PRADESH"
  },
  {
    "pincode": "230202",
    "officename": "Radhauli B.O",
    "officeType": "B.O",
    "Deliverystatus": "Delivery",
    "divisionname": "Pratapgarh",
    "regionname": "Allahabad",
    "circlename": "Uttar Pradesh",
    "Taluk": "Kunda",
    "Districtname": "Pratapgarh",
    "statename": "UTTAR PRADESH"
  },
  {
    "pincode": "230202",
    "officename": "Sahjani B.O",
    "officeType": "B.O",
    "Deliverystatus": "Delivery",
    "divisionname": "Pratapgarh",
    "regionname": "Allahabad",
    "circlename": "Uttar Pradesh",
    "Taluk": "Kunda",
    "Districtname": "Pratapgarh",
    "statename": "UTTAR PRADESH"
  },
  {
    "pincode": "230202",
    "officename": "Tiwaripur B.O",
    "officeType": "B.O",
    "Deliverystatus": "Delivery",
    "divisionname": "Pratapgarh",
    "regionname": "Allahabad",
    "circlename": "Uttar Pradesh",
    "Taluk": "Kunda",
    "Districtname": "Pratapgarh",
    "statename": "UTTAR PRADESH"
  }
]
