[
  {
    "pincode": "230402",
    "officename": "Bachhuwa B.O",
    "officeType": "B.O",
    "Deliverystatus": "Delivery",
    "divisionname": "Pratapgarh",
    "regionname": "Allahabad",
    "circlename": "Uttar Pradesh",
    "Taluk": "Sadar",
    "Districtname": "Pratapgarh",
    "statename": "UTTAR PRADESH"
  },
  {
    "pincode": "230402",
    "officename": "Baishpur B.O",
    "officeType": "B.O",
    "Deliverystatus": "Delivery",
    "divisionname": "Pratapgarh",
    "regionname": "Allahabad",
    "circlename": "Uttar Pradesh",
    "Taluk": "Pratapgarh",
    "Districtname": "Pratapgarh",
    "statename": "UTTAR PRADESH"
  },
  {
    "pincode": "230402",
    "officename": "Balikaranganj B.O",
    "officeType": "B.O",
    "Deliverystatus": "Delivery",
    "divisionname": "Pratapgarh",
    "regionname": "Allahabad",
    "circlename": "Uttar Pradesh",
    "Taluk": "Sadar",
    "Districtname": "Pratapgarh",
    "statename": "UTTAR PRADESH"
  },
  {
    "pincode": "230402",
    "officename": "Bhagwatganj B.O",
    "officeType": "B.O",
    "Deliverystatus": "Delivery",
    "divisionname": "Pratapgarh",
    "regionname": "Allahabad",
    "circlename": "Uttar Pradesh",
    "Taluk": "Patti",
    "Districtname": "Pratapgarh",
    "statename": "UTTAR PRADESH"
  },
  {
    "pincode": "230402",
    "officename": "Hainshi Parji B.O",
    "officeType": "B.O",
    "Deliverystatus": "Delivery",
    "divisionname": "Pratapgarh",
    "regionname": "Allahabad",
    "circlename": "Uttar Pradesh",
    "Taluk": "Sadar",
    "Districtname": "Pratapgarh",
    "statename": "UTTAR PRADESH"
  },
  {
    "pincode": "230402",
    "officename": "Harakhpur B.O",
    "officeType": "B.O",
    "Deliverystatus": "Delivery",
    "divisionname": "Pratapgarh",
    "regionname": "Allahabad",
    "circlename": "Uttar Pradesh",
    "Taluk": "Sadar",
    "Districtname": "Pratapgarh",
    "statename": "UTTAR PRADESH"
  },
  {
    "pincode": "230402",
    "officename": "Kalyanpur B.O",
    "officeType": "B.O",
    "Deliverystatus": "Delivery",
    "divisionname": "Pratapgarh",
    "regionname": "Allahabad",
    "circlename": "Uttar Pradesh",
    "Taluk": "Pratapgarh",
    "Districtname": "Pratapgarh",
    "statename": "UTTAR PRADESH"
  },
  {
    "pincode": "230402",
    "officename": "Katra Gulab Singh B.O",
    "officeType": "B.O",
    "Deliverystatus": "Delivery",
    "divisionname": "Pratapgarh",
    "regionname": "Allahabad",
    "circlename": "Uttar Pradesh",
    "Taluk": "Pratapgarh",
    "Districtname": "Pratapgarh",
    "statename": "UTTAR PRADESH"
  },
  {
    "pincode": "230402",
    "officename": "Majhigawan B.O",
    "officeType": "B.O",
    "Deliverystatus": "Delivery",
    "divisionname": "Pratapgarh",
    "regionname": "Allahabad",
    "circlename": "Uttar Pradesh",
    "Taluk": "Pratapgarh",
    "Districtname": "Pratapgarh",
    "statename": "UTTAR PRADESH"
  },
  {
    "pincode": "230402",
    "officename": "Mandhata S.O",
    "officeType": "S.O",
    "Deliverystatus": "Delivery",
    "divisionname": "Pratapgarh",
    "regionname": "Allahabad",
    "circlename": "Uttar Pradesh",
    "Taluk": "Sadar",
    "Districtname": "Pratapgarh",
    "statename": "UTTAR PRADESH"
  },
  {
    "pincode": "230402",
    "officename": "Sarai Bhimsen B.O",
    "officeType": "B.O",
    "Deliverystatus": "Delivery",
    "divisionname": "Pratapgarh",
    "regionname": "Allahabad",
    "circlename": "Uttar Pradesh",
    "Taluk": "Sadar",
    "Districtname": "Pratapgarh",
    "statename": "UTTAR PRADESH"
  },
  {
    "pincode": "230402",
    "officename": "Sarai Murar Singh B.O",
    "officeType": "B.O",
    "Deliverystatus": "Delivery",
    "divisionname": "Pratapgarh",
    "regionname": "Allahabad",
    "circlename": "Uttar Pradesh",
    "Taluk": "Pratapgarh",
    "Districtname": "Pratapgarh",
    "statename": "UTTAR PRADESH"
  },
  {
    "pincode": "230402",
    "officename": "Sarai Nahar Rai B.O",
    "officeType": "B.O",
    "Deliverystatus": "Delivery",
    "divisionname": "Pratapgarh",
    "regionname": "Allahabad",
    "circlename": "Uttar Pradesh",
    "Taluk": "Sadar",
    "Districtname": "Pratapgarh",
    "statename": "UTTAR PRADESH"
  },
  {
    "pincode": "230402",
    "officename": "Uri Ka Dih B.O",
    "officeType": "B.O",
    "Deliverystatus": "Delivery",
    "divisionname": "Pratapgarh",
    "regionname": "Allahabad",
    "circlename": "Uttar Pradesh",
    "Taluk": "Sadar",
    "Districtname": "Pratapgarh",
    "statename": "UTTAR PRADESH"
  }
]
