[
  {
    "pincode": "231001",
    "officename": "Ganesh Ganj S.O (Mirzapur)",
    "officeType": "S.O",
    "Deliverystatus": "Non-Delivery",
    "divisionname": "Mirzapur",
    "regionname": "Allahabad",
    "circlename": "Uttar Pradesh",
    "Taluk": "Mirzapursadar",
    "Districtname": "Mirzapur",
    "statename": "UTTAR PRADESH"
  },
  {
    "pincode": "231001",
    "officename": "Industrial Estate S.O (Mirzapur)",
    "officeType": "S.O",
    "Deliverystatus": "Non-Delivery",
    "divisionname": "Mirzapur",
    "regionname": "Allahabad",
    "circlename": "Uttar Pradesh",
    "Taluk": "Mirzapur Sadar",
    "Districtname": "Mirzapur",
    "statename": "UTTAR PRADESH"
  },
  {
    "pincode": "231001",
    "officename": "Laldiggi S.O",
    "officeType": "S.O",
    "Deliverystatus": "Non-Delivery",
    "divisionname": "Mirzapur",
    "regionname": "Allahabad",
    "circlename": "Uttar Pradesh",
    "Taluk": "Mirzapur Sadar",
    "Districtname": "Mirzapur",
    "statename": "UTTAR PRADESH"
  },
  {
    "pincode": "231001",
    "officename": "Mirzapur Chowk S.O",
    "officeType": "S.O",
    "Deliverystatus": "Non-Delivery",
    "divisionname": "Mirzapur",
    "regionname": "Allahabad",
    "circlename": "Uttar Pradesh",
    "Taluk": "Mirzapur Sadar",
    "Districtname": "Mirzapur",
    "statename": "UTTAR PRADESH"
  },
  {
    "pincode": "231001",
    "officename": "Mirzapur City S.O",
    "officeType": "S.O",
    "Deliverystatus": "Non-Delivery",
    "divisionname": "Mirzapur",
    "regionname": "Allahabad",
    "circlename": "Uttar Pradesh",
    "Taluk": "Mirzapur Sadar",
    "Districtname": "Mirzapur",
    "statename": "UTTAR PRADESH"
  },
  {
    "pincode": "231001",
    "officename": "Mirzapur H.O",
    "officeType": "H.O",
    "Deliverystatus": "Delivery",
    "divisionname": "Mirzapur",
    "regionname": "Allahabad",
    "circlename": "Uttar Pradesh",
    "Taluk": "Sadar",
    "Districtname": "Mirzapur",
    "statename": "UTTAR PRADESH"
  },
  {
    "pincode": "231001",
    "officename": "Mirzapur Kutchery S.O",
    "officeType": "S.O",
    "Deliverystatus": "Non-Delivery",
    "divisionname": "Mirzapur",
    "regionname": "Allahabad",
    "circlename": "Uttar Pradesh",
    "Taluk": "Mirzapur Sadar",
    "Districtname": "Mirzapur",
    "statename": "UTTAR PRADESH"
  },
  {
    "pincode": "231001",
    "officename": "Wellesly Ganj S.O",
    "officeType": "S.O",
    "Deliverystatus": "Non-Delivery",
    "divisionname": "Mirzapur",
    "regionname": "Allahabad",
    "circlename": "Uttar Pradesh",
    "Taluk": "Mirzapur Sadar",
    "Districtname": "Mirzapur",
    "statename": "UTTAR PRADESH"
  }
]
