[
  {
    "pincode": "231208",
    "officename": "Arangpani B.O",
    "officeType": "B.O",
    "Deliverystatus": "Delivery",
    "divisionname": "Mirzapur",
    "regionname": "Allahabad",
    "circlename": "Uttar Pradesh",
    "Taluk": "Sonbhadra",
    "Districtname": "Sonbhadra",
    "statename": "UTTAR PRADESH"
  },
  {
    "pincode": "231208",
    "officename": "Babhani B.O",
    "officeType": "B.O",
    "Deliverystatus": "Delivery",
    "divisionname": "Mirzapur",
    "regionname": "Allahabad",
    "circlename": "Uttar Pradesh",
    "Taluk": "Sonbhadra",
    "Districtname": "Sonbhadra",
    "statename": "UTTAR PRADESH"
  },
  {
    "pincode": "231208",
    "officename": "Bairpur B.O",
    "officeType": "B.O",
    "Deliverystatus": "Delivery",
    "divisionname": "Mirzapur",
    "regionname": "Allahabad",
    "circlename": "Uttar Pradesh",
    "Taluk": "Sonbhadra",
    "Districtname": "Sonbhadra",
    "statename": "UTTAR PRADESH"
  },
  {
    "pincode": "231208",
    "officename": "Dudhi S.O",
    "officeType": "S.O",
    "Deliverystatus": "Delivery",
    "divisionname": "Mirzapur",
    "regionname": "Allahabad",
    "circlename": "Uttar Pradesh",
    "Taluk": "Sonbhadra",
    "Districtname": "Sonbhadra",
    "statename": "UTTAR PRADESH"
  },
  {
    "pincode": "231208",
    "officename": "Ekdari B.O",
    "officeType": "B.O",
    "Deliverystatus": "Delivery",
    "divisionname": "Mirzapur",
    "regionname": "Allahabad",
    "circlename": "Uttar Pradesh",
    "Taluk": "Sonbhadra",
    "Districtname": "Sonbhadra",
    "statename": "UTTAR PRADESH"
  },
  {
    "pincode": "231208",
    "officename": "Gadia B.O",
    "officeType": "B.O",
    "Deliverystatus": "Delivery",
    "divisionname": "Mirzapur",
    "regionname": "Allahabad",
    "circlename": "Uttar Pradesh",
    "Taluk": "Sonbhadra",
    "Districtname": "Sonbhadra",
    "statename": "UTTAR PRADESH"
  },
  {
    "pincode": "231208",
    "officename": "Hathwani B.O",
    "officeType": "B.O",
    "Deliverystatus": "Delivery",
    "divisionname": "Mirzapur",
    "regionname": "Allahabad",
    "circlename": "Uttar Pradesh",
    "Taluk": "Sonbhadra",
    "Districtname": "Sonbhadra",
    "statename": "UTTAR PRADESH"
  },
  {
    "pincode": "231208",
    "officename": "Jharo Khurd B.O",
    "officeType": "B.O",
    "Deliverystatus": "Delivery",
    "divisionname": "Mirzapur",
    "regionname": "Allahabad",
    "circlename": "Uttar Pradesh",
    "Taluk": "Sonbhadra",
    "Districtname": "Sonbhadra",
    "statename": "UTTAR PRADESH"
  },
  {
    "pincode": "231208",
    "officename": "Karahia B.O",
    "officeType": "B.O",
    "Deliverystatus": "Delivery",
    "divisionname": "Mirzapur",
    "regionname": "Allahabad",
    "circlename": "Uttar Pradesh",
    "Taluk": "Sobhadra",
    "Districtname": "Sonbhadra",
    "statename": "UTTAR PRADESH"
  },
  {
    "pincode": "231208",
    "officename": "Khokha Karahia B.O",
    "officeType": "B.O",
    "Deliverystatus": "Delivery",
    "divisionname": "Mirzapur",
    "regionname": "Allahabad",
    "circlename": "Uttar Pradesh",
    "Taluk": "Sonbhadra",
    "Districtname": "Sonbhadra",
    "statename": "UTTAR PRADESH"
  },
  {
    "pincode": "231208",
    "officename": "Kirbil B.O",
    "officeType": "B.O",
    "Deliverystatus": "Delivery",
    "divisionname": "Mirzapur",
    "regionname": "Allahabad",
    "circlename": "Uttar Pradesh",
    "Taluk": "Sonbhadra",
    "Districtname": "Sonbhadra",
    "statename": "UTTAR PRADESH"
  },
  {
    "pincode": "231208",
    "officename": "Mahuli B.O",
    "officeType": "B.O",
    "Deliverystatus": "Delivery",
    "divisionname": "Mirzapur",
    "regionname": "Allahabad",
    "circlename": "Uttar Pradesh",
    "Taluk": "Sonbadra",
    "Districtname": "Sonbhadra",
    "statename": "UTTAR PRADESH"
  },
  {
    "pincode": "231208",
    "officename": "Myorpur B.O",
    "officeType": "B.O",
    "Deliverystatus": "Delivery",
    "divisionname": "Mirzapur",
    "regionname": "Allahabad",
    "circlename": "Uttar Pradesh",
    "Taluk": "Sonbhadra",
    "Districtname": "Sonbhadra",
    "statename": "UTTAR PRADESH"
  },
  {
    "pincode": "231208",
    "officename": "Pakari B.O",
    "officeType": "B.O",
    "Deliverystatus": "Delivery",
    "divisionname": "Mirzapur",
    "regionname": "Allahabad",
    "circlename": "Uttar Pradesh",
    "Taluk": "Sonbhadra",
    "Districtname": "Sonbhadra",
    "statename": "UTTAR PRADESH"
  },
  {
    "pincode": "231208",
    "officename": "Rajkhad B.O",
    "officeType": "B.O",
    "Deliverystatus": "Delivery",
    "divisionname": "Mirzapur",
    "regionname": "Allahabad",
    "circlename": "Uttar Pradesh",
    "Taluk": "Sonbhadra",
    "Districtname": "Sonbhadra",
    "statename": "UTTAR PRADESH"
  },
  {
    "pincode": "231208",
    "officename": "Satbahani B.O",
    "officeType": "B.O",
    "Deliverystatus": "Delivery",
    "divisionname": "Mirzapur",
    "regionname": "Allahabad",
    "circlename": "Uttar Pradesh",
    "Taluk": "Sonbhadra",
    "Districtname": "Sonbhadra",
    "statename": "UTTAR PRADESH"
  }
]
