[
  {
    "pincode": "231223",
    "officename": "Asanahar B.O",
    "officeType": "B.O",
    "Deliverystatus": "Delivery",
    "divisionname": "Mirzapur",
    "regionname": "Allahabad",
    "circlename": "Uttar Pradesh",
    "Taluk": "Sonbhadra",
    "Districtname": "Sonbhadra",
    "statename": "UTTAR PRADESH"
  },
  {
    "pincode": "231223",
    "officename": "Bachara B.O",
    "officeType": "B.O",
    "Deliverystatus": "Delivery",
    "divisionname": "Mirzapur",
    "regionname": "Allahabad",
    "circlename": "Uttar Pradesh",
    "Taluk": "Sonbhadr",
    "Districtname": "Sonbhadra",
    "statename": "UTTAR PRADESH"
  },
  {
    "pincode": "231223",
    "officename": "Beej Pur S.O",
    "officeType": "S.O",
    "Deliverystatus": "Delivery",
    "divisionname": "Mirzapur",
    "regionname": "Allahabad",
    "circlename": "Uttar Pradesh",
    "Taluk": "Sonbhadra",
    "Districtname": "Sonbhadra",
    "statename": "UTTAR PRADESH"
  },
  {
    "pincode": "231223",
    "officename": "Chapki B.O",
    "officeType": "B.O",
    "Deliverystatus": "Delivery",
    "divisionname": "Mirzapur",
    "regionname": "Allahabad",
    "circlename": "Uttar Pradesh",
    "Taluk": "Sonbhadra",
    "Districtname": "Sonbhadra",
    "statename": "UTTAR PRADESH"
  },
  {
    "pincode": "231223",
    "officename": "Dharti Dand B.O",
    "officeType": "B.O",
    "Deliverystatus": "Delivery",
    "divisionname": "Mirzapur",
    "regionname": "Allahabad",
    "circlename": "Uttar Pradesh",
    "Taluk": "Sonbhadra",
    "Districtname": "Sonbhadra",
    "statename": "UTTAR PRADESH"
  },
  {
    "pincode": "231223",
    "officename": "Ghaghari B.O",
    "officeType": "B.O",
    "Deliverystatus": "Delivery",
    "divisionname": "Mirzapur",
    "regionname": "Allahabad",
    "circlename": "Uttar Pradesh",
    "Taluk": "Sonbhadra",
    "Districtname": "Sonbhadra",
    "statename": "UTTAR PRADESH"
  },
  {
    "pincode": "231223",
    "officename": "Jarhan B.O",
    "officeType": "B.O",
    "Deliverystatus": "Delivery",
    "divisionname": "Mirzapur",
    "regionname": "Allahabad",
    "circlename": "Uttar Pradesh",
    "Taluk": "Sonbhadra",
    "Districtname": "Sonbhadra",
    "statename": "UTTAR PRADESH"
  },
  {
    "pincode": "231223",
    "officename": "Nadhira B.O",
    "officeType": "B.O",
    "Deliverystatus": "Delivery",
    "divisionname": "Mirzapur",
    "regionname": "Allahabad",
    "circlename": "Uttar Pradesh",
    "Taluk": "Sonbhadra",
    "Districtname": "Sonbhadra",
    "statename": "UTTAR PRADESH"
  },
  {
    "pincode": "231223",
    "officename": "Pindari B.O",
    "officeType": "B.O",
    "Deliverystatus": "Delivery",
    "divisionname": "Mirzapur",
    "regionname": "Allahabad",
    "circlename": "Uttar Pradesh",
    "Taluk": "Sonbhadra",
    "Districtname": "Sonbhadra",
    "statename": "UTTAR PRADESH"
  },
  {
    "pincode": "231223",
    "officename": "Sindoor B.O",
    "officeType": "B.O",
    "Deliverystatus": "Delivery",
    "divisionname": "Mirzapur",
    "regionname": "Allahabad",
    "circlename": "Uttar Pradesh",
    "Taluk": "Sonbhadra",
    "Districtname": "Sonbhadra",
    "statename": "UTTAR PRADESH"
  }
]
