[
  {
    "pincode": "231210",
    "officename": "Amilaudha B.O",
    "officeType": "B.O",
    "Deliverystatus": "Delivery",
    "divisionname": "Mirzapur",
    "regionname": "Allahabad",
    "circlename": "Uttar Pradesh",
    "Taluk": "Mirzapur",
    "Districtname": "Sonbhadra",
    "statename": "UTTAR PRADESH"
  },
  {
    "pincode": "231210",
    "officename": "Baghaura B.O",
    "officeType": "B.O",
    "Deliverystatus": "Delivery",
    "divisionname": "Mirzapur",
    "regionname": "Allahabad",
    "circlename": "Uttar Pradesh",
    "Taluk": "Mirzapur",
    "Districtname": "Mirzapur",
    "statename": "UTTAR PRADESH"
  },
  {
    "pincode": "231210",
    "officename": "Baidand B.O",
    "officeType": "B.O",
    "Deliverystatus": "Delivery",
    "divisionname": "Mirzapur",
    "regionname": "Allahabad",
    "circlename": "Uttar Pradesh",
    "Taluk": "Mirzapur Sadar",
    "Districtname": "Mirzapur",
    "statename": "UTTAR PRADESH"
  },
  {
    "pincode": "231210",
    "officename": "Devpura B.O",
    "officeType": "B.O",
    "Deliverystatus": "Delivery",
    "divisionname": "Mirzapur",
    "regionname": "Allahabad",
    "circlename": "Uttar Pradesh",
    "Taluk": "Mirzapur Sadar",
    "Districtname": "Mirzapur",
    "statename": "UTTAR PRADESH"
  },
  {
    "pincode": "231210",
    "officename": "Ghorawal S.O",
    "officeType": "S.O",
    "Deliverystatus": "Delivery",
    "divisionname": "Mirzapur",
    "regionname": "Allahabad",
    "circlename": "Uttar Pradesh",
    "Taluk": "Sadar",
    "Districtname": "Sonbhadra",
    "statename": "UTTAR PRADESH"
  },
  {
    "pincode": "231210",
    "officename": "Hinauta B.O",
    "officeType": "B.O",
    "Deliverystatus": "Delivery",
    "divisionname": "Mirzapur",
    "regionname": "Allahabad",
    "circlename": "Uttar Pradesh",
    "Taluk": "Mirzapur",
    "Districtname": "Mirzapur",
    "statename": "UTTAR PRADESH"
  },
  {
    "pincode": "231210",
    "officename": "Jamui B.O",
    "officeType": "B.O",
    "Deliverystatus": "Delivery",
    "divisionname": "Mirzapur",
    "regionname": "Allahabad",
    "circlename": "Uttar Pradesh",
    "Taluk": "Mirzapur Sadar",
    "Districtname": "Mirzapur",
    "statename": "UTTAR PRADESH"
  },
  {
    "pincode": "231210",
    "officename": "Kalwari Mafi B.O",
    "officeType": "B.O",
    "Deliverystatus": "Delivery",
    "divisionname": "Mirzapur",
    "regionname": "Allahabad",
    "circlename": "Uttar Pradesh",
    "Taluk": "Mirzapur",
    "Districtname": "Sonbhadra",
    "statename": "UTTAR PRADESH"
  },
  {
    "pincode": "231210",
    "officename": "Kanethi B.O",
    "officeType": "B.O",
    "Deliverystatus": "Delivery",
    "divisionname": "Mirzapur",
    "regionname": "Allahabad",
    "circlename": "Uttar Pradesh",
    "Taluk": "Mirzapur",
    "Districtname": "Sonbhadra",
    "statename": "UTTAR PRADESH"
  },
  {
    "pincode": "231210",
    "officename": "Lalpur Naudiha B.O",
    "officeType": "B.O",
    "Deliverystatus": "Delivery",
    "divisionname": "Mirzapur",
    "regionname": "Allahabad",
    "circlename": "Uttar Pradesh",
    "Taluk": "Mirzapur Sadar",
    "Districtname": "Mirzapur",
    "statename": "UTTAR PRADESH"
  },
  {
    "pincode": "231210",
    "officename": "Lohadi B.O",
    "officeType": "B.O",
    "Deliverystatus": "Delivery",
    "divisionname": "Mirzapur",
    "regionname": "Allahabad",
    "circlename": "Uttar Pradesh",
    "Taluk": "Mirzapur",
    "Districtname": "Sonbhadra",
    "statename": "UTTAR PRADESH"
  },
  {
    "pincode": "231210",
    "officename": "Marihan B.O",
    "officeType": "B.O",
    "Deliverystatus": "Delivery",
    "divisionname": "Mirzapur",
    "regionname": "Allahabad",
    "circlename": "Uttar Pradesh",
    "Taluk": "Marihan",
    "Districtname": "Mirzapur",
    "statename": "UTTAR PRADESH"
  },
  {
    "pincode": "231210",
    "officename": "Padwania B.O",
    "officeType": "B.O",
    "Deliverystatus": "Delivery",
    "divisionname": "Mirzapur",
    "regionname": "Allahabad",
    "circlename": "Uttar Pradesh",
    "Taluk": "Mirzapur",
    "Districtname": "Sonbhadra",
    "statename": "UTTAR PRADESH"
  },
  {
    "pincode": "231210",
    "officename": "Parsona B.O",
    "officeType": "B.O",
    "Deliverystatus": "Delivery",
    "divisionname": "Mirzapur",
    "regionname": "Allahabad",
    "circlename": "Uttar Pradesh",
    "Taluk": "Mrizapur",
    "Districtname": "Sonbhadra",
    "statename": "UTTAR PRADESH"
  },
  {
    "pincode": "231210",
    "officename": "Patehara Khurd B.O",
    "officeType": "B.O",
    "Deliverystatus": "Delivery",
    "divisionname": "Mirzapur",
    "regionname": "Allahabad",
    "circlename": "Uttar Pradesh",
    "Taluk": "Mirzapur Sadar",
    "Districtname": "Mirzapur",
    "statename": "UTTAR PRADESH"
  },
  {
    "pincode": "231210",
    "officename": "Rajgarh B.O",
    "officeType": "B.O",
    "Deliverystatus": "Delivery",
    "divisionname": "Mirzapur",
    "regionname": "Allahabad",
    "circlename": "Uttar Pradesh",
    "Taluk": "Mirzapur Sadar",
    "Districtname": "Mirzapur",
    "statename": "UTTAR PRADESH"
  },
  {
    "pincode": "231210",
    "officename": "Rampur 38 B.O",
    "officeType": "B.O",
    "Deliverystatus": "Delivery",
    "divisionname": "Mirzapur",
    "regionname": "Allahabad",
    "circlename": "Uttar Pradesh",
    "Taluk": "Mirzapur Sadar",
    "Districtname": "Mirzapur",
    "statename": "UTTAR PRADESH"
  },
  {
    "pincode": "231210",
    "officename": "Rizul B.O",
    "officeType": "B.O",
    "Deliverystatus": "Delivery",
    "divisionname": "Mirzapur",
    "regionname": "Allahabad",
    "circlename": "Uttar Pradesh",
    "Taluk": "Sonbhadra",
    "Districtname": "Sonbhadra",
    "statename": "UTTAR PRADESH"
  },
  {
    "pincode": "231210",
    "officename": "Sabha Lilwahi B.O",
    "officeType": "B.O",
    "Deliverystatus": "Delivery",
    "divisionname": "Mirzapur",
    "regionname": "Allahabad",
    "circlename": "Uttar Pradesh",
    "Taluk": "Mirzapur",
    "Districtname": "Sonbhadra",
    "statename": "UTTAR PRADESH"
  },
  {
    "pincode": "231210",
    "officename": "Semara Baraho B.O",
    "officeType": "B.O",
    "Deliverystatus": "Delivery",
    "divisionname": "Mirzapur",
    "regionname": "Allahabad",
    "circlename": "Uttar Pradesh",
    "Taluk": "Mirzapur Sadar",
    "Districtname": "Mirzapur",
    "statename": "UTTAR PRADESH"
  },
  {
    "pincode": "231210",
    "officename": "Shivdwar B.O",
    "officeType": "B.O",
    "Deliverystatus": "Delivery",
    "divisionname": "Mirzapur",
    "regionname": "Allahabad",
    "circlename": "Uttar Pradesh",
    "Taluk": "Mirzapur",
    "Districtname": "Sonbhadra",
    "statename": "UTTAR PRADESH"
  },
  {
    "pincode": "231210",
    "officename": "Tilaulikala B.O",
    "officeType": "B.O",
    "Deliverystatus": "Delivery",
    "divisionname": "Mirzapur",
    "regionname": "Allahabad",
    "circlename": "Uttar Pradesh",
    "Taluk": "",
    "Districtname": "Mirzapur",
    "statename": "UTTAR PRADESH"
  }
]
