[
  {
    "pincode": "231226",
    "officename": "Bagesoti B.O",
    "officeType": "B.O",
    "Deliverystatus": "Delivery",
    "divisionname": "Mirzapur",
    "regionname": "Allahabad",
    "circlename": "Uttar Pradesh",
    "Taluk": "Dudhi",
    "Districtname": "Sonbhadra",
    "statename": "UTTAR PRADESH"
  },
  {
    "pincode": "231226",
    "officename": "Chachikalan B.O",
    "officeType": "B.O",
    "Deliverystatus": "Delivery",
    "divisionname": "Mirzapur",
    "regionname": "Allahabad",
    "circlename": "Uttar Pradesh",
    "Taluk": "Dudhi",
    "Districtname": "Sonbhadra",
    "statename": "UTTAR PRADESH"
  },
  {
    "pincode": "231226",
    "officename": "Dhuma B.O",
    "officeType": "B.O",
    "Deliverystatus": "Delivery",
    "divisionname": "Mirzapur",
    "regionname": "Allahabad",
    "circlename": "Uttar Pradesh",
    "Taluk": "Dudhi",
    "Districtname": "Sonbhadra",
    "statename": "UTTAR PRADESH"
  },
  {
    "pincode": "231226",
    "officename": "Ghiwahi B.O",
    "officeType": "B.O",
    "Deliverystatus": "Delivery",
    "divisionname": "Mirzapur",
    "regionname": "Allahabad",
    "circlename": "Uttar Pradesh",
    "Taluk": "Dudhi",
    "Districtname": "Sonbhadra",
    "statename": "UTTAR PRADESH"
  },
  {
    "pincode": "231226",
    "officename": "Ghorpa B.O",
    "officeType": "B.O",
    "Deliverystatus": "Delivery",
    "divisionname": "Mirzapur",
    "regionname": "Allahabad",
    "circlename": "Uttar Pradesh",
    "Taluk": "Dudhi",
    "Districtname": "Sonbhadra",
    "statename": "UTTAR PRADESH"
  },
  {
    "pincode": "231226",
    "officename": "Kachnarwa B.O",
    "officeType": "B.O",
    "Deliverystatus": "Delivery",
    "divisionname": "Mirzapur",
    "regionname": "Allahabad",
    "circlename": "Uttar Pradesh",
    "Taluk": "Sonbhadra",
    "Districtname": "Sonbhadra",
    "statename": "UTTAR PRADESH"
  },
  {
    "pincode": "231226",
    "officename": "Kewal B.O",
    "officeType": "B.O",
    "Deliverystatus": "Delivery",
    "divisionname": "Mirzapur",
    "regionname": "Allahabad",
    "circlename": "Uttar Pradesh",
    "Taluk": "Sonbadra",
    "Districtname": "Sonbhadra",
    "statename": "UTTAR PRADESH"
  },
  {
    "pincode": "231226",
    "officename": "Kone B.O",
    "officeType": "B.O",
    "Deliverystatus": "Delivery",
    "divisionname": "Mirzapur",
    "regionname": "Allahabad",
    "circlename": "Uttar Pradesh",
    "Taluk": "Sonbhadra",
    "Districtname": "Sonbhadra",
    "statename": "UTTAR PRADESH"
  },
  {
    "pincode": "231226",
    "officename": "Kudwan B.O",
    "officeType": "B.O",
    "Deliverystatus": "Delivery",
    "divisionname": "Mirzapur",
    "regionname": "Allahabad",
    "circlename": "Uttar Pradesh",
    "Taluk": "Sonbhadra",
    "Districtname": "Sonbhadra",
    "statename": "UTTAR PRADESH"
  },
  {
    "pincode": "231226",
    "officename": "Naudiha  Ramgarh B.O",
    "officeType": "B.O",
    "Deliverystatus": "Delivery",
    "divisionname": "Mirzapur",
    "regionname": "Allahabad",
    "circlename": "Uttar Pradesh",
    "Taluk": "Dudhi",
    "Districtname": "Sonbhadra",
    "statename": "UTTAR PRADESH"
  },
  {
    "pincode": "231226",
    "officename": "Naudiha Mishri B.O",
    "officeType": "B.O",
    "Deliverystatus": "Delivery",
    "divisionname": "Mirzapur",
    "regionname": "Allahabad",
    "circlename": "Uttar Pradesh",
    "Taluk": "Dudhi",
    "Districtname": "Sonbhadra",
    "statename": "UTTAR PRADESH"
  },
  {
    "pincode": "231226",
    "officename": "Sherwan B.O",
    "officeType": "B.O",
    "Deliverystatus": "Delivery",
    "divisionname": "Mirzapur",
    "regionname": "Allahabad",
    "circlename": "Uttar Pradesh",
    "Taluk": "Dudhi",
    "Districtname": "Sonbhadra",
    "statename": "UTTAR PRADESH"
  },
  {
    "pincode": "231226",
    "officename": "Wyndhamganj S.O",
    "officeType": "S.O",
    "Deliverystatus": "Delivery",
    "divisionname": "Mirzapur",
    "regionname": "Allahabad",
    "circlename": "Uttar Pradesh",
    "Taluk": "Sonbhadra",
    "Districtname": "Sonbhadra",
    "statename": "UTTAR PRADESH"
  }
]
