[
  {
    "pincode": "231216",
    "officename": "Akchhor B.O",
    "officeType": "B.O",
    "Deliverystatus": "Delivery",
    "divisionname": "Mirzapur",
    "regionname": "Allahabad",
    "circlename": "Uttar Pradesh",
    "Taluk": "Sonbhadra",
    "Districtname": "Sonbhadra",
    "statename": "UTTAR PRADESH"
  },
  {
    "pincode": "231216",
    "officename": "Bahuar B.O",
    "officeType": "B.O",
    "Deliverystatus": "Delivery",
    "divisionname": "Mirzapur",
    "regionname": "Allahabad",
    "circlename": "Uttar Pradesh",
    "Taluk": "Sonbhadra",
    "Districtname": "Sonbhadra",
    "statename": "UTTAR PRADESH"
  },
  {
    "pincode": "231216",
    "officename": "Bahuara B.O",
    "officeType": "B.O",
    "Deliverystatus": "Delivery",
    "divisionname": "Mirzapur",
    "regionname": "Allahabad",
    "circlename": "Uttar Pradesh",
    "Taluk": "Sonbhadra",
    "Districtname": "Sonbhadra",
    "statename": "UTTAR PRADESH"
  },
  {
    "pincode": "231216",
    "officename": "Bichchhi B.O",
    "officeType": "B.O",
    "Deliverystatus": "Delivery",
    "divisionname": "Mirzapur",
    "regionname": "Allahabad",
    "circlename": "Uttar Pradesh",
    "Taluk": "Robertsganj",
    "Districtname": "Sonbhadra",
    "statename": "UTTAR PRADESH"
  },
  {
    "pincode": "231216",
    "officename": "Dharnipur B.O",
    "officeType": "B.O",
    "Deliverystatus": "Delivery",
    "divisionname": "Mirzapur",
    "regionname": "Allahabad",
    "circlename": "Uttar Pradesh",
    "Taluk": "Sonbhadra",
    "Districtname": "Sonbhadra",
    "statename": "UTTAR PRADESH"
  },
  {
    "pincode": "231216",
    "officename": "Hinauta B.O",
    "officeType": "B.O",
    "Deliverystatus": "Delivery",
    "divisionname": "Mirzapur",
    "regionname": "Allahabad",
    "circlename": "Uttar Pradesh",
    "Taluk": "Sonbhadra",
    "Districtname": "Sonbhadra",
    "statename": "UTTAR PRADESH"
  },
  {
    "pincode": "231216",
    "officename": "Kaithi B.O",
    "officeType": "B.O",
    "Deliverystatus": "Delivery",
    "divisionname": "Mirzapur",
    "regionname": "Allahabad",
    "circlename": "Uttar Pradesh",
    "Taluk": "Sonbhadra",
    "Districtname": "Sonbhadra",
    "statename": "UTTAR PRADESH"
  },
  {
    "pincode": "231216",
    "officename": "Kakarahi B.O",
    "officeType": "B.O",
    "Deliverystatus": "Delivery",
    "divisionname": "Mirzapur",
    "regionname": "Allahabad",
    "circlename": "Uttar Pradesh",
    "Taluk": "Robertsganj",
    "Districtname": "Sonbhadra",
    "statename": "UTTAR PRADESH"
  },
  {
    "pincode": "231216",
    "officename": "Karma B.O",
    "officeType": "B.O",
    "Deliverystatus": "Delivery",
    "divisionname": "Mirzapur",
    "regionname": "Allahabad",
    "circlename": "Uttar Pradesh",
    "Taluk": "Robertsganj",
    "Districtname": "Sonbhadra",
    "statename": "UTTAR PRADESH"
  },
  {
    "pincode": "231216",
    "officename": "Kasyakala B.O",
    "officeType": "B.O",
    "Deliverystatus": "Delivery",
    "divisionname": "Mirzapur",
    "regionname": "Allahabad",
    "circlename": "Uttar Pradesh",
    "Taluk": "Sonbadra",
    "Districtname": "Sonbhadra",
    "statename": "UTTAR PRADESH"
  },
  {
    "pincode": "231216",
    "officename": "Khairahi B.O",
    "officeType": "B.O",
    "Deliverystatus": "Delivery",
    "divisionname": "Mirzapur",
    "regionname": "Allahabad",
    "circlename": "Uttar Pradesh",
    "Taluk": "Sonbhadra",
    "Districtname": "Sonbhadra",
    "statename": "UTTAR PRADESH"
  },
  {
    "pincode": "231216",
    "officename": "Khairpur B.O",
    "officeType": "B.O",
    "Deliverystatus": "Delivery",
    "divisionname": "Mirzapur",
    "regionname": "Allahabad",
    "circlename": "Uttar Pradesh",
    "Taluk": "Sonbhadra",
    "Districtname": "Sonbhadra",
    "statename": "UTTAR PRADESH"
  },
  {
    "pincode": "231216",
    "officename": "Madhupura B.O",
    "officeType": "B.O",
    "Deliverystatus": "Delivery",
    "divisionname": "Mirzapur",
    "regionname": "Allahabad",
    "circlename": "Uttar Pradesh",
    "Taluk": "Sonbhadra",
    "Districtname": "Sonbhadra",
    "statename": "UTTAR PRADESH"
  },
  {
    "pincode": "231216",
    "officename": "Mokarsim B.O",
    "officeType": "B.O",
    "Deliverystatus": "Delivery",
    "divisionname": "Mirzapur",
    "regionname": "Allahabad",
    "circlename": "Uttar Pradesh",
    "Taluk": "",
    "Districtname": "Sonbhadra",
    "statename": "UTTAR PRADESH"
  },
  {
    "pincode": "231216",
    "officename": "Nai Bazar B.O",
    "officeType": "B.O",
    "Deliverystatus": "Delivery",
    "divisionname": "Mirzapur",
    "regionname": "Allahabad",
    "circlename": "Uttar Pradesh",
    "Taluk": "Sonbhadra",
    "Districtname": "Sonbhadra",
    "statename": "UTTAR PRADESH"
  },
  {
    "pincode": "231216",
    "officename": "Narokhar B.O",
    "officeType": "B.O",
    "Deliverystatus": "Delivery",
    "divisionname": "Mirzapur",
    "regionname": "Allahabad",
    "circlename": "Uttar Pradesh",
    "Taluk": "Sonbhadra",
    "Districtname": "Sonbhadra",
    "statename": "UTTAR PRADESH"
  },
  {
    "pincode": "231216",
    "officename": "Oeni Mishra B.O",
    "officeType": "B.O",
    "Deliverystatus": "Delivery",
    "divisionname": "Mirzapur",
    "regionname": "Allahabad",
    "circlename": "Uttar Pradesh",
    "Taluk": "Sonbhadra",
    "Districtname": "Sonbhadra",
    "statename": "UTTAR PRADESH"
  },
  {
    "pincode": "231216",
    "officename": "Parasi Dubey B.O",
    "officeType": "B.O",
    "Deliverystatus": "Delivery",
    "divisionname": "Mirzapur",
    "regionname": "Allahabad",
    "circlename": "Uttar Pradesh",
    "Taluk": "Sonbhadra",
    "Districtname": "Sonbhadra",
    "statename": "UTTAR PRADESH"
  },
  {
    "pincode": "231216",
    "officename": "Robertsganj Hydle Colony S.O",
    "officeType": "S.O",
    "Deliverystatus": "Non-Delivery",
    "divisionname": "Mirzapur",
    "regionname": "Allahabad",
    "circlename": "Uttar Pradesh",
    "Taluk": "Robertsganj",
    "Districtname": "Sonbhadra",
    "statename": "UTTAR PRADESH"
  },
  {
    "pincode": "231216",
    "officename": "Robertsganj S.O",
    "officeType": "S.O",
    "Deliverystatus": "Delivery",
    "divisionname": "Mirzapur",
    "regionname": "Allahabad",
    "circlename": "Uttar Pradesh",
    "Taluk": "Sonbhadra",
    "Districtname": "Sonbhadra",
    "statename": "UTTAR PRADESH"
  },
  {
    "pincode": "231216",
    "officename": "Sahijankala B.O",
    "officeType": "B.O",
    "Deliverystatus": "Delivery",
    "divisionname": "Mirzapur",
    "regionname": "Allahabad",
    "circlename": "Uttar Pradesh",
    "Taluk": "Sonbhadra",
    "Districtname": "Sonbhadra",
    "statename": "UTTAR PRADESH"
  },
  {
    "pincode": "231216",
    "officename": "Siddhi Kala B.O",
    "officeType": "B.O",
    "Deliverystatus": "Delivery",
    "divisionname": "Mirzapur",
    "regionname": "Allahabad",
    "circlename": "Uttar Pradesh",
    "Taluk": "Sonbhadra",
    "Districtname": "Sonbhadra",
    "statename": "UTTAR PRADESH"
  },
  {
    "pincode": "231216",
    "officename": "Sukrut B.O",
    "officeType": "B.O",
    "Deliverystatus": "Delivery",
    "divisionname": "Mirzapur",
    "regionname": "Allahabad",
    "circlename": "Uttar Pradesh",
    "Taluk": "Sonbhadra",
    "Districtname": "Sonbhadra",
    "statename": "UTTAR PRADESH"
  },
  {
    "pincode": "231216",
    "officename": "Tarawan B.O",
    "officeType": "B.O",
    "Deliverystatus": "Delivery",
    "divisionname": "Mirzapur",
    "regionname": "Allahabad",
    "circlename": "Uttar Pradesh",
    "Taluk": "Sonbhadra",
    "Districtname": "Sonbhadra",
    "statename": "UTTAR PRADESH"
  },
  {
    "pincode": "231216",
    "officename": "Tendu B.O",
    "officeType": "B.O",
    "Deliverystatus": "Delivery",
    "divisionname": "Mirzapur",
    "regionname": "Allahabad",
    "circlename": "Uttar Pradesh",
    "Taluk": "Sonbhadra",
    "Districtname": "Sonbhadra",
    "statename": "UTTAR PRADESH"
  }
]
