[
  {
    "pincode": "231303",
    "officename": "Bihsada B.O",
    "officeType": "B.O",
    "Deliverystatus": "Delivery",
    "divisionname": "Mirzapur",
    "regionname": "Allahabad",
    "circlename": "Uttar Pradesh",
    "Taluk": "Mirzapur",
    "Districtname": "Mirzapur",
    "statename": "UTTAR PRADESH"
  },
  {
    "pincode": "231303",
    "officename": "Bijaipur S.O (Mirzapur)",
    "officeType": "S.O",
    "Deliverystatus": "Delivery",
    "divisionname": "Mirzapur",
    "regionname": "Allahabad",
    "circlename": "Uttar Pradesh",
    "Taluk": "Mirzapur",
    "Districtname": "Mirzapur",
    "statename": "UTTAR PRADESH"
  },
  {
    "pincode": "231303",
    "officename": "Biraura B.O",
    "officeType": "B.O",
    "Deliverystatus": "Delivery",
    "divisionname": "Mirzapur",
    "regionname": "Allahabad",
    "circlename": "Uttar Pradesh",
    "Taluk": "Mirzapur",
    "Districtname": "Mirzapur",
    "statename": "UTTAR PRADESH"
  },
  {
    "pincode": "231303",
    "officename": "Birohi B.O",
    "officeType": "B.O",
    "Deliverystatus": "Delivery",
    "divisionname": "Mirzapur",
    "regionname": "Allahabad",
    "circlename": "Uttar Pradesh",
    "Taluk": "Mirzapur",
    "Districtname": "Mirzapur",
    "statename": "UTTAR PRADESH"
  },
  {
    "pincode": "231303",
    "officename": "Dadwan Pakseda B.O",
    "officeType": "B.O",
    "Deliverystatus": "Delivery",
    "divisionname": "Mirzapur",
    "regionname": "Allahabad",
    "circlename": "Uttar Pradesh",
    "Taluk": "Mirzapur",
    "Districtname": "Mirzapur",
    "statename": "UTTAR PRADESH"
  },
  {
    "pincode": "231303",
    "officename": "Kalna B.O",
    "officeType": "B.O",
    "Deliverystatus": "Delivery",
    "divisionname": "Mirzapur",
    "regionname": "Allahabad",
    "circlename": "Uttar Pradesh",
    "Taluk": "Mirzapur",
    "Districtname": "Mirzapur",
    "statename": "UTTAR PRADESH"
  },
  {
    "pincode": "231303",
    "officename": "Kushhan B.O",
    "officeType": "B.O",
    "Deliverystatus": "Delivery",
    "divisionname": "Mirzapur",
    "regionname": "Allahabad",
    "circlename": "Uttar Pradesh",
    "Taluk": "Mirzapur",
    "Districtname": "Mirzapur",
    "statename": "UTTAR PRADESH"
  },
  {
    "pincode": "231303",
    "officename": "Nadini B.O",
    "officeType": "B.O",
    "Deliverystatus": "Delivery",
    "divisionname": "Mirzapur",
    "regionname": "Allahabad",
    "circlename": "Uttar Pradesh",
    "Taluk": "Mirzapur",
    "Districtname": "Mirzapur",
    "statename": "UTTAR PRADESH"
  },
  {
    "pincode": "231303",
    "officename": "Nibi Gaharwar B.O",
    "officeType": "B.O",
    "Deliverystatus": "Delivery",
    "divisionname": "Mirzapur",
    "regionname": "Allahabad",
    "circlename": "Uttar Pradesh",
    "Taluk": "Mirzapur",
    "Districtname": "Mirzapur",
    "statename": "UTTAR PRADESH"
  },
  {
    "pincode": "231303",
    "officename": "Supantha B.O",
    "officeType": "B.O",
    "Deliverystatus": "Delivery",
    "divisionname": "Mirzapur",
    "regionname": "Allahabad",
    "circlename": "Uttar Pradesh",
    "Taluk": "Mirzapur",
    "Districtname": "Mirzapur",
    "statename": "UTTAR PRADESH"
  }
]
