[
  {
    "pincode": "231313",
    "officename": "Bajta B.O",
    "officeType": "B.O",
    "Deliverystatus": "Delivery",
    "divisionname": "Mirzapur",
    "regionname": "Allahabad",
    "circlename": "Uttar Pradesh",
    "Taluk": "Mirzapur",
    "Districtname": "Mirzapur",
    "statename": "UTTAR PRADESH"
  },
  {
    "pincode": "231313",
    "officename": "Dugauli B.O",
    "officeType": "B.O",
    "Deliverystatus": "Delivery",
    "divisionname": "Mirzapur",
    "regionname": "Allahabad",
    "circlename": "Uttar Pradesh",
    "Taluk": "Mirzapur",
    "Districtname": "Mirzapur",
    "statename": "UTTAR PRADESH"
  },
  {
    "pincode": "231313",
    "officename": "Gaura B.O",
    "officeType": "B.O",
    "Deliverystatus": "Delivery",
    "divisionname": "Mirzapur",
    "regionname": "Allahabad",
    "circlename": "Uttar Pradesh",
    "Taluk": "Mirzapur",
    "Districtname": "Mirzapur",
    "statename": "UTTAR PRADESH"
  },
  {
    "pincode": "231313",
    "officename": "Gogaon B.O",
    "officeType": "B.O",
    "Deliverystatus": "Delivery",
    "divisionname": "Mirzapur",
    "regionname": "Allahabad",
    "circlename": "Uttar Pradesh",
    "Taluk": "Mirzapur",
    "Districtname": "Mirzapur",
    "statename": "UTTAR PRADESH"
  },
  {
    "pincode": "231313",
    "officename": "Hargarh Bazar B.O",
    "officeType": "B.O",
    "Deliverystatus": "Delivery",
    "divisionname": "Mirzapur",
    "regionname": "Allahabad",
    "circlename": "Uttar Pradesh",
    "Taluk": "Mirzapur",
    "Districtname": "Mirzapur",
    "statename": "UTTAR PRADESH"
  },
  {
    "pincode": "231313",
    "officename": "Jigna RS S.O",
    "officeType": "S.O",
    "Deliverystatus": "Delivery",
    "divisionname": "Mirzapur",
    "regionname": "Allahabad",
    "circlename": "Uttar Pradesh",
    "Taluk": "Mirzapur Sadar",
    "Districtname": "Mirzapur",
    "statename": "UTTAR PRADESH"
  },
  {
    "pincode": "231313",
    "officename": "Khaira B.O",
    "officeType": "B.O",
    "Deliverystatus": "Delivery",
    "divisionname": "Mirzapur",
    "regionname": "Allahabad",
    "circlename": "Uttar Pradesh",
    "Taluk": "Mirzapur",
    "Districtname": "Mirzapur",
    "statename": "UTTAR PRADESH"
  },
  {
    "pincode": "231313",
    "officename": "Sri Niwas Dham B.O",
    "officeType": "B.O",
    "Deliverystatus": "Delivery",
    "divisionname": "Mirzapur",
    "regionname": "Allahabad",
    "circlename": "Uttar Pradesh",
    "Taluk": "Mirzapur",
    "Districtname": "Mirzapur",
    "statename": "UTTAR PRADESH"
  }
]
