[
  {
    "pincode": "231501",
    "officename": "Baraini B.O",
    "officeType": "B.O",
    "Deliverystatus": "Delivery",
    "divisionname": "Mirzapur",
    "regionname": "Allahabad",
    "circlename": "Uttar Pradesh",
    "Taluk": "Sadar",
    "Districtname": "Mirzapur",
    "statename": "UTTAR PRADESH"
  },
  {
    "pincode": "231501",
    "officename": "Bhainsa B.O",
    "officeType": "B.O",
    "Deliverystatus": "Delivery",
    "divisionname": "Mirzapur",
    "regionname": "Allahabad",
    "circlename": "Uttar Pradesh",
    "Taluk": "Sadar",
    "Districtname": "Mirzapur",
    "statename": "UTTAR PRADESH"
  },
  {
    "pincode": "231501",
    "officename": "Bhatauli B.O",
    "officeType": "B.O",
    "Deliverystatus": "Delivery",
    "divisionname": "Mirzapur",
    "regionname": "Allahabad",
    "circlename": "Uttar Pradesh",
    "Taluk": "",
    "Districtname": "Mirzapur",
    "statename": "UTTAR PRADESH"
  },
  {
    "pincode": "231501",
    "officename": "Bidapur B.O",
    "officeType": "B.O",
    "Deliverystatus": "Delivery",
    "divisionname": "Mirzapur",
    "regionname": "Allahabad",
    "circlename": "Uttar Pradesh",
    "Taluk": "Sadar",
    "Districtname": "Mirzapur",
    "statename": "UTTAR PRADESH"
  },
  {
    "pincode": "231501",
    "officename": "Birshahpur B.O",
    "officeType": "B.O",
    "Deliverystatus": "Delivery",
    "divisionname": "Mirzapur",
    "regionname": "Allahabad",
    "circlename": "Uttar Pradesh",
    "Taluk": "Mirzapur Sadar",
    "Districtname": "Mirzapur",
    "statename": "UTTAR PRADESH"
  },
  {
    "pincode": "231501",
    "officename": "Gadauli B.O",
    "officeType": "B.O",
    "Deliverystatus": "Delivery",
    "divisionname": "Mirzapur",
    "regionname": "Allahabad",
    "circlename": "Uttar Pradesh",
    "Taluk": "Sadar",
    "Districtname": "Mirzapur",
    "statename": "UTTAR PRADESH"
  },
  {
    "pincode": "231501",
    "officename": "Gursandi B.O",
    "officeType": "B.O",
    "Deliverystatus": "Delivery",
    "divisionname": "Mirzapur",
    "regionname": "Allahabad",
    "circlename": "Uttar Pradesh",
    "Taluk": "Mirzapur Sadar",
    "Districtname": "Mirzapur",
    "statename": "UTTAR PRADESH"
  },
  {
    "pincode": "231501",
    "officename": "Jalalpur B.O",
    "officeType": "B.O",
    "Deliverystatus": "Delivery",
    "divisionname": "Mirzapur",
    "regionname": "Allahabad",
    "circlename": "Uttar Pradesh",
    "Taluk": "Sadar",
    "Districtname": "Mirzapur",
    "statename": "UTTAR PRADESH"
  },
  {
    "pincode": "231501",
    "officename": "Kachhwa S.O (Mirzapur)",
    "officeType": "S.O",
    "Deliverystatus": "Delivery",
    "divisionname": "Mirzapur",
    "regionname": "Allahabad",
    "circlename": "Uttar Pradesh",
    "Taluk": "Mirzapur Sadar",
    "Districtname": "Mirzapur",
    "statename": "UTTAR PRADESH"
  },
  {
    "pincode": "231501",
    "officename": "Mahamalpur B.O",
    "officeType": "B.O",
    "Deliverystatus": "Delivery",
    "divisionname": "Mirzapur",
    "regionname": "Allahabad",
    "circlename": "Uttar Pradesh",
    "Taluk": "Sadar",
    "Districtname": "Mirzapur",
    "statename": "UTTAR PRADESH"
  },
  {
    "pincode": "231501",
    "officename": "Majhawan B.O",
    "officeType": "B.O",
    "Deliverystatus": "Delivery",
    "divisionname": "Mirzapur",
    "regionname": "Allahabad",
    "circlename": "Uttar Pradesh",
    "Taluk": "Mirzapur",
    "Districtname": "Mirzapur",
    "statename": "UTTAR PRADESH"
  },
  {
    "pincode": "231501",
    "officename": "Meoli B.O",
    "officeType": "B.O",
    "Deliverystatus": "Delivery",
    "divisionname": "Mirzapur",
    "regionname": "Allahabad",
    "circlename": "Uttar Pradesh",
    "Taluk": "Mirzapur",
    "Districtname": "Mirzapur",
    "statename": "UTTAR PRADESH"
  },
  {
    "pincode": "231501",
    "officename": "Neorhia Ghat B.O",
    "officeType": "B.O",
    "Deliverystatus": "Delivery",
    "divisionname": "Mirzapur",
    "regionname": "Allahabad",
    "circlename": "Uttar Pradesh",
    "Taluk": "",
    "Districtname": "Mirzapur",
    "statename": "UTTAR PRADESH"
  },
  {
    "pincode": "231501",
    "officename": "Sandwa B.O",
    "officeType": "B.O",
    "Deliverystatus": "Delivery",
    "divisionname": "Mirzapur",
    "regionname": "Allahabad",
    "circlename": "Uttar Pradesh",
    "Taluk": "",
    "Districtname": "Mirzapur",
    "statename": "UTTAR PRADESH"
  },
  {
    "pincode": "231501",
    "officename": "Semari Khas B.O",
    "officeType": "B.O",
    "Deliverystatus": "Delivery",
    "divisionname": "Mirzapur",
    "regionname": "Allahabad",
    "circlename": "Uttar Pradesh",
    "Taluk": "Sadar",
    "Districtname": "Mirzapur",
    "statename": "UTTAR PRADESH"
  }
]
