[
  {
    "pincode": "232103",
    "officename": "Bentairi B.O",
    "officeType": "B.O",
    "Deliverystatus": "Delivery",
    "divisionname": "Varanasi East",
    "regionname": "Allahabad",
    "circlename": "Uttar Pradesh",
    "Taluk": "Varanasi",
    "Districtname": "Varanasi",
    "statename": "UTTAR PRADESH"
  },
  {
    "pincode": "232103",
    "officename": "Bhabhaura B.O",
    "officeType": "B.O",
    "Deliverystatus": "Delivery",
    "divisionname": "Varanasi East",
    "regionname": "Allahabad",
    "circlename": "Uttar Pradesh",
    "Taluk": "Varanasi",
    "Districtname": "Varanasi",
    "statename": "UTTAR PRADESH"
  },
  {
    "pincode": "232103",
    "officename": "Bhaisahi B.O",
    "officeType": "B.O",
    "Deliverystatus": "Delivery",
    "divisionname": "Varanasi East",
    "regionname": "Allahabad",
    "circlename": "Uttar Pradesh",
    "Taluk": "Chakia",
    "Districtname": "Chandauli",
    "statename": "UTTAR PRADESH"
  },
  {
    "pincode": "232103",
    "officename": "Bhatraul B.O",
    "officeType": "B.O",
    "Deliverystatus": "Delivery",
    "divisionname": "Varanasi East",
    "regionname": "Allahabad",
    "circlename": "Uttar Pradesh",
    "Taluk": "Chakia",
    "Districtname": "Chandauli",
    "statename": "UTTAR PRADESH"
  },
  {
    "pincode": "232103",
    "officename": "Bhikhampur B.O",
    "officeType": "B.O",
    "Deliverystatus": "Delivery",
    "divisionname": "Varanasi East",
    "regionname": "Allahabad",
    "circlename": "Uttar Pradesh",
    "Taluk": "Chakia",
    "Districtname": "Chandauli",
    "statename": "UTTAR PRADESH"
  },
  {
    "pincode": "232103",
    "officename": "Chakia S.O",
    "officeType": "S.O",
    "Deliverystatus": "Delivery",
    "divisionname": "Varanasi East",
    "regionname": "Allahabad",
    "circlename": "Uttar Pradesh",
    "Taluk": "Chakia",
    "Districtname": "Chandauli",
    "statename": "UTTAR PRADESH"
  },
  {
    "pincode": "232103",
    "officename": "Gaighat B.O",
    "officeType": "B.O",
    "Deliverystatus": "Delivery",
    "divisionname": "Varanasi East",
    "regionname": "Allahabad",
    "circlename": "Uttar Pradesh",
    "Taluk": "Chakia",
    "Districtname": "Chandauli",
    "statename": "UTTAR PRADESH"
  },
  {
    "pincode": "232103",
    "officename": "Kharaujha B.O",
    "officeType": "B.O",
    "Deliverystatus": "Delivery",
    "divisionname": "Varanasi East",
    "regionname": "Allahabad",
    "circlename": "Uttar Pradesh",
    "Taluk": "Chakia",
    "Districtname": "Chandauli",
    "statename": "UTTAR PRADESH"
  },
  {
    "pincode": "232103",
    "officename": "Musakhan B.O",
    "officeType": "B.O",
    "Deliverystatus": "Delivery",
    "divisionname": "Varanasi East",
    "regionname": "Allahabad",
    "circlename": "Uttar Pradesh",
    "Taluk": "Chakia",
    "Districtname": "Chandauli",
    "statename": "UTTAR PRADESH"
  },
  {
    "pincode": "232103",
    "officename": "Pachwania B.O",
    "officeType": "B.O",
    "Deliverystatus": "Delivery",
    "divisionname": "Varanasi East",
    "regionname": "Allahabad",
    "circlename": "Uttar Pradesh",
    "Taluk": "Chakia",
    "Districtname": "Chandauli",
    "statename": "UTTAR PRADESH"
  },
  {
    "pincode": "232103",
    "officename": "Piparia B.O",
    "officeType": "B.O",
    "Deliverystatus": "Delivery",
    "divisionname": "Varanasi East",
    "regionname": "Allahabad",
    "circlename": "Uttar Pradesh",
    "Taluk": "Chakia",
    "Districtname": "Chandauli",
    "statename": "UTTAR PRADESH"
  },
  {
    "pincode": "232103",
    "officename": "Rampurkala B.O",
    "officeType": "B.O",
    "Deliverystatus": "Delivery",
    "divisionname": "Varanasi East",
    "regionname": "Allahabad",
    "circlename": "Uttar Pradesh",
    "Taluk": "Chakia",
    "Districtname": "Chandauli",
    "statename": "UTTAR PRADESH"
  },
  {
    "pincode": "232103",
    "officename": "Saidupur B.O",
    "officeType": "B.O",
    "Deliverystatus": "Delivery",
    "divisionname": "Varanasi East",
    "regionname": "Allahabad",
    "circlename": "Uttar Pradesh",
    "Taluk": "Chakia",
    "Districtname": "Chandauli",
    "statename": "UTTAR PRADESH"
  },
  {
    "pincode": "232103",
    "officename": "Sikanderpur B.O",
    "officeType": "B.O",
    "Deliverystatus": "Delivery",
    "divisionname": "Varanasi East",
    "regionname": "Allahabad",
    "circlename": "Uttar Pradesh",
    "Taluk": "Chakia",
    "Districtname": "Chandauli",
    "statename": "UTTAR PRADESH"
  },
  {
    "pincode": "232103",
    "officename": "Sikarganj B.O",
    "officeType": "B.O",
    "Deliverystatus": "Delivery",
    "divisionname": "Varanasi East",
    "regionname": "Allahabad",
    "circlename": "Uttar Pradesh",
    "Taluk": "Chakia",
    "Districtname": "Chandauli",
    "statename": "UTTAR PRADESH"
  },
  {
    "pincode": "232103",
    "officename": "Tiyari B.O",
    "officeType": "B.O",
    "Deliverystatus": "Delivery",
    "divisionname": "Varanasi East",
    "regionname": "Allahabad",
    "circlename": "Uttar Pradesh",
    "Taluk": "Chakia",
    "Districtname": "Chandauli",
    "statename": "UTTAR PRADESH"
  },
  {
    "pincode": "232103",
    "officename": "Utraut B.O",
    "officeType": "B.O",
    "Deliverystatus": "Delivery",
    "divisionname": "Varanasi East",
    "regionname": "Allahabad",
    "circlename": "Uttar Pradesh",
    "Taluk": "Chakia",
    "Districtname": "Chandauli",
    "statename": "UTTAR PRADESH"
  }
]
