[
  {
    "pincode": "232102",
    "officename": "Akorha B.O",
    "officeType": "B.O",
    "Deliverystatus": "Delivery",
    "divisionname": "Varanasi East",
    "regionname": "Allahabad",
    "circlename": "Uttar Pradesh",
    "Taluk": "Varanasi",
    "Districtname": "Varanasi",
    "statename": "UTTAR PRADESH"
  },
  {
    "pincode": "232102",
    "officename": "Baburi S.O",
    "officeType": "S.O",
    "Deliverystatus": "Delivery",
    "divisionname": "Varanasi East",
    "regionname": "Allahabad",
    "circlename": "Uttar Pradesh",
    "Taluk": "Chandauli",
    "Districtname": "Chandauli",
    "statename": "UTTAR PRADESH"
  },
  {
    "pincode": "232102",
    "officename": "Bhadauliya B.O",
    "officeType": "B.O",
    "Deliverystatus": "Delivery",
    "divisionname": "Varanasi East",
    "regionname": "Allahabad",
    "circlename": "Uttar Pradesh",
    "Taluk": "Chandauli",
    "Districtname": "Chandauli",
    "statename": "UTTAR PRADESH"
  },
  {
    "pincode": "232102",
    "officename": "Dhaneja B.O",
    "officeType": "B.O",
    "Deliverystatus": "Delivery",
    "divisionname": "Varanasi East",
    "regionname": "Allahabad",
    "circlename": "Uttar Pradesh",
    "Taluk": "Chandauli",
    "Districtname": "Chandauli",
    "statename": "UTTAR PRADESH"
  },
  {
    "pincode": "232102",
    "officename": "Dharde B.O",
    "officeType": "B.O",
    "Deliverystatus": "Delivery",
    "divisionname": "Varanasi East",
    "regionname": "Allahabad",
    "circlename": "Uttar Pradesh",
    "Taluk": "Chandauli",
    "Districtname": "Chandauli",
    "statename": "UTTAR PRADESH"
  },
  {
    "pincode": "232102",
    "officename": "Gauri B.O",
    "officeType": "B.O",
    "Deliverystatus": "Delivery",
    "divisionname": "Varanasi East",
    "regionname": "Allahabad",
    "circlename": "Uttar Pradesh",
    "Taluk": "Chandauli",
    "Districtname": "Chandauli",
    "statename": "UTTAR PRADESH"
  },
  {
    "pincode": "232102",
    "officename": "Jarkhor B.O",
    "officeType": "B.O",
    "Deliverystatus": "Delivery",
    "divisionname": "Varanasi East",
    "regionname": "Allahabad",
    "circlename": "Uttar Pradesh",
    "Taluk": "Chandauli",
    "Districtname": "Chandauli",
    "statename": "UTTAR PRADESH"
  },
  {
    "pincode": "232102",
    "officename": "Mavaiya B.O",
    "officeType": "B.O",
    "Deliverystatus": "Delivery",
    "divisionname": "Varanasi East",
    "regionname": "Allahabad",
    "circlename": "Uttar Pradesh",
    "Taluk": "Chandauli",
    "Districtname": "Chandauli",
    "statename": "UTTAR PRADESH"
  },
  {
    "pincode": "232102",
    "officename": "Pasahi B.O",
    "officeType": "B.O",
    "Deliverystatus": "Delivery",
    "divisionname": "Varanasi East",
    "regionname": "Allahabad",
    "circlename": "Uttar Pradesh",
    "Taluk": "Varanasi",
    "Districtname": "Varanasi",
    "statename": "UTTAR PRADESH"
  },
  {
    "pincode": "232102",
    "officename": "Shivpur B.O",
    "officeType": "B.O",
    "Deliverystatus": "Delivery",
    "divisionname": "Varanasi East",
    "regionname": "Allahabad",
    "circlename": "Uttar Pradesh",
    "Taluk": "Chandauli",
    "Districtname": "Chandauli",
    "statename": "UTTAR PRADESH"
  },
  {
    "pincode": "232102",
    "officename": "Sikari B.O",
    "officeType": "B.O",
    "Deliverystatus": "Delivery",
    "divisionname": "Varanasi East",
    "regionname": "Allahabad",
    "circlename": "Uttar Pradesh",
    "Taluk": "Chandauli",
    "Districtname": "Chandauli",
    "statename": "UTTAR PRADESH"
  }
]
