[
  {
    "pincode": "232104",
    "officename": "Barthara Kalan B.O",
    "officeType": "B.O",
    "Deliverystatus": "Delivery",
    "divisionname": "Varanasi East",
    "regionname": "Allahabad",
    "circlename": "Uttar Pradesh",
    "Taluk": "Chandauli",
    "Districtname": "Chandauli",
    "statename": "UTTAR PRADESH"
  },
  {
    "pincode": "232104",
    "officename": "Basila B.O",
    "officeType": "B.O",
    "Deliverystatus": "Delivery",
    "divisionname": "Varanasi East",
    "regionname": "Allahabad",
    "circlename": "Uttar Pradesh",
    "Taluk": "Chandauli",
    "Districtname": "Chandauli",
    "statename": "UTTAR PRADESH"
  },
  {
    "pincode": "232104",
    "officename": "Bisauri B.O",
    "officeType": "B.O",
    "Deliverystatus": "Delivery",
    "divisionname": "Varanasi East",
    "regionname": "Allahabad",
    "circlename": "Uttar Pradesh",
    "Taluk": "Varanasi",
    "Districtname": "Varanasi",
    "statename": "UTTAR PRADESH"
  },
  {
    "pincode": "232104",
    "officename": "Chandauli S.O",
    "officeType": "S.O",
    "Deliverystatus": "Delivery",
    "divisionname": "Varanasi East",
    "regionname": "Allahabad",
    "circlename": "Uttar Pradesh",
    "Taluk": "Chandauli",
    "Districtname": "Chandauli",
    "statename": "UTTAR PRADESH"
  },
  {
    "pincode": "232104",
    "officename": "Dharauli B.O",
    "officeType": "B.O",
    "Deliverystatus": "Delivery",
    "divisionname": "Varanasi East",
    "regionname": "Allahabad",
    "circlename": "Uttar Pradesh",
    "Taluk": "Chandauli",
    "Districtname": "Chandauli",
    "statename": "UTTAR PRADESH"
  },
  {
    "pincode": "232104",
    "officename": "Jagdish Sarai B.O",
    "officeType": "B.O",
    "Deliverystatus": "Delivery",
    "divisionname": "Varanasi East",
    "regionname": "Allahabad",
    "circlename": "Uttar Pradesh",
    "Taluk": "Chandauli",
    "Districtname": "Chandauli",
    "statename": "UTTAR PRADESH"
  },
  {
    "pincode": "232104",
    "officename": "Jamunipur B.O",
    "officeType": "B.O",
    "Deliverystatus": "Non-Delivery",
    "divisionname": "Varanasi East",
    "regionname": "Allahabad",
    "circlename": "Uttar Pradesh",
    "Taluk": "Chandauli",
    "Districtname": "Chandauli",
    "statename": "UTTAR PRADESH"
  },
  {
    "pincode": "232104",
    "officename": "Kanta B.O",
    "officeType": "B.O",
    "Deliverystatus": "Delivery",
    "divisionname": "Varanasi East",
    "regionname": "Allahabad",
    "circlename": "Uttar Pradesh",
    "Taluk": "Chandauli",
    "Districtname": "Chandauli",
    "statename": "UTTAR PRADESH"
  },
  {
    "pincode": "232104",
    "officename": "Khagwal B.O",
    "officeType": "B.O",
    "Deliverystatus": "Non-Delivery",
    "divisionname": "Varanasi East",
    "regionname": "Allahabad",
    "circlename": "Uttar Pradesh",
    "Taluk": "Chandauli",
    "Districtname": "Chandauli",
    "statename": "UTTAR PRADESH"
  },
  {
    "pincode": "232104",
    "officename": "Khurja B.O",
    "officeType": "B.O",
    "Deliverystatus": "Delivery",
    "divisionname": "Varanasi East",
    "regionname": "Allahabad",
    "circlename": "Uttar Pradesh",
    "Taluk": "",
    "Districtname": "Chandauli",
    "statename": "UTTAR PRADESH"
  },
  {
    "pincode": "232104",
    "officename": "Launda B.O",
    "officeType": "B.O",
    "Deliverystatus": "Delivery",
    "divisionname": "Varanasi East",
    "regionname": "Allahabad",
    "circlename": "Uttar Pradesh",
    "Taluk": "Chandauli",
    "Districtname": "Chandauli",
    "statename": "UTTAR PRADESH"
  },
  {
    "pincode": "232104",
    "officename": "Majhwarkhas B.O",
    "officeType": "B.O",
    "Deliverystatus": "Delivery",
    "divisionname": "Varanasi East",
    "regionname": "Allahabad",
    "circlename": "Uttar Pradesh",
    "Taluk": "Chanduali",
    "Districtname": "Chandauli",
    "statename": "UTTAR PRADESH"
  },
  {
    "pincode": "232104",
    "officename": "Marhi B.O",
    "officeType": "B.O",
    "Deliverystatus": "Delivery",
    "divisionname": "Varanasi East",
    "regionname": "Allahabad",
    "circlename": "Uttar Pradesh",
    "Taluk": "Chanduali",
    "Districtname": "Chandauli",
    "statename": "UTTAR PRADESH"
  },
  {
    "pincode": "232104",
    "officename": "Parasikalan B.O",
    "officeType": "B.O",
    "Deliverystatus": "Delivery",
    "divisionname": "Varanasi East",
    "regionname": "Allahabad",
    "circlename": "Uttar Pradesh",
    "Taluk": "Chandauli",
    "Districtname": "Chandauli",
    "statename": "UTTAR PRADESH"
  },
  {
    "pincode": "232104",
    "officename": "Vishunpura B.O",
    "officeType": "B.O",
    "Deliverystatus": "Delivery",
    "divisionname": "Varanasi East",
    "regionname": "Allahabad",
    "circlename": "Uttar Pradesh",
    "Taluk": "Chandauli",
    "Districtname": "Chandauli",
    "statename": "UTTAR PRADESH"
  }
]
