[
  {
    "pincode": "232110",
    "officename": "Adsand B.O",
    "officeType": "B.O",
    "Deliverystatus": "Delivery",
    "divisionname": "Varanasi East",
    "regionname": "Allahabad",
    "circlename": "Uttar Pradesh",
    "Taluk": "Varanasi",
    "Districtname": "Varanasi",
    "statename": "UTTAR PRADESH"
  },
  {
    "pincode": "232110",
    "officename": "Amara B.O",
    "officeType": "B.O",
    "Deliverystatus": "Delivery",
    "divisionname": "Varanasi East",
    "regionname": "Allahabad",
    "circlename": "Uttar Pradesh",
    "Taluk": "Chandauli",
    "Districtname": "Chandauli",
    "statename": "UTTAR PRADESH"
  },
  {
    "pincode": "232110",
    "officename": "Arangi B.O",
    "officeType": "B.O",
    "Deliverystatus": "Delivery",
    "divisionname": "Varanasi East",
    "regionname": "Allahabad",
    "circlename": "Uttar Pradesh",
    "Taluk": "Chandauli",
    "Districtname": "Chandauli",
    "statename": "UTTAR PRADESH"
  },
  {
    "pincode": "232110",
    "officename": "Asana B.O",
    "officeType": "B.O",
    "Deliverystatus": "Delivery",
    "divisionname": "Varanasi East",
    "regionname": "Allahabad",
    "circlename": "Uttar Pradesh",
    "Taluk": "Chandauli",
    "Districtname": "Chandauli",
    "statename": "UTTAR PRADESH"
  },
  {
    "pincode": "232110",
    "officename": "Bagahikumbhapur B.O",
    "officeType": "B.O",
    "Deliverystatus": "Delivery",
    "divisionname": "Varanasi East",
    "regionname": "Allahabad",
    "circlename": "Uttar Pradesh",
    "Taluk": "Chandauli",
    "Districtname": "Chandauli",
    "statename": "UTTAR PRADESH"
  },
  {
    "pincode": "232110",
    "officename": "Barahani B.O",
    "officeType": "B.O",
    "Deliverystatus": "Delivery",
    "divisionname": "Varanasi East",
    "regionname": "Allahabad",
    "circlename": "Uttar Pradesh",
    "Taluk": "Chandauli",
    "Districtname": "Chandauli",
    "statename": "UTTAR PRADESH"
  },
  {
    "pincode": "232110",
    "officename": "Bhatiza B.O",
    "officeType": "B.O",
    "Deliverystatus": "Delivery",
    "divisionname": "Varanasi East",
    "regionname": "Allahabad",
    "circlename": "Uttar Pradesh",
    "Taluk": "Chandauli",
    "Districtname": "Chandauli",
    "statename": "UTTAR PRADESH"
  },
  {
    "pincode": "232110",
    "officename": "Bhujana B.O",
    "officeType": "B.O",
    "Deliverystatus": "Delivery",
    "divisionname": "Varanasi East",
    "regionname": "Allahabad",
    "circlename": "Uttar Pradesh",
    "Taluk": "Chandauli",
    "Districtname": "Chandauli",
    "statename": "UTTAR PRADESH"
  },
  {
    "pincode": "232110",
    "officename": "Chiraigaon B.O",
    "officeType": "B.O",
    "Deliverystatus": "Delivery",
    "divisionname": "Varanasi East",
    "regionname": "Allahabad",
    "circlename": "Uttar Pradesh",
    "Taluk": "Varanasi",
    "Districtname": "Varanasi",
    "statename": "UTTAR PRADESH"
  },
  {
    "pincode": "232110",
    "officename": "Fesuda B.O",
    "officeType": "B.O",
    "Deliverystatus": "Delivery",
    "divisionname": "Varanasi East",
    "regionname": "Allahabad",
    "circlename": "Uttar Pradesh",
    "Taluk": "Chandauli",
    "Districtname": "Chandauli",
    "statename": "UTTAR PRADESH"
  },
  {
    "pincode": "232110",
    "officename": "Ghosawa B.O",
    "officeType": "B.O",
    "Deliverystatus": "Delivery",
    "divisionname": "Varanasi East",
    "regionname": "Allahabad",
    "circlename": "Uttar Pradesh",
    "Taluk": "Varanasi",
    "Districtname": "Varanasi",
    "statename": "UTTAR PRADESH"
  },
  {
    "pincode": "232110",
    "officename": "Imilia B.O",
    "officeType": "B.O",
    "Deliverystatus": "Delivery",
    "divisionname": "Varanasi East",
    "regionname": "Allahabad",
    "circlename": "Uttar Pradesh",
    "Taluk": "Chandauli",
    "Districtname": "Chandauli",
    "statename": "UTTAR PRADESH"
  },
  {
    "pincode": "232110",
    "officename": "Jeori B.O",
    "officeType": "B.O",
    "Deliverystatus": "Delivery",
    "divisionname": "Varanasi East",
    "regionname": "Allahabad",
    "circlename": "Uttar Pradesh",
    "Taluk": "Varanasi",
    "Districtname": "Varanasi",
    "statename": "UTTAR PRADESH"
  },
  {
    "pincode": "232110",
    "officename": "Naubatpur B.O",
    "officeType": "B.O",
    "Deliverystatus": "Delivery",
    "divisionname": "Varanasi East",
    "regionname": "Allahabad",
    "circlename": "Uttar Pradesh",
    "Taluk": "Chandauli",
    "Districtname": "Chandauli",
    "statename": "UTTAR PRADESH"
  },
  {
    "pincode": "232110",
    "officename": "Oyarchak B.O",
    "officeType": "B.O",
    "Deliverystatus": "Delivery",
    "divisionname": "Varanasi East",
    "regionname": "Allahabad",
    "circlename": "Uttar Pradesh",
    "Taluk": "Chandauli",
    "Districtname": "Chandauli",
    "statename": "UTTAR PRADESH"
  },
  {
    "pincode": "232110",
    "officename": "Rampur B.O",
    "officeType": "B.O",
    "Deliverystatus": "Delivery",
    "divisionname": "Varanasi East",
    "regionname": "Allahabad",
    "circlename": "Uttar Pradesh",
    "Taluk": "Chandauli",
    "Districtname": "Chandauli",
    "statename": "UTTAR PRADESH"
  },
  {
    "pincode": "232110",
    "officename": "Rewasa B.O",
    "officeType": "B.O",
    "Deliverystatus": "Delivery",
    "divisionname": "Varanasi East",
    "regionname": "Allahabad",
    "circlename": "Uttar Pradesh",
    "Taluk": "Chandauli",
    "Districtname": "Chandauli",
    "statename": "UTTAR PRADESH"
  },
  {
    "pincode": "232110",
    "officename": "Saiyadraja S.O",
    "officeType": "S.O",
    "Deliverystatus": "Delivery",
    "divisionname": "Varanasi East",
    "regionname": "Allahabad",
    "circlename": "Uttar Pradesh",
    "Taluk": "Chandauli",
    "Districtname": "Chandauli",
    "statename": "UTTAR PRADESH"
  },
  {
    "pincode": "232110",
    "officename": "Seruka B.O",
    "officeType": "B.O",
    "Deliverystatus": "Delivery",
    "divisionname": "Varanasi East",
    "regionname": "Allahabad",
    "circlename": "Uttar Pradesh",
    "Taluk": "Chandauli",
    "Districtname": "Chandauli",
    "statename": "UTTAR PRADESH"
  },
  {
    "pincode": "232110",
    "officename": "Sogai B.O",
    "officeType": "B.O",
    "Deliverystatus": "Delivery",
    "divisionname": "Varanasi East",
    "regionname": "Allahabad",
    "circlename": "Uttar Pradesh",
    "Taluk": "Chandauli",
    "Districtname": "Chandauli",
    "statename": "UTTAR PRADESH"
  }
]
