[
  {
    "pincode": "232329",
    "officename": "Bahadurpur B.O",
    "officeType": "B.O",
    "Deliverystatus": "Delivery",
    "divisionname": "Ghazipur",
    "regionname": "Allahabad",
    "circlename": "Uttar Pradesh",
    "Taluk": "Zamania",
    "Districtname": "Ghazipur",
    "statename": "UTTAR PRADESH"
  },
  {
    "pincode": "232329",
    "officename": "Darauli B.O",
    "officeType": "B.O",
    "Deliverystatus": "Delivery",
    "divisionname": "Ghazipur",
    "regionname": "Allahabad",
    "circlename": "Uttar Pradesh",
    "Taluk": "Zamania",
    "Districtname": "Ghazipur",
    "statename": "UTTAR PRADESH"
  },
  {
    "pincode": "232329",
    "officename": "Dhanauta B.O",
    "officeType": "B.O",
    "Deliverystatus": "Delivery",
    "divisionname": "Ghazipur",
    "regionname": "Allahabad",
    "circlename": "Uttar Pradesh",
    "Taluk": "Zamania",
    "Districtname": "Ghazipur",
    "statename": "UTTAR PRADESH"
  },
  {
    "pincode": "232329",
    "officename": "Lahuwar B.O",
    "officeType": "B.O",
    "Deliverystatus": "Delivery",
    "divisionname": "Ghazipur",
    "regionname": "Allahabad",
    "circlename": "Uttar Pradesh",
    "Taluk": "Zamania",
    "Districtname": "Ghazipur",
    "statename": "UTTAR PRADESH"
  },
  {
    "pincode": "232329",
    "officename": "Pachokhar B.O",
    "officeType": "B.O",
    "Deliverystatus": "Delivery",
    "divisionname": "Ghazipur",
    "regionname": "Allahabad",
    "circlename": "Uttar Pradesh",
    "Taluk": "Zamania",
    "Districtname": "Ghazipur",
    "statename": "UTTAR PRADESH"
  },
  {
    "pincode": "232329",
    "officename": "Phulli B.O",
    "officeType": "B.O",
    "Deliverystatus": "Delivery",
    "divisionname": "Ghazipur",
    "regionname": "Allahabad",
    "circlename": "Uttar Pradesh",
    "Taluk": "Zamania",
    "Districtname": "Ghazipur",
    "statename": "UTTAR PRADESH"
  },
  {
    "pincode": "232329",
    "officename": "Umarganj Nariaon B.O",
    "officeType": "B.O",
    "Deliverystatus": "Delivery",
    "divisionname": "Ghazipur",
    "regionname": "Allahabad",
    "circlename": "Uttar Pradesh",
    "Taluk": "Zamania",
    "Districtname": "Ghazipur",
    "statename": "UTTAR PRADESH"
  },
  {
    "pincode": "232329",
    "officename": "Zamania Bazar S.O",
    "officeType": "S.O",
    "Deliverystatus": "Non-Delivery",
    "divisionname": "Ghazipur",
    "regionname": "Allahabad",
    "circlename": "Uttar Pradesh",
    "Taluk": "Zamania",
    "Districtname": "Ghazipur",
    "statename": "UTTAR PRADESH"
  },
  {
    "pincode": "232329",
    "officename": "Zamania S.O",
    "officeType": "S.O",
    "Deliverystatus": "Delivery",
    "divisionname": "Ghazipur",
    "regionname": "Allahabad",
    "circlename": "Uttar Pradesh",
    "Taluk": "Zamania",
    "Districtname": "Ghazipur",
    "statename": "UTTAR PRADESH"
  }
]
