[
  {
    "pincode": "233233",
    "officename": "Deoria B.O",
    "officeType": "B.O",
    "Deliverystatus": "Delivery",
    "divisionname": "Ghazipur",
    "regionname": "Allahabad",
    "circlename": "Uttar Pradesh",
    "Taluk": "Mohammedabad",
    "Districtname": "Ghazipur",
    "statename": "UTTAR PRADESH"
  },
  {
    "pincode": "233233",
    "officename": "Joga Musahib B.O",
    "officeType": "B.O",
    "Deliverystatus": "Delivery",
    "divisionname": "Ghazipur",
    "regionname": "Allahabad",
    "circlename": "Uttar Pradesh",
    "Taluk": "Mohammadabad",
    "Districtname": "Ghazipur",
    "statename": "UTTAR PRADESH"
  },
  {
    "pincode": "233233",
    "officename": "Khairabari B.O",
    "officeType": "B.O",
    "Deliverystatus": "Delivery",
    "divisionname": "Ghazipur",
    "regionname": "Allahabad",
    "circlename": "Uttar Pradesh",
    "Taluk": "Mohammedabad",
    "Districtname": "Ghazipur",
    "statename": "UTTAR PRADESH"
  },
  {
    "pincode": "233233",
    "officename": "Khardiha S.O",
    "officeType": "S.O",
    "Deliverystatus": "Delivery",
    "divisionname": "Ghazipur",
    "regionname": "Allahabad",
    "circlename": "Uttar Pradesh",
    "Taluk": "Ghazipur",
    "Districtname": "Ghazipur",
    "statename": "UTTAR PRADESH"
  },
  {
    "pincode": "233233",
    "officename": "Lauwadih B.O",
    "officeType": "B.O",
    "Deliverystatus": "Delivery",
    "divisionname": "Ghazipur",
    "regionname": "Allahabad",
    "circlename": "Uttar Pradesh",
    "Taluk": "Mohammadabad",
    "Districtname": "Ghazipur",
    "statename": "UTTAR PRADESH"
  },
  {
    "pincode": "233233",
    "officename": "Mundera B.O",
    "officeType": "B.O",
    "Deliverystatus": "Delivery",
    "divisionname": "Ghazipur",
    "regionname": "Allahabad",
    "circlename": "Uttar Pradesh",
    "Taluk": "Ghazipur",
    "Districtname": "Ghazipur",
    "statename": "UTTAR PRADESH"
  },
  {
    "pincode": "233233",
    "officename": "Reosara B.O",
    "officeType": "B.O",
    "Deliverystatus": "Delivery",
    "divisionname": "Ghazipur",
    "regionname": "Allahabad",
    "circlename": "Uttar Pradesh",
    "Taluk": "Mohammedabad",
    "Districtname": "Ghazipur",
    "statename": "UTTAR PRADESH"
  },
  {
    "pincode": "233233",
    "officename": "Siyari B.O",
    "officeType": "B.O",
    "Deliverystatus": "Delivery",
    "divisionname": "Ghazipur",
    "regionname": "Allahabad",
    "circlename": "Uttar Pradesh",
    "Taluk": "Mohammadabad",
    "Districtname": "Ghazipur",
    "statename": "UTTAR PRADESH"
  }
]
