[
  {
    "pincode": "233225",
    "officename": "Asawar B.O",
    "officeType": "B.O",
    "Deliverystatus": "Delivery",
    "divisionname": "Ghazipur",
    "regionname": "Allahabad",
    "circlename": "Uttar Pradesh",
    "Taluk": "Mohammadabad",
    "Districtname": "Ghazipur",
    "statename": "UTTAR PRADESH"
  },
  {
    "pincode": "233225",
    "officename": "Dubiha B.O",
    "officeType": "B.O",
    "Deliverystatus": "Delivery",
    "divisionname": "Ghazipur",
    "regionname": "Allahabad",
    "circlename": "Uttar Pradesh",
    "Taluk": "Mohammedabad",
    "Districtname": "Ghazipur",
    "statename": "UTTAR PRADESH"
  },
  {
    "pincode": "233225",
    "officename": "Gandhinagar B.O",
    "officeType": "B.O",
    "Deliverystatus": "Delivery",
    "divisionname": "Ghazipur",
    "regionname": "Allahabad",
    "circlename": "Uttar Pradesh",
    "Taluk": "Mohammadabad",
    "Districtname": "Ghazipur",
    "statename": "UTTAR PRADESH"
  },
  {
    "pincode": "233225",
    "officename": "Gondaur B.O",
    "officeType": "B.O",
    "Deliverystatus": "Delivery",
    "divisionname": "Ghazipur",
    "regionname": "Allahabad",
    "circlename": "Uttar Pradesh",
    "Taluk": "Mohammadabad",
    "Districtname": "Ghazipur",
    "statename": "UTTAR PRADESH"
  },
  {
    "pincode": "233225",
    "officename": "Hartmanpur B.O",
    "officeType": "B.O",
    "Deliverystatus": "Delivery",
    "divisionname": "Ghazipur",
    "regionname": "Allahabad",
    "circlename": "Uttar Pradesh",
    "Taluk": "Mohammadabad",
    "Districtname": "Ghazipur",
    "statename": "UTTAR PRADESH"
  },
  {
    "pincode": "233225",
    "officename": "Karimuddinpur S.O",
    "officeType": "S.O",
    "Deliverystatus": "Delivery",
    "divisionname": "Ghazipur",
    "regionname": "Allahabad",
    "circlename": "Uttar Pradesh",
    "Taluk": "Mohammadabad",
    "Districtname": "Ghazipur",
    "statename": "UTTAR PRADESH"
  },
  {
    "pincode": "233225",
    "officename": "Maura B.O",
    "officeType": "B.O",
    "Deliverystatus": "Delivery",
    "divisionname": "Ghazipur",
    "regionname": "Allahabad",
    "circlename": "Uttar Pradesh",
    "Taluk": "Ghazipur",
    "Districtname": "Ghazipur",
    "statename": "UTTAR PRADESH"
  },
  {
    "pincode": "233225",
    "officename": "Patepur B.O",
    "officeType": "B.O",
    "Deliverystatus": "Delivery",
    "divisionname": "Ghazipur",
    "regionname": "Allahabad",
    "circlename": "Uttar Pradesh",
    "Taluk": "Mohammedabad",
    "Districtname": "Ghazipur",
    "statename": "UTTAR PRADESH"
  },
  {
    "pincode": "233225",
    "officename": "Utraon B.O",
    "officeType": "B.O",
    "Deliverystatus": "Delivery",
    "divisionname": "Ghazipur",
    "regionname": "Allahabad",
    "circlename": "Uttar Pradesh",
    "Taluk": "Mohammedabad",
    "Districtname": "Ghazipur",
    "statename": "UTTAR PRADESH"
  }
]
