[
  {
    "pincode": "233305",
    "officename": "Alawalpur B.O",
    "officeType": "B.O",
    "Deliverystatus": "Delivery",
    "divisionname": "Ghazipur",
    "regionname": "Allahabad",
    "circlename": "Uttar Pradesh",
    "Taluk": "Ghazipur",
    "Districtname": "Ghazipur",
    "statename": "UTTAR PRADESH"
  },
  {
    "pincode": "233305",
    "officename": "Andhau B.O",
    "officeType": "B.O",
    "Deliverystatus": "Delivery",
    "divisionname": "Ghazipur",
    "regionname": "Allahabad",
    "circlename": "Uttar Pradesh",
    "Taluk": "Ghazipur",
    "Districtname": "Ghazipur",
    "statename": "UTTAR PRADESH"
  },
  {
    "pincode": "233305",
    "officename": "Arakhpur B.O",
    "officeType": "B.O",
    "Deliverystatus": "Delivery",
    "divisionname": "Ghazipur",
    "regionname": "Allahabad",
    "circlename": "Uttar Pradesh",
    "Taluk": "Ghazipur",
    "Districtname": "Ghazipur",
    "statename": "UTTAR PRADESH"
  },
  {
    "pincode": "233305",
    "officename": "Belwa Urf Rasulpur B.O",
    "officeType": "B.O",
    "Deliverystatus": "Delivery",
    "divisionname": "Ghazipur",
    "regionname": "Allahabad",
    "circlename": "Uttar Pradesh",
    "Taluk": "Ghazipur",
    "Districtname": "Ghazipur",
    "statename": "UTTAR PRADESH"
  },
  {
    "pincode": "233305",
    "officename": "Buzurga Gouspur B.O",
    "officeType": "B.O",
    "Deliverystatus": "Delivery",
    "divisionname": "Ghazipur",
    "regionname": "Allahabad",
    "circlename": "Uttar Pradesh",
    "Taluk": "Ghazipur",
    "Districtname": "Ghazipur",
    "statename": "UTTAR PRADESH"
  },
  {
    "pincode": "233305",
    "officename": "Gumma B.O",
    "officeType": "B.O",
    "Deliverystatus": "Delivery",
    "divisionname": "Ghazipur",
    "regionname": "Allahabad",
    "circlename": "Uttar Pradesh",
    "Taluk": "Ghazipur",
    "Districtname": "Ghazipur",
    "statename": "UTTAR PRADESH"
  },
  {
    "pincode": "233305",
    "officename": "Kataila B.O",
    "officeType": "B.O",
    "Deliverystatus": "Delivery",
    "divisionname": "Ghazipur",
    "regionname": "Allahabad",
    "circlename": "Uttar Pradesh",
    "Taluk": "Ghazipur",
    "Districtname": "Ghazipur",
    "statename": "UTTAR PRADESH"
  },
  {
    "pincode": "233305",
    "officename": "Manpur B.O",
    "officeType": "B.O",
    "Deliverystatus": "Delivery",
    "divisionname": "Ghazipur",
    "regionname": "Allahabad",
    "circlename": "Uttar Pradesh",
    "Taluk": "Ghazipur",
    "Districtname": "Ghazipur",
    "statename": "UTTAR PRADESH"
  },
  {
    "pincode": "233305",
    "officename": "Pahetia B.O",
    "officeType": "B.O",
    "Deliverystatus": "Delivery",
    "divisionname": "Ghazipur",
    "regionname": "Allahabad",
    "circlename": "Uttar Pradesh",
    "Taluk": "Ghazipur",
    "Districtname": "Ghazipur",
    "statename": "UTTAR PRADESH"
  },
  {
    "pincode": "233305",
    "officename": "Rampur Jiwan B.O",
    "officeType": "B.O",
    "Deliverystatus": "Delivery",
    "divisionname": "Ghazipur",
    "regionname": "Allahabad",
    "circlename": "Uttar Pradesh",
    "Taluk": "Ghazipur",
    "Districtname": "Ghazipur",
    "statename": "UTTAR PRADESH"
  },
  {
    "pincode": "233305",
    "officename": "Zangipur S.O",
    "officeType": "S.O",
    "Deliverystatus": "Delivery",
    "divisionname": "Ghazipur",
    "regionname": "Allahabad",
    "circlename": "Uttar Pradesh",
    "Taluk": "Ghazipur",
    "Districtname": "Ghazipur",
    "statename": "UTTAR PRADESH"
  }
]
