[
  {
    "pincode": "241203",
    "officename": "Atsaliya B.O",
    "officeType": "B.O",
    "Deliverystatus": "Delivery",
    "divisionname": "Hardoi",
    "regionname": "Bareilly",
    "circlename": "Uttar Pradesh",
    "Taluk": "Sandila",
    "Districtname": "Hardoi",
    "statename": "UTTAR PRADESH"
  },
  {
    "pincode": "241203",
    "officename": "Bahuti B.O",
    "officeType": "B.O",
    "Deliverystatus": "Delivery",
    "divisionname": "Hardoi",
    "regionname": "Bareilly",
    "circlename": "Uttar Pradesh",
    "Taluk": "Sandila",
    "Districtname": "Hardoi",
    "statename": "UTTAR PRADESH"
  },
  {
    "pincode": "241203",
    "officename": "Dhikunni S.O",
    "officeType": "S.O",
    "Deliverystatus": "Delivery",
    "divisionname": "Hardoi",
    "regionname": "Bareilly",
    "circlename": "Uttar Pradesh",
    "Taluk": "Sandila",
    "Districtname": "Hardoi",
    "statename": "UTTAR PRADESH"
  },
  {
    "pincode": "241203",
    "officename": "Erka Bherka B.O",
    "officeType": "B.O",
    "Deliverystatus": "Delivery",
    "divisionname": "Hardoi",
    "regionname": "Bareilly",
    "circlename": "Uttar Pradesh",
    "Taluk": "Sandila",
    "Districtname": "Hardoi",
    "statename": "UTTAR PRADESH"
  },
  {
    "pincode": "241203",
    "officename": "Goni Gondwa B.O",
    "officeType": "B.O",
    "Deliverystatus": "Delivery",
    "divisionname": "Hardoi",
    "regionname": "Bareilly",
    "circlename": "Uttar Pradesh",
    "Taluk": "Sandila",
    "Districtname": "Hardoi",
    "statename": "UTTAR PRADESH"
  },
  {
    "pincode": "241203",
    "officename": "Jangaon B.O",
    "officeType": "B.O",
    "Deliverystatus": "Delivery",
    "divisionname": "Hardoi",
    "regionname": "Bareilly",
    "circlename": "Uttar Pradesh",
    "Taluk": "Sandila",
    "Districtname": "Hardoi",
    "statename": "UTTAR PRADESH"
  },
  {
    "pincode": "241203",
    "officename": "Kashipur Baheria B.O",
    "officeType": "B.O",
    "Deliverystatus": "Delivery",
    "divisionname": "Hardoi",
    "regionname": "Bareilly",
    "circlename": "Uttar Pradesh",
    "Taluk": "Sandila",
    "Districtname": "Hardoi",
    "statename": "UTTAR PRADESH"
  },
  {
    "pincode": "241203",
    "officename": "Majhigawan B.O",
    "officeType": "B.O",
    "Deliverystatus": "Delivery",
    "divisionname": "Hardoi",
    "regionname": "Bareilly",
    "circlename": "Uttar Pradesh",
    "Taluk": "Sandila",
    "Districtname": "Hardoi",
    "statename": "UTTAR PRADESH"
  },
  {
    "pincode": "241203",
    "officename": "Majhigawan Gadeora B.O",
    "officeType": "B.O",
    "Deliverystatus": "Delivery",
    "divisionname": "Hardoi",
    "regionname": "Bareilly",
    "circlename": "Uttar Pradesh",
    "Taluk": "Sandila",
    "Districtname": "Hardoi",
    "statename": "UTTAR PRADESH"
  },
  {
    "pincode": "241203",
    "officename": "Mohammadpur Belwaran B.O",
    "officeType": "B.O",
    "Deliverystatus": "Delivery",
    "divisionname": "Hardoi",
    "regionname": "Bareilly",
    "circlename": "Uttar Pradesh",
    "Taluk": "Sandila",
    "Districtname": "Hardoi",
    "statename": "UTTAR PRADESH"
  },
  {
    "pincode": "241203",
    "officename": "Sarva B.O",
    "officeType": "B.O",
    "Deliverystatus": "Delivery",
    "divisionname": "Hardoi",
    "regionname": "Bareilly",
    "circlename": "Uttar Pradesh",
    "Taluk": "Sandila",
    "Districtname": "Hardoi",
    "statename": "UTTAR PRADESH"
  },
  {
    "pincode": "241203",
    "officename": "Sikrori B.O",
    "officeType": "B.O",
    "Deliverystatus": "Delivery",
    "divisionname": "Hardoi",
    "regionname": "Bareilly",
    "circlename": "Uttar Pradesh",
    "Taluk": "Sandila",
    "Districtname": "Hardoi",
    "statename": "UTTAR PRADESH"
  },
  {
    "pincode": "241203",
    "officename": "Tikra Khurd B.O",
    "officeType": "B.O",
    "Deliverystatus": "Delivery",
    "divisionname": "Hardoi",
    "regionname": "Bareilly",
    "circlename": "Uttar Pradesh",
    "Taluk": "Sandila",
    "Districtname": "Hardoi",
    "statename": "UTTAR PRADESH"
  }
]
