[
  {
    "pincode": "241301",
    "officename": "Andharra B.O",
    "officeType": "B.O",
    "Deliverystatus": "Delivery",
    "divisionname": "Hardoi",
    "regionname": "Bareilly",
    "circlename": "Uttar Pradesh",
    "Taluk": "Bilgram",
    "Districtname": "Hardoi",
    "statename": "UTTAR PRADESH"
  },
  {
    "pincode": "241301",
    "officename": "Bilgram B.S. S.O",
    "officeType": "S.O",
    "Deliverystatus": "Non-Delivery",
    "divisionname": "Hardoi",
    "regionname": "Bareilly",
    "circlename": "Uttar Pradesh",
    "Taluk": "Bilgram",
    "Districtname": "Hardoi",
    "statename": "UTTAR PRADESH"
  },
  {
    "pincode": "241301",
    "officename": "Bilgram S.O",
    "officeType": "S.O",
    "Deliverystatus": "Delivery",
    "divisionname": "Hardoi",
    "regionname": "Bareilly",
    "circlename": "Uttar Pradesh",
    "Taluk": "Bilgram",
    "Districtname": "Hardoi",
    "statename": "UTTAR PRADESH"
  },
  {
    "pincode": "241301",
    "officename": "Chhibaramau B.O",
    "officeType": "B.O",
    "Deliverystatus": "Delivery",
    "divisionname": "Hardoi",
    "regionname": "Bareilly",
    "circlename": "Uttar Pradesh",
    "Taluk": "Bilgram",
    "Districtname": "Hardoi",
    "statename": "UTTAR PRADESH"
  },
  {
    "pincode": "241301",
    "officename": "Dabha B.O",
    "officeType": "B.O",
    "Deliverystatus": "Delivery",
    "divisionname": "Hardoi",
    "regionname": "Bareilly",
    "circlename": "Uttar Pradesh",
    "Taluk": "Bilgram",
    "Districtname": "Hardoi",
    "statename": "UTTAR PRADESH"
  },
  {
    "pincode": "241301",
    "officename": "Dahigawan B.O",
    "officeType": "B.O",
    "Deliverystatus": "Delivery",
    "divisionname": "Hardoi",
    "regionname": "Bareilly",
    "circlename": "Uttar Pradesh",
    "Taluk": "Bilgram",
    "Districtname": "Hardoi",
    "statename": "UTTAR PRADESH"
  },
  {
    "pincode": "241301",
    "officename": "Durgaganj B.O",
    "officeType": "B.O",
    "Deliverystatus": "Delivery",
    "divisionname": "Hardoi",
    "regionname": "Bareilly",
    "circlename": "Uttar Pradesh",
    "Taluk": "Bilgram",
    "Districtname": "Hardoi",
    "statename": "UTTAR PRADESH"
  },
  {
    "pincode": "241301",
    "officename": "Jareuli Sherpur B.O",
    "officeType": "B.O",
    "Deliverystatus": "Delivery",
    "divisionname": "Hardoi",
    "regionname": "Bareilly",
    "circlename": "Uttar Pradesh",
    "Taluk": "Bilgram",
    "Districtname": "Hardoi",
    "statename": "UTTAR PRADESH"
  },
  {
    "pincode": "241301",
    "officename": "Noorpur  Hathaura B.O",
    "officeType": "B.O",
    "Deliverystatus": "Delivery",
    "divisionname": "Hardoi",
    "regionname": "Bareilly",
    "circlename": "Uttar Pradesh",
    "Taluk": "Bilgram",
    "Districtname": "Hardoi",
    "statename": "UTTAR PRADESH"
  },
  {
    "pincode": "241301",
    "officename": "Parsola B.O",
    "officeType": "B.O",
    "Deliverystatus": "Delivery",
    "divisionname": "Hardoi",
    "regionname": "Bareilly",
    "circlename": "Uttar Pradesh",
    "Taluk": "Bilgram",
    "Districtname": "Hardoi",
    "statename": "UTTAR PRADESH"
  },
  {
    "pincode": "241301",
    "officename": "Pasner B.O",
    "officeType": "B.O",
    "Deliverystatus": "Delivery",
    "divisionname": "Hardoi",
    "regionname": "Bareilly",
    "circlename": "Uttar Pradesh",
    "Taluk": "Bilgram",
    "Districtname": "Hardoi",
    "statename": "UTTAR PRADESH"
  },
  {
    "pincode": "241301",
    "officename": "Sugwan B.O",
    "officeType": "B.O",
    "Deliverystatus": "Delivery",
    "divisionname": "Hardoi",
    "regionname": "Bareilly",
    "circlename": "Uttar Pradesh",
    "Taluk": "Bilgram",
    "Districtname": "Hardoi",
    "statename": "UTTAR PRADESH"
  },
  {
    "pincode": "241301",
    "officename": "Tundwal B.O",
    "officeType": "B.O",
    "Deliverystatus": "Delivery",
    "divisionname": "Hardoi",
    "regionname": "Bareilly",
    "circlename": "Uttar Pradesh",
    "Taluk": "Bilgram",
    "Districtname": "Hardoi",
    "statename": "UTTAR PRADESH"
  }
]
