[
  {
    "pincode": "241403",
    "officename": "Adampur B.O",
    "officeType": "B.O",
    "Deliverystatus": "Delivery",
    "divisionname": "Hardoi",
    "regionname": "Bareilly",
    "circlename": "Uttar Pradesh",
    "Taluk": "Harodi",
    "Districtname": "Hardoi",
    "statename": "UTTAR PRADESH"
  },
  {
    "pincode": "241403",
    "officename": "Akhbelpur Malwa B.O",
    "officeType": "B.O",
    "Deliverystatus": "Delivery",
    "divisionname": "Hardoi",
    "regionname": "Bareilly",
    "circlename": "Uttar Pradesh",
    "Taluk": "Harodi",
    "Districtname": "Hardoi",
    "statename": "UTTAR PRADESH"
  },
  {
    "pincode": "241403",
    "officename": "Baghrai B.O",
    "officeType": "B.O",
    "Deliverystatus": "Delivery",
    "divisionname": "Hardoi",
    "regionname": "Bareilly",
    "circlename": "Uttar Pradesh",
    "Taluk": "Harodi",
    "Districtname": "Hardoi",
    "statename": "UTTAR PRADESH"
  },
  {
    "pincode": "241403",
    "officename": "Chacharapur B.O",
    "officeType": "B.O",
    "Deliverystatus": "Delivery",
    "divisionname": "Hardoi",
    "regionname": "Bareilly",
    "circlename": "Uttar Pradesh",
    "Taluk": "Harodi",
    "Districtname": "Hardoi",
    "statename": "UTTAR PRADESH"
  },
  {
    "pincode": "241403",
    "officename": "Jarauli Newada B.O",
    "officeType": "B.O",
    "Deliverystatus": "Delivery",
    "divisionname": "Hardoi",
    "regionname": "Bareilly",
    "circlename": "Uttar Pradesh",
    "Taluk": "Harodi",
    "Districtname": "Hardoi",
    "statename": "UTTAR PRADESH"
  },
  {
    "pincode": "241403",
    "officename": "Kuchila B.O",
    "officeType": "B.O",
    "Deliverystatus": "Delivery",
    "divisionname": "Hardoi",
    "regionname": "Bareilly",
    "circlename": "Uttar Pradesh",
    "Taluk": "Harodi",
    "Districtname": "Hardoi",
    "statename": "UTTAR PRADESH"
  },
  {
    "pincode": "241403",
    "officename": "Mansoorpur B.O",
    "officeType": "B.O",
    "Deliverystatus": "Delivery",
    "divisionname": "Hardoi",
    "regionname": "Bareilly",
    "circlename": "Uttar Pradesh",
    "Taluk": "Harodi",
    "Districtname": "Hardoi",
    "statename": "UTTAR PRADESH"
  },
  {
    "pincode": "241403",
    "officename": "Sandi S.O",
    "officeType": "S.O",
    "Deliverystatus": "Delivery",
    "divisionname": "Hardoi",
    "regionname": "Bareilly",
    "circlename": "Uttar Pradesh",
    "Taluk": "Harodi",
    "Districtname": "Hardoi",
    "statename": "UTTAR PRADESH"
  },
  {
    "pincode": "241403",
    "officename": "Sarhiapur B.O",
    "officeType": "B.O",
    "Deliverystatus": "Delivery",
    "divisionname": "Hardoi",
    "regionname": "Bareilly",
    "circlename": "Uttar Pradesh",
    "Taluk": "Harodi",
    "Districtname": "Hardoi",
    "statename": "UTTAR PRADESH"
  },
  {
    "pincode": "241403",
    "officename": "Srimau B.O",
    "officeType": "B.O",
    "Deliverystatus": "Delivery",
    "divisionname": "Hardoi",
    "regionname": "Bareilly",
    "circlename": "Uttar Pradesh",
    "Taluk": "Harodi",
    "Districtname": "Hardoi",
    "statename": "UTTAR PRADESH"
  }
]
