[
  {
    "pincode": "241407",
    "officename": "Abdulla Nagar B.O",
    "officeType": "B.O",
    "Deliverystatus": "Delivery",
    "divisionname": "Hardoi",
    "regionname": "Bareilly",
    "circlename": "Uttar Pradesh",
    "Taluk": "Hardoi",
    "Districtname": "Hardoi",
    "statename": "UTTAR PRADESH"
  },
  {
    "pincode": "241407",
    "officename": "Alam Nagar B.O",
    "officeType": "B.O",
    "Deliverystatus": "Delivery",
    "divisionname": "Hardoi",
    "regionname": "Bareilly",
    "circlename": "Uttar Pradesh",
    "Taluk": "Hardoi",
    "Districtname": "Hardoi",
    "statename": "UTTAR PRADESH"
  },
  {
    "pincode": "241407",
    "officename": "Bandaraha B.O",
    "officeType": "B.O",
    "Deliverystatus": "Delivery",
    "divisionname": "Hardoi",
    "regionname": "Bareilly",
    "circlename": "Uttar Pradesh",
    "Taluk": "Hardoi",
    "Districtname": "Hardoi",
    "statename": "UTTAR PRADESH"
  },
  {
    "pincode": "241407",
    "officename": "Bhogiyapur B.O",
    "officeType": "B.O",
    "Deliverystatus": "Delivery",
    "divisionname": "Hardoi",
    "regionname": "Bareilly",
    "circlename": "Uttar Pradesh",
    "Taluk": "Hardoi",
    "Districtname": "Hardoi",
    "statename": "UTTAR PRADESH"
  },
  {
    "pincode": "241407",
    "officename": "Chaina B.O",
    "officeType": "B.O",
    "Deliverystatus": "Delivery",
    "divisionname": "Hardoi",
    "regionname": "Bareilly",
    "circlename": "Uttar Pradesh",
    "Taluk": "Hardoi",
    "Districtname": "Hardoi",
    "statename": "UTTAR PRADESH"
  },
  {
    "pincode": "241407",
    "officename": "Daheliya Rampur B.O",
    "officeType": "B.O",
    "Deliverystatus": "Delivery",
    "divisionname": "Hardoi",
    "regionname": "Bareilly",
    "circlename": "Uttar Pradesh",
    "Taluk": "Hardoi",
    "Districtname": "Hardoi",
    "statename": "UTTAR PRADESH"
  },
  {
    "pincode": "241407",
    "officename": "Jahani Khera B.O",
    "officeType": "B.O",
    "Deliverystatus": "Delivery",
    "divisionname": "Hardoi",
    "regionname": "Bareilly",
    "circlename": "Uttar Pradesh",
    "Taluk": "Hardoi",
    "Districtname": "Hardoi",
    "statename": "UTTAR PRADESH"
  },
  {
    "pincode": "241407",
    "officename": "Kunwarpur Basith B.O",
    "officeType": "B.O",
    "Deliverystatus": "Delivery",
    "divisionname": "Hardoi",
    "regionname": "Bareilly",
    "circlename": "Uttar Pradesh",
    "Taluk": "Hardoi",
    "Districtname": "Hardoi",
    "statename": "UTTAR PRADESH"
  },
  {
    "pincode": "241407",
    "officename": "Mahmoodpur Saraiya B.O",
    "officeType": "B.O",
    "Deliverystatus": "Delivery",
    "divisionname": "Hardoi",
    "regionname": "Bareilly",
    "circlename": "Uttar Pradesh",
    "Taluk": "Hardoi",
    "Districtname": "Hardoi",
    "statename": "UTTAR PRADESH"
  },
  {
    "pincode": "241407",
    "officename": "Manikapur B.O",
    "officeType": "B.O",
    "Deliverystatus": "Delivery",
    "divisionname": "Hardoi",
    "regionname": "Bareilly",
    "circlename": "Uttar Pradesh",
    "Taluk": "Hardoi",
    "Districtname": "Hardoi",
    "statename": "UTTAR PRADESH"
  },
  {
    "pincode": "241407",
    "officename": "Rabha B.O",
    "officeType": "B.O",
    "Deliverystatus": "Delivery",
    "divisionname": "Hardoi",
    "regionname": "Bareilly",
    "circlename": "Uttar Pradesh",
    "Taluk": "Hardoi",
    "Districtname": "Hardoi",
    "statename": "UTTAR PRADESH"
  },
  {
    "pincode": "241407",
    "officename": "Raingai B.O",
    "officeType": "B.O",
    "Deliverystatus": "Delivery",
    "divisionname": "Hardoi",
    "regionname": "Bareilly",
    "circlename": "Uttar Pradesh",
    "Taluk": "Hardoi",
    "Districtname": "Hardoi",
    "statename": "UTTAR PRADESH"
  },
  {
    "pincode": "241407",
    "officename": "Rasoolpur B.O",
    "officeType": "B.O",
    "Deliverystatus": "Delivery",
    "divisionname": "Hardoi",
    "regionname": "Bareilly",
    "circlename": "Uttar Pradesh",
    "Taluk": "Hardoi",
    "Districtname": "Hardoi",
    "statename": "UTTAR PRADESH"
  },
  {
    "pincode": "241407",
    "officename": "Saadat Nagar S.O",
    "officeType": "S.O",
    "Deliverystatus": "Delivery",
    "divisionname": "Hardoi",
    "regionname": "Bareilly",
    "circlename": "Uttar Pradesh",
    "Taluk": "Hardoi",
    "Districtname": "Hardoi",
    "statename": "UTTAR PRADESH"
  },
  {
    "pincode": "241407",
    "officename": "Sahijana B.O",
    "officeType": "B.O",
    "Deliverystatus": "Delivery",
    "divisionname": "Hardoi",
    "regionname": "Bareilly",
    "circlename": "Uttar Pradesh",
    "Taluk": "Hardoi",
    "Districtname": "Hardoi",
    "statename": "UTTAR PRADESH"
  }
]
