[
  {
    "pincode": "241404",
    "officename": "Bahorwa B.O",
    "officeType": "B.O",
    "Deliverystatus": "Delivery",
    "divisionname": "Hardoi",
    "regionname": "Bareilly",
    "circlename": "Uttar Pradesh",
    "Taluk": "Hardoi",
    "Districtname": "Hardoi",
    "statename": "UTTAR PRADESH"
  },
  {
    "pincode": "241404",
    "officename": "Bhainsari B.O",
    "officeType": "B.O",
    "Deliverystatus": "Delivery",
    "divisionname": "Hardoi",
    "regionname": "Bareilly",
    "circlename": "Uttar Pradesh",
    "Taluk": "Hardoi",
    "Districtname": "Hardoi",
    "statename": "UTTAR PRADESH"
  },
  {
    "pincode": "241404",
    "officename": "Deoria B.O",
    "officeType": "B.O",
    "Deliverystatus": "Delivery",
    "divisionname": "Hardoi",
    "regionname": "Bareilly",
    "circlename": "Uttar Pradesh",
    "Taluk": "Hardoi",
    "Districtname": "Hardoi",
    "statename": "UTTAR PRADESH"
  },
  {
    "pincode": "241404",
    "officename": "Gopamau S.O",
    "officeType": "S.O",
    "Deliverystatus": "Delivery",
    "divisionname": "Hardoi",
    "regionname": "Bareilly",
    "circlename": "Uttar Pradesh",
    "Taluk": "Hardoi",
    "Districtname": "Hardoi",
    "statename": "UTTAR PRADESH"
  },
  {
    "pincode": "241404",
    "officename": "Hariharpur B.O",
    "officeType": "B.O",
    "Deliverystatus": "Delivery",
    "divisionname": "Hardoi",
    "regionname": "Bareilly",
    "circlename": "Uttar Pradesh",
    "Taluk": "Hardoi",
    "Districtname": "Hardoi",
    "statename": "UTTAR PRADESH"
  },
  {
    "pincode": "241404",
    "officename": "Harrai B.O",
    "officeType": "B.O",
    "Deliverystatus": "Delivery",
    "divisionname": "Hardoi",
    "regionname": "Bareilly",
    "circlename": "Uttar Pradesh",
    "Taluk": "Hardoi",
    "Districtname": "Hardoi",
    "statename": "UTTAR PRADESH"
  },
  {
    "pincode": "241404",
    "officename": "Lilwal B.O",
    "officeType": "B.O",
    "Deliverystatus": "Delivery",
    "divisionname": "Hardoi",
    "regionname": "Bareilly",
    "circlename": "Uttar Pradesh",
    "Taluk": "Hardoi",
    "Districtname": "Hardoi",
    "statename": "UTTAR PRADESH"
  },
  {
    "pincode": "241404",
    "officename": "Sadila B.O",
    "officeType": "B.O",
    "Deliverystatus": "Delivery",
    "divisionname": "Hardoi",
    "regionname": "Bareilly",
    "circlename": "Uttar Pradesh",
    "Taluk": "Hardoi",
    "Districtname": "Hardoi",
    "statename": "UTTAR PRADESH"
  },
  {
    "pincode": "241404",
    "officename": "Tadiyawan B.O",
    "officeType": "B.O",
    "Deliverystatus": "Delivery",
    "divisionname": "Hardoi",
    "regionname": "Bareilly",
    "circlename": "Uttar Pradesh",
    "Taluk": "Hardoi",
    "Districtname": "Hardoi",
    "statename": "UTTAR PRADESH"
  },
  {
    "pincode": "241404",
    "officename": "Teni B.O",
    "officeType": "B.O",
    "Deliverystatus": "Delivery",
    "divisionname": "Hardoi",
    "regionname": "Bareilly",
    "circlename": "Uttar Pradesh",
    "Taluk": "Hardoi",
    "Districtname": "Hardoi",
    "statename": "UTTAR PRADESH"
  },
  {
    "pincode": "241404",
    "officename": "Thamarawa B.O",
    "officeType": "B.O",
    "Deliverystatus": "Delivery",
    "divisionname": "Hardoi",
    "regionname": "Bareilly",
    "circlename": "Uttar Pradesh",
    "Taluk": "Hardoi",
    "Districtname": "Hardoi",
    "statename": "UTTAR PRADESH"
  }
]
