[
  {
    "pincode": "242042",
    "officename": "Azmatpur B.O",
    "officeType": "B.O",
    "Deliverystatus": "Delivery",
    "divisionname": "Shahjahanpur",
    "regionname": "Bareilly",
    "circlename": "Uttar Pradesh",
    "Taluk": "Powayan",
    "Districtname": "Shahjahanpur",
    "statename": "UTTAR PRADESH"
  },
  {
    "pincode": "242042",
    "officename": "Banda S.O (Shahjahanpur)",
    "officeType": "S.O",
    "Deliverystatus": "Delivery",
    "divisionname": "Shahjahanpur",
    "regionname": "Bareilly",
    "circlename": "Uttar Pradesh",
    "Taluk": "Powayan",
    "Districtname": "Shahjahanpur",
    "statename": "UTTAR PRADESH"
  },
  {
    "pincode": "242042",
    "officename": "Bhambi B.O",
    "officeType": "B.O",
    "Deliverystatus": "Delivery",
    "divisionname": "Shahjahanpur",
    "regionname": "Bareilly",
    "circlename": "Uttar Pradesh",
    "Taluk": "Powayan",
    "Districtname": "Shahjahanpur",
    "statename": "UTTAR PRADESH"
  },
  {
    "pincode": "242042",
    "officename": "D Ghanshyam B.O",
    "officeType": "B.O",
    "Deliverystatus": "Delivery",
    "divisionname": "Shahjahanpur",
    "regionname": "Bareilly",
    "circlename": "Uttar Pradesh",
    "Taluk": "Powayan",
    "Districtname": "Shahjahanpur",
    "statename": "UTTAR PRADESH"
  },
  {
    "pincode": "242042",
    "officename": "D P J Pur B.O",
    "officeType": "B.O",
    "Deliverystatus": "Delivery",
    "divisionname": "Shahjahanpur",
    "regionname": "Bareilly",
    "circlename": "Uttar Pradesh",
    "Taluk": "Powayan",
    "Districtname": "Shahjahanpur",
    "statename": "UTTAR PRADESH"
  },
  {
    "pincode": "242042",
    "officename": "Devkali B.O",
    "officeType": "B.O",
    "Deliverystatus": "Delivery",
    "divisionname": "Shahjahanpur",
    "regionname": "Bareilly",
    "circlename": "Uttar Pradesh",
    "Taluk": "Powayan",
    "Districtname": "Shahjahanpur",
    "statename": "UTTAR PRADESH"
  },
  {
    "pincode": "242042",
    "officename": "Dudwa B.O",
    "officeType": "B.O",
    "Deliverystatus": "Delivery",
    "divisionname": "Shahjahanpur",
    "regionname": "Bareilly",
    "circlename": "Uttar Pradesh",
    "Taluk": "Powayan",
    "Districtname": "Shahjahanpur",
    "statename": "UTTAR PRADESH"
  },
  {
    "pincode": "242042",
    "officename": "Gularia B Singh B.O",
    "officeType": "B.O",
    "Deliverystatus": "Delivery",
    "divisionname": "Shahjahanpur",
    "regionname": "Bareilly",
    "circlename": "Uttar Pradesh",
    "Taluk": "Powayan",
    "Districtname": "Shahjahanpur",
    "statename": "UTTAR PRADESH"
  },
  {
    "pincode": "242042",
    "officename": "Jitauria B.O",
    "officeType": "B.O",
    "Deliverystatus": "Delivery",
    "divisionname": "Shahjahanpur",
    "regionname": "Bareilly",
    "circlename": "Uttar Pradesh",
    "Taluk": "Powayan",
    "Districtname": "Shahjahanpur",
    "statename": "UTTAR PRADESH"
  },
  {
    "pincode": "242042",
    "officename": "Mohiuddinpur B.O",
    "officeType": "B.O",
    "Deliverystatus": "Delivery",
    "divisionname": "Shahjahanpur",
    "regionname": "Bareilly",
    "circlename": "Uttar Pradesh",
    "Taluk": "Powayan",
    "Districtname": "Shahjahanpur",
    "statename": "UTTAR PRADESH"
  },
  {
    "pincode": "242042",
    "officename": "Nabhichi B.O",
    "officeType": "B.O",
    "Deliverystatus": "Delivery",
    "divisionname": "Shahjahanpur",
    "regionname": "Bareilly",
    "circlename": "Uttar Pradesh",
    "Taluk": "Powayan",
    "Districtname": "Shahjahanpur",
    "statename": "UTTAR PRADESH"
  },
  {
    "pincode": "242042",
    "officename": "Nawadabanki B.O",
    "officeType": "B.O",
    "Deliverystatus": "Delivery",
    "divisionname": "Shahjahanpur",
    "regionname": "Bareilly",
    "circlename": "Uttar Pradesh",
    "Taluk": "Powayan",
    "Districtname": "Shahjahanpur",
    "statename": "UTTAR PRADESH"
  },
  {
    "pincode": "242042",
    "officename": "Ranmastpur B.O",
    "officeType": "B.O",
    "Deliverystatus": "Delivery",
    "divisionname": "Shahjahanpur",
    "regionname": "Bareilly",
    "circlename": "Uttar Pradesh",
    "Taluk": "Powayan",
    "Districtname": "Shahjahanpur",
    "statename": "UTTAR PRADESH"
  },
  {
    "pincode": "242042",
    "officename": "Rarua B.O",
    "officeType": "B.O",
    "Deliverystatus": "Delivery",
    "divisionname": "Shahjahanpur",
    "regionname": "Bareilly",
    "circlename": "Uttar Pradesh",
    "Taluk": "Powayan",
    "Districtname": "Shahjahanpur",
    "statename": "UTTAR PRADESH"
  },
  {
    "pincode": "242042",
    "officename": "Tindua Nagaria B.O",
    "officeType": "B.O",
    "Deliverystatus": "Delivery",
    "divisionname": "Shahjahanpur",
    "regionname": "Bareilly",
    "circlename": "Uttar Pradesh",
    "Taluk": "Powayan",
    "Districtname": "Shahjahanpur",
    "statename": "UTTAR PRADESH"
  }
]
