[
  {
    "pincode": "242001",
    "officename": "A C Factory S.O",
    "officeType": "S.O",
    "Deliverystatus": "Non-Delivery",
    "divisionname": "Shahjahanpur",
    "regionname": "Bareilly",
    "circlename": "Uttar Pradesh",
    "Taluk": "Shahjahanpur",
    "Districtname": "Shahjahanpur",
    "statename": "UTTAR PRADESH"
  },
  {
    "pincode": "242001",
    "officename": "Bahaduganj S.O",
    "officeType": "S.O",
    "Deliverystatus": "Non-Delivery",
    "divisionname": "Shahjahanpur",
    "regionname": "Bareilly",
    "circlename": "Uttar Pradesh",
    "Taluk": "Shahjahanpur",
    "Districtname": "Shahjahanpur",
    "statename": "UTTAR PRADESH"
  },
  {
    "pincode": "242001",
    "officename": "Banuzai S.O",
    "officeType": "S.O",
    "Deliverystatus": "Non-Delivery",
    "divisionname": "Shahjahanpur",
    "regionname": "Bareilly",
    "circlename": "Uttar Pradesh",
    "Taluk": "Shahjahanpur",
    "Districtname": "Shahjahanpur",
    "statename": "UTTAR PRADESH"
  },
  {
    "pincode": "242001",
    "officename": "Basulia B.O",
    "officeType": "B.O",
    "Deliverystatus": "Delivery",
    "divisionname": "Shahjahanpur",
    "regionname": "Bareilly",
    "circlename": "Uttar Pradesh",
    "Taluk": "Sadar",
    "Districtname": "Shahjahanpur",
    "statename": "UTTAR PRADESH"
  },
  {
    "pincode": "242001",
    "officename": "Chak Kanahu B.O",
    "officeType": "B.O",
    "Deliverystatus": "Delivery",
    "divisionname": "Shahjahanpur",
    "regionname": "Bareilly",
    "circlename": "Uttar Pradesh",
    "Taluk": "Sadar",
    "Districtname": "Shahjahanpur",
    "statename": "UTTAR PRADESH"
  },
  {
    "pincode": "242001",
    "officename": "Chankhanbayi S.O",
    "officeType": "S.O",
    "Deliverystatus": "Non-Delivery",
    "divisionname": "Shahjahanpur",
    "regionname": "Bareilly",
    "circlename": "Uttar Pradesh",
    "Taluk": "shahjahanpur",
    "Districtname": "Shahjahanpur",
    "statename": "UTTAR PRADESH"
  },
  {
    "pincode": "242001",
    "officename": "Conewganj S.O",
    "officeType": "S.O",
    "Deliverystatus": "Non-Delivery",
    "divisionname": "Shahjahanpur",
    "regionname": "Bareilly",
    "circlename": "Uttar Pradesh",
    "Taluk": "Shahjahanpur",
    "Districtname": "Shahjahanpur",
    "statename": "UTTAR PRADESH"
  },
  {
    "pincode": "242001",
    "officename": "Garrah Road S.O",
    "officeType": "S.O",
    "Deliverystatus": "Non-Delivery",
    "divisionname": "Shahjahanpur",
    "regionname": "Bareilly",
    "circlename": "Uttar Pradesh",
    "Taluk": "Shahjahanpur",
    "Districtname": "Shahjahanpur",
    "statename": "UTTAR PRADESH"
  },
  {
    "pincode": "242001",
    "officename": "Ghusgawan B.O",
    "officeType": "B.O",
    "Deliverystatus": "Delivery",
    "divisionname": "Shahjahanpur",
    "regionname": "Bareilly",
    "circlename": "Uttar Pradesh",
    "Taluk": "Sadar",
    "Districtname": "Shahjahanpur",
    "statename": "UTTAR PRADESH"
  },
  {
    "pincode": "242001",
    "officename": "Gora Raipur B.O",
    "officeType": "B.O",
    "Deliverystatus": "Delivery",
    "divisionname": "Shahjahanpur",
    "regionname": "Bareilly",
    "circlename": "Uttar Pradesh",
    "Taluk": "Sadar",
    "Districtname": "Shahjahanpur",
    "statename": "UTTAR PRADESH"
  },
  {
    "pincode": "242001",
    "officename": "H Road S.O",
    "officeType": "S.O",
    "Deliverystatus": "Non-Delivery",
    "divisionname": "Shahjahanpur",
    "regionname": "Bareilly",
    "circlename": "Uttar Pradesh",
    "Taluk": "Shahjahanpur",
    "Districtname": "Shahjahanpur",
    "statename": "UTTAR PRADESH"
  },
  {
    "pincode": "242001",
    "officename": "Hadaf B.O",
    "officeType": "B.O",
    "Deliverystatus": "Delivery",
    "divisionname": "Shahjahanpur",
    "regionname": "Bareilly",
    "circlename": "Uttar Pradesh",
    "Taluk": "Shahjahanpur",
    "Districtname": "Shahjahanpur",
    "statename": "UTTAR PRADESH"
  },
  {
    "pincode": "242001",
    "officename": "Jajal Nagar S.O",
    "officeType": "S.O",
    "Deliverystatus": "Non-Delivery",
    "divisionname": "Shahjahanpur",
    "regionname": "Bareilly",
    "circlename": "Uttar Pradesh",
    "Taluk": "Shahjahanpur",
    "Districtname": "Shahjahanpur",
    "statename": "UTTAR PRADESH"
  },
  {
    "pincode": "242001",
    "officename": "Keeeratpur B.O",
    "officeType": "B.O",
    "Deliverystatus": "Delivery",
    "divisionname": "Shahjahanpur",
    "regionname": "Bareilly",
    "circlename": "Uttar Pradesh",
    "Taluk": "Sadar",
    "Districtname": "Shahjahanpur",
    "statename": "UTTAR PRADESH"
  },
  {
    "pincode": "242001",
    "officename": "Khiria Rasoolpur B.O",
    "officeType": "B.O",
    "Deliverystatus": "Delivery",
    "divisionname": "Shahjahanpur",
    "regionname": "Bareilly",
    "circlename": "Uttar Pradesh",
    "Taluk": "Sadar",
    "Districtname": "Shahjahanpur",
    "statename": "UTTAR PRADESH"
  },
  {
    "pincode": "242001",
    "officename": "Krishnanagar S.O",
    "officeType": "S.O",
    "Deliverystatus": "Non-Delivery",
    "divisionname": "Shahjahanpur",
    "regionname": "Bareilly",
    "circlename": "Uttar Pradesh",
    "Taluk": "Shahjahanpur",
    "Districtname": "Shahjahanpur",
    "statename": "UTTAR PRADESH"
  },
  {
    "pincode": "242001",
    "officename": "Mahasir B.O",
    "officeType": "B.O",
    "Deliverystatus": "Delivery",
    "divisionname": "Shahjahanpur",
    "regionname": "Bareilly",
    "circlename": "Uttar Pradesh",
    "Taluk": "Sadar",
    "Districtname": "Shahjahanpur",
    "statename": "UTTAR PRADESH"
  },
  {
    "pincode": "242001",
    "officename": "Mohanganj S.O",
    "officeType": "S.O",
    "Deliverystatus": "Non-Delivery",
    "divisionname": "Shahjahanpur",
    "regionname": "Bareilly",
    "circlename": "Uttar Pradesh",
    "Taluk": "Shahjahanpur",
    "Districtname": "Shahjahanpur",
    "statename": "UTTAR PRADESH"
  },
  {
    "pincode": "242001",
    "officename": "Mudia Pamar B.O",
    "officeType": "B.O",
    "Deliverystatus": "Delivery",
    "divisionname": "Shahjahanpur",
    "regionname": "Bareilly",
    "circlename": "Uttar Pradesh",
    "Taluk": "Sadar",
    "Districtname": "Shahjahanpur",
    "statename": "UTTAR PRADESH"
  },
  {
    "pincode": "242001",
    "officename": "Murchha B.O",
    "officeType": "B.O",
    "Deliverystatus": "Delivery",
    "divisionname": "Shahjahanpur",
    "regionname": "Bareilly",
    "circlename": "Uttar Pradesh",
    "Taluk": "Sadar",
    "Districtname": "Shahjahanpur",
    "statename": "UTTAR PRADESH"
  },
  {
    "pincode": "242001",
    "officename": "Niyamatpur B.O",
    "officeType": "B.O",
    "Deliverystatus": "Delivery",
    "divisionname": "Shahjahanpur",
    "regionname": "Bareilly",
    "circlename": "Uttar Pradesh",
    "Taluk": "Sadar",
    "Districtname": "Shahjahanpur",
    "statename": "UTTAR PRADESH"
  },
  {
    "pincode": "242001",
    "officename": "Paina Buzurg B.O",
    "officeType": "B.O",
    "Deliverystatus": "Delivery",
    "divisionname": "Shahjahanpur",
    "regionname": "Bareilly",
    "circlename": "Uttar Pradesh",
    "Taluk": "Sadar",
    "Districtname": "Shahjahanpur",
    "statename": "UTTAR PRADESH"
  },
  {
    "pincode": "242001",
    "officename": "Pingri Pingra B.O",
    "officeType": "B.O",
    "Deliverystatus": "Delivery",
    "divisionname": "Shahjahanpur",
    "regionname": "Bareilly",
    "circlename": "Uttar Pradesh",
    "Taluk": "Sadar",
    "Districtname": "Shahjahanpur",
    "statename": "UTTAR PRADESH"
  },
  {
    "pincode": "242001",
    "officename": "Sadan Bazar S.O",
    "officeType": "S.O",
    "Deliverystatus": "Non-Delivery",
    "divisionname": "Shahjahanpur",
    "regionname": "Bareilly",
    "circlename": "Uttar Pradesh",
    "Taluk": "Shahjahanpur",
    "Districtname": "Shahjahanpur",
    "statename": "UTTAR PRADESH"
  },
  {
    "pincode": "242001",
    "officename": "Shahbaznagar B.O",
    "officeType": "B.O",
    "Deliverystatus": "Delivery",
    "divisionname": "Shahjahanpur",
    "regionname": "Bareilly",
    "circlename": "Uttar Pradesh",
    "Taluk": "Sadar",
    "Districtname": "Shahjahanpur",
    "statename": "UTTAR PRADESH"
  },
  {
    "pincode": "242001",
    "officename": "Shahjahanpur Chawk S.O",
    "officeType": "S.O",
    "Deliverystatus": "Non-Delivery",
    "divisionname": "Shahjahanpur",
    "regionname": "Bareilly",
    "circlename": "Uttar Pradesh",
    "Taluk": "Shahjahanpur",
    "Districtname": "Shahjahanpur",
    "statename": "UTTAR PRADESH"
  },
  {
    "pincode": "242001",
    "officename": "Shahjahanpur City S.O",
    "officeType": "S.O",
    "Deliverystatus": "Non-Delivery",
    "divisionname": "Shahjahanpur",
    "regionname": "Bareilly",
    "circlename": "Uttar Pradesh",
    "Taluk": "Shahjahanpur",
    "Districtname": "Shahjahanpur",
    "statename": "UTTAR PRADESH"
  },
  {
    "pincode": "242001",
    "officename": "Shahjahanpur H.O",
    "officeType": "H.O",
    "Deliverystatus": "Delivery",
    "divisionname": "Shahjahanpur",
    "regionname": "Bareilly",
    "circlename": "Uttar Pradesh",
    "Taluk": "Shahjahanpur",
    "Districtname": "Shahjahanpur",
    "statename": "UTTAR PRADESH"
  },
  {
    "pincode": "242001",
    "officename": "Shahjahanpur Kutchery S.O",
    "officeType": "S.O",
    "Deliverystatus": "Non-Delivery",
    "divisionname": "Shahjahanpur",
    "regionname": "Bareilly",
    "circlename": "Uttar Pradesh",
    "Taluk": "Shahjahanpur",
    "Districtname": "Shahjahanpur",
    "statename": "UTTAR PRADESH"
  },
  {
    "pincode": "242001",
    "officename": "Shahjahanpur R S S.O",
    "officeType": "S.O",
    "Deliverystatus": "Non-Delivery",
    "divisionname": "Shahjahanpur",
    "regionname": "Bareilly",
    "circlename": "Uttar Pradesh",
    "Taluk": "Shahjahanpur",
    "Districtname": "Shahjahanpur",
    "statename": "UTTAR PRADESH"
  },
  {
    "pincode": "242001",
    "officename": "Sindhauli B.O",
    "officeType": "B.O",
    "Deliverystatus": "Delivery",
    "divisionname": "Shahjahanpur",
    "regionname": "Bareilly",
    "circlename": "Uttar Pradesh",
    "Taluk": "Sadar",
    "Districtname": "Shahjahanpur",
    "statename": "UTTAR PRADESH"
  },
  {
    "pincode": "242001",
    "officename": "Tera B.O",
    "officeType": "B.O",
    "Deliverystatus": "Delivery",
    "divisionname": "Shahjahanpur",
    "regionname": "Bareilly",
    "circlename": "Uttar Pradesh",
    "Taluk": "Sadar",
    "Districtname": "Shahjahanpur",
    "statename": "UTTAR PRADESH"
  },
  {
    "pincode": "242001",
    "officename": "Tikri B.O",
    "officeType": "B.O",
    "Deliverystatus": "Delivery",
    "divisionname": "Shahjahanpur",
    "regionname": "Bareilly",
    "circlename": "Uttar Pradesh",
    "Taluk": "Sadar",
    "Districtname": "Shahjahanpur",
    "statename": "UTTAR PRADESH"
  }
]
