[
  {
    "pincode": "242123",
    "officename": "Chandpur B.O",
    "officeType": "B.O",
    "Deliverystatus": "Delivery",
    "divisionname": "Shahjahanpur",
    "regionname": "Bareilly",
    "circlename": "Uttar Pradesh",
    "Taluk": "Powayan",
    "Districtname": "Shahjahanpur",
    "statename": "UTTAR PRADESH"
  },
  {
    "pincode": "242123",
    "officename": "Goradhanenega B.O",
    "officeType": "B.O",
    "Deliverystatus": "Delivery",
    "divisionname": "Shahjahanpur",
    "regionname": "Bareilly",
    "circlename": "Uttar Pradesh",
    "Taluk": "Powayan",
    "Districtname": "Shahjahanpur",
    "statename": "UTTAR PRADESH"
  },
  {
    "pincode": "242123",
    "officename": "Haripur B.O",
    "officeType": "B.O",
    "Deliverystatus": "Delivery",
    "divisionname": "Shahjahanpur",
    "regionname": "Bareilly",
    "circlename": "Uttar Pradesh",
    "Taluk": "Powayan",
    "Districtname": "Shahjahanpur",
    "statename": "UTTAR PRADESH"
  },
  {
    "pincode": "242123",
    "officename": "Jograjpur S.O",
    "officeType": "S.O",
    "Deliverystatus": "Delivery",
    "divisionname": "Shahjahanpur",
    "regionname": "Bareilly",
    "circlename": "Uttar Pradesh",
    "Taluk": "Powayan",
    "Districtname": "Shahjahanpur",
    "statename": "UTTAR PRADESH"
  },
  {
    "pincode": "242123",
    "officename": "Mahuagundey B.O",
    "officeType": "B.O",
    "Deliverystatus": "Delivery",
    "divisionname": "Shahjahanpur",
    "regionname": "Bareilly",
    "circlename": "Uttar Pradesh",
    "Taluk": "Powayan",
    "Districtname": "Shahjahanpur",
    "statename": "UTTAR PRADESH"
  },
  {
    "pincode": "242123",
    "officename": "Seramau (North) B.O",
    "officeType": "B.O",
    "Deliverystatus": "Delivery",
    "divisionname": "Shahjahanpur",
    "regionname": "Bareilly",
    "circlename": "Uttar Pradesh",
    "Taluk": "Powayan",
    "Districtname": "Shahjahanpur",
    "statename": "UTTAR PRADESH"
  },
  {
    "pincode": "242123",
    "officename": "Sondha B.O",
    "officeType": "B.O",
    "Deliverystatus": "Delivery",
    "divisionname": "Shahjahanpur",
    "regionname": "Bareilly",
    "circlename": "Uttar Pradesh",
    "Taluk": "Powayan",
    "Districtname": "Shahjahanpur",
    "statename": "UTTAR PRADESH"
  },
  {
    "pincode": "242123",
    "officename": "Sultanpur B.O",
    "officeType": "B.O",
    "Deliverystatus": "Delivery",
    "divisionname": "Shahjahanpur",
    "regionname": "Bareilly",
    "circlename": "Uttar Pradesh",
    "Taluk": "Powayan",
    "Districtname": "Shahjahanpur",
    "statename": "UTTAR PRADESH"
  },
  {
    "pincode": "242123",
    "officename": "Tulapua B.O",
    "officeType": "B.O",
    "Deliverystatus": "Delivery",
    "divisionname": "Shahjahanpur",
    "regionname": "Bareilly",
    "circlename": "Uttar Pradesh",
    "Taluk": "Powayan",
    "Districtname": "Shahjahanpur",
    "statename": "UTTAR PRADESH"
  }
]
