[
  {
    "pincode": "242127",
    "officename": "Astoli B.O",
    "officeType": "B.O",
    "Deliverystatus": "Delivery",
    "divisionname": "Shahjahanpur",
    "regionname": "Bareilly",
    "circlename": "Uttar Pradesh",
    "Taluk": "Jalalabad",
    "Districtname": "Shahjahanpur",
    "statename": "UTTAR PRADESH"
  },
  {
    "pincode": "242127",
    "officename": "Bamhora B.O",
    "officeType": "B.O",
    "Deliverystatus": "Delivery",
    "divisionname": "Shahjahanpur",
    "regionname": "Bareilly",
    "circlename": "Uttar Pradesh",
    "Taluk": "Jalalabad",
    "Districtname": "Shahjahanpur",
    "statename": "UTTAR PRADESH"
  },
  {
    "pincode": "242127",
    "officename": "Barakalan B.O",
    "officeType": "B.O",
    "Deliverystatus": "Delivery",
    "divisionname": "Shahjahanpur",
    "regionname": "Bareilly",
    "circlename": "Uttar Pradesh",
    "Taluk": "Jalalabad",
    "Districtname": "Shahjahanpur",
    "statename": "UTTAR PRADESH"
  },
  {
    "pincode": "242127",
    "officename": "Behta Jangal B.O",
    "officeType": "B.O",
    "Deliverystatus": "Delivery",
    "divisionname": "Shahjahanpur",
    "regionname": "Bareilly",
    "circlename": "Uttar Pradesh",
    "Taluk": "Jalalabad",
    "Districtname": "Shahjahanpur",
    "statename": "UTTAR PRADESH"
  },
  {
    "pincode": "242127",
    "officename": "Bhundeli B.O",
    "officeType": "B.O",
    "Deliverystatus": "Delivery",
    "divisionname": "Shahjahanpur",
    "regionname": "Bareilly",
    "circlename": "Uttar Pradesh",
    "Taluk": "Jalalabad",
    "Districtname": "Shahjahanpur",
    "statename": "UTTAR PRADESH"
  },
  {
    "pincode": "242127",
    "officename": "Bikrampur B.O",
    "officeType": "B.O",
    "Deliverystatus": "Delivery",
    "divisionname": "Shahjahanpur",
    "regionname": "Bareilly",
    "circlename": "Uttar Pradesh",
    "Taluk": "Jalalabad",
    "Districtname": "Shahjahanpur",
    "statename": "UTTAR PRADESH"
  },
  {
    "pincode": "242127",
    "officename": "Chaurabagerkhet B.O",
    "officeType": "B.O",
    "Deliverystatus": "Delivery",
    "divisionname": "Shahjahanpur",
    "regionname": "Bareilly",
    "circlename": "Uttar Pradesh",
    "Taluk": "Jalalabad",
    "Districtname": "Shahjahanpur",
    "statename": "UTTAR PRADESH"
  },
  {
    "pincode": "242127",
    "officename": "Dahelia B.O",
    "officeType": "B.O",
    "Deliverystatus": "Delivery",
    "divisionname": "Shahjahanpur",
    "regionname": "Bareilly",
    "circlename": "Uttar Pradesh",
    "Taluk": "Jalalabad",
    "Districtname": "Shahjahanpur",
    "statename": "UTTAR PRADESH"
  },
  {
    "pincode": "242127",
    "officename": "Dasia B.O",
    "officeType": "B.O",
    "Deliverystatus": "Delivery",
    "divisionname": "Shahjahanpur",
    "regionname": "Bareilly",
    "circlename": "Uttar Pradesh",
    "Taluk": "Jalalabad",
    "Districtname": "Shahjahanpur",
    "statename": "UTTAR PRADESH"
  },
  {
    "pincode": "242127",
    "officename": "Gundaura Daudpur B.O",
    "officeType": "B.O",
    "Deliverystatus": "Delivery",
    "divisionname": "Shahjahanpur",
    "regionname": "Bareilly",
    "circlename": "Uttar Pradesh",
    "Taluk": "Jalalabad",
    "Districtname": "Shahjahanpur",
    "statename": "UTTAR PRADESH"
  },
  {
    "pincode": "242127",
    "officename": "Jakhia B.O",
    "officeType": "B.O",
    "Deliverystatus": "Delivery",
    "divisionname": "Shahjahanpur",
    "regionname": "Bareilly",
    "circlename": "Uttar Pradesh",
    "Taluk": "Jalalabad",
    "Districtname": "Shahjahanpur",
    "statename": "UTTAR PRADESH"
  },
  {
    "pincode": "242127",
    "officename": "Khajuri B.O",
    "officeType": "B.O",
    "Deliverystatus": "Delivery",
    "divisionname": "Shahjahanpur",
    "regionname": "Bareilly",
    "circlename": "Uttar Pradesh",
    "Taluk": "Jalalabad",
    "Districtname": "Shahjahanpur",
    "statename": "UTTAR PRADESH"
  },
  {
    "pincode": "242127",
    "officename": "Kilapur B.O",
    "officeType": "B.O",
    "Deliverystatus": "Delivery",
    "divisionname": "Shahjahanpur",
    "regionname": "Bareilly",
    "circlename": "Uttar Pradesh",
    "Taluk": "Jalalabad",
    "Districtname": "Shahjahanpur",
    "statename": "UTTAR PRADESH"
  },
  {
    "pincode": "242127",
    "officename": "Kundaria B.O",
    "officeType": "B.O",
    "Deliverystatus": "Delivery",
    "divisionname": "Shahjahanpur",
    "regionname": "Bareilly",
    "circlename": "Uttar Pradesh",
    "Taluk": "Jalalabad",
    "Districtname": "Shahjahanpur",
    "statename": "UTTAR PRADESH"
  },
  {
    "pincode": "242127",
    "officename": "Kunderi B.O",
    "officeType": "B.O",
    "Deliverystatus": "Delivery",
    "divisionname": "Shahjahanpur",
    "regionname": "Bareilly",
    "circlename": "Uttar Pradesh",
    "Taluk": "Jalalabad",
    "Districtname": "Shahjahanpur",
    "statename": "UTTAR PRADESH"
  },
  {
    "pincode": "242127",
    "officename": "Laxmanpur B.O",
    "officeType": "B.O",
    "Deliverystatus": "Delivery",
    "divisionname": "Shahjahanpur",
    "regionname": "Bareilly",
    "circlename": "Uttar Pradesh",
    "Taluk": "Jalalabad",
    "Districtname": "Shahjahanpur",
    "statename": "UTTAR PRADESH"
  },
  {
    "pincode": "242127",
    "officename": "Mai Khurd Kalan B.O",
    "officeType": "B.O",
    "Deliverystatus": "Delivery",
    "divisionname": "Shahjahanpur",
    "regionname": "Bareilly",
    "circlename": "Uttar Pradesh",
    "Taluk": "Jalalabad",
    "Districtname": "Shahjahanpur",
    "statename": "UTTAR PRADESH"
  },
  {
    "pincode": "242127",
    "officename": "Pach Deoria B.O",
    "officeType": "B.O",
    "Deliverystatus": "Delivery",
    "divisionname": "Shahjahanpur",
    "regionname": "Bareilly",
    "circlename": "Uttar Pradesh",
    "Taluk": "Jalalabad",
    "Districtname": "Shahjahanpur",
    "statename": "UTTAR PRADESH"
  },
  {
    "pincode": "242127",
    "officename": "Paraur B.O",
    "officeType": "B.O",
    "Deliverystatus": "Delivery",
    "divisionname": "Shahjahanpur",
    "regionname": "Bareilly",
    "circlename": "Uttar Pradesh",
    "Taluk": "Jalalabad",
    "Districtname": "Shahjahanpur",
    "statename": "UTTAR PRADESH"
  },
  {
    "pincode": "242127",
    "officename": "Parthipur Kuverpur B.O",
    "officeType": "B.O",
    "Deliverystatus": "Delivery",
    "divisionname": "Shahjahanpur",
    "regionname": "Bareilly",
    "circlename": "Uttar Pradesh",
    "Taluk": "Jalalabad",
    "Districtname": "Shahjahanpur",
    "statename": "UTTAR PRADESH"
  },
  {
    "pincode": "242127",
    "officename": "Patna Devkali B.O",
    "officeType": "B.O",
    "Deliverystatus": "Delivery",
    "divisionname": "Shahjahanpur",
    "regionname": "Bareilly",
    "circlename": "Uttar Pradesh",
    "Taluk": "Jalalabad",
    "Districtname": "Shahjahanpur",
    "statename": "UTTAR PRADESH"
  },
  {
    "pincode": "242127",
    "officename": "Pilhua B.O",
    "officeType": "B.O",
    "Deliverystatus": "Delivery",
    "divisionname": "Shahjahanpur",
    "regionname": "Bareilly",
    "circlename": "Uttar Pradesh",
    "Taluk": "Jalalabad",
    "Districtname": "Shahjahanpur",
    "statename": "UTTAR PRADESH"
  },
  {
    "pincode": "242127",
    "officename": "R B Kalan S.O",
    "officeType": "S.O",
    "Deliverystatus": "Delivery",
    "divisionname": "Shahjahanpur",
    "regionname": "Bareilly",
    "circlename": "Uttar Pradesh",
    "Taluk": "Jalalabad",
    "Districtname": "Shahjahanpur",
    "statename": "UTTAR PRADESH"
  },
  {
    "pincode": "242127",
    "officename": "Usmanpur Sarfra B.O",
    "officeType": "B.O",
    "Deliverystatus": "Delivery",
    "divisionname": "Shahjahanpur",
    "regionname": "Bareilly",
    "circlename": "Uttar Pradesh",
    "Taluk": "Jalalabad",
    "Districtname": "Shahjahanpur",
    "statename": "UTTAR PRADESH"
  }
]
