[
  {
    "pincode": "242401",
    "officename": "Agonasujanpur B.O",
    "officeType": "B.O",
    "Deliverystatus": "Delivery",
    "divisionname": "Shahjahanpur",
    "regionname": "Bareilly",
    "circlename": "Uttar Pradesh",
    "Taluk": "Powayan",
    "Districtname": "Shahjahanpur",
    "statename": "UTTAR PRADESH"
  },
  {
    "pincode": "242401",
    "officename": "Anawa B.O",
    "officeType": "B.O",
    "Deliverystatus": "Delivery",
    "divisionname": "Shahjahanpur",
    "regionname": "Bareilly",
    "circlename": "Uttar Pradesh",
    "Taluk": "Powayan",
    "Districtname": "Shahjahanpur",
    "statename": "UTTAR PRADESH"
  },
  {
    "pincode": "242401",
    "officename": "Ayun B.O",
    "officeType": "B.O",
    "Deliverystatus": "Delivery",
    "divisionname": "Shahjahanpur",
    "regionname": "Bareilly",
    "circlename": "Uttar Pradesh",
    "Taluk": "Powayan",
    "Districtname": "Shahjahanpur",
    "statename": "UTTAR PRADESH"
  },
  {
    "pincode": "242401",
    "officename": "Baragaon B.O",
    "officeType": "B.O",
    "Deliverystatus": "Delivery",
    "divisionname": "Shahjahanpur",
    "regionname": "Bareilly",
    "circlename": "Uttar Pradesh",
    "Taluk": "Powayan",
    "Districtname": "Shahjahanpur",
    "statename": "UTTAR PRADESH"
  },
  {
    "pincode": "242401",
    "officename": "Behtasambad B.O",
    "officeType": "B.O",
    "Deliverystatus": "Delivery",
    "divisionname": "Shahjahanpur",
    "regionname": "Bareilly",
    "circlename": "Uttar Pradesh",
    "Taluk": "Powayan",
    "Districtname": "Shahjahanpur",
    "statename": "UTTAR PRADESH"
  },
  {
    "pincode": "242401",
    "officename": "Bilsandibuzurg B.O",
    "officeType": "B.O",
    "Deliverystatus": "Delivery",
    "divisionname": "Shahjahanpur",
    "regionname": "Bareilly",
    "circlename": "Uttar Pradesh",
    "Taluk": "Powayan",
    "Districtname": "Shahjahanpur",
    "statename": "UTTAR PRADESH"
  },
  {
    "pincode": "242401",
    "officename": "Gandharpur B.O",
    "officeType": "B.O",
    "Deliverystatus": "Delivery",
    "divisionname": "Shahjahanpur",
    "regionname": "Bareilly",
    "circlename": "Uttar Pradesh",
    "Taluk": "Powayan",
    "Districtname": "Shahjahanpur",
    "statename": "UTTAR PRADESH"
  },
  {
    "pincode": "242401",
    "officename": "Gangsara B.O",
    "officeType": "B.O",
    "Deliverystatus": "Delivery",
    "divisionname": "Shahjahanpur",
    "regionname": "Bareilly",
    "circlename": "Uttar Pradesh",
    "Taluk": "Powayan",
    "Districtname": "Shahjahanpur",
    "statename": "UTTAR PRADESH"
  },
  {
    "pincode": "242401",
    "officename": "Jewan B.O",
    "officeType": "B.O",
    "Deliverystatus": "Delivery",
    "divisionname": "Shahjahanpur",
    "regionname": "Bareilly",
    "circlename": "Uttar Pradesh",
    "Taluk": "Powayan",
    "Districtname": "Shahjahanpur",
    "statename": "UTTAR PRADESH"
  },
  {
    "pincode": "242401",
    "officename": "Jujharpur B.O",
    "officeType": "B.O",
    "Deliverystatus": "Delivery",
    "divisionname": "Shahjahanpur",
    "regionname": "Bareilly",
    "circlename": "Uttar Pradesh",
    "Taluk": "Powayan",
    "Districtname": "Shahjahanpur",
    "statename": "UTTAR PRADESH"
  },
  {
    "pincode": "242401",
    "officename": "Kaluapur B.O",
    "officeType": "B.O",
    "Deliverystatus": "Delivery",
    "divisionname": "Shahjahanpur",
    "regionname": "Bareilly",
    "circlename": "Uttar Pradesh",
    "Taluk": "Powayan",
    "Districtname": "Shahjahanpur",
    "statename": "UTTAR PRADESH"
  },
  {
    "pincode": "242401",
    "officename": "Kanpara B.O",
    "officeType": "B.O",
    "Deliverystatus": "Delivery",
    "divisionname": "Shahjahanpur",
    "regionname": "Bareilly",
    "circlename": "Uttar Pradesh",
    "Taluk": "Powayan",
    "Districtname": "Shahjahanpur",
    "statename": "UTTAR PRADESH"
  },
  {
    "pincode": "242401",
    "officename": "Korokuiyan B.O",
    "officeType": "B.O",
    "Deliverystatus": "Delivery",
    "divisionname": "Shahjahanpur",
    "regionname": "Bareilly",
    "circlename": "Uttar Pradesh",
    "Taluk": "Powayan",
    "Districtname": "Shahjahanpur",
    "statename": "UTTAR PRADESH"
  },
  {
    "pincode": "242401",
    "officename": "Kotawari B.O",
    "officeType": "B.O",
    "Deliverystatus": "Delivery",
    "divisionname": "Shahjahanpur",
    "regionname": "Bareilly",
    "circlename": "Uttar Pradesh",
    "Taluk": "Powayan",
    "Districtname": "Shahjahanpur",
    "statename": "UTTAR PRADESH"
  },
  {
    "pincode": "242401",
    "officename": "Mahuichathia B.O",
    "officeType": "B.O",
    "Deliverystatus": "Delivery",
    "divisionname": "Shahjahanpur",
    "regionname": "Bareilly",
    "circlename": "Uttar Pradesh",
    "Taluk": "Powayan",
    "Districtname": "Shahjahanpur",
    "statename": "UTTAR PRADESH"
  },
  {
    "pincode": "242401",
    "officename": "Mudiakurmiyat B.O",
    "officeType": "B.O",
    "Deliverystatus": "Delivery",
    "divisionname": "Shahjahanpur",
    "regionname": "Bareilly",
    "circlename": "Uttar Pradesh",
    "Taluk": "Powayan",
    "Districtname": "Shahjahanpur",
    "statename": "UTTAR PRADESH"
  },
  {
    "pincode": "242401",
    "officename": "Nahil B.O",
    "officeType": "B.O",
    "Deliverystatus": "Delivery",
    "divisionname": "Shahjahanpur",
    "regionname": "Bareilly",
    "circlename": "Uttar Pradesh",
    "Taluk": "Powayan",
    "Districtname": "Shahjahanpur",
    "statename": "UTTAR PRADESH"
  },
  {
    "pincode": "242401",
    "officename": "Powayan S.O",
    "officeType": "S.O",
    "Deliverystatus": "Delivery",
    "divisionname": "Shahjahanpur",
    "regionname": "Bareilly",
    "circlename": "Uttar Pradesh",
    "Taluk": "Powayan",
    "Districtname": "Shahjahanpur",
    "statename": "UTTAR PRADESH"
  },
  {
    "pincode": "242401",
    "officename": "Satwabuzurg B.O",
    "officeType": "B.O",
    "Deliverystatus": "Delivery",
    "divisionname": "Shahjahanpur",
    "regionname": "Bareilly",
    "circlename": "Uttar Pradesh",
    "Taluk": "Powayan",
    "Districtname": "Shahjahanpur",
    "statename": "UTTAR PRADESH"
  },
  {
    "pincode": "242401",
    "officename": "Sunarabuzurg B.O",
    "officeType": "B.O",
    "Deliverystatus": "Delivery",
    "divisionname": "Shahjahanpur",
    "regionname": "Bareilly",
    "circlename": "Uttar Pradesh",
    "Taluk": "Powayan",
    "Districtname": "Shahjahanpur",
    "statename": "UTTAR PRADESH"
  },
  {
    "pincode": "242401",
    "officename": "Ullia B.O",
    "officeType": "B.O",
    "Deliverystatus": "Delivery",
    "divisionname": "Shahjahanpur",
    "regionname": "Bareilly",
    "circlename": "Uttar Pradesh",
    "Taluk": "Powayan",
    "Districtname": "Shahjahanpur",
    "statename": "UTTAR PRADESH"
  }
]
