[
  {
    "pincode": "243004",
    "officename": "Akha B.O",
    "officeType": "B.O",
    "Deliverystatus": "Delivery",
    "divisionname": "Bareilly",
    "regionname": "Bareilly",
    "circlename": "Uttar Pradesh",
    "Taluk": "Bareilly",
    "Districtname": "Bareilly",
    "statename": "UTTAR PRADESH"
  },
  {
    "pincode": "243004",
    "officename": "Chanehti B.O",
    "officeType": "B.O",
    "Deliverystatus": "Delivery",
    "divisionname": "Bareilly",
    "regionname": "Bareilly",
    "circlename": "Uttar Pradesh",
    "Taluk": "Bareilly",
    "Districtname": "Bareilly",
    "statename": "UTTAR PRADESH"
  },
  {
    "pincode": "243004",
    "officename": "Chaubari B.O",
    "officeType": "B.O",
    "Deliverystatus": "Delivery",
    "divisionname": "Bareilly",
    "regionname": "Bareilly",
    "circlename": "Uttar Pradesh",
    "Taluk": "Bareilly",
    "Districtname": "Bareilly",
    "statename": "UTTAR PRADESH"
  },
  {
    "pincode": "243004",
    "officename": "Haraulia B.O",
    "officeType": "B.O",
    "Deliverystatus": "Delivery",
    "divisionname": "Bareilly",
    "regionname": "Bareilly",
    "circlename": "Uttar Pradesh",
    "Taluk": "Bareilly",
    "Districtname": "Bareilly",
    "statename": "UTTAR PRADESH"
  },
  {
    "pincode": "243004",
    "officename": "ITBP Bareilly S.O",
    "officeType": "S.O",
    "Deliverystatus": "Delivery",
    "divisionname": "Bareilly",
    "regionname": "Bareilly",
    "circlename": "Uttar Pradesh",
    "Taluk": "Bareilly",
    "Districtname": "Bareilly",
    "statename": "UTTAR PRADESH"
  },
  {
    "pincode": "243004",
    "officename": "Kareli B.O",
    "officeType": "B.O",
    "Deliverystatus": "Delivery",
    "divisionname": "Bareilly",
    "regionname": "Bareilly",
    "circlename": "Uttar Pradesh",
    "Taluk": "Bareilly",
    "Districtname": "Bareilly",
    "statename": "UTTAR PRADESH"
  },
  {
    "pincode": "243004",
    "officename": "Kiara B.O",
    "officeType": "B.O",
    "Deliverystatus": "Delivery",
    "divisionname": "Bareilly",
    "regionname": "Bareilly",
    "circlename": "Uttar Pradesh",
    "Taluk": "Bareilly",
    "Districtname": "Bareilly",
    "statename": "UTTAR PRADESH"
  },
  {
    "pincode": "243004",
    "officename": "Sarai Talfi B.O",
    "officeType": "B.O",
    "Deliverystatus": "Delivery",
    "divisionname": "Bareilly",
    "regionname": "Bareilly",
    "circlename": "Uttar Pradesh",
    "Taluk": "Bareilly",
    "Districtname": "Bareilly",
    "statename": "UTTAR PRADESH"
  },
  {
    "pincode": "243004",
    "officename": "Simra Boripur B.O",
    "officeType": "B.O",
    "Deliverystatus": "Delivery",
    "divisionname": "Bareilly",
    "regionname": "Bareilly",
    "circlename": "Uttar Pradesh",
    "Taluk": "Bareilly",
    "Districtname": "Bareilly",
    "statename": "UTTAR PRADESH"
  },
  {
    "pincode": "243004",
    "officename": "Umarsia B.O",
    "officeType": "B.O",
    "Deliverystatus": "Delivery",
    "divisionname": "Bareilly",
    "regionname": "Bareilly",
    "circlename": "Uttar Pradesh",
    "Taluk": "Bareilly",
    "Districtname": "Bareilly",
    "statename": "UTTAR PRADESH"
  }
]
