[
  {
    "pincode": "243122",
    "officename": "Bhandsar B.O",
    "officeType": "B.O",
    "Deliverystatus": "Delivery",
    "divisionname": "Bareilly",
    "regionname": "Bareilly",
    "circlename": "Uttar Pradesh",
    "Taluk": "Bareilly",
    "Districtname": "Bareilly",
    "statename": "UTTAR PRADESH"
  },
  {
    "pincode": "243122",
    "officename": "Biharman Nagla B.O",
    "officeType": "B.O",
    "Deliverystatus": "Delivery",
    "divisionname": "Bareilly",
    "regionname": "Bareilly",
    "circlename": "Uttar Pradesh",
    "Taluk": "Bareilly",
    "Districtname": "Bareilly",
    "statename": "UTTAR PRADESH"
  },
  {
    "pincode": "243122",
    "officename": "C.A.R.I S.O",
    "officeType": "S.O",
    "Deliverystatus": "Non-Delivery",
    "divisionname": "Bareilly",
    "regionname": "Bareilly",
    "circlename": "Uttar Pradesh",
    "Taluk": "Bareilly",
    "Districtname": "Bareilly",
    "statename": "UTTAR PRADESH"
  },
  {
    "pincode": "243122",
    "officename": "Izzat Nagar S.O",
    "officeType": "S.O",
    "Deliverystatus": "Delivery",
    "divisionname": "Bareilly",
    "regionname": "Bareilly",
    "circlename": "Uttar Pradesh",
    "Taluk": "Bareilly",
    "Districtname": "Bareilly",
    "statename": "UTTAR PRADESH"
  },
  {
    "pincode": "243122",
    "officename": "Mundia Ahamad Nagar B.O",
    "officeType": "B.O",
    "Deliverystatus": "Delivery",
    "divisionname": "Bareilly",
    "regionname": "Bareilly",
    "circlename": "Uttar Pradesh",
    "Taluk": "Bareilly",
    "Districtname": "Bareilly",
    "statename": "UTTAR PRADESH"
  },
  {
    "pincode": "243122",
    "officename": "Ner Workshop S.O",
    "officeType": "S.O",
    "Deliverystatus": "Non-Delivery",
    "divisionname": "Bareilly",
    "regionname": "Bareilly",
    "circlename": "Uttar Pradesh",
    "Taluk": "Bareilly",
    "Districtname": "Bareilly",
    "statename": "UTTAR PRADESH"
  },
  {
    "pincode": "243122",
    "officename": "Nrmc B.O",
    "officeType": "B.O",
    "Deliverystatus": "Non-Delivery",
    "divisionname": "Bareilly",
    "regionname": "Bareilly",
    "circlename": "Uttar Pradesh",
    "Taluk": "Bareilly",
    "Districtname": "Bareilly",
    "statename": "UTTAR PRADESH"
  },
  {
    "pincode": "243122",
    "officename": "Rajendra Nagar S.O (Bareilly)",
    "officeType": "S.O",
    "Deliverystatus": "Non-Delivery",
    "divisionname": "Bareilly",
    "regionname": "Bareilly",
    "circlename": "Uttar Pradesh",
    "Taluk": "Bareilly",
    "Districtname": "Bareilly",
    "statename": "UTTAR PRADESH"
  },
  {
    "pincode": "243122",
    "officename": "Rithora B.O",
    "officeType": "B.O",
    "Deliverystatus": "Delivery",
    "divisionname": "Bareilly",
    "regionname": "Bareilly",
    "circlename": "Uttar Pradesh",
    "Taluk": "Bareilly",
    "Districtname": "Bareilly",
    "statename": "UTTAR PRADESH"
  },
  {
    "pincode": "243122",
    "officename": "Saidpur Hakins B.O",
    "officeType": "B.O",
    "Deliverystatus": "Delivery",
    "divisionname": "Bareilly",
    "regionname": "Bareilly",
    "circlename": "Uttar Pradesh",
    "Taluk": "Bareilly",
    "Districtname": "Bareilly",
    "statename": "UTTAR PRADESH"
  }
]
