[
  {
    "pincode": "243203",
    "officename": "Basudharan B.O",
    "officeType": "B.O",
    "Deliverystatus": "Delivery",
    "divisionname": "Bareilly",
    "regionname": "Bareilly",
    "circlename": "Uttar Pradesh",
    "Taluk": "Baheri",
    "Districtname": "Bareilly",
    "statename": "UTTAR PRADESH"
  },
  {
    "pincode": "243203",
    "officename": "Chathia B.O",
    "officeType": "B.O",
    "Deliverystatus": "Delivery",
    "divisionname": "Bareilly",
    "regionname": "Bareilly",
    "circlename": "Uttar Pradesh",
    "Taluk": "Baheri",
    "Districtname": "Bareilly",
    "statename": "UTTAR PRADESH"
  },
  {
    "pincode": "243203",
    "officename": "Deorania S.O",
    "officeType": "S.O",
    "Deliverystatus": "Delivery",
    "divisionname": "Bareilly",
    "regionname": "Bareilly",
    "circlename": "Uttar Pradesh",
    "Taluk": "Baheri",
    "Districtname": "Bareilly",
    "statename": "UTTAR PRADESH"
  },
  {
    "pincode": "243203",
    "officename": "Gularia Mohammad Hussain B.O",
    "officeType": "B.O",
    "Deliverystatus": "Delivery",
    "divisionname": "Bareilly",
    "regionname": "Bareilly",
    "circlename": "Uttar Pradesh",
    "Taluk": "Baheri",
    "Districtname": "Bareilly",
    "statename": "UTTAR PRADESH"
  },
  {
    "pincode": "243203",
    "officename": "Kanman B.O",
    "officeType": "B.O",
    "Deliverystatus": "Delivery",
    "divisionname": "Bareilly",
    "regionname": "Bareilly",
    "circlename": "Uttar Pradesh",
    "Taluk": "Baheri",
    "Districtname": "Bareilly",
    "statename": "UTTAR PRADESH"
  },
  {
    "pincode": "243203",
    "officename": "Khera Ramnagar B.O",
    "officeType": "B.O",
    "Deliverystatus": "Delivery",
    "divisionname": "Bareilly",
    "regionname": "Bareilly",
    "circlename": "Uttar Pradesh",
    "Taluk": "Baheri",
    "Districtname": "Bareilly",
    "statename": "UTTAR PRADESH"
  },
  {
    "pincode": "243203",
    "officename": "Mundia Jagir B.O",
    "officeType": "B.O",
    "Deliverystatus": "Delivery",
    "divisionname": "Bareilly",
    "regionname": "Bareilly",
    "circlename": "Uttar Pradesh",
    "Taluk": "Baheri",
    "Districtname": "Bareilly",
    "statename": "UTTAR PRADESH"
  },
  {
    "pincode": "243203",
    "officename": "Rehpura Ganimat B.O",
    "officeType": "B.O",
    "Deliverystatus": "Delivery",
    "divisionname": "Bareilly",
    "regionname": "Bareilly",
    "circlename": "Uttar Pradesh",
    "Taluk": "Baheri",
    "Districtname": "Bareilly",
    "statename": "UTTAR PRADESH"
  },
  {
    "pincode": "243203",
    "officename": "Rohili B.O",
    "officeType": "B.O",
    "Deliverystatus": "Delivery",
    "divisionname": "Bareilly",
    "regionname": "Bareilly",
    "circlename": "Uttar Pradesh",
    "Taluk": "Baheri",
    "Districtname": "Bareilly",
    "statename": "UTTAR PRADESH"
  }
]
