[
  {
    "pincode": "243201",
    "officename": "Baheri S.O (Bareilly)",
    "officeType": "S.O",
    "Deliverystatus": "Delivery",
    "divisionname": "Bareilly",
    "regionname": "Bareilly",
    "circlename": "Uttar Pradesh",
    "Taluk": "Baheri",
    "Districtname": "Bareilly",
    "statename": "UTTAR PRADESH"
  },
  {
    "pincode": "243201",
    "officename": "Bhura Bahadur Pur B.O",
    "officeType": "B.O",
    "Deliverystatus": "Delivery",
    "divisionname": "Bareilly",
    "regionname": "Bareilly",
    "circlename": "Uttar Pradesh",
    "Taluk": "Baheri",
    "Districtname": "Bareilly",
    "statename": "UTTAR PRADESH"
  },
  {
    "pincode": "243201",
    "officename": "Damkhoda B.O",
    "officeType": "B.O",
    "Deliverystatus": "Delivery",
    "divisionname": "Bareilly",
    "regionname": "Bareilly",
    "circlename": "Uttar Pradesh",
    "Taluk": "Baheri",
    "Districtname": "Bareilly",
    "statename": "UTTAR PRADESH"
  },
  {
    "pincode": "243201",
    "officename": "Dandia Nagla B.O",
    "officeType": "B.O",
    "Deliverystatus": "Delivery",
    "divisionname": "Bareilly",
    "regionname": "Bareilly",
    "circlename": "Uttar Pradesh",
    "Taluk": "Baheri",
    "Districtname": "Bareilly",
    "statename": "UTTAR PRADESH"
  },
  {
    "pincode": "243201",
    "officename": "Dunda Sumali B.O",
    "officeType": "B.O",
    "Deliverystatus": "Delivery",
    "divisionname": "Bareilly",
    "regionname": "Bareilly",
    "circlename": "Uttar Pradesh",
    "Taluk": "Baheri",
    "Districtname": "Bareilly",
    "statename": "UTTAR PRADESH"
  },
  {
    "pincode": "243201",
    "officename": "Faridpur B.O",
    "officeType": "B.O",
    "Deliverystatus": "Delivery",
    "divisionname": "Bareilly",
    "regionname": "Bareilly",
    "circlename": "Uttar Pradesh",
    "Taluk": "Baheri",
    "Districtname": "Bareilly",
    "statename": "UTTAR PRADESH"
  },
  {
    "pincode": "243201",
    "officename": "Girdharpur B.O",
    "officeType": "B.O",
    "Deliverystatus": "Delivery",
    "divisionname": "Bareilly",
    "regionname": "Bareilly",
    "circlename": "Uttar Pradesh",
    "Taluk": "Baheri",
    "Districtname": "Bareilly",
    "statename": "UTTAR PRADESH"
  },
  {
    "pincode": "243201",
    "officename": "Itau Dhura B.O",
    "officeType": "B.O",
    "Deliverystatus": "Delivery",
    "divisionname": "Bareilly",
    "regionname": "Bareilly",
    "circlename": "Uttar Pradesh",
    "Taluk": "Baheri",
    "Districtname": "Bareilly",
    "statename": "UTTAR PRADESH"
  },
  {
    "pincode": "243201",
    "officename": "Jasai Nagar B.O",
    "officeType": "B.O",
    "Deliverystatus": "Delivery",
    "divisionname": "Bareilly",
    "regionname": "Bareilly",
    "circlename": "Uttar Pradesh",
    "Taluk": "Baheri",
    "Districtname": "Bareilly",
    "statename": "UTTAR PRADESH"
  },
  {
    "pincode": "243201",
    "officename": "Jokhanpur B.O",
    "officeType": "B.O",
    "Deliverystatus": "Delivery",
    "divisionname": "Bareilly",
    "regionname": "Bareilly",
    "circlename": "Uttar Pradesh",
    "Taluk": "Baheri",
    "Districtname": "Bareilly",
    "statename": "UTTAR PRADESH"
  },
  {
    "pincode": "243201",
    "officename": "K.S.W.Tulsi Nagar S.O",
    "officeType": "S.O",
    "Deliverystatus": "Non-Delivery",
    "divisionname": "Bareilly",
    "regionname": "Bareilly",
    "circlename": "Uttar Pradesh",
    "Taluk": "Baheri",
    "Districtname": "Bareilly",
    "statename": "UTTAR PRADESH"
  },
  {
    "pincode": "243201",
    "officename": "Man Pur B.O",
    "officeType": "B.O",
    "Deliverystatus": "Delivery",
    "divisionname": "Bareilly",
    "regionname": "Bareilly",
    "circlename": "Uttar Pradesh",
    "Taluk": "Baheri",
    "Districtname": "Bareilly",
    "statename": "UTTAR PRADESH"
  },
  {
    "pincode": "243201",
    "officename": "Mundia Nabi Bux B.O",
    "officeType": "B.O",
    "Deliverystatus": "Delivery",
    "divisionname": "Bareilly",
    "regionname": "Bareilly",
    "circlename": "Uttar Pradesh",
    "Taluk": "Baheri",
    "Districtname": "Bareilly",
    "statename": "UTTAR PRADESH"
  },
  {
    "pincode": "243201",
    "officename": "Nadeli B.O",
    "officeType": "B.O",
    "Deliverystatus": "Delivery",
    "divisionname": "Bareilly",
    "regionname": "Bareilly",
    "circlename": "Uttar Pradesh",
    "Taluk": "Baheri",
    "Districtname": "Bareilly",
    "statename": "UTTAR PRADESH"
  },
  {
    "pincode": "243201",
    "officename": "Nazarganj B.O",
    "officeType": "B.O",
    "Deliverystatus": "Delivery",
    "divisionname": "Bareilly",
    "regionname": "Bareilly",
    "circlename": "Uttar Pradesh",
    "Taluk": "Baheri",
    "Districtname": "Bareilly",
    "statename": "UTTAR PRADESH"
  },
  {
    "pincode": "243201",
    "officename": "Pachpera B.O",
    "officeType": "B.O",
    "Deliverystatus": "Delivery",
    "divisionname": "Bareilly",
    "regionname": "Bareilly",
    "circlename": "Uttar Pradesh",
    "Taluk": "Baheri",
    "Districtname": "Bareilly",
    "statename": "UTTAR PRADESH"
  },
  {
    "pincode": "243201",
    "officename": "Pindari Ashok B.O",
    "officeType": "B.O",
    "Deliverystatus": "Delivery",
    "divisionname": "Bareilly",
    "regionname": "Bareilly",
    "circlename": "Uttar Pradesh",
    "Taluk": "Baheri",
    "Districtname": "Bareilly",
    "statename": "UTTAR PRADESH"
  },
  {
    "pincode": "243201",
    "officename": "Rasoolpur B.O",
    "officeType": "B.O",
    "Deliverystatus": "Delivery",
    "divisionname": "Bareilly",
    "regionname": "Bareilly",
    "circlename": "Uttar Pradesh",
    "Taluk": "Baheri",
    "Districtname": "Bareilly",
    "statename": "UTTAR PRADESH"
  },
  {
    "pincode": "243201",
    "officename": "Rath B.O",
    "officeType": "B.O",
    "Deliverystatus": "Delivery",
    "divisionname": "Bareilly",
    "regionname": "Bareilly",
    "circlename": "Uttar Pradesh",
    "Taluk": "Baheri",
    "Districtname": "Bareilly",
    "statename": "UTTAR PRADESH"
  },
  {
    "pincode": "243201",
    "officename": "Richha B.O",
    "officeType": "B.O",
    "Deliverystatus": "Non-Delivery",
    "divisionname": "Bareilly",
    "regionname": "Bareilly",
    "circlename": "Uttar Pradesh",
    "Taluk": "Bareilly",
    "Districtname": "Bareilly",
    "statename": "UTTAR PRADESH"
  },
  {
    "pincode": "243201",
    "officename": "Sharif Nagar B.O",
    "officeType": "B.O",
    "Deliverystatus": "Delivery",
    "divisionname": "Bareilly",
    "regionname": "Bareilly",
    "circlename": "Uttar Pradesh",
    "Taluk": "Baheri",
    "Districtname": "Bareilly",
    "statename": "UTTAR PRADESH"
  },
  {
    "pincode": "243201",
    "officename": "Siatheri B.O",
    "officeType": "B.O",
    "Deliverystatus": "Delivery",
    "divisionname": "Bareilly",
    "regionname": "Bareilly",
    "circlename": "Uttar Pradesh",
    "Taluk": "Baheri",
    "Districtname": "Bareilly",
    "statename": "UTTAR PRADESH"
  },
  {
    "pincode": "243201",
    "officename": "Yaqoobganj B.O",
    "officeType": "B.O",
    "Deliverystatus": "Delivery",
    "divisionname": "Bareilly",
    "regionname": "Bareilly",
    "circlename": "Uttar Pradesh",
    "Taluk": "Baheri",
    "Districtname": "Bareilly",
    "statename": "UTTAR PRADESH"
  }
]
