[
  {
    "pincode": "243407",
    "officename": "Ahemdabad B.O",
    "officeType": "B.O",
    "Deliverystatus": "Delivery",
    "divisionname": "Bareilly",
    "regionname": "Bareilly",
    "circlename": "Uttar Pradesh",
    "Taluk": "Nawabganj",
    "Districtname": "Bareilly",
    "statename": "UTTAR PRADESH"
  },
  {
    "pincode": "243407",
    "officename": "Baraur B.O",
    "officeType": "B.O",
    "Deliverystatus": "Delivery",
    "divisionname": "Bareilly",
    "regionname": "Bareilly",
    "circlename": "Uttar Pradesh",
    "Taluk": "Nawabganj",
    "Districtname": "Bareilly",
    "statename": "UTTAR PRADESH"
  },
  {
    "pincode": "243407",
    "officename": "Barhepura B.O",
    "officeType": "B.O",
    "Deliverystatus": "Delivery",
    "divisionname": "Bareilly",
    "regionname": "Bareilly",
    "circlename": "Uttar Pradesh",
    "Taluk": "Nawabganj",
    "Districtname": "Bareilly",
    "statename": "UTTAR PRADESH"
  },
  {
    "pincode": "243407",
    "officename": "Grem B.O",
    "officeType": "B.O",
    "Deliverystatus": "Delivery",
    "divisionname": "Bareilly",
    "regionname": "Bareilly",
    "circlename": "Uttar Pradesh",
    "Taluk": "Nawabganj",
    "Districtname": "Bareilly",
    "statename": "UTTAR PRADESH"
  },
  {
    "pincode": "243407",
    "officename": "Hafizganj B.O",
    "officeType": "B.O",
    "Deliverystatus": "Delivery",
    "divisionname": "Bareilly",
    "regionname": "Bareilly",
    "circlename": "Uttar Pradesh",
    "Taluk": "Nawabganj",
    "Districtname": "Bareilly",
    "statename": "UTTAR PRADESH"
  },
  {
    "pincode": "243407",
    "officename": "Harharpur B.O",
    "officeType": "B.O",
    "Deliverystatus": "Delivery",
    "divisionname": "Bareilly",
    "regionname": "Bareilly",
    "circlename": "Uttar Pradesh",
    "Taluk": "Nawabganj",
    "Districtname": "Bareilly",
    "statename": "UTTAR PRADESH"
  },
  {
    "pincode": "243407",
    "officename": "Mundia Bhikampur B.O",
    "officeType": "B.O",
    "Deliverystatus": "Delivery",
    "divisionname": "Bareilly",
    "regionname": "Bareilly",
    "circlename": "Uttar Pradesh",
    "Taluk": "Nawabganj",
    "Districtname": "Bareilly",
    "statename": "UTTAR PRADESH"
  },
  {
    "pincode": "243407",
    "officename": "Paiga B.O",
    "officeType": "B.O",
    "Deliverystatus": "Delivery",
    "divisionname": "Bareilly",
    "regionname": "Bareilly",
    "circlename": "Uttar Pradesh",
    "Taluk": "Nawabganj",
    "Districtname": "Bareilly",
    "statename": "UTTAR PRADESH"
  },
  {
    "pincode": "243407",
    "officename": "Ratna B.O",
    "officeType": "B.O",
    "Deliverystatus": "Delivery",
    "divisionname": "Bareilly",
    "regionname": "Bareilly",
    "circlename": "Uttar Pradesh",
    "Taluk": "Nawabganj",
    "Districtname": "Bareilly",
    "statename": "UTTAR PRADESH"
  },
  {
    "pincode": "243407",
    "officename": "Senthal S.O",
    "officeType": "S.O",
    "Deliverystatus": "Delivery",
    "divisionname": "Bareilly",
    "regionname": "Bareilly",
    "circlename": "Uttar Pradesh",
    "Taluk": "Nawab Ganj",
    "Districtname": "Bareilly",
    "statename": "UTTAR PRADESH"
  }
]
