[
  {
    "pincode": "243630",
    "officename": "Bhatauli B.O",
    "officeType": "B.O",
    "Deliverystatus": "Delivery",
    "divisionname": "Budaun",
    "regionname": "Bareilly",
    "circlename": "Uttar Pradesh",
    "Taluk": "",
    "Districtname": "Budaun",
    "statename": "UTTAR PRADESH"
  },
  {
    "pincode": "243630",
    "officename": "Gandah B.O",
    "officeType": "B.O",
    "Deliverystatus": "Delivery",
    "divisionname": "Budaun",
    "regionname": "Bareilly",
    "circlename": "Uttar Pradesh",
    "Taluk": "Dataganj",
    "Districtname": "Budaun",
    "statename": "UTTAR PRADESH"
  },
  {
    "pincode": "243630",
    "officename": "Gularia B.O",
    "officeType": "B.O",
    "Deliverystatus": "Delivery",
    "divisionname": "Budaun",
    "regionname": "Bareilly",
    "circlename": "Uttar Pradesh",
    "Taluk": "Dataganj",
    "Districtname": "Budaun",
    "statename": "UTTAR PRADESH"
  },
  {
    "pincode": "243630",
    "officename": "Jhuksa B.O",
    "officeType": "B.O",
    "Deliverystatus": "Delivery",
    "divisionname": "Budaun",
    "regionname": "Bareilly",
    "circlename": "Uttar Pradesh",
    "Taluk": "Dataganj",
    "Districtname": "Budaun",
    "statename": "UTTAR PRADESH"
  },
  {
    "pincode": "243630",
    "officename": "Kama B.O",
    "officeType": "B.O",
    "Deliverystatus": "Delivery",
    "divisionname": "Budaun",
    "regionname": "Bareilly",
    "circlename": "Uttar Pradesh",
    "Taluk": "Dataganj",
    "Districtname": "Budaun",
    "statename": "UTTAR PRADESH"
  },
  {
    "pincode": "243630",
    "officename": "Khukri B.O",
    "officeType": "B.O",
    "Deliverystatus": "Delivery",
    "divisionname": "Budaun",
    "regionname": "Bareilly",
    "circlename": "Uttar Pradesh",
    "Taluk": "Dataganj",
    "Districtname": "Budaun",
    "statename": "UTTAR PRADESH"
  },
  {
    "pincode": "243630",
    "officename": "Mailha B.O",
    "officeType": "B.O",
    "Deliverystatus": "Delivery",
    "divisionname": "Budaun",
    "regionname": "Bareilly",
    "circlename": "Uttar Pradesh",
    "Taluk": "Dataganj",
    "Districtname": "Budaun",
    "statename": "UTTAR PRADESH"
  },
  {
    "pincode": "243630",
    "officename": "Mehtabpur B.O",
    "officeType": "B.O",
    "Deliverystatus": "Delivery",
    "divisionname": "Budaun",
    "regionname": "Bareilly",
    "circlename": "Uttar Pradesh",
    "Taluk": "Dataganj",
    "Districtname": "Budaun",
    "statename": "UTTAR PRADESH"
  },
  {
    "pincode": "243630",
    "officename": "Sadullaganj B.O",
    "officeType": "B.O",
    "Deliverystatus": "Delivery",
    "divisionname": "Budaun",
    "regionname": "Bareilly",
    "circlename": "Uttar Pradesh",
    "Taluk": "Dataganj",
    "Districtname": "Budaun",
    "statename": "UTTAR PRADESH"
  },
  {
    "pincode": "243630",
    "officename": "Samrer S.O",
    "officeType": "S.O",
    "Deliverystatus": "Delivery",
    "divisionname": "Budaun",
    "regionname": "Bareilly",
    "circlename": "Uttar Pradesh",
    "Taluk": "Dataganj",
    "Districtname": "Budaun",
    "statename": "UTTAR PRADESH"
  },
  {
    "pincode": "243630",
    "officename": "Sisaiya Gusain B.O",
    "officeType": "B.O",
    "Deliverystatus": "Delivery",
    "divisionname": "Budaun",
    "regionname": "Bareilly",
    "circlename": "Uttar Pradesh",
    "Taluk": "Dataganj",
    "Districtname": "Budaun",
    "statename": "UTTAR PRADESH"
  },
  {
    "pincode": "243630",
    "officename": "Sukhaura B.O",
    "officeType": "B.O",
    "Deliverystatus": "Delivery",
    "divisionname": "Budaun",
    "regionname": "Bareilly",
    "circlename": "Uttar Pradesh",
    "Taluk": "Dataganj",
    "Districtname": "Budaun",
    "statename": "UTTAR PRADESH"
  }
]
