[
  {
    "pincode": "243631",
    "officename": "Abhigaon B.O",
    "officeType": "B.O",
    "Deliverystatus": "Delivery",
    "divisionname": "Budaun",
    "regionname": "Bareilly",
    "circlename": "Uttar Pradesh",
    "Taluk": "Dataganj",
    "Districtname": "Budaun",
    "statename": "UTTAR PRADESH"
  },
  {
    "pincode": "243631",
    "officename": "Allapur S.O",
    "officeType": "S.O",
    "Deliverystatus": "Delivery",
    "divisionname": "Budaun",
    "regionname": "Bareilly",
    "circlename": "Uttar Pradesh",
    "Taluk": "Dataganj",
    "Districtname": "Budaun",
    "statename": "UTTAR PRADESH"
  },
  {
    "pincode": "243631",
    "officename": "Chitaura B.O",
    "officeType": "B.O",
    "Deliverystatus": "Delivery",
    "divisionname": "Budaun",
    "regionname": "Bareilly",
    "circlename": "Uttar Pradesh",
    "Taluk": "",
    "Districtname": "Budaun",
    "statename": "UTTAR PRADESH"
  },
  {
    "pincode": "243631",
    "officename": "Gauntara B.O",
    "officeType": "B.O",
    "Deliverystatus": "Delivery",
    "divisionname": "Budaun",
    "regionname": "Bareilly",
    "circlename": "Uttar Pradesh",
    "Taluk": "",
    "Districtname": "Budaun",
    "statename": "UTTAR PRADESH"
  },
  {
    "pincode": "243631",
    "officename": "Gura Barala B.O",
    "officeType": "B.O",
    "Deliverystatus": "Delivery",
    "divisionname": "Budaun",
    "regionname": "Bareilly",
    "circlename": "Uttar Pradesh",
    "Taluk": "",
    "Districtname": "Budaun",
    "statename": "UTTAR PRADESH"
  },
  {
    "pincode": "243631",
    "officename": "Mansanagla B.O",
    "officeType": "B.O",
    "Deliverystatus": "Delivery",
    "divisionname": "Budaun",
    "regionname": "Bareilly",
    "circlename": "Uttar Pradesh",
    "Taluk": "",
    "Districtname": "Budaun",
    "statename": "UTTAR PRADESH"
  },
  {
    "pincode": "243631",
    "officename": "Maraura B.O",
    "officeType": "B.O",
    "Deliverystatus": "Delivery",
    "divisionname": "Budaun",
    "regionname": "Bareilly",
    "circlename": "Uttar Pradesh",
    "Taluk": "Dataganj",
    "Districtname": "Budaun",
    "statename": "UTTAR PRADESH"
  },
  {
    "pincode": "243631",
    "officename": "Miaoo B.O",
    "officeType": "B.O",
    "Deliverystatus": "Delivery",
    "divisionname": "Budaun",
    "regionname": "Bareilly",
    "circlename": "Uttar Pradesh",
    "Taluk": "",
    "Districtname": "Budaun",
    "statename": "UTTAR PRADESH"
  },
  {
    "pincode": "243631",
    "officename": "Naviganj B.O",
    "officeType": "B.O",
    "Deliverystatus": "Delivery",
    "divisionname": "Budaun",
    "regionname": "Bareilly",
    "circlename": "Uttar Pradesh",
    "Taluk": "Dataganj",
    "Districtname": "Budaun",
    "statename": "UTTAR PRADESH"
  },
  {
    "pincode": "243631",
    "officename": "Usawan B.O",
    "officeType": "B.O",
    "Deliverystatus": "Delivery",
    "divisionname": "Budaun",
    "regionname": "Bareilly",
    "circlename": "Uttar Pradesh",
    "Taluk": "Dataganj",
    "Districtname": "Budaun",
    "statename": "UTTAR PRADESH"
  }
]
