[
  {
    "pincode": "243720",
    "officename": "Bhanpur B.O",
    "officeType": "B.O",
    "Deliverystatus": "Delivery",
    "divisionname": "Budaun",
    "regionname": "Bareilly",
    "circlename": "Uttar Pradesh",
    "Taluk": "Bisuali",
    "Districtname": "Budaun",
    "statename": "UTTAR PRADESH"
  },
  {
    "pincode": "243720",
    "officename": "Bisauli S.O",
    "officeType": "S.O",
    "Deliverystatus": "Delivery",
    "divisionname": "Budaun",
    "regionname": "Bareilly",
    "circlename": "Uttar Pradesh",
    "Taluk": "Bisauli",
    "Districtname": "Budaun",
    "statename": "UTTAR PRADESH"
  },
  {
    "pincode": "243720",
    "officename": "Dabtori B.O",
    "officeType": "B.O",
    "Deliverystatus": "Delivery",
    "divisionname": "Budaun",
    "regionname": "Bareilly",
    "circlename": "Uttar Pradesh",
    "Taluk": "Bisauli",
    "Districtname": "Budaun",
    "statename": "UTTAR PRADESH"
  },
  {
    "pincode": "243720",
    "officename": "Hatsa B.O",
    "officeType": "B.O",
    "Deliverystatus": "Delivery",
    "divisionname": "Budaun",
    "regionname": "Bareilly",
    "circlename": "Uttar Pradesh",
    "Taluk": "Bisauli",
    "Districtname": "Budaun",
    "statename": "UTTAR PRADESH"
  },
  {
    "pincode": "243720",
    "officename": "Jasrathpur B.O",
    "officeType": "B.O",
    "Deliverystatus": "Delivery",
    "divisionname": "Budaun",
    "regionname": "Bareilly",
    "circlename": "Uttar Pradesh",
    "Taluk": "Bisauli",
    "Districtname": "Budaun",
    "statename": "UTTAR PRADESH"
  },
  {
    "pincode": "243720",
    "officename": "Khajuria B.O",
    "officeType": "B.O",
    "Deliverystatus": "Delivery",
    "divisionname": "Budaun",
    "regionname": "Bareilly",
    "circlename": "Uttar Pradesh",
    "Taluk": "Bisauli",
    "Districtname": "Budaun",
    "statename": "UTTAR PRADESH"
  },
  {
    "pincode": "243720",
    "officename": "Mohamadpurmi B.O",
    "officeType": "B.O",
    "Deliverystatus": "Delivery",
    "divisionname": "Budaun",
    "regionname": "Bareilly",
    "circlename": "Uttar Pradesh",
    "Taluk": "Bisauli",
    "Districtname": "Budaun",
    "statename": "UTTAR PRADESH"
  },
  {
    "pincode": "243720",
    "officename": "Mundia Dhure Ki B.O",
    "officeType": "B.O",
    "Deliverystatus": "Delivery",
    "divisionname": "Budaun",
    "regionname": "Bareilly",
    "circlename": "Uttar Pradesh",
    "Taluk": "Bisauli",
    "Districtname": "Budaun",
    "statename": "UTTAR PRADESH"
  },
  {
    "pincode": "243720",
    "officename": "Parveznagar B.O",
    "officeType": "B.O",
    "Deliverystatus": "Delivery",
    "divisionname": "Budaun",
    "regionname": "Bareilly",
    "circlename": "Uttar Pradesh",
    "Taluk": "Bisauli",
    "Districtname": "Budaun",
    "statename": "UTTAR PRADESH"
  },
  {
    "pincode": "243720",
    "officename": "Prithvipur B.O",
    "officeType": "B.O",
    "Deliverystatus": "Delivery",
    "divisionname": "Budaun",
    "regionname": "Bareilly",
    "circlename": "Uttar Pradesh",
    "Taluk": "Bisauli",
    "Districtname": "Budaun",
    "statename": "UTTAR PRADESH"
  },
  {
    "pincode": "243720",
    "officename": "Tara Pathakpur B.O",
    "officeType": "B.O",
    "Deliverystatus": "Delivery",
    "divisionname": "Budaun",
    "regionname": "Bareilly",
    "circlename": "Uttar Pradesh",
    "Taluk": "Bisauli",
    "Districtname": "Budaun",
    "statename": "UTTAR PRADESH"
  }
]
