[
  {
    "pincode": "243723",
    "officename": "Allahpur Samaspur B.O",
    "officeType": "B.O",
    "Deliverystatus": "Delivery",
    "divisionname": "Budaun",
    "regionname": "Bareilly",
    "circlename": "Uttar Pradesh",
    "Taluk": "Bilsi",
    "Districtname": "Budaun",
    "statename": "UTTAR PRADESH"
  },
  {
    "pincode": "243723",
    "officename": "Aslaur B.O",
    "officeType": "B.O",
    "Deliverystatus": "Delivery",
    "divisionname": "Budaun",
    "regionname": "Bareilly",
    "circlename": "Uttar Pradesh",
    "Taluk": "Sahaswan",
    "Districtname": "Budaun",
    "statename": "UTTAR PRADESH"
  },
  {
    "pincode": "243723",
    "officename": "Beor Kasimabad B.O",
    "officeType": "B.O",
    "Deliverystatus": "Delivery",
    "divisionname": "Budaun",
    "regionname": "Bareilly",
    "circlename": "Uttar Pradesh",
    "Taluk": "Bisauli",
    "Districtname": "Budaun",
    "statename": "UTTAR PRADESH"
  },
  {
    "pincode": "243723",
    "officename": "Bhusaya B.O",
    "officeType": "B.O",
    "Deliverystatus": "Delivery",
    "divisionname": "Budaun",
    "regionname": "Bareilly",
    "circlename": "Uttar Pradesh",
    "Taluk": "Bilsi",
    "Districtname": "Budaun",
    "statename": "UTTAR PRADESH"
  },
  {
    "pincode": "243723",
    "officename": "Chandoi B.O",
    "officeType": "B.O",
    "Deliverystatus": "Delivery",
    "divisionname": "Budaun",
    "regionname": "Bareilly",
    "circlename": "Uttar Pradesh",
    "Taluk": "Bilsi",
    "Districtname": "Budaun",
    "statename": "UTTAR PRADESH"
  },
  {
    "pincode": "243723",
    "officename": "Danpur B.O",
    "officeType": "B.O",
    "Deliverystatus": "Delivery",
    "divisionname": "Budaun",
    "regionname": "Bareilly",
    "circlename": "Uttar Pradesh",
    "Taluk": "Bilsi **",
    "Districtname": "Budaun",
    "statename": "UTTAR PRADESH"
  },
  {
    "pincode": "243723",
    "officename": "Gari Bichola B.O",
    "officeType": "B.O",
    "Deliverystatus": "Delivery",
    "divisionname": "Budaun",
    "regionname": "Bareilly",
    "circlename": "Uttar Pradesh",
    "Taluk": "Gunnour",
    "Districtname": "Budaun",
    "statename": "UTTAR PRADESH"
  },
  {
    "pincode": "243723",
    "officename": "Garikhanpur B.O",
    "officeType": "B.O",
    "Deliverystatus": "Delivery",
    "divisionname": "Budaun",
    "regionname": "Bareilly",
    "circlename": "Uttar Pradesh",
    "Taluk": "Bilsi **",
    "Districtname": "Budaun",
    "statename": "UTTAR PRADESH"
  },
  {
    "pincode": "243723",
    "officename": "Islamnagar S.O",
    "officeType": "S.O",
    "Deliverystatus": "Delivery",
    "divisionname": "Budaun",
    "regionname": "Bareilly",
    "circlename": "Uttar Pradesh",
    "Taluk": "Bilsi",
    "Districtname": "Budaun",
    "statename": "UTTAR PRADESH"
  },
  {
    "pincode": "243723",
    "officename": "Jarwar B.O",
    "officeType": "B.O",
    "Deliverystatus": "Delivery",
    "divisionname": "Budaun",
    "regionname": "Bareilly",
    "circlename": "Uttar Pradesh",
    "Taluk": "Gunnour",
    "Districtname": "Budaun",
    "statename": "UTTAR PRADESH"
  },
  {
    "pincode": "243723",
    "officename": "Kotha B.O",
    "officeType": "B.O",
    "Deliverystatus": "Delivery",
    "divisionname": "Budaun",
    "regionname": "Bareilly",
    "circlename": "Uttar Pradesh",
    "Taluk": "Bilsi **",
    "Districtname": "Budaun",
    "statename": "UTTAR PRADESH"
  },
  {
    "pincode": "243723",
    "officename": "Mehua Hasanganj B.O",
    "officeType": "B.O",
    "Deliverystatus": "Delivery",
    "divisionname": "Budaun",
    "regionname": "Bareilly",
    "circlename": "Uttar Pradesh",
    "Taluk": "Dataganj",
    "Districtname": "Budaun",
    "statename": "UTTAR PRADESH"
  },
  {
    "pincode": "243723",
    "officename": "Nadha B.O",
    "officeType": "B.O",
    "Deliverystatus": "Delivery",
    "divisionname": "Budaun",
    "regionname": "Bareilly",
    "circlename": "Uttar Pradesh",
    "Taluk": "Bilsi **",
    "Districtname": "Budaun",
    "statename": "UTTAR PRADESH"
  },
  {
    "pincode": "243723",
    "officename": "Nagla Barah B.O",
    "officeType": "B.O",
    "Deliverystatus": "Delivery",
    "divisionname": "Budaun",
    "regionname": "Bareilly",
    "circlename": "Uttar Pradesh",
    "Taluk": "Bisauli",
    "Districtname": "Budaun",
    "statename": "UTTAR PRADESH"
  },
  {
    "pincode": "243723",
    "officename": "Noorpur Binoni B.O",
    "officeType": "B.O",
    "Deliverystatus": "Delivery",
    "divisionname": "Budaun",
    "regionname": "Bareilly",
    "circlename": "Uttar Pradesh",
    "Taluk": "Bisauli",
    "Districtname": "Budaun",
    "statename": "UTTAR PRADESH"
  },
  {
    "pincode": "243723",
    "officename": "Rajthal B.O",
    "officeType": "B.O",
    "Deliverystatus": "Delivery",
    "divisionname": "Budaun",
    "regionname": "Bareilly",
    "circlename": "Uttar Pradesh",
    "Taluk": "Bilsi",
    "Districtname": "Budaun",
    "statename": "UTTAR PRADESH"
  },
  {
    "pincode": "243723",
    "officename": "Sitholi B.O",
    "officeType": "B.O",
    "Deliverystatus": "Delivery",
    "divisionname": "Budaun",
    "regionname": "Bareilly",
    "circlename": "Uttar Pradesh",
    "Taluk": "Bilsi",
    "Districtname": "Budaun",
    "statename": "UTTAR PRADESH"
  },
  {
    "pincode": "243723",
    "officename": "Surahi B.O",
    "officeType": "B.O",
    "Deliverystatus": "Delivery",
    "divisionname": "Budaun",
    "regionname": "Bareilly",
    "circlename": "Uttar Pradesh",
    "Taluk": "Bilsi",
    "Districtname": "Budaun",
    "statename": "UTTAR PRADESH"
  }
]
