[
  {
    "pincode": "243726",
    "officename": "Bankota B.O",
    "officeType": "B.O",
    "Deliverystatus": "Delivery",
    "divisionname": "Budaun",
    "regionname": "Bareilly",
    "circlename": "Uttar Pradesh",
    "Taluk": "Budaun",
    "Districtname": "Budaun",
    "statename": "UTTAR PRADESH"
  },
  {
    "pincode": "243726",
    "officename": "Barategdar B.O",
    "officeType": "B.O",
    "Deliverystatus": "Delivery",
    "divisionname": "Budaun",
    "regionname": "Bareilly",
    "circlename": "Uttar Pradesh",
    "Taluk": "Budaun",
    "Districtname": "Budaun",
    "statename": "UTTAR PRADESH"
  },
  {
    "pincode": "243726",
    "officename": "Baror Amanullapur B.O",
    "officeType": "B.O",
    "Deliverystatus": "Delivery",
    "divisionname": "Budaun",
    "regionname": "Bareilly",
    "circlename": "Uttar Pradesh",
    "Taluk": "Budaun",
    "Districtname": "Budaun",
    "statename": "UTTAR PRADESH"
  },
  {
    "pincode": "243726",
    "officename": "Beoli B.O",
    "officeType": "B.O",
    "Deliverystatus": "Delivery",
    "divisionname": "Budaun",
    "regionname": "Bareilly",
    "circlename": "Uttar Pradesh",
    "Taluk": "Budaun",
    "Districtname": "Budaun",
    "statename": "UTTAR PRADESH"
  },
  {
    "pincode": "243726",
    "officename": "Gotha B.O",
    "officeType": "B.O",
    "Deliverystatus": "Delivery",
    "divisionname": "Budaun",
    "regionname": "Bareilly",
    "circlename": "Uttar Pradesh",
    "Taluk": "Budaun",
    "Districtname": "Budaun",
    "statename": "UTTAR PRADESH"
  },
  {
    "pincode": "243726",
    "officename": "Hatra B.O",
    "officeType": "B.O",
    "Deliverystatus": "Delivery",
    "divisionname": "Budaun",
    "regionname": "Bareilly",
    "circlename": "Uttar Pradesh",
    "Taluk": "Budaun",
    "Districtname": "Budaun",
    "statename": "UTTAR PRADESH"
  },
  {
    "pincode": "243726",
    "officename": "Jinaura B.O",
    "officeType": "B.O",
    "Deliverystatus": "Delivery",
    "divisionname": "Budaun",
    "regionname": "Bareilly",
    "circlename": "Uttar Pradesh",
    "Taluk": "Budaun",
    "Districtname": "Budaun",
    "statename": "UTTAR PRADESH"
  },
  {
    "pincode": "243726",
    "officename": "Rota B.O",
    "officeType": "B.O",
    "Deliverystatus": "Delivery",
    "divisionname": "Budaun",
    "regionname": "Bareilly",
    "circlename": "Uttar Pradesh",
    "Taluk": "Budaun",
    "Districtname": "Budaun",
    "statename": "UTTAR PRADESH"
  },
  {
    "pincode": "243726",
    "officename": "Sohi B.O",
    "officeType": "B.O",
    "Deliverystatus": "Delivery",
    "divisionname": "Budaun",
    "regionname": "Bareilly",
    "circlename": "Uttar Pradesh",
    "Taluk": "Budaun",
    "Districtname": "Budaun",
    "statename": "UTTAR PRADESH"
  },
  {
    "pincode": "243726",
    "officename": "Sursena B.O",
    "officeType": "B.O",
    "Deliverystatus": "Delivery",
    "divisionname": "Budaun",
    "regionname": "Bareilly",
    "circlename": "Uttar Pradesh",
    "Taluk": "Budaun",
    "Districtname": "Budaun",
    "statename": "UTTAR PRADESH"
  },
  {
    "pincode": "243726",
    "officename": "Wazirganj S.O (Budaun)",
    "officeType": "S.O",
    "Deliverystatus": "Delivery",
    "divisionname": "Budaun",
    "regionname": "Bareilly",
    "circlename": "Uttar Pradesh",
    "Taluk": "Budaun",
    "Districtname": "Budaun",
    "statename": "UTTAR PRADESH"
  }
]
