[
  {
    "pincode": "244255",
    "officename": "Adampur B.O",
    "officeType": "B.O",
    "Deliverystatus": "Delivery",
    "divisionname": "Moradabad",
    "regionname": "Bareilly",
    "circlename": "Uttar Pradesh",
    "Taluk": "Hasanpur",
    "Districtname": "Jyotiba Phule Nagar",
    "statename": "UTTAR PRADESH"
  },
  {
    "pincode": "244255",
    "officename": "Bartaura B.O",
    "officeType": "B.O",
    "Deliverystatus": "Delivery",
    "divisionname": "Moradabad",
    "regionname": "Bareilly",
    "circlename": "Uttar Pradesh",
    "Taluk": "Hasanpur",
    "Districtname": "Jyotiba Phule Nagar",
    "statename": "UTTAR PRADESH"
  },
  {
    "pincode": "244255",
    "officename": "Chhapna B.O",
    "officeType": "B.O",
    "Deliverystatus": "Delivery",
    "divisionname": "Moradabad",
    "regionname": "Bareilly",
    "circlename": "Uttar Pradesh",
    "Taluk": "Hasanpur",
    "Districtname": "Jyotiba Phule Nagar",
    "statename": "UTTAR PRADESH"
  },
  {
    "pincode": "244255",
    "officename": "Darhyal Khadar B.O",
    "officeType": "B.O",
    "Deliverystatus": "Delivery",
    "divisionname": "Moradabad",
    "regionname": "Bareilly",
    "circlename": "Uttar Pradesh",
    "Taluk": "Hasanpur",
    "Districtname": "Jyotiba Phule Nagar",
    "statename": "UTTAR PRADESH"
  },
  {
    "pincode": "244255",
    "officename": "Gangeshwari B.O",
    "officeType": "B.O",
    "Deliverystatus": "Delivery",
    "divisionname": "Moradabad",
    "regionname": "Bareilly",
    "circlename": "Uttar Pradesh",
    "Taluk": "Hasanpur",
    "Districtname": "Jyotiba Phule Nagar",
    "statename": "UTTAR PRADESH"
  },
  {
    "pincode": "244255",
    "officename": "Imratpur B.O",
    "officeType": "B.O",
    "Deliverystatus": "Delivery",
    "divisionname": "Moradabad",
    "regionname": "Bareilly",
    "circlename": "Uttar Pradesh",
    "Taluk": "Hasanpur",
    "Districtname": "Jyotiba Phule Nagar",
    "statename": "UTTAR PRADESH"
  },
  {
    "pincode": "244255",
    "officename": "Jahtauli B.O",
    "officeType": "B.O",
    "Deliverystatus": "Delivery",
    "divisionname": "Moradabad",
    "regionname": "Bareilly",
    "circlename": "Uttar Pradesh",
    "Taluk": "Hasanpur",
    "Districtname": "Jyotiba Phule Nagar",
    "statename": "UTTAR PRADESH"
  },
  {
    "pincode": "244255",
    "officename": "Paurara B.O",
    "officeType": "B.O",
    "Deliverystatus": "Delivery",
    "divisionname": "Moradabad",
    "regionname": "Bareilly",
    "circlename": "Uttar Pradesh",
    "Taluk": "Hasanpur",
    "Districtname": "Jyotiba Phule Nagar",
    "statename": "UTTAR PRADESH"
  },
  {
    "pincode": "244255",
    "officename": "Rehra S.O",
    "officeType": "S.O",
    "Deliverystatus": "Delivery",
    "divisionname": "Moradabad",
    "regionname": "Bareilly",
    "circlename": "Uttar Pradesh",
    "Taluk": "Hasanpur",
    "Districtname": "Jyotiba Phule Nagar",
    "statename": "UTTAR PRADESH"
  }
]
