[
  {
    "pincode": "244221",
    "officename": "Amroha Bazar S.O",
    "officeType": "S.O",
    "Deliverystatus": "Non-Delivery",
    "divisionname": "Moradabad",
    "regionname": "Bareilly",
    "circlename": "Uttar Pradesh",
    "Taluk": "Amroha",
    "Districtname": "Jyotiba Phule Nagar",
    "statename": "UTTAR PRADESH"
  },
  {
    "pincode": "244221",
    "officename": "Amroha H.O",
    "officeType": "H.O",
    "Deliverystatus": "Delivery",
    "divisionname": "Moradabad",
    "regionname": "Bareilly",
    "circlename": "Uttar Pradesh",
    "Taluk": "Amroha",
    "Districtname": "Jyotiba Phule Nagar",
    "statename": "UTTAR PRADESH"
  },
  {
    "pincode": "244221",
    "officename": "Amroha Shahi Chabutra S.O",
    "officeType": "S.O",
    "Deliverystatus": "Non-Delivery",
    "divisionname": "Moradabad",
    "regionname": "Bareilly",
    "circlename": "Uttar Pradesh",
    "Taluk": "Amroha",
    "Districtname": "Jyotiba Phule Nagar",
    "statename": "UTTAR PRADESH"
  },
  {
    "pincode": "244221",
    "officename": "Bahadur Pur Khurd B.O",
    "officeType": "B.O",
    "Deliverystatus": "Delivery",
    "divisionname": "Moradabad",
    "regionname": "Bareilly",
    "circlename": "Uttar Pradesh",
    "Taluk": "Amroha",
    "Districtname": "Jyotiba Phule Nagar",
    "statename": "UTTAR PRADESH"
  },
  {
    "pincode": "244221",
    "officename": "Buderna B.O",
    "officeType": "B.O",
    "Deliverystatus": "Delivery",
    "divisionname": "Moradabad",
    "regionname": "Bareilly",
    "circlename": "Uttar Pradesh",
    "Taluk": "Amroha",
    "Districtname": "Jyotiba Phule Nagar",
    "statename": "UTTAR PRADESH"
  },
  {
    "pincode": "244221",
    "officename": "Gajana B.O",
    "officeType": "B.O",
    "Deliverystatus": "Delivery",
    "divisionname": "Moradabad",
    "regionname": "Bareilly",
    "circlename": "Uttar Pradesh",
    "Taluk": "Amroha",
    "Districtname": "Jyotiba Phule Nagar",
    "statename": "UTTAR PRADESH"
  },
  {
    "pincode": "244221",
    "officename": "Gularia B.O",
    "officeType": "B.O",
    "Deliverystatus": "Delivery",
    "divisionname": "Moradabad",
    "regionname": "Bareilly",
    "circlename": "Uttar Pradesh",
    "Taluk": "Amroha",
    "Districtname": "Jyotiba Phule Nagar",
    "statename": "UTTAR PRADESH"
  },
  {
    "pincode": "244221",
    "officename": "Hajarpur Jamania B.O",
    "officeType": "B.O",
    "Deliverystatus": "Delivery",
    "divisionname": "Moradabad",
    "regionname": "Bareilly",
    "circlename": "Uttar Pradesh",
    "Taluk": "Amroha",
    "Districtname": "Jyotiba Phule Nagar",
    "statename": "UTTAR PRADESH"
  },
  {
    "pincode": "244221",
    "officename": "Jalajpur Dhana B.O",
    "officeType": "B.O",
    "Deliverystatus": "Delivery",
    "divisionname": "Moradabad",
    "regionname": "Bareilly",
    "circlename": "Uttar Pradesh",
    "Taluk": "Amroha",
    "Districtname": "Jyotiba Phule Nagar",
    "statename": "UTTAR PRADESH"
  },
  {
    "pincode": "244221",
    "officename": "Kailsa B.O",
    "officeType": "B.O",
    "Deliverystatus": "Delivery",
    "divisionname": "Moradabad",
    "regionname": "Bareilly",
    "circlename": "Uttar Pradesh",
    "Taluk": "Amroha",
    "Districtname": "Jyotiba Phule Nagar",
    "statename": "UTTAR PRADESH"
  },
  {
    "pincode": "244221",
    "officename": "Mundha Khera B.O",
    "officeType": "B.O",
    "Deliverystatus": "Delivery",
    "divisionname": "Moradabad",
    "regionname": "Bareilly",
    "circlename": "Uttar Pradesh",
    "Taluk": "Amroha",
    "Districtname": "Jyotiba Phule Nagar",
    "statename": "UTTAR PRADESH"
  },
  {
    "pincode": "244221",
    "officename": "Nanhera Aliarpur B.O",
    "officeType": "B.O",
    "Deliverystatus": "Delivery",
    "divisionname": "Moradabad",
    "regionname": "Bareilly",
    "circlename": "Uttar Pradesh",
    "Taluk": "Amroha",
    "Districtname": "Jyotiba Phule Nagar",
    "statename": "UTTAR PRADESH"
  },
  {
    "pincode": "244221",
    "officename": "Papsara B.O",
    "officeType": "B.O",
    "Deliverystatus": "Delivery",
    "divisionname": "Moradabad",
    "regionname": "Bareilly",
    "circlename": "Uttar Pradesh",
    "Taluk": "Amroha",
    "Districtname": "Jyotiba Phule Nagar",
    "statename": "UTTAR PRADESH"
  },
  {
    "pincode": "244221",
    "officename": "Qazi Sarai Urf Kankar Sarai B.O",
    "officeType": "B.O",
    "Deliverystatus": "Delivery",
    "divisionname": "Moradabad",
    "regionname": "Bareilly",
    "circlename": "Uttar Pradesh",
    "Taluk": "Amroha",
    "Districtname": "Jyotiba Phule Nagar",
    "statename": "UTTAR PRADESH"
  },
  {
    "pincode": "244221",
    "officename": "Telipurmali B.O",
    "officeType": "B.O",
    "Deliverystatus": "Delivery",
    "divisionname": "Moradabad",
    "regionname": "Bareilly",
    "circlename": "Uttar Pradesh",
    "Taluk": "",
    "Districtname": "Jyotiba Phule Nagar",
    "statename": "UTTAR PRADESH"
  }
]
