[
  {
    "pincode": "244302",
    "officename": "Akhtiarpur Thillupura B.O",
    "officeType": "B.O",
    "Deliverystatus": "Delivery",
    "divisionname": "Moradabad",
    "regionname": "Bareilly",
    "circlename": "Uttar Pradesh",
    "Taluk": "Sambhal",
    "Districtname": "Moradabad",
    "statename": "UTTAR PRADESH"
  },
  {
    "pincode": "244302",
    "officename": "Bhatola B.O",
    "officeType": "B.O",
    "Deliverystatus": "Delivery",
    "divisionname": "Moradabad",
    "regionname": "Bareilly",
    "circlename": "Uttar Pradesh",
    "Taluk": "Sambhal",
    "Districtname": "Moradabad",
    "statename": "UTTAR PRADESH"
  },
  {
    "pincode": "244302",
    "officename": "Bhawanipur B.O",
    "officeType": "B.O",
    "Deliverystatus": "Delivery",
    "divisionname": "Moradabad",
    "regionname": "Bareilly",
    "circlename": "Uttar Pradesh",
    "Taluk": "Sambhal",
    "Districtname": "Moradabad",
    "statename": "UTTAR PRADESH"
  },
  {
    "pincode": "244302",
    "officename": "Chamroa B.O",
    "officeType": "B.O",
    "Deliverystatus": "Delivery",
    "divisionname": "Moradabad",
    "regionname": "Bareilly",
    "circlename": "Uttar Pradesh",
    "Taluk": "Sambhal",
    "Districtname": "Moradabad",
    "statename": "UTTAR PRADESH"
  },
  {
    "pincode": "244302",
    "officename": "Chandankati B.O",
    "officeType": "B.O",
    "Deliverystatus": "Delivery",
    "divisionname": "Moradabad",
    "regionname": "Bareilly",
    "circlename": "Uttar Pradesh",
    "Taluk": "Sambhal",
    "Districtname": "Moradabad",
    "statename": "UTTAR PRADESH"
  },
  {
    "pincode": "244302",
    "officename": "Deepa Sarai S.O",
    "officeType": "S.O",
    "Deliverystatus": "Non-Delivery",
    "divisionname": "Moradabad",
    "regionname": "Bareilly",
    "circlename": "Uttar Pradesh",
    "Taluk": "Sambhal",
    "Districtname": "Moradabad",
    "statename": "UTTAR PRADESH"
  },
  {
    "pincode": "244302",
    "officename": "Dilgaura B.O",
    "officeType": "B.O",
    "Deliverystatus": "Delivery",
    "divisionname": "Moradabad",
    "regionname": "Bareilly",
    "circlename": "Uttar Pradesh",
    "Taluk": "Sambhal",
    "Districtname": "Moradabad",
    "statename": "UTTAR PRADESH"
  },
  {
    "pincode": "244302",
    "officename": "Hasanpur Manjapta B.O",
    "officeType": "B.O",
    "Deliverystatus": "Delivery",
    "divisionname": "Moradabad",
    "regionname": "Bareilly",
    "circlename": "Uttar Pradesh",
    "Taluk": "Sambhal",
    "Districtname": "Moradabad",
    "statename": "UTTAR PRADESH"
  },
  {
    "pincode": "244302",
    "officename": "Isapur Sunwari B.O",
    "officeType": "B.O",
    "Deliverystatus": "Delivery",
    "divisionname": "Moradabad",
    "regionname": "Bareilly",
    "circlename": "Uttar Pradesh",
    "Taluk": "Sambhal",
    "Districtname": "Moradabad",
    "statename": "UTTAR PRADESH"
  },
  {
    "pincode": "244302",
    "officename": "Kasauli B.O",
    "officeType": "B.O",
    "Deliverystatus": "Delivery",
    "divisionname": "Moradabad",
    "regionname": "Bareilly",
    "circlename": "Uttar Pradesh",
    "Taluk": "Sambhal",
    "Districtname": "Moradabad",
    "statename": "UTTAR PRADESH"
  },
  {
    "pincode": "244302",
    "officename": "Lakhauri Jalalpur B.O",
    "officeType": "B.O",
    "Deliverystatus": "Delivery",
    "divisionname": "Moradabad",
    "regionname": "Bareilly",
    "circlename": "Uttar Pradesh",
    "Taluk": "Sambhal",
    "Districtname": "Moradabad",
    "statename": "UTTAR PRADESH"
  },
  {
    "pincode": "244302",
    "officename": "Mian Sarai B.O",
    "officeType": "B.O",
    "Deliverystatus": "Delivery",
    "divisionname": "Moradabad",
    "regionname": "Bareilly",
    "circlename": "Uttar Pradesh",
    "Taluk": "Sambhal",
    "Districtname": "Moradabad",
    "statename": "UTTAR PRADESH"
  },
  {
    "pincode": "244302",
    "officename": "Mohd. Pur Tanda B.O",
    "officeType": "B.O",
    "Deliverystatus": "Delivery",
    "divisionname": "Moradabad",
    "regionname": "Bareilly",
    "circlename": "Uttar Pradesh",
    "Taluk": "Sambhal",
    "Districtname": "Moradabad",
    "statename": "UTTAR PRADESH"
  },
  {
    "pincode": "244302",
    "officename": "Mohra Lakhupura B.O",
    "officeType": "B.O",
    "Deliverystatus": "Delivery",
    "divisionname": "Moradabad",
    "regionname": "Bareilly",
    "circlename": "Uttar Pradesh",
    "Taluk": "Sambhal",
    "Districtname": "Moradabad",
    "statename": "UTTAR PRADESH"
  },
  {
    "pincode": "244302",
    "officename": "Nuria Sarai B.O",
    "officeType": "B.O",
    "Deliverystatus": "Delivery",
    "divisionname": "Moradabad",
    "regionname": "Bareilly",
    "circlename": "Uttar Pradesh",
    "Taluk": "Sambhal",
    "Districtname": "Moradabad",
    "statename": "UTTAR PRADESH"
  },
  {
    "pincode": "244302",
    "officename": "Pawasa B.O",
    "officeType": "B.O",
    "Deliverystatus": "Delivery",
    "divisionname": "Moradabad",
    "regionname": "Bareilly",
    "circlename": "Uttar Pradesh",
    "Taluk": "Sambhal",
    "Districtname": "Moradabad",
    "statename": "UTTAR PRADESH"
  },
  {
    "pincode": "244302",
    "officename": "R.P. Niyaoli B.O",
    "officeType": "B.O",
    "Deliverystatus": "Delivery",
    "divisionname": "Moradabad",
    "regionname": "Bareilly",
    "circlename": "Uttar Pradesh",
    "Taluk": "Sambhal",
    "Districtname": "Moradabad",
    "statename": "UTTAR PRADESH"
  },
  {
    "pincode": "244302",
    "officename": "Ruknuddin Sarai B.O",
    "officeType": "B.O",
    "Deliverystatus": "Delivery",
    "divisionname": "Moradabad",
    "regionname": "Bareilly",
    "circlename": "Uttar Pradesh",
    "Taluk": "Sambhal",
    "Districtname": "Moradabad",
    "statename": "UTTAR PRADESH"
  },
  {
    "pincode": "244302",
    "officename": "Salarpur B.O",
    "officeType": "B.O",
    "Deliverystatus": "Delivery",
    "divisionname": "Moradabad",
    "regionname": "Bareilly",
    "circlename": "Uttar Pradesh",
    "Taluk": "Sambhal",
    "Districtname": "Moradabad",
    "statename": "UTTAR PRADESH"
  },
  {
    "pincode": "244302",
    "officename": "Sambhal S.O",
    "officeType": "S.O",
    "Deliverystatus": "Delivery",
    "divisionname": "Moradabad",
    "regionname": "Bareilly",
    "circlename": "Uttar Pradesh",
    "Taluk": "Sambhal",
    "Districtname": "Moradabad",
    "statename": "UTTAR PRADESH"
  },
  {
    "pincode": "244302",
    "officename": "Senjana B.O",
    "officeType": "B.O",
    "Deliverystatus": "Delivery",
    "divisionname": "Moradabad",
    "regionname": "Bareilly",
    "circlename": "Uttar Pradesh",
    "Taluk": "Sambhal",
    "Districtname": "Moradabad",
    "statename": "UTTAR PRADESH"
  },
  {
    "pincode": "244302",
    "officename": "Singhpur Sani B.O",
    "officeType": "B.O",
    "Deliverystatus": "Delivery",
    "divisionname": "Moradabad",
    "regionname": "Bareilly",
    "circlename": "Uttar Pradesh",
    "Taluk": "Sambhal",
    "Districtname": "Moradabad",
    "statename": "UTTAR PRADESH"
  },
  {
    "pincode": "244302",
    "officename": "Thati B.O",
    "officeType": "B.O",
    "Deliverystatus": "Delivery",
    "divisionname": "Moradabad",
    "regionname": "Bareilly",
    "circlename": "Uttar Pradesh",
    "Taluk": "Sambhal",
    "Districtname": "Moradabad",
    "statename": "UTTAR PRADESH"
  }
]
