[
  {
    "pincode": "244301",
    "officename": "Azamnagar Chopra B.O",
    "officeType": "B.O",
    "Deliverystatus": "Delivery",
    "divisionname": "Moradabad",
    "regionname": "Bareilly",
    "circlename": "Uttar Pradesh",
    "Taluk": "Sambhal",
    "Districtname": "Moradabad",
    "statename": "UTTAR PRADESH"
  },
  {
    "pincode": "244301",
    "officename": "Barahi B.O",
    "officeType": "B.O",
    "Deliverystatus": "Delivery",
    "divisionname": "Moradabad",
    "regionname": "Bareilly",
    "circlename": "Uttar Pradesh",
    "Taluk": "Sambhal",
    "Districtname": "Moradabad",
    "statename": "UTTAR PRADESH"
  },
  {
    "pincode": "244301",
    "officename": "Baripur Bhamrowa B.O",
    "officeType": "B.O",
    "Deliverystatus": "Delivery",
    "divisionname": "Moradabad",
    "regionname": "Bareilly",
    "circlename": "Uttar Pradesh",
    "Taluk": "Sambhal",
    "Districtname": "Moradabad",
    "statename": "UTTAR PRADESH"
  },
  {
    "pincode": "244301",
    "officename": "Bharthal Madapur B.O",
    "officeType": "B.O",
    "Deliverystatus": "Delivery",
    "divisionname": "Moradabad",
    "regionname": "Bareilly",
    "circlename": "Uttar Pradesh",
    "Taluk": "Sambhal",
    "Districtname": "Moradabad",
    "statename": "UTTAR PRADESH"
  },
  {
    "pincode": "244301",
    "officename": "Dingarpur B.O",
    "officeType": "B.O",
    "Deliverystatus": "Delivery",
    "divisionname": "Moradabad",
    "regionname": "Bareilly",
    "circlename": "Uttar Pradesh",
    "Taluk": "Sambhal",
    "Districtname": "Moradabad",
    "statename": "UTTAR PRADESH"
  },
  {
    "pincode": "244301",
    "officename": "Fatehpur Malakpur B.O",
    "officeType": "B.O",
    "Deliverystatus": "Delivery",
    "divisionname": "Moradabad",
    "regionname": "Bareilly",
    "circlename": "Uttar Pradesh",
    "Taluk": "Sambhal",
    "Districtname": "Moradabad",
    "statename": "UTTAR PRADESH"
  },
  {
    "pincode": "244301",
    "officename": "Gurer B.O",
    "officeType": "B.O",
    "Deliverystatus": "Delivery",
    "divisionname": "Moradabad",
    "regionname": "Bareilly",
    "circlename": "Uttar Pradesh",
    "Taluk": "Sambhal",
    "Districtname": "Moradabad",
    "statename": "UTTAR PRADESH"
  },
  {
    "pincode": "244301",
    "officename": "Hajaratnagar Garhi B.O",
    "officeType": "B.O",
    "Deliverystatus": "Delivery",
    "divisionname": "Moradabad",
    "regionname": "Bareilly",
    "circlename": "Uttar Pradesh",
    "Taluk": "Sambhal",
    "Districtname": "Moradabad",
    "statename": "UTTAR PRADESH"
  },
  {
    "pincode": "244301",
    "officename": "Mahmoodpur B.O",
    "officeType": "B.O",
    "Deliverystatus": "Delivery",
    "divisionname": "Moradabad",
    "regionname": "Bareilly",
    "circlename": "Uttar Pradesh",
    "Taluk": "Sambhal",
    "Districtname": "Moradabad",
    "statename": "UTTAR PRADESH"
  },
  {
    "pincode": "244301",
    "officename": "Mainather B.O",
    "officeType": "B.O",
    "Deliverystatus": "Delivery",
    "divisionname": "Moradabad",
    "regionname": "Bareilly",
    "circlename": "Uttar Pradesh",
    "Taluk": "Sambhal",
    "Districtname": "Moradabad",
    "statename": "UTTAR PRADESH"
  },
  {
    "pincode": "244301",
    "officename": "Nayamatpur B.O",
    "officeType": "B.O",
    "Deliverystatus": "Delivery",
    "divisionname": "Moradabad",
    "regionname": "Bareilly",
    "circlename": "Uttar Pradesh",
    "Taluk": "Sambhal",
    "Districtname": "Moradabad",
    "statename": "UTTAR PRADESH"
  },
  {
    "pincode": "244301",
    "officename": "Qasimpur B.O",
    "officeType": "B.O",
    "Deliverystatus": "Delivery",
    "divisionname": "Moradabad",
    "regionname": "Bareilly",
    "circlename": "Uttar Pradesh",
    "Taluk": "Chandausi",
    "Districtname": "Moradabad",
    "statename": "UTTAR PRADESH"
  },
  {
    "pincode": "244301",
    "officename": "Rehtaul B.O",
    "officeType": "B.O",
    "Deliverystatus": "Delivery",
    "divisionname": "Moradabad",
    "regionname": "Bareilly",
    "circlename": "Uttar Pradesh",
    "Taluk": "Sambhal",
    "Districtname": "Moradabad",
    "statename": "UTTAR PRADESH"
  },
  {
    "pincode": "244301",
    "officename": "Sirsi S.O (Moradabad)",
    "officeType": "S.O",
    "Deliverystatus": "Delivery",
    "divisionname": "Moradabad",
    "regionname": "Bareilly",
    "circlename": "Uttar Pradesh",
    "Taluk": "Sambhal",
    "Districtname": "Moradabad",
    "statename": "UTTAR PRADESH"
  },
  {
    "pincode": "244301",
    "officename": "Umedpur B.O",
    "officeType": "B.O",
    "Deliverystatus": "Delivery",
    "divisionname": "Moradabad",
    "regionname": "Bareilly",
    "circlename": "Uttar Pradesh",
    "Taluk": "Sambhal",
    "Districtname": "Moradabad",
    "statename": "UTTAR PRADESH"
  }
]
