[
  {
    "pincode": "244303",
    "officename": "Amawati Qutubpur B.O",
    "officeType": "B.O",
    "Deliverystatus": "Delivery",
    "divisionname": "Moradabad",
    "regionname": "Bareilly",
    "circlename": "Uttar Pradesh",
    "Taluk": "Sambhal",
    "Districtname": "Moradabad",
    "statename": "UTTAR PRADESH"
  },
  {
    "pincode": "244303",
    "officename": "Datauli B.O",
    "officeType": "B.O",
    "Deliverystatus": "Delivery",
    "divisionname": "Moradabad",
    "regionname": "Bareilly",
    "circlename": "Uttar Pradesh",
    "Taluk": "Sambhal",
    "Districtname": "Moradabad",
    "statename": "UTTAR PRADESH"
  },
  {
    "pincode": "244303",
    "officename": "Gauhat B.O",
    "officeType": "B.O",
    "Deliverystatus": "Delivery",
    "divisionname": "Moradabad",
    "regionname": "Bareilly",
    "circlename": "Uttar Pradesh",
    "Taluk": "Sambhal",
    "Districtname": "Moradabad",
    "statename": "UTTAR PRADESH"
  },
  {
    "pincode": "244303",
    "officename": "Hayatnagar B.O",
    "officeType": "B.O",
    "Deliverystatus": "Delivery",
    "divisionname": "Moradabad",
    "regionname": "Bareilly",
    "circlename": "Uttar Pradesh",
    "Taluk": "Sambhal",
    "Districtname": "Moradabad",
    "statename": "UTTAR PRADESH"
  },
  {
    "pincode": "244303",
    "officename": "Rudayan B.O",
    "officeType": "B.O",
    "Deliverystatus": "Delivery",
    "divisionname": "Moradabad",
    "regionname": "Bareilly",
    "circlename": "Uttar Pradesh",
    "Taluk": "Sambhal",
    "Districtname": "Moradabad",
    "statename": "UTTAR PRADESH"
  },
  {
    "pincode": "244303",
    "officename": "Sarai Tarin S.O",
    "officeType": "S.O",
    "Deliverystatus": "Delivery",
    "divisionname": "Moradabad",
    "regionname": "Bareilly",
    "circlename": "Uttar Pradesh",
    "Taluk": "Sambhal",
    "Districtname": "Moradabad",
    "statename": "UTTAR PRADESH"
  },
  {
    "pincode": "244303",
    "officename": "Sherpur B.O",
    "officeType": "B.O",
    "Deliverystatus": "Delivery",
    "divisionname": "Moradabad",
    "regionname": "Bareilly",
    "circlename": "Uttar Pradesh",
    "Taluk": "Sambhal",
    "Districtname": "Moradabad",
    "statename": "UTTAR PRADESH"
  },
  {
    "pincode": "244303",
    "officename": "Sondhan Mohdpur B.O",
    "officeType": "B.O",
    "Deliverystatus": "Delivery",
    "divisionname": "Moradabad",
    "regionname": "Bareilly",
    "circlename": "Uttar Pradesh",
    "Taluk": "Sambhal",
    "Districtname": "Moradabad",
    "statename": "UTTAR PRADESH"
  }
]
