[
  {
    "pincode": "244412",
    "officename": "Asalatpur Jarai B.O",
    "officeType": "B.O",
    "Deliverystatus": "Delivery",
    "divisionname": "Moradabad",
    "regionname": "Bareilly",
    "circlename": "Uttar Pradesh",
    "Taluk": "Chandausi",
    "Districtname": "Moradabad",
    "statename": "UTTAR PRADESH"
  },
  {
    "pincode": "244412",
    "officename": "Bania Khera B.O",
    "officeType": "B.O",
    "Deliverystatus": "Delivery",
    "divisionname": "Moradabad",
    "regionname": "Bareilly",
    "circlename": "Uttar Pradesh",
    "Taluk": "Chandausi",
    "Districtname": "Moradabad",
    "statename": "UTTAR PRADESH"
  },
  {
    "pincode": "244412",
    "officename": "Barauli Rustampur B.O",
    "officeType": "B.O",
    "Deliverystatus": "Delivery",
    "divisionname": "Moradabad",
    "regionname": "Bareilly",
    "circlename": "Uttar Pradesh",
    "Taluk": "Chandausi",
    "Districtname": "Moradabad",
    "statename": "UTTAR PRADESH"
  },
  {
    "pincode": "244412",
    "officename": "Braham Bazar Chandausi S.O",
    "officeType": "S.O",
    "Deliverystatus": "Non-Delivery",
    "divisionname": "Moradabad",
    "regionname": "Bareilly",
    "circlename": "Uttar Pradesh",
    "Taluk": "Chandausi",
    "Districtname": "Moradabad",
    "statename": "UTTAR PRADESH"
  },
  {
    "pincode": "244412",
    "officename": "Budh Nagar Khandwa B.O",
    "officeType": "B.O",
    "Deliverystatus": "Delivery",
    "divisionname": "Moradabad",
    "regionname": "Bareilly",
    "circlename": "Uttar Pradesh",
    "Taluk": "Chandausi",
    "Districtname": "Moradabad",
    "statename": "UTTAR PRADESH"
  },
  {
    "pincode": "244412",
    "officename": "Chandausi Bara Bazar S.O",
    "officeType": "S.O",
    "Deliverystatus": "Non-Delivery",
    "divisionname": "Moradabad",
    "regionname": "Bareilly",
    "circlename": "Uttar Pradesh",
    "Taluk": "Chandausi",
    "Districtname": "Moradabad",
    "statename": "UTTAR PRADESH"
  },
  {
    "pincode": "244412",
    "officename": "Chandausi R.S. B.O",
    "officeType": "B.O",
    "Deliverystatus": "Delivery",
    "divisionname": "Moradabad",
    "regionname": "Bareilly",
    "circlename": "Uttar Pradesh",
    "Taluk": "Chandausi",
    "Districtname": "Moradabad",
    "statename": "UTTAR PRADESH"
  },
  {
    "pincode": "244412",
    "officename": "Chandausi S.O",
    "officeType": "S.O",
    "Deliverystatus": "Delivery",
    "divisionname": "Moradabad",
    "regionname": "Bareilly",
    "circlename": "Uttar Pradesh",
    "Taluk": "Chandausi",
    "Districtname": "Moradabad",
    "statename": "UTTAR PRADESH"
  },
  {
    "pincode": "244412",
    "officename": "Gumthal B.O",
    "officeType": "B.O",
    "Deliverystatus": "Delivery",
    "divisionname": "Moradabad",
    "regionname": "Bareilly",
    "circlename": "Uttar Pradesh",
    "Taluk": "Chandausi",
    "Districtname": "Moradabad",
    "statename": "UTTAR PRADESH"
  },
  {
    "pincode": "244412",
    "officename": "Janeta B.O",
    "officeType": "B.O",
    "Deliverystatus": "Delivery",
    "divisionname": "Moradabad",
    "regionname": "Bareilly",
    "circlename": "Uttar Pradesh",
    "Taluk": "Chandausi",
    "Districtname": "Moradabad",
    "statename": "UTTAR PRADESH"
  },
  {
    "pincode": "244412",
    "officename": "Kaithal B.O",
    "officeType": "B.O",
    "Deliverystatus": "Delivery",
    "divisionname": "Moradabad",
    "regionname": "Bareilly",
    "circlename": "Uttar Pradesh",
    "Taluk": "Chandausi",
    "Districtname": "Moradabad",
    "statename": "UTTAR PRADESH"
  },
  {
    "pincode": "244412",
    "officename": "Mai B.O",
    "officeType": "B.O",
    "Deliverystatus": "Delivery",
    "divisionname": "Moradabad",
    "regionname": "Bareilly",
    "circlename": "Uttar Pradesh",
    "Taluk": "Chandausi",
    "Districtname": "Moradabad",
    "statename": "UTTAR PRADESH"
  },
  {
    "pincode": "244412",
    "officename": "Maulagarh B.O",
    "officeType": "B.O",
    "Deliverystatus": "Delivery",
    "divisionname": "Moradabad",
    "regionname": "Bareilly",
    "circlename": "Uttar Pradesh",
    "Taluk": "Chandausi",
    "Districtname": "Moradabad",
    "statename": "UTTAR PRADESH"
  },
  {
    "pincode": "244412",
    "officename": "Mohd. Ganj B.O",
    "officeType": "B.O",
    "Deliverystatus": "Delivery",
    "divisionname": "Moradabad",
    "regionname": "Bareilly",
    "circlename": "Uttar Pradesh",
    "Taluk": "Chandausi",
    "Districtname": "Moradabad",
    "statename": "UTTAR PRADESH"
  },
  {
    "pincode": "244412",
    "officename": "Nagla Purvi B.O",
    "officeType": "B.O",
    "Deliverystatus": "Delivery",
    "divisionname": "Moradabad",
    "regionname": "Bareilly",
    "circlename": "Uttar Pradesh",
    "Taluk": "Chandausi",
    "Districtname": "Moradabad",
    "statename": "UTTAR PRADESH"
  },
  {
    "pincode": "244412",
    "officename": "Raholi B.O",
    "officeType": "B.O",
    "Deliverystatus": "Delivery",
    "divisionname": "Moradabad",
    "regionname": "Bareilly",
    "circlename": "Uttar Pradesh",
    "Taluk": "Chandausi",
    "Districtname": "Moradabad",
    "statename": "UTTAR PRADESH"
  },
  {
    "pincode": "244412",
    "officename": "Railway Colony Chandausi S.O",
    "officeType": "S.O",
    "Deliverystatus": "Non-Delivery",
    "divisionname": "Moradabad",
    "regionname": "Bareilly",
    "circlename": "Uttar Pradesh",
    "Taluk": "Chandausi",
    "Districtname": "Moradabad",
    "statename": "UTTAR PRADESH"
  }
]
