[
  {
    "pincode": "244410",
    "officename": "Alpur Maithara B.O",
    "officeType": "B.O",
    "Deliverystatus": "Delivery",
    "divisionname": "Moradabad",
    "regionname": "Bareilly",
    "circlename": "Uttar Pradesh",
    "Taluk": "Chandausi",
    "Districtname": "Moradabad",
    "statename": "UTTAR PRADESH"
  },
  {
    "pincode": "244410",
    "officename": "Bahjoi S.O",
    "officeType": "S.O",
    "Deliverystatus": "Delivery",
    "divisionname": "Moradabad",
    "regionname": "Bareilly",
    "circlename": "Uttar Pradesh",
    "Taluk": "Chandausi",
    "Districtname": "Moradabad",
    "statename": "UTTAR PRADESH"
  },
  {
    "pincode": "244410",
    "officename": "Chatan B.O",
    "officeType": "B.O",
    "Deliverystatus": "Delivery",
    "divisionname": "Moradabad",
    "regionname": "Bareilly",
    "circlename": "Uttar Pradesh",
    "Taluk": "Chandausi",
    "Districtname": "Moradabad",
    "statename": "UTTAR PRADESH"
  },
  {
    "pincode": "244410",
    "officename": "Fatehpur Samsoi B.O",
    "officeType": "B.O",
    "Deliverystatus": "Delivery",
    "divisionname": "Moradabad",
    "regionname": "Bareilly",
    "circlename": "Uttar Pradesh",
    "Taluk": "Chandausi",
    "Districtname": "Moradabad",
    "statename": "UTTAR PRADESH"
  },
  {
    "pincode": "244410",
    "officename": "Firidpur Khushal B.O",
    "officeType": "B.O",
    "Deliverystatus": "Delivery",
    "divisionname": "Moradabad",
    "regionname": "Bareilly",
    "circlename": "Uttar Pradesh",
    "Taluk": "Chandausi",
    "Districtname": "Moradabad",
    "statename": "UTTAR PRADESH"
  },
  {
    "pincode": "244410",
    "officename": "Jarai Hayat Nagar B.O",
    "officeType": "B.O",
    "Deliverystatus": "Delivery",
    "divisionname": "Moradabad",
    "regionname": "Bareilly",
    "circlename": "Uttar Pradesh",
    "Taluk": "Chandausi",
    "Districtname": "Moradabad",
    "statename": "UTTAR PRADESH"
  },
  {
    "pincode": "244410",
    "officename": "Majhola B.O",
    "officeType": "B.O",
    "Deliverystatus": "Delivery",
    "divisionname": "Moradabad",
    "regionname": "Bareilly",
    "circlename": "Uttar Pradesh",
    "Taluk": "Chandausi",
    "Districtname": "Moradabad",
    "statename": "UTTAR PRADESH"
  },
  {
    "pincode": "244410",
    "officename": "Mau Ka Ther B.O",
    "officeType": "B.O",
    "Deliverystatus": "Delivery",
    "divisionname": "Moradabad",
    "regionname": "Bareilly",
    "circlename": "Uttar Pradesh",
    "Taluk": "Chandausi",
    "Districtname": "Moradabad",
    "statename": "UTTAR PRADESH"
  },
  {
    "pincode": "244410",
    "officename": "Mulhata B.O",
    "officeType": "B.O",
    "Deliverystatus": "Delivery",
    "divisionname": "Moradabad",
    "regionname": "Bareilly",
    "circlename": "Uttar Pradesh",
    "Taluk": "Chandausi",
    "Districtname": "Moradabad",
    "statename": "UTTAR PRADESH"
  },
  {
    "pincode": "244410",
    "officename": "Nadhos B.O",
    "officeType": "B.O",
    "Deliverystatus": "Delivery",
    "divisionname": "Moradabad",
    "regionname": "Bareilly",
    "circlename": "Uttar Pradesh",
    "Taluk": "Chandausi",
    "Districtname": "Moradabad",
    "statename": "UTTAR PRADESH"
  },
  {
    "pincode": "244410",
    "officename": "Pathakpur B.O",
    "officeType": "B.O",
    "Deliverystatus": "Delivery",
    "divisionname": "Moradabad",
    "regionname": "Bareilly",
    "circlename": "Uttar Pradesh",
    "Taluk": "Chandausi",
    "Districtname": "Moradabad",
    "statename": "UTTAR PRADESH"
  },
  {
    "pincode": "244410",
    "officename": "Raipur Kalan B.O",
    "officeType": "B.O",
    "Deliverystatus": "Delivery",
    "divisionname": "Moradabad",
    "regionname": "Bareilly",
    "circlename": "Uttar Pradesh",
    "Taluk": "Chandausi",
    "Districtname": "Moradabad",
    "statename": "UTTAR PRADESH"
  },
  {
    "pincode": "244410",
    "officename": "Rajpur Kalan B.O",
    "officeType": "B.O",
    "Deliverystatus": "Delivery",
    "divisionname": "Moradabad",
    "regionname": "Bareilly",
    "circlename": "Uttar Pradesh",
    "Taluk": "Chandausi",
    "Districtname": "Moradabad",
    "statename": "UTTAR PRADESH"
  },
  {
    "pincode": "244410",
    "officename": "Rampura B.O",
    "officeType": "B.O",
    "Deliverystatus": "Delivery",
    "divisionname": "Moradabad",
    "regionname": "Bareilly",
    "circlename": "Uttar Pradesh",
    "Taluk": "Chandausi",
    "Districtname": "Moradabad",
    "statename": "UTTAR PRADESH"
  },
  {
    "pincode": "244410",
    "officename": "Sadatwari B.O",
    "officeType": "B.O",
    "Deliverystatus": "Delivery",
    "divisionname": "Moradabad",
    "regionname": "Bareilly",
    "circlename": "Uttar Pradesh",
    "Taluk": "Chandausi",
    "Districtname": "Moradabad",
    "statename": "UTTAR PRADESH"
  },
  {
    "pincode": "244410",
    "officename": "Sheoraj  Pur B.O",
    "officeType": "B.O",
    "Deliverystatus": "Delivery",
    "divisionname": "Moradabad",
    "regionname": "Bareilly",
    "circlename": "Uttar Pradesh",
    "Taluk": "Chandausi",
    "Districtname": "Moradabad",
    "statename": "UTTAR PRADESH"
  }
]
