[
  {
    "pincode": "244501",
    "officename": "Akbarpur Sihali B.O",
    "officeType": "B.O",
    "Deliverystatus": "Delivery",
    "divisionname": "Moradabad",
    "regionname": "Bareilly",
    "circlename": "Uttar Pradesh",
    "Taluk": "Kanth",
    "Districtname": "Jyotiba Phule Nagar",
    "statename": "UTTAR PRADESH"
  },
  {
    "pincode": "244501",
    "officename": "Basera Taga B.O",
    "officeType": "B.O",
    "Deliverystatus": "Delivery",
    "divisionname": "Moradabad",
    "regionname": "Bareilly",
    "circlename": "Uttar Pradesh",
    "Taluk": "Kanth",
    "Districtname": "Jyotiba Phule Nagar",
    "statename": "UTTAR PRADESH"
  },
  {
    "pincode": "244501",
    "officename": "Bibra Khurd B.O",
    "officeType": "B.O",
    "Deliverystatus": "Delivery",
    "divisionname": "Moradabad",
    "regionname": "Bareilly",
    "circlename": "Uttar Pradesh",
    "Taluk": "Amroha",
    "Districtname": "Jyotiba Phule Nagar",
    "statename": "UTTAR PRADESH"
  },
  {
    "pincode": "244501",
    "officename": "Chhajlet B.O",
    "officeType": "B.O",
    "Deliverystatus": "Delivery",
    "divisionname": "Moradabad",
    "regionname": "Bareilly",
    "circlename": "Uttar Pradesh",
    "Taluk": "Moradabad",
    "Districtname": "Moradabad",
    "statename": "UTTAR PRADESH"
  },
  {
    "pincode": "244501",
    "officename": "Garhi Salempur B.O",
    "officeType": "B.O",
    "Deliverystatus": "Delivery",
    "divisionname": "Moradabad",
    "regionname": "Bareilly",
    "circlename": "Uttar Pradesh",
    "Taluk": "Amroha",
    "Districtname": "Jyotiba Phule Nagar",
    "statename": "UTTAR PRADESH"
  },
  {
    "pincode": "244501",
    "officename": "Jahangirpur Chakpheri B.O",
    "officeType": "B.O",
    "Deliverystatus": "Delivery",
    "divisionname": "Moradabad",
    "regionname": "Bareilly",
    "circlename": "Uttar Pradesh",
    "Taluk": "Amroha",
    "Districtname": "Jyotiba Phule Nagar",
    "statename": "UTTAR PRADESH"
  },
  {
    "pincode": "244501",
    "officename": "Jamna Khas B.O",
    "officeType": "B.O",
    "Deliverystatus": "Delivery",
    "divisionname": "Moradabad",
    "regionname": "Bareilly",
    "circlename": "Uttar Pradesh",
    "Taluk": "Amroha",
    "Districtname": "Jyotiba Phule Nagar",
    "statename": "UTTAR PRADESH"
  },
  {
    "pincode": "244501",
    "officename": "Kail Bakri B.O",
    "officeType": "B.O",
    "Deliverystatus": "Delivery",
    "divisionname": "Moradabad",
    "regionname": "Bareilly",
    "circlename": "Uttar Pradesh",
    "Taluk": "Amroha",
    "Districtname": "Jyotiba Phule Nagar",
    "statename": "UTTAR PRADESH"
  },
  {
    "pincode": "244501",
    "officename": "Kanth S.O",
    "officeType": "S.O",
    "Deliverystatus": "Delivery",
    "divisionname": "Moradabad",
    "regionname": "Bareilly",
    "circlename": "Uttar Pradesh",
    "Taluk": "Moradabad",
    "Districtname": "Moradabad",
    "statename": "UTTAR PRADESH"
  },
  {
    "pincode": "244501",
    "officename": "Kothi Khidmatpur B.O",
    "officeType": "B.O",
    "Deliverystatus": "Delivery",
    "divisionname": "Moradabad",
    "regionname": "Bareilly",
    "circlename": "Uttar Pradesh",
    "Taluk": "Amroha",
    "Districtname": "Jyotiba Phule Nagar",
    "statename": "UTTAR PRADESH"
  },
  {
    "pincode": "244501",
    "officename": "Kuri Rawana B.O",
    "officeType": "B.O",
    "Deliverystatus": "Delivery",
    "divisionname": "Moradabad",
    "regionname": "Bareilly",
    "circlename": "Uttar Pradesh",
    "Taluk": "Amroha",
    "Districtname": "Jyotiba Phule Nagar",
    "statename": "UTTAR PRADESH"
  },
  {
    "pincode": "244501",
    "officename": "Lakarhat B.O",
    "officeType": "B.O",
    "Deliverystatus": "Delivery",
    "divisionname": "Moradabad",
    "regionname": "Bareilly",
    "circlename": "Uttar Pradesh",
    "Taluk": "Amroha",
    "Districtname": "Jyotiba Phule Nagar",
    "statename": "UTTAR PRADESH"
  },
  {
    "pincode": "244501",
    "officename": "Madhpur B.O",
    "officeType": "B.O",
    "Deliverystatus": "Delivery",
    "divisionname": "Moradabad",
    "regionname": "Bareilly",
    "circlename": "Uttar Pradesh",
    "Taluk": "Amroha",
    "Districtname": "Jyotiba Phule Nagar",
    "statename": "UTTAR PRADESH"
  },
  {
    "pincode": "244501",
    "officename": "Matlabpur Sadarpur B.O",
    "officeType": "B.O",
    "Deliverystatus": "Delivery",
    "divisionname": "Moradabad",
    "regionname": "Bareilly",
    "circlename": "Uttar Pradesh",
    "Taluk": "Amroha",
    "Districtname": "Jyotiba Phule Nagar",
    "statename": "UTTAR PRADESH"
  },
  {
    "pincode": "244501",
    "officename": "Mohd.Pur Mafi B.O",
    "officeType": "B.O",
    "Deliverystatus": "Delivery",
    "divisionname": "Moradabad",
    "regionname": "Bareilly",
    "circlename": "Uttar Pradesh",
    "Taluk": "Amroha",
    "Districtname": "Jyotiba Phule Nagar",
    "statename": "UTTAR PRADESH"
  },
  {
    "pincode": "244501",
    "officename": "Mundha Kheri B.O",
    "officeType": "B.O",
    "Deliverystatus": "Delivery",
    "divisionname": "Moradabad",
    "regionname": "Bareilly",
    "circlename": "Uttar Pradesh",
    "Taluk": "Moradabad",
    "Districtname": "Moradabad",
    "statename": "UTTAR PRADESH"
  },
  {
    "pincode": "244501",
    "officename": "Pathangi B.O",
    "officeType": "B.O",
    "Deliverystatus": "Delivery",
    "divisionname": "Moradabad",
    "regionname": "Bareilly",
    "circlename": "Uttar Pradesh",
    "Taluk": "Amroha",
    "Districtname": "Jyotiba Phule Nagar",
    "statename": "UTTAR PRADESH"
  },
  {
    "pincode": "244501",
    "officename": "Umari Kalan B.O",
    "officeType": "B.O",
    "Deliverystatus": "Delivery",
    "divisionname": "Moradabad",
    "regionname": "Bareilly",
    "circlename": "Uttar Pradesh",
    "Taluk": "Kanth",
    "Districtname": "Jyotiba Phule Nagar",
    "statename": "UTTAR PRADESH"
  }
]
