[
  {
    "pincode": "244713",
    "officename": "Chaukhandi B.O",
    "officeType": "B.O",
    "Deliverystatus": "Delivery",
    "divisionname": "Nainital",
    "regionname": "Dehradun",
    "circlename": "Uttarakhand",
    "Taluk": "Kashipur",
    "Districtname": "Udham Singh Nagar",
    "statename": "UTTARAKHAND"
  },
  {
    "pincode": "244713",
    "officename": "Dhakia No 1 B.O",
    "officeType": "B.O",
    "Deliverystatus": "Delivery",
    "divisionname": "Nainital",
    "regionname": "Dehradun",
    "circlename": "Uttarakhand",
    "Taluk": "Kashipur",
    "Districtname": "Udham Singh Nagar",
    "statename": "UTTARAKHAND"
  },
  {
    "pincode": "244713",
    "officename": "Dhanauri B.O",
    "officeType": "B.O",
    "Deliverystatus": "Delivery",
    "divisionname": "Nainital",
    "regionname": "Dehradun",
    "circlename": "Uttarakhand",
    "Taluk": "Kashipur",
    "Districtname": "Udham Singh Nagar",
    "statename": "UTTARAKHAND"
  },
  {
    "pincode": "244713",
    "officename": "Ganeshnagar B.O",
    "officeType": "B.O",
    "Deliverystatus": "Delivery",
    "divisionname": "Nainital",
    "regionname": "Dehradun",
    "circlename": "Uttarakhand",
    "Taluk": "Kashipur",
    "Districtname": "Udham Singh Nagar",
    "statename": "UTTARAKHAND"
  },
  {
    "pincode": "244713",
    "officename": "Hariawala Chauraha S.O",
    "officeType": "S.O",
    "Deliverystatus": "Non-Delivery",
    "divisionname": "Nainital",
    "regionname": "Dehradun",
    "circlename": "Uttarakhand",
    "Taluk": "Nainital",
    "Districtname": "Nainital",
    "statename": "UTTARAKHAND"
  },
  {
    "pincode": "244713",
    "officename": "Industrial Area Kashipur S.O",
    "officeType": "S.O",
    "Deliverystatus": "Non-Delivery",
    "divisionname": "Nainital",
    "regionname": "Dehradun",
    "circlename": "Uttarakhand",
    "Taluk": "Kshipur",
    "Districtname": "Udham Singh Nagar",
    "statename": "UTTARAKHAND"
  },
  {
    "pincode": "244713",
    "officename": "Karanpur B.O",
    "officeType": "B.O",
    "Deliverystatus": "Delivery",
    "divisionname": "Nainital",
    "regionname": "Dehradun",
    "circlename": "Uttarakhand",
    "Taluk": "Kashipur",
    "Districtname": "Udham Singh Nagar",
    "statename": "UTTARAKHAND"
  },
  {
    "pincode": "244713",
    "officename": "Kashipur (Udham Singh Nagar) S.O",
    "officeType": "S.O",
    "Deliverystatus": "Delivery",
    "divisionname": "Nainital",
    "regionname": "Dehradun",
    "circlename": "Uttarakhand",
    "Taluk": "Kashipur",
    "Districtname": "Udham Singh Nagar",
    "statename": "UTTARAKHAND"
  },
  {
    "pincode": "244713",
    "officename": "Kila Street S.O",
    "officeType": "S.O",
    "Deliverystatus": "Non-Delivery",
    "divisionname": "Nainital",
    "regionname": "Dehradun",
    "circlename": "Uttarakhand",
    "Taluk": "Kashipur",
    "Districtname": "Udham Singh Nagar",
    "statename": "UTTARAKHAND"
  },
  {
    "pincode": "244713",
    "officename": "Kunda B.O",
    "officeType": "B.O",
    "Deliverystatus": "Delivery",
    "divisionname": "Nainital",
    "regionname": "Dehradun",
    "circlename": "Uttarakhand",
    "Taluk": "Kashipur",
    "Districtname": "Udham Singh Nagar",
    "statename": "UTTARAKHAND"
  },
  {
    "pincode": "244713",
    "officename": "Kundeshwari B.O",
    "officeType": "B.O",
    "Deliverystatus": "Delivery",
    "divisionname": "Nainital",
    "regionname": "Dehradun",
    "circlename": "Uttarakhand",
    "Taluk": "Kashipur",
    "Districtname": "Udham Singh Nagar",
    "statename": "UTTARAKHAND"
  },
  {
    "pincode": "244713",
    "officename": "Mahuwakhera B.O",
    "officeType": "B.O",
    "Deliverystatus": "Delivery",
    "divisionname": "Nainital",
    "regionname": "Dehradun",
    "circlename": "Uttarakhand",
    "Taluk": "Kichha",
    "Districtname": "Udham Singh Nagar",
    "statename": "UTTARAKHAND"
  },
  {
    "pincode": "244713",
    "officename": "Maldhanchaur B.O",
    "officeType": "B.O",
    "Deliverystatus": "Delivery",
    "divisionname": "Nainital",
    "regionname": "Dehradun",
    "circlename": "Uttarakhand",
    "Taluk": "Kashipur",
    "Districtname": "Udham Singh Nagar",
    "statename": "UTTARAKHAND"
  },
  {
    "pincode": "244713",
    "officename": "Pratappur B.O",
    "officeType": "B.O",
    "Deliverystatus": "Delivery",
    "divisionname": "Nainital",
    "regionname": "Dehradun",
    "circlename": "Uttarakhand",
    "Taluk": "Kashipur",
    "Districtname": "Udham Singh Nagar",
    "statename": "UTTARAKHAND"
  },
  {
    "pincode": "244713",
    "officename": "Shivrajpur B.O",
    "officeType": "B.O",
    "Deliverystatus": "Delivery",
    "divisionname": "Nainital",
    "regionname": "Dehradun",
    "circlename": "Uttarakhand",
    "Taluk": "Kashipur",
    "Districtname": "Udham Singh Nagar",
    "statename": "UTTARAKHAND"
  },
  {
    "pincode": "244713",
    "officename": "Spinning Mill Kashipur B.O",
    "officeType": "B.O",
    "Deliverystatus": "Delivery",
    "divisionname": "Nainital",
    "regionname": "Dehradun",
    "circlename": "Uttarakhand",
    "Taluk": "Kashipur",
    "Districtname": "Udham Singh Nagar",
    "statename": "UTTARAKHAND"
  },
  {
    "pincode": "244713",
    "officename": "Sultanpur B.O",
    "officeType": "B.O",
    "Deliverystatus": "Delivery",
    "divisionname": "Nainital",
    "regionname": "Dehradun",
    "circlename": "Uttarakhand",
    "Taluk": "Bazpur",
    "Districtname": "Udham Singh Nagar",
    "statename": "UTTARAKHAND"
  }
]
