[
  {
    "pincode": "244921",
    "officename": "Ahor B.O",
    "officeType": "B.O",
    "Deliverystatus": "Delivery",
    "divisionname": "Moradabad",
    "regionname": "Bareilly",
    "circlename": "Uttar Pradesh",
    "Taluk": "Bilasour",
    "Districtname": "Rampur",
    "statename": "UTTAR PRADESH"
  },
  {
    "pincode": "244921",
    "officename": "Anwaria Talibabad B.O",
    "officeType": "B.O",
    "Deliverystatus": "Delivery",
    "divisionname": "Moradabad",
    "regionname": "Bareilly",
    "circlename": "Uttar Pradesh",
    "Taluk": "Bilaspur",
    "Districtname": "Rampur",
    "statename": "UTTAR PRADESH"
  },
  {
    "pincode": "244921",
    "officename": "Begamabad B.O",
    "officeType": "B.O",
    "Deliverystatus": "Delivery",
    "divisionname": "Moradabad",
    "regionname": "Bareilly",
    "circlename": "Uttar Pradesh",
    "Taluk": "Bilaspur",
    "Districtname": "Rampur",
    "statename": "UTTAR PRADESH"
  },
  {
    "pincode": "244921",
    "officename": "Bhansia Jawalapuri B.O",
    "officeType": "B.O",
    "Deliverystatus": "Delivery",
    "divisionname": "Moradabad",
    "regionname": "Bareilly",
    "circlename": "Uttar Pradesh",
    "Taluk": "Bilaspur",
    "Districtname": "Rampur",
    "statename": "UTTAR PRADESH"
  },
  {
    "pincode": "244921",
    "officename": "Bilaspur (Rampur) S.O",
    "officeType": "S.O",
    "Deliverystatus": "Delivery",
    "divisionname": "Moradabad",
    "regionname": "Bareilly",
    "circlename": "Uttar Pradesh",
    "Taluk": "Bilaspur",
    "Districtname": "Rampur",
    "statename": "UTTAR PRADESH"
  },
  {
    "pincode": "244921",
    "officename": "Chandela B.O",
    "officeType": "B.O",
    "Deliverystatus": "Delivery",
    "divisionname": "Moradabad",
    "regionname": "Bareilly",
    "circlename": "Uttar Pradesh",
    "Taluk": "Bilaspur",
    "Districtname": "Rampur",
    "statename": "UTTAR PRADESH"
  },
  {
    "pincode": "244921",
    "officename": "Hamidabad B.O",
    "officeType": "B.O",
    "Deliverystatus": "Delivery",
    "divisionname": "Moradabad",
    "regionname": "Bareilly",
    "circlename": "Uttar Pradesh",
    "Taluk": "Bilaspur",
    "Districtname": "Rampur",
    "statename": "UTTAR PRADESH"
  },
  {
    "pincode": "244921",
    "officename": "Ishanagar B.O",
    "officeType": "B.O",
    "Deliverystatus": "Delivery",
    "divisionname": "Moradabad",
    "regionname": "Bareilly",
    "circlename": "Uttar Pradesh",
    "Taluk": "Bilaspur",
    "Districtname": "Rampur",
    "statename": "UTTAR PRADESH"
  },
  {
    "pincode": "244921",
    "officename": "Khandia B.O",
    "officeType": "B.O",
    "Deliverystatus": "Delivery",
    "divisionname": "Moradabad",
    "regionname": "Bareilly",
    "circlename": "Uttar Pradesh",
    "Taluk": "Bilaspur",
    "Districtname": "Rampur",
    "statename": "UTTAR PRADESH"
  },
  {
    "pincode": "244921",
    "officename": "Khempur B.O",
    "officeType": "B.O",
    "Deliverystatus": "Delivery",
    "divisionname": "Moradabad",
    "regionname": "Bareilly",
    "circlename": "Uttar Pradesh",
    "Taluk": "Bilaspur",
    "Districtname": "Rampur",
    "statename": "UTTAR PRADESH"
  },
  {
    "pincode": "244921",
    "officename": "Matkhera B.O",
    "officeType": "B.O",
    "Deliverystatus": "Delivery",
    "divisionname": "Moradabad",
    "regionname": "Bareilly",
    "circlename": "Uttar Pradesh",
    "Taluk": "Bilaspur",
    "Districtname": "Rampur",
    "statename": "UTTAR PRADESH"
  },
  {
    "pincode": "244921",
    "officename": "Milak Khanam B.O",
    "officeType": "B.O",
    "Deliverystatus": "Delivery",
    "divisionname": "Moradabad",
    "regionname": "Bareilly",
    "circlename": "Uttar Pradesh",
    "Taluk": "Builaspur",
    "Districtname": "Rampur",
    "statename": "UTTAR PRADESH"
  },
  {
    "pincode": "244921",
    "officename": "Mulla Khera B.O",
    "officeType": "B.O",
    "Deliverystatus": "Delivery",
    "divisionname": "Moradabad",
    "regionname": "Bareilly",
    "circlename": "Uttar Pradesh",
    "Taluk": "Bilaspur",
    "Districtname": "Rampur",
    "statename": "UTTAR PRADESH"
  },
  {
    "pincode": "244921",
    "officename": "Nawabganj B.O",
    "officeType": "B.O",
    "Deliverystatus": "Delivery",
    "divisionname": "Moradabad",
    "regionname": "Bareilly",
    "circlename": "Uttar Pradesh",
    "Taluk": "Bilaspur",
    "Districtname": "Rampur",
    "statename": "UTTAR PRADESH"
  },
  {
    "pincode": "244921",
    "officename": "Paigamberpur B.O",
    "officeType": "B.O",
    "Deliverystatus": "Delivery",
    "divisionname": "Moradabad",
    "regionname": "Bareilly",
    "circlename": "Uttar Pradesh",
    "Taluk": "Bilaspur",
    "Districtname": "Rampur",
    "statename": "UTTAR PRADESH"
  },
  {
    "pincode": "244921",
    "officename": "Pipalia Gopal B.O",
    "officeType": "B.O",
    "Deliverystatus": "Delivery",
    "divisionname": "Moradabad",
    "regionname": "Bareilly",
    "circlename": "Uttar Pradesh",
    "Taluk": "Bilaspur",
    "Districtname": "Rampur",
    "statename": "UTTAR PRADESH"
  },
  {
    "pincode": "244921",
    "officename": "Rasdandia B.O",
    "officeType": "B.O",
    "Deliverystatus": "Delivery",
    "divisionname": "Moradabad",
    "regionname": "Bareilly",
    "circlename": "Uttar Pradesh",
    "Taluk": "Bilaspur",
    "Districtname": "Rampur",
    "statename": "UTTAR PRADESH"
  },
  {
    "pincode": "244921",
    "officename": "Ratanpura B.O",
    "officeType": "B.O",
    "Deliverystatus": "Delivery",
    "divisionname": "Moradabad",
    "regionname": "Bareilly",
    "circlename": "Uttar Pradesh",
    "Taluk": "Bilaspur",
    "Districtname": "Rampur",
    "statename": "UTTAR PRADESH"
  },
  {
    "pincode": "244921",
    "officename": "Simaria B.O",
    "officeType": "B.O",
    "Deliverystatus": "Delivery",
    "divisionname": "Moradabad",
    "regionname": "Bareilly",
    "circlename": "Uttar Pradesh",
    "Taluk": "Bilaspur",
    "Districtname": "Rampur",
    "statename": "UTTAR PRADESH"
  }
]
