[
  {
    "pincode": "244924",
    "officename": "Bhawani Nagar B.O",
    "officeType": "B.O",
    "Deliverystatus": "Delivery",
    "divisionname": "Moradabad",
    "regionname": "Bareilly",
    "circlename": "Uttar Pradesh",
    "Taluk": "Suar",
    "Districtname": "Rampur",
    "statename": "UTTAR PRADESH"
  },
  {
    "pincode": "244924",
    "officename": "Bhot Baqqal B.O",
    "officeType": "B.O",
    "Deliverystatus": "Non-Delivery",
    "divisionname": "Moradabad",
    "regionname": "Bareilly",
    "circlename": "Uttar Pradesh",
    "Taluk": "Suar",
    "Districtname": "Rampur",
    "statename": "UTTAR PRADESH"
  },
  {
    "pincode": "244924",
    "officename": "Doondawala B.O",
    "officeType": "B.O",
    "Deliverystatus": "Delivery",
    "divisionname": "Moradabad",
    "regionname": "Bareilly",
    "circlename": "Uttar Pradesh",
    "Taluk": "Suar",
    "Districtname": "Rampur",
    "statename": "UTTAR PRADESH"
  },
  {
    "pincode": "244924",
    "officename": "Khempur B.O",
    "officeType": "B.O",
    "Deliverystatus": "Delivery",
    "divisionname": "Moradabad",
    "regionname": "Bareilly",
    "circlename": "Uttar Pradesh",
    "Taluk": "Suar",
    "Districtname": "Rampur",
    "statename": "UTTAR PRADESH"
  },
  {
    "pincode": "244924",
    "officename": "Khod Sharif B.O",
    "officeType": "B.O",
    "Deliverystatus": "Delivery",
    "divisionname": "Moradabad",
    "regionname": "Bareilly",
    "circlename": "Uttar Pradesh",
    "Taluk": "Suar",
    "Districtname": "Rampur",
    "statename": "UTTAR PRADESH"
  },
  {
    "pincode": "244924",
    "officename": "Kunwarpur B.O",
    "officeType": "B.O",
    "Deliverystatus": "Delivery",
    "divisionname": "Moradabad",
    "regionname": "Bareilly",
    "circlename": "Uttar Pradesh",
    "Taluk": "Suar",
    "Districtname": "Rampur",
    "statename": "UTTAR PRADESH"
  },
  {
    "pincode": "244924",
    "officename": "Manpur B.O",
    "officeType": "B.O",
    "Deliverystatus": "Delivery",
    "divisionname": "Moradabad",
    "regionname": "Bareilly",
    "circlename": "Uttar Pradesh",
    "Taluk": "Suar",
    "Districtname": "Rampur",
    "statename": "UTTAR PRADESH"
  },
  {
    "pincode": "244924",
    "officename": "Maswasi B.O",
    "officeType": "B.O",
    "Deliverystatus": "Delivery",
    "divisionname": "Moradabad",
    "regionname": "Bareilly",
    "circlename": "Uttar Pradesh",
    "Taluk": "Suar",
    "Districtname": "Rampur",
    "statename": "UTTAR PRADESH"
  },
  {
    "pincode": "244924",
    "officename": "Meerapur Meerganj B.O",
    "officeType": "B.O",
    "Deliverystatus": "Delivery",
    "divisionname": "Moradabad",
    "regionname": "Bareilly",
    "circlename": "Uttar Pradesh",
    "Taluk": "Suar",
    "Districtname": "Rampur",
    "statename": "UTTAR PRADESH"
  },
  {
    "pincode": "244924",
    "officename": "Nanka Rani B.O",
    "officeType": "B.O",
    "Deliverystatus": "Delivery",
    "divisionname": "Moradabad",
    "regionname": "Bareilly",
    "circlename": "Uttar Pradesh",
    "Taluk": "Suar",
    "Districtname": "Rampur",
    "statename": "UTTAR PRADESH"
  },
  {
    "pincode": "244924",
    "officename": "Piagamberpur B.O",
    "officeType": "B.O",
    "Deliverystatus": "Delivery",
    "divisionname": "Moradabad",
    "regionname": "Bareilly",
    "circlename": "Uttar Pradesh",
    "Taluk": "Suar",
    "Districtname": "Rampur",
    "statename": "UTTAR PRADESH"
  },
  {
    "pincode": "244924",
    "officename": "Puswara B.O",
    "officeType": "B.O",
    "Deliverystatus": "Delivery",
    "divisionname": "Moradabad",
    "regionname": "Bareilly",
    "circlename": "Uttar Pradesh",
    "Taluk": "Suar",
    "Districtname": "Rampur",
    "statename": "UTTAR PRADESH"
  },
  {
    "pincode": "244924",
    "officename": "Rehmatganj B.O",
    "officeType": "B.O",
    "Deliverystatus": "Delivery",
    "divisionname": "Moradabad",
    "regionname": "Bareilly",
    "circlename": "Uttar Pradesh",
    "Taluk": "Suar",
    "Districtname": "Rampur",
    "statename": "UTTAR PRADESH"
  },
  {
    "pincode": "244924",
    "officename": "Samodia B.O",
    "officeType": "B.O",
    "Deliverystatus": "Delivery",
    "divisionname": "Moradabad",
    "regionname": "Bareilly",
    "circlename": "Uttar Pradesh",
    "Taluk": "Suar",
    "Districtname": "Rampur",
    "statename": "UTTAR PRADESH"
  },
  {
    "pincode": "244924",
    "officename": "Suar S.O",
    "officeType": "S.O",
    "Deliverystatus": "Delivery",
    "divisionname": "Moradabad",
    "regionname": "Bareilly",
    "circlename": "Uttar Pradesh",
    "Taluk": "Suar",
    "Districtname": "Rampur",
    "statename": "UTTAR PRADESH"
  }
]
