[
  {
    "pincode": "244925",
    "officename": "Daryal B.O",
    "officeType": "B.O",
    "Deliverystatus": "Delivery",
    "divisionname": "Moradabad",
    "regionname": "Bareilly",
    "circlename": "Uttar Pradesh",
    "Taluk": "Suar",
    "Districtname": "Rampur",
    "statename": "UTTAR PRADESH"
  },
  {
    "pincode": "244925",
    "officename": "Dhanupura B.O",
    "officeType": "B.O",
    "Deliverystatus": "Delivery",
    "divisionname": "Moradabad",
    "regionname": "Bareilly",
    "circlename": "Uttar Pradesh",
    "Taluk": "Suar",
    "Districtname": "Rampur",
    "statename": "UTTAR PRADESH"
  },
  {
    "pincode": "244925",
    "officename": "Dheeraj Nagar B.O",
    "officeType": "B.O",
    "Deliverystatus": "Delivery",
    "divisionname": "Moradabad",
    "regionname": "Bareilly",
    "circlename": "Uttar Pradesh",
    "Taluk": "Suar",
    "Districtname": "Rampur",
    "statename": "UTTAR PRADESH"
  },
  {
    "pincode": "244925",
    "officename": "Lambakhera B.O",
    "officeType": "B.O",
    "Deliverystatus": "Delivery",
    "divisionname": "Moradabad",
    "regionname": "Bareilly",
    "circlename": "Uttar Pradesh",
    "Taluk": "Suar",
    "Districtname": "Rampur",
    "statename": "UTTAR PRADESH"
  },
  {
    "pincode": "244925",
    "officename": "Manpur B.O",
    "officeType": "B.O",
    "Deliverystatus": "Delivery",
    "divisionname": "Moradabad",
    "regionname": "Bareilly",
    "circlename": "Uttar Pradesh",
    "Taluk": "Suar",
    "Districtname": "Rampur",
    "statename": "UTTAR PRADESH"
  },
  {
    "pincode": "244925",
    "officename": "Mewla Kalan B.O",
    "officeType": "B.O",
    "Deliverystatus": "Delivery",
    "divisionname": "Moradabad",
    "regionname": "Bareilly",
    "circlename": "Uttar Pradesh",
    "Taluk": "Moradabad",
    "Districtname": "Moradabad",
    "statename": "UTTAR PRADESH"
  },
  {
    "pincode": "244925",
    "officename": "Pipali Nayak B.O",
    "officeType": "B.O",
    "Deliverystatus": "Delivery",
    "divisionname": "Moradabad",
    "regionname": "Bareilly",
    "circlename": "Uttar Pradesh",
    "Taluk": "Suar",
    "Districtname": "Rampur",
    "statename": "UTTAR PRADESH"
  },
  {
    "pincode": "244925",
    "officename": "Ramnagar Latifpur B.O",
    "officeType": "B.O",
    "Deliverystatus": "Delivery",
    "divisionname": "Moradabad",
    "regionname": "Bareilly",
    "circlename": "Uttar Pradesh",
    "Taluk": "Suar",
    "Districtname": "Rampur",
    "statename": "UTTAR PRADESH"
  },
  {
    "pincode": "244925",
    "officename": "Tanda Badli S.O",
    "officeType": "S.O",
    "Deliverystatus": "Delivery",
    "divisionname": "Moradabad",
    "regionname": "Bareilly",
    "circlename": "Uttar Pradesh",
    "Taluk": "Rampur",
    "Districtname": "Rampur",
    "statename": "UTTAR PRADESH"
  },
  {
    "pincode": "244925",
    "officename": "Udmawala B.O",
    "officeType": "B.O",
    "Deliverystatus": "Delivery",
    "divisionname": "Moradabad",
    "regionname": "Bareilly",
    "circlename": "Uttar Pradesh",
    "Taluk": "Sambhal",
    "Districtname": "Moradabad",
    "statename": "UTTAR PRADESH"
  }
]
