[
  {
    "pincode": "244901",
    "officename": "Aghapur B.O",
    "officeType": "B.O",
    "Deliverystatus": "Delivery",
    "divisionname": "Moradabad",
    "regionname": "Bareilly",
    "circlename": "Uttar Pradesh",
    "Taluk": "Rampur",
    "Districtname": "Rampur",
    "statename": "UTTAR PRADESH"
  },
  {
    "pincode": "244901",
    "officename": "Ajit Pur B.O",
    "officeType": "B.O",
    "Deliverystatus": "Delivery",
    "divisionname": "Moradabad",
    "regionname": "Bareilly",
    "circlename": "Uttar Pradesh",
    "Taluk": "Rampur",
    "Districtname": "Rampur",
    "statename": "UTTAR PRADESH"
  },
  {
    "pincode": "244901",
    "officename": "Bakania B.O",
    "officeType": "B.O",
    "Deliverystatus": "Delivery",
    "divisionname": "Moradabad",
    "regionname": "Bareilly",
    "circlename": "Uttar Pradesh",
    "Taluk": "Rampur",
    "Districtname": "Rampur",
    "statename": "UTTAR PRADESH"
  },
  {
    "pincode": "244901",
    "officename": "Bara Khas B.O",
    "officeType": "B.O",
    "Deliverystatus": "Delivery",
    "divisionname": "Moradabad",
    "regionname": "Bareilly",
    "circlename": "Uttar Pradesh",
    "Taluk": "Rampur",
    "Districtname": "Rampur",
    "statename": "UTTAR PRADESH"
  },
  {
    "pincode": "244901",
    "officename": "Benazir B.O",
    "officeType": "B.O",
    "Deliverystatus": "Delivery",
    "divisionname": "Moradabad",
    "regionname": "Bareilly",
    "circlename": "Uttar Pradesh",
    "Taluk": "Rampur",
    "Districtname": "Rampur",
    "statename": "UTTAR PRADESH"
  },
  {
    "pincode": "244901",
    "officename": "Bhot B.O",
    "officeType": "B.O",
    "Deliverystatus": "Delivery",
    "divisionname": "Moradabad",
    "regionname": "Bareilly",
    "circlename": "Uttar Pradesh",
    "Taluk": "Rampur",
    "Districtname": "Rampur",
    "statename": "UTTAR PRADESH"
  },
  {
    "pincode": "244901",
    "officename": "C & M Store S.O",
    "officeType": "S.O",
    "Deliverystatus": "Non-Delivery",
    "divisionname": "Moradabad",
    "regionname": "Bareilly",
    "circlename": "Uttar Pradesh",
    "Taluk": "Rampur",
    "Districtname": "Rampur",
    "statename": "UTTAR PRADESH"
  },
  {
    "pincode": "244901",
    "officename": "C.R.P. Hq S.O",
    "officeType": "S.O",
    "Deliverystatus": "Non-Delivery",
    "divisionname": "Moradabad",
    "regionname": "Bareilly",
    "circlename": "Uttar Pradesh",
    "Taluk": "Rampur",
    "Districtname": "Rampur",
    "statename": "UTTAR PRADESH"
  },
  {
    "pincode": "244901",
    "officename": "Chamroa B.O",
    "officeType": "B.O",
    "Deliverystatus": "Delivery",
    "divisionname": "Moradabad",
    "regionname": "Bareilly",
    "circlename": "Uttar Pradesh",
    "Taluk": "Rampur",
    "Districtname": "Rampur",
    "statename": "UTTAR PRADESH"
  },
  {
    "pincode": "244901",
    "officename": "Chikti Ramnagar B.O",
    "officeType": "B.O",
    "Deliverystatus": "Delivery",
    "divisionname": "Moradabad",
    "regionname": "Bareilly",
    "circlename": "Uttar Pradesh",
    "Taluk": "Rampur",
    "Districtname": "Rampur",
    "statename": "UTTAR PRADESH"
  },
  {
    "pincode": "244901",
    "officename": "Civil Line Rampur S.O",
    "officeType": "S.O",
    "Deliverystatus": "Non-Delivery",
    "divisionname": "Moradabad",
    "regionname": "Bareilly",
    "circlename": "Uttar Pradesh",
    "Taluk": "Rampur",
    "Districtname": "Rampur",
    "statename": "UTTAR PRADESH"
  },
  {
    "pincode": "244901",
    "officename": "Daniapur B.O",
    "officeType": "B.O",
    "Deliverystatus": "Delivery",
    "divisionname": "Moradabad",
    "regionname": "Bareilly",
    "circlename": "Uttar Pradesh",
    "Taluk": "Rampur",
    "Districtname": "Rampur",
    "statename": "UTTAR PRADESH"
  },
  {
    "pincode": "244901",
    "officename": "Ialam Ganj S.O",
    "officeType": "S.O",
    "Deliverystatus": "Non-Delivery",
    "divisionname": "Moradabad",
    "regionname": "Bareilly",
    "circlename": "Uttar Pradesh",
    "Taluk": "Rampur",
    "Districtname": "Rampur",
    "statename": "UTTAR PRADESH"
  },
  {
    "pincode": "244901",
    "officename": "Juthia B.O",
    "officeType": "B.O",
    "Deliverystatus": "Delivery",
    "divisionname": "Moradabad",
    "regionname": "Bareilly",
    "circlename": "Uttar Pradesh",
    "Taluk": "Rampur",
    "Districtname": "Rampur",
    "statename": "UTTAR PRADESH"
  },
  {
    "pincode": "244901",
    "officename": "Jwala Nagar S.O",
    "officeType": "S.O",
    "Deliverystatus": "Non-Delivery",
    "divisionname": "Moradabad",
    "regionname": "Bareilly",
    "circlename": "Uttar Pradesh",
    "Taluk": "Rampur",
    "Districtname": "Rampur",
    "statename": "UTTAR PRADESH"
  },
  {
    "pincode": "244901",
    "officename": "Kakrawa B.O",
    "officeType": "B.O",
    "Deliverystatus": "Delivery",
    "divisionname": "Moradabad",
    "regionname": "Bareilly",
    "circlename": "Uttar Pradesh",
    "Taluk": "Rampur",
    "Districtname": "Rampur",
    "statename": "UTTAR PRADESH"
  },
  {
    "pincode": "244901",
    "officename": "Khusro Bagh B.O",
    "officeType": "B.O",
    "Deliverystatus": "Delivery",
    "divisionname": "Moradabad",
    "regionname": "Bareilly",
    "circlename": "Uttar Pradesh",
    "Taluk": "Rampur",
    "Districtname": "Rampur",
    "statename": "UTTAR PRADESH"
  },
  {
    "pincode": "244901",
    "officename": "Kira B.O",
    "officeType": "B.O",
    "Deliverystatus": "Delivery",
    "divisionname": "Moradabad",
    "regionname": "Bareilly",
    "circlename": "Uttar Pradesh",
    "Taluk": "Rampur",
    "Districtname": "Rampur",
    "statename": "UTTAR PRADESH"
  },
  {
    "pincode": "244901",
    "officename": "Koila B.O",
    "officeType": "B.O",
    "Deliverystatus": "Delivery",
    "divisionname": "Moradabad",
    "regionname": "Bareilly",
    "circlename": "Uttar Pradesh",
    "Taluk": "Rampur",
    "Districtname": "Rampur",
    "statename": "UTTAR PRADESH"
  },
  {
    "pincode": "244901",
    "officename": "M.B.Rampur S.O",
    "officeType": "S.O",
    "Deliverystatus": "Non-Delivery",
    "divisionname": "Moradabad",
    "regionname": "Bareilly",
    "circlename": "Uttar Pradesh",
    "Taluk": "Rampur",
    "Districtname": "Rampur",
    "statename": "UTTAR PRADESH"
  },
  {
    "pincode": "244901",
    "officename": "Madhauli B.O",
    "officeType": "B.O",
    "Deliverystatus": "Delivery",
    "divisionname": "Moradabad",
    "regionname": "Bareilly",
    "circlename": "Uttar Pradesh",
    "Taluk": "Rampur",
    "Districtname": "Rampur",
    "statename": "UTTAR PRADESH"
  },
  {
    "pincode": "244901",
    "officename": "Mahu Nagar B.O",
    "officeType": "B.O",
    "Deliverystatus": "Delivery",
    "divisionname": "Moradabad",
    "regionname": "Bareilly",
    "circlename": "Uttar Pradesh",
    "Taluk": "Rampur",
    "Districtname": "Rampur",
    "statename": "UTTAR PRADESH"
  },
  {
    "pincode": "244901",
    "officename": "Mathuraour B.O",
    "officeType": "B.O",
    "Deliverystatus": "Delivery",
    "divisionname": "Moradabad",
    "regionname": "Bareilly",
    "circlename": "Uttar Pradesh",
    "Taluk": "Rampur",
    "Districtname": "Rampur",
    "statename": "UTTAR PRADESH"
  },
  {
    "pincode": "244901",
    "officename": "Meston Ganj S.O",
    "officeType": "S.O",
    "Deliverystatus": "Non-Delivery",
    "divisionname": "Moradabad",
    "regionname": "Bareilly",
    "circlename": "Uttar Pradesh",
    "Taluk": "Rampur",
    "Districtname": "Rampur",
    "statename": "UTTAR PRADESH"
  },
  {
    "pincode": "244901",
    "officename": "Nankar B.O",
    "officeType": "B.O",
    "Deliverystatus": "Delivery",
    "divisionname": "Moradabad",
    "regionname": "Bareilly",
    "circlename": "Uttar Pradesh",
    "Taluk": "Rampur",
    "Districtname": "Rampur",
    "statename": "UTTAR PRADESH"
  },
  {
    "pincode": "244901",
    "officename": "Narkhera B.O",
    "officeType": "B.O",
    "Deliverystatus": "Delivery",
    "divisionname": "Moradabad",
    "regionname": "Bareilly",
    "circlename": "Uttar Pradesh",
    "Taluk": "Rampur",
    "Districtname": "Rampur",
    "statename": "UTTAR PRADESH"
  },
  {
    "pincode": "244901",
    "officename": "Nipania B.O",
    "officeType": "B.O",
    "Deliverystatus": "Delivery",
    "divisionname": "Moradabad",
    "regionname": "Bareilly",
    "circlename": "Uttar Pradesh",
    "Taluk": "Rampur",
    "Districtname": "Rampur",
    "statename": "UTTAR PRADESH"
  },
  {
    "pincode": "244901",
    "officename": "Patwai B.O",
    "officeType": "B.O",
    "Deliverystatus": "Delivery",
    "divisionname": "Moradabad",
    "regionname": "Bareilly",
    "circlename": "Uttar Pradesh",
    "Taluk": "Rampur",
    "Districtname": "Rampur",
    "statename": "UTTAR PRADESH"
  },
  {
    "pincode": "244901",
    "officename": "Punjab Nagar B.O",
    "officeType": "B.O",
    "Deliverystatus": "Delivery",
    "divisionname": "Moradabad",
    "regionname": "Bareilly",
    "circlename": "Uttar Pradesh",
    "Taluk": "Rampur",
    "Districtname": "Rampur",
    "statename": "UTTAR PRADESH"
  },
  {
    "pincode": "244901",
    "officename": "Purana Ganj S.O",
    "officeType": "S.O",
    "Deliverystatus": "Non-Delivery",
    "divisionname": "Moradabad",
    "regionname": "Bareilly",
    "circlename": "Uttar Pradesh",
    "Taluk": "Rampur",
    "Districtname": "Rampur",
    "statename": "UTTAR PRADESH"
  },
  {
    "pincode": "244901",
    "officename": "Rampur Chowk S.O",
    "officeType": "S.O",
    "Deliverystatus": "Non-Delivery",
    "divisionname": "Moradabad",
    "regionname": "Bareilly",
    "circlename": "Uttar Pradesh",
    "Taluk": "Rampur",
    "Districtname": "Rampur",
    "statename": "UTTAR PRADESH"
  },
  {
    "pincode": "244901",
    "officename": "Rampur City S.O",
    "officeType": "S.O",
    "Deliverystatus": "Non-Delivery",
    "divisionname": "Moradabad",
    "regionname": "Bareilly",
    "circlename": "Uttar Pradesh",
    "Taluk": "Rampur",
    "Districtname": "Rampur",
    "statename": "UTTAR PRADESH"
  },
  {
    "pincode": "244901",
    "officename": "Rampur Distilliry S.O",
    "officeType": "S.O",
    "Deliverystatus": "Non-Delivery",
    "divisionname": "Moradabad",
    "regionname": "Bareilly",
    "circlename": "Uttar Pradesh",
    "Taluk": "Rampur",
    "Districtname": "Rampur",
    "statename": "UTTAR PRADESH"
  },
  {
    "pincode": "244901",
    "officename": "Rampur H.O",
    "officeType": "H.O",
    "Deliverystatus": "Delivery",
    "divisionname": "Moradabad",
    "regionname": "Bareilly",
    "circlename": "Uttar Pradesh",
    "Taluk": "Rampur",
    "Districtname": "Rampur",
    "statename": "UTTAR PRADESH"
  },
  {
    "pincode": "244901",
    "officename": "Rampur Secretariate S.O",
    "officeType": "S.O",
    "Deliverystatus": "Non-Delivery",
    "divisionname": "Moradabad",
    "regionname": "Bareilly",
    "circlename": "Uttar Pradesh",
    "Taluk": "Rampur",
    "Districtname": "Rampur",
    "statename": "UTTAR PRADESH"
  },
  {
    "pincode": "244901",
    "officename": "Rawari Kalan B.O",
    "officeType": "B.O",
    "Deliverystatus": "Delivery",
    "divisionname": "Moradabad",
    "regionname": "Bareilly",
    "circlename": "Uttar Pradesh",
    "Taluk": "Rampur",
    "Districtname": "Rampur",
    "statename": "UTTAR PRADESH"
  },
  {
    "pincode": "244901",
    "officename": "Roshan Bag Road B.O",
    "officeType": "B.O",
    "Deliverystatus": "Delivery",
    "divisionname": "Moradabad",
    "regionname": "Bareilly",
    "circlename": "Uttar Pradesh",
    "Taluk": "Rampur",
    "Districtname": "Rampur",
    "statename": "UTTAR PRADESH"
  },
  {
    "pincode": "244901",
    "officename": "Tehsil Rampur S.O",
    "officeType": "S.O",
    "Deliverystatus": "Non-Delivery",
    "divisionname": "Moradabad",
    "regionname": "Bareilly",
    "circlename": "Uttar Pradesh",
    "Taluk": "Rampur",
    "Districtname": "Rampur",
    "statename": "UTTAR PRADESH"
  }
]
