[
  {
    "pincode": "245101",
    "officename": "Achheja B.O",
    "officeType": "B.O",
    "Deliverystatus": "Non-Delivery",
    "divisionname": "Ghaziabad",
    "regionname": "Lucknow  HQ",
    "circlename": "Uttar Pradesh",
    "Taluk": "Hapur",
    "Districtname": "Ghaziabad",
    "statename": "UTTAR PRADESH"
  },
  {
    "pincode": "245101",
    "officename": "Asaura B.O",
    "officeType": "B.O",
    "Deliverystatus": "Non-Delivery",
    "divisionname": "Ghaziabad",
    "regionname": "Lucknow  HQ",
    "circlename": "Uttar Pradesh",
    "Taluk": "Hapur",
    "Districtname": "Ghaziabad",
    "statename": "UTTAR PRADESH"
  },
  {
    "pincode": "245101",
    "officename": "Atola B.O",
    "officeType": "B.O",
    "Deliverystatus": "Non-Delivery",
    "divisionname": "Ghaziabad",
    "regionname": "Lucknow  HQ",
    "circlename": "Uttar Pradesh",
    "Taluk": "Hapur",
    "Districtname": "Ghaziabad",
    "statename": "UTTAR PRADESH"
  },
  {
    "pincode": "245101",
    "officename": "Bajhera Kalan B.O",
    "officeType": "B.O",
    "Deliverystatus": "Non-Delivery",
    "divisionname": "Ghaziabad",
    "regionname": "Lucknow  HQ",
    "circlename": "Uttar Pradesh",
    "Taluk": "Hapur",
    "Districtname": "Ghaziabad",
    "statename": "UTTAR PRADESH"
  },
  {
    "pincode": "245101",
    "officename": "Bhatiyana B.O",
    "officeType": "B.O",
    "Deliverystatus": "Non-Delivery",
    "divisionname": "Ghaziabad",
    "regionname": "Lucknow  HQ",
    "circlename": "Uttar Pradesh",
    "Taluk": "Hapur",
    "Districtname": "Ghaziabad",
    "statename": "UTTAR PRADESH"
  },
  {
    "pincode": "245101",
    "officename": "Chamri B.O",
    "officeType": "B.O",
    "Deliverystatus": "Delivery",
    "divisionname": "Ghaziabad",
    "regionname": "Lucknow  HQ",
    "circlename": "Uttar Pradesh",
    "Taluk": "Hapur",
    "Districtname": "Ghaziabad",
    "statename": "UTTAR PRADESH"
  },
  {
    "pincode": "245101",
    "officename": "Chhajupur B.O",
    "officeType": "B.O",
    "Deliverystatus": "Non-Delivery",
    "divisionname": "Ghaziabad",
    "regionname": "Lucknow  HQ",
    "circlename": "Uttar Pradesh",
    "Taluk": "Hapur",
    "Districtname": "Ghaziabad",
    "statename": "UTTAR PRADESH"
  },
  {
    "pincode": "245101",
    "officename": "Dadri B.O",
    "officeType": "B.O",
    "Deliverystatus": "Non-Delivery",
    "divisionname": "Ghaziabad",
    "regionname": "Lucknow  HQ",
    "circlename": "Uttar Pradesh",
    "Taluk": "Hapur",
    "Districtname": "Ghaziabad",
    "statename": "UTTAR PRADESH"
  },
  {
    "pincode": "245101",
    "officename": "Dahana B.O",
    "officeType": "B.O",
    "Deliverystatus": "Non-Delivery",
    "divisionname": "Ghaziabad",
    "regionname": "Lucknow  HQ",
    "circlename": "Uttar Pradesh",
    "Taluk": "Hapur",
    "Districtname": "Ghaziabad",
    "statename": "UTTAR PRADESH"
  },
  {
    "pincode": "245101",
    "officename": "Dhanaura B.O",
    "officeType": "B.O",
    "Deliverystatus": "Non-Delivery",
    "divisionname": "Ghaziabad",
    "regionname": "Lucknow  HQ",
    "circlename": "Uttar Pradesh",
    "Taluk": "Hapur",
    "Districtname": "Ghaziabad",
    "statename": "UTTAR PRADESH"
  },
  {
    "pincode": "245101",
    "officename": "Ghungrala B.O",
    "officeType": "B.O",
    "Deliverystatus": "Non-Delivery",
    "divisionname": "Ghaziabad",
    "regionname": "Lucknow  HQ",
    "circlename": "Uttar Pradesh",
    "Taluk": "Hapur",
    "Districtname": "Ghaziabad",
    "statename": "UTTAR PRADESH"
  },
  {
    "pincode": "245101",
    "officename": "Girdharpur Tmrel B.O",
    "officeType": "B.O",
    "Deliverystatus": "Non-Delivery",
    "divisionname": "Ghaziabad",
    "regionname": "Lucknow  HQ",
    "circlename": "Uttar Pradesh",
    "Taluk": "Hapur",
    "Districtname": "Ghaziabad",
    "statename": "UTTAR PRADESH"
  },
  {
    "pincode": "245101",
    "officename": "Gohra Alamgirpur B.O",
    "officeType": "B.O",
    "Deliverystatus": "Non-Delivery",
    "divisionname": "Ghaziabad",
    "regionname": "Lucknow  HQ",
    "circlename": "Uttar Pradesh",
    "Taluk": "Hapur",
    "Districtname": "Ghaziabad",
    "statename": "UTTAR PRADESH"
  },
  {
    "pincode": "245101",
    "officename": "Gyan Lok S.O",
    "officeType": "S.O",
    "Deliverystatus": "Non-Delivery",
    "divisionname": "Ghaziabad",
    "regionname": "Lucknow  HQ",
    "circlename": "Uttar Pradesh",
    "Taluk": "Hapur",
    "Districtname": "Ghaziabad",
    "statename": "UTTAR PRADESH"
  },
  {
    "pincode": "245101",
    "officename": "Hapur H.O",
    "officeType": "H.O",
    "Deliverystatus": "Delivery",
    "divisionname": "Ghaziabad",
    "regionname": "Lucknow  HQ",
    "circlename": "Uttar Pradesh",
    "Taluk": "Hapur",
    "Districtname": "Ghaziabad",
    "statename": "UTTAR PRADESH"
  },
  {
    "pincode": "245101",
    "officename": "Hapur Mandi S.O",
    "officeType": "S.O",
    "Deliverystatus": "Non-Delivery",
    "divisionname": "Ghaziabad",
    "regionname": "Lucknow  HQ",
    "circlename": "Uttar Pradesh",
    "Taluk": "Hapur",
    "Districtname": "Ghaziabad",
    "statename": "UTTAR PRADESH"
  },
  {
    "pincode": "245101",
    "officename": "Harsinghpur B.O",
    "officeType": "B.O",
    "Deliverystatus": "Non-Delivery",
    "divisionname": "Ghaziabad",
    "regionname": "Lucknow  HQ",
    "circlename": "Uttar Pradesh",
    "Taluk": "Hapur",
    "Districtname": "Ghaziabad",
    "statename": "UTTAR PRADESH"
  },
  {
    "pincode": "245101",
    "officename": "Iklahdi B.O",
    "officeType": "B.O",
    "Deliverystatus": "Non-Delivery",
    "divisionname": "Ghaziabad",
    "regionname": "Lucknow  HQ",
    "circlename": "Uttar Pradesh",
    "Taluk": "Hapur",
    "Districtname": "Ghaziabad",
    "statename": "UTTAR PRADESH"
  },
  {
    "pincode": "245101",
    "officename": "Kathikhera B.O",
    "officeType": "B.O",
    "Deliverystatus": "Non-Delivery",
    "divisionname": "Ghaziabad",
    "regionname": "Lucknow  HQ",
    "circlename": "Uttar Pradesh",
    "Taluk": "Hapur",
    "Districtname": "Ghaziabad",
    "statename": "UTTAR PRADESH"
  },
  {
    "pincode": "245101",
    "officename": "Kharkhari B.O",
    "officeType": "B.O",
    "Deliverystatus": "Non-Delivery",
    "divisionname": "Ghaziabad",
    "regionname": "Lucknow  HQ",
    "circlename": "Uttar Pradesh",
    "Taluk": "Hapur",
    "Districtname": "Ghaziabad",
    "statename": "UTTAR PRADESH"
  },
  {
    "pincode": "245101",
    "officename": "Kishan Ganj S.O (Ghaziabad)",
    "officeType": "S.O",
    "Deliverystatus": "Non-Delivery",
    "divisionname": "Ghaziabad",
    "regionname": "Lucknow  HQ",
    "circlename": "Uttar Pradesh",
    "Taluk": "Hapur",
    "Districtname": "Ghaziabad",
    "statename": "UTTAR PRADESH"
  },
  {
    "pincode": "245101",
    "officename": "Madarsa Sadat B.O",
    "officeType": "B.O",
    "Deliverystatus": "Non-Delivery",
    "divisionname": "Ghaziabad",
    "regionname": "Lucknow  HQ",
    "circlename": "Uttar Pradesh",
    "Taluk": "Hapur",
    "Districtname": "Ghaziabad",
    "statename": "UTTAR PRADESH"
  },
  {
    "pincode": "245101",
    "officename": "Mahmoodpur B.O",
    "officeType": "B.O",
    "Deliverystatus": "Non-Delivery",
    "divisionname": "Ghaziabad",
    "regionname": "Lucknow  HQ",
    "circlename": "Uttar Pradesh",
    "Taluk": "Hapur",
    "Districtname": "Ghaziabad",
    "statename": "UTTAR PRADESH"
  },
  {
    "pincode": "245101",
    "officename": "Mathurawali B.O",
    "officeType": "B.O",
    "Deliverystatus": "Non-Delivery",
    "divisionname": "Ghaziabad",
    "regionname": "Lucknow  HQ",
    "circlename": "Uttar Pradesh",
    "Taluk": "Hapur",
    "Districtname": "Ghaziabad",
    "statename": "UTTAR PRADESH"
  },
  {
    "pincode": "245101",
    "officename": "Nan B.O",
    "officeType": "B.O",
    "Deliverystatus": "Non-Delivery",
    "divisionname": "Ghaziabad",
    "regionname": "Lucknow  HQ",
    "circlename": "Uttar Pradesh",
    "Taluk": "Hapur",
    "Districtname": "Ghaziabad",
    "statename": "UTTAR PRADESH"
  },
  {
    "pincode": "245101",
    "officename": "Phagota B.O",
    "officeType": "B.O",
    "Deliverystatus": "Non-Delivery",
    "divisionname": "Ghaziabad",
    "regionname": "Lucknow  HQ",
    "circlename": "Uttar Pradesh",
    "Taluk": "Hapur",
    "Districtname": "Ghaziabad",
    "statename": "UTTAR PRADESH"
  },
  {
    "pincode": "245101",
    "officename": "Raghunathpur B.O",
    "officeType": "B.O",
    "Deliverystatus": "Non-Delivery",
    "divisionname": "Ghaziabad",
    "regionname": "Lucknow  HQ",
    "circlename": "Uttar Pradesh",
    "Taluk": "Hapur",
    "Districtname": "Ghaziabad",
    "statename": "UTTAR PRADESH"
  },
  {
    "pincode": "245101",
    "officename": "Rampur Puth B.O",
    "officeType": "B.O",
    "Deliverystatus": "Non-Delivery",
    "divisionname": "Ghaziabad",
    "regionname": "Lucknow  HQ",
    "circlename": "Uttar Pradesh",
    "Taluk": "Hapur",
    "Districtname": "Ghaziabad",
    "statename": "UTTAR PRADESH"
  },
  {
    "pincode": "245101",
    "officename": "Rly Road Hapur S.O",
    "officeType": "S.O",
    "Deliverystatus": "Non-Delivery",
    "divisionname": "Ghaziabad",
    "regionname": "Lucknow  HQ",
    "circlename": "Uttar Pradesh",
    "Taluk": "Hapur",
    "Districtname": "Ghaziabad",
    "statename": "UTTAR PRADESH"
  },
  {
    "pincode": "245101",
    "officename": "Sapnawat B.O",
    "officeType": "B.O",
    "Deliverystatus": "Delivery",
    "divisionname": "Ghaziabad",
    "regionname": "Lucknow  HQ",
    "circlename": "Uttar Pradesh",
    "Taluk": "Hapur",
    "Districtname": "Ghaziabad",
    "statename": "UTTAR PRADESH"
  },
  {
    "pincode": "245101",
    "officename": "Shah Mohiuddinpur B.O",
    "officeType": "B.O",
    "Deliverystatus": "Non-Delivery",
    "divisionname": "Ghaziabad",
    "regionname": "Lucknow  HQ",
    "circlename": "Uttar Pradesh",
    "Taluk": "Hapur",
    "Districtname": "Ghaziabad",
    "statename": "UTTAR PRADESH"
  }
]
