[
  {
    "pincode": "245207",
    "officename": "Baxur B.O",
    "officeType": "B.O",
    "Deliverystatus": "Non-Delivery",
    "divisionname": "Ghaziabad",
    "regionname": "Lucknow  HQ",
    "circlename": "Uttar Pradesh",
    "Taluk": "Modinagar",
    "Districtname": "Ghaziabad",
    "statename": "UTTAR PRADESH"
  },
  {
    "pincode": "245207",
    "officename": "Bharna B.O",
    "officeType": "B.O",
    "Deliverystatus": "Non-Delivery",
    "divisionname": "Ghaziabad",
    "regionname": "Lucknow  HQ",
    "circlename": "Uttar Pradesh",
    "Taluk": "Modinagar",
    "Districtname": "Ghaziabad",
    "statename": "UTTAR PRADESH"
  },
  {
    "pincode": "245207",
    "officename": "Datiyana B.O",
    "officeType": "B.O",
    "Deliverystatus": "Non-Delivery",
    "divisionname": "Ghaziabad",
    "regionname": "Lucknow  HQ",
    "circlename": "Uttar Pradesh",
    "Taluk": "Simbhaoli",
    "Districtname": "Ghaziabad",
    "statename": "UTTAR PRADESH"
  },
  {
    "pincode": "245207",
    "officename": "Dhana B.O",
    "officeType": "B.O",
    "Deliverystatus": "Non-Delivery",
    "divisionname": "Ghaziabad",
    "regionname": "Lucknow  HQ",
    "circlename": "Uttar Pradesh",
    "Taluk": "Modinagar",
    "Districtname": "Ghaziabad",
    "statename": "UTTAR PRADESH"
  },
  {
    "pincode": "245207",
    "officename": "Mohd. Pur Khudaliya B.O",
    "officeType": "B.O",
    "Deliverystatus": "Non-Delivery",
    "divisionname": "Ghaziabad",
    "regionname": "Lucknow  HQ",
    "circlename": "Uttar Pradesh",
    "Taluk": "Hapur",
    "Districtname": "Ghaziabad",
    "statename": "UTTAR PRADESH"
  },
  {
    "pincode": "245207",
    "officename": "Mubarikpur B.O",
    "officeType": "B.O",
    "Deliverystatus": "Non-Delivery",
    "divisionname": "Ghaziabad",
    "regionname": "Lucknow  HQ",
    "circlename": "Uttar Pradesh",
    "Taluk": "Hapur",
    "Districtname": "Ghaziabad",
    "statename": "UTTAR PRADESH"
  },
  {
    "pincode": "245207",
    "officename": "Phuldehra B.O",
    "officeType": "B.O",
    "Deliverystatus": "Non-Delivery",
    "divisionname": "Ghaziabad",
    "regionname": "Lucknow  HQ",
    "circlename": "Uttar Pradesh",
    "Taluk": "Hapur",
    "Districtname": "Ghaziabad",
    "statename": "UTTAR PRADESH"
  },
  {
    "pincode": "245207",
    "officename": "Rajethi B.O",
    "officeType": "B.O",
    "Deliverystatus": "Non-Delivery",
    "divisionname": "Ghaziabad",
    "regionname": "Lucknow  HQ",
    "circlename": "Uttar Pradesh",
    "Taluk": "Hapur",
    "Districtname": "Ghaziabad",
    "statename": "UTTAR PRADESH"
  },
  {
    "pincode": "245207",
    "officename": "Sikhera B.O",
    "officeType": "B.O",
    "Deliverystatus": "Non-Delivery",
    "divisionname": "Ghaziabad",
    "regionname": "Lucknow  HQ",
    "circlename": "Uttar Pradesh",
    "Taluk": "Hapur",
    "Districtname": "Ghaziabad",
    "statename": "UTTAR PRADESH"
  },
  {
    "pincode": "245207",
    "officename": "Simbhaoli S.O",
    "officeType": "S.O",
    "Deliverystatus": "Delivery",
    "divisionname": "Ghaziabad",
    "regionname": "Lucknow  HQ",
    "circlename": "Uttar Pradesh",
    "Taluk": "Hapur",
    "Districtname": "Ghaziabad",
    "statename": "UTTAR PRADESH"
  },
  {
    "pincode": "245207",
    "officename": "Wait B.O",
    "officeType": "B.O",
    "Deliverystatus": "Non-Delivery",
    "divisionname": "Ghaziabad",
    "regionname": "Lucknow  HQ",
    "circlename": "Uttar Pradesh",
    "Taluk": "Hapur",
    "Districtname": "Ghaziabad",
    "statename": "UTTAR PRADESH"
  }
]
