[
  {
    "pincode": "245205",
    "officename": "Athsaini B.O",
    "officeType": "B.O",
    "Deliverystatus": "Non-Delivery",
    "divisionname": "Ghaziabad",
    "regionname": "Lucknow  HQ",
    "circlename": "Uttar Pradesh",
    "Taluk": "Hapur",
    "Districtname": "Ghaziabad",
    "statename": "UTTAR PRADESH"
  },
  {
    "pincode": "245205",
    "officename": "Bagarpur B.O",
    "officeType": "B.O",
    "Deliverystatus": "Non-Delivery",
    "divisionname": "Ghaziabad",
    "regionname": "Lucknow  HQ",
    "circlename": "Uttar Pradesh",
    "Taluk": "Hapur",
    "Districtname": "Ghaziabad",
    "statename": "UTTAR PRADESH"
  },
  {
    "pincode": "245205",
    "officename": "Bhaina Dholpur B.O",
    "officeType": "B.O",
    "Deliverystatus": "Non-Delivery",
    "divisionname": "Ghaziabad",
    "regionname": "Lucknow  HQ",
    "circlename": "Uttar Pradesh",
    "Taluk": "Hapur",
    "Districtname": "Ghaziabad",
    "statename": "UTTAR PRADESH"
  },
  {
    "pincode": "245205",
    "officename": "Bihuni B.O",
    "officeType": "B.O",
    "Deliverystatus": "Non-Delivery",
    "divisionname": "Ghaziabad",
    "regionname": "Lucknow  HQ",
    "circlename": "Uttar Pradesh",
    "Taluk": "Hapur",
    "Districtname": "Ghaziabad",
    "statename": "UTTAR PRADESH"
  },
  {
    "pincode": "245205",
    "officename": "Biraj Ghat B.O",
    "officeType": "B.O",
    "Deliverystatus": "Non-Delivery",
    "divisionname": "Ghaziabad",
    "regionname": "Lucknow  HQ",
    "circlename": "Uttar Pradesh",
    "Taluk": "Garhmukteshwer",
    "Districtname": "Ghaziabad",
    "statename": "UTTAR PRADESH"
  },
  {
    "pincode": "245205",
    "officename": "Dehra Rampur B.O",
    "officeType": "B.O",
    "Deliverystatus": "Non-Delivery",
    "divisionname": "Ghaziabad",
    "regionname": "Lucknow  HQ",
    "circlename": "Uttar Pradesh",
    "Taluk": "Hapur",
    "Districtname": "Ghaziabad",
    "statename": "UTTAR PRADESH"
  },
  {
    "pincode": "245205",
    "officename": "Dotai B.O",
    "officeType": "B.O",
    "Deliverystatus": "Non-Delivery",
    "divisionname": "Ghaziabad",
    "regionname": "Lucknow  HQ",
    "circlename": "Uttar Pradesh",
    "Taluk": "Hapur",
    "Districtname": "Ghaziabad",
    "statename": "UTTAR PRADESH"
  },
  {
    "pincode": "245205",
    "officename": "Gandu Nagla B.O",
    "officeType": "B.O",
    "Deliverystatus": "Non-Delivery",
    "divisionname": "Ghaziabad",
    "regionname": "Lucknow  HQ",
    "circlename": "Uttar Pradesh",
    "Taluk": "Hapur",
    "Districtname": "Ghaziabad",
    "statename": "UTTAR PRADESH"
  },
  {
    "pincode": "245205",
    "officename": "Garh Town S.O",
    "officeType": "S.O",
    "Deliverystatus": "Non-Delivery",
    "divisionname": "Ghaziabad",
    "regionname": "Lucknow  HQ",
    "circlename": "Uttar Pradesh",
    "Taluk": "Hapur",
    "Districtname": "Ghaziabad",
    "statename": "UTTAR PRADESH"
  },
  {
    "pincode": "245205",
    "officename": "Garhmukhteshwer S.O",
    "officeType": "S.O",
    "Deliverystatus": "Delivery",
    "divisionname": "Ghaziabad",
    "regionname": "Lucknow  HQ",
    "circlename": "Uttar Pradesh",
    "Taluk": "Hapur",
    "Districtname": "Ghaziabad",
    "statename": "UTTAR PRADESH"
  },
  {
    "pincode": "245205",
    "officename": "Haidarpur B.O",
    "officeType": "B.O",
    "Deliverystatus": "Non-Delivery",
    "divisionname": "Ghaziabad",
    "regionname": "Lucknow  HQ",
    "circlename": "Uttar Pradesh",
    "Taluk": "Hapur",
    "Districtname": "Ghaziabad",
    "statename": "UTTAR PRADESH"
  },
  {
    "pincode": "245205",
    "officename": "Jakhera Rahmatpur B.O",
    "officeType": "B.O",
    "Deliverystatus": "Non-Delivery",
    "divisionname": "Ghaziabad",
    "regionname": "Lucknow  HQ",
    "circlename": "Uttar Pradesh",
    "Taluk": "Hapur",
    "Districtname": "Ghaziabad",
    "statename": "UTTAR PRADESH"
  },
  {
    "pincode": "245205",
    "officename": "Jharina B.O",
    "officeType": "B.O",
    "Deliverystatus": "Non-Delivery",
    "divisionname": "Ghaziabad",
    "regionname": "Lucknow  HQ",
    "circlename": "Uttar Pradesh",
    "Taluk": "Hapur",
    "Districtname": "Ghaziabad",
    "statename": "UTTAR PRADESH"
  },
  {
    "pincode": "245205",
    "officename": "Khiluai B.O",
    "officeType": "B.O",
    "Deliverystatus": "Delivery",
    "divisionname": "Ghaziabad",
    "regionname": "Lucknow  HQ",
    "circlename": "Uttar Pradesh",
    "Taluk": "Khiluai",
    "Districtname": "Ghaziabad",
    "statename": "UTTAR PRADESH"
  },
  {
    "pincode": "245205",
    "officename": "Luhari B.O",
    "officeType": "B.O",
    "Deliverystatus": "Non-Delivery",
    "divisionname": "Ghaziabad",
    "regionname": "Lucknow  HQ",
    "circlename": "Uttar Pradesh",
    "Taluk": "Hapur",
    "Districtname": "Ghaziabad",
    "statename": "UTTAR PRADESH"
  },
  {
    "pincode": "245205",
    "officename": "Muradpur Janupura B.O",
    "officeType": "B.O",
    "Deliverystatus": "Non-Delivery",
    "divisionname": "Ghaziabad",
    "regionname": "Lucknow  HQ",
    "circlename": "Uttar Pradesh",
    "Taluk": "Hapur",
    "Districtname": "Ghaziabad",
    "statename": "UTTAR PRADESH"
  },
  {
    "pincode": "245205",
    "officename": "Nanpur B.O",
    "officeType": "B.O",
    "Deliverystatus": "Non-Delivery",
    "divisionname": "Ghaziabad",
    "regionname": "Lucknow  HQ",
    "circlename": "Uttar Pradesh",
    "Taluk": "Hapur",
    "Districtname": "Ghaziabad",
    "statename": "UTTAR PRADESH"
  },
  {
    "pincode": "245205",
    "officename": "Sadullapur B.O",
    "officeType": "B.O",
    "Deliverystatus": "Non-Delivery",
    "divisionname": "Ghaziabad",
    "regionname": "Lucknow  HQ",
    "circlename": "Uttar Pradesh",
    "Taluk": "Hapur",
    "Districtname": "Ghaziabad",
    "statename": "UTTAR PRADESH"
  },
  {
    "pincode": "245205",
    "officename": "Salarpur B.O",
    "officeType": "B.O",
    "Deliverystatus": "Non-Delivery",
    "divisionname": "Ghaziabad",
    "regionname": "Lucknow  HQ",
    "circlename": "Uttar Pradesh",
    "Taluk": "Hapur",
    "Districtname": "Ghaziabad",
    "statename": "UTTAR PRADESH"
  },
  {
    "pincode": "245205",
    "officename": "Shyampur Jatt B.O",
    "officeType": "B.O",
    "Deliverystatus": "Non-Delivery",
    "divisionname": "Ghaziabad",
    "regionname": "Lucknow  HQ",
    "circlename": "Uttar Pradesh",
    "Taluk": "Hapur",
    "Districtname": "Ghaziabad",
    "statename": "UTTAR PRADESH"
  }
]
