[
  {
    "pincode": "245304",
    "officename": "Anwarpur B.O",
    "officeType": "B.O",
    "Deliverystatus": "Non-Delivery",
    "divisionname": "Ghaziabad",
    "regionname": "Lucknow  HQ",
    "circlename": "Uttar Pradesh",
    "Taluk": "Hapur",
    "Districtname": "Ghaziabad",
    "statename": "UTTAR PRADESH"
  },
  {
    "pincode": "245304",
    "officename": "Atrauli B.O",
    "officeType": "B.O",
    "Deliverystatus": "Non-Delivery",
    "divisionname": "Ghaziabad",
    "regionname": "Lucknow  HQ",
    "circlename": "Uttar Pradesh",
    "Taluk": "Hapur",
    "Districtname": "Ghaziabad",
    "statename": "UTTAR PRADESH"
  },
  {
    "pincode": "245304",
    "officename": "Bajhera Khurd B.O",
    "officeType": "B.O",
    "Deliverystatus": "Non-Delivery",
    "divisionname": "Ghaziabad",
    "regionname": "Lucknow  HQ",
    "circlename": "Uttar Pradesh",
    "Taluk": "Hapur",
    "Districtname": "Ghaziabad",
    "statename": "UTTAR PRADESH"
  },
  {
    "pincode": "245304",
    "officename": "Bhadola B.O",
    "officeType": "B.O",
    "Deliverystatus": "Non-Delivery",
    "divisionname": "Ghaziabad",
    "regionname": "Lucknow  HQ",
    "circlename": "Uttar Pradesh",
    "Taluk": "Hapur",
    "Districtname": "Ghaziabad",
    "statename": "UTTAR PRADESH"
  },
  {
    "pincode": "245304",
    "officename": "Bhojpur B.O",
    "officeType": "B.O",
    "Deliverystatus": "Non-Delivery",
    "divisionname": "Ghaziabad",
    "regionname": "Lucknow  HQ",
    "circlename": "Uttar Pradesh",
    "Taluk": "Hapur",
    "Districtname": "Ghaziabad",
    "statename": "UTTAR PRADESH"
  },
  {
    "pincode": "245304",
    "officename": "Chajarsi B.O",
    "officeType": "B.O",
    "Deliverystatus": "Non-Delivery",
    "divisionname": "Ghaziabad",
    "regionname": "Lucknow  HQ",
    "circlename": "Uttar Pradesh",
    "Taluk": "Hapur",
    "Districtname": "Ghaziabad",
    "statename": "UTTAR PRADESH"
  },
  {
    "pincode": "245304",
    "officename": "Dehpa Azampur B.O",
    "officeType": "B.O",
    "Deliverystatus": "Non-Delivery",
    "divisionname": "Ghaziabad",
    "regionname": "Lucknow  HQ",
    "circlename": "Uttar Pradesh",
    "Taluk": "Hapur",
    "Districtname": "Ghaziabad",
    "statename": "UTTAR PRADESH"
  },
  {
    "pincode": "245304",
    "officename": "Doohri B.O",
    "officeType": "B.O",
    "Deliverystatus": "Non-Delivery",
    "divisionname": "Ghaziabad",
    "regionname": "Lucknow  HQ",
    "circlename": "Uttar Pradesh",
    "Taluk": "Hapur",
    "Districtname": "Ghaziabad",
    "statename": "UTTAR PRADESH"
  },
  {
    "pincode": "245304",
    "officename": "Farid Nagar B.O",
    "officeType": "B.O",
    "Deliverystatus": "Non-Delivery",
    "divisionname": "Ghaziabad",
    "regionname": "Lucknow  HQ",
    "circlename": "Uttar Pradesh",
    "Taluk": "Hapur",
    "Districtname": "Ghaziabad",
    "statename": "UTTAR PRADESH"
  },
  {
    "pincode": "245304",
    "officename": "Kalchina B.O",
    "officeType": "B.O",
    "Deliverystatus": "Non-Delivery",
    "divisionname": "Ghaziabad",
    "regionname": "Lucknow  HQ",
    "circlename": "Uttar Pradesh",
    "Taluk": "Hapur",
    "Districtname": "Ghaziabad",
    "statename": "UTTAR PRADESH"
  },
  {
    "pincode": "245304",
    "officename": "Kastala B.O",
    "officeType": "B.O",
    "Deliverystatus": "Non-Delivery",
    "divisionname": "Ghaziabad",
    "regionname": "Lucknow  HQ",
    "circlename": "Uttar Pradesh",
    "Taluk": "Hapur",
    "Districtname": "Ghaziabad",
    "statename": "UTTAR PRADESH"
  },
  {
    "pincode": "245304",
    "officename": "Khera B.O",
    "officeType": "B.O",
    "Deliverystatus": "Non-Delivery",
    "divisionname": "Ghaziabad",
    "regionname": "Lucknow  HQ",
    "circlename": "Uttar Pradesh",
    "Taluk": "Hapur",
    "Districtname": "Ghaziabad",
    "statename": "UTTAR PRADESH"
  },
  {
    "pincode": "245304",
    "officename": "Mukeempur B.O",
    "officeType": "B.O",
    "Deliverystatus": "Non-Delivery",
    "divisionname": "Ghaziabad",
    "regionname": "Lucknow  HQ",
    "circlename": "Uttar Pradesh",
    "Taluk": "Hapur",
    "Districtname": "Ghaziabad",
    "statename": "UTTAR PRADESH"
  },
  {
    "pincode": "245304",
    "officename": "Nagola B.O",
    "officeType": "B.O",
    "Deliverystatus": "Non-Delivery",
    "divisionname": "Ghaziabad",
    "regionname": "Lucknow  HQ",
    "circlename": "Uttar Pradesh",
    "Taluk": "Hapur",
    "Districtname": "Ghaziabad",
    "statename": "UTTAR PRADESH"
  },
  {
    "pincode": "245304",
    "officename": "New Market Pilkhauwa S.O",
    "officeType": "S.O",
    "Deliverystatus": "Non-Delivery",
    "divisionname": "Ghaziabad",
    "regionname": "Lucknow  HQ",
    "circlename": "Uttar Pradesh",
    "Taluk": "Ghaziabad",
    "Districtname": "Ghaziabad",
    "statename": "UTTAR PRADESH"
  },
  {
    "pincode": "245304",
    "officename": "Pilkhauwa Post Office S.O",
    "officeType": "S.O",
    "Deliverystatus": "Delivery",
    "divisionname": "Ghaziabad",
    "regionname": "Lucknow  HQ",
    "circlename": "Uttar Pradesh",
    "Taluk": "Ghaziabad",
    "Districtname": "Ghaziabad",
    "statename": "UTTAR PRADESH"
  },
  {
    "pincode": "245304",
    "officename": "Samaipur B.O",
    "officeType": "B.O",
    "Deliverystatus": "Non-Delivery",
    "divisionname": "Ghaziabad",
    "regionname": "Lucknow  HQ",
    "circlename": "Uttar Pradesh",
    "Taluk": "Hapur",
    "Districtname": "Ghaziabad",
    "statename": "UTTAR PRADESH"
  },
  {
    "pincode": "245304",
    "officename": "Tyori B.O",
    "officeType": "B.O",
    "Deliverystatus": "Non-Delivery",
    "divisionname": "Ghaziabad",
    "regionname": "Lucknow  HQ",
    "circlename": "Uttar Pradesh",
    "Taluk": "Hapur",
    "Districtname": "Ghaziabad",
    "statename": "UTTAR PRADESH"
  }
]
