[
  {
    "pincode": "246169",
    "officename": "Bagrigar B.O",
    "officeType": "B.O",
    "Deliverystatus": "Delivery",
    "divisionname": "Pauri",
    "regionname": "Dehradun",
    "circlename": "Uttarakhand",
    "Taluk": "Lansdowne",
    "Districtname": "Pauri Garhwal",
    "statename": "UTTARAKHAND"
  },
  {
    "pincode": "246169",
    "officename": "Gawani B.O",
    "officeType": "B.O",
    "Deliverystatus": "Delivery",
    "divisionname": "Pauri",
    "regionname": "Dehradun",
    "circlename": "Uttarakhand",
    "Taluk": "Lansdowne",
    "Districtname": "Pauri Garhwal",
    "statename": "UTTARAKHAND"
  },
  {
    "pincode": "246169",
    "officename": "Kolakhal B.O",
    "officeType": "B.O",
    "Deliverystatus": "Delivery",
    "divisionname": "Pauri",
    "regionname": "Dehradun",
    "circlename": "Uttarakhand",
    "Taluk": "Lansdowne",
    "Districtname": "Pauri Garhwal",
    "statename": "UTTARAKHAND"
  },
  {
    "pincode": "246169",
    "officename": "Kunjkhal B.O",
    "officeType": "B.O",
    "Deliverystatus": "Delivery",
    "divisionname": "Pauri",
    "regionname": "Dehradun",
    "circlename": "Uttarakhand",
    "Taluk": "Lansdowne",
    "Districtname": "Pauri Garhwal",
    "statename": "UTTARAKHAND"
  },
  {
    "pincode": "246169",
    "officename": "Pand B.O",
    "officeType": "B.O",
    "Deliverystatus": "Delivery",
    "divisionname": "Pauri",
    "regionname": "Dehradun",
    "circlename": "Uttarakhand",
    "Taluk": "Lansdowne",
    "Districtname": "Pauri Garhwal",
    "statename": "UTTARAKHAND"
  },
  {
    "pincode": "246169",
    "officename": "Pokhra (A) S.O",
    "officeType": "S.O",
    "Deliverystatus": "Delivery",
    "divisionname": "Pauri",
    "regionname": "Dehradun",
    "circlename": "Uttarakhand",
    "Taluk": "Lansdowne",
    "Districtname": "Pauri Garhwal",
    "statename": "UTTARAKHAND"
  },
  {
    "pincode": "246169",
    "officename": "Seriakhal B.O",
    "officeType": "B.O",
    "Deliverystatus": "Delivery",
    "divisionname": "Pauri",
    "regionname": "Dehradun",
    "circlename": "Uttarakhand",
    "Taluk": "Lansdowne",
    "Districtname": "Pauri Garhwal",
    "statename": "UTTARAKHAND"
  },
  {
    "pincode": "246169",
    "officename": "Srikotkhal B.O",
    "officeType": "B.O",
    "Deliverystatus": "Delivery",
    "divisionname": "Pauri",
    "regionname": "Dehradun",
    "circlename": "Uttarakhand",
    "Taluk": "Lansdowne",
    "Districtname": "Pauri Garhwal",
    "statename": "UTTARAKHAND"
  }
]
