[
  {
    "pincode": "246179",
    "officename": "Badiyargaon B.O",
    "officeType": "B.O",
    "Deliverystatus": "Delivery",
    "divisionname": "Pauri",
    "regionname": "Dehradun",
    "circlename": "Uttarakhand",
    "Taluk": "Lansdowne",
    "Districtname": "Pauri Garhwal",
    "statename": "UTTARAKHAND"
  },
  {
    "pincode": "246179",
    "officename": "Bunga Talla B.O",
    "officeType": "B.O",
    "Deliverystatus": "Delivery",
    "divisionname": "Pauri",
    "regionname": "Dehradun",
    "circlename": "Uttarakhand",
    "Taluk": "Lansdowne",
    "Districtname": "Pauri Garhwal",
    "statename": "UTTARAKHAND"
  },
  {
    "pincode": "246179",
    "officename": "Chair Manjkhola B.O",
    "officeType": "B.O",
    "Deliverystatus": "Delivery",
    "divisionname": "Pauri",
    "regionname": "Dehradun",
    "circlename": "Uttarakhand",
    "Taluk": "Lansdowne",
    "Districtname": "Pauri Garhwal",
    "statename": "UTTARAKHAND"
  },
  {
    "pincode": "246179",
    "officename": "Chaukuri B.O",
    "officeType": "B.O",
    "Deliverystatus": "Delivery",
    "divisionname": "Pauri",
    "regionname": "Dehradun",
    "circlename": "Uttarakhand",
    "Taluk": "Lansdowne",
    "Districtname": "Pauri Garhwal",
    "statename": "UTTARAKHAND"
  },
  {
    "pincode": "246179",
    "officename": "Churani B.O",
    "officeType": "B.O",
    "Deliverystatus": "Delivery",
    "divisionname": "Pauri",
    "regionname": "Dehradun",
    "circlename": "Uttarakhand",
    "Taluk": "Lansdowne",
    "Districtname": "Pauri Garhwal",
    "statename": "UTTARAKHAND"
  },
  {
    "pincode": "246179",
    "officename": "Dhamdhar B.O",
    "officeType": "B.O",
    "Deliverystatus": "Delivery",
    "divisionname": "Pauri",
    "regionname": "Dehradun",
    "circlename": "Uttarakhand",
    "Taluk": "Lansdowne",
    "Districtname": "Pauri Garhwal",
    "statename": "UTTARAKHAND"
  },
  {
    "pincode": "246179",
    "officename": "Dwari B.O",
    "officeType": "B.O",
    "Deliverystatus": "Delivery",
    "divisionname": "Pauri",
    "regionname": "Dehradun",
    "circlename": "Uttarakhand",
    "Taluk": "Lansdowne",
    "Districtname": "Pauri Garhwal",
    "statename": "UTTARAKHAND"
  },
  {
    "pincode": "246179",
    "officename": "Gadiyunpul B.O",
    "officeType": "B.O",
    "Deliverystatus": "Delivery",
    "divisionname": "Pauri",
    "regionname": "Dehradun",
    "circlename": "Uttarakhand",
    "Taluk": "Lansdowne",
    "Districtname": "Pauri Garhwal",
    "statename": "UTTARAKHAND"
  },
  {
    "pincode": "246179",
    "officename": "Gairoli B.O",
    "officeType": "B.O",
    "Deliverystatus": "Delivery",
    "divisionname": "Pauri",
    "regionname": "Dehradun",
    "circlename": "Uttarakhand",
    "Taluk": "Lansdowne",
    "Districtname": "Pauri Garhwal",
    "statename": "UTTARAKHAND"
  },
  {
    "pincode": "246179",
    "officename": "Gudendi B.O",
    "officeType": "B.O",
    "Deliverystatus": "Delivery",
    "divisionname": "Pauri",
    "regionname": "Dehradun",
    "circlename": "Uttarakhand",
    "Taluk": "Lansdowne",
    "Districtname": "Pauri Garhwal",
    "statename": "UTTARAKHAND"
  },
  {
    "pincode": "246179",
    "officename": "Kilbokhal B.O",
    "officeType": "B.O",
    "Deliverystatus": "Delivery",
    "divisionname": "Pauri",
    "regionname": "Dehradun",
    "circlename": "Uttarakhand",
    "Taluk": "Lansdowne",
    "Districtname": "Pauri Garhwal",
    "statename": "UTTARAKHAND"
  },
  {
    "pincode": "246179",
    "officename": "Naudanu B.O",
    "officeType": "B.O",
    "Deliverystatus": "Delivery",
    "divisionname": "Pauri",
    "regionname": "Dehradun",
    "circlename": "Uttarakhand",
    "Taluk": "Lansdowne",
    "Districtname": "Pauri Garhwal",
    "statename": "UTTARAKHAND"
  },
  {
    "pincode": "246179",
    "officename": "Panikasain B.O",
    "officeType": "B.O",
    "Deliverystatus": "Delivery",
    "divisionname": "Pauri",
    "regionname": "Dehradun",
    "circlename": "Uttarakhand",
    "Taluk": "Lansdowne",
    "Districtname": "Pauri Garhwal",
    "statename": "UTTARAKHAND"
  },
  {
    "pincode": "246179",
    "officename": "Rikhnikhal (A) S.O",
    "officeType": "S.O",
    "Deliverystatus": "Delivery",
    "divisionname": "Pauri",
    "regionname": "Dehradun",
    "circlename": "Uttarakhand",
    "Taluk": "Lansdowne",
    "Districtname": "Pauri Garhwal",
    "statename": "UTTARAKHAND"
  },
  {
    "pincode": "246179",
    "officename": "Sulmorikhal B.O",
    "officeType": "B.O",
    "Deliverystatus": "Delivery",
    "divisionname": "Pauri",
    "regionname": "Dehradun",
    "circlename": "Uttarakhand",
    "Taluk": "Lansdowne",
    "Districtname": "Pauri Garhwal",
    "statename": "UTTARAKHAND"
  },
  {
    "pincode": "246179",
    "officename": "Takolikhal B.O",
    "officeType": "B.O",
    "Deliverystatus": "Delivery",
    "divisionname": "Pauri",
    "regionname": "Dehradun",
    "circlename": "Uttarakhand",
    "Taluk": "Lansdowne",
    "Districtname": "Pauri Garhwal",
    "statename": "UTTARAKHAND"
  },
  {
    "pincode": "246179",
    "officename": "Timalsain B.O",
    "officeType": "B.O",
    "Deliverystatus": "Delivery",
    "divisionname": "Pauri",
    "regionname": "Dehradun",
    "circlename": "Uttarakhand",
    "Taluk": "Lansdowne",
    "Districtname": "Pauri Garhwal",
    "statename": "UTTARAKHAND"
  }
]
