[
  {
    "pincode": "246161",
    "officename": "Bairhat Palla B.O",
    "officeType": "B.O",
    "Deliverystatus": "Delivery",
    "divisionname": "Pauri",
    "regionname": "Dehradun",
    "circlename": "Uttarakhand",
    "Taluk": "Dhumakot",
    "Districtname": "Pauri Garhwal",
    "statename": "UTTARAKHAND"
  },
  {
    "pincode": "246161",
    "officename": "Bhundkhal B.O",
    "officeType": "B.O",
    "Deliverystatus": "Delivery",
    "divisionname": "Pauri",
    "regionname": "Dehradun",
    "circlename": "Uttarakhand",
    "Taluk": "Dhumakot",
    "Districtname": "Pauri Garhwal",
    "statename": "UTTARAKHAND"
  },
  {
    "pincode": "246161",
    "officename": "Bilkot B.O",
    "officeType": "B.O",
    "Deliverystatus": "Delivery",
    "divisionname": "Pauri",
    "regionname": "Dehradun",
    "circlename": "Uttarakhand",
    "Taluk": "Dhumakot",
    "Districtname": "Pauri Garhwal",
    "statename": "UTTARAKHAND"
  },
  {
    "pincode": "246161",
    "officename": "Biyasi B.O",
    "officeType": "B.O",
    "Deliverystatus": "Delivery",
    "divisionname": "Pauri",
    "regionname": "Dehradun",
    "circlename": "Uttarakhand",
    "Taluk": "Dhoomakot",
    "Districtname": "Pauri Garhwal",
    "statename": "UTTARAKHAND"
  },
  {
    "pincode": "246161",
    "officename": "Chamara B.O",
    "officeType": "B.O",
    "Deliverystatus": "Delivery",
    "divisionname": "Pauri",
    "regionname": "Dehradun",
    "circlename": "Uttarakhand",
    "Taluk": "Dhumakot",
    "Districtname": "Pauri Garhwal",
    "statename": "UTTARAKHAND"
  },
  {
    "pincode": "246161",
    "officename": "Chamsain B.O",
    "officeType": "B.O",
    "Deliverystatus": "Delivery",
    "divisionname": "Pauri",
    "regionname": "Dehradun",
    "circlename": "Uttarakhand",
    "Taluk": "Dhoomakot",
    "Districtname": "Pauri Garhwal",
    "statename": "UTTARAKHAND"
  },
  {
    "pincode": "246161",
    "officename": "Kalinkakhal (Kaleth) B.O",
    "officeType": "B.O",
    "Deliverystatus": "Delivery",
    "divisionname": "Pauri",
    "regionname": "Dehradun",
    "circlename": "Uttarakhand",
    "Taluk": "Dhoomakot",
    "Districtname": "Pauri Garhwal",
    "statename": "UTTARAKHAND"
  },
  {
    "pincode": "246161",
    "officename": "Khadrasi B.O",
    "officeType": "B.O",
    "Deliverystatus": "Delivery",
    "divisionname": "Pauri",
    "regionname": "Dehradun",
    "circlename": "Uttarakhand",
    "Taluk": "Dhumakot",
    "Districtname": "Pauri Garhwal",
    "statename": "UTTARAKHAND"
  },
  {
    "pincode": "246161",
    "officename": "Moxan Uniyal B.O",
    "officeType": "B.O",
    "Deliverystatus": "Delivery",
    "divisionname": "Pauri",
    "regionname": "Dehradun",
    "circlename": "Uttarakhand",
    "Taluk": "Dhumakot",
    "Districtname": "Pauri Garhwal",
    "statename": "UTTARAKHAND"
  },
  {
    "pincode": "246161",
    "officename": "Nainidanda (B) S.O",
    "officeType": "S.O",
    "Deliverystatus": "Delivery",
    "divisionname": "Pauri",
    "regionname": "Dehradun",
    "circlename": "Uttarakhand",
    "Taluk": "Dhoomakot",
    "Districtname": "Pauri Garhwal",
    "statename": "UTTARAKHAND"
  },
  {
    "pincode": "246161",
    "officename": "Taria B.O",
    "officeType": "B.O",
    "Deliverystatus": "Delivery",
    "divisionname": "Pauri",
    "regionname": "Dehradun",
    "circlename": "Uttarakhand",
    "Taluk": "Dhumakot",
    "Districtname": "Pauri Garhwal",
    "statename": "UTTARAKHAND"
  }
]
