[
  {
    "pincode": "246130",
    "officename": "Bageli B.O",
    "officeType": "B.O",
    "Deliverystatus": "Delivery",
    "divisionname": "Pauri",
    "regionname": "Dehradun",
    "circlename": "Uttarakhand",
    "Taluk": "Thali Sain",
    "Districtname": "Pauri Garhwal",
    "statename": "UTTARAKHAND"
  },
  {
    "pincode": "246130",
    "officename": "Banani B.O",
    "officeType": "B.O",
    "Deliverystatus": "Delivery",
    "divisionname": "Pauri",
    "regionname": "Dehradun",
    "circlename": "Uttarakhand",
    "Taluk": "Thalisain",
    "Districtname": "Pauri Garhwal",
    "statename": "UTTARAKHAND"
  },
  {
    "pincode": "246130",
    "officename": "Bangali B.O",
    "officeType": "B.O",
    "Deliverystatus": "Delivery",
    "divisionname": "Pauri",
    "regionname": "Dehradun",
    "circlename": "Uttarakhand",
    "Taluk": "Thalisain",
    "Districtname": "Pauri Garhwal",
    "statename": "UTTARAKHAND"
  },
  {
    "pincode": "246130",
    "officename": "Bareth B.O",
    "officeType": "B.O",
    "Deliverystatus": "Delivery",
    "divisionname": "Pauri",
    "regionname": "Dehradun",
    "circlename": "Uttarakhand",
    "Taluk": "Thalisain",
    "Districtname": "Pauri Garhwal",
    "statename": "UTTARAKHAND"
  },
  {
    "pincode": "246130",
    "officename": "Chakisain (B) S.O",
    "officeType": "S.O",
    "Deliverystatus": "Delivery",
    "divisionname": "Pauri",
    "regionname": "Dehradun",
    "circlename": "Uttarakhand",
    "Taluk": "Thali Sain",
    "Districtname": "Pauri Garhwal",
    "statename": "UTTARAKHAND"
  },
  {
    "pincode": "246130",
    "officename": "Chaunra B.O",
    "officeType": "B.O",
    "Deliverystatus": "Delivery",
    "divisionname": "Pauri",
    "regionname": "Dehradun",
    "circlename": "Uttarakhand",
    "Taluk": "Thalisain",
    "Districtname": "Pauri Garhwal",
    "statename": "UTTARAKHAND"
  },
  {
    "pincode": "246130",
    "officename": "Gadoli B.O",
    "officeType": "B.O",
    "Deliverystatus": "Delivery",
    "divisionname": "Pauri",
    "regionname": "Dehradun",
    "circlename": "Uttarakhand",
    "Taluk": "Thalisain",
    "Districtname": "Pauri Garhwal",
    "statename": "UTTARAKHAND"
  },
  {
    "pincode": "246130",
    "officename": "Kathiur B.O",
    "officeType": "B.O",
    "Deliverystatus": "Delivery",
    "divisionname": "Pauri",
    "regionname": "Dehradun",
    "circlename": "Uttarakhand",
    "Taluk": "Thalisain",
    "Districtname": "Pauri Garhwal",
    "statename": "UTTARAKHAND"
  },
  {
    "pincode": "246130",
    "officename": "Mailli B.O",
    "officeType": "B.O",
    "Deliverystatus": "Delivery",
    "divisionname": "Pauri",
    "regionname": "Dehradun",
    "circlename": "Uttarakhand",
    "Taluk": "Thalisain",
    "Districtname": "Pauri Garhwal",
    "statename": "UTTARAKHAND"
  },
  {
    "pincode": "246130",
    "officename": "Nauri B.O",
    "officeType": "B.O",
    "Deliverystatus": "Delivery",
    "divisionname": "Pauri",
    "regionname": "Dehradun",
    "circlename": "Uttarakhand",
    "Taluk": "Thalisain",
    "Districtname": "Pauri Garhwal",
    "statename": "UTTARAKHAND"
  }
]
