[
  {
    "pincode": "246275",
    "officename": "Baijrao (A) S.O",
    "officeType": "S.O",
    "Deliverystatus": "Delivery",
    "divisionname": "Pauri",
    "regionname": "Dehradun",
    "circlename": "Uttarakhand",
    "Taluk": "Thali Sain",
    "Districtname": "Pauri Garhwal",
    "statename": "UTTARAKHAND"
  },
  {
    "pincode": "246275",
    "officename": "Basola B.O",
    "officeType": "B.O",
    "Deliverystatus": "Delivery",
    "divisionname": "Pauri",
    "regionname": "Dehradun",
    "circlename": "Uttarakhand",
    "Taluk": "Thalisain",
    "Districtname": "Pauri Garhwal",
    "statename": "UTTARAKHAND"
  },
  {
    "pincode": "246275",
    "officename": "Bharnao B.O",
    "officeType": "B.O",
    "Deliverystatus": "Delivery",
    "divisionname": "Pauri",
    "regionname": "Dehradun",
    "circlename": "Uttarakhand",
    "Taluk": "Kotdwara",
    "Districtname": "Pauri Garhwal",
    "statename": "UTTARAKHAND"
  },
  {
    "pincode": "246275",
    "officename": "Budhakot B.O",
    "officeType": "B.O",
    "Deliverystatus": "Delivery",
    "divisionname": "Pauri",
    "regionname": "Dehradun",
    "circlename": "Uttarakhand",
    "Taluk": "Thalisain",
    "Districtname": "Pauri Garhwal",
    "statename": "UTTARAKHAND"
  },
  {
    "pincode": "246275",
    "officename": "Chaukhal B.O",
    "officeType": "B.O",
    "Deliverystatus": "Delivery",
    "divisionname": "Pauri",
    "regionname": "Dehradun",
    "circlename": "Uttarakhand",
    "Taluk": "Thali Sain",
    "Districtname": "Pauri Garhwal",
    "statename": "UTTARAKHAND"
  },
  {
    "pincode": "246275",
    "officename": "Dhaund B.O",
    "officeType": "B.O",
    "Deliverystatus": "Delivery",
    "divisionname": "Pauri",
    "regionname": "Dehradun",
    "circlename": "Uttarakhand",
    "Taluk": "Dhoomakot",
    "Districtname": "Pauri Garhwal",
    "statename": "UTTARAKHAND"
  },
  {
    "pincode": "246275",
    "officename": "Farsari B.O",
    "officeType": "B.O",
    "Deliverystatus": "Delivery",
    "divisionname": "Pauri",
    "regionname": "Dehradun",
    "circlename": "Uttarakhand",
    "Taluk": "Thalisain",
    "Districtname": "Pauri Garhwal",
    "statename": "UTTARAKHAND"
  },
  {
    "pincode": "246275",
    "officename": "Gadkharak Malla B.O",
    "officeType": "B.O",
    "Deliverystatus": "Delivery",
    "divisionname": "Pauri",
    "regionname": "Dehradun",
    "circlename": "Uttarakhand",
    "Taluk": "Thalisain",
    "Districtname": "Pauri Garhwal",
    "statename": "UTTARAKHAND"
  },
  {
    "pincode": "246275",
    "officename": "Garkot Chhacharao B.O",
    "officeType": "B.O",
    "Deliverystatus": "Delivery",
    "divisionname": "Pauri",
    "regionname": "Dehradun",
    "circlename": "Uttarakhand",
    "Taluk": "Thali Sain",
    "Districtname": "Pauri Garhwal",
    "statename": "UTTARAKHAND"
  },
  {
    "pincode": "246275",
    "officename": "Jaspur B.O",
    "officeType": "B.O",
    "Deliverystatus": "Delivery",
    "divisionname": "Pauri",
    "regionname": "Dehradun",
    "circlename": "Uttarakhand",
    "Taluk": "Thalisain",
    "Districtname": "Pauri Garhwal",
    "statename": "UTTARAKHAND"
  },
  {
    "pincode": "246275",
    "officename": "Jiwai B.O",
    "officeType": "B.O",
    "Deliverystatus": "Delivery",
    "divisionname": "Pauri",
    "regionname": "Dehradun",
    "circlename": "Uttarakhand",
    "Taluk": "Thalisain",
    "Districtname": "Pauri Garhwal",
    "statename": "UTTARAKHAND"
  },
  {
    "pincode": "246275",
    "officename": "Jogimarhi B.O",
    "officeType": "B.O",
    "Deliverystatus": "Delivery",
    "divisionname": "Pauri",
    "regionname": "Dehradun",
    "circlename": "Uttarakhand",
    "Taluk": "Thali Sain",
    "Districtname": "Pauri Garhwal",
    "statename": "UTTARAKHAND"
  },
  {
    "pincode": "246275",
    "officename": "Ufaraikhal B.O",
    "officeType": "B.O",
    "Deliverystatus": "Delivery",
    "divisionname": "Pauri",
    "regionname": "Dehradun",
    "circlename": "Uttarakhand",
    "Taluk": "Dhoomakot",
    "Districtname": "Pauri Garhwal",
    "statename": "UTTARAKHAND"
  }
]
