[
  {
    "pincode": "246421",
    "officename": "Augustmuni S.O",
    "officeType": "S.O",
    "Deliverystatus": "Delivery",
    "divisionname": "Chamoli",
    "regionname": "Dehradun",
    "circlename": "Uttarakhand",
    "Taluk": "Rudraprayag",
    "Districtname": "Rudraprayag",
    "statename": "UTTARAKHAND"
  },
  {
    "pincode": "246421",
    "officename": "Bhatwari B.O",
    "officeType": "B.O",
    "Deliverystatus": "Delivery",
    "divisionname": "Chamoli",
    "regionname": "Dehradun",
    "circlename": "Uttarakhand",
    "Taluk": "Rudraprayag",
    "Districtname": "Rudraprayag",
    "statename": "UTTARAKHAND"
  },
  {
    "pincode": "246421",
    "officename": "Bhaunsal B.O",
    "officeType": "B.O",
    "Deliverystatus": "Delivery",
    "divisionname": "Chamoli",
    "regionname": "Dehradun",
    "circlename": "Uttarakhand",
    "Taluk": "Rudraprayag",
    "Districtname": "Rudraprayag",
    "statename": "UTTARAKHAND"
  },
  {
    "pincode": "246421",
    "officename": "Dadoli B.O",
    "officeType": "B.O",
    "Deliverystatus": "Delivery",
    "divisionname": "Chamoli",
    "regionname": "Dehradun",
    "circlename": "Uttarakhand",
    "Taluk": "Rudraprayag",
    "Districtname": "Rudraprayag",
    "statename": "UTTARAKHAND"
  },
  {
    "pincode": "246421",
    "officename": "Dangwal Gaon B.O",
    "officeType": "B.O",
    "Deliverystatus": "Delivery",
    "divisionname": "Chamoli",
    "regionname": "Dehradun",
    "circlename": "Uttarakhand",
    "Taluk": "Rudraprayag",
    "Districtname": "Rudraprayag",
    "statename": "UTTARAKHAND"
  },
  {
    "pincode": "246421",
    "officename": "Kimana B.O",
    "officeType": "B.O",
    "Deliverystatus": "Delivery",
    "divisionname": "Chamoli",
    "regionname": "Dehradun",
    "circlename": "Uttarakhand",
    "Taluk": "Rudraprayag",
    "Districtname": "Rudraprayag",
    "statename": "UTTARAKHAND"
  },
  {
    "pincode": "246421",
    "officename": "Pathalidhar B.O",
    "officeType": "B.O",
    "Deliverystatus": "Delivery",
    "divisionname": "Chamoli",
    "regionname": "Dehradun",
    "circlename": "Uttarakhand",
    "Taluk": "Rudraprayag",
    "Districtname": "Rudraprayag",
    "statename": "UTTARAKHAND"
  },
  {
    "pincode": "246421",
    "officename": "Rumsi B.O",
    "officeType": "B.O",
    "Deliverystatus": "Delivery",
    "divisionname": "Chamoli",
    "regionname": "Dehradun",
    "circlename": "Uttarakhand",
    "Taluk": "Rudraprayag",
    "Districtname": "Rudraprayag",
    "statename": "UTTARAKHAND"
  },
  {
    "pincode": "246421",
    "officename": "Silli B.O",
    "officeType": "B.O",
    "Deliverystatus": "Delivery",
    "divisionname": "Chamoli",
    "regionname": "Dehradun",
    "circlename": "Uttarakhand",
    "Taluk": "Rudraprayag",
    "Districtname": "Rudraprayag",
    "statename": "UTTARAKHAND"
  },
  {
    "pincode": "246421",
    "officename": "Syurbangar B.O",
    "officeType": "B.O",
    "Deliverystatus": "Delivery",
    "divisionname": "Chamoli",
    "regionname": "Dehradun",
    "circlename": "Uttarakhand",
    "Taluk": "Jakholi",
    "Districtname": "Rudraprayag",
    "statename": "UTTARAKHAND"
  },
  {
    "pincode": "246421",
    "officename": "Timli Badama B.O",
    "officeType": "B.O",
    "Deliverystatus": "Delivery",
    "divisionname": "Chamoli",
    "regionname": "Dehradun",
    "circlename": "Uttarakhand",
    "Taluk": "Jakholi",
    "Districtname": "Rudraprayag",
    "statename": "UTTARAKHAND"
  },
  {
    "pincode": "246421",
    "officename": "Uttarsu B.O",
    "officeType": "B.O",
    "Deliverystatus": "Delivery",
    "divisionname": "Chamoli",
    "regionname": "Dehradun",
    "circlename": "Uttarakhand",
    "Taluk": "",
    "Districtname": "Rudraprayag",
    "statename": "UTTARAKHAND"
  }
]
