[
  {
    "pincode": "246439",
    "officename": "Andrwari B.O",
    "officeType": "B.O",
    "Deliverystatus": "Delivery",
    "divisionname": "Chamoli",
    "regionname": "Dehradun",
    "circlename": "Uttarakhand",
    "Taluk": "Okhimath",
    "Districtname": "Rudraprayag",
    "statename": "UTTARAKHAND"
  },
  {
    "pincode": "246439",
    "officename": "Bansu B.O",
    "officeType": "B.O",
    "Deliverystatus": "Delivery",
    "divisionname": "Chamoli",
    "regionname": "Dehradun",
    "circlename": "Uttarakhand",
    "Taluk": "Okhimatn",
    "Districtname": "Rudraprayag",
    "statename": "UTTARAKHAND"
  },
  {
    "pincode": "246439",
    "officename": "Diuli Bhanigram B.O",
    "officeType": "B.O",
    "Deliverystatus": "Delivery",
    "divisionname": "Chamoli",
    "regionname": "Dehradun",
    "circlename": "Uttarakhand",
    "Taluk": "Okhimath",
    "Districtname": "Rudraprayag",
    "statename": "UTTARAKHAND"
  },
  {
    "pincode": "246439",
    "officename": "Guptkashi S.O",
    "officeType": "S.O",
    "Deliverystatus": "Delivery",
    "divisionname": "Chamoli",
    "regionname": "Dehradun",
    "circlename": "Uttarakhand",
    "Taluk": "Okhimath",
    "Districtname": "Rudraprayag",
    "statename": "UTTARAKHAND"
  },
  {
    "pincode": "246439",
    "officename": "Jaltalla B.O",
    "officeType": "B.O",
    "Deliverystatus": "Delivery",
    "divisionname": "Chamoli",
    "regionname": "Dehradun",
    "circlename": "Uttarakhand",
    "Taluk": "Okhimath",
    "Districtname": "Rudraprayag",
    "statename": "UTTARAKHAND"
  },
  {
    "pincode": "246439",
    "officename": "Kalimath B.O",
    "officeType": "B.O",
    "Deliverystatus": "Delivery",
    "divisionname": "Chamoli",
    "regionname": "Dehradun",
    "circlename": "Uttarakhand",
    "Taluk": "Okhimath",
    "Districtname": "Rudraprayag",
    "statename": "UTTARAKHAND"
  },
  {
    "pincode": "246439",
    "officename": "Kotma B.O",
    "officeType": "B.O",
    "Deliverystatus": "Delivery",
    "divisionname": "Chamoli",
    "regionname": "Dehradun",
    "circlename": "Uttarakhand",
    "Taluk": "Okhimath",
    "Districtname": "Rudraprayag",
    "statename": "UTTARAKHAND"
  },
  {
    "pincode": "246439",
    "officename": "Lamgondi B.O",
    "officeType": "B.O",
    "Deliverystatus": "Delivery",
    "divisionname": "Chamoli",
    "regionname": "Dehradun",
    "circlename": "Uttarakhand",
    "Taluk": "Okhimath",
    "Districtname": "Rudraprayag",
    "statename": "UTTARAKHAND"
  },
  {
    "pincode": "246439",
    "officename": "Ransi B.O",
    "officeType": "B.O",
    "Deliverystatus": "Delivery",
    "divisionname": "Chamoli",
    "regionname": "Dehradun",
    "circlename": "Uttarakhand",
    "Taluk": "Okhimath",
    "Districtname": "Rudraprayag",
    "statename": "UTTARAKHAND"
  },
  {
    "pincode": "246439",
    "officename": "Raunlenk B.O",
    "officeType": "B.O",
    "Deliverystatus": "Delivery",
    "divisionname": "Chamoli",
    "regionname": "Dehradun",
    "circlename": "Uttarakhand",
    "Taluk": "Okhimath",
    "Districtname": "Rudraprayag",
    "statename": "UTTARAKHAND"
  },
  {
    "pincode": "246439",
    "officename": "Tulanga B.O",
    "officeType": "B.O",
    "Deliverystatus": "Delivery",
    "divisionname": "Chamoli",
    "regionname": "Dehradun",
    "circlename": "Uttarakhand",
    "Taluk": "Okhimath",
    "Districtname": "Rudraprayag",
    "statename": "UTTARAKHAND"
  },
  {
    "pincode": "246439",
    "officename": "Uniyana B.O",
    "officeType": "B.O",
    "Deliverystatus": "Delivery",
    "divisionname": "Chamoli",
    "regionname": "Dehradun",
    "circlename": "Uttarakhand",
    "Taluk": "Okhimath",
    "Districtname": "Rudraprayag",
    "statename": "UTTARAKHAND"
  },
  {
    "pincode": "246439",
    "officename": "Vidhyapeeth B.O",
    "officeType": "B.O",
    "Deliverystatus": "Delivery",
    "divisionname": "Chamoli",
    "regionname": "Dehradun",
    "circlename": "Uttarakhand",
    "Taluk": "Okhimath",
    "Districtname": "Rudraprayag",
    "statename": "UTTARAKHAND"
  }
]
