[
  {
    "pincode": "246455",
    "officename": "Aser Simli B.O",
    "officeType": "B.O",
    "Deliverystatus": "Delivery",
    "divisionname": "Chamoli",
    "regionname": "Dehradun",
    "circlename": "Uttarakhand",
    "Taluk": "Tharali",
    "Districtname": "Chamoli",
    "statename": "UTTARAKHAND"
  },
  {
    "pincode": "246455",
    "officename": "Bhagoti B.O",
    "officeType": "B.O",
    "Deliverystatus": "Delivery",
    "divisionname": "Chamoli",
    "regionname": "Dehradun",
    "circlename": "Uttarakhand",
    "Taluk": "Tharali",
    "Districtname": "Chamoli",
    "statename": "UTTARAKHAND"
  },
  {
    "pincode": "246455",
    "officename": "Chaliyapani B.O",
    "officeType": "B.O",
    "Deliverystatus": "Delivery",
    "divisionname": "Chamoli",
    "regionname": "Dehradun",
    "circlename": "Uttarakhand",
    "Taluk": "Tharali",
    "Districtname": "Chamoli",
    "statename": "UTTARAKHAND"
  },
  {
    "pincode": "246455",
    "officename": "Chhekura B.O",
    "officeType": "B.O",
    "Deliverystatus": "Delivery",
    "divisionname": "Chamoli",
    "regionname": "Dehradun",
    "circlename": "Uttarakhand",
    "Taluk": "Tharali",
    "Districtname": "Chamoli",
    "statename": "UTTARAKHAND"
  },
  {
    "pincode": "246455",
    "officename": "Dungri Karakot B.O",
    "officeType": "B.O",
    "Deliverystatus": "Delivery",
    "divisionname": "Chamoli",
    "regionname": "Dehradun",
    "circlename": "Uttarakhand",
    "Taluk": "Tharali",
    "Districtname": "Chamoli",
    "statename": "UTTARAKHAND"
  },
  {
    "pincode": "246455",
    "officename": "Gadsira B.O",
    "officeType": "B.O",
    "Deliverystatus": "Delivery",
    "divisionname": "Chamoli",
    "regionname": "Dehradun",
    "circlename": "Uttarakhand",
    "Taluk": "Tharali",
    "Districtname": "Chamoli",
    "statename": "UTTARAKHAND"
  },
  {
    "pincode": "246455",
    "officename": "Jhinjhoni B.O",
    "officeType": "B.O",
    "Deliverystatus": "Delivery",
    "divisionname": "Chamoli",
    "regionname": "Dehradun",
    "circlename": "Uttarakhand",
    "Taluk": "Tharali",
    "Districtname": "Chamoli",
    "statename": "UTTARAKHAND"
  },
  {
    "pincode": "246455",
    "officename": "Kimoli B.O",
    "officeType": "B.O",
    "Deliverystatus": "Delivery",
    "divisionname": "Chamoli",
    "regionname": "Dehradun",
    "circlename": "Uttarakhand",
    "Taluk": "Tharali",
    "Districtname": "Chamoli",
    "statename": "UTTARAKHAND"
  },
  {
    "pincode": "246455",
    "officename": "Kobthan B.O",
    "officeType": "B.O",
    "Deliverystatus": "Delivery",
    "divisionname": "Chamoli",
    "regionname": "Dehradun",
    "circlename": "Uttarakhand",
    "Taluk": "Tharali",
    "Districtname": "Chamoli",
    "statename": "UTTARAKHAND"
  },
  {
    "pincode": "246455",
    "officename": "Mauna B.O",
    "officeType": "B.O",
    "Deliverystatus": "Delivery",
    "divisionname": "Chamoli",
    "regionname": "Dehradun",
    "circlename": "Uttarakhand",
    "Taluk": "Tharali",
    "Districtname": "Chamoli",
    "statename": "UTTARAKHAND"
  },
  {
    "pincode": "246455",
    "officename": "Naini B.O",
    "officeType": "B.O",
    "Deliverystatus": "Delivery",
    "divisionname": "Chamoli",
    "regionname": "Dehradun",
    "circlename": "Uttarakhand",
    "Taluk": "Tharali",
    "Districtname": "Chamoli",
    "statename": "UTTARAKHAND"
  },
  {
    "pincode": "246455",
    "officename": "Nakholi B.O",
    "officeType": "B.O",
    "Deliverystatus": "Delivery",
    "divisionname": "Chamoli",
    "regionname": "Dehradun",
    "circlename": "Uttarakhand",
    "Taluk": "Tharali",
    "Districtname": "Chamoli",
    "statename": "UTTARAKHAND"
  },
  {
    "pincode": "246455",
    "officename": "Narainbagar S.O",
    "officeType": "S.O",
    "Deliverystatus": "Delivery",
    "divisionname": "Chamoli",
    "regionname": "Dehradun",
    "circlename": "Uttarakhand",
    "Taluk": "Tharali",
    "Districtname": "Chamoli",
    "statename": "UTTARAKHAND"
  },
  {
    "pincode": "246455",
    "officename": "Paithani B.O",
    "officeType": "B.O",
    "Deliverystatus": "Delivery",
    "divisionname": "Chamoli",
    "regionname": "Dehradun",
    "circlename": "Uttarakhand",
    "Taluk": "Tharali",
    "Districtname": "Chamoli",
    "statename": "UTTARAKHAND"
  }
]
