[
  {
    "pincode": "246429",
    "officename": "Bartoli B.O",
    "officeType": "B.O",
    "Deliverystatus": "Delivery",
    "divisionname": "Chamoli",
    "regionname": "Dehradun",
    "circlename": "Uttarakhand",
    "Taluk": "Karanprayag",
    "Districtname": "Chamoli",
    "statename": "UTTARAKHAND"
  },
  {
    "pincode": "246429",
    "officename": "Bijarakot B.O",
    "officeType": "B.O",
    "Deliverystatus": "Delivery",
    "divisionname": "Chamoli",
    "regionname": "Dehradun",
    "circlename": "Uttarakhand",
    "Taluk": "Rudraprayag",
    "Districtname": "Rudraprayag",
    "statename": "UTTARAKHAND"
  },
  {
    "pincode": "246429",
    "officename": "Duwa B.O",
    "officeType": "B.O",
    "Deliverystatus": "Delivery",
    "divisionname": "Chamoli",
    "regionname": "Dehradun",
    "circlename": "Uttarakhand",
    "Taluk": "Rudraprayag",
    "Districtname": "Chamoli",
    "statename": "UTTARAKHAND"
  },
  {
    "pincode": "246429",
    "officename": "Gauchar S.O",
    "officeType": "S.O",
    "Deliverystatus": "Delivery",
    "divisionname": "Chamoli",
    "regionname": "Dehradun",
    "circlename": "Uttarakhand",
    "Taluk": "Karanprayag",
    "Districtname": "Chamoli",
    "statename": "UTTARAKHAND"
  },
  {
    "pincode": "246429",
    "officename": "Kandai B.O",
    "officeType": "B.O",
    "Deliverystatus": "Delivery",
    "divisionname": "Chamoli",
    "regionname": "Dehradun",
    "circlename": "Uttarakhand",
    "Taluk": "Rudraprayag",
    "Districtname": "Rudraprayag",
    "statename": "UTTARAKHAND"
  },
  {
    "pincode": "246429",
    "officename": "Karchhuna B.O",
    "officeType": "B.O",
    "Deliverystatus": "Delivery",
    "divisionname": "Chamoli",
    "regionname": "Dehradun",
    "circlename": "Uttarakhand",
    "Taluk": "Pokhari",
    "Districtname": "Chamoli",
    "statename": "UTTARAKHAND"
  },
  {
    "pincode": "246429",
    "officename": "Khal B.O",
    "officeType": "B.O",
    "Deliverystatus": "Delivery",
    "divisionname": "Chamoli",
    "regionname": "Dehradun",
    "circlename": "Uttarakhand",
    "Taluk": "Pokhari",
    "Districtname": "Chamoli",
    "statename": "UTTARAKHAND"
  },
  {
    "pincode": "246429",
    "officename": "Kharsain B.O",
    "officeType": "B.O",
    "Deliverystatus": "Delivery",
    "divisionname": "Chamoli",
    "regionname": "Dehradun",
    "circlename": "Uttarakhand",
    "Taluk": "Karanprayag",
    "Districtname": "Chamoli",
    "statename": "UTTARAKHAND"
  },
  {
    "pincode": "246429",
    "officename": "Kotmalla B.O",
    "officeType": "B.O",
    "Deliverystatus": "Delivery",
    "divisionname": "Chamoli",
    "regionname": "Dehradun",
    "circlename": "Uttarakhand",
    "Taluk": "Rudraprayag",
    "Districtname": "Rudraprayag",
    "statename": "UTTARAKHAND"
  },
  {
    "pincode": "246429",
    "officename": "Kweenthi B.O",
    "officeType": "B.O",
    "Deliverystatus": "Delivery",
    "divisionname": "Chamoli",
    "regionname": "Dehradun",
    "circlename": "Uttarakhand",
    "Taluk": "Pokhari",
    "Districtname": "Chamoli",
    "statename": "UTTARAKHAND"
  },
  {
    "pincode": "246429",
    "officename": "Kyuridasjula B.O",
    "officeType": "B.O",
    "Deliverystatus": "Delivery",
    "divisionname": "Chamoli",
    "regionname": "Dehradun",
    "circlename": "Uttarakhand",
    "Taluk": "Rudraprayag",
    "Districtname": "Rudraprayag",
    "statename": "UTTARAKHAND"
  },
  {
    "pincode": "246429",
    "officename": "Ladoli B.O",
    "officeType": "B.O",
    "Deliverystatus": "Delivery",
    "divisionname": "Chamoli",
    "regionname": "Dehradun",
    "circlename": "Uttarakhand",
    "Taluk": "Rudraprayag",
    "Districtname": "Rudraprayag",
    "statename": "UTTARAKHAND"
  },
  {
    "pincode": "246429",
    "officename": "Ranoun B.O",
    "officeType": "B.O",
    "Deliverystatus": "Delivery",
    "divisionname": "Chamoli",
    "regionname": "Dehradun",
    "circlename": "Uttarakhand",
    "Taluk": "Pokhari",
    "Districtname": "Chamoli",
    "statename": "UTTARAKHAND"
  },
  {
    "pincode": "246429",
    "officename": "Sari B.O",
    "officeType": "B.O",
    "Deliverystatus": "Delivery",
    "divisionname": "Chamoli",
    "regionname": "Dehradun",
    "circlename": "Uttarakhand",
    "Taluk": "Karanprayag",
    "Districtname": "Rudraprayag",
    "statename": "UTTARAKHAND"
  },
  {
    "pincode": "246429",
    "officename": "Shantisadan B.O",
    "officeType": "B.O",
    "Deliverystatus": "Delivery",
    "divisionname": "Chamoli",
    "regionname": "Dehradun",
    "circlename": "Uttarakhand",
    "Taluk": "Karanprayag",
    "Districtname": "Chamoli",
    "statename": "UTTARAKHAND"
  },
  {
    "pincode": "246429",
    "officename": "Sidoli B.O",
    "officeType": "B.O",
    "Deliverystatus": "Delivery",
    "divisionname": "Chamoli",
    "regionname": "Dehradun",
    "circlename": "Uttarakhand",
    "Taluk": "Karanprayag",
    "Districtname": "Chamoli",
    "statename": "UTTARAKHAND"
  }
]
