[
  {
    "pincode": "246440",
    "officename": "Adibadri S.O",
    "officeType": "S.O",
    "Deliverystatus": "Delivery",
    "divisionname": "Chamoli",
    "regionname": "Dehradun",
    "circlename": "Uttarakhand",
    "Taluk": "Gairsain",
    "Districtname": "Chamoli",
    "statename": "UTTARAKHAND"
  },
  {
    "pincode": "246440",
    "officename": "Dewalkot B.O",
    "officeType": "B.O",
    "Deliverystatus": "Delivery",
    "divisionname": "Chamoli",
    "regionname": "Dehradun",
    "circlename": "Uttarakhand",
    "Taluk": "Gairsain",
    "Districtname": "Chamoli",
    "statename": "UTTARAKHAND"
  },
  {
    "pincode": "246440",
    "officename": "Kansuwa B.O",
    "officeType": "B.O",
    "Deliverystatus": "Delivery",
    "divisionname": "Chamoli",
    "regionname": "Dehradun",
    "circlename": "Uttarakhand",
    "Taluk": "Gairsain",
    "Districtname": "Chamoli",
    "statename": "UTTARAKHAND"
  },
  {
    "pincode": "246440",
    "officename": "Kheti B.O",
    "officeType": "B.O",
    "Deliverystatus": "Delivery",
    "divisionname": "Chamoli",
    "regionname": "Dehradun",
    "circlename": "Uttarakhand",
    "Taluk": "Gairsain",
    "Districtname": "Chamoli",
    "statename": "UTTARAKHAND"
  },
  {
    "pincode": "246440",
    "officename": "Kirsal B.O",
    "officeType": "B.O",
    "Deliverystatus": "Delivery",
    "divisionname": "Chamoli",
    "regionname": "Dehradun",
    "circlename": "Uttarakhand",
    "Taluk": "Gairsain",
    "Districtname": "Chamoli",
    "statename": "UTTARAKHAND"
  },
  {
    "pincode": "246440",
    "officename": "Majiyari Malli B.O",
    "officeType": "B.O",
    "Deliverystatus": "Delivery",
    "divisionname": "Chamoli",
    "regionname": "Dehradun",
    "circlename": "Uttarakhand",
    "Taluk": "Gairsain",
    "Districtname": "Chamoli",
    "statename": "UTTARAKHAND"
  },
  {
    "pincode": "246440",
    "officename": "Majiyari Talli B.O",
    "officeType": "B.O",
    "Deliverystatus": "Delivery",
    "divisionname": "Chamoli",
    "regionname": "Dehradun",
    "circlename": "Uttarakhand",
    "Taluk": "Gairsain",
    "Districtname": "Chamoli",
    "statename": "UTTARAKHAND"
  },
  {
    "pincode": "246440",
    "officename": "Nagali B.O",
    "officeType": "B.O",
    "Deliverystatus": "Delivery",
    "divisionname": "Chamoli",
    "regionname": "Dehradun",
    "circlename": "Uttarakhand",
    "Taluk": "Gairsain",
    "Districtname": "Chamoli",
    "statename": "UTTARAKHAND"
  },
  {
    "pincode": "246440",
    "officename": "Pindwali B.O",
    "officeType": "B.O",
    "Deliverystatus": "Delivery",
    "divisionname": "Chamoli",
    "regionname": "Dehradun",
    "circlename": "Uttarakhand",
    "Taluk": "Gairsain",
    "Districtname": "Chamoli",
    "statename": "UTTARAKHAND"
  },
  {
    "pincode": "246440",
    "officename": "Silpata B.O",
    "officeType": "B.O",
    "Deliverystatus": "Delivery",
    "divisionname": "Chamoli",
    "regionname": "Dehradun",
    "circlename": "Uttarakhand",
    "Taluk": "Gairsain",
    "Districtname": "Chamoli",
    "statename": "UTTARAKHAND"
  },
  {
    "pincode": "246440",
    "officename": "Ujjwal Pur B.O",
    "officeType": "B.O",
    "Deliverystatus": "Delivery",
    "divisionname": "Chamoli",
    "regionname": "Dehradun",
    "circlename": "Uttarakhand",
    "Taluk": "Gairsain",
    "Districtname": "Chamoli",
    "statename": "UTTARAKHAND"
  }
]
