[
  {
    "pincode": "246427",
    "officename": "Balan B.O",
    "officeType": "B.O",
    "Deliverystatus": "Delivery",
    "divisionname": "Chamoli",
    "regionname": "Dehradun",
    "circlename": "Uttarakhand",
    "Taluk": "Tharali",
    "Districtname": "Chamoli",
    "statename": "UTTARAKHAND"
  },
  {
    "pincode": "246427",
    "officename": "Ban B.O",
    "officeType": "B.O",
    "Deliverystatus": "Delivery",
    "divisionname": "Chamoli",
    "regionname": "Dehradun",
    "circlename": "Uttarakhand",
    "Taluk": "Tharali",
    "Districtname": "Chamoli",
    "statename": "UTTARAKHAND"
  },
  {
    "pincode": "246427",
    "officename": "Beradhar B.O",
    "officeType": "B.O",
    "Deliverystatus": "Delivery",
    "divisionname": "Chamoli",
    "regionname": "Dehradun",
    "circlename": "Uttarakhand",
    "Taluk": "Tharali",
    "Districtname": "Chamoli",
    "statename": "UTTARAKHAND"
  },
  {
    "pincode": "246427",
    "officename": "Boragarh B.O",
    "officeType": "B.O",
    "Deliverystatus": "Delivery",
    "divisionname": "Chamoli",
    "regionname": "Dehradun",
    "circlename": "Uttarakhand",
    "Taluk": "Tharali",
    "Districtname": "Chamoli",
    "statename": "UTTARAKHAND"
  },
  {
    "pincode": "246427",
    "officename": "Chaur B.O",
    "officeType": "B.O",
    "Deliverystatus": "Delivery",
    "divisionname": "Chamoli",
    "regionname": "Dehradun",
    "circlename": "Uttarakhand",
    "Taluk": "Tharali",
    "Districtname": "Chamoli",
    "statename": "UTTARAKHAND"
  },
  {
    "pincode": "246427",
    "officename": "Choting B.O",
    "officeType": "B.O",
    "Deliverystatus": "Delivery",
    "divisionname": "Chamoli",
    "regionname": "Dehradun",
    "circlename": "Uttarakhand",
    "Taluk": "Tharali",
    "Districtname": "Chamoli",
    "statename": "UTTARAKHAND"
  },
  {
    "pincode": "246427",
    "officename": "Debal S.O",
    "officeType": "S.O",
    "Deliverystatus": "Delivery",
    "divisionname": "Chamoli",
    "regionname": "Dehradun",
    "circlename": "Uttarakhand",
    "Taluk": "Tharali",
    "Districtname": "Chamoli",
    "statename": "UTTARAKHAND"
  },
  {
    "pincode": "246427",
    "officename": "Ghesh B.O",
    "officeType": "B.O",
    "Deliverystatus": "Delivery",
    "divisionname": "Chamoli",
    "regionname": "Dehradun",
    "circlename": "Uttarakhand",
    "Taluk": "Tharali",
    "Districtname": "Chamoli",
    "statename": "UTTARAKHAND"
  },
  {
    "pincode": "246427",
    "officename": "Jainbisht B.O",
    "officeType": "B.O",
    "Deliverystatus": "Delivery",
    "divisionname": "Chamoli",
    "regionname": "Dehradun",
    "circlename": "Uttarakhand",
    "Taluk": "Tharali",
    "Districtname": "Chamoli",
    "statename": "UTTARAKHAND"
  },
  {
    "pincode": "246427",
    "officename": "Kheta B.O",
    "officeType": "B.O",
    "Deliverystatus": "Delivery",
    "divisionname": "Chamoli",
    "regionname": "Dehradun",
    "circlename": "Uttarakhand",
    "Taluk": "Tharali",
    "Districtname": "Chamoli",
    "statename": "UTTARAKHAND"
  },
  {
    "pincode": "246427",
    "officename": "Lwani B.O",
    "officeType": "B.O",
    "Deliverystatus": "Delivery",
    "divisionname": "Chamoli",
    "regionname": "Dehradun",
    "circlename": "Uttarakhand",
    "Taluk": "Tharali",
    "Districtname": "Chamoli",
    "statename": "UTTARAKHAND"
  },
  {
    "pincode": "246427",
    "officename": "Melkhet B.O",
    "officeType": "B.O",
    "Deliverystatus": "Delivery",
    "divisionname": "Chamoli",
    "regionname": "Dehradun",
    "circlename": "Uttarakhand",
    "Taluk": "Tharali",
    "Districtname": "Chamoli",
    "statename": "UTTARAKHAND"
  },
  {
    "pincode": "246427",
    "officename": "Mundoli B.O",
    "officeType": "B.O",
    "Deliverystatus": "Delivery",
    "divisionname": "Chamoli",
    "regionname": "Dehradun",
    "circlename": "Uttarakhand",
    "Taluk": "Tharali",
    "Districtname": "Chamoli",
    "statename": "UTTARAKHAND"
  },
  {
    "pincode": "246427",
    "officename": "Nandkeshari B.O",
    "officeType": "B.O",
    "Deliverystatus": "Delivery",
    "divisionname": "Chamoli",
    "regionname": "Dehradun",
    "circlename": "Uttarakhand",
    "Taluk": "Tharali",
    "Districtname": "Chamoli",
    "statename": "UTTARAKHAND"
  },
  {
    "pincode": "246427",
    "officename": "Rain B.O",
    "officeType": "B.O",
    "Deliverystatus": "Delivery",
    "divisionname": "Chamoli",
    "regionname": "Dehradun",
    "circlename": "Uttarakhand",
    "Taluk": "Tharali",
    "Districtname": "Chamoli",
    "statename": "UTTARAKHAND"
  },
  {
    "pincode": "246427",
    "officename": "Sawar B.O",
    "officeType": "B.O",
    "Deliverystatus": "Delivery",
    "divisionname": "Chamoli",
    "regionname": "Dehradun",
    "circlename": "Uttarakhand",
    "Taluk": "Tharali",
    "Districtname": "Chamoli",
    "statename": "UTTARAKHAND"
  },
  {
    "pincode": "246427",
    "officename": "Suya B.O",
    "officeType": "B.O",
    "Deliverystatus": "Delivery",
    "divisionname": "Chamoli",
    "regionname": "Dehradun",
    "circlename": "Uttarakhand",
    "Taluk": "Tharali",
    "Districtname": "Chamoli",
    "statename": "UTTARAKHAND"
  },
  {
    "pincode": "246427",
    "officename": "Torti B.O",
    "officeType": "B.O",
    "Deliverystatus": "Delivery",
    "divisionname": "Chamoli",
    "regionname": "Dehradun",
    "circlename": "Uttarakhand",
    "Taluk": "Tharali",
    "Districtname": "Chamoli",
    "statename": "UTTARAKHAND"
  },
  {
    "pincode": "246427",
    "officename": "Ulangra B.O",
    "officeType": "B.O",
    "Deliverystatus": "Delivery",
    "divisionname": "Chamoli",
    "regionname": "Dehradun",
    "circlename": "Uttarakhand",
    "Taluk": "Tharali",
    "Districtname": "Chamoli",
    "statename": "UTTARAKHAND"
  }
]
