[
  {
    "pincode": "246425",
    "officename": "Arkhund B.O",
    "officeType": "B.O",
    "Deliverystatus": "Delivery",
    "divisionname": "Chamoli",
    "regionname": "Dehradun",
    "circlename": "Uttarakhand",
    "Taluk": "Jakholi",
    "Districtname": "Rudraprayag",
    "statename": "UTTARAKHAND"
  },
  {
    "pincode": "246425",
    "officename": "Barab B.O",
    "officeType": "B.O",
    "Deliverystatus": "Delivery",
    "divisionname": "Chamoli",
    "regionname": "Dehradun",
    "circlename": "Uttarakhand",
    "Taluk": "Okhimath",
    "Districtname": "Rudraprayag",
    "statename": "UTTARAKHAND"
  },
  {
    "pincode": "246425",
    "officename": "Basti B.O",
    "officeType": "B.O",
    "Deliverystatus": "Delivery",
    "divisionname": "Chamoli",
    "regionname": "Dehradun",
    "circlename": "Uttarakhand",
    "Taluk": "Okhimath",
    "Districtname": "Rudraprayag",
    "statename": "UTTARAKHAND"
  },
  {
    "pincode": "246425",
    "officename": "Basukedar B.O",
    "officeType": "B.O",
    "Deliverystatus": "Delivery",
    "divisionname": "Chamoli",
    "regionname": "Dehradun",
    "circlename": "Uttarakhand",
    "Taluk": "Okhimath",
    "Districtname": "Rudraprayag",
    "statename": "UTTARAKHAND"
  },
  {
    "pincode": "246425",
    "officename": "Chandra Nagar B.O",
    "officeType": "B.O",
    "Deliverystatus": "Delivery",
    "divisionname": "Chamoli",
    "regionname": "Dehradun",
    "circlename": "Uttarakhand",
    "Taluk": "Okhimath",
    "Districtname": "Rudraprayag",
    "statename": "UTTARAKHAND"
  },
  {
    "pincode": "246425",
    "officename": "Chandrapuri S.O",
    "officeType": "S.O",
    "Deliverystatus": "Delivery",
    "divisionname": "Chamoli",
    "regionname": "Dehradun",
    "circlename": "Uttarakhand",
    "Taluk": "Okhimath",
    "Districtname": "Rudraprayag",
    "statename": "UTTARAKHAND"
  },
  {
    "pincode": "246425",
    "officename": "Dhartondla B.O",
    "officeType": "B.O",
    "Deliverystatus": "Delivery",
    "divisionname": "Chamoli",
    "regionname": "Dehradun",
    "circlename": "Uttarakhand",
    "Taluk": "Okhimath",
    "Districtname": "Rudraprayag",
    "statename": "UTTARAKHAND"
  },
  {
    "pincode": "246425",
    "officename": "Jagoth B.O",
    "officeType": "B.O",
    "Deliverystatus": "Delivery",
    "divisionname": "Chamoli",
    "regionname": "Dehradun",
    "circlename": "Uttarakhand",
    "Taluk": "Okhimath",
    "Districtname": "Rudraprayag",
    "statename": "UTTARAKHAND"
  },
  {
    "pincode": "246425",
    "officename": "Kandara B.O",
    "officeType": "B.O",
    "Deliverystatus": "Delivery",
    "divisionname": "Chamoli",
    "regionname": "Dehradun",
    "circlename": "Uttarakhand",
    "Taluk": "Okhimath",
    "Districtname": "Rudraprayag",
    "statename": "UTTARAKHAND"
  },
  {
    "pincode": "246425",
    "officename": "Kyark Barsuri B.O",
    "officeType": "B.O",
    "Deliverystatus": "Delivery",
    "divisionname": "Chamoli",
    "regionname": "Dehradun",
    "circlename": "Uttarakhand",
    "Taluk": "Okhimath",
    "Districtname": "Rudraprayag",
    "statename": "UTTARAKHAND"
  },
  {
    "pincode": "246425",
    "officename": "Machkandi B.O",
    "officeType": "B.O",
    "Deliverystatus": "Delivery",
    "divisionname": "Chamoli",
    "regionname": "Dehradun",
    "circlename": "Uttarakhand",
    "Taluk": "Okhimath",
    "Districtname": "Rudraprayag",
    "statename": "UTTARAKHAND"
  },
  {
    "pincode": "246425",
    "officename": "Nainipondar B.O",
    "officeType": "B.O",
    "Deliverystatus": "Delivery",
    "divisionname": "Chamoli",
    "regionname": "Dehradun",
    "circlename": "Uttarakhand",
    "Taluk": "Okhimath",
    "Districtname": "Rudraprayag",
    "statename": "UTTARAKHAND"
  },
  {
    "pincode": "246425",
    "officename": "Pilloo B.O",
    "officeType": "B.O",
    "Deliverystatus": "Delivery",
    "divisionname": "Chamoli",
    "regionname": "Dehradun",
    "circlename": "Uttarakhand",
    "Taluk": "Okhimath",
    "Districtname": "Rudraprayag",
    "statename": "UTTARAKHAND"
  },
  {
    "pincode": "246425",
    "officename": "Uchadhungi B.O",
    "officeType": "B.O",
    "Deliverystatus": "Delivery",
    "divisionname": "Chamoli",
    "regionname": "Dehradun",
    "circlename": "Uttarakhand",
    "Taluk": "Okhimath",
    "Districtname": "Rudraprayag",
    "statename": "UTTARAKHAND"
  },
  {
    "pincode": "246425",
    "officename": "Vinobapuri B.O",
    "officeType": "B.O",
    "Deliverystatus": "Delivery",
    "divisionname": "Chamoli",
    "regionname": "Dehradun",
    "circlename": "Uttarakhand",
    "Taluk": "Okhimath",
    "Districtname": "Rudraprayag",
    "statename": "UTTARAKHAND"
  }
]
