[
  {
    "pincode": "246428",
    "officename": "Andrapa B.O",
    "officeType": "B.O",
    "Deliverystatus": "Delivery",
    "divisionname": "Chamoli",
    "regionname": "Dehradun",
    "circlename": "Uttarakhand",
    "Taluk": "Gairsain",
    "Districtname": "Chamoli",
    "statename": "UTTARAKHAND"
  },
  {
    "pincode": "246428",
    "officename": "Farkande Talli B.O",
    "officeType": "B.O",
    "Deliverystatus": "Delivery",
    "divisionname": "Chamoli",
    "regionname": "Dehradun",
    "circlename": "Uttarakhand",
    "Taluk": "Gairsain",
    "Districtname": "Chamoli",
    "statename": "UTTARAKHAND"
  },
  {
    "pincode": "246428",
    "officename": "Gairsain S.O",
    "officeType": "S.O",
    "Deliverystatus": "Delivery",
    "divisionname": "Chamoli",
    "regionname": "Dehradun",
    "circlename": "Uttarakhand",
    "Taluk": "Gairsain",
    "Districtname": "Chamoli",
    "statename": "UTTARAKHAND"
  },
  {
    "pincode": "246428",
    "officename": "Gaul B.O",
    "officeType": "B.O",
    "Deliverystatus": "Delivery",
    "divisionname": "Chamoli",
    "regionname": "Dehradun",
    "circlename": "Uttarakhand",
    "Taluk": "Gairsain",
    "Districtname": "Chamoli",
    "statename": "UTTARAKHAND"
  },
  {
    "pincode": "246428",
    "officename": "Marora B.O",
    "officeType": "B.O",
    "Deliverystatus": "Delivery",
    "divisionname": "Chamoli",
    "regionname": "Dehradun",
    "circlename": "Uttarakhand",
    "Taluk": "Gairsain",
    "Districtname": "Chamoli",
    "statename": "UTTARAKHAND"
  },
  {
    "pincode": "246428",
    "officename": "Panchali B.O",
    "officeType": "B.O",
    "Deliverystatus": "Delivery",
    "divisionname": "Chamoli",
    "regionname": "Dehradun",
    "circlename": "Uttarakhand",
    "Taluk": "Gairsain",
    "Districtname": "Chamoli",
    "statename": "UTTARAKHAND"
  },
  {
    "pincode": "246428",
    "officename": "Ramra B.O",
    "officeType": "B.O",
    "Deliverystatus": "Delivery",
    "divisionname": "Chamoli",
    "regionname": "Dehradun",
    "circlename": "Uttarakhand",
    "Taluk": "Gairsain",
    "Districtname": "Chamoli",
    "statename": "UTTARAKHAND"
  },
  {
    "pincode": "246428",
    "officename": "Rohira B.O",
    "officeType": "B.O",
    "Deliverystatus": "Delivery",
    "divisionname": "Chamoli",
    "regionname": "Dehradun",
    "circlename": "Uttarakhand",
    "Taluk": "Gairsain",
    "Districtname": "Chamoli",
    "statename": "UTTARAKHAND"
  },
  {
    "pincode": "246428",
    "officename": "Sainji B.O",
    "officeType": "B.O",
    "Deliverystatus": "Delivery",
    "divisionname": "Chamoli",
    "regionname": "Dehradun",
    "circlename": "Uttarakhand",
    "Taluk": "Gairsain",
    "Districtname": "Chamoli",
    "statename": "UTTARAKHAND"
  },
  {
    "pincode": "246428",
    "officename": "Sarkot B.O",
    "officeType": "B.O",
    "Deliverystatus": "Delivery",
    "divisionname": "Chamoli",
    "regionname": "Dehradun",
    "circlename": "Uttarakhand",
    "Taluk": "Gairsain",
    "Districtname": "Chamoli",
    "statename": "UTTARAKHAND"
  }
]
