[
  {
    "pincode": "246747",
    "officename": "Allhapurmohkam B.O",
    "officeType": "B.O",
    "Deliverystatus": "Delivery",
    "divisionname": "Bijnor",
    "regionname": "Bareilly",
    "circlename": "Uttar Pradesh",
    "Taluk": "Nagina",
    "Districtname": "Bijnor",
    "statename": "UTTAR PRADESH"
  },
  {
    "pincode": "246747",
    "officename": "Bhanauti B.O",
    "officeType": "B.O",
    "Deliverystatus": "Delivery",
    "divisionname": "Bijnor",
    "regionname": "Bareilly",
    "circlename": "Uttar Pradesh",
    "Taluk": "Dhampur",
    "Districtname": "Bijnor",
    "statename": "UTTAR PRADESH"
  },
  {
    "pincode": "246747",
    "officename": "Hafizabad B.O",
    "officeType": "B.O",
    "Deliverystatus": "Delivery",
    "divisionname": "Bijnor",
    "regionname": "Bareilly",
    "circlename": "Uttar Pradesh",
    "Taluk": "Nagina",
    "Districtname": "Bijnor",
    "statename": "UTTAR PRADESH"
  },
  {
    "pincode": "246747",
    "officename": "Haraivli B.O",
    "officeType": "B.O",
    "Deliverystatus": "Delivery",
    "divisionname": "Bijnor",
    "regionname": "Bareilly",
    "circlename": "Uttar Pradesh",
    "Taluk": "Dhampur",
    "Districtname": "Bijnor",
    "statename": "UTTAR PRADESH"
  },
  {
    "pincode": "246747",
    "officename": "Jatpura B.O",
    "officeType": "B.O",
    "Deliverystatus": "Delivery",
    "divisionname": "Bijnor",
    "regionname": "Bareilly",
    "circlename": "Uttar Pradesh",
    "Taluk": "Nagina",
    "Districtname": "Bijnor",
    "statename": "UTTAR PRADESH"
  },
  {
    "pincode": "246747",
    "officename": "Mirzapur B.O",
    "officeType": "B.O",
    "Deliverystatus": "Delivery",
    "divisionname": "Bijnor",
    "regionname": "Bareilly",
    "circlename": "Uttar Pradesh",
    "Taluk": "Dhampur",
    "Districtname": "Bijnor",
    "statename": "UTTAR PRADESH"
  },
  {
    "pincode": "246747",
    "officename": "Mohammedpur Rajauri B.O",
    "officeType": "B.O",
    "Deliverystatus": "Delivery",
    "divisionname": "Bijnor",
    "regionname": "Bareilly",
    "circlename": "Uttar Pradesh",
    "Taluk": "Nagina",
    "Districtname": "Bijnor",
    "statename": "UTTAR PRADESH"
  },
  {
    "pincode": "246747",
    "officename": "Nwadasaidpur Jalal B.O",
    "officeType": "B.O",
    "Deliverystatus": "Delivery",
    "divisionname": "Bijnor",
    "regionname": "Bareilly",
    "circlename": "Uttar Pradesh",
    "Taluk": "Dhampur",
    "Districtname": "Bijnor",
    "statename": "UTTAR PRADESH"
  },
  {
    "pincode": "246747",
    "officename": "Shahnagar Kurali B.O",
    "officeType": "B.O",
    "Deliverystatus": "Delivery",
    "divisionname": "Bijnor",
    "regionname": "Bareilly",
    "circlename": "Uttar Pradesh",
    "Taluk": "Nagina",
    "Districtname": "Bijnor",
    "statename": "UTTAR PRADESH"
  },
  {
    "pincode": "246747",
    "officename": "Shahzadpur B.O",
    "officeType": "B.O",
    "Deliverystatus": "Delivery",
    "divisionname": "Bijnor",
    "regionname": "Bareilly",
    "circlename": "Uttar Pradesh",
    "Taluk": "Dhampur",
    "Districtname": "Bijnor",
    "statename": "UTTAR PRADESH"
  },
  {
    "pincode": "246747",
    "officename": "Shergarh B.O",
    "officeType": "B.O",
    "Deliverystatus": "Delivery",
    "divisionname": "Bijnor",
    "regionname": "Bareilly",
    "circlename": "Uttar Pradesh",
    "Taluk": "Nagina",
    "Districtname": "Bijnor",
    "statename": "UTTAR PRADESH"
  },
  {
    "pincode": "246747",
    "officename": "Sherkot S.O",
    "officeType": "S.O",
    "Deliverystatus": "Delivery",
    "divisionname": "Bijnor",
    "regionname": "Bareilly",
    "circlename": "Uttar Pradesh",
    "Taluk": "Dhampur",
    "Districtname": "Bijnor",
    "statename": "UTTAR PRADESH"
  },
  {
    "pincode": "246747",
    "officename": "Suawala B.O",
    "officeType": "B.O",
    "Deliverystatus": "Delivery",
    "divisionname": "Bijnor",
    "regionname": "Bareilly",
    "circlename": "Uttar Pradesh",
    "Taluk": "Nagina",
    "Districtname": "Bijnor",
    "statename": "UTTAR PRADESH"
  }
]
