[
  {
    "pincode": "246721",
    "officename": "Bahadarpur Sherfuddin B.O",
    "officeType": "B.O",
    "Deliverystatus": "Delivery",
    "divisionname": "Bijnor",
    "regionname": "Bareilly",
    "circlename": "Uttar Pradesh",
    "Taluk": "Najibabad",
    "Districtname": "Bijnor",
    "statename": "UTTAR PRADESH"
  },
  {
    "pincode": "246721",
    "officename": "Budgara B.O",
    "officeType": "B.O",
    "Deliverystatus": "Delivery",
    "divisionname": "Bijnor",
    "regionname": "Bareilly",
    "circlename": "Uttar Pradesh",
    "Taluk": "Najibabad",
    "Districtname": "Bijnor",
    "statename": "UTTAR PRADESH"
  },
  {
    "pincode": "246721",
    "officename": "Chandok R.S. B.O",
    "officeType": "B.O",
    "Deliverystatus": "Delivery",
    "divisionname": "Bijnor",
    "regionname": "Bareilly",
    "circlename": "Uttar Pradesh",
    "Taluk": "Najibabad",
    "Districtname": "Bijnor",
    "statename": "UTTAR PRADESH"
  },
  {
    "pincode": "246721",
    "officename": "Ganjalpur B.O",
    "officeType": "B.O",
    "Deliverystatus": "Delivery",
    "divisionname": "Bijnor",
    "regionname": "Bareilly",
    "circlename": "Uttar Pradesh",
    "Taluk": "Naijibabad",
    "Districtname": "Bijnor",
    "statename": "UTTAR PRADESH"
  },
  {
    "pincode": "246721",
    "officename": "Khanpur Madho B.O",
    "officeType": "B.O",
    "Deliverystatus": "Delivery",
    "divisionname": "Bijnor",
    "regionname": "Bareilly",
    "circlename": "Uttar Pradesh",
    "Taluk": "",
    "Districtname": "Bijnor",
    "statename": "UTTAR PRADESH"
  },
  {
    "pincode": "246721",
    "officename": "Maheswari Nagla B.O",
    "officeType": "B.O",
    "Deliverystatus": "Delivery",
    "divisionname": "Bijnor",
    "regionname": "Bareilly",
    "circlename": "Uttar Pradesh",
    "Taluk": "Najibabad",
    "Districtname": "Bijnor",
    "statename": "UTTAR PRADESH"
  },
  {
    "pincode": "246721",
    "officename": "Mandawar S.O (Bijnor)",
    "officeType": "S.O",
    "Deliverystatus": "Delivery",
    "divisionname": "Bijnor",
    "regionname": "Bareilly",
    "circlename": "Uttar Pradesh",
    "Taluk": "Najibabad",
    "Districtname": "Bijnor",
    "statename": "UTTAR PRADESH"
  },
  {
    "pincode": "246721",
    "officename": "Mohd.Pur Devmal B.O",
    "officeType": "B.O",
    "Deliverystatus": "Delivery",
    "divisionname": "Bijnor",
    "regionname": "Bareilly",
    "circlename": "Uttar Pradesh",
    "Taluk": "Bijnor",
    "Districtname": "Bijnor",
    "statename": "UTTAR PRADESH"
  },
  {
    "pincode": "246721",
    "officename": "Mohiddinpur B.O",
    "officeType": "B.O",
    "Deliverystatus": "Delivery",
    "divisionname": "Bijnor",
    "regionname": "Bareilly",
    "circlename": "Uttar Pradesh",
    "Taluk": "Chandpur",
    "Districtname": "Bijnor",
    "statename": "UTTAR PRADESH"
  },
  {
    "pincode": "246721",
    "officename": "Narayanpur B.O",
    "officeType": "B.O",
    "Deliverystatus": "Delivery",
    "divisionname": "Bijnor",
    "regionname": "Bareilly",
    "circlename": "Uttar Pradesh",
    "Taluk": "Bijnor",
    "Districtname": "Bijnor",
    "statename": "UTTAR PRADESH"
  },
  {
    "pincode": "246721",
    "officename": "Raipur Berisal B.O",
    "officeType": "B.O",
    "Deliverystatus": "Delivery",
    "divisionname": "Bijnor",
    "regionname": "Bareilly",
    "circlename": "Uttar Pradesh",
    "Taluk": "Najibabad",
    "Districtname": "Bijnor",
    "statename": "UTTAR PRADESH"
  },
  {
    "pincode": "246721",
    "officename": "Rawli B.O",
    "officeType": "B.O",
    "Deliverystatus": "Delivery",
    "divisionname": "Bijnor",
    "regionname": "Bareilly",
    "circlename": "Uttar Pradesh",
    "Taluk": "Najibabad",
    "Districtname": "Bijnor",
    "statename": "UTTAR PRADESH"
  },
  {
    "pincode": "246721",
    "officename": "Simla Kalan B.O",
    "officeType": "B.O",
    "Deliverystatus": "Delivery",
    "divisionname": "Bijnor",
    "regionname": "Bareilly",
    "circlename": "Uttar Pradesh",
    "Taluk": "Najibabad",
    "Districtname": "Bijnor",
    "statename": "UTTAR PRADESH"
  }
]
