[
  {
    "pincode": "246725",
    "officename": "Ajdev Khanpur B.O",
    "officeType": "B.O",
    "Deliverystatus": "Delivery",
    "divisionname": "Bijnor",
    "regionname": "Bareilly",
    "circlename": "Uttar Pradesh",
    "Taluk": "Chandpur",
    "Districtname": "Bijnor",
    "statename": "UTTAR PRADESH"
  },
  {
    "pincode": "246725",
    "officename": "Aurangabad Urf Sikanderpur B.O",
    "officeType": "B.O",
    "Deliverystatus": "Delivery",
    "divisionname": "Bijnor",
    "regionname": "Bareilly",
    "circlename": "Uttar Pradesh",
    "Taluk": "Najibabad",
    "Districtname": "Bijnor",
    "statename": "UTTAR PRADESH"
  },
  {
    "pincode": "246725",
    "officename": "Bagarpur B.O",
    "officeType": "B.O",
    "Deliverystatus": "Delivery",
    "divisionname": "Bijnor",
    "regionname": "Bareilly",
    "circlename": "Uttar Pradesh",
    "Taluk": "Chandpur",
    "Districtname": "Bijnor",
    "statename": "UTTAR PRADESH"
  },
  {
    "pincode": "246725",
    "officename": "Bahmanshora B.O",
    "officeType": "B.O",
    "Deliverystatus": "Delivery",
    "divisionname": "Bijnor",
    "regionname": "Bareilly",
    "circlename": "Uttar Pradesh",
    "Taluk": "Chandpur",
    "Districtname": "Bijnor",
    "statename": "UTTAR PRADESH"
  },
  {
    "pincode": "246725",
    "officename": "Chandpur S.O",
    "officeType": "S.O",
    "Deliverystatus": "Delivery",
    "divisionname": "Bijnor",
    "regionname": "Bareilly",
    "circlename": "Uttar Pradesh",
    "Taluk": "Chandpur",
    "Districtname": "Bijnor",
    "statename": "UTTAR PRADESH"
  },
  {
    "pincode": "246725",
    "officename": "Chandpur S.O",
    "officeType": "S.O",
    "Deliverystatus": "Non-Delivery",
    "divisionname": "Bijnor",
    "regionname": "Bareilly",
    "circlename": "Uttar Pradesh",
    "Taluk": "Chandpur",
    "Districtname": "Bijnor",
    "statename": "UTTAR PRADESH"
  },
  {
    "pincode": "246725",
    "officename": "Darbara B.O",
    "officeType": "B.O",
    "Deliverystatus": "Delivery",
    "divisionname": "Bijnor",
    "regionname": "Bareilly",
    "circlename": "Uttar Pradesh",
    "Taluk": "Chandpur",
    "Districtname": "Bijnor",
    "statename": "UTTAR PRADESH"
  },
  {
    "pincode": "246725",
    "officename": "Datiyana B.O",
    "officeType": "B.O",
    "Deliverystatus": "Delivery",
    "divisionname": "Bijnor",
    "regionname": "Bareilly",
    "circlename": "Uttar Pradesh",
    "Taluk": "Chandpur",
    "Districtname": "Bijnor",
    "statename": "UTTAR PRADESH"
  },
  {
    "pincode": "246725",
    "officename": "Gandhore B.O",
    "officeType": "B.O",
    "Deliverystatus": "Delivery",
    "divisionname": "Bijnor",
    "regionname": "Bareilly",
    "circlename": "Uttar Pradesh",
    "Taluk": "Chandpur",
    "Districtname": "Bijnor",
    "statename": "UTTAR PRADESH"
  },
  {
    "pincode": "246725",
    "officename": "Heempur Buzurg B.O",
    "officeType": "B.O",
    "Deliverystatus": "Delivery",
    "divisionname": "Bijnor",
    "regionname": "Bareilly",
    "circlename": "Uttar Pradesh",
    "Taluk": "Chandpur",
    "Districtname": "Bijnor",
    "statename": "UTTAR PRADESH"
  },
  {
    "pincode": "246725",
    "officename": "Heempur Deepa B.O",
    "officeType": "B.O",
    "Deliverystatus": "Delivery",
    "divisionname": "Bijnor",
    "regionname": "Bareilly",
    "circlename": "Uttar Pradesh",
    "Taluk": "Chandpur",
    "Districtname": "Bijnor",
    "statename": "UTTAR PRADESH"
  },
  {
    "pincode": "246725",
    "officename": "Imliya B.O",
    "officeType": "B.O",
    "Deliverystatus": "Delivery",
    "divisionname": "Bijnor",
    "regionname": "Bareilly",
    "circlename": "Uttar Pradesh",
    "Taluk": "Chandpur",
    "Districtname": "Bijnor",
    "statename": "UTTAR PRADESH"
  },
  {
    "pincode": "246725",
    "officename": "Ismailpur B.O",
    "officeType": "B.O",
    "Deliverystatus": "Delivery",
    "divisionname": "Bijnor",
    "regionname": "Bareilly",
    "circlename": "Uttar Pradesh",
    "Taluk": "Chandpur",
    "Districtname": "Bijnor",
    "statename": "UTTAR PRADESH"
  },
  {
    "pincode": "246725",
    "officename": "Jalilpur B.O",
    "officeType": "B.O",
    "Deliverystatus": "Delivery",
    "divisionname": "Bijnor",
    "regionname": "Bareilly",
    "circlename": "Uttar Pradesh",
    "Taluk": "Chandpur",
    "Districtname": "Bijnor",
    "statename": "UTTAR PRADESH"
  },
  {
    "pincode": "246725",
    "officename": "Mirzapur Khader B.O",
    "officeType": "B.O",
    "Deliverystatus": "Delivery",
    "divisionname": "Bijnor",
    "regionname": "Bareilly",
    "circlename": "Uttar Pradesh",
    "Taluk": "Dhampur",
    "Districtname": "Bijnor",
    "statename": "UTTAR PRADESH"
  },
  {
    "pincode": "246725",
    "officename": "Pipli Jat B.O",
    "officeType": "B.O",
    "Deliverystatus": "Delivery",
    "divisionname": "Bijnor",
    "regionname": "Bareilly",
    "circlename": "Uttar Pradesh",
    "Taluk": "Chandpur",
    "Districtname": "Bijnor",
    "statename": "UTTAR PRADESH"
  },
  {
    "pincode": "246725",
    "officename": "Roniya B.O",
    "officeType": "B.O",
    "Deliverystatus": "Delivery",
    "divisionname": "Bijnor",
    "regionname": "Bareilly",
    "circlename": "Uttar Pradesh",
    "Taluk": "Chandpur",
    "Districtname": "Bijnor",
    "statename": "UTTAR PRADESH"
  },
  {
    "pincode": "246725",
    "officename": "Saindwar B.O",
    "officeType": "B.O",
    "Deliverystatus": "Delivery",
    "divisionname": "Bijnor",
    "regionname": "Bareilly",
    "circlename": "Uttar Pradesh",
    "Taluk": "Bijnor",
    "Districtname": "Bijnor",
    "statename": "UTTAR PRADESH"
  },
  {
    "pincode": "246725",
    "officename": "Siau B.O",
    "officeType": "B.O",
    "Deliverystatus": "Delivery",
    "divisionname": "Bijnor",
    "regionname": "Bareilly",
    "circlename": "Uttar Pradesh",
    "Taluk": "Chandpur",
    "Districtname": "Bijnor",
    "statename": "UTTAR PRADESH"
  },
  {
    "pincode": "246725",
    "officename": "Singha B.O",
    "officeType": "B.O",
    "Deliverystatus": "Delivery",
    "divisionname": "Bijnor",
    "regionname": "Bareilly",
    "circlename": "Uttar Pradesh",
    "Taluk": "Chandpur",
    "Districtname": "Bijnor",
    "statename": "UTTAR PRADESH"
  },
  {
    "pincode": "246725",
    "officename": "Sudnipur Rawati B.O",
    "officeType": "B.O",
    "Deliverystatus": "Delivery",
    "divisionname": "Bijnor",
    "regionname": "Bareilly",
    "circlename": "Uttar Pradesh",
    "Taluk": "Chandpur",
    "Districtname": "Bijnor",
    "statename": "UTTAR PRADESH"
  }
]
