[
  {
    "pincode": "246745",
    "officename": "Bagwara B.O",
    "officeType": "B.O",
    "Deliverystatus": "Delivery",
    "divisionname": "Bijnor",
    "regionname": "Bareilly",
    "circlename": "Uttar Pradesh",
    "Taluk": "Dhampur",
    "Districtname": "Bijnor",
    "statename": "UTTAR PRADESH"
  },
  {
    "pincode": "246745",
    "officename": "Haldua Mafi B.O",
    "officeType": "B.O",
    "Deliverystatus": "Delivery",
    "divisionname": "Bijnor",
    "regionname": "Bareilly",
    "circlename": "Uttar Pradesh",
    "Taluk": "Dhampur",
    "Districtname": "Bijnor",
    "statename": "UTTAR PRADESH"
  },
  {
    "pincode": "246745",
    "officename": "Kiwar B.O",
    "officeType": "B.O",
    "Deliverystatus": "Delivery",
    "divisionname": "Bijnor",
    "regionname": "Bareilly",
    "circlename": "Uttar Pradesh",
    "Taluk": "Dhampur",
    "Districtname": "Bijnor",
    "statename": "UTTAR PRADESH"
  },
  {
    "pincode": "246745",
    "officename": "Maqsoodpur B.O",
    "officeType": "B.O",
    "Deliverystatus": "Delivery",
    "divisionname": "Bijnor",
    "regionname": "Bareilly",
    "circlename": "Uttar Pradesh",
    "Taluk": "Dhampur",
    "Districtname": "Bijnor",
    "statename": "UTTAR PRADESH"
  },
  {
    "pincode": "246745",
    "officename": "Mehmoodpur B.O",
    "officeType": "B.O",
    "Deliverystatus": "Delivery",
    "divisionname": "Bijnor",
    "regionname": "Bareilly",
    "circlename": "Uttar Pradesh",
    "Taluk": "Dhampur",
    "Districtname": "Bijnor",
    "statename": "UTTAR PRADESH"
  },
  {
    "pincode": "246745",
    "officename": "Mewa Nawada B.O",
    "officeType": "B.O",
    "Deliverystatus": "Delivery",
    "divisionname": "Bijnor",
    "regionname": "Bareilly",
    "circlename": "Uttar Pradesh",
    "Taluk": "Dhampur",
    "Districtname": "Bijnor",
    "statename": "UTTAR PRADESH"
  },
  {
    "pincode": "246745",
    "officename": "Sadaranpur B.O",
    "officeType": "B.O",
    "Deliverystatus": "Delivery",
    "divisionname": "Bijnor",
    "regionname": "Bareilly",
    "circlename": "Uttar Pradesh",
    "Taluk": "Dhampur",
    "Districtname": "Bijnor",
    "statename": "UTTAR PRADESH"
  },
  {
    "pincode": "246745",
    "officename": "Sahaspur S.O (Bijnor)",
    "officeType": "S.O",
    "Deliverystatus": "Delivery",
    "divisionname": "Bijnor",
    "regionname": "Bareilly",
    "circlename": "Uttar Pradesh",
    "Taluk": "Dhampur",
    "Districtname": "Bijnor",
    "statename": "UTTAR PRADESH"
  }
]
