[
  {
    "pincode": "246701",
    "officename": "Agri B.O",
    "officeType": "B.O",
    "Deliverystatus": "Delivery",
    "divisionname": "Bijnor",
    "regionname": "Bareilly",
    "circlename": "Uttar Pradesh",
    "Taluk": "Bijnor",
    "Districtname": "Bijnor",
    "statename": "UTTAR PRADESH"
  },
  {
    "pincode": "246701",
    "officename": "B I Estate S.O",
    "officeType": "S.O",
    "Deliverystatus": "Non-Delivery",
    "divisionname": "Bijnor",
    "regionname": "Bareilly",
    "circlename": "Uttar Pradesh",
    "Taluk": "Bijnor",
    "Districtname": "Bijnor",
    "statename": "UTTAR PRADESH"
  },
  {
    "pincode": "246701",
    "officename": "Bakherpur Garhi B.O",
    "officeType": "B.O",
    "Deliverystatus": "Delivery",
    "divisionname": "Bijnor",
    "regionname": "Bareilly",
    "circlename": "Uttar Pradesh",
    "Taluk": "Bijnor",
    "Districtname": "Bijnor",
    "statename": "UTTAR PRADESH"
  },
  {
    "pincode": "246701",
    "officename": "Bharaira B.O",
    "officeType": "B.O",
    "Deliverystatus": "Delivery",
    "divisionname": "Bijnor",
    "regionname": "Bareilly",
    "circlename": "Uttar Pradesh",
    "Taluk": "Bijnor",
    "Districtname": "Bijnor",
    "statename": "UTTAR PRADESH"
  },
  {
    "pincode": "246701",
    "officename": "Bijnor H.O",
    "officeType": "H.O",
    "Deliverystatus": "Delivery",
    "divisionname": "Bijnor",
    "regionname": "Bareilly",
    "circlename": "Uttar Pradesh",
    "Taluk": "Bijnor",
    "Districtname": "Bijnor",
    "statename": "UTTAR PRADESH"
  },
  {
    "pincode": "246701",
    "officename": "Civil Line S.O",
    "officeType": "S.O",
    "Deliverystatus": "Non-Delivery",
    "divisionname": "Bijnor",
    "regionname": "Bareilly",
    "circlename": "Uttar Pradesh",
    "Taluk": "Bijnor",
    "Districtname": "Bijnor",
    "statename": "UTTAR PRADESH"
  },
  {
    "pincode": "246701",
    "officename": "Daranagar Ganj B.O",
    "officeType": "B.O",
    "Deliverystatus": "Delivery",
    "divisionname": "Bijnor",
    "regionname": "Bareilly",
    "circlename": "Uttar Pradesh",
    "Taluk": "Bijnor",
    "Districtname": "Bijnor",
    "statename": "UTTAR PRADESH"
  },
  {
    "pincode": "246701",
    "officename": "Dharm Nagri B.O",
    "officeType": "B.O",
    "Deliverystatus": "Delivery",
    "divisionname": "Bijnor",
    "regionname": "Bareilly",
    "circlename": "Uttar Pradesh",
    "Taluk": "Bijnor",
    "Districtname": "Bijnor",
    "statename": "UTTAR PRADESH"
  },
  {
    "pincode": "246701",
    "officename": "District Board S.O",
    "officeType": "S.O",
    "Deliverystatus": "Non-Delivery",
    "divisionname": "Bijnor",
    "regionname": "Bareilly",
    "circlename": "Uttar Pradesh",
    "Taluk": "Bijnor",
    "Districtname": "Bijnor",
    "statename": "UTTAR PRADESH"
  },
  {
    "pincode": "246701",
    "officename": "Faridpur Bhogi B.O",
    "officeType": "B.O",
    "Deliverystatus": "Delivery",
    "divisionname": "Bijnor",
    "regionname": "Bareilly",
    "circlename": "Uttar Pradesh",
    "Taluk": "Bijnor",
    "Districtname": "Bijnor",
    "statename": "UTTAR PRADESH"
  },
  {
    "pincode": "246701",
    "officename": "Fatehpur Kalan B.O",
    "officeType": "B.O",
    "Deliverystatus": "Delivery",
    "divisionname": "Bijnor",
    "regionname": "Bareilly",
    "circlename": "Uttar Pradesh",
    "Taluk": "Bijnor",
    "Districtname": "Bijnor",
    "statename": "UTTAR PRADESH"
  },
  {
    "pincode": "246701",
    "officename": "Gajraula Shiv B.O",
    "officeType": "B.O",
    "Deliverystatus": "Delivery",
    "divisionname": "Bijnor",
    "regionname": "Bareilly",
    "circlename": "Uttar Pradesh",
    "Taluk": "Bijnor",
    "Districtname": "Bijnor",
    "statename": "UTTAR PRADESH"
  },
  {
    "pincode": "246701",
    "officename": "Jatan S.O",
    "officeType": "S.O",
    "Deliverystatus": "Non-Delivery",
    "divisionname": "Bijnor",
    "regionname": "Bareilly",
    "circlename": "Uttar Pradesh",
    "Taluk": "Bijnor",
    "Districtname": "Bijnor",
    "statename": "UTTAR PRADESH"
  },
  {
    "pincode": "246701",
    "officename": "Kharak Jeetpur B.O",
    "officeType": "B.O",
    "Deliverystatus": "Delivery",
    "divisionname": "Bijnor",
    "regionname": "Bareilly",
    "circlename": "Uttar Pradesh",
    "Taluk": "Bijnor",
    "Districtname": "Bijnor",
    "statename": "UTTAR PRADESH"
  },
  {
    "pincode": "246701",
    "officename": "Khatriyan S.O",
    "officeType": "S.O",
    "Deliverystatus": "Non-Delivery",
    "divisionname": "Bijnor",
    "regionname": "Bareilly",
    "circlename": "Uttar Pradesh",
    "Taluk": "Bijnor",
    "Districtname": "Bijnor",
    "statename": "UTTAR PRADESH"
  },
  {
    "pincode": "246701",
    "officename": "Mangolpura Roopchand B.O",
    "officeType": "B.O",
    "Deliverystatus": "Delivery",
    "divisionname": "Bijnor",
    "regionname": "Bareilly",
    "circlename": "Uttar Pradesh",
    "Taluk": "Bijnor",
    "Districtname": "Bijnor",
    "statename": "UTTAR PRADESH"
  },
  {
    "pincode": "246701",
    "officename": "Mo. Pur Mandawali B.O",
    "officeType": "B.O",
    "Deliverystatus": "Delivery",
    "divisionname": "Bijnor",
    "regionname": "Bareilly",
    "circlename": "Uttar Pradesh",
    "Taluk": "Bijnor",
    "Districtname": "Bijnor",
    "statename": "UTTAR PRADESH"
  },
  {
    "pincode": "246701",
    "officename": "Nai Basti S.O",
    "officeType": "S.O",
    "Deliverystatus": "Non-Delivery",
    "divisionname": "Bijnor",
    "regionname": "Bareilly",
    "circlename": "Uttar Pradesh",
    "Taluk": "Bijnor",
    "Districtname": "Bijnor",
    "statename": "UTTAR PRADESH"
  },
  {
    "pincode": "246701",
    "officename": "Nasiri B.O",
    "officeType": "B.O",
    "Deliverystatus": "Delivery",
    "divisionname": "Bijnor",
    "regionname": "Bareilly",
    "circlename": "Uttar Pradesh",
    "Taluk": "Bijnor",
    "Districtname": "Bijnor",
    "statename": "UTTAR PRADESH"
  },
  {
    "pincode": "246701",
    "officename": "Naya Gaon B.O",
    "officeType": "B.O",
    "Deliverystatus": "Delivery",
    "divisionname": "Bijnor",
    "regionname": "Bareilly",
    "circlename": "Uttar Pradesh",
    "Taluk": "Bijnor",
    "Districtname": "Bijnor",
    "statename": "UTTAR PRADESH"
  },
  {
    "pincode": "246701",
    "officename": "Prithvipur B.O",
    "officeType": "B.O",
    "Deliverystatus": "Delivery",
    "divisionname": "Bijnor",
    "regionname": "Bareilly",
    "circlename": "Uttar Pradesh",
    "Taluk": "Bijnor",
    "Districtname": "Bijnor",
    "statename": "UTTAR PRADESH"
  },
  {
    "pincode": "246701",
    "officename": "Qaziwala B.O",
    "officeType": "B.O",
    "Deliverystatus": "Delivery",
    "divisionname": "Bijnor",
    "regionname": "Bareilly",
    "circlename": "Uttar Pradesh",
    "Taluk": "Bijnor",
    "Districtname": "Bijnor",
    "statename": "UTTAR PRADESH"
  },
  {
    "pincode": "246701",
    "officename": "Sabdalpur Rehra B.O",
    "officeType": "B.O",
    "Deliverystatus": "Delivery",
    "divisionname": "Bijnor",
    "regionname": "Bareilly",
    "circlename": "Uttar Pradesh",
    "Taluk": "Bijnor",
    "Districtname": "Bijnor",
    "statename": "UTTAR PRADESH"
  },
  {
    "pincode": "246701",
    "officename": "Saidabad B.O",
    "officeType": "B.O",
    "Deliverystatus": "Delivery",
    "divisionname": "Bijnor",
    "regionname": "Bareilly",
    "circlename": "Uttar Pradesh",
    "Taluk": "Chandpur",
    "Districtname": "Bijnor",
    "statename": "UTTAR PRADESH"
  },
  {
    "pincode": "246701",
    "officename": "Sardhani B.O",
    "officeType": "B.O",
    "Deliverystatus": "Delivery",
    "divisionname": "Bijnor",
    "regionname": "Bareilly",
    "circlename": "Uttar Pradesh",
    "Taluk": "Bijnor",
    "Districtname": "Bijnor",
    "statename": "UTTAR PRADESH"
  },
  {
    "pincode": "246701",
    "officename": "Suwheri B.O",
    "officeType": "B.O",
    "Deliverystatus": "Delivery",
    "divisionname": "Bijnor",
    "regionname": "Bareilly",
    "circlename": "Uttar Pradesh",
    "Taluk": "Bijnor",
    "Districtname": "Bijnor",
    "statename": "UTTAR PRADESH"
  },
  {
    "pincode": "246701",
    "officename": "Uledha B.O",
    "officeType": "B.O",
    "Deliverystatus": "Delivery",
    "divisionname": "Bijnor",
    "regionname": "Bareilly",
    "circlename": "Uttar Pradesh",
    "Taluk": "Bijnor",
    "Districtname": "Bijnor",
    "statename": "UTTAR PRADESH"
  },
  {
    "pincode": "246701",
    "officename": "Vidur Kuti B.O",
    "officeType": "B.O",
    "Deliverystatus": "Delivery",
    "divisionname": "Bijnor",
    "regionname": "Bareilly",
    "circlename": "Uttar Pradesh",
    "Taluk": "Bijnor",
    "Districtname": "Bijnor",
    "statename": "UTTAR PRADESH"
  }
]
