[
  {
    "pincode": "247120",
    "officename": "Babail Buzurg S.O",
    "officeType": "S.O",
    "Deliverystatus": "Delivery",
    "divisionname": "Saharanpur",
    "regionname": "Bareilly",
    "circlename": "Uttar Pradesh",
    "Taluk": "Muzaffarabad",
    "Districtname": "Saharanpur",
    "statename": "UTTAR PRADESH"
  },
  {
    "pincode": "247120",
    "officename": "Bahera B.O",
    "officeType": "B.O",
    "Deliverystatus": "Delivery",
    "divisionname": "Saharanpur",
    "regionname": "Bareilly",
    "circlename": "Uttar Pradesh",
    "Taluk": "Muzaffrabad",
    "Districtname": "Saharanpur",
    "statename": "UTTAR PRADESH"
  },
  {
    "pincode": "247120",
    "officename": "Ghunna B.O",
    "officeType": "B.O",
    "Deliverystatus": "Delivery",
    "divisionname": "Saharanpur",
    "regionname": "Bareilly",
    "circlename": "Uttar Pradesh",
    "Taluk": "Muzaffrabad",
    "Districtname": "Saharanpur",
    "statename": "UTTAR PRADESH"
  },
  {
    "pincode": "247120",
    "officename": "Kalsia B.O",
    "officeType": "B.O",
    "Deliverystatus": "Delivery",
    "divisionname": "Saharanpur",
    "regionname": "Bareilly",
    "circlename": "Uttar Pradesh",
    "Taluk": "Muzaffrabad`",
    "Districtname": "Saharanpur",
    "statename": "UTTAR PRADESH"
  },
  {
    "pincode": "247120",
    "officename": "Mussail B.O",
    "officeType": "B.O",
    "Deliverystatus": "Delivery",
    "divisionname": "Saharanpur",
    "regionname": "Bareilly",
    "circlename": "Uttar Pradesh",
    "Taluk": "Muzaffrabad",
    "Districtname": "Saharanpur",
    "statename": "UTTAR PRADESH"
  },
  {
    "pincode": "247120",
    "officename": "Punwarka B.O",
    "officeType": "B.O",
    "Deliverystatus": "Delivery",
    "divisionname": "Saharanpur",
    "regionname": "Bareilly",
    "circlename": "Uttar Pradesh",
    "Taluk": "Saharanpur",
    "Districtname": "Saharanpur",
    "statename": "UTTAR PRADESH"
  },
  {
    "pincode": "247120",
    "officename": "Randol B.O",
    "officeType": "B.O",
    "Deliverystatus": "Delivery",
    "divisionname": "Saharanpur",
    "regionname": "Bareilly",
    "circlename": "Uttar Pradesh",
    "Taluk": "Behat",
    "Districtname": "Saharanpur",
    "statename": "UTTAR PRADESH"
  },
  {
    "pincode": "247120",
    "officename": "Rehri Tajpur B.O",
    "officeType": "B.O",
    "Deliverystatus": "Delivery",
    "divisionname": "Saharanpur",
    "regionname": "Bareilly",
    "circlename": "Uttar Pradesh",
    "Taluk": "Behat",
    "Districtname": "Saharanpur",
    "statename": "UTTAR PRADESH"
  },
  {
    "pincode": "247120",
    "officename": "Topri B.O",
    "officeType": "B.O",
    "Deliverystatus": "Delivery",
    "divisionname": "Saharanpur",
    "regionname": "Bareilly",
    "circlename": "Uttar Pradesh",
    "Taluk": "Saharanpur",
    "Districtname": "Saharanpur",
    "statename": "UTTAR PRADESH"
  }
]
