[
  {
    "pincode": "247121",
    "officename": "Behat S.O (Saharanpur)",
    "officeType": "S.O",
    "Deliverystatus": "Delivery",
    "divisionname": "Saharanpur",
    "regionname": "Bareilly",
    "circlename": "Uttar Pradesh",
    "Taluk": "Behat",
    "Districtname": "Saharanpur",
    "statename": "UTTAR PRADESH"
  },
  {
    "pincode": "247121",
    "officename": "Bhuradev B.O",
    "officeType": "B.O",
    "Deliverystatus": "Delivery",
    "divisionname": "Saharanpur",
    "regionname": "Bareilly",
    "circlename": "Uttar Pradesh",
    "Taluk": "Behat",
    "Districtname": "Saharanpur",
    "statename": "UTTAR PRADESH"
  },
  {
    "pincode": "247121",
    "officename": "Faizabad B.O",
    "officeType": "B.O",
    "Deliverystatus": "Delivery",
    "divisionname": "Saharanpur",
    "regionname": "Bareilly",
    "circlename": "Uttar Pradesh",
    "Taluk": "Behat",
    "Districtname": "Saharanpur",
    "statename": "UTTAR PRADESH"
  },
  {
    "pincode": "247121",
    "officename": "Jasmour B.O",
    "officeType": "B.O",
    "Deliverystatus": "Delivery",
    "divisionname": "Saharanpur",
    "regionname": "Bareilly",
    "circlename": "Uttar Pradesh",
    "Taluk": "Behat",
    "Districtname": "Saharanpur",
    "statename": "UTTAR PRADESH"
  },
  {
    "pincode": "247121",
    "officename": "Jatonwala B.O",
    "officeType": "B.O",
    "Deliverystatus": "Delivery",
    "divisionname": "Saharanpur",
    "regionname": "Bareilly",
    "circlename": "Uttar Pradesh",
    "Taluk": "Behat",
    "Districtname": "Saharanpur",
    "statename": "UTTAR PRADESH"
  },
  {
    "pincode": "247121",
    "officename": "Kamboh Majra B.O",
    "officeType": "B.O",
    "Deliverystatus": "Delivery",
    "divisionname": "Saharanpur",
    "regionname": "Bareilly",
    "circlename": "Uttar Pradesh",
    "Taluk": "Behat",
    "Districtname": "Saharanpur",
    "statename": "UTTAR PRADESH"
  },
  {
    "pincode": "247121",
    "officename": "Kasimpur B.O",
    "officeType": "B.O",
    "Deliverystatus": "Delivery",
    "divisionname": "Saharanpur",
    "regionname": "Bareilly",
    "circlename": "Uttar Pradesh",
    "Taluk": "Behat",
    "Districtname": "Saharanpur",
    "statename": "UTTAR PRADESH"
  },
  {
    "pincode": "247121",
    "officename": "Mirjapur Poll B.O",
    "officeType": "B.O",
    "Deliverystatus": "Delivery",
    "divisionname": "Saharanpur",
    "regionname": "Bareilly",
    "circlename": "Uttar Pradesh",
    "Taluk": "Behat",
    "Districtname": "Saharanpur",
    "statename": "UTTAR PRADESH"
  },
  {
    "pincode": "247121",
    "officename": "Raipur B.O",
    "officeType": "B.O",
    "Deliverystatus": "Delivery",
    "divisionname": "Saharanpur",
    "regionname": "Bareilly",
    "circlename": "Uttar Pradesh",
    "Taluk": "Behat",
    "Districtname": "Saharanpur",
    "statename": "UTTAR PRADESH"
  },
  {
    "pincode": "247121",
    "officename": "Ruhalki B.O",
    "officeType": "B.O",
    "Deliverystatus": "Delivery",
    "divisionname": "Saharanpur",
    "regionname": "Bareilly",
    "circlename": "Uttar Pradesh",
    "Taluk": "Behat",
    "Districtname": "Saharanpur",
    "statename": "UTTAR PRADESH"
  },
  {
    "pincode": "247121",
    "officename": "Sadholi Quadeem B.O",
    "officeType": "B.O",
    "Deliverystatus": "Delivery",
    "divisionname": "Saharanpur",
    "regionname": "Bareilly",
    "circlename": "Uttar Pradesh",
    "Taluk": "Behat",
    "Districtname": "Saharanpur",
    "statename": "UTTAR PRADESH"
  },
  {
    "pincode": "247121",
    "officename": "Samaspur Naugaon B.O",
    "officeType": "B.O",
    "Deliverystatus": "Delivery",
    "divisionname": "Saharanpur",
    "regionname": "Bareilly",
    "circlename": "Uttar Pradesh",
    "Taluk": "Behat",
    "Districtname": "Saharanpur",
    "statename": "UTTAR PRADESH"
  }
]
