[
  {
    "pincode": "247341",
    "officename": "Bansdei B.O",
    "officeType": "B.O",
    "Deliverystatus": "Delivery",
    "divisionname": "Saharanpur",
    "regionname": "Bareilly",
    "circlename": "Uttar Pradesh",
    "Taluk": "Gangoh",
    "Districtname": "Saharanpur",
    "statename": "UTTAR PRADESH"
  },
  {
    "pincode": "247341",
    "officename": "Beenpur B.O",
    "officeType": "B.O",
    "Deliverystatus": "Delivery",
    "divisionname": "Saharanpur",
    "regionname": "Bareilly",
    "circlename": "Uttar Pradesh",
    "Taluk": "Gangoh",
    "Districtname": "Saharanpur",
    "statename": "UTTAR PRADESH"
  },
  {
    "pincode": "247341",
    "officename": "Dudhla B.O",
    "officeType": "B.O",
    "Deliverystatus": "Delivery",
    "divisionname": "Saharanpur",
    "regionname": "Bareilly",
    "circlename": "Uttar Pradesh",
    "Taluk": "Gangoh",
    "Districtname": "Saharanpur",
    "statename": "UTTAR PRADESH"
  },
  {
    "pincode": "247341",
    "officename": "Gangoh S.O",
    "officeType": "S.O",
    "Deliverystatus": "Delivery",
    "divisionname": "Saharanpur",
    "regionname": "Bareilly",
    "circlename": "Uttar Pradesh",
    "Taluk": "Gangoh",
    "Districtname": "Saharanpur",
    "statename": "UTTAR PRADESH"
  },
  {
    "pincode": "247341",
    "officename": "Jandkhera B.O",
    "officeType": "B.O",
    "Deliverystatus": "Delivery",
    "divisionname": "Saharanpur",
    "regionname": "Bareilly",
    "circlename": "Uttar Pradesh",
    "Taluk": "Gangoh",
    "Districtname": "Saharanpur",
    "statename": "UTTAR PRADESH"
  },
  {
    "pincode": "247341",
    "officename": "Jharwan B.O",
    "officeType": "B.O",
    "Deliverystatus": "Delivery",
    "divisionname": "Saharanpur",
    "regionname": "Bareilly",
    "circlename": "Uttar Pradesh",
    "Taluk": "Nakur",
    "Districtname": "Saharanpur",
    "statename": "UTTAR PRADESH"
  },
  {
    "pincode": "247341",
    "officename": "Khadlana B.O",
    "officeType": "B.O",
    "Deliverystatus": "Delivery",
    "divisionname": "Saharanpur",
    "regionname": "Bareilly",
    "circlename": "Uttar Pradesh",
    "Taluk": "Gangoh",
    "Districtname": "Saharanpur",
    "statename": "UTTAR PRADESH"
  },
  {
    "pincode": "247341",
    "officename": "Kunda Kalan B.O",
    "officeType": "B.O",
    "Deliverystatus": "Delivery",
    "divisionname": "Saharanpur",
    "regionname": "Bareilly",
    "circlename": "Uttar Pradesh",
    "Taluk": "Gangoh",
    "Districtname": "Saharanpur",
    "statename": "UTTAR PRADESH"
  },
  {
    "pincode": "247341",
    "officename": "Lakhnauti B.O",
    "officeType": "B.O",
    "Deliverystatus": "Delivery",
    "divisionname": "Saharanpur",
    "regionname": "Bareilly",
    "circlename": "Uttar Pradesh",
    "Taluk": "Gangoh",
    "Districtname": "Saharanpur",
    "statename": "UTTAR PRADESH"
  },
  {
    "pincode": "247341",
    "officename": "Mohanpur B.O",
    "officeType": "B.O",
    "Deliverystatus": "Delivery",
    "divisionname": "Saharanpur",
    "regionname": "Bareilly",
    "circlename": "Uttar Pradesh",
    "Taluk": "Gangoh",
    "Districtname": "Saharanpur",
    "statename": "UTTAR PRADESH"
  },
  {
    "pincode": "247341",
    "officename": "Rangail B.O",
    "officeType": "B.O",
    "Deliverystatus": "Delivery",
    "divisionname": "Saharanpur",
    "regionname": "Bareilly",
    "circlename": "Uttar Pradesh",
    "Taluk": "Gangoh",
    "Districtname": "Saharanpur",
    "statename": "UTTAR PRADESH"
  }
]
