[
  {
    "pincode": "247551",
    "officename": "Bachiti B.O",
    "officeType": "B.O",
    "Deliverystatus": "Delivery",
    "divisionname": "Saharanpur",
    "regionname": "Bareilly",
    "circlename": "Uttar Pradesh",
    "Taluk": "Nagal",
    "Districtname": "Saharanpur",
    "statename": "UTTAR PRADESH"
  },
  {
    "pincode": "247551",
    "officename": "Dhangera B.O",
    "officeType": "B.O",
    "Deliverystatus": "Delivery",
    "divisionname": "Saharanpur",
    "regionname": "Bareilly",
    "circlename": "Uttar Pradesh",
    "Taluk": "Nagal",
    "Districtname": "Saharanpur",
    "statename": "UTTAR PRADESH"
  },
  {
    "pincode": "247551",
    "officename": "Khajoorwala B.O",
    "officeType": "B.O",
    "Deliverystatus": "Delivery",
    "divisionname": "Saharanpur",
    "regionname": "Bareilly",
    "circlename": "Uttar Pradesh",
    "Taluk": "Nagal",
    "Districtname": "Saharanpur",
    "statename": "UTTAR PRADESH"
  },
  {
    "pincode": "247551",
    "officename": "Khera Mugal B.O",
    "officeType": "B.O",
    "Deliverystatus": "Delivery",
    "divisionname": "Saharanpur",
    "regionname": "Bareilly",
    "circlename": "Uttar Pradesh",
    "Taluk": "Nagal",
    "Districtname": "Saharanpur",
    "statename": "UTTAR PRADESH"
  },
  {
    "pincode": "247551",
    "officename": "Kota B.O",
    "officeType": "B.O",
    "Deliverystatus": "Delivery",
    "divisionname": "Saharanpur",
    "regionname": "Bareilly",
    "circlename": "Uttar Pradesh",
    "Taluk": "Nagal",
    "Districtname": "Saharanpur",
    "statename": "UTTAR PRADESH"
  },
  {
    "pincode": "247551",
    "officename": "Lakhnaur B.O",
    "officeType": "B.O",
    "Deliverystatus": "Delivery",
    "divisionname": "Saharanpur",
    "regionname": "Bareilly",
    "circlename": "Uttar Pradesh",
    "Taluk": "Nagal",
    "Districtname": "Saharanpur",
    "statename": "UTTAR PRADESH"
  },
  {
    "pincode": "247551",
    "officename": "Nagal S.O (Saharanpur)",
    "officeType": "S.O",
    "Deliverystatus": "Delivery",
    "divisionname": "Saharanpur",
    "regionname": "Bareilly",
    "circlename": "Uttar Pradesh",
    "Taluk": "Nagal",
    "Districtname": "Saharanpur",
    "statename": "UTTAR PRADESH"
  },
  {
    "pincode": "247551",
    "officename": "Paharpur B.O",
    "officeType": "B.O",
    "Deliverystatus": "Delivery",
    "divisionname": "Saharanpur",
    "regionname": "Bareilly",
    "circlename": "Uttar Pradesh",
    "Taluk": "Nagal",
    "Districtname": "Saharanpur",
    "statename": "UTTAR PRADESH"
  },
  {
    "pincode": "247551",
    "officename": "Pandoli B.O",
    "officeType": "B.O",
    "Deliverystatus": "Delivery",
    "divisionname": "Saharanpur",
    "regionname": "Bareilly",
    "circlename": "Uttar Pradesh",
    "Taluk": "Nagal",
    "Districtname": "Saharanpur",
    "statename": "UTTAR PRADESH"
  },
  {
    "pincode": "247551",
    "officename": "Paniyali Kasimpur B.O",
    "officeType": "B.O",
    "Deliverystatus": "Delivery",
    "divisionname": "Saharanpur",
    "regionname": "Bareilly",
    "circlename": "Uttar Pradesh",
    "Taluk": "Nagal",
    "Districtname": "Saharanpur",
    "statename": "UTTAR PRADESH"
  },
  {
    "pincode": "247551",
    "officename": "Tansipur B.O",
    "officeType": "B.O",
    "Deliverystatus": "Delivery",
    "divisionname": "Saharanpur",
    "regionname": "Bareilly",
    "circlename": "Uttar Pradesh",
    "Taluk": "Nagal",
    "Districtname": "Saharanpur",
    "statename": "UTTAR PRADESH"
  }
]
