[
  {
    "pincode": "247661",
    "officename": "Bhagwanpur S.O (Haridwar)",
    "officeType": "S.O",
    "Deliverystatus": "Delivery",
    "divisionname": "Dehradun",
    "regionname": "Dehradun",
    "circlename": "Uttarakhand",
    "Taluk": "Roorkee",
    "Districtname": "Haridwar",
    "statename": "UTTARAKHAND"
  },
  {
    "pincode": "247661",
    "officename": "Chudiala B.O",
    "officeType": "B.O",
    "Deliverystatus": "Delivery",
    "divisionname": "Dehradun",
    "regionname": "Dehradun",
    "circlename": "Uttarakhand",
    "Taluk": "Roorkee",
    "Districtname": "Haridwar",
    "statename": "UTTARAKHAND"
  },
  {
    "pincode": "247661",
    "officename": "Hallumajra B.O",
    "officeType": "B.O",
    "Deliverystatus": "Delivery",
    "divisionname": "Dehradun",
    "regionname": "Dehradun",
    "circlename": "Uttarakhand",
    "Taluk": "Roorkee",
    "Districtname": "Haridwar",
    "statename": "UTTARAKHAND"
  },
  {
    "pincode": "247661",
    "officename": "Ibrahimpur Mashi B.O",
    "officeType": "B.O",
    "Deliverystatus": "Delivery",
    "divisionname": "Dehradun",
    "regionname": "Dehradun",
    "circlename": "Uttarakhand",
    "Taluk": "Roorkee",
    "Districtname": "Haridwar",
    "statename": "UTTARAKHAND"
  },
  {
    "pincode": "247661",
    "officename": "Khubbanpur B.O",
    "officeType": "B.O",
    "Deliverystatus": "Delivery",
    "divisionname": "Dehradun",
    "regionname": "Dehradun",
    "circlename": "Uttarakhand",
    "Taluk": "Roorkee",
    "Districtname": "Haridwar",
    "statename": "UTTARAKHAND"
  },
  {
    "pincode": "247661",
    "officename": "Sikandarpur Bainswal B.O",
    "officeType": "B.O",
    "Deliverystatus": "Delivery",
    "divisionname": "Dehradun",
    "regionname": "Dehradun",
    "circlename": "Uttarakhand",
    "Taluk": "Roorkee",
    "Districtname": "Haridwar",
    "statename": "UTTARAKHAND"
  },
  {
    "pincode": "247661",
    "officename": "Sikroda B.O",
    "officeType": "B.O",
    "Deliverystatus": "Delivery",
    "divisionname": "Dehradun",
    "regionname": "Dehradun",
    "circlename": "Uttarakhand",
    "Taluk": "Roorkee",
    "Districtname": "Haridwar",
    "statename": "UTTARAKHAND"
  },
  {
    "pincode": "247661",
    "officename": "Srichandi B.O",
    "officeType": "B.O",
    "Deliverystatus": "Delivery",
    "divisionname": "Dehradun",
    "regionname": "Dehradun",
    "circlename": "Uttarakhand",
    "Taluk": "Roorkee",
    "Districtname": "Haridwar",
    "statename": "UTTARAKHAND"
  }
]
