[
  {
    "pincode": "247662",
    "officename": "Banderjud B.O",
    "officeType": "B.O",
    "Deliverystatus": "Delivery",
    "divisionname": "Saharanpur",
    "regionname": "Bareilly",
    "circlename": "Uttar Pradesh",
    "Taluk": "M.bad",
    "Districtname": "Saharanpur",
    "statename": "UTTAR PRADESH"
  },
  {
    "pincode": "247662",
    "officename": "Biharigarh B.O",
    "officeType": "B.O",
    "Deliverystatus": "Delivery",
    "divisionname": "Saharanpur",
    "regionname": "Bareilly",
    "circlename": "Uttar Pradesh",
    "Taluk": "M.bad",
    "Districtname": "Haridwar",
    "statename": "UTTARAKHAND"
  },
  {
    "pincode": "247662",
    "officename": "Buggawala B.O",
    "officeType": "B.O",
    "Deliverystatus": "Delivery",
    "divisionname": "Saharanpur",
    "regionname": "Bareilly",
    "circlename": "Uttar Pradesh",
    "Taluk": "Muzaffrabad",
    "Districtname": "Haridwar",
    "statename": "UTTARAKHAND"
  },
  {
    "pincode": "247662",
    "officename": "Chutmalpur S.O",
    "officeType": "S.O",
    "Deliverystatus": "Delivery",
    "divisionname": "Saharanpur",
    "regionname": "Bareilly",
    "circlename": "Uttar Pradesh",
    "Taluk": "Muzaffrabad",
    "Districtname": "Saharanpur",
    "statename": "UTTAR PRADESH"
  },
  {
    "pincode": "247662",
    "officename": "Halwana B.O",
    "officeType": "B.O",
    "Deliverystatus": "Delivery",
    "divisionname": "Saharanpur",
    "regionname": "Bareilly",
    "circlename": "Uttar Pradesh",
    "Taluk": "Muzaffrabad",
    "Districtname": "Saharanpur",
    "statename": "UTTAR PRADESH"
  },
  {
    "pincode": "247662",
    "officename": "Hassanpur B.O",
    "officeType": "B.O",
    "Deliverystatus": "Delivery",
    "divisionname": "Saharanpur",
    "regionname": "Bareilly",
    "circlename": "Uttar Pradesh",
    "Taluk": "M.bad",
    "Districtname": "Saharanpur",
    "statename": "UTTAR PRADESH"
  },
  {
    "pincode": "247662",
    "officename": "Kheri Shikohpur B.O",
    "officeType": "B.O",
    "Deliverystatus": "Delivery",
    "divisionname": "Saharanpur",
    "regionname": "Bareilly",
    "circlename": "Uttar Pradesh",
    "Taluk": "M.bad",
    "Districtname": "Haridwar",
    "statename": "UTTARAKHAND"
  },
  {
    "pincode": "247662",
    "officename": "Khushalipur B.O",
    "officeType": "B.O",
    "Deliverystatus": "Delivery",
    "divisionname": "Saharanpur",
    "regionname": "Bareilly",
    "circlename": "Uttar Pradesh",
    "Taluk": "Behat",
    "Districtname": "Saharanpur",
    "statename": "UTTAR PRADESH"
  },
  {
    "pincode": "247662",
    "officename": "Lashkarpur B.O",
    "officeType": "B.O",
    "Deliverystatus": "Delivery",
    "divisionname": "Saharanpur",
    "regionname": "Bareilly",
    "circlename": "Uttar Pradesh",
    "Taluk": "Saharanpur",
    "Districtname": "Saharanpur",
    "statename": "UTTAR PRADESH"
  },
  {
    "pincode": "247662",
    "officename": "Mohand B.O",
    "officeType": "B.O",
    "Deliverystatus": "Delivery",
    "divisionname": "Saharanpur",
    "regionname": "Bareilly",
    "circlename": "Uttar Pradesh",
    "Taluk": "M.bad",
    "Districtname": "Saharanpur",
    "statename": "UTTAR PRADESH"
  },
  {
    "pincode": "247662",
    "officename": "Sherpur Khanazadpur B.O",
    "officeType": "B.O",
    "Deliverystatus": "Delivery",
    "divisionname": "Saharanpur",
    "regionname": "Bareilly",
    "circlename": "Uttar Pradesh",
    "Taluk": "M.bad",
    "Districtname": "Saharanpur",
    "statename": "UTTAR PRADESH"
  },
  {
    "pincode": "247662",
    "officename": "Simbhalki Gujjar B.O",
    "officeType": "B.O",
    "Deliverystatus": "Delivery",
    "divisionname": "Saharanpur",
    "regionname": "Bareilly",
    "circlename": "Uttar Pradesh",
    "Taluk": "Saharanpur",
    "Districtname": "Saharanpur",
    "statename": "UTTAR PRADESH"
  },
  {
    "pincode": "247662",
    "officename": "Tanko Sunderpur B.O",
    "officeType": "B.O",
    "Deliverystatus": "Delivery",
    "divisionname": "Saharanpur",
    "regionname": "Bareilly",
    "circlename": "Uttar Pradesh",
    "Taluk": "M.bad",
    "Districtname": "Saharanpur",
    "statename": "UTTAR PRADESH"
  }
]
