[
  {
    "pincode": "247670",
    "officename": "Gurkul Narsan S.O",
    "officeType": "S.O",
    "Deliverystatus": "Delivery",
    "divisionname": "Dehradun",
    "regionname": "Dehradun",
    "circlename": "Uttarakhand",
    "Taluk": "Roorkee",
    "Districtname": "Haridwar",
    "statename": "UTTARAKHAND"
  },
  {
    "pincode": "247670",
    "officename": "Harchadpur Nizampur B.O",
    "officeType": "B.O",
    "Deliverystatus": "Delivery",
    "divisionname": "Dehradun",
    "regionname": "Dehradun",
    "circlename": "Uttarakhand",
    "Taluk": "Roorkee",
    "Districtname": "Haridwar",
    "statename": "UTTARAKHAND"
  },
  {
    "pincode": "247670",
    "officename": "Harjoli Jatt B.O",
    "officeType": "B.O",
    "Deliverystatus": "Delivery",
    "divisionname": "Dehradun",
    "regionname": "Dehradun",
    "circlename": "Uttarakhand",
    "Taluk": "Roorkee",
    "Districtname": "Haridwar",
    "statename": "UTTARAKHAND"
  },
  {
    "pincode": "247670",
    "officename": "Khera Jatt B.O",
    "officeType": "B.O",
    "Deliverystatus": "Delivery",
    "divisionname": "Dehradun",
    "regionname": "Dehradun",
    "circlename": "Uttarakhand",
    "Taluk": "Roorkee",
    "Districtname": "Haridwar",
    "statename": "UTTARAKHAND"
  },
  {
    "pincode": "247670",
    "officename": "Mohmadpur Fall B.O",
    "officeType": "B.O",
    "Deliverystatus": "Delivery",
    "divisionname": "Dehradun",
    "regionname": "Dehradun",
    "circlename": "Uttarakhand",
    "Taluk": "Roorkee",
    "Districtname": "Haridwar",
    "statename": "UTTARAKHAND"
  },
  {
    "pincode": "247670",
    "officename": "Nagla Salaru B.O",
    "officeType": "B.O",
    "Deliverystatus": "Delivery",
    "divisionname": "Dehradun",
    "regionname": "Dehradun",
    "circlename": "Uttarakhand",
    "Taluk": "Roorkee",
    "Districtname": "Haridwar",
    "statename": "UTTARAKHAND"
  },
  {
    "pincode": "247670",
    "officename": "Narsan Kalan B.O",
    "officeType": "B.O",
    "Deliverystatus": "Delivery",
    "divisionname": "Dehradun",
    "regionname": "Dehradun",
    "circlename": "Uttarakhand",
    "Taluk": "",
    "Districtname": "Dehradun",
    "statename": "UTTARAKHAND"
  },
  {
    "pincode": "247670",
    "officename": "Rajupur B.O",
    "officeType": "B.O",
    "Deliverystatus": "Delivery",
    "divisionname": "Dehradun",
    "regionname": "Dehradun",
    "circlename": "Uttarakhand",
    "Taluk": "Roorkee",
    "Districtname": "Haridwar",
    "statename": "UTTARAKHAND"
  },
  {
    "pincode": "247670",
    "officename": "Ransura B.O",
    "officeType": "B.O",
    "Deliverystatus": "Delivery",
    "divisionname": "Dehradun",
    "regionname": "Dehradun",
    "circlename": "Uttarakhand",
    "Taluk": "Roorkee",
    "Districtname": "Haridwar",
    "statename": "UTTARAKHAND"
  },
  {
    "pincode": "247670",
    "officename": "Tikola Kalan B.O",
    "officeType": "B.O",
    "Deliverystatus": "Delivery",
    "divisionname": "Dehradun",
    "regionname": "Dehradun",
    "circlename": "Uttarakhand",
    "Taluk": "Roorkee",
    "Districtname": "Haridwar",
    "statename": "UTTARAKHAND"
  }
]
