[
  {
    "pincode": "248001",
    "officename": "Araghar S.O",
    "officeType": "S.O",
    "Deliverystatus": "Non-Delivery",
    "divisionname": "Dehradun",
    "regionname": "Dehradun",
    "circlename": "Uttarakhand",
    "Taluk": "Dehradun",
    "Districtname": "Dehradun",
    "statename": "UTTARAKHAND"
  },
  {
    "pincode": "248001",
    "officename": "Arahat Bazar S.O",
    "officeType": "S.O",
    "Deliverystatus": "Non-Delivery",
    "divisionname": "Dehradun",
    "regionname": "Dehradun",
    "circlename": "Uttarakhand",
    "Taluk": "Dehradun",
    "Districtname": "Dehradun",
    "statename": "UTTARAKHAND"
  },
  {
    "pincode": "248001",
    "officename": "Balawala B.O",
    "officeType": "B.O",
    "Deliverystatus": "Delivery",
    "divisionname": "Dehradun",
    "regionname": "Dehradun",
    "circlename": "Uttarakhand",
    "Taluk": "Dehardun",
    "Districtname": "Dehradun",
    "statename": "UTTARAKHAND"
  },
  {
    "pincode": "248001",
    "officename": "Ballupur S.O",
    "officeType": "S.O",
    "Deliverystatus": "Non-Delivery",
    "divisionname": "Dehradun",
    "regionname": "Dehradun",
    "circlename": "Uttarakhand",
    "Taluk": "Dehradun",
    "Districtname": "Dehradun",
    "statename": "UTTARAKHAND"
  },
  {
    "pincode": "248001",
    "officename": "Banjarawala B.O",
    "officeType": "B.O",
    "Deliverystatus": "Delivery",
    "divisionname": "Dehradun",
    "regionname": "Dehradun",
    "circlename": "Uttarakhand",
    "Taluk": "Dehradun",
    "Districtname": "Dehradun",
    "statename": "UTTARAKHAND"
  },
  {
    "pincode": "248001",
    "officename": "Bhaniawala B.O",
    "officeType": "B.O",
    "Deliverystatus": "Delivery",
    "divisionname": "Dehradun",
    "regionname": "Dehradun",
    "circlename": "Uttarakhand",
    "Taluk": "Rishieksh",
    "Districtname": "Dehradun",
    "statename": "UTTARAKHAND"
  },
  {
    "pincode": "248001",
    "officename": "CDA(A.F) S.O",
    "officeType": "S.O",
    "Deliverystatus": "Non-Delivery",
    "divisionname": "Dehradun",
    "regionname": "Dehradun",
    "circlename": "Uttarakhand",
    "Taluk": "Dehradun",
    "Districtname": "Dehradun",
    "statename": "UTTARAKHAND"
  },
  {
    "pincode": "248001",
    "officename": "Cannaught Place S.O",
    "officeType": "S.O",
    "Deliverystatus": "Non-Delivery",
    "divisionname": "Dehradun",
    "regionname": "Dehradun",
    "circlename": "Uttarakhand",
    "Taluk": "Dehradun",
    "Districtname": "Dehradun",
    "statename": "UTTARAKHAND"
  },
  {
    "pincode": "248001",
    "officename": "Dalanwala S.O",
    "officeType": "S.O",
    "Deliverystatus": "Non-Delivery",
    "divisionname": "Dehradun",
    "regionname": "Dehradun",
    "circlename": "Uttarakhand",
    "Taluk": "Dehradun",
    "Districtname": "Dehradun",
    "statename": "UTTARAKHAND"
  },
  {
    "pincode": "248001",
    "officename": "Dehradun City S.O",
    "officeType": "S.O",
    "Deliverystatus": "Non-Delivery",
    "divisionname": "Dehradun",
    "regionname": "Dehradun",
    "circlename": "Uttarakhand",
    "Taluk": "Dehradun",
    "Districtname": "Dehradun",
    "statename": "UTTARAKHAND"
  },
  {
    "pincode": "248001",
    "officename": "Dehradun G.P.O.",
    "officeType": "H.O",
    "Deliverystatus": "Delivery",
    "divisionname": "Dehradun",
    "regionname": "Dehradun",
    "circlename": "Uttarakhand",
    "Taluk": "Dehradun",
    "Districtname": "Dehradun",
    "statename": "UTTARAKHAND"
  },
  {
    "pincode": "248001",
    "officename": "Dehradun Kty S.O",
    "officeType": "S.O",
    "Deliverystatus": "Non-Delivery",
    "divisionname": "Dehradun",
    "regionname": "Dehradun",
    "circlename": "Uttarakhand",
    "Taluk": "Dehradun",
    "Districtname": "Dehradun",
    "statename": "UTTARAKHAND"
  },
  {
    "pincode": "248001",
    "officename": "Dilaram Bazar S.O",
    "officeType": "S.O",
    "Deliverystatus": "Non-Delivery",
    "divisionname": "Dehradun",
    "regionname": "Dehradun",
    "circlename": "Uttarakhand",
    "Taluk": "Dehradun",
    "Districtname": "Dehradun",
    "statename": "UTTARAKHAND"
  },
  {
    "pincode": "248001",
    "officename": "Govindgarh S.O (Dehradun)",
    "officeType": "S.O",
    "Deliverystatus": "Non-Delivery",
    "divisionname": "Dehradun",
    "regionname": "Dehradun",
    "circlename": "Uttarakhand",
    "Taluk": "Dehradun",
    "Districtname": "Dehradun",
    "statename": "UTTARAKHAND"
  },
  {
    "pincode": "248001",
    "officename": "Harrawala B.O",
    "officeType": "B.O",
    "Deliverystatus": "Delivery",
    "divisionname": "Dehradun",
    "regionname": "Dehradun",
    "circlename": "Uttarakhand",
    "Taluk": "Dehradun",
    "Districtname": "Dehradun",
    "statename": "UTTARAKHAND"
  },
  {
    "pincode": "248001",
    "officename": "Hathi Barkala S.O",
    "officeType": "S.O",
    "Deliverystatus": "Non-Delivery",
    "divisionname": "Dehradun",
    "regionname": "Dehradun",
    "circlename": "Uttarakhand",
    "Taluk": "Dehradun",
    "Districtname": "Dehradun",
    "statename": "UTTARAKHAND"
  },
  {
    "pincode": "248001",
    "officename": "K.P.Kshetra B.O",
    "officeType": "B.O",
    "Deliverystatus": "Delivery",
    "divisionname": "Dehradun",
    "regionname": "Dehradun",
    "circlename": "Uttarakhand",
    "Taluk": "Rishikesh",
    "Districtname": "Dehradun",
    "statename": "UTTARAKHAND"
  },
  {
    "pincode": "248001",
    "officename": "Kandoli B.O",
    "officeType": "B.O",
    "Deliverystatus": "Delivery",
    "divisionname": "Dehradun",
    "regionname": "Dehradun",
    "circlename": "Uttarakhand",
    "Taluk": "Dehradun",
    "Districtname": "Dehradun",
    "statename": "UTTARAKHAND"
  },
  {
    "pincode": "248001",
    "officename": "Kanwali B.O",
    "officeType": "B.O",
    "Deliverystatus": "Delivery",
    "divisionname": "Dehradun",
    "regionname": "Dehradun",
    "circlename": "Uttarakhand",
    "Taluk": "Dehradun",
    "Districtname": "Dehradun",
    "statename": "UTTARAKHAND"
  },
  {
    "pincode": "248001",
    "officename": "Kanwali Road S.O",
    "officeType": "S.O",
    "Deliverystatus": "Non-Delivery",
    "divisionname": "Dehradun",
    "regionname": "Dehradun",
    "circlename": "Uttarakhand",
    "Taluk": "Dehradun",
    "Districtname": "Dehradun",
    "statename": "UTTARAKHAND"
  },
  {
    "pincode": "248001",
    "officename": "Karanpur S.O",
    "officeType": "S.O",
    "Deliverystatus": "Non-Delivery",
    "divisionname": "Dehradun",
    "regionname": "Dehradun",
    "circlename": "Uttarakhand",
    "Taluk": "Dehradun",
    "Districtname": "Dehradun",
    "statename": "UTTARAKHAND"
  },
  {
    "pincode": "248001",
    "officename": "Kulhan B.O",
    "officeType": "B.O",
    "Deliverystatus": "Delivery",
    "divisionname": "Dehradun",
    "regionname": "Dehradun",
    "circlename": "Uttarakhand",
    "Taluk": "Dehradun",
    "Districtname": "Dehradun",
    "statename": "UTTARAKHAND"
  },
  {
    "pincode": "248001",
    "officename": "Mothrowala B.O",
    "officeType": "B.O",
    "Deliverystatus": "Delivery",
    "divisionname": "Dehradun",
    "regionname": "Dehradun",
    "circlename": "Uttarakhand",
    "Taluk": "Dehradun",
    "Districtname": "Dehradun",
    "statename": "UTTARAKHAND"
  },
  {
    "pincode": "248001",
    "officename": "Neshvilla Road S.O",
    "officeType": "S.O",
    "Deliverystatus": "Non-Delivery",
    "divisionname": "Dehradun",
    "regionname": "Dehradun",
    "circlename": "Uttarakhand",
    "Taluk": "Dehradun",
    "Districtname": "Dehradun",
    "statename": "UTTARAKHAND"
  },
  {
    "pincode": "248001",
    "officename": "Nivh B.O",
    "officeType": "B.O",
    "Deliverystatus": "Non-Delivery",
    "divisionname": "Dehradun",
    "regionname": "Dehradun",
    "circlename": "Uttarakhand",
    "Taluk": "Dehradun",
    "Districtname": "Dehradun",
    "statename": "UTTARAKHAND"
  },
  {
    "pincode": "248001",
    "officename": "Patel Nagar S.O (Dehradun)",
    "officeType": "S.O",
    "Deliverystatus": "Non-Delivery",
    "divisionname": "Dehradun",
    "regionname": "Dehradun",
    "circlename": "Uttarakhand",
    "Taluk": "Dehradun",
    "Districtname": "Dehradun",
    "statename": "UTTARAKHAND"
  },
  {
    "pincode": "248001",
    "officename": "Rispana S.O",
    "officeType": "S.O",
    "Deliverystatus": "Non-Delivery",
    "divisionname": "Dehradun",
    "regionname": "Dehradun",
    "circlename": "Uttarakhand",
    "Taluk": "Dehradun",
    "Districtname": "Dehradun",
    "statename": "UTTARAKHAND"
  },
  {
    "pincode": "248001",
    "officename": "Sachivalaya Parisar S.O",
    "officeType": "S.O",
    "Deliverystatus": "Non-Delivery",
    "divisionname": "Dehradun",
    "regionname": "Dehradun",
    "circlename": "Uttarakhand",
    "Taluk": "Dehradun",
    "Districtname": "Dehradun",
    "statename": "UTTARAKHAND"
  },
  {
    "pincode": "248001",
    "officename": "Sahstradhara B.O",
    "officeType": "B.O",
    "Deliverystatus": "Delivery",
    "divisionname": "Dehradun",
    "regionname": "Dehradun",
    "circlename": "Uttarakhand",
    "Taluk": "Dehradun",
    "Districtname": "Dehradun",
    "statename": "UTTARAKHAND"
  },
  {
    "pincode": "248001",
    "officename": "Sarona B.O",
    "officeType": "B.O",
    "Deliverystatus": "Delivery",
    "divisionname": "Dehradun",
    "regionname": "Dehradun",
    "circlename": "Uttarakhand",
    "Taluk": "Dehradun",
    "Districtname": "Dehradun",
    "statename": "UTTARAKHAND"
  },
  {
    "pincode": "248001",
    "officename": "Sayedwala S.O",
    "officeType": "S.O",
    "Deliverystatus": "Non-Delivery",
    "divisionname": "Dehradun",
    "regionname": "Dehradun",
    "circlename": "Uttarakhand",
    "Taluk": "Dehradun",
    "Districtname": "Dehradun",
    "statename": "UTTARAKHAND"
  }
]
