[
  {
    "pincode": "248123",
    "officename": "Bhandrauli B.O",
    "officeType": "B.O",
    "Deliverystatus": "Delivery",
    "divisionname": "Dehradun",
    "regionname": "Dehradun",
    "circlename": "Uttarakhand",
    "Taluk": "Chakrata",
    "Districtname": "Dehradun",
    "statename": "UTTARAKHAND"
  },
  {
    "pincode": "248123",
    "officename": "Chakrata S.O",
    "officeType": "S.O",
    "Deliverystatus": "Delivery",
    "divisionname": "Dehradun",
    "regionname": "Dehradun",
    "circlename": "Uttarakhand",
    "Taluk": "Chakrata",
    "Districtname": "Dehradun",
    "statename": "UTTARAKHAND"
  },
  {
    "pincode": "248123",
    "officename": "Dungiara B.O",
    "officeType": "B.O",
    "Deliverystatus": "Delivery",
    "divisionname": "Dehradun",
    "regionname": "Dehradun",
    "circlename": "Uttarakhand",
    "Taluk": "Chakrata",
    "Districtname": "Dehradun",
    "statename": "UTTARAKHAND"
  },
  {
    "pincode": "248123",
    "officename": "Ghanta B.O",
    "officeType": "B.O",
    "Deliverystatus": "Delivery",
    "divisionname": "Dehradun",
    "regionname": "Dehradun",
    "circlename": "Uttarakhand",
    "Taluk": "Chakrata",
    "Districtname": "Dehradun",
    "statename": "UTTARAKHAND"
  },
  {
    "pincode": "248123",
    "officename": "Jaddi B.O",
    "officeType": "B.O",
    "Deliverystatus": "Delivery",
    "divisionname": "Dehradun",
    "regionname": "Dehradun",
    "circlename": "Uttarakhand",
    "Taluk": "Chakrata",
    "Districtname": "Dehradun",
    "statename": "UTTARAKHAND"
  },
  {
    "pincode": "248123",
    "officename": "Kailana S.O",
    "officeType": "S.O",
    "Deliverystatus": "Non-Delivery",
    "divisionname": "Dehradun",
    "regionname": "Dehradun",
    "circlename": "Uttarakhand",
    "Taluk": "Chakrata",
    "Districtname": "Dehradun",
    "statename": "UTTARAKHAND"
  },
  {
    "pincode": "248123",
    "officename": "Kharora B.O",
    "officeType": "B.O",
    "Deliverystatus": "Delivery",
    "divisionname": "Dehradun",
    "regionname": "Dehradun",
    "circlename": "Uttarakhand",
    "Taluk": "Chakrata",
    "Districtname": "Dehradun",
    "statename": "UTTARAKHAND"
  },
  {
    "pincode": "248123",
    "officename": "Koti B.O",
    "officeType": "B.O",
    "Deliverystatus": "Delivery",
    "divisionname": "Dehradun",
    "regionname": "Dehradun",
    "circlename": "Uttarakhand",
    "Taluk": "Chakrata",
    "Districtname": "Dehradun",
    "statename": "UTTARAKHAND"
  },
  {
    "pincode": "248123",
    "officename": "Kunawa B.O",
    "officeType": "B.O",
    "Deliverystatus": "Delivery",
    "divisionname": "Dehradun",
    "regionname": "Dehradun",
    "circlename": "Uttarakhand",
    "Taluk": "Chakrata",
    "Districtname": "Dehradun",
    "statename": "UTTARAKHAND"
  },
  {
    "pincode": "248123",
    "officename": "Lohari B.O",
    "officeType": "B.O",
    "Deliverystatus": "Delivery",
    "divisionname": "Dehradun",
    "regionname": "Dehradun",
    "circlename": "Uttarakhand",
    "Taluk": "Chakrata",
    "Districtname": "Dehradun",
    "statename": "UTTARAKHAND"
  },
  {
    "pincode": "248123",
    "officename": "Lorli B.O",
    "officeType": "B.O",
    "Deliverystatus": "Delivery",
    "divisionname": "Dehradun",
    "regionname": "Dehradun",
    "circlename": "Uttarakhand",
    "Taluk": "Chakrata",
    "Districtname": "Dehradun",
    "statename": "UTTARAKHAND"
  },
  {
    "pincode": "248123",
    "officename": "Marlau B.O",
    "officeType": "B.O",
    "Deliverystatus": "Delivery",
    "divisionname": "Dehradun",
    "regionname": "Dehradun",
    "circlename": "Uttarakhand",
    "Taluk": "Chakrata",
    "Districtname": "Dehradun",
    "statename": "UTTARAKHAND"
  },
  {
    "pincode": "248123",
    "officename": "Masak B.O",
    "officeType": "B.O",
    "Deliverystatus": "Delivery",
    "divisionname": "Dehradun",
    "regionname": "Dehradun",
    "circlename": "Uttarakhand",
    "Taluk": "Chakrata",
    "Districtname": "Dehradun",
    "statename": "UTTARAKHAND"
  },
  {
    "pincode": "248123",
    "officename": "Matiyawa B.O",
    "officeType": "B.O",
    "Deliverystatus": "Delivery",
    "divisionname": "Dehradun",
    "regionname": "Dehradun",
    "circlename": "Uttarakhand",
    "Taluk": "Chakrata",
    "Districtname": "Dehradun",
    "statename": "UTTARAKHAND"
  },
  {
    "pincode": "248123",
    "officename": "Mindal B.O",
    "officeType": "B.O",
    "Deliverystatus": "Delivery",
    "divisionname": "Dehradun",
    "regionname": "Dehradun",
    "circlename": "Uttarakhand",
    "Taluk": "Chakrata",
    "Districtname": "Dehradun",
    "statename": "UTTARAKHAND"
  },
  {
    "pincode": "248123",
    "officename": "Nagau B.O",
    "officeType": "B.O",
    "Deliverystatus": "Delivery",
    "divisionname": "Dehradun",
    "regionname": "Dehradun",
    "circlename": "Uttarakhand",
    "Taluk": "Chakrata",
    "Districtname": "Dehradun",
    "statename": "UTTARAKHAND"
  },
  {
    "pincode": "248123",
    "officename": "Sujau B.O",
    "officeType": "B.O",
    "Deliverystatus": "Delivery",
    "divisionname": "Dehradun",
    "regionname": "Dehradun",
    "circlename": "Uttarakhand",
    "Taluk": "Chakrata",
    "Districtname": "Dehradun",
    "statename": "UTTARAKHAND"
  },
  {
    "pincode": "248123",
    "officename": "Tungra B.O",
    "officeType": "B.O",
    "Deliverystatus": "Delivery",
    "divisionname": "Dehradun",
    "regionname": "Dehradun",
    "circlename": "Uttarakhand",
    "Taluk": "Chakrata",
    "Districtname": "Dehradun",
    "statename": "UTTARAKHAND"
  }
]
