[
  {
    "pincode": "248197",
    "officename": "Barwa B.O",
    "officeType": "B.O",
    "Deliverystatus": "Delivery",
    "divisionname": "Dehradun",
    "regionname": "Dehradun",
    "circlename": "Uttarakhand",
    "Taluk": "Chakrata",
    "Districtname": "Dehradun",
    "statename": "UTTARAKHAND"
  },
  {
    "pincode": "248197",
    "officename": "Chharba B.O",
    "officeType": "B.O",
    "Deliverystatus": "Delivery",
    "divisionname": "Dehradun",
    "regionname": "Dehradun",
    "circlename": "Uttarakhand",
    "Taluk": "Vikasnagar",
    "Districtname": "Dehradun",
    "statename": "UTTARAKHAND"
  },
  {
    "pincode": "248197",
    "officename": "Dobhri B.O",
    "officeType": "B.O",
    "Deliverystatus": "Delivery",
    "divisionname": "Dehradun",
    "regionname": "Dehradun",
    "circlename": "Uttarakhand",
    "Taluk": "Vikasnagar",
    "Districtname": "Dehradun",
    "statename": "UTTARAKHAND"
  },
  {
    "pincode": "248197",
    "officename": "Horrawala B.O",
    "officeType": "B.O",
    "Deliverystatus": "Delivery",
    "divisionname": "Dehradun",
    "regionname": "Dehradun",
    "circlename": "Uttarakhand",
    "Taluk": "Vikasnagar",
    "Districtname": "Dehradun",
    "statename": "UTTARAKHAND"
  },
  {
    "pincode": "248197",
    "officename": "Kainchiwala B.O",
    "officeType": "B.O",
    "Deliverystatus": "Delivery",
    "divisionname": "Dehradun",
    "regionname": "Dehradun",
    "circlename": "Uttarakhand",
    "Taluk": "Vikasnagar",
    "Districtname": "Dehradun",
    "statename": "UTTARAKHAND"
  },
  {
    "pincode": "248197",
    "officename": "Kedarwala B.O",
    "officeType": "B.O",
    "Deliverystatus": "Delivery",
    "divisionname": "Dehradun",
    "regionname": "Dehradun",
    "circlename": "Uttarakhand",
    "Taluk": "Vikasnagar",
    "Districtname": "Dehradun",
    "statename": "UTTARAKHAND"
  },
  {
    "pincode": "248197",
    "officename": "Koti B.O",
    "officeType": "B.O",
    "Deliverystatus": "Delivery",
    "divisionname": "Dehradun",
    "regionname": "Dehradun",
    "circlename": "Uttarakhand",
    "Taluk": "",
    "Districtname": "Dehradun",
    "statename": "UTTARAKHAND"
  },
  {
    "pincode": "248197",
    "officename": "Rampur B.O",
    "officeType": "B.O",
    "Deliverystatus": "Delivery",
    "divisionname": "Dehradun",
    "regionname": "Dehradun",
    "circlename": "Uttarakhand",
    "Taluk": "Vikasnagar **",
    "Districtname": "Dehradun",
    "statename": "UTTARAKHAND"
  },
  {
    "pincode": "248197",
    "officename": "Rudrapur B.O",
    "officeType": "B.O",
    "Deliverystatus": "Delivery",
    "divisionname": "Dehradun",
    "regionname": "Dehradun",
    "circlename": "Uttarakhand",
    "Taluk": "Vikasnagar **",
    "Districtname": "Dehradun",
    "statename": "UTTARAKHAND"
  },
  {
    "pincode": "248197",
    "officename": "Sabhawala B.O",
    "officeType": "B.O",
    "Deliverystatus": "Delivery",
    "divisionname": "Dehradun",
    "regionname": "Dehradun",
    "circlename": "Uttarakhand",
    "Taluk": "Vikasnagar",
    "Districtname": "Dehradun",
    "statename": "UTTARAKHAND"
  },
  {
    "pincode": "248197",
    "officename": "Sahaspur S.O (Dehradun)",
    "officeType": "S.O",
    "Deliverystatus": "Delivery",
    "divisionname": "Dehradun",
    "regionname": "Dehradun",
    "circlename": "Uttarakhand",
    "Taluk": "Viakasnagar",
    "Districtname": "Dehradun",
    "statename": "UTTARAKHAND"
  },
  {
    "pincode": "248197",
    "officename": "Sherpur B.O",
    "officeType": "B.O",
    "Deliverystatus": "Delivery",
    "divisionname": "Dehradun",
    "regionname": "Dehradun",
    "circlename": "Uttarakhand",
    "Taluk": "Vikasnagar",
    "Districtname": "Dehradun",
    "statename": "UTTARAKHAND"
  },
  {
    "pincode": "248197",
    "officename": "Tilwari B.O",
    "officeType": "B.O",
    "Deliverystatus": "Delivery",
    "divisionname": "Dehradun",
    "regionname": "Dehradun",
    "circlename": "Uttarakhand",
    "Taluk": "Vikasnagar",
    "Districtname": "Dehradun",
    "statename": "UTTARAKHAND"
  }
]
