[
  {
    "pincode": "248196",
    "officename": "Baila B.O",
    "officeType": "B.O",
    "Deliverystatus": "Delivery",
    "divisionname": "Dehradun",
    "regionname": "Dehradun",
    "circlename": "Uttarakhand",
    "Taluk": "Chakrata",
    "Districtname": "Dehradun",
    "statename": "UTTARAKHAND"
  },
  {
    "pincode": "248196",
    "officename": "Birmau B.O",
    "officeType": "B.O",
    "Deliverystatus": "Delivery",
    "divisionname": "Dehradun",
    "regionname": "Dehradun",
    "circlename": "Uttarakhand",
    "Taluk": "Chakrata",
    "Districtname": "Dehradun",
    "statename": "UTTARAKHAND"
  },
  {
    "pincode": "248196",
    "officename": "Bullard B.O",
    "officeType": "B.O",
    "Deliverystatus": "Delivery",
    "divisionname": "Dehradun",
    "regionname": "Dehradun",
    "circlename": "Uttarakhand",
    "Taluk": "Chakrata",
    "Districtname": "Dehradun",
    "statename": "UTTARAKHAND"
  },
  {
    "pincode": "248196",
    "officename": "Dassau B.O",
    "officeType": "B.O",
    "Deliverystatus": "Delivery",
    "divisionname": "Dehradun",
    "regionname": "Dehradun",
    "circlename": "Uttarakhand",
    "Taluk": "Chakrata",
    "Districtname": "Dehradun",
    "statename": "UTTARAKHAND"
  },
  {
    "pincode": "248196",
    "officename": "Datnu B.O",
    "officeType": "B.O",
    "Deliverystatus": "Delivery",
    "divisionname": "Dehradun",
    "regionname": "Dehradun",
    "circlename": "Uttarakhand",
    "Taluk": "Chakrata",
    "Districtname": "Dehradun",
    "statename": "UTTARAKHAND"
  },
  {
    "pincode": "248196",
    "officename": "Haza B.O",
    "officeType": "B.O",
    "Deliverystatus": "Delivery",
    "divisionname": "Dehradun",
    "regionname": "Dehradun",
    "circlename": "Uttarakhand",
    "Taluk": "Chakrata",
    "Districtname": "Dehradun",
    "statename": "UTTARAKHAND"
  },
  {
    "pincode": "248196",
    "officename": "Khamrauli B.O",
    "officeType": "B.O",
    "Deliverystatus": "Delivery",
    "divisionname": "Dehradun",
    "regionname": "Dehradun",
    "circlename": "Uttarakhand",
    "Taluk": "Chakrata",
    "Districtname": "Dehradun",
    "statename": "UTTARAKHAND"
  },
  {
    "pincode": "248196",
    "officename": "Korwa B.O",
    "officeType": "B.O",
    "Deliverystatus": "Delivery",
    "divisionname": "Dehradun",
    "regionname": "Dehradun",
    "circlename": "Uttarakhand",
    "Taluk": "Chakrata",
    "Districtname": "Dehradun",
    "statename": "UTTARAKHAND"
  },
  {
    "pincode": "248196",
    "officename": "Kothi B.O",
    "officeType": "B.O",
    "Deliverystatus": "Delivery",
    "divisionname": "Dehradun",
    "regionname": "Dehradun",
    "circlename": "Uttarakhand",
    "Taluk": "Chakrata",
    "Districtname": "Dehradun",
    "statename": "UTTARAKHAND"
  },
  {
    "pincode": "248196",
    "officename": "Kuwanoo B.O",
    "officeType": "B.O",
    "Deliverystatus": "Delivery",
    "divisionname": "Dehradun",
    "regionname": "Dehradun",
    "circlename": "Uttarakhand",
    "Taluk": "Chakrata",
    "Districtname": "Dehradun",
    "statename": "UTTARAKHAND"
  },
  {
    "pincode": "248196",
    "officename": "Maletha B.O",
    "officeType": "B.O",
    "Deliverystatus": "Delivery",
    "divisionname": "Dehradun",
    "regionname": "Dehradun",
    "circlename": "Uttarakhand",
    "Taluk": "Cahrata",
    "Districtname": "Dehradun",
    "statename": "UTTARAKHAND"
  },
  {
    "pincode": "248196",
    "officename": "Naraya B.O",
    "officeType": "B.O",
    "Deliverystatus": "Delivery",
    "divisionname": "Dehradun",
    "regionname": "Dehradun",
    "circlename": "Uttarakhand",
    "Taluk": "Chakrata",
    "Districtname": "Dehradun",
    "statename": "UTTARAKHAND"
  },
  {
    "pincode": "248196",
    "officename": "Sahiya S.O",
    "officeType": "S.O",
    "Deliverystatus": "Delivery",
    "divisionname": "Dehradun",
    "regionname": "Dehradun",
    "circlename": "Uttarakhand",
    "Taluk": "Dehradun",
    "Districtname": "Dehradun",
    "statename": "UTTARAKHAND"
  },
  {
    "pincode": "248196",
    "officename": "Samalta B.O",
    "officeType": "B.O",
    "Deliverystatus": "Delivery",
    "divisionname": "Dehradun",
    "regionname": "Dehradun",
    "circlename": "Uttarakhand",
    "Taluk": "Chakrata",
    "Districtname": "Dehradun",
    "statename": "UTTARAKHAND"
  }
]
