[
  {
    "pincode": "249001",
    "officename": "Gyansoo B.O",
    "officeType": "B.O",
    "Deliverystatus": "Delivery",
    "divisionname": "Tehri",
    "regionname": "Dehradun",
    "circlename": "Uttarakhand",
    "Taluk": "Tehri",
    "Districtname": "Tehri Garhwal",
    "statename": "UTTARAKHAND"
  },
  {
    "pincode": "249001",
    "officename": "Kuttha B.O",
    "officeType": "B.O",
    "Deliverystatus": "Delivery",
    "divisionname": "Tehri",
    "regionname": "Dehradun",
    "circlename": "Uttarakhand",
    "Taluk": "Tehri",
    "Districtname": "Tehri Garhwal",
    "statename": "UTTARAKHAND"
  },
  {
    "pincode": "249001",
    "officename": "Nelda B.O",
    "officeType": "B.O",
    "Deliverystatus": "Delivery",
    "divisionname": "Tehri",
    "regionname": "Dehradun",
    "circlename": "Uttarakhand",
    "Taluk": "Partapnagar",
    "Districtname": "Tehri Garhwal",
    "statename": "UTTARAKHAND"
  },
  {
    "pincode": "249001",
    "officename": "New Tehri Collectrate S.O",
    "officeType": "S.O",
    "Deliverystatus": "Non-Delivery",
    "divisionname": "Tehri",
    "regionname": "Dehradun",
    "circlename": "Uttarakhand",
    "Taluk": "Tehri",
    "Districtname": "Tehri Garhwal",
    "statename": "UTTARAKHAND"
  },
  {
    "pincode": "249001",
    "officename": "Pangerkhal B.O",
    "officeType": "B.O",
    "Deliverystatus": "Delivery",
    "divisionname": "Tehri",
    "regionname": "Dehradun",
    "circlename": "Uttarakhand",
    "Taluk": "Tehri",
    "Districtname": "Tehri Garhwal",
    "statename": "UTTARAKHAND"
  },
  {
    "pincode": "249001",
    "officename": "Rajakhet B.O",
    "officeType": "B.O",
    "Deliverystatus": "Delivery",
    "divisionname": "Tehri",
    "regionname": "Dehradun",
    "circlename": "Uttarakhand",
    "Taluk": "Partapnagar",
    "Districtname": "Tehri Garhwal",
    "statename": "UTTARAKHAND"
  },
  {
    "pincode": "249001",
    "officename": "Teehri Kutchery S.O",
    "officeType": "S.O",
    "Deliverystatus": "Non-Delivery",
    "divisionname": "Tehri",
    "regionname": "Dehradun",
    "circlename": "Uttarakhand",
    "Taluk": "Tehri",
    "Districtname": "Tehri Garhwal",
    "statename": "UTTARAKHAND"
  },
  {
    "pincode": "249001",
    "officename": "Tehri H.O",
    "officeType": "H.O",
    "Deliverystatus": "Delivery",
    "divisionname": "Tehri",
    "regionname": "Dehradun",
    "circlename": "Uttarakhand",
    "Taluk": "Tehri",
    "Districtname": "Tehri Garhwal",
    "statename": "UTTARAKHAND"
  }
]
