[
  {
    "pincode": "249155",
    "officename": "Akhori B.O",
    "officeType": "B.O",
    "Deliverystatus": "Delivery",
    "divisionname": "Tehri",
    "regionname": "Dehradun",
    "circlename": "Uttarakhand",
    "Taluk": "Ghansali",
    "Districtname": "Tehri Garhwal",
    "statename": "UTTARAKHAND"
  },
  {
    "pincode": "249155",
    "officename": "Bajiyalgaon B.O",
    "officeType": "B.O",
    "Deliverystatus": "Delivery",
    "divisionname": "Tehri",
    "regionname": "Dehradun",
    "circlename": "Uttarakhand",
    "Taluk": "Ghansali",
    "Districtname": "Tehri Garhwal",
    "statename": "UTTARAKHAND"
  },
  {
    "pincode": "249155",
    "officename": "Beena B.O",
    "officeType": "B.O",
    "Deliverystatus": "Delivery",
    "divisionname": "Tehri",
    "regionname": "Dehradun",
    "circlename": "Uttarakhand",
    "Taluk": "Ghansali",
    "Districtname": "Tehri Garhwal",
    "statename": "UTTARAKHAND"
  },
  {
    "pincode": "249155",
    "officename": "Bhatgaon B.O",
    "officeType": "B.O",
    "Deliverystatus": "Delivery",
    "divisionname": "Tehri",
    "regionname": "Dehradun",
    "circlename": "Uttarakhand",
    "Taluk": "Ghansali",
    "Districtname": "Tehri Garhwal",
    "statename": "UTTARAKHAND"
  },
  {
    "pincode": "249155",
    "officename": "Bhatwara B.O",
    "officeType": "B.O",
    "Deliverystatus": "Delivery",
    "divisionname": "Tehri",
    "regionname": "Dehradun",
    "circlename": "Uttarakhand",
    "Taluk": "Ghansali",
    "Districtname": "Tehri Garhwal",
    "statename": "UTTARAKHAND"
  },
  {
    "pincode": "249155",
    "officename": "Chanji B.O",
    "officeType": "B.O",
    "Deliverystatus": "Delivery",
    "divisionname": "Tehri",
    "regionname": "Dehradun",
    "circlename": "Uttarakhand",
    "Taluk": "Ghansali",
    "Districtname": "Tehri Garhwal",
    "statename": "UTTARAKHAND"
  },
  {
    "pincode": "249155",
    "officename": "Dangi B.O",
    "officeType": "B.O",
    "Deliverystatus": "Delivery",
    "divisionname": "Tehri",
    "regionname": "Dehradun",
    "circlename": "Uttarakhand",
    "Taluk": "Ghansali",
    "Districtname": "Tehri Garhwal",
    "statename": "UTTARAKHAND"
  },
  {
    "pincode": "249155",
    "officename": "Dewath B.O",
    "officeType": "B.O",
    "Deliverystatus": "Delivery",
    "divisionname": "Tehri",
    "regionname": "Dehradun",
    "circlename": "Uttarakhand",
    "Taluk": "Ghansali",
    "Districtname": "Tehri Garhwal",
    "statename": "UTTARAKHAND"
  },
  {
    "pincode": "249155",
    "officename": "Dhopardhar B.O",
    "officeType": "B.O",
    "Deliverystatus": "Delivery",
    "divisionname": "Tehri",
    "regionname": "Dehradun",
    "circlename": "Uttarakhand",
    "Taluk": "Ghansali",
    "Districtname": "Tehri Garhwal",
    "statename": "UTTARAKHAND"
  },
  {
    "pincode": "249155",
    "officename": "Dhounikhal B.O",
    "officeType": "B.O",
    "Deliverystatus": "Delivery",
    "divisionname": "Tehri",
    "regionname": "Dehradun",
    "circlename": "Uttarakhand",
    "Taluk": "Ghansali",
    "Districtname": "Tehri Garhwal",
    "statename": "UTTARAKHAND"
  },
  {
    "pincode": "249155",
    "officename": "Falenda B.O",
    "officeType": "B.O",
    "Deliverystatus": "Delivery",
    "divisionname": "Tehri",
    "regionname": "Dehradun",
    "circlename": "Uttarakhand",
    "Taluk": "Ghansali",
    "Districtname": "Tehri Garhwal",
    "statename": "UTTARAKHAND"
  },
  {
    "pincode": "249155",
    "officename": "Ghansali S.O",
    "officeType": "S.O",
    "Deliverystatus": "Delivery",
    "divisionname": "Tehri",
    "regionname": "Dehradun",
    "circlename": "Uttarakhand",
    "Taluk": "Ghansali",
    "Districtname": "Tehri Garhwal",
    "statename": "UTTARAKHAND"
  },
  {
    "pincode": "249155",
    "officename": "Ghuttu B.O",
    "officeType": "B.O",
    "Deliverystatus": "Delivery",
    "divisionname": "Tehri",
    "regionname": "Dehradun",
    "circlename": "Uttarakhand",
    "Taluk": "Ghansali",
    "Districtname": "Tehri Garhwal",
    "statename": "UTTARAKHAND"
  },
  {
    "pincode": "249155",
    "officename": "Hadiyanakholi B.O",
    "officeType": "B.O",
    "Deliverystatus": "Delivery",
    "divisionname": "Tehri",
    "regionname": "Dehradun",
    "circlename": "Uttarakhand",
    "Taluk": "Ghansali",
    "Districtname": "Tehri Garhwal",
    "statename": "UTTARAKHAND"
  },
  {
    "pincode": "249155",
    "officename": "Jakhniyali B.O",
    "officeType": "B.O",
    "Deliverystatus": "Delivery",
    "divisionname": "Tehri",
    "regionname": "Dehradun",
    "circlename": "Uttarakhand",
    "Taluk": "Ghansali",
    "Districtname": "Tehri Garhwal",
    "statename": "UTTARAKHAND"
  },
  {
    "pincode": "249155",
    "officename": "Kathoor B.O",
    "officeType": "B.O",
    "Deliverystatus": "Delivery",
    "divisionname": "Tehri",
    "regionname": "Dehradun",
    "circlename": "Uttarakhand",
    "Taluk": "Ghansali",
    "Districtname": "Tehri Garhwal",
    "statename": "UTTARAKHAND"
  },
  {
    "pincode": "249155",
    "officename": "Maighadhar B.O",
    "officeType": "B.O",
    "Deliverystatus": "Delivery",
    "divisionname": "Tehri",
    "regionname": "Dehradun",
    "circlename": "Uttarakhand",
    "Taluk": "Ghansali",
    "Districtname": "Tehri Garhwal",
    "statename": "UTTARAKHAND"
  },
  {
    "pincode": "249155",
    "officename": "Malgaon B.O",
    "officeType": "B.O",
    "Deliverystatus": "Delivery",
    "divisionname": "Tehri",
    "regionname": "Dehradun",
    "circlename": "Uttarakhand",
    "Taluk": "Ghansali",
    "Districtname": "Tehri Garhwal",
    "statename": "UTTARAKHAND"
  },
  {
    "pincode": "249155",
    "officename": "Malyakot B.O",
    "officeType": "B.O",
    "Deliverystatus": "Delivery",
    "divisionname": "Tehri",
    "regionname": "Dehradun",
    "circlename": "Uttarakhand",
    "Taluk": "Ghansali",
    "Districtname": "Tehri Garhwal",
    "statename": "UTTARAKHAND"
  },
  {
    "pincode": "249155",
    "officename": "Muyalgaon B.O",
    "officeType": "B.O",
    "Deliverystatus": "Delivery",
    "divisionname": "Tehri",
    "regionname": "Dehradun",
    "circlename": "Uttarakhand",
    "Taluk": "Ghansali",
    "Districtname": "Tehri Garhwal",
    "statename": "UTTARAKHAND"
  },
  {
    "pincode": "249155",
    "officename": "Odadhar B.O",
    "officeType": "B.O",
    "Deliverystatus": "Delivery",
    "divisionname": "Tehri",
    "regionname": "Dehradun",
    "circlename": "Uttarakhand",
    "Taluk": "Ghansali",
    "Districtname": "Tehri Garhwal",
    "statename": "UTTARAKHAND"
  },
  {
    "pincode": "249155",
    "officename": "Pangriyana B.O",
    "officeType": "B.O",
    "Deliverystatus": "Delivery",
    "divisionname": "Tehri",
    "regionname": "Dehradun",
    "circlename": "Uttarakhand",
    "Taluk": "Ghansali",
    "Districtname": "Tehri Garhwal",
    "statename": "UTTARAKHAND"
  },
  {
    "pincode": "249155",
    "officename": "Pokhar B.O",
    "officeType": "B.O",
    "Deliverystatus": "Delivery",
    "divisionname": "Tehri",
    "regionname": "Dehradun",
    "circlename": "Uttarakhand",
    "Taluk": "Ghansali",
    "Districtname": "Tehri Garhwal",
    "statename": "UTTARAKHAND"
  },
  {
    "pincode": "249155",
    "officename": "Purwalgaon B.O",
    "officeType": "B.O",
    "Deliverystatus": "Delivery",
    "divisionname": "Tehri",
    "regionname": "Dehradun",
    "circlename": "Uttarakhand",
    "Taluk": "Ghansali",
    "Districtname": "Tehri Garhwal",
    "statename": "UTTARAKHAND"
  },
  {
    "pincode": "249155",
    "officename": "Samangaon B.O",
    "officeType": "B.O",
    "Deliverystatus": "Delivery",
    "divisionname": "Tehri",
    "regionname": "Dehradun",
    "circlename": "Uttarakhand",
    "Taluk": "Ghansali",
    "Districtname": "Tehri Garhwal",
    "statename": "UTTARAKHAND"
  },
  {
    "pincode": "249155",
    "officename": "Sankri B.O",
    "officeType": "B.O",
    "Deliverystatus": "Delivery",
    "divisionname": "Tehri",
    "regionname": "Dehradun",
    "circlename": "Uttarakhand",
    "Taluk": "Ghansali **",
    "Districtname": "Tehri Garhwal",
    "statename": "UTTARAKHAND"
  },
  {
    "pincode": "249155",
    "officename": "Siliyara B.O",
    "officeType": "B.O",
    "Deliverystatus": "Delivery",
    "divisionname": "Tehri",
    "regionname": "Dehradun",
    "circlename": "Uttarakhand",
    "Taluk": "Ghansali",
    "Districtname": "Tehri Garhwal",
    "statename": "UTTARAKHAND"
  },
  {
    "pincode": "249155",
    "officename": "Thati B.O",
    "officeType": "B.O",
    "Deliverystatus": "Delivery",
    "divisionname": "Tehri",
    "regionname": "Dehradun",
    "circlename": "Uttarakhand",
    "Taluk": "Ghansali",
    "Districtname": "Tehri Garhwal",
    "statename": "UTTARAKHAND"
  }
]
