[
  {
    "pincode": "249152",
    "officename": "Banchaura B.O",
    "officeType": "B.O",
    "Deliverystatus": "Delivery",
    "divisionname": "Tehri",
    "regionname": "Dehradun",
    "circlename": "Uttarakhand",
    "Taluk": "Dunda",
    "Districtname": "Uttarkashi",
    "statename": "UTTARAKHAND"
  },
  {
    "pincode": "249152",
    "officename": "Bangaon B.O",
    "officeType": "B.O",
    "Deliverystatus": "Delivery",
    "divisionname": "Tehri",
    "regionname": "Dehradun",
    "circlename": "Uttarakhand",
    "Taluk": "Dunda",
    "Districtname": "Uttarkashi",
    "statename": "UTTARAKHAND"
  },
  {
    "pincode": "249152",
    "officename": "Diwarikhol B.O",
    "officeType": "B.O",
    "Deliverystatus": "Delivery",
    "divisionname": "Tehri",
    "regionname": "Dehradun",
    "circlename": "Uttarakhand",
    "Taluk": "Dunda",
    "Districtname": "Uttarkashi",
    "statename": "UTTARAKHAND"
  },
  {
    "pincode": "249152",
    "officename": "Gadoli B.O",
    "officeType": "B.O",
    "Deliverystatus": "Delivery",
    "divisionname": "Tehri",
    "regionname": "Dehradun",
    "circlename": "Uttarakhand",
    "Taluk": "Dunda",
    "Districtname": "Uttarkashi",
    "statename": "UTTARAKHAND"
  },
  {
    "pincode": "249152",
    "officename": "Geonla S.O",
    "officeType": "S.O",
    "Deliverystatus": "Delivery",
    "divisionname": "Tehri",
    "regionname": "Dehradun",
    "circlename": "Uttarakhand",
    "Taluk": "Dunda",
    "Districtname": "Uttarkashi",
    "statename": "UTTARAKHAND"
  },
  {
    "pincode": "249152",
    "officename": "Junga B.O",
    "officeType": "B.O",
    "Deliverystatus": "Delivery",
    "divisionname": "Tehri",
    "regionname": "Dehradun",
    "circlename": "Uttarakhand",
    "Taluk": "Dunda",
    "Districtname": "Uttarkashi",
    "statename": "UTTARAKHAND"
  },
  {
    "pincode": "249152",
    "officename": "Kalyani B.O",
    "officeType": "B.O",
    "Deliverystatus": "Delivery",
    "divisionname": "Tehri",
    "regionname": "Dehradun",
    "circlename": "Uttarakhand",
    "Taluk": "Dunda",
    "Districtname": "Uttarkashi",
    "statename": "UTTARAKHAND"
  },
  {
    "pincode": "249152",
    "officename": "Khurmola B.O",
    "officeType": "B.O",
    "Deliverystatus": "Delivery",
    "divisionname": "Tehri",
    "regionname": "Dehradun",
    "circlename": "Uttarakhand",
    "Taluk": "Dunda",
    "Districtname": "Uttarkashi",
    "statename": "UTTARAKHAND"
  },
  {
    "pincode": "249152",
    "officename": "Kotdhar B.O",
    "officeType": "B.O",
    "Deliverystatus": "Delivery",
    "divisionname": "Tehri",
    "regionname": "Dehradun",
    "circlename": "Uttarakhand",
    "Taluk": "Dunda",
    "Districtname": "Uttarkashi",
    "statename": "UTTARAKHAND"
  },
  {
    "pincode": "249152",
    "officename": "Manjgaon B.O",
    "officeType": "B.O",
    "Deliverystatus": "Delivery",
    "divisionname": "Tehri",
    "regionname": "Dehradun",
    "circlename": "Uttarakhand",
    "Taluk": "Dunda",
    "Districtname": "Uttarkashi",
    "statename": "UTTARAKHAND"
  },
  {
    "pincode": "249152",
    "officename": "Naggaon B.O",
    "officeType": "B.O",
    "Deliverystatus": "Delivery",
    "divisionname": "Tehri",
    "regionname": "Dehradun",
    "circlename": "Uttarakhand",
    "Taluk": "Dunda",
    "Districtname": "Uttarkashi",
    "statename": "UTTARAKHAND"
  },
  {
    "pincode": "249152",
    "officename": "Patara B.O",
    "officeType": "B.O",
    "Deliverystatus": "Delivery",
    "divisionname": "Tehri",
    "regionname": "Dehradun",
    "circlename": "Uttarakhand",
    "Taluk": "Dunda",
    "Districtname": "Uttarkashi",
    "statename": "UTTARAKHAND"
  },
  {
    "pincode": "249152",
    "officename": "Srikot B.O",
    "officeType": "B.O",
    "Deliverystatus": "Delivery",
    "divisionname": "Tehri",
    "regionname": "Dehradun",
    "circlename": "Uttarakhand",
    "Taluk": "Dunda",
    "Districtname": "Uttarkashi",
    "statename": "UTTARAKHAND"
  },
  {
    "pincode": "249152",
    "officename": "Tarakot B.O",
    "officeType": "B.O",
    "Deliverystatus": "Delivery",
    "divisionname": "Tehri",
    "regionname": "Dehradun",
    "circlename": "Uttarakhand",
    "Taluk": "Dunda",
    "Districtname": "Uttarkashi",
    "statename": "UTTARAKHAND"
  }
]
