[
  {
    "pincode": "249125",
    "officename": "Bhigun B.O",
    "officeType": "B.O",
    "Deliverystatus": "Delivery",
    "divisionname": "Tehri",
    "regionname": "Dehradun",
    "circlename": "Uttarakhand",
    "Taluk": "Ghansali",
    "Districtname": "Tehri Garhwal",
    "statename": "UTTARAKHAND"
  },
  {
    "pincode": "249125",
    "officename": "Binaykhal B.O",
    "officeType": "B.O",
    "Deliverystatus": "Delivery",
    "divisionname": "Tehri",
    "regionname": "Dehradun",
    "circlename": "Uttarakhand",
    "Taluk": "Ghanslai",
    "Districtname": "Tehri Garhwal",
    "statename": "UTTARAKHAND"
  },
  {
    "pincode": "249125",
    "officename": "Chamiyala S.O",
    "officeType": "S.O",
    "Deliverystatus": "Delivery",
    "divisionname": "Tehri",
    "regionname": "Dehradun",
    "circlename": "Uttarakhand",
    "Taluk": "Ghansali",
    "Districtname": "Tehri Garhwal",
    "statename": "UTTARAKHAND"
  },
  {
    "pincode": "249125",
    "officename": "Gona B.O",
    "officeType": "B.O",
    "Deliverystatus": "Delivery",
    "divisionname": "Tehri",
    "regionname": "Dehradun",
    "circlename": "Uttarakhand",
    "Taluk": "Ghansali",
    "Districtname": "Tehri Garhwal",
    "statename": "UTTARAKHAND"
  },
  {
    "pincode": "249125",
    "officename": "Kafolgaon B.O",
    "officeType": "B.O",
    "Deliverystatus": "Delivery",
    "divisionname": "Tehri",
    "regionname": "Dehradun",
    "circlename": "Uttarakhand",
    "Taluk": "Ghansali",
    "Districtname": "Tehri Garhwal",
    "statename": "UTTARAKHAND"
  },
  {
    "pincode": "249125",
    "officename": "Kandarsyun B.O",
    "officeType": "B.O",
    "Deliverystatus": "Delivery",
    "divisionname": "Tehri",
    "regionname": "Dehradun",
    "circlename": "Uttarakhand",
    "Taluk": "Ghansali",
    "Districtname": "Tehri Garhwal",
    "statename": "UTTARAKHAND"
  },
  {
    "pincode": "249125",
    "officename": "Kepars B.O",
    "officeType": "B.O",
    "Deliverystatus": "Delivery",
    "divisionname": "Tehri",
    "regionname": "Dehradun",
    "circlename": "Uttarakhand",
    "Taluk": "Ghansali",
    "Districtname": "Tehri Garhwal",
    "statename": "UTTARAKHAND"
  },
  {
    "pincode": "249125",
    "officename": "Khawara B.O",
    "officeType": "B.O",
    "Deliverystatus": "Delivery",
    "divisionname": "Tehri",
    "regionname": "Dehradun",
    "circlename": "Uttarakhand",
    "Taluk": "Ghansali",
    "Districtname": "Tehri Garhwal",
    "statename": "UTTARAKHAND"
  },
  {
    "pincode": "249125",
    "officename": "Kireth B.O",
    "officeType": "B.O",
    "Deliverystatus": "Delivery",
    "divisionname": "Tehri",
    "regionname": "Dehradun",
    "circlename": "Uttarakhand",
    "Taluk": "Ghansali",
    "Districtname": "Tehri Garhwal",
    "statename": "UTTARAKHAND"
  },
  {
    "pincode": "249125",
    "officename": "Kothiyara B.O",
    "officeType": "B.O",
    "Deliverystatus": "Delivery",
    "divisionname": "Tehri",
    "regionname": "Dehradun",
    "circlename": "Uttarakhand",
    "Taluk": "Ghansali",
    "Districtname": "Tehri Garhwal",
    "statename": "UTTARAKHAND"
  },
  {
    "pincode": "249125",
    "officename": "Maid B.O",
    "officeType": "B.O",
    "Deliverystatus": "Delivery",
    "divisionname": "Tehri",
    "regionname": "Dehradun",
    "circlename": "Uttarakhand",
    "Taluk": "Ghansali",
    "Districtname": "Tehri Garhwal",
    "statename": "UTTARAKHAND"
  },
  {
    "pincode": "249125",
    "officename": "Sounp B.O",
    "officeType": "B.O",
    "Deliverystatus": "Delivery",
    "divisionname": "Tehri",
    "regionname": "Dehradun",
    "circlename": "Uttarakhand",
    "Taluk": "Ghansali",
    "Districtname": "Tehri Garhwal",
    "statename": "UTTARAKHAND"
  },
  {
    "pincode": "249125",
    "officename": "Sunargaon B.O",
    "officeType": "B.O",
    "Deliverystatus": "Delivery",
    "divisionname": "Tehri",
    "regionname": "Dehradun",
    "circlename": "Uttarakhand",
    "Taluk": "Ghansali",
    "Districtname": "Tehri Garhwal",
    "statename": "UTTARAKHAND"
  },
  {
    "pincode": "249125",
    "officename": "Tisriyara B.O",
    "officeType": "B.O",
    "Deliverystatus": "Delivery",
    "divisionname": "Tehri",
    "regionname": "Dehradun",
    "circlename": "Uttarakhand",
    "Taluk": "Ghansali",
    "Districtname": "Tehri Garhwal",
    "statename": "UTTARAKHAND"
  }
]
