[
  {
    "pincode": "249122",
    "officename": "Amni B.O",
    "officeType": "B.O",
    "Deliverystatus": "Delivery",
    "divisionname": "Tehri",
    "regionname": "Dehradun",
    "circlename": "Uttarakhand",
    "Taluk": "Deoprayag",
    "Districtname": "Tehri Garhwal",
    "statename": "UTTARAKHAND"
  },
  {
    "pincode": "249122",
    "officename": "Bhainskot B.O",
    "officeType": "B.O",
    "Deliverystatus": "Delivery",
    "divisionname": "Tehri",
    "regionname": "Dehradun",
    "circlename": "Uttarakhand",
    "Taluk": "Devprayag",
    "Districtname": "Tehri Garhwal",
    "statename": "UTTARAKHAND"
  },
  {
    "pincode": "249122",
    "officename": "Darogi B.O",
    "officeType": "B.O",
    "Deliverystatus": "Delivery",
    "divisionname": "Tehri",
    "regionname": "Dehradun",
    "circlename": "Uttarakhand",
    "Taluk": "",
    "Districtname": "Tehri Garhwal",
    "statename": "UTTARAKHAND"
  },
  {
    "pincode": "249122",
    "officename": "Hindolakhal S.O",
    "officeType": "S.O",
    "Deliverystatus": "Delivery",
    "divisionname": "Tehri",
    "regionname": "Dehradun",
    "circlename": "Uttarakhand",
    "Taluk": "Deoprayag",
    "Districtname": "Tehri Garhwal",
    "statename": "UTTARAKHAND"
  },
  {
    "pincode": "249122",
    "officename": "Jamnikhal B.O",
    "officeType": "B.O",
    "Deliverystatus": "Delivery",
    "divisionname": "Tehri",
    "regionname": "Dehradun",
    "circlename": "Uttarakhand",
    "Taluk": "",
    "Districtname": "Tehri Garhwal",
    "statename": "UTTARAKHAND"
  },
  {
    "pincode": "249122",
    "officename": "Kundri B.O",
    "officeType": "B.O",
    "Deliverystatus": "Delivery",
    "divisionname": "Tehri",
    "regionname": "Dehradun",
    "circlename": "Uttarakhand",
    "Taluk": "Devprayag",
    "Districtname": "Tehri Garhwal",
    "statename": "UTTARAKHAND"
  },
  {
    "pincode": "249122",
    "officename": "Laloorikhal B.O",
    "officeType": "B.O",
    "Deliverystatus": "Delivery",
    "divisionname": "Tehri",
    "regionname": "Dehradun",
    "circlename": "Uttarakhand",
    "Taluk": "Deoprayag",
    "Districtname": "Tehri Garhwal",
    "statename": "UTTARAKHAND"
  },
  {
    "pincode": "249122",
    "officename": "Mahad B.O",
    "officeType": "B.O",
    "Deliverystatus": "Delivery",
    "divisionname": "Tehri",
    "regionname": "Dehradun",
    "circlename": "Uttarakhand",
    "Taluk": "Deoprayag",
    "Districtname": "Tehri Garhwal",
    "statename": "UTTARAKHAND"
  },
  {
    "pincode": "249122",
    "officename": "Palethi B.O",
    "officeType": "B.O",
    "Deliverystatus": "Delivery",
    "divisionname": "Tehri",
    "regionname": "Dehradun",
    "circlename": "Uttarakhand",
    "Taluk": "Deoprayag",
    "Districtname": "Tehri Garhwal",
    "statename": "UTTARAKHAND"
  },
  {
    "pincode": "249122",
    "officename": "Pujargaon B.O",
    "officeType": "B.O",
    "Deliverystatus": "Delivery",
    "divisionname": "Tehri",
    "regionname": "Dehradun",
    "circlename": "Uttarakhand",
    "Taluk": "Devprayag",
    "Districtname": "Tehri Garhwal",
    "statename": "UTTARAKHAND"
  },
  {
    "pincode": "249122",
    "officename": "Sinwalidhar B.O",
    "officeType": "B.O",
    "Deliverystatus": "Delivery",
    "divisionname": "Tehri",
    "regionname": "Dehradun",
    "circlename": "Uttarakhand",
    "Taluk": "Devprayag",
    "Districtname": "Tehri Garhwal",
    "statename": "UTTARAKHAND"
  },
  {
    "pincode": "249122",
    "officename": "Tyuna B.O",
    "officeType": "B.O",
    "Deliverystatus": "Delivery",
    "divisionname": "Tehri",
    "regionname": "Dehradun",
    "circlename": "Uttarakhand",
    "Taluk": "Devprayag",
    "Districtname": "Tehri Garhwal",
    "statename": "UTTARAKHAND"
  }
]
