[
  {
    "pincode": "249171",
    "officename": "Bagasu B.O",
    "officeType": "B.O",
    "Deliverystatus": "Delivery",
    "divisionname": "Tehri",
    "regionname": "Dehradun",
    "circlename": "Uttarakhand",
    "Taluk": "Burkot",
    "Districtname": "Uttarkashi",
    "statename": "UTTARAKHAND"
  },
  {
    "pincode": "249171",
    "officename": "Bhankoli-ranwain B.O",
    "officeType": "B.O",
    "Deliverystatus": "Delivery",
    "divisionname": "Tehri",
    "regionname": "Dehradun",
    "circlename": "Uttarakhand",
    "Taluk": "Purola",
    "Districtname": "Uttarkashi",
    "statename": "UTTARAKHAND"
  },
  {
    "pincode": "249171",
    "officename": "Bhatiya B.O",
    "officeType": "B.O",
    "Deliverystatus": "Delivery",
    "divisionname": "Tehri",
    "regionname": "Dehradun",
    "circlename": "Uttarakhand",
    "Taluk": "Burkot",
    "Districtname": "Uttarkashi",
    "statename": "UTTARAKHAND"
  },
  {
    "pincode": "249171",
    "officename": "Damta B.O",
    "officeType": "B.O",
    "Deliverystatus": "Delivery",
    "divisionname": "Tehri",
    "regionname": "Dehradun",
    "circlename": "Uttarakhand",
    "Taluk": "Burkot",
    "Districtname": "Uttarkashi",
    "statename": "UTTARAKHAND"
  },
  {
    "pincode": "249171",
    "officename": "Dewal B.O",
    "officeType": "B.O",
    "Deliverystatus": "Delivery",
    "divisionname": "Tehri",
    "regionname": "Dehradun",
    "circlename": "Uttarakhand",
    "Taluk": "Burkot",
    "Districtname": "Uttarkashi",
    "statename": "UTTARAKHAND"
  },
  {
    "pincode": "249171",
    "officename": "Diyari B.O",
    "officeType": "B.O",
    "Deliverystatus": "Delivery",
    "divisionname": "Tehri",
    "regionname": "Dehradun",
    "circlename": "Uttarakhand",
    "Taluk": "Rajgarhi",
    "Districtname": "Uttarkashi",
    "statename": "UTTARAKHAND"
  },
  {
    "pincode": "249171",
    "officename": "Gaatu B.O",
    "officeType": "B.O",
    "Deliverystatus": "Delivery",
    "divisionname": "Tehri",
    "regionname": "Dehradun",
    "circlename": "Uttarakhand",
    "Taluk": "Burkot",
    "Districtname": "Uttarkashi",
    "statename": "UTTARAKHAND"
  },
  {
    "pincode": "249171",
    "officename": "Kafnol B.O",
    "officeType": "B.O",
    "Deliverystatus": "Delivery",
    "divisionname": "Tehri",
    "regionname": "Dehradun",
    "circlename": "Uttarakhand",
    "Taluk": "Burkot",
    "Districtname": "Uttarkashi",
    "statename": "UTTARAKHAND"
  },
  {
    "pincode": "249171",
    "officename": "Kalogi B.O",
    "officeType": "B.O",
    "Deliverystatus": "Delivery",
    "divisionname": "Tehri",
    "regionname": "Dehradun",
    "circlename": "Uttarakhand",
    "Taluk": "Burkot",
    "Districtname": "Uttarkashi",
    "statename": "UTTARAKHAND"
  },
  {
    "pincode": "249171",
    "officename": "Kandari B.O",
    "officeType": "B.O",
    "Deliverystatus": "Delivery",
    "divisionname": "Tehri",
    "regionname": "Dehradun",
    "circlename": "Uttarakhand",
    "Taluk": "Burkot",
    "Districtname": "Uttarkashi",
    "statename": "UTTARAKHAND"
  },
  {
    "pincode": "249171",
    "officename": "Kotiyalgaon B.O",
    "officeType": "B.O",
    "Deliverystatus": "Delivery",
    "divisionname": "Tehri",
    "regionname": "Dehradun",
    "circlename": "Uttarakhand",
    "Taluk": "Burkot",
    "Districtname": "Uttarkashi",
    "statename": "UTTARAKHAND"
  },
  {
    "pincode": "249171",
    "officename": "Kunwa B.O",
    "officeType": "B.O",
    "Deliverystatus": "Delivery",
    "divisionname": "Tehri",
    "regionname": "Dehradun",
    "circlename": "Uttarakhand",
    "Taluk": "Burkot",
    "Districtname": "Uttarkashi",
    "statename": "UTTARAKHAND"
  },
  {
    "pincode": "249171",
    "officename": "Naugaon S.O",
    "officeType": "S.O",
    "Deliverystatus": "Delivery",
    "divisionname": "Tehri",
    "regionname": "Dehradun",
    "circlename": "Uttarakhand",
    "Taluk": "Rajgarhi",
    "Districtname": "Uttarkashi",
    "statename": "UTTARAKHAND"
  },
  {
    "pincode": "249171",
    "officename": "Odgaon B.O",
    "officeType": "B.O",
    "Deliverystatus": "Delivery",
    "divisionname": "Tehri",
    "regionname": "Dehradun",
    "circlename": "Uttarakhand",
    "Taluk": "Rajgarhi",
    "Districtname": "Uttarkashi",
    "statename": "UTTARAKHAND"
  },
  {
    "pincode": "249171",
    "officename": "Rikhaown B.O",
    "officeType": "B.O",
    "Deliverystatus": "Delivery",
    "divisionname": "Tehri",
    "regionname": "Dehradun",
    "circlename": "Uttarakhand",
    "Taluk": "Rajgarhi",
    "Districtname": "Uttarkashi",
    "statename": "UTTARAKHAND"
  },
  {
    "pincode": "249171",
    "officename": "Sarigadkhamundi B.O",
    "officeType": "B.O",
    "Deliverystatus": "Delivery",
    "divisionname": "Tehri",
    "regionname": "Dehradun",
    "circlename": "Uttarakhand",
    "Taluk": "Burkot",
    "Districtname": "Uttarkashi",
    "statename": "UTTARAKHAND"
  }
]
