[
  {
    "pincode": "249193",
    "officename": "Bhankoli B.O",
    "officeType": "B.O",
    "Deliverystatus": "Delivery",
    "divisionname": "Tehri",
    "regionname": "Dehradun",
    "circlename": "Uttarakhand",
    "Taluk": "Uttarkashi",
    "Districtname": "Uttarkashi",
    "statename": "UTTARAKHAND"
  },
  {
    "pincode": "249193",
    "officename": "Bharangaon B.O",
    "officeType": "B.O",
    "Deliverystatus": "Delivery",
    "divisionname": "Tehri",
    "regionname": "Dehradun",
    "circlename": "Uttarakhand",
    "Taluk": "Uttarkashi",
    "Districtname": "Uttarkashi",
    "statename": "UTTARAKHAND"
  },
  {
    "pincode": "249193",
    "officename": "Bonga B.O",
    "officeType": "B.O",
    "Deliverystatus": "Delivery",
    "divisionname": "Tehri",
    "regionname": "Dehradun",
    "circlename": "Uttarakhand",
    "Taluk": "Uttarkashi",
    "Districtname": "Uttarkashi",
    "statename": "UTTARAKHAND"
  },
  {
    "pincode": "249193",
    "officename": "Boun B.O",
    "officeType": "B.O",
    "Deliverystatus": "Delivery",
    "divisionname": "Tehri",
    "regionname": "Dehradun",
    "circlename": "Uttarakhand",
    "Taluk": "Dunda",
    "Districtname": "Uttarkashi",
    "statename": "UTTARAKHAND"
  },
  {
    "pincode": "249193",
    "officename": "Gangori B.O",
    "officeType": "B.O",
    "Deliverystatus": "Delivery",
    "divisionname": "Tehri",
    "regionname": "Dehradun",
    "circlename": "Uttarakhand",
    "Taluk": "Uttarkashi",
    "Districtname": "Uttarkashi",
    "statename": "UTTARAKHAND"
  },
  {
    "pincode": "249193",
    "officename": "Gawana B.O",
    "officeType": "B.O",
    "Deliverystatus": "Delivery",
    "divisionname": "Tehri",
    "regionname": "Dehradun",
    "circlename": "Uttarakhand",
    "Taluk": "Bhatwari",
    "Districtname": "Uttarkashi",
    "statename": "UTTARAKHAND"
  },
  {
    "pincode": "249193",
    "officename": "Gyansu S.O",
    "officeType": "S.O",
    "Deliverystatus": "Non-Delivery",
    "divisionname": "Tehri",
    "regionname": "Dehradun",
    "circlename": "Uttarakhand",
    "Taluk": "Bhatwari",
    "Districtname": "Uttarkashi",
    "statename": "UTTARAKHAND"
  },
  {
    "pincode": "249193",
    "officename": "Joshiyara B.O",
    "officeType": "B.O",
    "Deliverystatus": "Delivery",
    "divisionname": "Tehri",
    "regionname": "Dehradun",
    "circlename": "Uttarakhand",
    "Taluk": "Uttarkashi",
    "Districtname": "Uttarkashi",
    "statename": "UTTARAKHAND"
  },
  {
    "pincode": "249193",
    "officename": "Kallyani B.O",
    "officeType": "B.O",
    "Deliverystatus": "Delivery",
    "divisionname": "Tehri",
    "regionname": "Dehradun",
    "circlename": "Uttarakhand",
    "Taluk": "Uttarkashi",
    "Districtname": "Uttarkashi",
    "statename": "UTTARAKHAND"
  },
  {
    "pincode": "249193",
    "officename": "Manpur B.O",
    "officeType": "B.O",
    "Deliverystatus": "Delivery",
    "divisionname": "Tehri",
    "regionname": "Dehradun",
    "circlename": "Uttarakhand",
    "Taluk": "Bhatwari",
    "Districtname": "Uttarkashi",
    "statename": "UTTARAKHAND"
  },
  {
    "pincode": "249193",
    "officename": "Matli B.O",
    "officeType": "B.O",
    "Deliverystatus": "Delivery",
    "divisionname": "Tehri",
    "regionname": "Dehradun",
    "circlename": "Uttarakhand",
    "Taluk": "Uttarkashi",
    "Districtname": "Uttarkashi",
    "statename": "UTTARAKHAND"
  },
  {
    "pincode": "249193",
    "officename": "Mustik Sour B.O",
    "officeType": "B.O",
    "Deliverystatus": "Delivery",
    "divisionname": "Tehri",
    "regionname": "Dehradun",
    "circlename": "Uttarakhand",
    "Taluk": "Bhatwari",
    "Districtname": "Uttarkashi",
    "statename": "UTTARAKHAND"
  },
  {
    "pincode": "249193",
    "officename": "Netala B.O",
    "officeType": "B.O",
    "Deliverystatus": "Delivery",
    "divisionname": "Tehri",
    "regionname": "Dehradun",
    "circlename": "Uttarakhand",
    "Taluk": "Bhatwari",
    "Districtname": "Uttarkashi",
    "statename": "UTTARAKHAND"
  },
  {
    "pincode": "249193",
    "officename": "New Barsali B.O",
    "officeType": "B.O",
    "Deliverystatus": "Delivery",
    "divisionname": "Tehri",
    "regionname": "Dehradun",
    "circlename": "Uttarakhand",
    "Taluk": "Uttarkashi",
    "Districtname": "Uttarkashi",
    "statename": "UTTARAKHAND"
  },
  {
    "pincode": "249193",
    "officename": "Pata B.O",
    "officeType": "B.O",
    "Deliverystatus": "Delivery",
    "divisionname": "Tehri",
    "regionname": "Dehradun",
    "circlename": "Uttarakhand",
    "Taluk": "Uttarkashi",
    "Districtname": "Uttarkashi",
    "statename": "UTTARAKHAND"
  },
  {
    "pincode": "249193",
    "officename": "Raturisera B.O",
    "officeType": "B.O",
    "Deliverystatus": "Delivery",
    "divisionname": "Tehri",
    "regionname": "Dehradun",
    "circlename": "Uttarakhand",
    "Taluk": "Dunda",
    "Districtname": "Uttarkashi",
    "statename": "UTTARAKHAND"
  },
  {
    "pincode": "249193",
    "officename": "Sald B.O",
    "officeType": "B.O",
    "Deliverystatus": "Delivery",
    "divisionname": "Tehri",
    "regionname": "Dehradun",
    "circlename": "Uttarakhand",
    "Taluk": "Uttarkashi",
    "Districtname": "Uttarkashi",
    "statename": "UTTARAKHAND"
  },
  {
    "pincode": "249193",
    "officename": "Uttarkashi Collectorate S.O",
    "officeType": "S.O",
    "Deliverystatus": "Non-Delivery",
    "divisionname": "Tehri",
    "regionname": "Dehradun",
    "circlename": "Uttarakhand",
    "Taluk": "Bhatwari",
    "Districtname": "Uttarkashi",
    "statename": "UTTARAKHAND"
  },
  {
    "pincode": "249193",
    "officename": "Uttarkashi S.O",
    "officeType": "S.O",
    "Deliverystatus": "Delivery",
    "divisionname": "Tehri",
    "regionname": "Dehradun",
    "circlename": "Uttarakhand",
    "Taluk": "Bhatwari",
    "Districtname": "Uttarkashi",
    "statename": "UTTARAKHAND"
  },
  {
    "pincode": "249193",
    "officename": "Uttaron B.O",
    "officeType": "B.O",
    "Deliverystatus": "Delivery",
    "divisionname": "Tehri",
    "regionname": "Dehradun",
    "circlename": "Uttarakhand",
    "Taluk": "Bhatwari",
    "Districtname": "Uttarkashi",
    "statename": "UTTARAKHAND"
  }
]
