[
  {
    "pincode": "249161",
    "officename": "Badiyargarh B.O",
    "officeType": "B.O",
    "Deliverystatus": "Delivery",
    "divisionname": "Tehri",
    "regionname": "Dehradun",
    "circlename": "Uttarakhand",
    "Taluk": "Kirtinagar",
    "Districtname": "Tehri Garhwal",
    "statename": "UTTARAKHAND"
  },
  {
    "pincode": "249161",
    "officename": "Badon B.O",
    "officeType": "B.O",
    "Deliverystatus": "Delivery",
    "divisionname": "Tehri",
    "regionname": "Dehradun",
    "circlename": "Uttarakhand",
    "Taluk": "Kirtinagar",
    "Districtname": "Tehri Garhwal",
    "statename": "UTTARAKHAND"
  },
  {
    "pincode": "249161",
    "officename": "Chourikhal B.O",
    "officeType": "B.O",
    "Deliverystatus": "Delivery",
    "divisionname": "Tehri",
    "regionname": "Dehradun",
    "circlename": "Uttarakhand",
    "Taluk": "Kirtinagar",
    "Districtname": "Tehri Garhwal",
    "statename": "UTTARAKHAND"
  },
  {
    "pincode": "249161",
    "officename": "Daang B.O",
    "officeType": "B.O",
    "Deliverystatus": "Delivery",
    "divisionname": "Tehri",
    "regionname": "Dehradun",
    "circlename": "Uttarakhand",
    "Taluk": "Kirtinagr",
    "Districtname": "Tehri Garhwal",
    "statename": "UTTARAKHAND"
  },
  {
    "pincode": "249161",
    "officename": "Dangchoura B.O",
    "officeType": "B.O",
    "Deliverystatus": "Delivery",
    "divisionname": "Tehri",
    "regionname": "Dehradun",
    "circlename": "Uttarakhand",
    "Taluk": "Kirtinagr",
    "Districtname": "Tehri Garhwal",
    "statename": "UTTARAKHAND"
  },
  {
    "pincode": "249161",
    "officename": "Dharidhungsir B.O",
    "officeType": "B.O",
    "Deliverystatus": "Delivery",
    "divisionname": "Tehri",
    "regionname": "Dehradun",
    "circlename": "Uttarakhand",
    "Taluk": "Kirtinagar",
    "Districtname": "Tehri Garhwal",
    "statename": "UTTARAKHAND"
  },
  {
    "pincode": "249161",
    "officename": "Dharkot B.O",
    "officeType": "B.O",
    "Deliverystatus": "Delivery",
    "divisionname": "Tehri",
    "regionname": "Dehradun",
    "circlename": "Uttarakhand",
    "Taluk": "Kirtinagar",
    "Districtname": "Tehri Garhwal",
    "statename": "UTTARAKHAND"
  },
  {
    "pincode": "249161",
    "officename": "Dugadda B.O",
    "officeType": "B.O",
    "Deliverystatus": "Delivery",
    "divisionname": "Tehri",
    "regionname": "Dehradun",
    "circlename": "Uttarakhand",
    "Taluk": "Devprayag",
    "Districtname": "Tehri Garhwal",
    "statename": "UTTARAKHAND"
  },
  {
    "pincode": "249161",
    "officename": "Ghandiyaldhr B.O",
    "officeType": "B.O",
    "Deliverystatus": "Delivery",
    "divisionname": "Tehri",
    "regionname": "Dehradun",
    "circlename": "Uttarakhand",
    "Taluk": "Devprayag",
    "Districtname": "Tehri Garhwal",
    "statename": "UTTARAKHAND"
  },
  {
    "pincode": "249161",
    "officename": "Jakhand B.O",
    "officeType": "B.O",
    "Deliverystatus": "Delivery",
    "divisionname": "Tehri",
    "regionname": "Dehradun",
    "circlename": "Uttarakhand",
    "Taluk": "Kirtinagar",
    "Districtname": "Tehri Garhwal",
    "statename": "UTTARAKHAND"
  },
  {
    "pincode": "249161",
    "officename": "Jakhidagar B.O",
    "officeType": "B.O",
    "Deliverystatus": "Delivery",
    "divisionname": "Tehri",
    "regionname": "Dehradun",
    "circlename": "Uttarakhand",
    "Taluk": "Kirtinagr",
    "Districtname": "Tehri Garhwal",
    "statename": "UTTARAKHAND"
  },
  {
    "pincode": "249161",
    "officename": "Kafna B.O",
    "officeType": "B.O",
    "Deliverystatus": "Delivery",
    "divisionname": "Tehri",
    "regionname": "Dehradun",
    "circlename": "Uttarakhand",
    "Taluk": "Kirtinagr",
    "Districtname": "Tehri Garhwal",
    "statename": "UTTARAKHAND"
  },
  {
    "pincode": "249161",
    "officename": "Khola B.O",
    "officeType": "B.O",
    "Deliverystatus": "Delivery",
    "divisionname": "Tehri",
    "regionname": "Dehradun",
    "circlename": "Uttarakhand",
    "Taluk": "Kirtinagr",
    "Districtname": "Tehri Garhwal",
    "statename": "UTTARAKHAND"
  },
  {
    "pincode": "249161",
    "officename": "Kilkileshwar B.O",
    "officeType": "B.O",
    "Deliverystatus": "Delivery",
    "divisionname": "Tehri",
    "regionname": "Dehradun",
    "circlename": "Uttarakhand",
    "Taluk": "Kirtinagar",
    "Districtname": "Tehri Garhwal",
    "statename": "UTTARAKHAND"
  },
  {
    "pincode": "249161",
    "officename": "Kirtinagar S.O",
    "officeType": "S.O",
    "Deliverystatus": "Delivery",
    "divisionname": "Tehri",
    "regionname": "Dehradun",
    "circlename": "Uttarakhand",
    "Taluk": "Kirtinagar",
    "Districtname": "Tehri Garhwal",
    "statename": "UTTARAKHAND"
  },
  {
    "pincode": "249161",
    "officename": "Magron B.O",
    "officeType": "B.O",
    "Deliverystatus": "Delivery",
    "divisionname": "Tehri",
    "regionname": "Dehradun",
    "circlename": "Uttarakhand",
    "Taluk": "Kirtinagar",
    "Districtname": "Tehri Garhwal",
    "statename": "UTTARAKHAND"
  },
  {
    "pincode": "249161",
    "officename": "Maletha B.O",
    "officeType": "B.O",
    "Deliverystatus": "Delivery",
    "divisionname": "Tehri",
    "regionname": "Dehradun",
    "circlename": "Uttarakhand",
    "Taluk": "Devprayag",
    "Districtname": "Tehri Garhwal",
    "statename": "UTTARAKHAND"
  },
  {
    "pincode": "249161",
    "officename": "Manjkot B.O",
    "officeType": "B.O",
    "Deliverystatus": "Delivery",
    "divisionname": "Tehri",
    "regionname": "Dehradun",
    "circlename": "Uttarakhand",
    "Taluk": "Devprayag",
    "Districtname": "Tehri Garhwal",
    "statename": "UTTARAKHAND"
  },
  {
    "pincode": "249161",
    "officename": "Nyuli B.O",
    "officeType": "B.O",
    "Deliverystatus": "Delivery",
    "divisionname": "Tehri",
    "regionname": "Dehradun",
    "circlename": "Uttarakhand",
    "Taluk": "Devprayag",
    "Districtname": "Tehri Garhwal",
    "statename": "UTTARAKHAND"
  },
  {
    "pincode": "249161",
    "officename": "Poukhal B.O",
    "officeType": "B.O",
    "Deliverystatus": "Delivery",
    "divisionname": "Tehri",
    "regionname": "Dehradun",
    "circlename": "Uttarakhand",
    "Taluk": "Kirtinagr",
    "Districtname": "Tehri Garhwal",
    "statename": "UTTARAKHAND"
  },
  {
    "pincode": "249161",
    "officename": "Silkakhal B.O",
    "officeType": "B.O",
    "Deliverystatus": "Delivery",
    "divisionname": "Tehri",
    "regionname": "Dehradun",
    "circlename": "Uttarakhand",
    "Taluk": "Devprayag",
    "Districtname": "Tehri Garhwal",
    "statename": "UTTARAKHAND"
  },
  {
    "pincode": "249161",
    "officename": "Takoli B.O",
    "officeType": "B.O",
    "Deliverystatus": "Delivery",
    "divisionname": "Tehri",
    "regionname": "Dehradun",
    "circlename": "Uttarakhand",
    "Taluk": "Devprayag",
    "Districtname": "Tehri Garhwal",
    "statename": "UTTARAKHAND"
  },
  {
    "pincode": "249161",
    "officename": "Talli Ringoli B.O",
    "officeType": "B.O",
    "Deliverystatus": "Delivery",
    "divisionname": "Tehri",
    "regionname": "Dehradun",
    "circlename": "Uttarakhand",
    "Taluk": "Devprayag",
    "Districtname": "Tehri Garhwal",
    "statename": "UTTARAKHAND"
  },
  {
    "pincode": "249161",
    "officename": "Thati Dagar B.O",
    "officeType": "B.O",
    "Deliverystatus": "Delivery",
    "divisionname": "Tehri",
    "regionname": "Dehradun",
    "circlename": "Uttarakhand",
    "Taluk": "Devprayag",
    "Districtname": "Tehri Garhwal",
    "statename": "UTTARAKHAND"
  }
]
