[
  {
    "pincode": "250004",
    "officename": "Datawali B.O",
    "officeType": "B.O",
    "Deliverystatus": "Delivery",
    "divisionname": "Meerut",
    "regionname": "Bareilly",
    "circlename": "Uttar Pradesh",
    "Taluk": "Meerut",
    "Districtname": "Meerut",
    "statename": "UTTAR PRADESH"
  },
  {
    "pincode": "250004",
    "officename": "Hasanpur Kadim B.O",
    "officeType": "B.O",
    "Deliverystatus": "Delivery",
    "divisionname": "Meerut",
    "regionname": "Bareilly",
    "circlename": "Uttar Pradesh",
    "Taluk": "Meerut",
    "Districtname": "Meerut",
    "statename": "UTTAR PRADESH"
  },
  {
    "pincode": "250004",
    "officename": "Jithauli B.O",
    "officeType": "B.O",
    "Deliverystatus": "Delivery",
    "divisionname": "Meerut",
    "regionname": "Bareilly",
    "circlename": "Uttar Pradesh",
    "Taluk": "Meerut",
    "Districtname": "Meerut",
    "statename": "UTTAR PRADESH"
  },
  {
    "pincode": "250004",
    "officename": "Kina Nagar B.O",
    "officeType": "B.O",
    "Deliverystatus": "Delivery",
    "divisionname": "Meerut",
    "regionname": "Bareilly",
    "circlename": "Uttar Pradesh",
    "Taluk": "Meerut",
    "Districtname": "Meerut",
    "statename": "UTTAR PRADESH"
  },
  {
    "pincode": "250004",
    "officename": "L. L. R. M. Med.college S.O",
    "officeType": "S.O",
    "Deliverystatus": "Delivery",
    "divisionname": "Meerut",
    "regionname": "Bareilly",
    "circlename": "Uttar Pradesh",
    "Taluk": "Meerut",
    "Districtname": "Meerut",
    "statename": "UTTAR PRADESH"
  },
  {
    "pincode": "250004",
    "officename": "Meerut University S.O",
    "officeType": "S.O",
    "Deliverystatus": "Non-Delivery",
    "divisionname": "Meerut",
    "regionname": "Bareilly",
    "circlename": "Uttar Pradesh",
    "Taluk": "Meerut",
    "Districtname": "Meerut",
    "statename": "UTTAR PRADESH"
  },
  {
    "pincode": "250004",
    "officename": "Murlipur Phool B.O",
    "officeType": "B.O",
    "Deliverystatus": "Delivery",
    "divisionname": "Meerut",
    "regionname": "Bareilly",
    "circlename": "Uttar Pradesh",
    "Taluk": "Meerut",
    "Districtname": "Meerut",
    "statename": "UTTAR PRADESH"
  },
  {
    "pincode": "250004",
    "officename": "Samai Pur B.O",
    "officeType": "B.O",
    "Deliverystatus": "Delivery",
    "divisionname": "Meerut",
    "regionname": "Bareilly",
    "circlename": "Uttar Pradesh",
    "Taluk": "Meerut",
    "Districtname": "Meerut",
    "statename": "UTTAR PRADESH"
  },
  {
    "pincode": "250004",
    "officename": "Shastri Nagar S.O (Meerut)",
    "officeType": "S.O",
    "Deliverystatus": "Non-Delivery",
    "divisionname": "Meerut",
    "regionname": "Bareilly",
    "circlename": "Uttar Pradesh",
    "Taluk": "Meerut",
    "Districtname": "Meerut",
    "statename": "UTTAR PRADESH"
  },
  {
    "pincode": "250004",
    "officename": "Sisoli B.O",
    "officeType": "B.O",
    "Deliverystatus": "Delivery",
    "divisionname": "Meerut",
    "regionname": "Bareilly",
    "circlename": "Uttar Pradesh",
    "Taluk": "Meerut",
    "Districtname": "Meerut",
    "statename": "UTTAR PRADESH"
  }
]
