[
  {
    "pincode": "250104",
    "officename": "Aseelpur B.O",
    "officeType": "B.O",
    "Deliverystatus": "Delivery",
    "divisionname": "Meerut",
    "regionname": "Bareilly",
    "circlename": "Uttar Pradesh",
    "Taluk": "Meerut",
    "Districtname": "Meerut",
    "statename": "UTTAR PRADESH"
  },
  {
    "pincode": "250104",
    "officename": "Gesupur B.O",
    "officeType": "B.O",
    "Deliverystatus": "Delivery",
    "divisionname": "Meerut",
    "regionname": "Bareilly",
    "circlename": "Uttar Pradesh",
    "Taluk": "Meerut",
    "Districtname": "Meerut",
    "statename": "UTTAR PRADESH"
  },
  {
    "pincode": "250104",
    "officename": "Jaroda B.O",
    "officeType": "B.O",
    "Deliverystatus": "Delivery",
    "divisionname": "Meerut",
    "regionname": "Bareilly",
    "circlename": "Uttar Pradesh",
    "Taluk": "Meerut",
    "Districtname": "Meerut",
    "statename": "UTTAR PRADESH"
  },
  {
    "pincode": "250104",
    "officename": "Kithore S.O",
    "officeType": "S.O",
    "Deliverystatus": "Delivery",
    "divisionname": "Meerut",
    "regionname": "Bareilly",
    "circlename": "Uttar Pradesh",
    "Taluk": "Meerut",
    "Districtname": "Meerut",
    "statename": "UTTAR PRADESH"
  },
  {
    "pincode": "250104",
    "officename": "Lalyana B.O",
    "officeType": "B.O",
    "Deliverystatus": "Delivery",
    "divisionname": "Meerut",
    "regionname": "Bareilly",
    "circlename": "Uttar Pradesh",
    "Taluk": "Meerut",
    "Districtname": "Meerut",
    "statename": "UTTAR PRADESH"
  },
  {
    "pincode": "250104",
    "officename": "Mahalwala B.O",
    "officeType": "B.O",
    "Deliverystatus": "Delivery",
    "divisionname": "Meerut",
    "regionname": "Bareilly",
    "circlename": "Uttar Pradesh",
    "Taluk": "Meerut",
    "Districtname": "Meerut",
    "statename": "UTTAR PRADESH"
  },
  {
    "pincode": "250104",
    "officename": "Muzaffarpur Bagarpur B.O",
    "officeType": "B.O",
    "Deliverystatus": "Delivery",
    "divisionname": "Meerut",
    "regionname": "Bareilly",
    "circlename": "Uttar Pradesh",
    "Taluk": "Mawana",
    "Districtname": "Meerut",
    "statename": "UTTAR PRADESH"
  },
  {
    "pincode": "250104",
    "officename": "Nagli Badli B.O",
    "officeType": "B.O",
    "Deliverystatus": "Delivery",
    "divisionname": "Meerut",
    "regionname": "Bareilly",
    "circlename": "Uttar Pradesh",
    "Taluk": "Meerut",
    "Districtname": "Meerut",
    "statename": "UTTAR PRADESH"
  },
  {
    "pincode": "250104",
    "officename": "Radhana B.O",
    "officeType": "B.O",
    "Deliverystatus": "Delivery",
    "divisionname": "Meerut",
    "regionname": "Bareilly",
    "circlename": "Uttar Pradesh",
    "Taluk": "Meerut",
    "Districtname": "Meerut",
    "statename": "UTTAR PRADESH"
  },
  {
    "pincode": "250104",
    "officename": "Sarwani Arifpur B.O",
    "officeType": "B.O",
    "Deliverystatus": "Delivery",
    "divisionname": "Meerut",
    "regionname": "Bareilly",
    "circlename": "Uttar Pradesh",
    "Taluk": "Meerut",
    "Districtname": "Meerut",
    "statename": "UTTAR PRADESH"
  },
  {
    "pincode": "250104",
    "officename": "Shafibad Loti B.O",
    "officeType": "B.O",
    "Deliverystatus": "Delivery",
    "divisionname": "Meerut",
    "regionname": "Bareilly",
    "circlename": "Uttar Pradesh",
    "Taluk": "Kithore",
    "Districtname": "Meerut",
    "statename": "UTTAR PRADESH"
  },
  {
    "pincode": "250104",
    "officename": "Shahjahanpur B.O",
    "officeType": "B.O",
    "Deliverystatus": "Delivery",
    "divisionname": "Meerut",
    "regionname": "Bareilly",
    "circlename": "Uttar Pradesh",
    "Taluk": "Meerut",
    "Districtname": "Meerut",
    "statename": "UTTAR PRADESH"
  }
]
