[
  {
    "pincode": "250341",
    "officename": "B. N. Nanu B.O",
    "officeType": "B.O",
    "Deliverystatus": "Delivery",
    "divisionname": "Meerut",
    "regionname": "Bareilly",
    "circlename": "Uttar Pradesh",
    "Taluk": "Meerut",
    "Districtname": "Meerut",
    "statename": "UTTAR PRADESH"
  },
  {
    "pincode": "250341",
    "officename": "Bahadurpur B.O",
    "officeType": "B.O",
    "Deliverystatus": "Delivery",
    "divisionname": "Meerut",
    "regionname": "Bareilly",
    "circlename": "Uttar Pradesh",
    "Taluk": "Meerut",
    "Districtname": "Meerut",
    "statename": "UTTAR PRADESH"
  },
  {
    "pincode": "250341",
    "officename": "Bhalsona B.O",
    "officeType": "B.O",
    "Deliverystatus": "Delivery",
    "divisionname": "Meerut",
    "regionname": "Bareilly",
    "circlename": "Uttar Pradesh",
    "Taluk": "Meerut",
    "Districtname": "Meerut",
    "statename": "UTTAR PRADESH"
  },
  {
    "pincode": "250341",
    "officename": "Dabathwa S.O",
    "officeType": "S.O",
    "Deliverystatus": "Delivery",
    "divisionname": "Meerut",
    "regionname": "Bareilly",
    "circlename": "Uttar Pradesh",
    "Taluk": "Meerut",
    "Districtname": "Meerut",
    "statename": "UTTAR PRADESH"
  },
  {
    "pincode": "250341",
    "officename": "Ekri B.O",
    "officeType": "B.O",
    "Deliverystatus": "Delivery",
    "divisionname": "Meerut",
    "regionname": "Bareilly",
    "circlename": "Uttar Pradesh",
    "Taluk": "Sardhana",
    "Districtname": "Meerut",
    "statename": "UTTAR PRADESH"
  },
  {
    "pincode": "250341",
    "officename": "Jangethi B.O",
    "officeType": "B.O",
    "Deliverystatus": "Delivery",
    "divisionname": "Meerut",
    "regionname": "Bareilly",
    "circlename": "Uttar Pradesh",
    "Taluk": "Meerut",
    "Districtname": "Meerut",
    "statename": "UTTAR PRADESH"
  },
  {
    "pincode": "250341",
    "officename": "Janjokhar B.O",
    "officeType": "B.O",
    "Deliverystatus": "Delivery",
    "divisionname": "Meerut",
    "regionname": "Bareilly",
    "circlename": "Uttar Pradesh",
    "Taluk": "Meerut",
    "Districtname": "Meerut",
    "statename": "UTTAR PRADESH"
  },
  {
    "pincode": "250341",
    "officename": "Khirwa Jalalpur B.O",
    "officeType": "B.O",
    "Deliverystatus": "Delivery",
    "divisionname": "Meerut",
    "regionname": "Bareilly",
    "circlename": "Uttar Pradesh",
    "Taluk": "Meerut",
    "Districtname": "Meerut",
    "statename": "UTTAR PRADESH"
  },
  {
    "pincode": "250341",
    "officename": "Pathauli B.O",
    "officeType": "B.O",
    "Deliverystatus": "Delivery",
    "divisionname": "Meerut",
    "regionname": "Bareilly",
    "circlename": "Uttar Pradesh",
    "Taluk": "Meerut",
    "Districtname": "Meerut",
    "statename": "UTTAR PRADESH"
  },
  {
    "pincode": "250341",
    "officename": "Pohli B.O",
    "officeType": "B.O",
    "Deliverystatus": "Delivery",
    "divisionname": "Meerut",
    "regionname": "Bareilly",
    "circlename": "Uttar Pradesh",
    "Taluk": "Meerut",
    "Districtname": "Meerut",
    "statename": "UTTAR PRADESH"
  }
]
