[
  {
    "pincode": "250342",
    "officename": "Baparsi B.O",
    "officeType": "B.O",
    "Deliverystatus": "Delivery",
    "divisionname": "Meerut",
    "regionname": "Bareilly",
    "circlename": "Uttar Pradesh",
    "Taluk": "Sardhana",
    "Districtname": "Meerut",
    "statename": "UTTAR PRADESH"
  },
  {
    "pincode": "250342",
    "officename": "Bhombori B.O",
    "officeType": "B.O",
    "Deliverystatus": "Delivery",
    "divisionname": "Meerut",
    "regionname": "Bareilly",
    "circlename": "Uttar Pradesh",
    "Taluk": "Sardhana",
    "Districtname": "Meerut",
    "statename": "UTTAR PRADESH"
  },
  {
    "pincode": "250342",
    "officename": "C.B.Sardhana S.O",
    "officeType": "S.O",
    "Deliverystatus": "Non-Delivery",
    "divisionname": "Meerut",
    "regionname": "Bareilly",
    "circlename": "Uttar Pradesh",
    "Taluk": "Sardhana",
    "Districtname": "Meerut",
    "statename": "UTTAR PRADESH"
  },
  {
    "pincode": "250342",
    "officename": "Chhabariya B.O",
    "officeType": "B.O",
    "Deliverystatus": "Delivery",
    "divisionname": "Meerut",
    "regionname": "Bareilly",
    "circlename": "Uttar Pradesh",
    "Taluk": "Sardhana",
    "Districtname": "Meerut",
    "statename": "UTTAR PRADESH"
  },
  {
    "pincode": "250342",
    "officename": "Chhur B.O",
    "officeType": "B.O",
    "Deliverystatus": "Delivery",
    "divisionname": "Meerut",
    "regionname": "Bareilly",
    "circlename": "Uttar Pradesh",
    "Taluk": "Sardhana",
    "Districtname": "Meerut",
    "statename": "UTTAR PRADESH"
  },
  {
    "pincode": "250342",
    "officename": "Jhitkari B.O",
    "officeType": "B.O",
    "Deliverystatus": "Delivery",
    "divisionname": "Meerut",
    "regionname": "Bareilly",
    "circlename": "Uttar Pradesh",
    "Taluk": "Sardhana",
    "Districtname": "Meerut",
    "statename": "UTTAR PRADESH"
  },
  {
    "pincode": "250342",
    "officename": "Kaland B.O",
    "officeType": "B.O",
    "Deliverystatus": "Delivery",
    "divisionname": "Meerut",
    "regionname": "Bareilly",
    "circlename": "Uttar Pradesh",
    "Taluk": "Sardhana",
    "Districtname": "Meerut",
    "statename": "UTTAR PRADESH"
  },
  {
    "pincode": "250342",
    "officename": "Kalandi B.O",
    "officeType": "B.O",
    "Deliverystatus": "Delivery",
    "divisionname": "Meerut",
    "regionname": "Bareilly",
    "circlename": "Uttar Pradesh",
    "Taluk": "Sardhana",
    "Districtname": "Meerut",
    "statename": "UTTAR PRADESH"
  },
  {
    "pincode": "250342",
    "officename": "Khera B.O",
    "officeType": "B.O",
    "Deliverystatus": "Delivery",
    "divisionname": "Meerut",
    "regionname": "Bareilly",
    "circlename": "Uttar Pradesh",
    "Taluk": "Sardhana",
    "Districtname": "Meerut",
    "statename": "UTTAR PRADESH"
  },
  {
    "pincode": "250342",
    "officename": "Kushaoli B.O",
    "officeType": "B.O",
    "Deliverystatus": "Delivery",
    "divisionname": "Meerut",
    "regionname": "Bareilly",
    "circlename": "Uttar Pradesh",
    "Taluk": "Sardhana",
    "Districtname": "Meerut",
    "statename": "UTTAR PRADESH"
  },
  {
    "pincode": "250342",
    "officename": "Laskaarganj B.O",
    "officeType": "B.O",
    "Deliverystatus": "Delivery",
    "divisionname": "Meerut",
    "regionname": "Bareilly",
    "circlename": "Uttar Pradesh",
    "Taluk": "Sardhana",
    "Districtname": "Meerut",
    "statename": "UTTAR PRADESH"
  },
  {
    "pincode": "250342",
    "officename": "Mahadev B.O",
    "officeType": "B.O",
    "Deliverystatus": "Delivery",
    "divisionname": "Meerut",
    "regionname": "Bareilly",
    "circlename": "Uttar Pradesh",
    "Taluk": "Sardhana",
    "Districtname": "Meerut",
    "statename": "UTTAR PRADESH"
  },
  {
    "pincode": "250342",
    "officename": "Mulhera B.O",
    "officeType": "B.O",
    "Deliverystatus": "Delivery",
    "divisionname": "Meerut",
    "regionname": "Bareilly",
    "circlename": "Uttar Pradesh",
    "Taluk": "Sardhana",
    "Districtname": "Meerut",
    "statename": "UTTAR PRADESH"
  },
  {
    "pincode": "250342",
    "officename": "Muzahidpur B.O",
    "officeType": "B.O",
    "Deliverystatus": "Delivery",
    "divisionname": "Meerut",
    "regionname": "Bareilly",
    "circlename": "Uttar Pradesh",
    "Taluk": "Sardhana",
    "Districtname": "Meerut",
    "statename": "UTTAR PRADESH"
  },
  {
    "pincode": "250342",
    "officename": "Pithlokar B.O",
    "officeType": "B.O",
    "Deliverystatus": "Delivery",
    "divisionname": "Meerut",
    "regionname": "Bareilly",
    "circlename": "Uttar Pradesh",
    "Taluk": "Sardhana",
    "Districtname": "Meerut",
    "statename": "UTTAR PRADESH"
  },
  {
    "pincode": "250342",
    "officename": "Rardhana B.O",
    "officeType": "B.O",
    "Deliverystatus": "Delivery",
    "divisionname": "Meerut",
    "regionname": "Bareilly",
    "circlename": "Uttar Pradesh",
    "Taluk": "Sardhana",
    "Districtname": "Meerut",
    "statename": "UTTAR PRADESH"
  },
  {
    "pincode": "250342",
    "officename": "Salawa B.O",
    "officeType": "B.O",
    "Deliverystatus": "Delivery",
    "divisionname": "Meerut",
    "regionname": "Bareilly",
    "circlename": "Uttar Pradesh",
    "Taluk": "Sardhana",
    "Districtname": "Meerut",
    "statename": "UTTAR PRADESH"
  },
  {
    "pincode": "250342",
    "officename": "Sardhana S.O",
    "officeType": "S.O",
    "Deliverystatus": "Delivery",
    "divisionname": "Meerut",
    "regionname": "Bareilly",
    "circlename": "Uttar Pradesh",
    "Taluk": "Meerut",
    "Districtname": "Meerut",
    "statename": "UTTAR PRADESH"
  }
]
