[
  {
    "pincode": "250345",
    "officename": "Barnawa B.O",
    "officeType": "B.O",
    "Deliverystatus": "Delivery",
    "divisionname": "Meerut",
    "regionname": "Bareilly",
    "circlename": "Uttar Pradesh",
    "Taluk": "Baraut",
    "Districtname": "Bagpat",
    "statename": "UTTAR PRADESH"
  },
  {
    "pincode": "250345",
    "officename": "Bijwara B.O",
    "officeType": "B.O",
    "Deliverystatus": "Delivery",
    "divisionname": "Meerut",
    "regionname": "Bareilly",
    "circlename": "Uttar Pradesh",
    "Taluk": "Baraut",
    "Districtname": "Bagpat",
    "statename": "UTTAR PRADESH"
  },
  {
    "pincode": "250345",
    "officename": "Binauli S.O",
    "officeType": "S.O",
    "Deliverystatus": "Delivery",
    "divisionname": "Meerut",
    "regionname": "Bareilly",
    "circlename": "Uttar Pradesh",
    "Taluk": "Baraut",
    "Districtname": "Bagpat",
    "statename": "UTTAR PRADESH"
  },
  {
    "pincode": "250345",
    "officename": "Chandyan B.O",
    "officeType": "B.O",
    "Deliverystatus": "Delivery",
    "divisionname": "Meerut",
    "regionname": "Bareilly",
    "circlename": "Uttar Pradesh",
    "Taluk": "Baraut",
    "Districtname": "Bagpat",
    "statename": "UTTAR PRADESH"
  },
  {
    "pincode": "250345",
    "officename": "Fatehpur Poothi B.O",
    "officeType": "B.O",
    "Deliverystatus": "Delivery",
    "divisionname": "Meerut",
    "regionname": "Bareilly",
    "circlename": "Uttar Pradesh",
    "Taluk": "Baraut",
    "Districtname": "Bagpat",
    "statename": "UTTAR PRADESH"
  },
  {
    "pincode": "250345",
    "officename": "Fazalpur B.O",
    "officeType": "B.O",
    "Deliverystatus": "Delivery",
    "divisionname": "Meerut",
    "regionname": "Bareilly",
    "circlename": "Uttar Pradesh",
    "Taluk": "Baraut",
    "Districtname": "Bagpat",
    "statename": "UTTAR PRADESH"
  },
  {
    "pincode": "250345",
    "officename": "Galheta B.O",
    "officeType": "B.O",
    "Deliverystatus": "Delivery",
    "divisionname": "Meerut",
    "regionname": "Bareilly",
    "circlename": "Uttar Pradesh",
    "Taluk": "Baraut",
    "Districtname": "Bagpat",
    "statename": "UTTAR PRADESH"
  },
  {
    "pincode": "250345",
    "officename": "Jiwana B.O",
    "officeType": "B.O",
    "Deliverystatus": "Delivery",
    "divisionname": "Meerut",
    "regionname": "Bareilly",
    "circlename": "Uttar Pradesh",
    "Taluk": "Baraut",
    "Districtname": "Bagpat",
    "statename": "UTTAR PRADESH"
  },
  {
    "pincode": "250345",
    "officename": "Johri B.O",
    "officeType": "B.O",
    "Deliverystatus": "Delivery",
    "divisionname": "Meerut",
    "regionname": "Bareilly",
    "circlename": "Uttar Pradesh",
    "Taluk": "Baraut",
    "Districtname": "Bagpat",
    "statename": "UTTAR PRADESH"
  },
  {
    "pincode": "250345",
    "officename": "Muzampur Kamala B.O",
    "officeType": "B.O",
    "Deliverystatus": "Delivery",
    "divisionname": "Meerut",
    "regionname": "Bareilly",
    "circlename": "Uttar Pradesh",
    "Taluk": "Baraut",
    "Districtname": "Bagpat",
    "statename": "UTTAR PRADESH"
  },
  {
    "pincode": "250345",
    "officename": "Ranchhar B.O",
    "officeType": "B.O",
    "Deliverystatus": "Delivery",
    "divisionname": "Meerut",
    "regionname": "Bareilly",
    "circlename": "Uttar Pradesh",
    "Taluk": "Baraut",
    "Districtname": "Bagpat",
    "statename": "UTTAR PRADESH"
  },
  {
    "pincode": "250345",
    "officename": "Sirsalgarh B.O",
    "officeType": "B.O",
    "Deliverystatus": "Delivery",
    "divisionname": "Meerut",
    "regionname": "Bareilly",
    "circlename": "Uttar Pradesh",
    "Taluk": "Baraut",
    "Districtname": "Bagpat",
    "statename": "UTTAR PRADESH"
  },
  {
    "pincode": "250345",
    "officename": "Sirsali B.O",
    "officeType": "B.O",
    "Deliverystatus": "Delivery",
    "divisionname": "Meerut",
    "regionname": "Bareilly",
    "circlename": "Uttar Pradesh",
    "Taluk": "Baruat",
    "Districtname": "Bagpat",
    "statename": "UTTAR PRADESH"
  },
  {
    "pincode": "250345",
    "officename": "Titroda B.O",
    "officeType": "B.O",
    "Deliverystatus": "Delivery",
    "divisionname": "Meerut",
    "regionname": "Bareilly",
    "circlename": "Uttar Pradesh",
    "Taluk": "Baraut",
    "Districtname": "Bagpat",
    "statename": "UTTAR PRADESH"
  }
]
