[
  {
    "pincode": "250502",
    "officename": "Amanullapur B.O",
    "officeType": "B.O",
    "Deliverystatus": "Delivery",
    "divisionname": "Meerut",
    "regionname": "Bareilly",
    "circlename": "Uttar Pradesh",
    "Taluk": "Meerut",
    "Districtname": "Meerut",
    "statename": "UTTAR PRADESH"
  },
  {
    "pincode": "250502",
    "officename": "Arnawali B.O",
    "officeType": "B.O",
    "Deliverystatus": "Delivery",
    "divisionname": "Meerut",
    "regionname": "Bareilly",
    "circlename": "Uttar Pradesh",
    "Taluk": "Meerut",
    "Districtname": "Meerut",
    "statename": "UTTAR PRADESH"
  },
  {
    "pincode": "250502",
    "officename": "Baram B.O",
    "officeType": "B.O",
    "Deliverystatus": "Delivery",
    "divisionname": "Meerut",
    "regionname": "Bareilly",
    "circlename": "Uttar Pradesh",
    "Taluk": "Meerut",
    "Districtname": "Meerut",
    "statename": "UTTAR PRADESH"
  },
  {
    "pincode": "250502",
    "officename": "Chandori Khas B.O",
    "officeType": "B.O",
    "Deliverystatus": "Delivery",
    "divisionname": "Meerut",
    "regionname": "Bareilly",
    "circlename": "Uttar Pradesh",
    "Taluk": "Meerut",
    "Districtname": "Meerut",
    "statename": "UTTAR PRADESH"
  },
  {
    "pincode": "250502",
    "officename": "Dalampur B.O",
    "officeType": "B.O",
    "Deliverystatus": "Delivery",
    "divisionname": "Meerut",
    "regionname": "Bareilly",
    "circlename": "Uttar Pradesh",
    "Taluk": "Meerut",
    "Districtname": "Meerut",
    "statename": "UTTAR PRADESH"
  },
  {
    "pincode": "250502",
    "officename": "Kaithwari B.O",
    "officeType": "B.O",
    "Deliverystatus": "Delivery",
    "divisionname": "Meerut",
    "regionname": "Bareilly",
    "circlename": "Uttar Pradesh",
    "Taluk": "Meerut",
    "Districtname": "Meerut",
    "statename": "UTTAR PRADESH"
  },
  {
    "pincode": "250502",
    "officename": "Kalina B.O",
    "officeType": "B.O",
    "Deliverystatus": "Delivery",
    "divisionname": "Meerut",
    "regionname": "Bareilly",
    "circlename": "Uttar Pradesh",
    "Taluk": "Meerut",
    "Districtname": "Meerut",
    "statename": "UTTAR PRADESH"
  },
  {
    "pincode": "250502",
    "officename": "Kalyanpur B.O",
    "officeType": "B.O",
    "Deliverystatus": "Delivery",
    "divisionname": "Meerut",
    "regionname": "Bareilly",
    "circlename": "Uttar Pradesh",
    "Taluk": "Meerut",
    "Districtname": "Meerut",
    "statename": "UTTAR PRADESH"
  },
  {
    "pincode": "250502",
    "officename": "Meerpur B.O",
    "officeType": "B.O",
    "Deliverystatus": "Delivery",
    "divisionname": "Meerut",
    "regionname": "Bareilly",
    "circlename": "Uttar Pradesh",
    "Taluk": "Meerut",
    "Districtname": "Meerut",
    "statename": "UTTAR PRADESH"
  },
  {
    "pincode": "250502",
    "officename": "Narangpur B.O",
    "officeType": "B.O",
    "Deliverystatus": "Delivery",
    "divisionname": "Meerut",
    "regionname": "Bareilly",
    "circlename": "Uttar Pradesh",
    "Taluk": "Meerut",
    "Districtname": "Meerut",
    "statename": "UTTAR PRADESH"
  },
  {
    "pincode": "250502",
    "officename": "Poothkhas B.O",
    "officeType": "B.O",
    "Deliverystatus": "Delivery",
    "divisionname": "Meerut",
    "regionname": "Bareilly",
    "circlename": "Uttar Pradesh",
    "Taluk": "Meerut",
    "Districtname": "Meerut",
    "statename": "UTTAR PRADESH"
  },
  {
    "pincode": "250502",
    "officename": "Rasna B.O",
    "officeType": "B.O",
    "Deliverystatus": "Delivery",
    "divisionname": "Meerut",
    "regionname": "Bareilly",
    "circlename": "Uttar Pradesh",
    "Taluk": "Meerut",
    "Districtname": "Meerut",
    "statename": "UTTAR PRADESH"
  },
  {
    "pincode": "250502",
    "officename": "Rasulpur Kinoni B.O",
    "officeType": "B.O",
    "Deliverystatus": "Delivery",
    "divisionname": "Meerut",
    "regionname": "Bareilly",
    "circlename": "Uttar Pradesh",
    "Taluk": "Meerut",
    "Districtname": "Meerut",
    "statename": "UTTAR PRADESH"
  },
  {
    "pincode": "250502",
    "officename": "Rasulpur Rohta S.O",
    "officeType": "S.O",
    "Deliverystatus": "Delivery",
    "divisionname": "Meerut",
    "regionname": "Bareilly",
    "circlename": "Uttar Pradesh",
    "Taluk": "Meerut",
    "Districtname": "Meerut",
    "statename": "UTTAR PRADESH"
  },
  {
    "pincode": "250502",
    "officename": "Satwai B.O",
    "officeType": "B.O",
    "Deliverystatus": "Delivery",
    "divisionname": "Meerut",
    "regionname": "Bareilly",
    "circlename": "Uttar Pradesh",
    "Taluk": "Meerut",
    "Districtname": "Meerut",
    "statename": "UTTAR PRADESH"
  }
]
