[
  {
    "pincode": "250623",
    "officename": "Asara B.O",
    "officeType": "B.O",
    "Deliverystatus": "Delivery",
    "divisionname": "Meerut",
    "regionname": "Bareilly",
    "circlename": "Uttar Pradesh",
    "Taluk": "Baraut",
    "Districtname": "Bagpat",
    "statename": "UTTAR PRADESH"
  },
  {
    "pincode": "250623",
    "officename": "Asarfabad Thal B.O",
    "officeType": "B.O",
    "Deliverystatus": "Delivery",
    "divisionname": "Meerut",
    "regionname": "Bareilly",
    "circlename": "Uttar Pradesh",
    "Taluk": "Baraut",
    "Districtname": "Bagpat",
    "statename": "UTTAR PRADESH"
  },
  {
    "pincode": "250623",
    "officename": "Basauli B.O",
    "officeType": "B.O",
    "Deliverystatus": "Delivery",
    "divisionname": "Meerut",
    "regionname": "Bareilly",
    "circlename": "Uttar Pradesh",
    "Taluk": "Baraut",
    "Districtname": "Bagpat",
    "statename": "UTTAR PRADESH"
  },
  {
    "pincode": "250623",
    "officename": "Budhpur B.O",
    "officeType": "B.O",
    "Deliverystatus": "Delivery",
    "divisionname": "Meerut",
    "regionname": "Bareilly",
    "circlename": "Uttar Pradesh",
    "Taluk": "Baraut",
    "Districtname": "Bagpat",
    "statename": "UTTAR PRADESH"
  },
  {
    "pincode": "250623",
    "officename": "Ibrahimpur Mazra B.O",
    "officeType": "B.O",
    "Deliverystatus": "Delivery",
    "divisionname": "Meerut",
    "regionname": "Bareilly",
    "circlename": "Uttar Pradesh",
    "Taluk": "Baraut",
    "Districtname": "Bagpat",
    "statename": "UTTAR PRADESH"
  },
  {
    "pincode": "250623",
    "officename": "Jiwana B.O",
    "officeType": "B.O",
    "Deliverystatus": "Delivery",
    "divisionname": "Meerut",
    "regionname": "Bareilly",
    "circlename": "Uttar Pradesh",
    "Taluk": "Baraut",
    "Districtname": "Bagpat",
    "statename": "UTTAR PRADESH"
  },
  {
    "pincode": "250623",
    "officename": "Kakripur B.O",
    "officeType": "B.O",
    "Deliverystatus": "Delivery",
    "divisionname": "Meerut",
    "regionname": "Bareilly",
    "circlename": "Uttar Pradesh",
    "Taluk": "Baraut",
    "Districtname": "Bagpat",
    "statename": "UTTAR PRADESH"
  },
  {
    "pincode": "250623",
    "officename": "Kasimpur Khari B.O",
    "officeType": "B.O",
    "Deliverystatus": "Delivery",
    "divisionname": "Meerut",
    "regionname": "Bareilly",
    "circlename": "Uttar Pradesh",
    "Taluk": "Baraut",
    "Districtname": "Bagpat",
    "statename": "UTTAR PRADESH"
  },
  {
    "pincode": "250623",
    "officename": "Kirthal B.O",
    "officeType": "B.O",
    "Deliverystatus": "Delivery",
    "divisionname": "Meerut",
    "regionname": "Bareilly",
    "circlename": "Uttar Pradesh",
    "Taluk": "Baraut",
    "Districtname": "Bagpat",
    "statename": "UTTAR PRADESH"
  },
  {
    "pincode": "250623",
    "officename": "Kishanpur Baral S.O",
    "officeType": "S.O",
    "Deliverystatus": "Delivery",
    "divisionname": "Meerut",
    "regionname": "Bareilly",
    "circlename": "Uttar Pradesh",
    "Taluk": "Baraut",
    "Districtname": "Bagpat",
    "statename": "UTTAR PRADESH"
  },
  {
    "pincode": "250623",
    "officename": "Lumb B.O",
    "officeType": "B.O",
    "Deliverystatus": "Delivery",
    "divisionname": "Meerut",
    "regionname": "Bareilly",
    "circlename": "Uttar Pradesh",
    "Taluk": "Baraut",
    "Districtname": "Bagpat",
    "statename": "UTTAR PRADESH"
  },
  {
    "pincode": "250623",
    "officename": "Ramala B.O",
    "officeType": "B.O",
    "Deliverystatus": "Delivery",
    "divisionname": "Meerut",
    "regionname": "Bareilly",
    "circlename": "Uttar Pradesh",
    "Taluk": "Baraut",
    "Districtname": "Bagpat",
    "statename": "UTTAR PRADESH"
  },
  {
    "pincode": "250623",
    "officename": "Soop B.O",
    "officeType": "B.O",
    "Deliverystatus": "Delivery",
    "divisionname": "Meerut",
    "regionname": "Bareilly",
    "circlename": "Uttar Pradesh",
    "Taluk": "Baraut",
    "Districtname": "Bagpat",
    "statename": "UTTAR PRADESH"
  }
]
