[
  {
    "pincode": "250617",
    "officename": "Badarkha B.O",
    "officeType": "B.O",
    "Deliverystatus": "Delivery",
    "divisionname": "Meerut",
    "regionname": "Bareilly",
    "circlename": "Uttar Pradesh",
    "Taluk": "Baghpat",
    "Districtname": "Bagpat",
    "statename": "UTTAR PRADESH"
  },
  {
    "pincode": "250617",
    "officename": "Bodha B.O",
    "officeType": "B.O",
    "Deliverystatus": "Delivery",
    "divisionname": "Meerut",
    "regionname": "Bareilly",
    "circlename": "Uttar Pradesh",
    "Taluk": "Baraut",
    "Districtname": "Bagpat",
    "statename": "UTTAR PRADESH"
  },
  {
    "pincode": "250617",
    "officename": "Chhaprauli S.O",
    "officeType": "S.O",
    "Deliverystatus": "Delivery",
    "divisionname": "Meerut",
    "regionname": "Bareilly",
    "circlename": "Uttar Pradesh",
    "Taluk": "Baghpat",
    "Districtname": "Bagpat",
    "statename": "UTTAR PRADESH"
  },
  {
    "pincode": "250617",
    "officename": "Halalpur B.O",
    "officeType": "B.O",
    "Deliverystatus": "Delivery",
    "divisionname": "Meerut",
    "regionname": "Bareilly",
    "circlename": "Uttar Pradesh",
    "Taluk": "Baghpat",
    "Districtname": "Bagpat",
    "statename": "UTTAR PRADESH"
  },
  {
    "pincode": "250617",
    "officename": "Hewa B.O",
    "officeType": "B.O",
    "Deliverystatus": "Delivery",
    "divisionname": "Meerut",
    "regionname": "Bareilly",
    "circlename": "Uttar Pradesh",
    "Taluk": "Baraut",
    "Districtname": "Bagpat",
    "statename": "UTTAR PRADESH"
  },
  {
    "pincode": "250617",
    "officename": "Kakor Kalan B.O",
    "officeType": "B.O",
    "Deliverystatus": "Delivery",
    "divisionname": "Meerut",
    "regionname": "Bareilly",
    "circlename": "Uttar Pradesh",
    "Taluk": "Baraut",
    "Districtname": "Bagpat",
    "statename": "UTTAR PRADESH"
  },
  {
    "pincode": "250617",
    "officename": "Kurri B.O",
    "officeType": "B.O",
    "Deliverystatus": "Delivery",
    "divisionname": "Meerut",
    "regionname": "Bareilly",
    "circlename": "Uttar Pradesh",
    "Taluk": "Baghpat",
    "Districtname": "Bagpat",
    "statename": "UTTAR PRADESH"
  },
  {
    "pincode": "250617",
    "officename": "Nangal B.O",
    "officeType": "B.O",
    "Deliverystatus": "Delivery",
    "divisionname": "Meerut",
    "regionname": "Bareilly",
    "circlename": "Uttar Pradesh",
    "Taluk": "Meerut",
    "Districtname": "Bagpat",
    "statename": "UTTAR PRADESH"
  },
  {
    "pincode": "250617",
    "officename": "Rathaura B.O",
    "officeType": "B.O",
    "Deliverystatus": "Delivery",
    "divisionname": "Meerut",
    "regionname": "Bareilly",
    "circlename": "Uttar Pradesh",
    "Taluk": "Baraut",
    "Districtname": "Bagpat",
    "statename": "UTTAR PRADESH"
  },
  {
    "pincode": "250617",
    "officename": "Sabga B.O",
    "officeType": "B.O",
    "Deliverystatus": "Delivery",
    "divisionname": "Meerut",
    "regionname": "Bareilly",
    "circlename": "Uttar Pradesh",
    "Taluk": "Baraut",
    "Districtname": "Bagpat",
    "statename": "UTTAR PRADESH"
  },
  {
    "pincode": "250617",
    "officename": "Sherpur Luhari B.O",
    "officeType": "B.O",
    "Deliverystatus": "Delivery",
    "divisionname": "Meerut",
    "regionname": "Bareilly",
    "circlename": "Uttar Pradesh",
    "Taluk": "Baraut",
    "Districtname": "Bagpat",
    "statename": "UTTAR PRADESH"
  },
  {
    "pincode": "250617",
    "officename": "Silana B.O",
    "officeType": "B.O",
    "Deliverystatus": "Delivery",
    "divisionname": "Meerut",
    "regionname": "Bareilly",
    "circlename": "Uttar Pradesh",
    "Taluk": "Baruat",
    "Districtname": "Bagpat",
    "statename": "UTTAR PRADESH"
  },
  {
    "pincode": "250617",
    "officename": "Tugana B.O",
    "officeType": "B.O",
    "Deliverystatus": "Delivery",
    "divisionname": "Meerut",
    "regionname": "Bareilly",
    "circlename": "Uttar Pradesh",
    "Taluk": "Baraut",
    "Districtname": "Bagpat",
    "statename": "UTTAR PRADESH"
  }
]
