[
  {
    "pincode": "250622",
    "officename": "Azampur Mulsam B.O",
    "officeType": "B.O",
    "Deliverystatus": "Delivery",
    "divisionname": "Meerut",
    "regionname": "Bareilly",
    "circlename": "Uttar Pradesh",
    "Taluk": "Baraut",
    "Districtname": "Bagpat",
    "statename": "UTTAR PRADESH"
  },
  {
    "pincode": "250622",
    "officename": "Begmabad Garhi B.O",
    "officeType": "B.O",
    "Deliverystatus": "Delivery",
    "divisionname": "Meerut",
    "regionname": "Bareilly",
    "circlename": "Uttar Pradesh",
    "Taluk": "Baraut",
    "Districtname": "Bagpat",
    "statename": "UTTAR PRADESH"
  },
  {
    "pincode": "250622",
    "officename": "Bharal B.O",
    "officeType": "B.O",
    "Deliverystatus": "Delivery",
    "divisionname": "Meerut",
    "regionname": "Bareilly",
    "circlename": "Uttar Pradesh",
    "Taluk": "Baraut",
    "Districtname": "Bagpat",
    "statename": "UTTAR PRADESH"
  },
  {
    "pincode": "250622",
    "officename": "Daha B.O",
    "officeType": "B.O",
    "Deliverystatus": "Delivery",
    "divisionname": "Meerut",
    "regionname": "Bareilly",
    "circlename": "Uttar Pradesh",
    "Taluk": "Baraut",
    "Districtname": "Bagpat",
    "statename": "UTTAR PRADESH"
  },
  {
    "pincode": "250622",
    "officename": "Dhanaura Tikri B.O",
    "officeType": "B.O",
    "Deliverystatus": "Delivery",
    "divisionname": "Meerut",
    "regionname": "Bareilly",
    "circlename": "Uttar Pradesh",
    "Taluk": "Baraut",
    "Districtname": "Bagpat",
    "statename": "UTTAR PRADESH"
  },
  {
    "pincode": "250622",
    "officename": "Doghat S.O",
    "officeType": "S.O",
    "Deliverystatus": "Delivery",
    "divisionname": "Meerut",
    "regionname": "Bareilly",
    "circlename": "Uttar Pradesh",
    "Taluk": "Baghpat",
    "Districtname": "Bagpat",
    "statename": "UTTAR PRADESH"
  },
  {
    "pincode": "250622",
    "officename": "Gaidbara B.O",
    "officeType": "B.O",
    "Deliverystatus": "Delivery",
    "divisionname": "Meerut",
    "regionname": "Bareilly",
    "circlename": "Uttar Pradesh",
    "Taluk": "Baraut",
    "Districtname": "Bagpat",
    "statename": "UTTAR PRADESH"
  },
  {
    "pincode": "250622",
    "officename": "Idrishpur B.O",
    "officeType": "B.O",
    "Deliverystatus": "Delivery",
    "divisionname": "Meerut",
    "regionname": "Bareilly",
    "circlename": "Uttar Pradesh",
    "Taluk": "Baraut",
    "Districtname": "Bagpat",
    "statename": "UTTAR PRADESH"
  },
  {
    "pincode": "250622",
    "officename": "Jhundpur B.O",
    "officeType": "B.O",
    "Deliverystatus": "Delivery",
    "divisionname": "Meerut",
    "regionname": "Bareilly",
    "circlename": "Uttar Pradesh",
    "Taluk": "Baraut",
    "Districtname": "Bagpat",
    "statename": "UTTAR PRADESH"
  },
  {
    "pincode": "250622",
    "officename": "Kanhar B.O",
    "officeType": "B.O",
    "Deliverystatus": "Delivery",
    "divisionname": "Meerut",
    "regionname": "Bareilly",
    "circlename": "Uttar Pradesh",
    "Taluk": "Baraut",
    "Districtname": "Bagpat",
    "statename": "UTTAR PRADESH"
  },
  {
    "pincode": "250622",
    "officename": "Muzaffarpur Kanwara B.O",
    "officeType": "B.O",
    "Deliverystatus": "Delivery",
    "divisionname": "Meerut",
    "regionname": "Bareilly",
    "circlename": "Uttar Pradesh",
    "Taluk": "Baraut",
    "Districtname": "Bagpat",
    "statename": "UTTAR PRADESH"
  },
  {
    "pincode": "250622",
    "officename": "Palra B.O",
    "officeType": "B.O",
    "Deliverystatus": "Delivery",
    "divisionname": "Meerut",
    "regionname": "Bareilly",
    "circlename": "Uttar Pradesh",
    "Taluk": "Baraut",
    "Districtname": "Bagpat",
    "statename": "UTTAR PRADESH"
  },
  {
    "pincode": "250622",
    "officename": "Palri B.O",
    "officeType": "B.O",
    "Deliverystatus": "Delivery",
    "divisionname": "Meerut",
    "regionname": "Bareilly",
    "circlename": "Uttar Pradesh",
    "Taluk": "Baraut",
    "Districtname": "Bagpat",
    "statename": "UTTAR PRADESH"
  },
  {
    "pincode": "250622",
    "officename": "Pusar B.O",
    "officeType": "B.O",
    "Deliverystatus": "Delivery",
    "divisionname": "Meerut",
    "regionname": "Bareilly",
    "circlename": "Uttar Pradesh",
    "Taluk": "Baraut",
    "Districtname": "Bagpat",
    "statename": "UTTAR PRADESH"
  }
]
