[
  {
    "pincode": "251201",
    "officename": "Antwara B.O",
    "officeType": "B.O",
    "Deliverystatus": "Delivery",
    "divisionname": "Muzaffarnagar",
    "regionname": "Bareilly",
    "circlename": "Uttar Pradesh",
    "Taluk": "Jansath",
    "Districtname": "Muzaffarnagar",
    "statename": "UTTAR PRADESH"
  },
  {
    "pincode": "251201",
    "officename": "Barsoo B.O",
    "officeType": "B.O",
    "Deliverystatus": "Delivery",
    "divisionname": "Muzaffarnagar",
    "regionname": "Bareilly",
    "circlename": "Uttar Pradesh",
    "Taluk": "Jansath",
    "Districtname": "Muzaffarnagar",
    "statename": "UTTAR PRADESH"
  },
  {
    "pincode": "251201",
    "officename": "Bhainsi B.O",
    "officeType": "B.O",
    "Deliverystatus": "Delivery",
    "divisionname": "Muzaffarnagar",
    "regionname": "Bareilly",
    "circlename": "Uttar Pradesh",
    "Taluk": "Jansath",
    "Districtname": "Muzaffarnagar",
    "statename": "UTTAR PRADESH"
  },
  {
    "pincode": "251201",
    "officename": "Bhangela B.O",
    "officeType": "B.O",
    "Deliverystatus": "Delivery",
    "divisionname": "Muzaffarnagar",
    "regionname": "Bareilly",
    "circlename": "Uttar Pradesh",
    "Taluk": "Jansath",
    "Districtname": "Muzaffarnagar",
    "statename": "UTTAR PRADESH"
  },
  {
    "pincode": "251201",
    "officename": "Chand Samad B.O",
    "officeType": "B.O",
    "Deliverystatus": "Delivery",
    "divisionname": "Muzaffarnagar",
    "regionname": "Bareilly",
    "circlename": "Uttar Pradesh",
    "Taluk": "Jansath",
    "Districtname": "Muzaffarnagar",
    "statename": "UTTAR PRADESH"
  },
  {
    "pincode": "251201",
    "officename": "Chand Seena B.O",
    "officeType": "B.O",
    "Deliverystatus": "Delivery",
    "divisionname": "Muzaffarnagar",
    "regionname": "Bareilly",
    "circlename": "Uttar Pradesh",
    "Taluk": "Jansath",
    "Districtname": "Muzaffarnagar",
    "statename": "UTTAR PRADESH"
  },
  {
    "pincode": "251201",
    "officename": "Dayalpuri B.O",
    "officeType": "B.O",
    "Deliverystatus": "Delivery",
    "divisionname": "Muzaffarnagar",
    "regionname": "Bareilly",
    "circlename": "Uttar Pradesh",
    "Taluk": "Muzaffarnagar",
    "Districtname": "Muzaffarnagar",
    "statename": "UTTAR PRADESH"
  },
  {
    "pincode": "251201",
    "officename": "Fahimpur Khurd B.O",
    "officeType": "B.O",
    "Deliverystatus": "Delivery",
    "divisionname": "Muzaffarnagar",
    "regionname": "Bareilly",
    "circlename": "Uttar Pradesh",
    "Taluk": "Jansath",
    "Districtname": "Muzaffarnagar",
    "statename": "UTTAR PRADESH"
  },
  {
    "pincode": "251201",
    "officename": "Galibpur B.O",
    "officeType": "B.O",
    "Deliverystatus": "Delivery",
    "divisionname": "Muzaffarnagar",
    "regionname": "Bareilly",
    "circlename": "Uttar Pradesh",
    "Taluk": "Jansath",
    "Districtname": "Muzaffarnagar",
    "statename": "UTTAR PRADESH"
  },
  {
    "pincode": "251201",
    "officename": "Incholi B.O",
    "officeType": "B.O",
    "Deliverystatus": "Delivery",
    "divisionname": "Muzaffarnagar",
    "regionname": "Bareilly",
    "circlename": "Uttar Pradesh",
    "Taluk": "Budhana",
    "Districtname": "Muzaffarnagar",
    "statename": "UTTAR PRADESH"
  },
  {
    "pincode": "251201",
    "officename": "Jasaula B.O",
    "officeType": "B.O",
    "Deliverystatus": "Delivery",
    "divisionname": "Muzaffarnagar",
    "regionname": "Bareilly",
    "circlename": "Uttar Pradesh",
    "Taluk": "Jansath",
    "Districtname": "Muzaffarnagar",
    "statename": "UTTAR PRADESH"
  },
  {
    "pincode": "251201",
    "officename": "Kailwara Kalan B.O",
    "officeType": "B.O",
    "Deliverystatus": "Delivery",
    "divisionname": "Muzaffarnagar",
    "regionname": "Bareilly",
    "circlename": "Uttar Pradesh",
    "Taluk": "Jansath",
    "Districtname": "Muzaffarnagar",
    "statename": "UTTAR PRADESH"
  },
  {
    "pincode": "251201",
    "officename": "Khanjapur B.O",
    "officeType": "B.O",
    "Deliverystatus": "Delivery",
    "divisionname": "Muzaffarnagar",
    "regionname": "Bareilly",
    "circlename": "Uttar Pradesh",
    "Taluk": "Jansath",
    "Districtname": "Muzaffarnagar",
    "statename": "UTTAR PRADESH"
  },
  {
    "pincode": "251201",
    "officename": "Khatauli Bazar S.O",
    "officeType": "S.O",
    "Deliverystatus": "Non-Delivery",
    "divisionname": "Muzaffarnagar",
    "regionname": "Bareilly",
    "circlename": "Uttar Pradesh",
    "Taluk": "Muzaffarnagar",
    "Districtname": "Muzaffarnagar",
    "statename": "UTTAR PRADESH"
  },
  {
    "pincode": "251201",
    "officename": "Khatauli S.O",
    "officeType": "S.O",
    "Deliverystatus": "Delivery",
    "divisionname": "Muzaffarnagar",
    "regionname": "Bareilly",
    "circlename": "Uttar Pradesh",
    "Taluk": "Muzaffarnagar",
    "Districtname": "Muzaffarnagar",
    "statename": "UTTAR PRADESH"
  },
  {
    "pincode": "251201",
    "officename": "Kheri Rangdhang B.O",
    "officeType": "B.O",
    "Deliverystatus": "Delivery",
    "divisionname": "Muzaffarnagar",
    "regionname": "Bareilly",
    "circlename": "Uttar Pradesh",
    "Taluk": "Muzaffarnagar",
    "Districtname": "Muzaffarnagar",
    "statename": "UTTAR PRADESH"
  },
  {
    "pincode": "251201",
    "officename": "Nawla B.O",
    "officeType": "B.O",
    "Deliverystatus": "Delivery",
    "divisionname": "Muzaffarnagar",
    "regionname": "Bareilly",
    "circlename": "Uttar Pradesh",
    "Taluk": "Jansath",
    "Districtname": "Muzaffarnagar",
    "statename": "UTTAR PRADESH"
  },
  {
    "pincode": "251201",
    "officename": "Pamnawali B.O",
    "officeType": "B.O",
    "Deliverystatus": "Delivery",
    "divisionname": "Muzaffarnagar",
    "regionname": "Bareilly",
    "circlename": "Uttar Pradesh",
    "Taluk": "Jansath",
    "Districtname": "Muzaffarnagar",
    "statename": "UTTAR PRADESH"
  },
  {
    "pincode": "251201",
    "officename": "Phulat B.O",
    "officeType": "B.O",
    "Deliverystatus": "Delivery",
    "divisionname": "Muzaffarnagar",
    "regionname": "Bareilly",
    "circlename": "Uttar Pradesh",
    "Taluk": "Jansath",
    "Districtname": "Muzaffarnagar",
    "statename": "UTTAR PRADESH"
  },
  {
    "pincode": "251201",
    "officename": "Pipalhera B.O",
    "officeType": "B.O",
    "Deliverystatus": "Delivery",
    "divisionname": "Muzaffarnagar",
    "regionname": "Bareilly",
    "circlename": "Uttar Pradesh",
    "Taluk": "Muzaffarnagar",
    "Districtname": "Muzaffarnagar",
    "statename": "UTTAR PRADESH"
  },
  {
    "pincode": "251201",
    "officename": "Sarai Rasulpur B.O",
    "officeType": "B.O",
    "Deliverystatus": "Delivery",
    "divisionname": "Muzaffarnagar",
    "regionname": "Bareilly",
    "circlename": "Uttar Pradesh",
    "Taluk": "Jansath",
    "Districtname": "Muzaffarnagar",
    "statename": "UTTAR PRADESH"
  },
  {
    "pincode": "251201",
    "officename": "Satguru Nagar B.O",
    "officeType": "B.O",
    "Deliverystatus": "Delivery",
    "divisionname": "Muzaffarnagar",
    "regionname": "Bareilly",
    "circlename": "Uttar Pradesh",
    "Taluk": "Muzaffarnagar",
    "Districtname": "Muzaffarnagar",
    "statename": "UTTAR PRADESH"
  },
  {
    "pincode": "251201",
    "officename": "Satheri B.O",
    "officeType": "B.O",
    "Deliverystatus": "Delivery",
    "divisionname": "Muzaffarnagar",
    "regionname": "Bareilly",
    "circlename": "Uttar Pradesh",
    "Taluk": "Jansath",
    "Districtname": "Muzaffarnagar",
    "statename": "UTTAR PRADESH"
  },
  {
    "pincode": "251201",
    "officename": "Sugar Mill Road Khatauli S.O",
    "officeType": "S.O",
    "Deliverystatus": "Non-Delivery",
    "divisionname": "Muzaffarnagar",
    "regionname": "Bareilly",
    "circlename": "Uttar Pradesh",
    "Taluk": "Muzaffarnagar",
    "Districtname": "Muzaffarnagar",
    "statename": "UTTAR PRADESH"
  },
  {
    "pincode": "251201",
    "officename": "Titoda B.O",
    "officeType": "B.O",
    "Deliverystatus": "Delivery",
    "divisionname": "Muzaffarnagar",
    "regionname": "Bareilly",
    "circlename": "Uttar Pradesh",
    "Taluk": "Jansath",
    "Districtname": "Muzaffarnagar",
    "statename": "UTTAR PRADESH"
  }
]
