[
  {
    "pincode": "251308",
    "officename": "Behra Thru B.O",
    "officeType": "B.O",
    "Deliverystatus": "Delivery",
    "divisionname": "Muzaffarnagar",
    "regionname": "Bareilly",
    "circlename": "Uttar Pradesh",
    "Taluk": "Muzaffarnagar",
    "Districtname": "Muzaffarnagar",
    "statename": "UTTAR PRADESH"
  },
  {
    "pincode": "251308",
    "officename": "Belra B.O",
    "officeType": "B.O",
    "Deliverystatus": "Delivery",
    "divisionname": "Muzaffarnagar",
    "regionname": "Bareilly",
    "circlename": "Uttar Pradesh",
    "Taluk": "Muzaffarnagar",
    "Districtname": "Muzaffarnagar",
    "statename": "UTTAR PRADESH"
  },
  {
    "pincode": "251308",
    "officename": "Bhopa S.O",
    "officeType": "S.O",
    "Deliverystatus": "Delivery",
    "divisionname": "Muzaffarnagar",
    "regionname": "Bareilly",
    "circlename": "Uttar Pradesh",
    "Taluk": "Muzafarnagar",
    "Districtname": "Muzaffarnagar",
    "statename": "UTTAR PRADESH"
  },
  {
    "pincode": "251308",
    "officename": "Jat Mujhera B.O",
    "officeType": "B.O",
    "Deliverystatus": "Delivery",
    "divisionname": "Muzaffarnagar",
    "regionname": "Bareilly",
    "circlename": "Uttar Pradesh",
    "Taluk": "Muzaffarnagar",
    "Districtname": "Muzaffarnagar",
    "statename": "UTTAR PRADESH"
  },
  {
    "pincode": "251308",
    "officename": "Jauli B.O",
    "officeType": "B.O",
    "Deliverystatus": "Delivery",
    "divisionname": "Muzaffarnagar",
    "regionname": "Bareilly",
    "circlename": "Uttar Pradesh",
    "Taluk": "Muzaffarnagar",
    "Districtname": "Muzaffarnagar",
    "statename": "UTTAR PRADESH"
  },
  {
    "pincode": "251308",
    "officename": "Jhal Nirgajani B.O",
    "officeType": "B.O",
    "Deliverystatus": "Delivery",
    "divisionname": "Muzaffarnagar",
    "regionname": "Bareilly",
    "circlename": "Uttar Pradesh",
    "Taluk": "Muzaffarnagar",
    "Districtname": "Muzaffarnagar",
    "statename": "UTTAR PRADESH"
  },
  {
    "pincode": "251308",
    "officename": "Malpura B.O",
    "officeType": "B.O",
    "Deliverystatus": "Delivery",
    "divisionname": "Muzaffarnagar",
    "regionname": "Bareilly",
    "circlename": "Uttar Pradesh",
    "Taluk": "Muzaffarnagar",
    "Districtname": "Muzaffarnagar",
    "statename": "UTTAR PRADESH"
  },
  {
    "pincode": "251308",
    "officename": "Nagla Bujurg B.O",
    "officeType": "B.O",
    "Deliverystatus": "Delivery",
    "divisionname": "Muzaffarnagar",
    "regionname": "Bareilly",
    "circlename": "Uttar Pradesh",
    "Taluk": "Muzaffarnagar",
    "Districtname": "Muzaffarnagar",
    "statename": "UTTAR PRADESH"
  },
  {
    "pincode": "251308",
    "officename": "Rahakada B.O",
    "officeType": "B.O",
    "Deliverystatus": "Delivery",
    "divisionname": "Muzaffarnagar",
    "regionname": "Bareilly",
    "circlename": "Uttar Pradesh",
    "Taluk": "Muzaffarnagar",
    "Districtname": "Muzaffarnagar",
    "statename": "UTTAR PRADESH"
  },
  {
    "pincode": "251308",
    "officename": "Rahamatpur Garwara B.O",
    "officeType": "B.O",
    "Deliverystatus": "Delivery",
    "divisionname": "Muzaffarnagar",
    "regionname": "Bareilly",
    "circlename": "Uttar Pradesh",
    "Taluk": "Muzaffarnagar",
    "Districtname": "Muzaffarnagar",
    "statename": "UTTAR PRADESH"
  },
  {
    "pincode": "251308",
    "officename": "Sikkri B.O",
    "officeType": "B.O",
    "Deliverystatus": "Delivery",
    "divisionname": "Muzaffarnagar",
    "regionname": "Bareilly",
    "circlename": "Uttar Pradesh",
    "Taluk": "Muzaffarnagar",
    "Districtname": "Muzaffarnagar",
    "statename": "UTTAR PRADESH"
  },
  {
    "pincode": "251308",
    "officename": "Tissa B.O",
    "officeType": "B.O",
    "Deliverystatus": "Delivery",
    "divisionname": "Muzaffarnagar",
    "regionname": "Bareilly",
    "circlename": "Uttar Pradesh",
    "Taluk": "Jansath",
    "Districtname": "Muzaffarnagar",
    "statename": "UTTAR PRADESH"
  }
]
