[
  {
    "pincode": "251314",
    "officename": "Bajidpur Kawali B.O",
    "officeType": "B.O",
    "Deliverystatus": "Delivery",
    "divisionname": "Muzaffarnagar",
    "regionname": "Bareilly",
    "circlename": "Uttar Pradesh",
    "Taluk": "Jansath",
    "Districtname": "Muzaffarnagar",
    "statename": "UTTAR PRADESH"
  },
  {
    "pincode": "251314",
    "officename": "Behra Assa B.O",
    "officeType": "B.O",
    "Deliverystatus": "Delivery",
    "divisionname": "Muzaffarnagar",
    "regionname": "Bareilly",
    "circlename": "Uttar Pradesh",
    "Taluk": "Jansath",
    "Districtname": "Muzaffarnagar",
    "statename": "UTTAR PRADESH"
  },
  {
    "pincode": "251314",
    "officename": "Chittora B.O",
    "officeType": "B.O",
    "Deliverystatus": "Delivery",
    "divisionname": "Muzaffarnagar",
    "regionname": "Bareilly",
    "circlename": "Uttar Pradesh",
    "Taluk": "Jansath",
    "Districtname": "Muzaffarnagar",
    "statename": "UTTAR PRADESH"
  },
  {
    "pincode": "251314",
    "officename": "Dhansari B.O",
    "officeType": "B.O",
    "Deliverystatus": "Delivery",
    "divisionname": "Muzaffarnagar",
    "regionname": "Bareilly",
    "circlename": "Uttar Pradesh",
    "Taluk": "Jansath",
    "Districtname": "Muzaffarnagar",
    "statename": "UTTAR PRADESH"
  },
  {
    "pincode": "251314",
    "officename": "Ghatayan B.O",
    "officeType": "B.O",
    "Deliverystatus": "Delivery",
    "divisionname": "Muzaffarnagar",
    "regionname": "Bareilly",
    "circlename": "Uttar Pradesh",
    "Taluk": "Jansath",
    "Districtname": "Muzaffarnagar",
    "statename": "UTTAR PRADESH"
  },
  {
    "pincode": "251314",
    "officename": "Jandheri B.O",
    "officeType": "B.O",
    "Deliverystatus": "Delivery",
    "divisionname": "Muzaffarnagar",
    "regionname": "Bareilly",
    "circlename": "Uttar Pradesh",
    "Taluk": "Jansath",
    "Districtname": "Muzaffarnagar",
    "statename": "UTTAR PRADESH"
  },
  {
    "pincode": "251314",
    "officename": "Jansath S.O",
    "officeType": "S.O",
    "Deliverystatus": "Delivery",
    "divisionname": "Muzaffarnagar",
    "regionname": "Bareilly",
    "circlename": "Uttar Pradesh",
    "Taluk": "Jansath",
    "Districtname": "Muzaffarnagar",
    "statename": "UTTAR PRADESH"
  },
  {
    "pincode": "251314",
    "officename": "Kawal B.O",
    "officeType": "B.O",
    "Deliverystatus": "Delivery",
    "divisionname": "Muzaffarnagar",
    "regionname": "Bareilly",
    "circlename": "Uttar Pradesh",
    "Taluk": "Jansath",
    "Districtname": "Muzaffarnagar",
    "statename": "UTTAR PRADESH"
  },
  {
    "pincode": "251314",
    "officename": "Kujhera B.O",
    "officeType": "B.O",
    "Deliverystatus": "Delivery",
    "divisionname": "Muzaffarnagar",
    "regionname": "Bareilly",
    "circlename": "Uttar Pradesh",
    "Taluk": "Jansath",
    "Districtname": "Muzaffarnagar",
    "statename": "UTTAR PRADESH"
  },
  {
    "pincode": "251314",
    "officename": "Nagla Madore College B.O",
    "officeType": "B.O",
    "Deliverystatus": "Delivery",
    "divisionname": "Muzaffarnagar",
    "regionname": "Bareilly",
    "circlename": "Uttar Pradesh",
    "Taluk": "Jansath",
    "Districtname": "Muzaffarnagar",
    "statename": "UTTAR PRADESH"
  },
  {
    "pincode": "251314",
    "officename": "Rajpur Kalan B.O",
    "officeType": "B.O",
    "Deliverystatus": "Delivery",
    "divisionname": "Muzaffarnagar",
    "regionname": "Bareilly",
    "circlename": "Uttar Pradesh",
    "Taluk": "Jansath",
    "Districtname": "Muzaffarnagar",
    "statename": "UTTAR PRADESH"
  },
  {
    "pincode": "251314",
    "officename": "Salarpur B.O",
    "officeType": "B.O",
    "Deliverystatus": "Delivery",
    "divisionname": "Muzaffarnagar",
    "regionname": "Bareilly",
    "circlename": "Uttar Pradesh",
    "Taluk": "Jansath",
    "Districtname": "Muzaffarnagar",
    "statename": "UTTAR PRADESH"
  },
  {
    "pincode": "251314",
    "officename": "Sambhal Hera B.O",
    "officeType": "B.O",
    "Deliverystatus": "Delivery",
    "divisionname": "Muzaffarnagar",
    "regionname": "Bareilly",
    "circlename": "Uttar Pradesh",
    "Taluk": "Jansath",
    "Districtname": "Muzaffarnagar",
    "statename": "UTTAR PRADESH"
  },
  {
    "pincode": "251314",
    "officename": "Tehsil Jansath S.O",
    "officeType": "S.O",
    "Deliverystatus": "Non-Delivery",
    "divisionname": "Muzaffarnagar",
    "regionname": "Bareilly",
    "circlename": "Uttar Pradesh",
    "Taluk": "Muzaffarnagar",
    "Districtname": "Muzaffarnagar",
    "statename": "UTTAR PRADESH"
  },
  {
    "pincode": "251314",
    "officename": "Tissang B.O",
    "officeType": "B.O",
    "Deliverystatus": "Delivery",
    "divisionname": "Muzaffarnagar",
    "regionname": "Bareilly",
    "circlename": "Uttar Pradesh",
    "Taluk": "Jansath",
    "Districtname": "Muzaffarnagar",
    "statename": "UTTAR PRADESH"
  }
]
