[
  {
    "pincode": "251301",
    "officename": "Alipur Kheri S.O",
    "officeType": "S.O",
    "Deliverystatus": "Delivery",
    "divisionname": "Muzaffarnagar",
    "regionname": "Bareilly",
    "circlename": "Uttar Pradesh",
    "Taluk": "Muzaffarnagar",
    "Districtname": "Muzaffarnagar",
    "statename": "UTTAR PRADESH"
  },
  {
    "pincode": "251301",
    "officename": "Budina Kalan B.O",
    "officeType": "B.O",
    "Deliverystatus": "Delivery",
    "divisionname": "Muzaffarnagar",
    "regionname": "Bareilly",
    "circlename": "Uttar Pradesh",
    "Taluk": "Muzaffarnagar",
    "Districtname": "Muzaffarnagar",
    "statename": "UTTAR PRADESH"
  },
  {
    "pincode": "251301",
    "officename": "Jasoi B.O",
    "officeType": "B.O",
    "Deliverystatus": "Delivery",
    "divisionname": "Muzaffarnagar",
    "regionname": "Bareilly",
    "circlename": "Uttar Pradesh",
    "Taluk": "Muzaffarnagar",
    "Districtname": "Muzaffarnagar",
    "statename": "UTTAR PRADESH"
  },
  {
    "pincode": "251301",
    "officename": "Mohamad Pur Madan B.O",
    "officeType": "B.O",
    "Deliverystatus": "Delivery",
    "divisionname": "Muzaffarnagar",
    "regionname": "Bareilly",
    "circlename": "Uttar Pradesh",
    "Taluk": "Muzaffarnagar",
    "Districtname": "Muzaffarnagar",
    "statename": "UTTAR PRADESH"
  },
  {
    "pincode": "251301",
    "officename": "Nagala Pithora B.O",
    "officeType": "B.O",
    "Deliverystatus": "Delivery",
    "divisionname": "Muzaffarnagar",
    "regionname": "Bareilly",
    "circlename": "Uttar Pradesh",
    "Taluk": "Muzaffarnagar",
    "Districtname": "Muzaffarnagar",
    "statename": "UTTAR PRADESH"
  },
  {
    "pincode": "251301",
    "officename": "Roni Hazipur B.O",
    "officeType": "B.O",
    "Deliverystatus": "Delivery",
    "divisionname": "Muzaffarnagar",
    "regionname": "Bareilly",
    "circlename": "Uttar Pradesh",
    "Taluk": "Muzaffarnagar",
    "Districtname": "Muzaffarnagar",
    "statename": "UTTAR PRADESH"
  },
  {
    "pincode": "251301",
    "officename": "Sonta B.O",
    "officeType": "B.O",
    "Deliverystatus": "Delivery",
    "divisionname": "Muzaffarnagar",
    "regionname": "Bareilly",
    "circlename": "Uttar Pradesh",
    "Taluk": "Shamli",
    "Districtname": "Muzaffarnagar",
    "statename": "UTTAR PRADESH"
  },
  {
    "pincode": "251301",
    "officename": "Titawi B.O",
    "officeType": "B.O",
    "Deliverystatus": "Delivery",
    "divisionname": "Muzaffarnagar",
    "regionname": "Bareilly",
    "circlename": "Uttar Pradesh",
    "Taluk": "Muzaffarnagar",
    "Districtname": "Muzaffarnagar",
    "statename": "UTTAR PRADESH"
  }
]
