[
  {
    "pincode": "251309",
    "officename": "Alipur Aterna B.O",
    "officeType": "B.O",
    "Deliverystatus": "Delivery",
    "divisionname": "Muzaffarnagar",
    "regionname": "Bareilly",
    "circlename": "Uttar Pradesh",
    "Taluk": "Budhna",
    "Districtname": "Muzaffarnagar",
    "statename": "UTTAR PRADESH"
  },
  {
    "pincode": "251309",
    "officename": "Barkata B.O",
    "officeType": "B.O",
    "Deliverystatus": "Delivery",
    "divisionname": "Muzaffarnagar",
    "regionname": "Bareilly",
    "circlename": "Uttar Pradesh",
    "Taluk": "Budhana",
    "Districtname": "Muzaffarnagar",
    "statename": "UTTAR PRADESH"
  },
  {
    "pincode": "251309",
    "officename": "Baroda B.O",
    "officeType": "B.O",
    "Deliverystatus": "Delivery",
    "divisionname": "Muzaffarnagar",
    "regionname": "Bareilly",
    "circlename": "Uttar Pradesh",
    "Taluk": "Budhana",
    "Districtname": "Muzaffarnagar",
    "statename": "UTTAR PRADESH"
  },
  {
    "pincode": "251309",
    "officename": "Bitawada B.O",
    "officeType": "B.O",
    "Deliverystatus": "Delivery",
    "divisionname": "Muzaffarnagar",
    "regionname": "Bareilly",
    "circlename": "Uttar Pradesh",
    "Taluk": "Budhana",
    "Districtname": "Muzaffarnagar",
    "statename": "UTTAR PRADESH"
  },
  {
    "pincode": "251309",
    "officename": "Budhana S.O",
    "officeType": "S.O",
    "Deliverystatus": "Delivery",
    "divisionname": "Muzaffarnagar",
    "regionname": "Bareilly",
    "circlename": "Uttar Pradesh",
    "Taluk": "Budhana",
    "Districtname": "Muzaffarnagar",
    "statename": "UTTAR PRADESH"
  },
  {
    "pincode": "251309",
    "officename": "Dabheri Rasulpur B.O",
    "officeType": "B.O",
    "Deliverystatus": "Delivery",
    "divisionname": "Muzaffarnagar",
    "regionname": "Bareilly",
    "circlename": "Uttar Pradesh",
    "Taluk": "Budhana",
    "Districtname": "Muzaffarnagar",
    "statename": "UTTAR PRADESH"
  },
  {
    "pincode": "251309",
    "officename": "Garhi Sakhawatpur B.O",
    "officeType": "B.O",
    "Deliverystatus": "Delivery",
    "divisionname": "Muzaffarnagar",
    "regionname": "Bareilly",
    "circlename": "Uttar Pradesh",
    "Taluk": "Budhana",
    "Districtname": "Muzaffarnagar",
    "statename": "UTTAR PRADESH"
  },
  {
    "pincode": "251309",
    "officename": "Grahi Noabad B.O",
    "officeType": "B.O",
    "Deliverystatus": "Delivery",
    "divisionname": "Muzaffarnagar",
    "regionname": "Bareilly",
    "circlename": "Uttar Pradesh",
    "Taluk": "Budhana",
    "Districtname": "Muzaffarnagar",
    "statename": "UTTAR PRADESH"
  },
  {
    "pincode": "251309",
    "officename": "Hussainabad Bhanwara B.O",
    "officeType": "B.O",
    "Deliverystatus": "Delivery",
    "divisionname": "Muzaffarnagar",
    "regionname": "Bareilly",
    "circlename": "Uttar Pradesh",
    "Taluk": "Budhana",
    "Districtname": "Muzaffarnagar",
    "statename": "UTTAR PRADESH"
  },
  {
    "pincode": "251309",
    "officename": "Hussainpur Kalan B.O",
    "officeType": "B.O",
    "Deliverystatus": "Delivery",
    "divisionname": "Muzaffarnagar",
    "regionname": "Bareilly",
    "circlename": "Uttar Pradesh",
    "Taluk": "Budhana",
    "Districtname": "Muzaffarnagar",
    "statename": "UTTAR PRADESH"
  },
  {
    "pincode": "251309",
    "officename": "Itawa B.O",
    "officeType": "B.O",
    "Deliverystatus": "Delivery",
    "divisionname": "Muzaffarnagar",
    "regionname": "Bareilly",
    "circlename": "Uttar Pradesh",
    "Taluk": "Budhana",
    "Districtname": "Muzaffarnagar",
    "statename": "UTTAR PRADESH"
  },
  {
    "pincode": "251309",
    "officename": "Jaula B.O",
    "officeType": "B.O",
    "Deliverystatus": "Delivery",
    "divisionname": "Muzaffarnagar",
    "regionname": "Bareilly",
    "circlename": "Uttar Pradesh",
    "Taluk": "Budhana",
    "Districtname": "Muzaffarnagar",
    "statename": "UTTAR PRADESH"
  },
  {
    "pincode": "251309",
    "officename": "Kamruddin Nagar B.O",
    "officeType": "B.O",
    "Deliverystatus": "Delivery",
    "divisionname": "Muzaffarnagar",
    "regionname": "Bareilly",
    "circlename": "Uttar Pradesh",
    "Taluk": "Budhana",
    "Districtname": "Muzaffarnagar",
    "statename": "UTTAR PRADESH"
  },
  {
    "pincode": "251309",
    "officename": "Kuralsi B.O",
    "officeType": "B.O",
    "Deliverystatus": "Delivery",
    "divisionname": "Muzaffarnagar",
    "regionname": "Bareilly",
    "circlename": "Uttar Pradesh",
    "Taluk": "Budhana",
    "Districtname": "Muzaffarnagar",
    "statename": "UTTAR PRADESH"
  },
  {
    "pincode": "251309",
    "officename": "Kurawa B.O",
    "officeType": "B.O",
    "Deliverystatus": "Delivery",
    "divisionname": "Muzaffarnagar",
    "regionname": "Bareilly",
    "circlename": "Uttar Pradesh",
    "Taluk": "Budhana",
    "Districtname": "Muzaffarnagar",
    "statename": "UTTAR PRADESH"
  },
  {
    "pincode": "251309",
    "officename": "Kurthal B.O",
    "officeType": "B.O",
    "Deliverystatus": "Delivery",
    "divisionname": "Muzaffarnagar",
    "regionname": "Bareilly",
    "circlename": "Uttar Pradesh",
    "Taluk": "Budhana",
    "Districtname": "Muzaffarnagar",
    "statename": "UTTAR PRADESH"
  },
  {
    "pincode": "251309",
    "officename": "Loi Sarai B.O",
    "officeType": "B.O",
    "Deliverystatus": "Delivery",
    "divisionname": "Muzaffarnagar",
    "regionname": "Bareilly",
    "circlename": "Uttar Pradesh",
    "Taluk": "Budhana",
    "Districtname": "Muzaffarnagar",
    "statename": "UTTAR PRADESH"
  },
  {
    "pincode": "251309",
    "officename": "Luhsana B.O",
    "officeType": "B.O",
    "Deliverystatus": "Delivery",
    "divisionname": "Muzaffarnagar",
    "regionname": "Bareilly",
    "circlename": "Uttar Pradesh",
    "Taluk": "Budhana",
    "Districtname": "Muzaffarnagar",
    "statename": "UTTAR PRADESH"
  },
  {
    "pincode": "251309",
    "officename": "Mohmand Pur Rai Singh B.O",
    "officeType": "B.O",
    "Deliverystatus": "Delivery",
    "divisionname": "Muzaffarnagar",
    "regionname": "Bareilly",
    "circlename": "Uttar Pradesh",
    "Taluk": "Budhana",
    "Districtname": "Muzaffarnagar",
    "statename": "UTTAR PRADESH"
  },
  {
    "pincode": "251309",
    "officename": "Nagwa B.O",
    "officeType": "B.O",
    "Deliverystatus": "Delivery",
    "divisionname": "Muzaffarnagar",
    "regionname": "Bareilly",
    "circlename": "Uttar Pradesh",
    "Taluk": "Budhana",
    "Districtname": "Muzaffarnagar",
    "statename": "UTTAR PRADESH"
  },
  {
    "pincode": "251309",
    "officename": "Nai Abadi Budhana S.O",
    "officeType": "S.O",
    "Deliverystatus": "Non-Delivery",
    "divisionname": "Muzaffarnagar",
    "regionname": "Bareilly",
    "circlename": "Uttar Pradesh",
    "Taluk": "Muzaffarnagar",
    "Districtname": "Muzaffarnagar",
    "statename": "UTTAR PRADESH"
  },
  {
    "pincode": "251309",
    "officename": "Raipur Aterna B.O",
    "officeType": "B.O",
    "Deliverystatus": "Delivery",
    "divisionname": "Muzaffarnagar",
    "regionname": "Bareilly",
    "circlename": "Uttar Pradesh",
    "Taluk": "Budhana",
    "Districtname": "Muzaffarnagar",
    "statename": "UTTAR PRADESH"
  },
  {
    "pincode": "251309",
    "officename": "Reoli Nagla B.O",
    "officeType": "B.O",
    "Deliverystatus": "Delivery",
    "divisionname": "Muzaffarnagar",
    "regionname": "Bareilly",
    "circlename": "Uttar Pradesh",
    "Taluk": "Budhana",
    "Districtname": "Muzaffarnagar",
    "statename": "UTTAR PRADESH"
  },
  {
    "pincode": "251309",
    "officename": "Tanda Majara B.O",
    "officeType": "B.O",
    "Deliverystatus": "Delivery",
    "divisionname": "Muzaffarnagar",
    "regionname": "Bareilly",
    "circlename": "Uttar Pradesh",
    "Taluk": "Budhana",
    "Districtname": "Muzaffarnagar",
    "statename": "UTTAR PRADESH"
  },
  {
    "pincode": "251309",
    "officename": "Toda B.O",
    "officeType": "B.O",
    "Deliverystatus": "Delivery",
    "divisionname": "Muzaffarnagar",
    "regionname": "Bareilly",
    "circlename": "Uttar Pradesh",
    "Taluk": "Budhana",
    "Districtname": "Muzaffarnagar",
    "statename": "UTTAR PRADESH"
  }
]
