[
  {
    "pincode": "261136",
    "officename": "Dhourahra B.O",
    "officeType": "B.O",
    "Deliverystatus": "Delivery",
    "divisionname": "Sitapur",
    "regionname": "Lucknow  HQ",
    "circlename": "Uttar Pradesh",
    "Taluk": "Laharpur",
    "Districtname": "Sitapur",
    "statename": "UTTAR PRADESH"
  },
  {
    "pincode": "261136",
    "officename": "Dugana B.O",
    "officeType": "B.O",
    "Deliverystatus": "Delivery",
    "divisionname": "Sitapur",
    "regionname": "Lucknow  HQ",
    "circlename": "Uttar Pradesh",
    "Taluk": "Laharpur",
    "Districtname": "Sitapur",
    "statename": "UTTAR PRADESH"
  },
  {
    "pincode": "261136",
    "officename": "Itauwa B.O",
    "officeType": "B.O",
    "Deliverystatus": "Delivery",
    "divisionname": "Sitapur",
    "regionname": "Lucknow  HQ",
    "circlename": "Uttar Pradesh",
    "Taluk": "Laharpur",
    "Districtname": "Sitapur",
    "statename": "UTTAR PRADESH"
  },
  {
    "pincode": "261136",
    "officename": "Kusepa B.O",
    "officeType": "B.O",
    "Deliverystatus": "Delivery",
    "divisionname": "Sitapur",
    "regionname": "Lucknow  HQ",
    "circlename": "Uttar Pradesh",
    "Taluk": "Laharpur",
    "Districtname": "Sitapur",
    "statename": "UTTAR PRADESH"
  },
  {
    "pincode": "261136",
    "officename": "Lakhuwabehar B.O",
    "officeType": "B.O",
    "Deliverystatus": "Delivery",
    "divisionname": "Sitapur",
    "regionname": "Lucknow  HQ",
    "circlename": "Uttar Pradesh",
    "Taluk": "Laharpur",
    "Districtname": "Sitapur",
    "statename": "UTTAR PRADESH"
  },
  {
    "pincode": "261136",
    "officename": "Lalpur B.O",
    "officeType": "B.O",
    "Deliverystatus": "Delivery",
    "divisionname": "Sitapur",
    "regionname": "Lucknow  HQ",
    "circlename": "Uttar Pradesh",
    "Taluk": "Laharpur",
    "Districtname": "Sitapur",
    "statename": "UTTAR PRADESH"
  },
  {
    "pincode": "261136",
    "officename": "Maithaura B.O",
    "officeType": "B.O",
    "Deliverystatus": "Delivery",
    "divisionname": "Sitapur",
    "regionname": "Lucknow  HQ",
    "circlename": "Uttar Pradesh",
    "Taluk": "Laharpur",
    "Districtname": "Sitapur",
    "statename": "UTTAR PRADESH"
  },
  {
    "pincode": "261136",
    "officename": "Maror B.O",
    "officeType": "B.O",
    "Deliverystatus": "Delivery",
    "divisionname": "Sitapur",
    "regionname": "Lucknow  HQ",
    "circlename": "Uttar Pradesh",
    "Taluk": "Laharpur",
    "Districtname": "Sitapur",
    "statename": "UTTAR PRADESH"
  },
  {
    "pincode": "261136",
    "officename": "Marsanda B.O",
    "officeType": "B.O",
    "Deliverystatus": "Delivery",
    "divisionname": "Sitapur",
    "regionname": "Lucknow  HQ",
    "circlename": "Uttar Pradesh",
    "Taluk": "Laharpur",
    "Districtname": "Sitapur",
    "statename": "UTTAR PRADESH"
  },
  {
    "pincode": "261136",
    "officename": "Matuwa Saraiyan B.O",
    "officeType": "B.O",
    "Deliverystatus": "Delivery",
    "divisionname": "Sitapur",
    "regionname": "Lucknow  HQ",
    "circlename": "Uttar Pradesh",
    "Taluk": "Laharpur",
    "Districtname": "Sitapur",
    "statename": "UTTAR PRADESH"
  },
  {
    "pincode": "261136",
    "officename": "Sakaran B.O",
    "officeType": "B.O",
    "Deliverystatus": "Delivery",
    "divisionname": "Sitapur",
    "regionname": "Lucknow  HQ",
    "circlename": "Uttar Pradesh",
    "Taluk": "Laharpur",
    "Districtname": "Sitapur",
    "statename": "UTTAR PRADESH"
  },
  {
    "pincode": "261136",
    "officename": "Singhnapur S.O",
    "officeType": "S.O",
    "Deliverystatus": "Delivery",
    "divisionname": "Sitapur",
    "regionname": "Lucknow  HQ",
    "circlename": "Uttar Pradesh",
    "Taluk": "Laharpur",
    "Districtname": "Sitapur",
    "statename": "UTTAR PRADESH"
  },
  {
    "pincode": "261136",
    "officename": "Sonsari B.O",
    "officeType": "B.O",
    "Deliverystatus": "Delivery",
    "divisionname": "Sitapur",
    "regionname": "Lucknow  HQ",
    "circlename": "Uttar Pradesh",
    "Taluk": "Laharpur",
    "Districtname": "Sitapur",
    "statename": "UTTAR PRADESH"
  },
  {
    "pincode": "261136",
    "officename": "Sumrawan B.O",
    "officeType": "B.O",
    "Deliverystatus": "Delivery",
    "divisionname": "Sitapur",
    "regionname": "Lucknow  HQ",
    "circlename": "Uttar Pradesh",
    "Taluk": "Laharpur",
    "Districtname": "Sitapur",
    "statename": "UTTAR PRADESH"
  },
  {
    "pincode": "261136",
    "officename": "Tanda Kalan B.O",
    "officeType": "B.O",
    "Deliverystatus": "Delivery",
    "divisionname": "Sitapur",
    "regionname": "Lucknow  HQ",
    "circlename": "Uttar Pradesh",
    "Taluk": "Laharpur",
    "Districtname": "Sitapur",
    "statename": "UTTAR PRADESH"
  }
]
