[
  {
    "pincode": "261208",
    "officename": "Ajaipur B.O",
    "officeType": "B.O",
    "Deliverystatus": "Delivery",
    "divisionname": "Sitapur",
    "regionname": "Lucknow  HQ",
    "circlename": "Uttar Pradesh",
    "Taluk": "Biswan",
    "Districtname": "Sitapur",
    "statename": "UTTAR PRADESH"
  },
  {
    "pincode": "261208",
    "officename": "Behta Pakauri B.O",
    "officeType": "B.O",
    "Deliverystatus": "Delivery",
    "divisionname": "Sitapur",
    "regionname": "Lucknow  HQ",
    "circlename": "Uttar Pradesh",
    "Taluk": "Biswan",
    "Districtname": "Sitapur",
    "statename": "UTTAR PRADESH"
  },
  {
    "pincode": "261208",
    "officename": "Biswan Khurd B.O",
    "officeType": "B.O",
    "Deliverystatus": "Delivery",
    "divisionname": "Sitapur",
    "regionname": "Lucknow  HQ",
    "circlename": "Uttar Pradesh",
    "Taluk": "Biswan",
    "Districtname": "Sitapur",
    "statename": "UTTAR PRADESH"
  },
  {
    "pincode": "261208",
    "officename": "Govindapur B.O",
    "officeType": "B.O",
    "Deliverystatus": "Delivery",
    "divisionname": "Sitapur",
    "regionname": "Lucknow  HQ",
    "circlename": "Uttar Pradesh",
    "Taluk": "Biswan",
    "Districtname": "Sitapur",
    "statename": "UTTAR PRADESH"
  },
  {
    "pincode": "261208",
    "officename": "Hazaratpur B.O",
    "officeType": "B.O",
    "Deliverystatus": "Delivery",
    "divisionname": "Sitapur",
    "regionname": "Lucknow  HQ",
    "circlename": "Uttar Pradesh",
    "Taluk": "Biswan",
    "Districtname": "Sitapur",
    "statename": "UTTAR PRADESH"
  },
  {
    "pincode": "261208",
    "officename": "Kathura B.O",
    "officeType": "B.O",
    "Deliverystatus": "Delivery",
    "divisionname": "Sitapur",
    "regionname": "Lucknow  HQ",
    "circlename": "Uttar Pradesh",
    "Taluk": "Biswan",
    "Districtname": "Sitapur",
    "statename": "UTTAR PRADESH"
  },
  {
    "pincode": "261208",
    "officename": "Mallapur B.O",
    "officeType": "B.O",
    "Deliverystatus": "Delivery",
    "divisionname": "Sitapur",
    "regionname": "Lucknow  HQ",
    "circlename": "Uttar Pradesh",
    "Taluk": "Laharpur",
    "Districtname": "Sitapur",
    "statename": "UTTAR PRADESH"
  },
  {
    "pincode": "261208",
    "officename": "Mudila B.O",
    "officeType": "B.O",
    "Deliverystatus": "Delivery",
    "divisionname": "Sitapur",
    "regionname": "Lucknow  HQ",
    "circlename": "Uttar Pradesh",
    "Taluk": "Biswan",
    "Districtname": "Sitapur",
    "statename": "UTTAR PRADESH"
  },
  {
    "pincode": "261208",
    "officename": "Ramuwapur B.O",
    "officeType": "B.O",
    "Deliverystatus": "Delivery",
    "divisionname": "Sitapur",
    "regionname": "Lucknow  HQ",
    "circlename": "Uttar Pradesh",
    "Taluk": "Laharpur",
    "Districtname": "Sitapur",
    "statename": "UTTAR PRADESH"
  },
  {
    "pincode": "261208",
    "officename": "Rehar B.O",
    "officeType": "B.O",
    "Deliverystatus": "Delivery",
    "divisionname": "Sitapur",
    "regionname": "Lucknow  HQ",
    "circlename": "Uttar Pradesh",
    "Taluk": "Biswan",
    "Districtname": "Sitapur",
    "statename": "UTTAR PRADESH"
  },
  {
    "pincode": "261208",
    "officename": "Salpur B.O",
    "officeType": "B.O",
    "Deliverystatus": "Delivery",
    "divisionname": "Sitapur",
    "regionname": "Lucknow  HQ",
    "circlename": "Uttar Pradesh",
    "Taluk": "Biswan",
    "Districtname": "Sitapur",
    "statename": "UTTAR PRADESH"
  },
  {
    "pincode": "261208",
    "officename": "Sonawan B.O",
    "officeType": "B.O",
    "Deliverystatus": "Delivery",
    "divisionname": "Sitapur",
    "regionname": "Lucknow  HQ",
    "circlename": "Uttar Pradesh",
    "Taluk": "Laharpur",
    "Districtname": "Sitapur",
    "statename": "UTTAR PRADESH"
  },
  {
    "pincode": "261208",
    "officename": "Sujawalpur B.O",
    "officeType": "B.O",
    "Deliverystatus": "Delivery",
    "divisionname": "Sitapur",
    "regionname": "Lucknow  HQ",
    "circlename": "Uttar Pradesh",
    "Taluk": "Biswan",
    "Districtname": "Sitapur",
    "statename": "UTTAR PRADESH"
  },
  {
    "pincode": "261208",
    "officename": "Tambour S.O",
    "officeType": "S.O",
    "Deliverystatus": "Delivery",
    "divisionname": "Sitapur",
    "regionname": "Lucknow  HQ",
    "circlename": "Uttar Pradesh",
    "Taluk": "Biswan",
    "Districtname": "Sitapur",
    "statename": "UTTAR PRADESH"
  }
]
