[
  {
    "pincode": "261201",
    "officename": "Ahmedabad B.O",
    "officeType": "B.O",
    "Deliverystatus": "Delivery",
    "divisionname": "Sitapur",
    "regionname": "Lucknow  HQ",
    "circlename": "Uttar Pradesh",
    "Taluk": "Biswan",
    "Districtname": "Sitapur",
    "statename": "UTTAR PRADESH"
  },
  {
    "pincode": "261201",
    "officename": "Bakahuan B.O",
    "officeType": "B.O",
    "Deliverystatus": "Delivery",
    "divisionname": "Sitapur",
    "regionname": "Lucknow  HQ",
    "circlename": "Uttar Pradesh",
    "Taluk": "Biswan",
    "Districtname": "Sitapur",
    "statename": "UTTAR PRADESH"
  },
  {
    "pincode": "261201",
    "officename": "Bhinaini B.O",
    "officeType": "B.O",
    "Deliverystatus": "Delivery",
    "divisionname": "Sitapur",
    "regionname": "Lucknow  HQ",
    "circlename": "Uttar Pradesh",
    "Taluk": "Biswan",
    "Districtname": "Sitapur",
    "statename": "UTTAR PRADESH"
  },
  {
    "pincode": "261201",
    "officename": "Bhurkunda Bazar B.O",
    "officeType": "B.O",
    "Deliverystatus": "Delivery",
    "divisionname": "Sitapur",
    "regionname": "Lucknow  HQ",
    "circlename": "Uttar Pradesh",
    "Taluk": "Biswan",
    "Districtname": "Sitapur",
    "statename": "UTTAR PRADESH"
  },
  {
    "pincode": "261201",
    "officename": "Bhusna B.O",
    "officeType": "B.O",
    "Deliverystatus": "Delivery",
    "divisionname": "Sitapur",
    "regionname": "Lucknow  HQ",
    "circlename": "Uttar Pradesh",
    "Taluk": "Biswan",
    "Districtname": "Sitapur",
    "statename": "UTTAR PRADESH"
  },
  {
    "pincode": "261201",
    "officename": "Bilauli Nankari B.O",
    "officeType": "B.O",
    "Deliverystatus": "Delivery",
    "divisionname": "Sitapur",
    "regionname": "Lucknow  HQ",
    "circlename": "Uttar Pradesh",
    "Taluk": "Biswan",
    "Districtname": "Sitapur",
    "statename": "UTTAR PRADESH"
  },
  {
    "pincode": "261201",
    "officename": "Biswan S.O",
    "officeType": "S.O",
    "Deliverystatus": "Delivery",
    "divisionname": "Sitapur",
    "regionname": "Lucknow  HQ",
    "circlename": "Uttar Pradesh",
    "Taluk": "Biswan",
    "Districtname": "Sitapur",
    "statename": "UTTAR PRADESH"
  },
  {
    "pincode": "261201",
    "officename": "Deokaliya B.O",
    "officeType": "B.O",
    "Deliverystatus": "Delivery",
    "divisionname": "Sitapur",
    "regionname": "Lucknow  HQ",
    "circlename": "Uttar Pradesh",
    "Taluk": "Biswan",
    "Districtname": "Sitapur",
    "statename": "UTTAR PRADESH"
  },
  {
    "pincode": "261201",
    "officename": "Dhoukalganj B.O",
    "officeType": "B.O",
    "Deliverystatus": "Delivery",
    "divisionname": "Sitapur",
    "regionname": "Lucknow  HQ",
    "circlename": "Uttar Pradesh",
    "Taluk": "Biswan",
    "Districtname": "Sitapur",
    "statename": "UTTAR PRADESH"
  },
  {
    "pincode": "261201",
    "officename": "Gurera B.O",
    "officeType": "B.O",
    "Deliverystatus": "Delivery",
    "divisionname": "Sitapur",
    "regionname": "Lucknow  HQ",
    "circlename": "Uttar Pradesh",
    "Taluk": "Biswan",
    "Districtname": "Sitapur",
    "statename": "UTTAR PRADESH"
  },
  {
    "pincode": "261201",
    "officename": "Hasnapur B.O",
    "officeType": "B.O",
    "Deliverystatus": "Delivery",
    "divisionname": "Sitapur",
    "regionname": "Lucknow  HQ",
    "circlename": "Uttar Pradesh",
    "Taluk": "Biswan",
    "Districtname": "Sitapur",
    "statename": "UTTAR PRADESH"
  },
  {
    "pincode": "261201",
    "officename": "Kaimahara Kalan B.O",
    "officeType": "B.O",
    "Deliverystatus": "Delivery",
    "divisionname": "Sitapur",
    "regionname": "Lucknow  HQ",
    "circlename": "Uttar Pradesh",
    "Taluk": "Biswan",
    "Districtname": "Sitapur",
    "statename": "UTTAR PRADESH"
  },
  {
    "pincode": "261201",
    "officename": "Kauwa Khera B.O",
    "officeType": "B.O",
    "Deliverystatus": "Delivery",
    "divisionname": "Sitapur",
    "regionname": "Lucknow  HQ",
    "circlename": "Uttar Pradesh",
    "Taluk": "Biswan",
    "Districtname": "Sitapur",
    "statename": "UTTAR PRADESH"
  },
  {
    "pincode": "261201",
    "officename": "Keoty Badullah B.O",
    "officeType": "B.O",
    "Deliverystatus": "Delivery",
    "divisionname": "Sitapur",
    "regionname": "Lucknow  HQ",
    "circlename": "Uttar Pradesh",
    "Taluk": "Biswan",
    "Districtname": "Sitapur",
    "statename": "UTTAR PRADESH"
  },
  {
    "pincode": "261201",
    "officename": "Kotra B.O",
    "officeType": "B.O",
    "Deliverystatus": "Delivery",
    "divisionname": "Sitapur",
    "regionname": "Lucknow  HQ",
    "circlename": "Uttar Pradesh",
    "Taluk": "Biswan",
    "Districtname": "Sitapur",
    "statename": "UTTAR PRADESH"
  },
  {
    "pincode": "261201",
    "officename": "Lashkarpur B.O",
    "officeType": "B.O",
    "Deliverystatus": "Delivery",
    "divisionname": "Sitapur",
    "regionname": "Lucknow  HQ",
    "circlename": "Uttar Pradesh",
    "Taluk": "Biswan",
    "Districtname": "Sitapur",
    "statename": "UTTAR PRADESH"
  },
  {
    "pincode": "261201",
    "officename": "Madnapur B.O",
    "officeType": "B.O",
    "Deliverystatus": "Delivery",
    "divisionname": "Sitapur",
    "regionname": "Lucknow  HQ",
    "circlename": "Uttar Pradesh",
    "Taluk": "Biswan",
    "Districtname": "Sitapur",
    "statename": "UTTAR PRADESH"
  },
  {
    "pincode": "261201",
    "officename": "Maharaj Nagar B.O",
    "officeType": "B.O",
    "Deliverystatus": "Delivery",
    "divisionname": "Sitapur",
    "regionname": "Lucknow  HQ",
    "circlename": "Uttar Pradesh",
    "Taluk": "Biswan",
    "Districtname": "Sitapur",
    "statename": "UTTAR PRADESH"
  },
  {
    "pincode": "261201",
    "officename": "Mangrahiya Bazar B.O",
    "officeType": "B.O",
    "Deliverystatus": "Non-Delivery",
    "divisionname": "Sitapur",
    "regionname": "Lucknow  HQ",
    "circlename": "Uttar Pradesh",
    "Taluk": "Biswan",
    "Districtname": "Sitapur",
    "statename": "UTTAR PRADESH"
  },
  {
    "pincode": "261201",
    "officename": "Manikapur B.O",
    "officeType": "B.O",
    "Deliverystatus": "Delivery",
    "divisionname": "Sitapur",
    "regionname": "Lucknow  HQ",
    "circlename": "Uttar Pradesh",
    "Taluk": "Biswan",
    "Districtname": "Sitapur",
    "statename": "UTTAR PRADESH"
  },
  {
    "pincode": "261201",
    "officename": "Pokhra Kalan B.O",
    "officeType": "B.O",
    "Deliverystatus": "Delivery",
    "divisionname": "Sitapur",
    "regionname": "Lucknow  HQ",
    "circlename": "Uttar Pradesh",
    "Taluk": "Biswan",
    "Districtname": "Sitapur",
    "statename": "UTTAR PRADESH"
  },
  {
    "pincode": "261201",
    "officename": "Ramabhari B.O",
    "officeType": "B.O",
    "Deliverystatus": "Delivery",
    "divisionname": "Sitapur",
    "regionname": "Lucknow  HQ",
    "circlename": "Uttar Pradesh",
    "Taluk": "Biswan",
    "Districtname": "Sitapur",
    "statename": "UTTAR PRADESH"
  },
  {
    "pincode": "261201",
    "officename": "Razakarnai B.O",
    "officeType": "B.O",
    "Deliverystatus": "Delivery",
    "divisionname": "Sitapur",
    "regionname": "Lucknow  HQ",
    "circlename": "Uttar Pradesh",
    "Taluk": "Biswan",
    "Districtname": "Sitapur",
    "statename": "UTTAR PRADESH"
  },
  {
    "pincode": "261201",
    "officename": "Sadarpur B.O",
    "officeType": "B.O",
    "Deliverystatus": "Delivery",
    "divisionname": "Sitapur",
    "regionname": "Lucknow  HQ",
    "circlename": "Uttar Pradesh",
    "Taluk": "Biswan",
    "Districtname": "Sitapur",
    "statename": "UTTAR PRADESH"
  },
  {
    "pincode": "261201",
    "officename": "Sarain B.O",
    "officeType": "B.O",
    "Deliverystatus": "Delivery",
    "divisionname": "Sitapur",
    "regionname": "Lucknow  HQ",
    "circlename": "Uttar Pradesh",
    "Taluk": "Biswan",
    "Districtname": "Sitapur",
    "statename": "UTTAR PRADESH"
  },
  {
    "pincode": "261201",
    "officename": "Shivthana B.O",
    "officeType": "B.O",
    "Deliverystatus": "Delivery",
    "divisionname": "Sitapur",
    "regionname": "Lucknow  HQ",
    "circlename": "Uttar Pradesh",
    "Taluk": "Biswan",
    "Districtname": "Sitapur",
    "statename": "UTTAR PRADESH"
  },
  {
    "pincode": "261201",
    "officename": "Tikra B.O",
    "officeType": "B.O",
    "Deliverystatus": "Delivery",
    "divisionname": "Sitapur",
    "regionname": "Lucknow  HQ",
    "circlename": "Uttar Pradesh",
    "Taluk": "Biswan",
    "Districtname": "Sitapur",
    "statename": "UTTAR PRADESH"
  }
]
