[
  {
    "pincode": "261207",
    "officename": "Angarasi Shekhwapur B.O",
    "officeType": "B.O",
    "Deliverystatus": "Delivery",
    "divisionname": "Sitapur",
    "regionname": "Lucknow  HQ",
    "circlename": "Uttar Pradesh",
    "Taluk": "Laharpur",
    "Districtname": "Sitapur",
    "statename": "UTTAR PRADESH"
  },
  {
    "pincode": "261207",
    "officename": "Dhondhi B.O",
    "officeType": "B.O",
    "Deliverystatus": "Delivery",
    "divisionname": "Sitapur",
    "regionname": "Lucknow  HQ",
    "circlename": "Uttar Pradesh",
    "Taluk": "Laharpur",
    "Districtname": "Sitapur",
    "statename": "UTTAR PRADESH"
  },
  {
    "pincode": "261207",
    "officename": "Gauria Jhal B.O",
    "officeType": "B.O",
    "Deliverystatus": "Delivery",
    "divisionname": "Sitapur",
    "regionname": "Lucknow  HQ",
    "circlename": "Uttar Pradesh",
    "Taluk": "Laharpur",
    "Districtname": "Sitapur",
    "statename": "UTTAR PRADESH"
  },
  {
    "pincode": "261207",
    "officename": "Itari B.O",
    "officeType": "B.O",
    "Deliverystatus": "Delivery",
    "divisionname": "Sitapur",
    "regionname": "Lucknow  HQ",
    "circlename": "Uttar Pradesh",
    "Taluk": "Biswan",
    "Districtname": "Sitapur",
    "statename": "UTTAR PRADESH"
  },
  {
    "pincode": "261207",
    "officename": "Kaimahra B.O",
    "officeType": "B.O",
    "Deliverystatus": "Delivery",
    "divisionname": "Sitapur",
    "regionname": "Lucknow  HQ",
    "circlename": "Uttar Pradesh",
    "Taluk": "Laharp[ur",
    "Districtname": "Sitapur",
    "statename": "UTTAR PRADESH"
  },
  {
    "pincode": "261207",
    "officename": "Kalabahadurpur B.O",
    "officeType": "B.O",
    "Deliverystatus": "Delivery",
    "divisionname": "Sitapur",
    "regionname": "Lucknow  HQ",
    "circlename": "Uttar Pradesh",
    "Taluk": "Laharpur",
    "Districtname": "Sitapur",
    "statename": "UTTAR PRADESH"
  },
  {
    "pincode": "261207",
    "officename": "Kasraila Bazar B.O",
    "officeType": "B.O",
    "Deliverystatus": "Delivery",
    "divisionname": "Sitapur",
    "regionname": "Lucknow  HQ",
    "circlename": "Uttar Pradesh",
    "Taluk": "Sitapur",
    "Districtname": "Sitapur",
    "statename": "UTTAR PRADESH"
  },
  {
    "pincode": "261207",
    "officename": "Kazi Sarain B.O",
    "officeType": "B.O",
    "Deliverystatus": "Delivery",
    "divisionname": "Sitapur",
    "regionname": "Lucknow  HQ",
    "circlename": "Uttar Pradesh",
    "Taluk": "Biswan",
    "Districtname": "Sitapur",
    "statename": "UTTAR PRADESH"
  },
  {
    "pincode": "261207",
    "officename": "Makhpur Jareli B.O",
    "officeType": "B.O",
    "Deliverystatus": "Delivery",
    "divisionname": "Sitapur",
    "regionname": "Lucknow  HQ",
    "circlename": "Uttar Pradesh",
    "Taluk": "Laharpur",
    "Districtname": "Sitapur",
    "statename": "UTTAR PRADESH"
  },
  {
    "pincode": "261207",
    "officename": "Mubarakpur B.O",
    "officeType": "B.O",
    "Deliverystatus": "Delivery",
    "divisionname": "Sitapur",
    "regionname": "Lucknow  HQ",
    "circlename": "Uttar Pradesh",
    "Taluk": "Laharpur",
    "Districtname": "Sitapur",
    "statename": "UTTAR PRADESH"
  },
  {
    "pincode": "261207",
    "officename": "Parsendi B.O",
    "officeType": "B.O",
    "Deliverystatus": "Delivery",
    "divisionname": "Sitapur",
    "regionname": "Lucknow  HQ",
    "circlename": "Uttar Pradesh",
    "Taluk": "Laharpur",
    "Districtname": "Sitapur",
    "statename": "UTTAR PRADESH"
  },
  {
    "pincode": "261207",
    "officename": "Samaisa B.O",
    "officeType": "B.O",
    "Deliverystatus": "Delivery",
    "divisionname": "Sitapur",
    "regionname": "Lucknow  HQ",
    "circlename": "Uttar Pradesh",
    "Taluk": "Laharpur",
    "Districtname": "Sitapur",
    "statename": "UTTAR PRADESH"
  },
  {
    "pincode": "261207",
    "officename": "Talgaon S.O",
    "officeType": "S.O",
    "Deliverystatus": "Delivery",
    "divisionname": "Sitapur",
    "regionname": "Lucknow  HQ",
    "circlename": "Uttar Pradesh",
    "Taluk": "Laharpur",
    "Districtname": "Sitapur",
    "statename": "UTTAR PRADESH"
  },
  {
    "pincode": "261207",
    "officename": "Teola B.O",
    "officeType": "B.O",
    "Deliverystatus": "Delivery",
    "divisionname": "Sitapur",
    "regionname": "Lucknow  HQ",
    "circlename": "Uttar Pradesh",
    "Taluk": "Laharpur",
    "Districtname": "Sitapur",
    "statename": "UTTAR PRADESH"
  }
]
