[
  {
    "pincode": "261203",
    "officename": "Baghain B.O",
    "officeType": "B.O",
    "Deliverystatus": "Delivery",
    "divisionname": "Sitapur",
    "regionname": "Lucknow  HQ",
    "circlename": "Uttar Pradesh",
    "Taluk": "Mahmudabad",
    "Districtname": "Sitapur",
    "statename": "UTTAR PRADESH"
  },
  {
    "pincode": "261203",
    "officename": "Bhethra Madhav B.O",
    "officeType": "B.O",
    "Deliverystatus": "Delivery",
    "divisionname": "Sitapur",
    "regionname": "Lucknow  HQ",
    "circlename": "Uttar Pradesh",
    "Taluk": "Mahmudabad",
    "Districtname": "Sitapur",
    "statename": "UTTAR PRADESH"
  },
  {
    "pincode": "261203",
    "officename": "Chandpur B.O",
    "officeType": "B.O",
    "Deliverystatus": "Delivery",
    "divisionname": "Sitapur",
    "regionname": "Lucknow  HQ",
    "circlename": "Uttar Pradesh",
    "Taluk": "Mahmudabad",
    "Districtname": "Sitapur",
    "statename": "UTTAR PRADESH"
  },
  {
    "pincode": "261203",
    "officename": "Imiliya Manpur B.O",
    "officeType": "B.O",
    "Deliverystatus": "Delivery",
    "divisionname": "Sitapur",
    "regionname": "Lucknow  HQ",
    "circlename": "Uttar Pradesh",
    "Taluk": "Mahmudabad",
    "Districtname": "Sitapur",
    "statename": "UTTAR PRADESH"
  },
  {
    "pincode": "261203",
    "officename": "Mahmudabad S.O",
    "officeType": "S.O",
    "Deliverystatus": "Delivery",
    "divisionname": "Sitapur",
    "regionname": "Lucknow  HQ",
    "circlename": "Uttar Pradesh",
    "Taluk": "Mahmudabad",
    "Districtname": "Sitapur",
    "statename": "UTTAR PRADESH"
  },
  {
    "pincode": "261203",
    "officename": "Manapur B.O",
    "officeType": "B.O",
    "Deliverystatus": "Delivery",
    "divisionname": "Sitapur",
    "regionname": "Lucknow  HQ",
    "circlename": "Uttar Pradesh",
    "Taluk": "Mahmudabad",
    "Districtname": "Sitapur",
    "statename": "UTTAR PRADESH"
  },
  {
    "pincode": "261203",
    "officename": "Marahmatnagar B.O",
    "officeType": "B.O",
    "Deliverystatus": "Delivery",
    "divisionname": "Sitapur",
    "regionname": "Lucknow  HQ",
    "circlename": "Uttar Pradesh",
    "Taluk": "Mahmudabad",
    "Districtname": "Sitapur",
    "statename": "UTTAR PRADESH"
  },
  {
    "pincode": "261203",
    "officename": "Meeranagar B.O",
    "officeType": "B.O",
    "Deliverystatus": "Delivery",
    "divisionname": "Sitapur",
    "regionname": "Lucknow  HQ",
    "circlename": "Uttar Pradesh",
    "Taluk": "Mahmudabad",
    "Districtname": "Sitapur",
    "statename": "UTTAR PRADESH"
  },
  {
    "pincode": "261203",
    "officename": "Mohammadpur Kadim B.O",
    "officeType": "B.O",
    "Deliverystatus": "Delivery",
    "divisionname": "Sitapur",
    "regionname": "Lucknow  HQ",
    "circlename": "Uttar Pradesh",
    "Taluk": "Mahmudabad",
    "Districtname": "Sitapur",
    "statename": "UTTAR PRADESH"
  },
  {
    "pincode": "261203",
    "officename": "Niyamatpur Labarha B.O",
    "officeType": "B.O",
    "Deliverystatus": "Delivery",
    "divisionname": "Sitapur",
    "regionname": "Lucknow  HQ",
    "circlename": "Uttar Pradesh",
    "Taluk": "Mahmudabad",
    "Districtname": "Sitapur",
    "statename": "UTTAR PRADESH"
  },
  {
    "pincode": "261203",
    "officename": "Padukha B.O",
    "officeType": "B.O",
    "Deliverystatus": "Delivery",
    "divisionname": "Sitapur",
    "regionname": "Lucknow  HQ",
    "circlename": "Uttar Pradesh",
    "Taluk": "Mahmudabad",
    "Districtname": "Sitapur",
    "statename": "UTTAR PRADESH"
  },
  {
    "pincode": "261203",
    "officename": "Painteypur B.O",
    "officeType": "B.O",
    "Deliverystatus": "Delivery",
    "divisionname": "Sitapur",
    "regionname": "Lucknow  HQ",
    "circlename": "Uttar Pradesh",
    "Taluk": "Mahmudabad",
    "Districtname": "Sitapur",
    "statename": "UTTAR PRADESH"
  },
  {
    "pincode": "261203",
    "officename": "Parwatpur B.O",
    "officeType": "B.O",
    "Deliverystatus": "Delivery",
    "divisionname": "Sitapur",
    "regionname": "Lucknow  HQ",
    "circlename": "Uttar Pradesh",
    "Taluk": "Mahmudabad",
    "Districtname": "Sitapur",
    "statename": "UTTAR PRADESH"
  },
  {
    "pincode": "261203",
    "officename": "Purwa  Rewan B.O",
    "officeType": "B.O",
    "Deliverystatus": "Delivery",
    "divisionname": "Sitapur",
    "regionname": "Lucknow  HQ",
    "circlename": "Uttar Pradesh",
    "Taluk": "Mahmudabad",
    "Districtname": "Sitapur",
    "statename": "UTTAR PRADESH"
  },
  {
    "pincode": "261203",
    "officename": "Samardaha B.O",
    "officeType": "B.O",
    "Deliverystatus": "Delivery",
    "divisionname": "Sitapur",
    "regionname": "Lucknow  HQ",
    "circlename": "Uttar Pradesh",
    "Taluk": "Mahmudabad",
    "Districtname": "Sitapur",
    "statename": "UTTAR PRADESH"
  }
]
