[
  {
    "pincode": "261502",
    "officename": "Badalipur B.O",
    "officeType": "B.O",
    "Deliverystatus": "Delivery",
    "divisionname": "Kheri",
    "regionname": "Bareilly",
    "circlename": "Uttar Pradesh",
    "Taluk": "Dhaurahara",
    "Districtname": "Kheri",
    "statename": "UTTAR PRADESH"
  },
  {
    "pincode": "261502",
    "officename": "Beltua B.O",
    "officeType": "B.O",
    "Deliverystatus": "Delivery",
    "divisionname": "Kheri",
    "regionname": "Bareilly",
    "circlename": "Uttar Pradesh",
    "Taluk": "Dhaurahara",
    "Districtname": "Kheri",
    "statename": "UTTAR PRADESH"
  },
  {
    "pincode": "261502",
    "officename": "Betisahdeo B.O",
    "officeType": "B.O",
    "Deliverystatus": "Delivery",
    "divisionname": "Kheri",
    "regionname": "Bareilly",
    "circlename": "Uttar Pradesh",
    "Taluk": "Dhaurahara",
    "Districtname": "Kheri",
    "statename": "UTTAR PRADESH"
  },
  {
    "pincode": "261502",
    "officename": "Bhedhia B.O",
    "officeType": "B.O",
    "Deliverystatus": "Delivery",
    "divisionname": "Kheri",
    "regionname": "Bareilly",
    "circlename": "Uttar Pradesh",
    "Taluk": "Dhaurahara",
    "Districtname": "Kheri",
    "statename": "UTTAR PRADESH"
  },
  {
    "pincode": "261502",
    "officename": "Chandrasa Kallan B.O",
    "officeType": "B.O",
    "Deliverystatus": "Delivery",
    "divisionname": "Kheri",
    "regionname": "Bareilly",
    "circlename": "Uttar Pradesh",
    "Taluk": "Dhaurahara",
    "Districtname": "Kheri",
    "statename": "UTTAR PRADESH"
  },
  {
    "pincode": "261502",
    "officename": "Durgapur Padari B.O",
    "officeType": "B.O",
    "Deliverystatus": "Delivery",
    "divisionname": "Kheri",
    "regionname": "Bareilly",
    "circlename": "Uttar Pradesh",
    "Taluk": "Dhaurahara",
    "Districtname": "Kheri",
    "statename": "UTTAR PRADESH"
  },
  {
    "pincode": "261502",
    "officename": "Firozabad B.O",
    "officeType": "B.O",
    "Deliverystatus": "Delivery",
    "divisionname": "Kheri",
    "regionname": "Bareilly",
    "circlename": "Uttar Pradesh",
    "Taluk": "Dhaurahara",
    "Districtname": "Kheri",
    "statename": "UTTAR PRADESH"
  },
  {
    "pincode": "261502",
    "officename": "Ganeshpur B.O",
    "officeType": "B.O",
    "Deliverystatus": "Delivery",
    "divisionname": "Kheri",
    "regionname": "Bareilly",
    "circlename": "Uttar Pradesh",
    "Taluk": "Dhaurahara",
    "Districtname": "Kheri",
    "statename": "UTTAR PRADESH"
  },
  {
    "pincode": "261502",
    "officename": "Gaura B.O",
    "officeType": "B.O",
    "Deliverystatus": "Delivery",
    "divisionname": "Kheri",
    "regionname": "Bareilly",
    "circlename": "Uttar Pradesh",
    "Taluk": "Dhaurahara",
    "Districtname": "Kheri",
    "statename": "UTTAR PRADESH"
  },
  {
    "pincode": "261502",
    "officename": "Gopalapur B.O",
    "officeType": "B.O",
    "Deliverystatus": "Delivery",
    "divisionname": "Kheri",
    "regionname": "Bareilly",
    "circlename": "Uttar Pradesh",
    "Taluk": "Dhaurahara",
    "Districtname": "Kheri",
    "statename": "UTTAR PRADESH"
  },
  {
    "pincode": "261502",
    "officename": "Hasanpur Katauli B.O",
    "officeType": "B.O",
    "Deliverystatus": "Delivery",
    "divisionname": "Kheri",
    "regionname": "Bareilly",
    "circlename": "Uttar Pradesh",
    "Taluk": "Dhaurahara",
    "Districtname": "Kheri",
    "statename": "UTTAR PRADESH"
  },
  {
    "pincode": "261502",
    "officename": "Isanagar S.O (Kheri)",
    "officeType": "S.O",
    "Deliverystatus": "Delivery",
    "divisionname": "Kheri",
    "regionname": "Bareilly",
    "circlename": "Uttar Pradesh",
    "Taluk": "Dhaurahara",
    "Districtname": "Kheri",
    "statename": "UTTAR PRADESH"
  },
  {
    "pincode": "261502",
    "officename": "Khamaria Kallan B.O",
    "officeType": "B.O",
    "Deliverystatus": "Delivery",
    "divisionname": "Kheri",
    "regionname": "Bareilly",
    "circlename": "Uttar Pradesh",
    "Taluk": "Dhaurahara",
    "Districtname": "Kheri",
    "statename": "UTTAR PRADESH"
  },
  {
    "pincode": "261502",
    "officename": "Laukahi Isanagar B.O",
    "officeType": "B.O",
    "Deliverystatus": "Delivery",
    "divisionname": "Kheri",
    "regionname": "Bareilly",
    "circlename": "Uttar Pradesh",
    "Taluk": "Dhaurahara",
    "Districtname": "Kheri",
    "statename": "UTTAR PRADESH"
  },
  {
    "pincode": "261502",
    "officename": "Laukahi Mallapur B.O",
    "officeType": "B.O",
    "Deliverystatus": "Delivery",
    "divisionname": "Kheri",
    "regionname": "Bareilly",
    "circlename": "Uttar Pradesh",
    "Taluk": "Dhaurahara",
    "Districtname": "Kheri",
    "statename": "UTTAR PRADESH"
  },
  {
    "pincode": "261502",
    "officename": "Mohchanapur B.O",
    "officeType": "B.O",
    "Deliverystatus": "Delivery",
    "divisionname": "Kheri",
    "regionname": "Bareilly",
    "circlename": "Uttar Pradesh",
    "Taluk": "Dhaurahara",
    "Districtname": "Kheri",
    "statename": "UTTAR PRADESH"
  },
  {
    "pincode": "261502",
    "officename": "Mudi B.O",
    "officeType": "B.O",
    "Deliverystatus": "Delivery",
    "divisionname": "Kheri",
    "regionname": "Bareilly",
    "circlename": "Uttar Pradesh",
    "Taluk": "Dhaurahara",
    "Districtname": "Kheri",
    "statename": "UTTAR PRADESH"
  },
  {
    "pincode": "261502",
    "officename": "Mukhalishpur B.O",
    "officeType": "B.O",
    "Deliverystatus": "Delivery",
    "divisionname": "Kheri",
    "regionname": "Bareilly",
    "circlename": "Uttar Pradesh",
    "Taluk": "Dhaurahara",
    "Districtname": "Kheri",
    "statename": "UTTAR PRADESH"
  },
  {
    "pincode": "261502",
    "officename": "Naribehar B.O",
    "officeType": "B.O",
    "Deliverystatus": "Delivery",
    "divisionname": "Kheri",
    "regionname": "Bareilly",
    "circlename": "Uttar Pradesh",
    "Taluk": "Dhaurahara",
    "Districtname": "Kheri",
    "statename": "UTTAR PRADESH"
  },
  {
    "pincode": "261502",
    "officename": "Raipur B.O",
    "officeType": "B.O",
    "Deliverystatus": "Delivery",
    "divisionname": "Kheri",
    "regionname": "Bareilly",
    "circlename": "Uttar Pradesh",
    "Taluk": "Dhaurahara",
    "Districtname": "Kheri",
    "statename": "UTTAR PRADESH"
  },
  {
    "pincode": "261502",
    "officename": "Ramlok Kabiraha B.O",
    "officeType": "B.O",
    "Deliverystatus": "Delivery",
    "divisionname": "Kheri",
    "regionname": "Bareilly",
    "circlename": "Uttar Pradesh",
    "Taluk": "Dhaurahara",
    "Districtname": "Kheri",
    "statename": "UTTAR PRADESH"
  },
  {
    "pincode": "261502",
    "officename": "Rudrapur Salim B.O",
    "officeType": "B.O",
    "Deliverystatus": "Delivery",
    "divisionname": "Kheri",
    "regionname": "Bareilly",
    "circlename": "Uttar Pradesh",
    "Taluk": "Dhaurahara",
    "Districtname": "Kheri",
    "statename": "UTTAR PRADESH"
  },
  {
    "pincode": "261502",
    "officename": "Sikatiha Chapkaha B.O",
    "officeType": "B.O",
    "Deliverystatus": "Delivery",
    "divisionname": "Kheri",
    "regionname": "Bareilly",
    "circlename": "Uttar Pradesh",
    "Taluk": "Dhaurahara",
    "Districtname": "Kheri",
    "statename": "UTTAR PRADESH"
  },
  {
    "pincode": "261502",
    "officename": "Singawar B.O",
    "officeType": "B.O",
    "Deliverystatus": "Delivery",
    "divisionname": "Kheri",
    "regionname": "Bareilly",
    "circlename": "Uttar Pradesh",
    "Taluk": "Dhaurahara",
    "Districtname": "Kheri",
    "statename": "UTTAR PRADESH"
  },
  {
    "pincode": "261502",
    "officename": "Virsinghpur B.O",
    "officeType": "B.O",
    "Deliverystatus": "Delivery",
    "divisionname": "Kheri",
    "regionname": "Bareilly",
    "circlename": "Uttar Pradesh",
    "Taluk": "Dhaurahara",
    "Districtname": "Kheri",
    "statename": "UTTAR PRADESH"
  }
]
