[
  {
    "pincode": "262001",
    "officename": "Bahanpur B.O",
    "officeType": "B.O",
    "Deliverystatus": "Delivery",
    "divisionname": "Bareilly",
    "regionname": "Bareilly",
    "circlename": "Uttar Pradesh",
    "Taluk": "Pilibhit",
    "Districtname": "Pilibhit",
    "statename": "UTTAR PRADESH"
  },
  {
    "pincode": "262001",
    "officename": "Baratbhoj B.O",
    "officeType": "B.O",
    "Deliverystatus": "Delivery",
    "divisionname": "Bareilly",
    "regionname": "Bareilly",
    "circlename": "Uttar Pradesh",
    "Taluk": "Pilibhit",
    "Districtname": "Pilibhit",
    "statename": "UTTAR PRADESH"
  },
  {
    "pincode": "262001",
    "officename": "Bhikaripur B.O",
    "officeType": "B.O",
    "Deliverystatus": "Delivery",
    "divisionname": "Bareilly",
    "regionname": "Bareilly",
    "circlename": "Uttar Pradesh",
    "Taluk": "Pilibhit",
    "Districtname": "Pilibhit",
    "statename": "UTTAR PRADESH"
  },
  {
    "pincode": "262001",
    "officename": "Bithora Kalan B.O",
    "officeType": "B.O",
    "Deliverystatus": "Delivery",
    "divisionname": "Bareilly",
    "regionname": "Bareilly",
    "circlename": "Uttar Pradesh",
    "Taluk": "Pilibhit",
    "Districtname": "Pilibhit",
    "statename": "UTTAR PRADESH"
  },
  {
    "pincode": "262001",
    "officename": "Chandoi B.O",
    "officeType": "B.O",
    "Deliverystatus": "Delivery",
    "divisionname": "Bareilly",
    "regionname": "Bareilly",
    "circlename": "Uttar Pradesh",
    "Taluk": "Pilibhit",
    "Districtname": "Pilibhit",
    "statename": "UTTAR PRADESH"
  },
  {
    "pincode": "262001",
    "officename": "Dalelganj B.O",
    "officeType": "B.O",
    "Deliverystatus": "Delivery",
    "divisionname": "Bareilly",
    "regionname": "Bareilly",
    "circlename": "Uttar Pradesh",
    "Taluk": "Pilibhit",
    "Districtname": "Pilibhit",
    "statename": "UTTAR PRADESH"
  },
  {
    "pincode": "262001",
    "officename": "Dang B.O",
    "officeType": "B.O",
    "Deliverystatus": "Delivery",
    "divisionname": "Bareilly",
    "regionname": "Bareilly",
    "circlename": "Uttar Pradesh",
    "Taluk": "Pilibhit",
    "Districtname": "Pilibhit",
    "statename": "UTTAR PRADESH"
  },
  {
    "pincode": "262001",
    "officename": "Gajraula Kalan B.O",
    "officeType": "B.O",
    "Deliverystatus": "Delivery",
    "divisionname": "Bareilly",
    "regionname": "Bareilly",
    "circlename": "Uttar Pradesh",
    "Taluk": "Pilibhit",
    "Districtname": "Pilibhit",
    "statename": "UTTAR PRADESH"
  },
  {
    "pincode": "262001",
    "officename": "Ganesh Ganj S.O (Pilibhit)",
    "officeType": "S.O",
    "Deliverystatus": "Non-Delivery",
    "divisionname": "Bareilly",
    "regionname": "Bareilly",
    "circlename": "Uttar Pradesh",
    "Taluk": "Puranpur",
    "Districtname": "Pilibhit",
    "statename": "UTTAR PRADESH"
  },
  {
    "pincode": "262001",
    "officename": "Gehluiya B.O",
    "officeType": "B.O",
    "Deliverystatus": "Delivery",
    "divisionname": "Bareilly",
    "regionname": "Bareilly",
    "circlename": "Uttar Pradesh",
    "Taluk": "Pilibhit",
    "Districtname": "Pilibhit",
    "statename": "UTTAR PRADESH"
  },
  {
    "pincode": "262001",
    "officename": "Jahanabad B.O",
    "officeType": "B.O",
    "Deliverystatus": "Non-Delivery",
    "divisionname": "Bareilly",
    "regionname": "Bareilly",
    "circlename": "Uttar Pradesh",
    "Taluk": "Pilibhit",
    "Districtname": "Pilibhit",
    "statename": "UTTAR PRADESH"
  },
  {
    "pincode": "262001",
    "officename": "Jaitpur B.O",
    "officeType": "B.O",
    "Deliverystatus": "Delivery",
    "divisionname": "Bareilly",
    "regionname": "Bareilly",
    "circlename": "Uttar Pradesh",
    "Taluk": "Pilibhit",
    "Districtname": "Pilibhit",
    "statename": "UTTAR PRADESH"
  },
  {
    "pincode": "262001",
    "officename": "Jatpura B.O",
    "officeType": "B.O",
    "Deliverystatus": "Non-Delivery",
    "divisionname": "Bareilly",
    "regionname": "Bareilly",
    "circlename": "Uttar Pradesh",
    "Taluk": "Pilibhit",
    "Districtname": "Pilibhit",
    "statename": "UTTAR PRADESH"
  },
  {
    "pincode": "262001",
    "officename": "Kalyanpur Khas B.O",
    "officeType": "B.O",
    "Deliverystatus": "Delivery",
    "divisionname": "Bareilly",
    "regionname": "Bareilly",
    "circlename": "Uttar Pradesh",
    "Taluk": "Pilibhit",
    "Districtname": "Pilibhit",
    "statename": "UTTAR PRADESH"
  },
  {
    "pincode": "262001",
    "officename": "Kanakore B.O",
    "officeType": "B.O",
    "Deliverystatus": "Delivery",
    "divisionname": "Bareilly",
    "regionname": "Bareilly",
    "circlename": "Uttar Pradesh",
    "Taluk": "Pilibhit",
    "Districtname": "Pilibhit",
    "statename": "UTTAR PRADESH"
  },
  {
    "pincode": "262001",
    "officename": "Khakra S.O",
    "officeType": "S.O",
    "Deliverystatus": "Non-Delivery",
    "divisionname": "Bareilly",
    "regionname": "Bareilly",
    "circlename": "Uttar Pradesh",
    "Taluk": "Pilibhit",
    "Districtname": "Pilibhit",
    "statename": "UTTAR PRADESH"
  },
  {
    "pincode": "262001",
    "officename": "Khamaria Pull B.O",
    "officeType": "B.O",
    "Deliverystatus": "Delivery",
    "divisionname": "Bareilly",
    "regionname": "Bareilly",
    "circlename": "Uttar Pradesh",
    "Taluk": "Pilibhit",
    "Districtname": "Pilibhit",
    "statename": "UTTAR PRADESH"
  },
  {
    "pincode": "262001",
    "officename": "Khundara B.O",
    "officeType": "B.O",
    "Deliverystatus": "Delivery",
    "divisionname": "Bareilly",
    "regionname": "Bareilly",
    "circlename": "Uttar Pradesh",
    "Taluk": "Pilibhit",
    "Districtname": "Pilibhit",
    "statename": "UTTAR PRADESH"
  },
  {
    "pincode": "262001",
    "officename": "Lalauri Khera B.O",
    "officeType": "B.O",
    "Deliverystatus": "Delivery",
    "divisionname": "Bareilly",
    "regionname": "Bareilly",
    "circlename": "Uttar Pradesh",
    "Taluk": "Pilibhit",
    "Districtname": "Pilibhit",
    "statename": "UTTAR PRADESH"
  },
  {
    "pincode": "262001",
    "officename": "Lalpur B.O",
    "officeType": "B.O",
    "Deliverystatus": "Delivery",
    "divisionname": "Bareilly",
    "regionname": "Bareilly",
    "circlename": "Uttar Pradesh",
    "Taluk": "Pilibhit",
    "Districtname": "Pilibhit",
    "statename": "UTTAR PRADESH"
  },
  {
    "pincode": "262001",
    "officename": "Maktul B.O",
    "officeType": "B.O",
    "Deliverystatus": "Delivery",
    "divisionname": "Bareilly",
    "regionname": "Bareilly",
    "circlename": "Uttar Pradesh",
    "Taluk": "Pilibhit",
    "Districtname": "Pilibhit",
    "statename": "UTTAR PRADESH"
  },
  {
    "pincode": "262001",
    "officename": "Mala Colony B.O",
    "officeType": "B.O",
    "Deliverystatus": "Delivery",
    "divisionname": "Bareilly",
    "regionname": "Bareilly",
    "circlename": "Uttar Pradesh",
    "Taluk": "Pilibhit",
    "Districtname": "Pilibhit",
    "statename": "UTTAR PRADESH"
  },
  {
    "pincode": "262001",
    "officename": "Nizamdandi B.O",
    "officeType": "B.O",
    "Deliverystatus": "Delivery",
    "divisionname": "Bareilly",
    "regionname": "Bareilly",
    "circlename": "Uttar Pradesh",
    "Taluk": "Pilibhit",
    "Districtname": "Pilibhit",
    "statename": "UTTAR PRADESH"
  },
  {
    "pincode": "262001",
    "officename": "Pilibhit Chowk Ndedso B.O",
    "officeType": "B.O",
    "Deliverystatus": "Non-Delivery",
    "divisionname": "Bareilly",
    "regionname": "Bareilly",
    "circlename": "Uttar Pradesh",
    "Taluk": "Pilibhit",
    "Districtname": "Pilibhit",
    "statename": "UTTAR PRADESH"
  },
  {
    "pincode": "262001",
    "officename": "Pilibhit City S.O",
    "officeType": "S.O",
    "Deliverystatus": "Non-Delivery",
    "divisionname": "Bareilly",
    "regionname": "Bareilly",
    "circlename": "Uttar Pradesh",
    "Taluk": "Pilibhit",
    "Districtname": "Pilibhit",
    "statename": "UTTAR PRADESH"
  },
  {
    "pincode": "262001",
    "officename": "Pilibhit H.O",
    "officeType": "H.O",
    "Deliverystatus": "Delivery",
    "divisionname": "Bareilly",
    "regionname": "Bareilly",
    "circlename": "Uttar Pradesh",
    "Taluk": "Pilibhit",
    "Districtname": "Pilibhit",
    "statename": "UTTAR PRADESH"
  },
  {
    "pincode": "262001",
    "officename": "Pilibhit Kutchery S.O",
    "officeType": "S.O",
    "Deliverystatus": "Non-Delivery",
    "divisionname": "Bareilly",
    "regionname": "Bareilly",
    "circlename": "Uttar Pradesh",
    "Taluk": "Pilibhit",
    "Districtname": "Pilibhit",
    "statename": "UTTAR PRADESH"
  },
  {
    "pincode": "262001",
    "officename": "Piparia Agroo B.O",
    "officeType": "B.O",
    "Deliverystatus": "Delivery",
    "divisionname": "Bareilly",
    "regionname": "Bareilly",
    "circlename": "Uttar Pradesh",
    "Taluk": "Pilibhit",
    "Districtname": "Pilibhit",
    "statename": "UTTAR PRADESH"
  },
  {
    "pincode": "262001",
    "officename": "Richhaula B.O",
    "officeType": "B.O",
    "Deliverystatus": "Delivery",
    "divisionname": "Bareilly",
    "regionname": "Bareilly",
    "circlename": "Uttar Pradesh",
    "Taluk": "Pilibhit",
    "Districtname": "Pilibhit",
    "statename": "UTTAR PRADESH"
  },
  {
    "pincode": "262001",
    "officename": "Roopur Kamaloo B.O",
    "officeType": "B.O",
    "Deliverystatus": "Delivery",
    "divisionname": "Bareilly",
    "regionname": "Bareilly",
    "circlename": "Uttar Pradesh",
    "Taluk": "Pilibhit",
    "Districtname": "Pilibhit",
    "statename": "UTTAR PRADESH"
  },
  {
    "pincode": "262001",
    "officename": "Sakhaula B.O",
    "officeType": "B.O",
    "Deliverystatus": "Delivery",
    "divisionname": "Bareilly",
    "regionname": "Bareilly",
    "circlename": "Uttar Pradesh",
    "Taluk": "Pilibhit",
    "Districtname": "Pilibhit",
    "statename": "UTTAR PRADESH"
  },
  {
    "pincode": "262001",
    "officename": "Sarauri B.O",
    "officeType": "B.O",
    "Deliverystatus": "Delivery",
    "divisionname": "Bareilly",
    "regionname": "Bareilly",
    "circlename": "Uttar Pradesh",
    "Taluk": "Pilibhit",
    "Districtname": "Pilibhit",
    "statename": "UTTAR PRADESH"
  },
  {
    "pincode": "262001",
    "officename": "Sardar Nagar B.O",
    "officeType": "B.O",
    "Deliverystatus": "Delivery",
    "divisionname": "Bareilly",
    "regionname": "Bareilly",
    "circlename": "Uttar Pradesh",
    "Taluk": "Pilibhit",
    "Districtname": "Pilibhit",
    "statename": "UTTAR PRADESH"
  },
  {
    "pincode": "262001",
    "officename": "Shahi B.O",
    "officeType": "B.O",
    "Deliverystatus": "Delivery",
    "divisionname": "Bareilly",
    "regionname": "Bareilly",
    "circlename": "Uttar Pradesh",
    "Taluk": "Pilibhit",
    "Districtname": "Pilibhit",
    "statename": "UTTAR PRADESH"
  },
  {
    "pincode": "262001",
    "officename": "Station Road Pilibhit S.O",
    "officeType": "S.O",
    "Deliverystatus": "Non-Delivery",
    "divisionname": "Bareilly",
    "regionname": "Bareilly",
    "circlename": "Uttar Pradesh",
    "Taluk": "Pilibhit",
    "Districtname": "Pilibhit",
    "statename": "UTTAR PRADESH"
  },
  {
    "pincode": "262001",
    "officename": "Suhas B.O",
    "officeType": "B.O",
    "Deliverystatus": "Delivery",
    "divisionname": "Bareilly",
    "regionname": "Bareilly",
    "circlename": "Uttar Pradesh",
    "Taluk": "Pilibhit",
    "Districtname": "Pilibhit",
    "statename": "UTTAR PRADESH"
  }
]
