[
  {
    "pincode": "262201",
    "officename": "Ahirwara B.O",
    "officeType": "B.O",
    "Deliverystatus": "Delivery",
    "divisionname": "Bareilly",
    "regionname": "Bareilly",
    "circlename": "Uttar Pradesh",
    "Taluk": "Bisalpur",
    "Districtname": "Pilibhit",
    "statename": "UTTAR PRADESH"
  },
  {
    "pincode": "262201",
    "officename": "Amra Karoor B.O",
    "officeType": "B.O",
    "Deliverystatus": "Delivery",
    "divisionname": "Bareilly",
    "regionname": "Bareilly",
    "circlename": "Uttar Pradesh",
    "Taluk": "Bisalpur",
    "Districtname": "Pilibhit",
    "statename": "UTTAR PRADESH"
  },
  {
    "pincode": "262201",
    "officename": "Amrita B.O",
    "officeType": "B.O",
    "Deliverystatus": "Delivery",
    "divisionname": "Bareilly",
    "regionname": "Bareilly",
    "circlename": "Uttar Pradesh",
    "Taluk": "Bisalpur",
    "Districtname": "Pilibhit",
    "statename": "UTTAR PRADESH"
  },
  {
    "pincode": "262201",
    "officename": "Azampur Barkhera B.O",
    "officeType": "B.O",
    "Deliverystatus": "Delivery",
    "divisionname": "Bareilly",
    "regionname": "Bareilly",
    "circlename": "Uttar Pradesh",
    "Taluk": "Bisalpur",
    "Districtname": "Pilibhit",
    "statename": "UTTAR PRADESH"
  },
  {
    "pincode": "262201",
    "officename": "Barhera B.O",
    "officeType": "B.O",
    "Deliverystatus": "Delivery",
    "divisionname": "Bareilly",
    "regionname": "Bareilly",
    "circlename": "Uttar Pradesh",
    "Taluk": "Bisalpur",
    "Districtname": "Pilibhit",
    "statename": "UTTAR PRADESH"
  },
  {
    "pincode": "262201",
    "officename": "Barkhera Chaturaha B.O",
    "officeType": "B.O",
    "Deliverystatus": "Delivery",
    "divisionname": "Bareilly",
    "regionname": "Bareilly",
    "circlename": "Uttar Pradesh",
    "Taluk": "Bisalpur",
    "Districtname": "Pilibhit",
    "statename": "UTTAR PRADESH"
  },
  {
    "pincode": "262201",
    "officename": "Bauni B.O",
    "officeType": "B.O",
    "Deliverystatus": "Delivery",
    "divisionname": "Bareilly",
    "regionname": "Bareilly",
    "circlename": "Uttar Pradesh",
    "Taluk": "Bisalpur",
    "Districtname": "Pilibhit",
    "statename": "UTTAR PRADESH"
  },
  {
    "pincode": "262201",
    "officename": "Bhikaripur B.O",
    "officeType": "B.O",
    "Deliverystatus": "Delivery",
    "divisionname": "Bareilly",
    "regionname": "Bareilly",
    "circlename": "Uttar Pradesh",
    "Taluk": "Baheri",
    "Districtname": "Bareilly",
    "statename": "UTTAR PRADESH"
  },
  {
    "pincode": "262201",
    "officename": "Bisalpur S.O",
    "officeType": "S.O",
    "Deliverystatus": "Delivery",
    "divisionname": "Bareilly",
    "regionname": "Bareilly",
    "circlename": "Uttar Pradesh",
    "Taluk": "Bisalpur",
    "Districtname": "Pilibhit",
    "statename": "UTTAR PRADESH"
  },
  {
    "pincode": "262201",
    "officename": "Chandpura B.O",
    "officeType": "B.O",
    "Deliverystatus": "Delivery",
    "divisionname": "Bareilly",
    "regionname": "Bareilly",
    "circlename": "Uttar Pradesh",
    "Taluk": "Bisalpur",
    "Districtname": "Pilibhit",
    "statename": "UTTAR PRADESH"
  },
  {
    "pincode": "262201",
    "officename": "Churra B.O",
    "officeType": "B.O",
    "Deliverystatus": "Delivery",
    "divisionname": "Bareilly",
    "regionname": "Bareilly",
    "circlename": "Uttar Pradesh",
    "Taluk": "Bisalpur",
    "Districtname": "Pilibhit",
    "statename": "UTTAR PRADESH"
  },
  {
    "pincode": "262201",
    "officename": "Deohana B.O",
    "officeType": "B.O",
    "Deliverystatus": "Delivery",
    "divisionname": "Bareilly",
    "regionname": "Bareilly",
    "circlename": "Uttar Pradesh",
    "Taluk": "Bisalpur",
    "Districtname": "Pilibhit",
    "statename": "UTTAR PRADESH"
  },
  {
    "pincode": "262201",
    "officename": "Deoria Kalan B.O",
    "officeType": "B.O",
    "Deliverystatus": "Delivery",
    "divisionname": "Bareilly",
    "regionname": "Bareilly",
    "circlename": "Uttar Pradesh",
    "Taluk": "Bisalpur",
    "Districtname": "Pilibhit",
    "statename": "UTTAR PRADESH"
  },
  {
    "pincode": "262201",
    "officename": "Dhakia B.O",
    "officeType": "B.O",
    "Deliverystatus": "Delivery",
    "divisionname": "Bareilly",
    "regionname": "Bareilly",
    "circlename": "Uttar Pradesh",
    "Taluk": "Bisalpur",
    "Districtname": "Pilibhit",
    "statename": "UTTAR PRADESH"
  },
  {
    "pincode": "262201",
    "officename": "Ghajhera B.O",
    "officeType": "B.O",
    "Deliverystatus": "Delivery",
    "divisionname": "Bareilly",
    "regionname": "Bareilly",
    "circlename": "Uttar Pradesh",
    "Taluk": "Bisalpur",
    "Districtname": "Pilibhit",
    "statename": "UTTAR PRADESH"
  },
  {
    "pincode": "262201",
    "officename": "Imalia Gangi B.O",
    "officeType": "B.O",
    "Deliverystatus": "Delivery",
    "divisionname": "Bareilly",
    "regionname": "Bareilly",
    "circlename": "Uttar Pradesh",
    "Taluk": "Bisalpur",
    "Districtname": "Pilibhit",
    "statename": "UTTAR PRADESH"
  },
  {
    "pincode": "262201",
    "officename": "Intgoan B.O",
    "officeType": "B.O",
    "Deliverystatus": "Delivery",
    "divisionname": "Bareilly",
    "regionname": "Bareilly",
    "circlename": "Uttar Pradesh",
    "Taluk": "Bisalpur",
    "Districtname": "Pilibhit",
    "statename": "UTTAR PRADESH"
  },
  {
    "pincode": "262201",
    "officename": "Jallapur B.O",
    "officeType": "B.O",
    "Deliverystatus": "Delivery",
    "divisionname": "Bareilly",
    "regionname": "Bareilly",
    "circlename": "Uttar Pradesh",
    "Taluk": "Bisalpur",
    "Districtname": "Pilibhit",
    "statename": "UTTAR PRADESH"
  },
  {
    "pincode": "262201",
    "officename": "Karrkhera B.O",
    "officeType": "B.O",
    "Deliverystatus": "Delivery",
    "divisionname": "Bareilly",
    "regionname": "Bareilly",
    "circlename": "Uttar Pradesh",
    "Taluk": "Bisalpur",
    "Districtname": "Pilibhit",
    "statename": "UTTAR PRADESH"
  },
  {
    "pincode": "262201",
    "officename": "Katra Bazar S.O (Pilibhit)",
    "officeType": "S.O",
    "Deliverystatus": "Non-Delivery",
    "divisionname": "Bareilly",
    "regionname": "Bareilly",
    "circlename": "Uttar Pradesh",
    "Taluk": "Bisalpur",
    "Districtname": "Pilibhit",
    "statename": "UTTAR PRADESH"
  },
  {
    "pincode": "262201",
    "officename": "Khandepur B.O",
    "officeType": "B.O",
    "Deliverystatus": "Delivery",
    "divisionname": "Bareilly",
    "regionname": "Bareilly",
    "circlename": "Uttar Pradesh",
    "Taluk": "Bisalpur",
    "Districtname": "Pilibhit",
    "statename": "UTTAR PRADESH"
  },
  {
    "pincode": "262201",
    "officename": "Kishni B.O",
    "officeType": "B.O",
    "Deliverystatus": "Delivery",
    "divisionname": "Bareilly",
    "regionname": "Bareilly",
    "circlename": "Uttar Pradesh",
    "Taluk": "Bisalpur",
    "Districtname": "Pilibhit",
    "statename": "UTTAR PRADESH"
  },
  {
    "pincode": "262201",
    "officename": "Kumirkha B.O",
    "officeType": "B.O",
    "Deliverystatus": "Delivery",
    "divisionname": "Bareilly",
    "regionname": "Bareilly",
    "circlename": "Uttar Pradesh",
    "Taluk": "Bisalpur",
    "Districtname": "Pilibhit",
    "statename": "UTTAR PRADESH"
  },
  {
    "pincode": "262201",
    "officename": "Luhicha B.O",
    "officeType": "B.O",
    "Deliverystatus": "Delivery",
    "divisionname": "Bareilly",
    "regionname": "Bareilly",
    "circlename": "Uttar Pradesh",
    "Taluk": "Bisalpur",
    "Districtname": "Pilibhit",
    "statename": "UTTAR PRADESH"
  },
  {
    "pincode": "262201",
    "officename": "Madhopur B.O",
    "officeType": "B.O",
    "Deliverystatus": "Delivery",
    "divisionname": "Bareilly",
    "regionname": "Bareilly",
    "circlename": "Uttar Pradesh",
    "Taluk": "Bisalpur",
    "Districtname": "Pilibhit",
    "statename": "UTTAR PRADESH"
  },
  {
    "pincode": "262201",
    "officename": "Meerpur Bahanpur B.O",
    "officeType": "B.O",
    "Deliverystatus": "Delivery",
    "divisionname": "Bareilly",
    "regionname": "Bareilly",
    "circlename": "Uttar Pradesh",
    "Taluk": "Bisalpur",
    "Districtname": "Pilibhit",
    "statename": "UTTAR PRADESH"
  },
  {
    "pincode": "262201",
    "officename": "Mohammadpur Bhanja B.O",
    "officeType": "B.O",
    "Deliverystatus": "Delivery",
    "divisionname": "Bareilly",
    "regionname": "Bareilly",
    "circlename": "Uttar Pradesh",
    "Taluk": "Bisalpur",
    "Districtname": "Pilibhit",
    "statename": "UTTAR PRADESH"
  },
  {
    "pincode": "262201",
    "officename": "Naugawan Santosh B.O",
    "officeType": "B.O",
    "Deliverystatus": "Delivery",
    "divisionname": "Bareilly",
    "regionname": "Bareilly",
    "circlename": "Uttar Pradesh",
    "Taluk": "Bisalpur",
    "Districtname": "Pilibhit",
    "statename": "UTTAR PRADESH"
  },
  {
    "pincode": "262201",
    "officename": "Paharganj B.O",
    "officeType": "B.O",
    "Deliverystatus": "Delivery",
    "divisionname": "Bareilly",
    "regionname": "Bareilly",
    "circlename": "Uttar Pradesh",
    "Taluk": "Bisalpur",
    "Districtname": "Pilibhit",
    "statename": "UTTAR PRADESH"
  },
  {
    "pincode": "262201",
    "officename": "Rasiayankhanpur B.O",
    "officeType": "B.O",
    "Deliverystatus": "Delivery",
    "divisionname": "Bareilly",
    "regionname": "Bareilly",
    "circlename": "Uttar Pradesh",
    "Taluk": "Bisalpur",
    "Districtname": "Pilibhit",
    "statename": "UTTAR PRADESH"
  },
  {
    "pincode": "262201",
    "officename": "Rohania B.O",
    "officeType": "B.O",
    "Deliverystatus": "Delivery",
    "divisionname": "Bareilly",
    "regionname": "Bareilly",
    "circlename": "Uttar Pradesh",
    "Taluk": "Bisalpur",
    "Districtname": "Pilibhit",
    "statename": "UTTAR PRADESH"
  }
]
