[
  {
    "pincode": "262401",
    "officename": "Bannakhera B.O",
    "officeType": "B.O",
    "Deliverystatus": "Delivery",
    "divisionname": "Nainital",
    "regionname": "Dehradun",
    "circlename": "Uttarakhand",
    "Taluk": "Kashipur",
    "Districtname": "Udham Singh Nagar",
    "statename": "UTTARAKHAND"
  },
  {
    "pincode": "262401",
    "officename": "Barhani B.O",
    "officeType": "B.O",
    "Deliverystatus": "Delivery",
    "divisionname": "Nainital",
    "regionname": "Dehradun",
    "circlename": "Uttarakhand",
    "Taluk": "Bazpur",
    "Districtname": "Udham Singh Nagar",
    "statename": "UTTARAKHAND"
  },
  {
    "pincode": "262401",
    "officename": "Bazpur S.O",
    "officeType": "S.O",
    "Deliverystatus": "Delivery",
    "divisionname": "Nainital",
    "regionname": "Dehradun",
    "circlename": "Uttarakhand",
    "Taluk": "Bazpur",
    "Districtname": "Udham Singh Nagar",
    "statename": "UTTARAKHAND"
  },
  {
    "pincode": "262401",
    "officename": "Bhajuanagla B.O",
    "officeType": "B.O",
    "Deliverystatus": "Delivery",
    "divisionname": "Nainital",
    "regionname": "Dehradun",
    "circlename": "Uttarakhand",
    "Taluk": "Bazpur",
    "Districtname": "Udham Singh Nagar",
    "statename": "UTTARAKHAND"
  },
  {
    "pincode": "262401",
    "officename": "Doraha B.O",
    "officeType": "B.O",
    "Deliverystatus": "Delivery",
    "divisionname": "Nainital",
    "regionname": "Dehradun",
    "circlename": "Uttarakhand",
    "Taluk": "Kashipur",
    "Districtname": "Udham Singh Nagar",
    "statename": "UTTARAKHAND"
  },
  {
    "pincode": "262401",
    "officename": "Fauzi Coloney B.O",
    "officeType": "B.O",
    "Deliverystatus": "Delivery",
    "divisionname": "Nainital",
    "regionname": "Dehradun",
    "circlename": "Uttarakhand",
    "Taluk": "Kashipur",
    "Districtname": "Udham Singh Nagar",
    "statename": "UTTARAKHAND"
  },
  {
    "pincode": "262401",
    "officename": "Gular Bhoj Canal Coloney B.O",
    "officeType": "B.O",
    "Deliverystatus": "Delivery",
    "divisionname": "Nainital",
    "regionname": "Dehradun",
    "circlename": "Uttarakhand",
    "Taluk": "Bazpur",
    "Districtname": "Udham Singh Nagar",
    "statename": "UTTARAKHAND"
  },
  {
    "pincode": "262401",
    "officename": "Gularbhoj B.O",
    "officeType": "B.O",
    "Deliverystatus": "Delivery",
    "divisionname": "Nainital",
    "regionname": "Dehradun",
    "circlename": "Uttarakhand",
    "Taluk": "Kichha",
    "Districtname": "Udham Singh Nagar",
    "statename": "UTTARAKHAND"
  },
  {
    "pincode": "262401",
    "officename": "Haripur Harsan B.O",
    "officeType": "B.O",
    "Deliverystatus": "Delivery",
    "divisionname": "Nainital",
    "regionname": "Dehradun",
    "circlename": "Uttarakhand",
    "Taluk": "Kashipur",
    "Districtname": "Udham Singh Nagar",
    "statename": "UTTARAKHAND"
  },
  {
    "pincode": "262401",
    "officename": "Jogipura B.O",
    "officeType": "B.O",
    "Deliverystatus": "Delivery",
    "divisionname": "Nainital",
    "regionname": "Dehradun",
    "circlename": "Uttarakhand",
    "Taluk": "Bazpur",
    "Districtname": "Udham Singh Nagar",
    "statename": "UTTARAKHAND"
  },
  {
    "pincode": "262401",
    "officename": "S.F. Bazpur S.O",
    "officeType": "S.O",
    "Deliverystatus": "Non-Delivery",
    "divisionname": "Nainital",
    "regionname": "Dehradun",
    "circlename": "Uttarakhand",
    "Taluk": "Kashipur",
    "Districtname": "Udham Singh Nagar",
    "statename": "UTTARAKHAND"
  }
]
