[
  {
    "pincode": "262501",
    "officename": "Bans B.O",
    "officeType": "B.O",
    "Deliverystatus": "Delivery",
    "divisionname": "Pithoragarh",
    "regionname": "Dehradun",
    "circlename": "Uttarakhand",
    "Taluk": "Pithoragarh",
    "Districtname": "Pithoragarh",
    "statename": "UTTARAKHAND"
  },
  {
    "pincode": "262501",
    "officename": "Baste B.O",
    "officeType": "B.O",
    "Deliverystatus": "Delivery",
    "divisionname": "Pithoragarh",
    "regionname": "Dehradun",
    "circlename": "Uttarakhand",
    "Taluk": "Pithoraharh",
    "Districtname": "Pithoragarh",
    "statename": "UTTARAKHAND"
  },
  {
    "pincode": "262501",
    "officename": "Bhurmuni B.O",
    "officeType": "B.O",
    "Deliverystatus": "Delivery",
    "divisionname": "Pithoragarh",
    "regionname": "Dehradun",
    "circlename": "Uttarakhand",
    "Taluk": "Pithoragarh",
    "Districtname": "Pithoragarh",
    "statename": "UTTARAKHAND"
  },
  {
    "pincode": "262501",
    "officename": "Bin B.O",
    "officeType": "B.O",
    "Deliverystatus": "Delivery",
    "divisionname": "Pithoragarh",
    "regionname": "Dehradun",
    "circlename": "Uttarakhand",
    "Taluk": "Pithoragarh",
    "Districtname": "Pithoragarh",
    "statename": "UTTARAKHAND"
  },
  {
    "pincode": "262501",
    "officename": "Chandak B.O",
    "officeType": "B.O",
    "Deliverystatus": "Delivery",
    "divisionname": "Pithoragarh",
    "regionname": "Dehradun",
    "circlename": "Uttarakhand",
    "Taluk": "Pithoragarh",
    "Districtname": "Pithoragarh",
    "statename": "UTTARAKHAND"
  },
  {
    "pincode": "262501",
    "officename": "Cherra B.O",
    "officeType": "B.O",
    "Deliverystatus": "Delivery",
    "divisionname": "Pithoragarh",
    "regionname": "Dehradun",
    "circlename": "Uttarakhand",
    "Taluk": "Pithoragarh",
    "Districtname": "Pithoragarh",
    "statename": "UTTARAKHAND"
  },
  {
    "pincode": "262501",
    "officename": "Collectorate S.O (Pithoragarh)",
    "officeType": "S.O",
    "Deliverystatus": "Non-Delivery",
    "divisionname": "Pithoragarh",
    "regionname": "Dehradun",
    "circlename": "Uttarakhand",
    "Taluk": "Pithoragarh",
    "Districtname": "Pithoragarh",
    "statename": "UTTARAKHAND"
  },
  {
    "pincode": "262501",
    "officename": "Digtoli B.O",
    "officeType": "B.O",
    "Deliverystatus": "Delivery",
    "divisionname": "Pithoragarh",
    "regionname": "Dehradun",
    "circlename": "Uttarakhand",
    "Taluk": "Pithoragarh",
    "Districtname": "Pithoragarh",
    "statename": "UTTARAKHAND"
  },
  {
    "pincode": "262501",
    "officename": "Dungara B.O",
    "officeType": "B.O",
    "Deliverystatus": "Delivery",
    "divisionname": "Pithoragarh",
    "regionname": "Dehradun",
    "circlename": "Uttarakhand",
    "Taluk": "Pithoragarh",
    "Districtname": "Pithoragarh",
    "statename": "UTTARAKHAND"
  },
  {
    "pincode": "262501",
    "officename": "Jajurali B.O",
    "officeType": "B.O",
    "Deliverystatus": "Delivery",
    "divisionname": "Pithoragarh",
    "regionname": "Dehradun",
    "circlename": "Uttarakhand",
    "Taluk": "Pithoragarh",
    "Districtname": "Pithoragarh",
    "statename": "UTTARAKHAND"
  },
  {
    "pincode": "262501",
    "officename": "Jhuni B.O",
    "officeType": "B.O",
    "Deliverystatus": "Delivery",
    "divisionname": "Pithoragarh",
    "regionname": "Dehradun",
    "circlename": "Uttarakhand",
    "Taluk": "Pithoragarh",
    "Districtname": "Pithoragarh",
    "statename": "UTTARAKHAND"
  },
  {
    "pincode": "262501",
    "officename": "Khatigaon B.O",
    "officeType": "B.O",
    "Deliverystatus": "Delivery",
    "divisionname": "Pithoragarh",
    "regionname": "Dehradun",
    "circlename": "Uttarakhand",
    "Taluk": "Pithoragarh",
    "Districtname": "Pithoragarh",
    "statename": "UTTARAKHAND"
  },
  {
    "pincode": "262501",
    "officename": "Nakote GDS B.O",
    "officeType": "B.O",
    "Deliverystatus": "Delivery",
    "divisionname": "Pithoragarh",
    "regionname": "Dehradun",
    "circlename": "Uttarakhand",
    "Taluk": "Pithoragarh",
    "Districtname": "Pithoragarh",
    "statename": "UTTARAKHAND"
  },
  {
    "pincode": "262501",
    "officename": "Pabhain B.O",
    "officeType": "B.O",
    "Deliverystatus": "Delivery",
    "divisionname": "Pithoragarh",
    "regionname": "Dehradun",
    "circlename": "Uttarakhand",
    "Taluk": "Pithoragarh",
    "Districtname": "Pithoragarh",
    "statename": "UTTARAKHAND"
  },
  {
    "pincode": "262501",
    "officename": "Pithoragarh H.O",
    "officeType": "H.O",
    "Deliverystatus": "Delivery",
    "divisionname": "Pithoragarh",
    "regionname": "Dehradun",
    "circlename": "Uttarakhand",
    "Taluk": "Pithoragarh",
    "Districtname": "Pithoragarh",
    "statename": "UTTARAKHAND"
  },
  {
    "pincode": "262501",
    "officename": "Roripali B.O",
    "officeType": "B.O",
    "Deliverystatus": "Delivery",
    "divisionname": "Pithoragarh",
    "regionname": "Dehradun",
    "circlename": "Uttarakhand",
    "Taluk": "Pithoragarh",
    "Districtname": "Pithoragarh",
    "statename": "UTTARAKHAND"
  },
  {
    "pincode": "262501",
    "officename": "Shivalaya S.O",
    "officeType": "S.O",
    "Deliverystatus": "Non-Delivery",
    "divisionname": "Pithoragarh",
    "regionname": "Dehradun",
    "circlename": "Uttarakhand",
    "Taluk": "Pithoragarh",
    "Districtname": "Pithoragarh",
    "statename": "UTTARAKHAND"
  },
  {
    "pincode": "262501",
    "officename": "Siltham S.O",
    "officeType": "S.O",
    "Deliverystatus": "Non-Delivery",
    "divisionname": "Pithoragarh",
    "regionname": "Dehradun",
    "circlename": "Uttarakhand",
    "Taluk": "Pithoragarh",
    "Districtname": "Pithoragarh",
    "statename": "UTTARAKHAND"
  }
]
