[
  {
    "pincode": "262528",
    "officename": "Bhingrara B.O",
    "officeType": "B.O",
    "Deliverystatus": "Delivery",
    "divisionname": "Pithoragarh",
    "regionname": "Dehradun",
    "circlename": "Uttarakhand",
    "Taluk": "Lohaghat",
    "Districtname": "Champawat",
    "statename": "UTTARAKHAND"
  },
  {
    "pincode": "262528",
    "officename": "Bhumbari B.O",
    "officeType": "B.O",
    "Deliverystatus": "Delivery",
    "divisionname": "Pithoragarh",
    "regionname": "Dehradun",
    "circlename": "Uttarakhand",
    "Taluk": "Lohaghat",
    "Districtname": "Champawat",
    "statename": "UTTARAKHAND"
  },
  {
    "pincode": "262528",
    "officename": "Birgul B.O",
    "officeType": "B.O",
    "Deliverystatus": "Delivery",
    "divisionname": "Pithoragarh",
    "regionname": "Dehradun",
    "circlename": "Uttarakhand",
    "Taluk": "Lohaghat",
    "Districtname": "Champawat",
    "statename": "UTTARAKHAND"
  },
  {
    "pincode": "262528",
    "officename": "Chaurakote B.O",
    "officeType": "B.O",
    "Deliverystatus": "Delivery",
    "divisionname": "Pithoragarh",
    "regionname": "Dehradun",
    "circlename": "Uttarakhand",
    "Taluk": "Lohaghat",
    "Districtname": "Champawat",
    "statename": "UTTARAKHAND"
  },
  {
    "pincode": "262528",
    "officename": "Chauramehta B.O",
    "officeType": "B.O",
    "Deliverystatus": "Delivery",
    "divisionname": "Pithoragarh",
    "regionname": "Dehradun",
    "circlename": "Uttarakhand",
    "Taluk": "Lohaghat",
    "Districtname": "Champawat",
    "statename": "UTTARAKHAND"
  },
  {
    "pincode": "262528",
    "officename": "Dhunaghat B.O",
    "officeType": "B.O",
    "Deliverystatus": "Delivery",
    "divisionname": "Pithoragarh",
    "regionname": "Dehradun",
    "circlename": "Uttarakhand",
    "Taluk": "Lohaghat",
    "Districtname": "Champawat",
    "statename": "UTTARAKHAND"
  },
  {
    "pincode": "262528",
    "officename": "Gunthgarsari B.O",
    "officeType": "B.O",
    "Deliverystatus": "Delivery",
    "divisionname": "Pithoragarh",
    "regionname": "Dehradun",
    "circlename": "Uttarakhand",
    "Taluk": "Lohaghat",
    "Districtname": "Champawat",
    "statename": "UTTARAKHAND"
  },
  {
    "pincode": "262528",
    "officename": "Jankandey B.O",
    "officeType": "B.O",
    "Deliverystatus": "Delivery",
    "divisionname": "Pithoragarh",
    "regionname": "Dehradun",
    "circlename": "Uttarakhand",
    "Taluk": "Lohaghat",
    "Districtname": "Champawat",
    "statename": "UTTARAKHAND"
  },
  {
    "pincode": "262528",
    "officename": "Kanakote B.O",
    "officeType": "B.O",
    "Deliverystatus": "Delivery",
    "divisionname": "Pithoragarh",
    "regionname": "Dehradun",
    "circlename": "Uttarakhand",
    "Taluk": "Lohaghat",
    "Districtname": "Champawat",
    "statename": "UTTARAKHAND"
  },
  {
    "pincode": "262528",
    "officename": "Khetikhan S.O",
    "officeType": "S.O",
    "Deliverystatus": "Delivery",
    "divisionname": "Pithoragarh",
    "regionname": "Dehradun",
    "circlename": "Uttarakhand",
    "Taluk": "Lohaghat",
    "Districtname": "Champawat",
    "statename": "UTTARAKHAND"
  },
  {
    "pincode": "262528",
    "officename": "Machiyar B.O",
    "officeType": "B.O",
    "Deliverystatus": "Delivery",
    "divisionname": "Pithoragarh",
    "regionname": "Dehradun",
    "circlename": "Uttarakhand",
    "Taluk": "Lohaghat",
    "Districtname": "Champawat",
    "statename": "UTTARAKHAND"
  }
]
