[
  {
    "pincode": "262547",
    "officename": "Bundi(S) B.O",
    "officeType": "B.O",
    "Deliverystatus": "Delivery",
    "divisionname": "Pithoragarh",
    "regionname": "Dehradun",
    "circlename": "Uttarakhand",
    "Taluk": "Dharchula",
    "Districtname": "Pithoragarh",
    "statename": "UTTARAKHAND"
  },
  {
    "pincode": "262547",
    "officename": "Chalma Chilasu B.O",
    "officeType": "B.O",
    "Deliverystatus": "Delivery",
    "divisionname": "Pithoragarh",
    "regionname": "Dehradun",
    "circlename": "Uttarakhand",
    "Taluk": "Dharchula",
    "Districtname": "Pithoragarh",
    "statename": "UTTARAKHAND"
  },
  {
    "pincode": "262547",
    "officename": "Jipti B.O",
    "officeType": "B.O",
    "Deliverystatus": "Delivery",
    "divisionname": "Pithoragarh",
    "regionname": "Dehradun",
    "circlename": "Uttarakhand",
    "Taluk": "Dharchula",
    "Districtname": "Pithoragarh",
    "statename": "UTTARAKHAND"
  },
  {
    "pincode": "262547",
    "officename": "Kailash B.O",
    "officeType": "B.O",
    "Deliverystatus": "Delivery",
    "divisionname": "Pithoragarh",
    "regionname": "Dehradun",
    "circlename": "Uttarakhand",
    "Taluk": "Dharchula",
    "Districtname": "Pithoragarh",
    "statename": "UTTARAKHAND"
  },
  {
    "pincode": "262547",
    "officename": "Kurila B.O",
    "officeType": "B.O",
    "Deliverystatus": "Delivery",
    "divisionname": "Pithoragarh",
    "regionname": "Dehradun",
    "circlename": "Uttarakhand",
    "Taluk": "Dharchula",
    "Districtname": "Pithoragarh",
    "statename": "UTTARAKHAND"
  },
  {
    "pincode": "262547",
    "officename": "Pangla B.O",
    "officeType": "B.O",
    "Deliverystatus": "Delivery",
    "divisionname": "Pithoragarh",
    "regionname": "Dehradun",
    "circlename": "Uttarakhand",
    "Taluk": "Dharchula",
    "Districtname": "Pithoragarh",
    "statename": "UTTARAKHAND"
  },
  {
    "pincode": "262547",
    "officename": "Pangu S.O",
    "officeType": "S.O",
    "Deliverystatus": "Delivery",
    "divisionname": "Pithoragarh",
    "regionname": "Dehradun",
    "circlename": "Uttarakhand",
    "Taluk": "",
    "Districtname": "Pithoragarh",
    "statename": "UTTARAKHAND"
  },
  {
    "pincode": "262547",
    "officename": "Simkhola B.O",
    "officeType": "B.O",
    "Deliverystatus": "Delivery",
    "divisionname": "Pithoragarh",
    "regionname": "Dehradun",
    "circlename": "Uttarakhand",
    "Taluk": "Dharchula",
    "Districtname": "Pithoragarh",
    "statename": "UTTARAKHAND"
  },
  {
    "pincode": "262547",
    "officename": "Sirkha B.O",
    "officeType": "B.O",
    "Deliverystatus": "Delivery",
    "divisionname": "Pithoragarh",
    "regionname": "Dehradun",
    "circlename": "Uttarakhand",
    "Taluk": "Dharchula",
    "Districtname": "Pithoragarh",
    "statename": "UTTARAKHAND"
  },
  {
    "pincode": "262547",
    "officename": "Sosa B.O",
    "officeType": "B.O",
    "Deliverystatus": "Delivery",
    "divisionname": "Pithoragarh",
    "regionname": "Dehradun",
    "circlename": "Uttarakhand",
    "Taluk": "Dharchula",
    "Districtname": "Pithoragarh",
    "statename": "UTTARAKHAND"
  }
]
