[
  {
    "pincode": "262524",
    "officename": "Bagoti B.O",
    "officeType": "B.O",
    "Deliverystatus": "Delivery",
    "divisionname": "Pithoragarh",
    "regionname": "Dehradun",
    "circlename": "Uttarakhand",
    "Taluk": "Lohaghat",
    "Districtname": "Champawat",
    "statename": "UTTARAKHAND"
  },
  {
    "pincode": "262524",
    "officename": "Banku B.O",
    "officeType": "B.O",
    "Deliverystatus": "Delivery",
    "divisionname": "Pithoragarh",
    "regionname": "Dehradun",
    "circlename": "Uttarakhand",
    "Taluk": "Lohaghat",
    "Districtname": "Champawat",
    "statename": "UTTARAKHAND"
  },
  {
    "pincode": "262524",
    "officename": "Bhumlai B.O",
    "officeType": "B.O",
    "Deliverystatus": "Delivery",
    "divisionname": "Pithoragarh",
    "regionname": "Dehradun",
    "circlename": "Uttarakhand",
    "Taluk": "Lohaghat",
    "Districtname": "Champawat",
    "statename": "UTTARAKHAND"
  },
  {
    "pincode": "262524",
    "officename": "Bibil B.O",
    "officeType": "B.O",
    "Deliverystatus": "Delivery",
    "divisionname": "Pithoragarh",
    "regionname": "Dehradun",
    "circlename": "Uttarakhand",
    "Taluk": "Lohaghat",
    "Districtname": "Champawat",
    "statename": "UTTARAKHAND"
  },
  {
    "pincode": "262524",
    "officename": "Chilkote B.O",
    "officeType": "B.O",
    "Deliverystatus": "Delivery",
    "divisionname": "Pithoragarh",
    "regionname": "Dehradun",
    "circlename": "Uttarakhand",
    "Taluk": "Lohaghat",
    "Districtname": "Champawat",
    "statename": "UTTARAKHAND"
  },
  {
    "pincode": "262524",
    "officename": "Dhorja B.O",
    "officeType": "B.O",
    "Deliverystatus": "Delivery",
    "divisionname": "Pithoragarh",
    "regionname": "Dehradun",
    "circlename": "Uttarakhand",
    "Taluk": "Lohaghat",
    "Districtname": "Champawat",
    "statename": "UTTARAKHAND"
  },
  {
    "pincode": "262524",
    "officename": "Digalichaur B.O",
    "officeType": "B.O",
    "Deliverystatus": "Delivery",
    "divisionname": "Pithoragarh",
    "regionname": "Dehradun",
    "circlename": "Uttarakhand",
    "Taluk": "Lohaghat",
    "Districtname": "Champawat",
    "statename": "UTTARAKHAND"
  },
  {
    "pincode": "262524",
    "officename": "Galchaura B.O",
    "officeType": "B.O",
    "Deliverystatus": "Delivery",
    "divisionname": "Pithoragarh",
    "regionname": "Dehradun",
    "circlename": "Uttarakhand",
    "Taluk": "Lohaghat",
    "Districtname": "Champawat",
    "statename": "UTTARAKHAND"
  },
  {
    "pincode": "262524",
    "officename": "Gallagaon B.O",
    "officeType": "B.O",
    "Deliverystatus": "Delivery",
    "divisionname": "Pithoragarh",
    "regionname": "Dehradun",
    "circlename": "Uttarakhand",
    "Taluk": "Lohaghat",
    "Districtname": "Champawat",
    "statename": "UTTARAKHAND"
  },
  {
    "pincode": "262524",
    "officename": "Ijara B.O",
    "officeType": "B.O",
    "Deliverystatus": "Delivery",
    "divisionname": "Pithoragarh",
    "regionname": "Dehradun",
    "circlename": "Uttarakhand",
    "Taluk": "Lohaghat",
    "Districtname": "Champawat",
    "statename": "UTTARAKHAND"
  },
  {
    "pincode": "262524",
    "officename": "Karnkarayat B.O",
    "officeType": "B.O",
    "Deliverystatus": "Delivery",
    "divisionname": "Pithoragarh",
    "regionname": "Dehradun",
    "circlename": "Uttarakhand",
    "Taluk": "Lohaghat",
    "Districtname": "Champawat",
    "statename": "UTTARAKHAND"
  },
  {
    "pincode": "262524",
    "officename": "Khateramalla B.O",
    "officeType": "B.O",
    "Deliverystatus": "Delivery",
    "divisionname": "Pithoragarh",
    "regionname": "Dehradun",
    "circlename": "Uttarakhand",
    "Taluk": "Lohaghat",
    "Districtname": "Champawat",
    "statename": "UTTARAKHAND"
  },
  {
    "pincode": "262524",
    "officename": "Khunabora B.O",
    "officeType": "B.O",
    "Deliverystatus": "Delivery",
    "divisionname": "Pithoragarh",
    "regionname": "Dehradun",
    "circlename": "Uttarakhand",
    "Taluk": "Lohaghat",
    "Districtname": "Champawat",
    "statename": "UTTARAKHAND"
  },
  {
    "pincode": "262524",
    "officename": "Koyati B.O",
    "officeType": "B.O",
    "Deliverystatus": "Delivery",
    "divisionname": "Pithoragarh",
    "regionname": "Dehradun",
    "circlename": "Uttarakhand",
    "Taluk": "Lohaghat",
    "Districtname": "Champawat",
    "statename": "UTTARAKHAND"
  },
  {
    "pincode": "262524",
    "officename": "Leti B.O",
    "officeType": "B.O",
    "Deliverystatus": "Delivery",
    "divisionname": "Pithoragarh",
    "regionname": "Dehradun",
    "circlename": "Uttarakhand",
    "Taluk": "Lohaghat",
    "Districtname": "Champawat",
    "statename": "UTTARAKHAND"
  },
  {
    "pincode": "262524",
    "officename": "Lohaghat S.O",
    "officeType": "S.O",
    "Deliverystatus": "Delivery",
    "divisionname": "Pithoragarh",
    "regionname": "Dehradun",
    "circlename": "Uttarakhand",
    "Taluk": "Lohaghat",
    "Districtname": "Champawat",
    "statename": "UTTARAKHAND"
  },
  {
    "pincode": "262524",
    "officename": "Madhuwa B.O",
    "officeType": "B.O",
    "Deliverystatus": "Delivery",
    "divisionname": "Pithoragarh",
    "regionname": "Dehradun",
    "circlename": "Uttarakhand",
    "Taluk": "Lohaghat",
    "Districtname": "Champawat",
    "statename": "UTTARAKHAND"
  },
  {
    "pincode": "262524",
    "officename": "Madlak B.O",
    "officeType": "B.O",
    "Deliverystatus": "Delivery",
    "divisionname": "Pithoragarh",
    "regionname": "Dehradun",
    "circlename": "Uttarakhand",
    "Taluk": "Lohaghat",
    "Districtname": "Champawat",
    "statename": "UTTARAKHAND"
  },
  {
    "pincode": "262524",
    "officename": "Mayawati B.O",
    "officeType": "B.O",
    "Deliverystatus": "Delivery",
    "divisionname": "Pithoragarh",
    "regionname": "Dehradun",
    "circlename": "Uttarakhand",
    "Taluk": "Lohaghat",
    "Districtname": "Champawat",
    "statename": "UTTARAKHAND"
  },
  {
    "pincode": "262524",
    "officename": "Nidil B.O",
    "officeType": "B.O",
    "Deliverystatus": "Delivery",
    "divisionname": "Pithoragarh",
    "regionname": "Dehradun",
    "circlename": "Uttarakhand",
    "Taluk": "Lohaghat",
    "Districtname": "Champawat",
    "statename": "UTTARAKHAND"
  },
  {
    "pincode": "262524",
    "officename": "Pulhindola B.O",
    "officeType": "B.O",
    "Deliverystatus": "Delivery",
    "divisionname": "Pithoragarh",
    "regionname": "Dehradun",
    "circlename": "Uttarakhand",
    "Taluk": "Lohaghat",
    "Districtname": "Champawat",
    "statename": "UTTARAKHAND"
  },
  {
    "pincode": "262524",
    "officename": "Rausal B.O",
    "officeType": "B.O",
    "Deliverystatus": "Delivery",
    "divisionname": "Pithoragarh",
    "regionname": "Dehradun",
    "circlename": "Uttarakhand",
    "Taluk": "Lohaghat",
    "Districtname": "Champawat",
    "statename": "UTTARAKHAND"
  },
  {
    "pincode": "262524",
    "officename": "Shillinga B.O",
    "officeType": "B.O",
    "Deliverystatus": "Delivery",
    "divisionname": "Pithoragarh",
    "regionname": "Dehradun",
    "circlename": "Uttarakhand",
    "Taluk": "Lohaghat",
    "Districtname": "Champawat",
    "statename": "UTTARAKHAND"
  },
  {
    "pincode": "262524",
    "officename": "Thanta B.O",
    "officeType": "B.O",
    "Deliverystatus": "Delivery",
    "divisionname": "Pithoragarh",
    "regionname": "Dehradun",
    "circlename": "Uttarakhand",
    "Taluk": "Lohaghat",
    "Districtname": "Champawat",
    "statename": "UTTARAKHAND"
  }
]
