[
  {
    "pincode": "262552",
    "officename": "Balgari B.O",
    "officeType": "B.O",
    "Deliverystatus": "Delivery",
    "divisionname": "Pithoragarh",
    "regionname": "Dehradun",
    "circlename": "Uttarakhand",
    "Taluk": "Berinag",
    "Districtname": "Pithoragarh",
    "statename": "UTTARAKHAND"
  },
  {
    "pincode": "262552",
    "officename": "Baret B.O",
    "officeType": "B.O",
    "Deliverystatus": "Delivery",
    "divisionname": "Pithoragarh",
    "regionname": "Dehradun",
    "circlename": "Uttarakhand",
    "Taluk": "Berinag",
    "Districtname": "Pithoragarh",
    "statename": "UTTARAKHAND"
  },
  {
    "pincode": "262552",
    "officename": "Barsayat B.O",
    "officeType": "B.O",
    "Deliverystatus": "Delivery",
    "divisionname": "Pithoragarh",
    "regionname": "Dehradun",
    "circlename": "Uttarakhand",
    "Taluk": "Berinag",
    "Districtname": "Pithoragarh",
    "statename": "UTTARAKHAND"
  },
  {
    "pincode": "262552",
    "officename": "Bhandarigaon B.O",
    "officeType": "B.O",
    "Deliverystatus": "Delivery",
    "divisionname": "Pithoragarh",
    "regionname": "Dehradun",
    "circlename": "Uttarakhand",
    "Taluk": "Didihat",
    "Districtname": "Pithoragarh",
    "statename": "UTTARAKHAND"
  },
  {
    "pincode": "262552",
    "officename": "Bhantarh B.O",
    "officeType": "B.O",
    "Deliverystatus": "Delivery",
    "divisionname": "Pithoragarh",
    "regionname": "Dehradun",
    "circlename": "Uttarakhand",
    "Taluk": "Berinag",
    "Districtname": "Pithoragarh",
    "statename": "UTTARAKHAND"
  },
  {
    "pincode": "262552",
    "officename": "Bhatigaon B.O",
    "officeType": "B.O",
    "Deliverystatus": "Delivery",
    "divisionname": "Pithoragarh",
    "regionname": "Dehradun",
    "circlename": "Uttarakhand",
    "Taluk": "Didihat",
    "Districtname": "Pithoragarh",
    "statename": "UTTARAKHAND"
  },
  {
    "pincode": "262552",
    "officename": "Binayak B.O",
    "officeType": "B.O",
    "Deliverystatus": "Delivery",
    "divisionname": "Pithoragarh",
    "regionname": "Dehradun",
    "circlename": "Uttarakhand",
    "Taluk": "Berinag",
    "Districtname": "Pithoragarh",
    "statename": "UTTARAKHAND"
  },
  {
    "pincode": "262552",
    "officename": "Dangigaon B.O",
    "officeType": "B.O",
    "Deliverystatus": "Delivery",
    "divisionname": "Pithoragarh",
    "regionname": "Dehradun",
    "circlename": "Uttarakhand",
    "Taluk": "",
    "Districtname": "Pithoragarh",
    "statename": "UTTARAKHAND"
  },
  {
    "pincode": "262552",
    "officename": "Gobrari B.O",
    "officeType": "B.O",
    "Deliverystatus": "Delivery",
    "divisionname": "Pithoragarh",
    "regionname": "Dehradun",
    "circlename": "Uttarakhand",
    "Taluk": "Didihat",
    "Districtname": "Pithoragarh",
    "statename": "UTTARAKHAND"
  },
  {
    "pincode": "262552",
    "officename": "Hajeti B.O",
    "officeType": "B.O",
    "Deliverystatus": "Delivery",
    "divisionname": "Pithoragarh",
    "regionname": "Dehradun",
    "circlename": "Uttarakhand",
    "Taluk": "Berinag",
    "Districtname": "Pithoragarh",
    "statename": "UTTARAKHAND"
  },
  {
    "pincode": "262552",
    "officename": "Kukrauli B.O",
    "officeType": "B.O",
    "Deliverystatus": "Delivery",
    "divisionname": "Pithoragarh",
    "regionname": "Dehradun",
    "circlename": "Uttarakhand",
    "Taluk": "Didihat",
    "Districtname": "Pithoragarh",
    "statename": "UTTARAKHAND"
  },
  {
    "pincode": "262552",
    "officename": "Lejam B.O",
    "officeType": "B.O",
    "Deliverystatus": "Delivery",
    "divisionname": "Pithoragarh",
    "regionname": "Dehradun",
    "circlename": "Uttarakhand",
    "Taluk": "Didihat",
    "Districtname": "Pithoragarh",
    "statename": "UTTARAKHAND"
  },
  {
    "pincode": "262552",
    "officename": "Muwani GDS B.O",
    "officeType": "B.O",
    "Deliverystatus": "Delivery",
    "divisionname": "Pithoragarh",
    "regionname": "Dehradun",
    "circlename": "Uttarakhand",
    "Taluk": "Didihat",
    "Districtname": "Pithoragarh",
    "statename": "UTTARAKHAND"
  },
  {
    "pincode": "262552",
    "officename": "Pamtori B.O",
    "officeType": "B.O",
    "Deliverystatus": "Delivery",
    "divisionname": "Pithoragarh",
    "regionname": "Dehradun",
    "circlename": "Uttarakhand",
    "Taluk": "Didihat",
    "Districtname": "Pithoragarh",
    "statename": "UTTARAKHAND"
  },
  {
    "pincode": "262552",
    "officename": "Patet B.O",
    "officeType": "B.O",
    "Deliverystatus": "Delivery",
    "divisionname": "Pithoragarh",
    "regionname": "Dehradun",
    "circlename": "Uttarakhand",
    "Taluk": "Didihat",
    "Districtname": "Pithoragarh",
    "statename": "UTTARAKHAND"
  },
  {
    "pincode": "262552",
    "officename": "Selavan B.O",
    "officeType": "B.O",
    "Deliverystatus": "Delivery",
    "divisionname": "Pithoragarh",
    "regionname": "Dehradun",
    "circlename": "Uttarakhand",
    "Taluk": "Didihat",
    "Districtname": "Pithoragarh",
    "statename": "UTTARAKHAND"
  },
  {
    "pincode": "262552",
    "officename": "Tarigaon B.O",
    "officeType": "B.O",
    "Deliverystatus": "Delivery",
    "divisionname": "Pithoragarh",
    "regionname": "Dehradun",
    "circlename": "Uttarakhand",
    "Taluk": "Didihat",
    "Districtname": "Pithoragarh",
    "statename": "UTTARAKHAND"
  },
  {
    "pincode": "262552",
    "officename": "Thal S.O (Pithoragarh)",
    "officeType": "S.O",
    "Deliverystatus": "Delivery",
    "divisionname": "Pithoragarh",
    "regionname": "Dehradun",
    "circlename": "Uttarakhand",
    "Taluk": "Didihat",
    "Districtname": "Pithoragarh",
    "statename": "UTTARAKHAND"
  }
]
