[
  {
    "pincode": "262554",
    "officename": "Bauna B.O",
    "officeType": "B.O",
    "Deliverystatus": "Delivery",
    "divisionname": "Pithoragarh",
    "regionname": "Dehradun",
    "circlename": "Uttarakhand",
    "Taluk": "Munsiari",
    "Districtname": "Pithoragarh",
    "statename": "UTTARAKHAND"
  },
  {
    "pincode": "262554",
    "officename": "Burfu(S) B.O",
    "officeType": "B.O",
    "Deliverystatus": "Delivery",
    "divisionname": "Pithoragarh",
    "regionname": "Dehradun",
    "circlename": "Uttarakhand",
    "Taluk": "Munsiari",
    "Districtname": "Pithoragarh",
    "statename": "UTTARAKHAND"
  },
  {
    "pincode": "262554",
    "officename": "Chauna B.O",
    "officeType": "B.O",
    "Deliverystatus": "Delivery",
    "divisionname": "Pithoragarh",
    "regionname": "Dehradun",
    "circlename": "Uttarakhand",
    "Taluk": "Munsiari",
    "Districtname": "Pithoragarh",
    "statename": "UTTARAKHAND"
  },
  {
    "pincode": "262554",
    "officename": "Dhunamani B.O",
    "officeType": "B.O",
    "Deliverystatus": "Delivery",
    "divisionname": "Pithoragarh",
    "regionname": "Dehradun",
    "circlename": "Uttarakhand",
    "Taluk": "Munsiari",
    "Districtname": "Pithoragarh",
    "statename": "UTTARAKHAND"
  },
  {
    "pincode": "262554",
    "officename": "Dummar B.O",
    "officeType": "B.O",
    "Deliverystatus": "Delivery",
    "divisionname": "Pithoragarh",
    "regionname": "Dehradun",
    "circlename": "Uttarakhand",
    "Taluk": "Munsiari",
    "Districtname": "Pithoragarh",
    "statename": "UTTARAKHAND"
  },
  {
    "pincode": "262554",
    "officename": "Josha B.O",
    "officeType": "B.O",
    "Deliverystatus": "Delivery",
    "divisionname": "Pithoragarh",
    "regionname": "Dehradun",
    "circlename": "Uttarakhand",
    "Taluk": "Munsiari",
    "Districtname": "Pithoragarh",
    "statename": "UTTARAKHAND"
  },
  {
    "pincode": "262554",
    "officename": "Leelam B.O",
    "officeType": "B.O",
    "Deliverystatus": "Delivery",
    "divisionname": "Pithoragarh",
    "regionname": "Dehradun",
    "circlename": "Uttarakhand",
    "Taluk": "Munsiari",
    "Districtname": "Pithoragarh",
    "statename": "UTTARAKHAND"
  },
  {
    "pincode": "262554",
    "officename": "Madkote B.O",
    "officeType": "B.O",
    "Deliverystatus": "Delivery",
    "divisionname": "Pithoragarh",
    "regionname": "Dehradun",
    "circlename": "Uttarakhand",
    "Taluk": "Munsiari",
    "Districtname": "Pithoragarh",
    "statename": "UTTARAKHAND"
  },
  {
    "pincode": "262554",
    "officename": "Millam(S) B.O",
    "officeType": "B.O",
    "Deliverystatus": "Delivery",
    "divisionname": "Pithoragarh",
    "regionname": "Dehradun",
    "circlename": "Uttarakhand",
    "Taluk": "Munsiari",
    "Districtname": "Pithoragarh",
    "statename": "UTTARAKHAND"
  },
  {
    "pincode": "262554",
    "officename": "Munsiari S.O",
    "officeType": "S.O",
    "Deliverystatus": "Delivery",
    "divisionname": "Pithoragarh",
    "regionname": "Dehradun",
    "circlename": "Uttarakhand",
    "Taluk": "Munsiari",
    "Districtname": "Pithoragarh",
    "statename": "UTTARAKHAND"
  },
  {
    "pincode": "262554",
    "officename": "Ranthi B.O",
    "officeType": "B.O",
    "Deliverystatus": "Delivery",
    "divisionname": "Pithoragarh",
    "regionname": "Dehradun",
    "circlename": "Uttarakhand",
    "Taluk": "Munsiari",
    "Districtname": "Pithoragarh",
    "statename": "UTTARAKHAND"
  },
  {
    "pincode": "262554",
    "officename": "Ringu Chilkote B.O",
    "officeType": "B.O",
    "Deliverystatus": "Delivery",
    "divisionname": "Pithoragarh",
    "regionname": "Dehradun",
    "circlename": "Uttarakhand",
    "Taluk": "Munsiari",
    "Districtname": "Pithoragarh",
    "statename": "UTTARAKHAND"
  },
  {
    "pincode": "262554",
    "officename": "Sain B.O",
    "officeType": "B.O",
    "Deliverystatus": "Delivery",
    "divisionname": "Pithoragarh",
    "regionname": "Dehradun",
    "circlename": "Uttarakhand",
    "Taluk": "Munsiari",
    "Districtname": "Pithoragarh",
    "statename": "UTTARAKHAND"
  },
  {
    "pincode": "262554",
    "officename": "Sevila B.O",
    "officeType": "B.O",
    "Deliverystatus": "Delivery",
    "divisionname": "Pithoragarh",
    "regionname": "Dehradun",
    "circlename": "Uttarakhand",
    "Taluk": "Munsiari",
    "Districtname": "Pithoragarh",
    "statename": "UTTARAKHAND"
  },
  {
    "pincode": "262554",
    "officename": "Uchhaiti B.O",
    "officeType": "B.O",
    "Deliverystatus": "Delivery",
    "divisionname": "Pithoragarh",
    "regionname": "Dehradun",
    "circlename": "Uttarakhand",
    "Taluk": "Munsiari",
    "Districtname": "Pithoragarh",
    "statename": "UTTARAKHAND"
  },
  {
    "pincode": "262554",
    "officename": "Walthi B.O",
    "officeType": "B.O",
    "Deliverystatus": "Delivery",
    "divisionname": "Pithoragarh",
    "regionname": "Dehradun",
    "circlename": "Uttarakhand",
    "Taluk": "Munsiari",
    "Districtname": "Pithoragarh",
    "statename": "UTTARAKHAND"
  }
]
