[
  {
    "pincode": "262553",
    "officename": "Bhainskote B.O",
    "officeType": "B.O",
    "Deliverystatus": "Delivery",
    "divisionname": "Pithoragarh",
    "regionname": "Dehradun",
    "circlename": "Uttarakhand",
    "Taluk": "Munsiari",
    "Districtname": "Pithoragarh",
    "statename": "UTTARAKHAND"
  },
  {
    "pincode": "262553",
    "officename": "Dekuna B.O",
    "officeType": "B.O",
    "Deliverystatus": "Delivery",
    "divisionname": "Pithoragarh",
    "regionname": "Dehradun",
    "circlename": "Uttarakhand",
    "Taluk": "Munsiari",
    "Districtname": "Pithoragarh",
    "statename": "UTTARAKHAND"
  },
  {
    "pincode": "262553",
    "officename": "Dor B.O",
    "officeType": "B.O",
    "Deliverystatus": "Delivery",
    "divisionname": "Pithoragarh",
    "regionname": "Dehradun",
    "circlename": "Uttarakhand",
    "Taluk": "Munsiari",
    "Districtname": "Pithoragarh",
    "statename": "UTTARAKHAND"
  },
  {
    "pincode": "262553",
    "officename": "Girgaon B.O",
    "officeType": "B.O",
    "Deliverystatus": "Delivery",
    "divisionname": "Pithoragarh",
    "regionname": "Dehradun",
    "circlename": "Uttarakhand",
    "Taluk": "Munsiari",
    "Districtname": "Pithoragarh",
    "statename": "UTTARAKHAND"
  },
  {
    "pincode": "262553",
    "officename": "Hokra B.O",
    "officeType": "B.O",
    "Deliverystatus": "Delivery",
    "divisionname": "Pithoragarh",
    "regionname": "Dehradun",
    "circlename": "Uttarakhand",
    "Taluk": "Munsiari",
    "Districtname": "Pithoragarh",
    "statename": "UTTARAKHAND"
  },
  {
    "pincode": "262553",
    "officename": "Hupuli B.O",
    "officeType": "B.O",
    "Deliverystatus": "Delivery",
    "divisionname": "Pithoragarh",
    "regionname": "Dehradun",
    "circlename": "Uttarakhand",
    "Taluk": "Munsiari",
    "Districtname": "Pithoragarh",
    "statename": "UTTARAKHAND"
  },
  {
    "pincode": "262553",
    "officename": "Khatera B.O",
    "officeType": "B.O",
    "Deliverystatus": "Delivery",
    "divisionname": "Pithoragarh",
    "regionname": "Dehradun",
    "circlename": "Uttarakhand",
    "Taluk": "Munsiari",
    "Districtname": "Pithoragarh",
    "statename": "UTTARAKHAND"
  },
  {
    "pincode": "262553",
    "officename": "Madalkiya B.O",
    "officeType": "B.O",
    "Deliverystatus": "Delivery",
    "divisionname": "Pithoragarh",
    "regionname": "Dehradun",
    "circlename": "Uttarakhand",
    "Taluk": "Munsiari",
    "Districtname": "Pithoragarh",
    "statename": "UTTARAKHAND"
  },
  {
    "pincode": "262553",
    "officename": "Nachni B.O",
    "officeType": "B.O",
    "Deliverystatus": "Delivery",
    "divisionname": "Pithoragarh",
    "regionname": "Dehradun",
    "circlename": "Uttarakhand",
    "Taluk": "Munsiari",
    "Districtname": "Pithoragarh",
    "statename": "UTTARAKHAND"
  },
  {
    "pincode": "262553",
    "officename": "Namik B.O",
    "officeType": "B.O",
    "Deliverystatus": "Delivery",
    "divisionname": "Pithoragarh",
    "regionname": "Dehradun",
    "circlename": "Uttarakhand",
    "Taluk": "Munsiari",
    "Districtname": "Pithoragarh",
    "statename": "UTTARAKHAND"
  },
  {
    "pincode": "262553",
    "officename": "Quiti GDS B.O",
    "officeType": "B.O",
    "Deliverystatus": "Delivery",
    "divisionname": "Pithoragarh",
    "regionname": "Dehradun",
    "circlename": "Uttarakhand",
    "Taluk": "Munsiari",
    "Districtname": "Pithoragarh",
    "statename": "UTTARAKHAND"
  },
  {
    "pincode": "262553",
    "officename": "Sainranthi B.O",
    "officeType": "B.O",
    "Deliverystatus": "Delivery",
    "divisionname": "Pithoragarh",
    "regionname": "Dehradun",
    "circlename": "Uttarakhand",
    "Taluk": "Munsiari",
    "Districtname": "Pithoragarh",
    "statename": "UTTARAKHAND"
  },
  {
    "pincode": "262553",
    "officename": "Tejam S.O",
    "officeType": "S.O",
    "Deliverystatus": "Delivery",
    "divisionname": "Pithoragarh",
    "regionname": "Dehradun",
    "circlename": "Uttarakhand",
    "Taluk": "Munsiari",
    "Districtname": "Pithoragarh",
    "statename": "UTTARAKHAND"
  }
]
