[
  {
    "pincode": "262724",
    "officename": "Abhayapur B.O",
    "officeType": "B.O",
    "Deliverystatus": "Delivery",
    "divisionname": "Kheri",
    "regionname": "Bareilly",
    "circlename": "Uttar Pradesh",
    "Taluk": "Dhaurahara",
    "Districtname": "Kheri",
    "statename": "UTTAR PRADESH"
  },
  {
    "pincode": "262724",
    "officename": "Akathi B.O",
    "officeType": "B.O",
    "Deliverystatus": "Delivery",
    "divisionname": "Kheri",
    "regionname": "Bareilly",
    "circlename": "Uttar Pradesh",
    "Taluk": "Dhaurahara",
    "Districtname": "Kheri",
    "statename": "UTTAR PRADESH"
  },
  {
    "pincode": "262724",
    "officename": "Dulahi B.O",
    "officeType": "B.O",
    "Deliverystatus": "Delivery",
    "divisionname": "Kheri",
    "regionname": "Bareilly",
    "circlename": "Uttar Pradesh",
    "Taluk": "Dhaurahara",
    "Districtname": "Kheri",
    "statename": "UTTAR PRADESH"
  },
  {
    "pincode": "262724",
    "officename": "G.T. Amethi B.O",
    "officeType": "B.O",
    "Deliverystatus": "Delivery",
    "divisionname": "Kheri",
    "regionname": "Bareilly",
    "circlename": "Uttar Pradesh",
    "Taluk": "Dhaurahara",
    "Districtname": "Kheri",
    "statename": "UTTAR PRADESH"
  },
  {
    "pincode": "262724",
    "officename": "Ghur Ghutta Bujurg B.O",
    "officeType": "B.O",
    "Deliverystatus": "Delivery",
    "divisionname": "Kheri",
    "regionname": "Bareilly",
    "circlename": "Uttar Pradesh",
    "Taluk": "Dhaurahara",
    "Districtname": "Kheri",
    "statename": "UTTAR PRADESH"
  },
  {
    "pincode": "262724",
    "officename": "Haukana B.O",
    "officeType": "B.O",
    "Deliverystatus": "Delivery",
    "divisionname": "Kheri",
    "regionname": "Bareilly",
    "circlename": "Uttar Pradesh",
    "Taluk": "Dhaurahara",
    "Districtname": "Kheri",
    "statename": "UTTAR PRADESH"
  },
  {
    "pincode": "262724",
    "officename": "Jatpurwa B.O",
    "officeType": "B.O",
    "Deliverystatus": "Delivery",
    "divisionname": "Kheri",
    "regionname": "Bareilly",
    "circlename": "Uttar Pradesh",
    "Taluk": "Dhaurahara",
    "Districtname": "Kheri",
    "statename": "UTTAR PRADESH"
  },
  {
    "pincode": "262724",
    "officename": "Jatpurwa S.O",
    "officeType": "S.O",
    "Deliverystatus": "Delivery",
    "divisionname": "Kheri",
    "regionname": "Bareilly",
    "circlename": "Uttar Pradesh",
    "Taluk": "Dhaurahara",
    "Districtname": "Kheri",
    "statename": "UTTAR PRADESH"
  },
  {
    "pincode": "262724",
    "officename": "Mallbehar B.O",
    "officeType": "B.O",
    "Deliverystatus": "Delivery",
    "divisionname": "Kheri",
    "regionname": "Bareilly",
    "circlename": "Uttar Pradesh",
    "Taluk": "Dhaurahara",
    "Districtname": "Kheri",
    "statename": "UTTAR PRADESH"
  },
  {
    "pincode": "262724",
    "officename": "Nainapur B.O",
    "officeType": "B.O",
    "Deliverystatus": "Delivery",
    "divisionname": "Kheri",
    "regionname": "Bareilly",
    "circlename": "Uttar Pradesh",
    "Taluk": "Dhaurahara",
    "Districtname": "Kheri",
    "statename": "UTTAR PRADESH"
  },
  {
    "pincode": "262724",
    "officename": "Ram Nagar Bagaha B.O",
    "officeType": "B.O",
    "Deliverystatus": "Delivery",
    "divisionname": "Kheri",
    "regionname": "Bareilly",
    "circlename": "Uttar Pradesh",
    "Taluk": "Dhaurahara",
    "Districtname": "Kheri",
    "statename": "UTTAR PRADESH"
  },
  {
    "pincode": "262724",
    "officename": "Semri B.O",
    "officeType": "B.O",
    "Deliverystatus": "Delivery",
    "divisionname": "Kheri",
    "regionname": "Bareilly",
    "circlename": "Uttar Pradesh",
    "Taluk": "Dhaurahara",
    "Districtname": "Kheri",
    "statename": "UTTAR PRADESH"
  }
]
