[
  {
    "pincode": "262727",
    "officename": "Abgawan B.O",
    "officeType": "B.O",
    "Deliverystatus": "Delivery",
    "divisionname": "Kheri",
    "regionname": "Bareilly",
    "circlename": "Uttar Pradesh",
    "Taluk": "Mohammdi",
    "Districtname": "Kheri",
    "statename": "UTTAR PRADESH"
  },
  {
    "pincode": "262727",
    "officename": "Birampur B.O",
    "officeType": "B.O",
    "Deliverystatus": "Delivery",
    "divisionname": "Kheri",
    "regionname": "Bareilly",
    "circlename": "Uttar Pradesh",
    "Taluk": "Mohammdi",
    "Districtname": "Kheri",
    "statename": "UTTAR PRADESH"
  },
  {
    "pincode": "262727",
    "officename": "Khanjan Nagar B.O",
    "officeType": "B.O",
    "Deliverystatus": "Delivery",
    "divisionname": "Kheri",
    "regionname": "Bareilly",
    "circlename": "Uttar Pradesh",
    "Taluk": "Mohammdi",
    "Districtname": "Kheri",
    "statename": "UTTAR PRADESH"
  },
  {
    "pincode": "262727",
    "officename": "Lalhaua B.O",
    "officeType": "B.O",
    "Deliverystatus": "Delivery",
    "divisionname": "Kheri",
    "regionname": "Bareilly",
    "circlename": "Uttar Pradesh",
    "Taluk": "Mohammdi",
    "Districtname": "Kheri",
    "statename": "UTTAR PRADESH"
  },
  {
    "pincode": "262727",
    "officename": "Mitauli S.O",
    "officeType": "S.O",
    "Deliverystatus": "Delivery",
    "divisionname": "Kheri",
    "regionname": "Bareilly",
    "circlename": "Uttar Pradesh",
    "Taluk": "Mohammdi",
    "Districtname": "Kheri",
    "statename": "UTTAR PRADESH"
  },
  {
    "pincode": "262727",
    "officename": "Neem Cheri B.O",
    "officeType": "B.O",
    "Deliverystatus": "Delivery",
    "divisionname": "Kheri",
    "regionname": "Bareilly",
    "circlename": "Uttar Pradesh",
    "Taluk": "Mohammdi",
    "Districtname": "Kheri",
    "statename": "UTTAR PRADESH"
  },
  {
    "pincode": "262727",
    "officename": "Odara B.O",
    "officeType": "B.O",
    "Deliverystatus": "Delivery",
    "divisionname": "Kheri",
    "regionname": "Bareilly",
    "circlename": "Uttar Pradesh",
    "Taluk": "Mohammdi",
    "Districtname": "Kheri",
    "statename": "UTTAR PRADESH"
  },
  {
    "pincode": "262727",
    "officename": "Sandilwa B.O",
    "officeType": "B.O",
    "Deliverystatus": "Delivery",
    "divisionname": "Kheri",
    "regionname": "Bareilly",
    "circlename": "Uttar Pradesh",
    "Taluk": "Mohammdi",
    "Districtname": "Kheri",
    "statename": "UTTAR PRADESH"
  },
  {
    "pincode": "262727",
    "officename": "Semrawan B.O",
    "officeType": "B.O",
    "Deliverystatus": "Delivery",
    "divisionname": "Kheri",
    "regionname": "Bareilly",
    "circlename": "Uttar Pradesh",
    "Taluk": "Mohammdi",
    "Districtname": "Kheri",
    "statename": "UTTAR PRADESH"
  }
]
