[
  {
    "pincode": "262701",
    "officename": "Baherwa B.O",
    "officeType": "B.O",
    "Deliverystatus": "Delivery",
    "divisionname": "Kheri",
    "regionname": "Bareilly",
    "circlename": "Uttar Pradesh",
    "Taluk": "Lakhimpur",
    "Districtname": "Kheri",
    "statename": "UTTAR PRADESH"
  },
  {
    "pincode": "262701",
    "officename": "Barkherwa B.O",
    "officeType": "B.O",
    "Deliverystatus": "Delivery",
    "divisionname": "Kheri",
    "regionname": "Bareilly",
    "circlename": "Uttar Pradesh",
    "Taluk": "Lakhimpur",
    "Districtname": "Kheri",
    "statename": "UTTAR PRADESH"
  },
  {
    "pincode": "262701",
    "officename": "Bijhauli B.O",
    "officeType": "B.O",
    "Deliverystatus": "Delivery",
    "divisionname": "Kheri",
    "regionname": "Bareilly",
    "circlename": "Uttar Pradesh",
    "Taluk": "Lakhimpur",
    "Districtname": "Kheri",
    "statename": "UTTAR PRADESH"
  },
  {
    "pincode": "262701",
    "officename": "Deokali B.O",
    "officeType": "B.O",
    "Deliverystatus": "Delivery",
    "divisionname": "Kheri",
    "regionname": "Bareilly",
    "circlename": "Uttar Pradesh",
    "Taluk": "Lakhimpur",
    "Districtname": "Kheri",
    "statename": "UTTAR PRADESH"
  },
  {
    "pincode": "262701",
    "officename": "Fardhan B.O",
    "officeType": "B.O",
    "Deliverystatus": "Delivery",
    "divisionname": "Kheri",
    "regionname": "Bareilly",
    "circlename": "Uttar Pradesh",
    "Taluk": "Lakhimpur",
    "Districtname": "Kheri",
    "statename": "UTTAR PRADESH"
  },
  {
    "pincode": "262701",
    "officename": "Ganeshpur B.O",
    "officeType": "B.O",
    "Deliverystatus": "Delivery",
    "divisionname": "Kheri",
    "regionname": "Bareilly",
    "circlename": "Uttar Pradesh",
    "Taluk": "Lakhimpur",
    "Districtname": "Kheri",
    "statename": "UTTAR PRADESH"
  },
  {
    "pincode": "262701",
    "officename": "Kaimahra B.O",
    "officeType": "B.O",
    "Deliverystatus": "Delivery",
    "divisionname": "Kheri",
    "regionname": "Bareilly",
    "circlename": "Uttar Pradesh",
    "Taluk": "Lakhimpur",
    "Districtname": "Kheri",
    "statename": "UTTAR PRADESH"
  },
  {
    "pincode": "262701",
    "officename": "Kalaam B.O",
    "officeType": "B.O",
    "Deliverystatus": "Delivery",
    "divisionname": "Kheri",
    "regionname": "Bareilly",
    "circlename": "Uttar Pradesh",
    "Taluk": "Lakhimpur",
    "Districtname": "Kheri",
    "statename": "UTTAR PRADESH"
  },
  {
    "pincode": "262701",
    "officename": "Kheri H.O",
    "officeType": "H.O",
    "Deliverystatus": "Delivery",
    "divisionname": "Kheri",
    "regionname": "Bareilly",
    "circlename": "Uttar Pradesh",
    "Taluk": "Lakhimpur",
    "Districtname": "Kheri",
    "statename": "UTTAR PRADESH"
  },
  {
    "pincode": "262701",
    "officename": "Lakhimpur S.O",
    "officeType": "S.O",
    "Deliverystatus": "Non-Delivery",
    "divisionname": "Kheri",
    "regionname": "Bareilly",
    "circlename": "Uttar Pradesh",
    "Taluk": "Lakhimpur",
    "Districtname": "Kheri",
    "statename": "UTTAR PRADESH"
  },
  {
    "pincode": "262701",
    "officename": "Lakhperaganj B.O",
    "officeType": "B.O",
    "Deliverystatus": "Delivery",
    "divisionname": "Kheri",
    "regionname": "Bareilly",
    "circlename": "Uttar Pradesh",
    "Taluk": "Lakhimpur",
    "Districtname": "Kheri",
    "statename": "UTTAR PRADESH"
  },
  {
    "pincode": "262701",
    "officename": "Lokesor B.O",
    "officeType": "B.O",
    "Deliverystatus": "Delivery",
    "divisionname": "Kheri",
    "regionname": "Bareilly",
    "circlename": "Uttar Pradesh",
    "Taluk": "Lakhimpur",
    "Districtname": "Kheri",
    "statename": "UTTAR PRADESH"
  },
  {
    "pincode": "262701",
    "officename": "Manyora B.O",
    "officeType": "B.O",
    "Deliverystatus": "Delivery",
    "divisionname": "Kheri",
    "regionname": "Bareilly",
    "circlename": "Uttar Pradesh",
    "Taluk": "Lakhimpur",
    "Districtname": "Kheri",
    "statename": "UTTAR PRADESH"
  },
  {
    "pincode": "262701",
    "officename": "Meerpur B.O",
    "officeType": "B.O",
    "Deliverystatus": "Delivery",
    "divisionname": "Kheri",
    "regionname": "Bareilly",
    "circlename": "Uttar Pradesh",
    "Taluk": "Lakhimpur",
    "Districtname": "Kheri",
    "statename": "UTTAR PRADESH"
  },
  {
    "pincode": "262701",
    "officename": "Midania B.O",
    "officeType": "B.O",
    "Deliverystatus": "Delivery",
    "divisionname": "Kheri",
    "regionname": "Bareilly",
    "circlename": "Uttar Pradesh",
    "Taluk": "Lakhimpur",
    "Districtname": "Kheri",
    "statename": "UTTAR PRADESH"
  },
  {
    "pincode": "262701",
    "officename": "Mudia Khera B.O",
    "officeType": "B.O",
    "Deliverystatus": "Delivery",
    "divisionname": "Kheri",
    "regionname": "Bareilly",
    "circlename": "Uttar Pradesh",
    "Taluk": "Lakhimpur",
    "Districtname": "Kheri",
    "statename": "UTTAR PRADESH"
  },
  {
    "pincode": "262701",
    "officename": "Murtiha B.O",
    "officeType": "B.O",
    "Deliverystatus": "Delivery",
    "divisionname": "Kheri",
    "regionname": "Bareilly",
    "circlename": "Uttar Pradesh",
    "Taluk": "Lakhimpur",
    "Districtname": "Kheri",
    "statename": "UTTAR PRADESH"
  },
  {
    "pincode": "262701",
    "officename": "Naibasti S.O",
    "officeType": "S.O",
    "Deliverystatus": "Non-Delivery",
    "divisionname": "Kheri",
    "regionname": "Bareilly",
    "circlename": "Uttar Pradesh",
    "Taluk": "Lakhimpur",
    "Districtname": "Kheri",
    "statename": "UTTAR PRADESH"
  },
  {
    "pincode": "262701",
    "officename": "Piparawan B.O",
    "officeType": "B.O",
    "Deliverystatus": "Delivery",
    "divisionname": "Kheri",
    "regionname": "Bareilly",
    "circlename": "Uttar Pradesh",
    "Taluk": "Lakhimpur",
    "Districtname": "Kheri",
    "statename": "UTTAR PRADESH"
  },
  {
    "pincode": "262701",
    "officename": "Rampur Gokul B.O",
    "officeType": "B.O",
    "Deliverystatus": "Delivery",
    "divisionname": "Kheri",
    "regionname": "Bareilly",
    "circlename": "Uttar Pradesh",
    "Taluk": "Lakhimpur",
    "Districtname": "Kheri",
    "statename": "UTTAR PRADESH"
  },
  {
    "pincode": "262701",
    "officename": "Rangila Nagar B.O",
    "officeType": "B.O",
    "Deliverystatus": "Delivery",
    "divisionname": "Kheri",
    "regionname": "Bareilly",
    "circlename": "Uttar Pradesh",
    "Taluk": "Lakhimpur",
    "Districtname": "Kheri",
    "statename": "UTTAR PRADESH"
  },
  {
    "pincode": "262701",
    "officename": "Razaganj B.O",
    "officeType": "B.O",
    "Deliverystatus": "Delivery",
    "divisionname": "Kheri",
    "regionname": "Bareilly",
    "circlename": "Uttar Pradesh",
    "Taluk": "Lakhimpur",
    "Districtname": "Kheri",
    "statename": "UTTAR PRADESH"
  },
  {
    "pincode": "262701",
    "officename": "Sankata Devi S.O",
    "officeType": "S.O",
    "Deliverystatus": "Non-Delivery",
    "divisionname": "Kheri",
    "regionname": "Bareilly",
    "circlename": "Uttar Pradesh",
    "Taluk": "Lakhimpur",
    "Districtname": "Kheri",
    "statename": "UTTAR PRADESH"
  },
  {
    "pincode": "262701",
    "officename": "Shivpuri S.O (Kheri)",
    "officeType": "S.O",
    "Deliverystatus": "Non-Delivery",
    "divisionname": "Kheri",
    "regionname": "Bareilly",
    "circlename": "Uttar Pradesh",
    "Taluk": "Lakhimpur",
    "Districtname": "Kheri",
    "statename": "UTTAR PRADESH"
  },
  {
    "pincode": "262701",
    "officename": "Siyathu B.O",
    "officeType": "B.O",
    "Deliverystatus": "Delivery",
    "divisionname": "Kheri",
    "regionname": "Bareilly",
    "circlename": "Uttar Pradesh",
    "Taluk": "Lakhimpur",
    "Districtname": "Kheri",
    "statename": "UTTAR PRADESH"
  },
  {
    "pincode": "262701",
    "officename": "Udaipur Mahewa B.O",
    "officeType": "B.O",
    "Deliverystatus": "Delivery",
    "divisionname": "Kheri",
    "regionname": "Bareilly",
    "circlename": "Uttar Pradesh",
    "Taluk": "Lakhimpur",
    "Districtname": "Kheri",
    "statename": "UTTAR PRADESH"
  }
]
