[
  {
    "pincode": "262906",
    "officename": "Banbirpur B.O",
    "officeType": "B.O",
    "Deliverystatus": "Delivery",
    "divisionname": "Kheri",
    "regionname": "Bareilly",
    "circlename": "Uttar Pradesh",
    "Taluk": "Nighasan",
    "Districtname": "Kheri",
    "statename": "UTTAR PRADESH"
  },
  {
    "pincode": "262906",
    "officename": "Belaparsua B.O",
    "officeType": "B.O",
    "Deliverystatus": "Delivery",
    "divisionname": "Kheri",
    "regionname": "Bareilly",
    "circlename": "Uttar Pradesh",
    "Taluk": "Nighasan",
    "Districtname": "Kheri",
    "statename": "UTTAR PRADESH"
  },
  {
    "pincode": "262906",
    "officename": "Belroyan B.O",
    "officeType": "B.O",
    "Deliverystatus": "Delivery",
    "divisionname": "Kheri",
    "regionname": "Bareilly",
    "circlename": "Uttar Pradesh",
    "Taluk": "Nighasan",
    "Districtname": "Kheri",
    "statename": "UTTAR PRADESH"
  },
  {
    "pincode": "262906",
    "officename": "Gadania B.O",
    "officeType": "B.O",
    "Deliverystatus": "Delivery",
    "divisionname": "Kheri",
    "regionname": "Bareilly",
    "circlename": "Uttar Pradesh",
    "Taluk": "Nighasan",
    "Districtname": "Kheri",
    "statename": "UTTAR PRADESH"
  },
  {
    "pincode": "262906",
    "officename": "Ganga Nagar B.O",
    "officeType": "B.O",
    "Deliverystatus": "Delivery",
    "divisionname": "Kheri",
    "regionname": "Bareilly",
    "circlename": "Uttar Pradesh",
    "Taluk": "Nighasan",
    "Districtname": "Kheri",
    "statename": "UTTAR PRADESH"
  },
  {
    "pincode": "262906",
    "officename": "Gularia Pathor Shah B.O",
    "officeType": "B.O",
    "Deliverystatus": "Delivery",
    "divisionname": "Kheri",
    "regionname": "Bareilly",
    "circlename": "Uttar Pradesh",
    "Taluk": "Nighasan",
    "Districtname": "Kheri",
    "statename": "UTTAR PRADESH"
  },
  {
    "pincode": "262906",
    "officename": "Kadia B.O",
    "officeType": "B.O",
    "Deliverystatus": "Delivery",
    "divisionname": "Kheri",
    "regionname": "Bareilly",
    "circlename": "Uttar Pradesh",
    "Taluk": "Nighasan",
    "Districtname": "Kheri",
    "statename": "UTTAR PRADESH"
  },
  {
    "pincode": "262906",
    "officename": "Kuaudiyala Ghat B.O",
    "officeType": "B.O",
    "Deliverystatus": "Delivery",
    "divisionname": "Kheri",
    "regionname": "Bareilly",
    "circlename": "Uttar Pradesh",
    "Taluk": "Nighasan",
    "Districtname": "Kheri",
    "statename": "UTTAR PRADESH"
  },
  {
    "pincode": "262906",
    "officename": "Manjha B.O",
    "officeType": "B.O",
    "Deliverystatus": "Delivery",
    "divisionname": "Kheri",
    "regionname": "Bareilly",
    "circlename": "Uttar Pradesh",
    "Taluk": "Nighasan",
    "Districtname": "Kheri",
    "statename": "UTTAR PRADESH"
  },
  {
    "pincode": "262906",
    "officename": "Raipur B.O",
    "officeType": "B.O",
    "Deliverystatus": "Delivery",
    "divisionname": "Kheri",
    "regionname": "Bareilly",
    "circlename": "Uttar Pradesh",
    "Taluk": "Nighasan",
    "Districtname": "Kheri",
    "statename": "UTTAR PRADESH"
  },
  {
    "pincode": "262906",
    "officename": "Suratnagar B.O",
    "officeType": "B.O",
    "Deliverystatus": "Delivery",
    "divisionname": "Kheri",
    "regionname": "Bareilly",
    "circlename": "Uttar Pradesh",
    "Taluk": "Nighasan",
    "Districtname": "Kheri",
    "statename": "UTTAR PRADESH"
  },
  {
    "pincode": "262906",
    "officename": "Tikunia B.O",
    "officeType": "B.O",
    "Deliverystatus": "Delivery",
    "divisionname": "Kheri",
    "regionname": "Bareilly",
    "circlename": "Uttar Pradesh",
    "Taluk": "Nighasan",
    "Districtname": "Kheri",
    "statename": "UTTAR PRADESH"
  },
  {
    "pincode": "262906",
    "officename": "Tikunia S.O",
    "officeType": "S.O",
    "Deliverystatus": "Delivery",
    "divisionname": "Kheri",
    "regionname": "Bareilly",
    "circlename": "Uttar Pradesh",
    "Taluk": "Nighasan",
    "Districtname": "Kheri",
    "statename": "UTTAR PRADESH"
  }
]
