[
  {
    "pincode": "263132",
    "officename": "Bhatalia B.O",
    "officeType": "B.O",
    "Deliverystatus": "Delivery",
    "divisionname": "Nainital",
    "regionname": "Dehradun",
    "circlename": "Uttarakhand",
    "Taluk": "Dhari",
    "Districtname": "Nainital",
    "statename": "UTTARAKHAND"
  },
  {
    "pincode": "263132",
    "officename": "Bhowali S.O",
    "officeType": "S.O",
    "Deliverystatus": "Delivery",
    "divisionname": "Nainital",
    "regionname": "Dehradun",
    "circlename": "Uttarakhand",
    "Taluk": "Nainital",
    "Districtname": "Nainital",
    "statename": "UTTARAKHAND"
  },
  {
    "pincode": "263132",
    "officename": "Bhumiadhar B.O",
    "officeType": "B.O",
    "Deliverystatus": "Delivery",
    "divisionname": "Nainital",
    "regionname": "Dehradun",
    "circlename": "Uttarakhand",
    "Taluk": "Nainital",
    "Districtname": "Nainital",
    "statename": "UTTARAKHAND"
  },
  {
    "pincode": "263132",
    "officename": "Dhanachuli B.O",
    "officeType": "B.O",
    "Deliverystatus": "Delivery",
    "divisionname": "Nainital",
    "regionname": "Dehradun",
    "circlename": "Uttarakhand",
    "Taluk": "Dhari",
    "Districtname": "Nainital",
    "statename": "UTTARAKHAND"
  },
  {
    "pincode": "263132",
    "officename": "Gagar B.O",
    "officeType": "B.O",
    "Deliverystatus": "Delivery",
    "divisionname": "Nainital",
    "regionname": "Dehradun",
    "circlename": "Uttarakhand",
    "Taluk": "Nainital",
    "Districtname": "Nainital",
    "statename": "UTTARAKHAND"
  },
  {
    "pincode": "263132",
    "officename": "Joshyua B.O",
    "officeType": "B.O",
    "Deliverystatus": "Delivery",
    "divisionname": "Nainital",
    "regionname": "Dehradun",
    "circlename": "Uttarakhand",
    "Taluk": "Dhari",
    "Districtname": "Nainital",
    "statename": "UTTARAKHAND"
  },
  {
    "pincode": "263132",
    "officename": "Kainchi B.O",
    "officeType": "B.O",
    "Deliverystatus": "Delivery",
    "divisionname": "Nainital",
    "regionname": "Dehradun",
    "circlename": "Uttarakhand",
    "Taluk": "Kosya Kutauli",
    "Districtname": "Nainital",
    "statename": "UTTARAKHAND"
  },
  {
    "pincode": "263132",
    "officename": "Kashialekh B.O",
    "officeType": "B.O",
    "Deliverystatus": "Delivery",
    "divisionname": "Nainital",
    "regionname": "Dehradun",
    "circlename": "Uttarakhand",
    "Taluk": "Dhari",
    "Districtname": "Nainital",
    "statename": "UTTARAKHAND"
  },
  {
    "pincode": "263132",
    "officename": "Mehragaon B.O",
    "officeType": "B.O",
    "Deliverystatus": "Delivery",
    "divisionname": "Nainital",
    "regionname": "Dehradun",
    "circlename": "Uttarakhand",
    "Taluk": "Nainital",
    "Districtname": "Nainital",
    "statename": "UTTARAKHAND"
  },
  {
    "pincode": "263132",
    "officename": "Nai B.O",
    "officeType": "B.O",
    "Deliverystatus": "Delivery",
    "divisionname": "Nainital",
    "regionname": "Dehradun",
    "circlename": "Uttarakhand",
    "Taluk": "Dhari",
    "Districtname": "Nainital",
    "statename": "UTTARAKHAND"
  },
  {
    "pincode": "263132",
    "officename": "Nartola B.O",
    "officeType": "B.O",
    "Deliverystatus": "Delivery",
    "divisionname": "Nainital",
    "regionname": "Dehradun",
    "circlename": "Uttarakhand",
    "Taluk": "Dhari",
    "Districtname": "Nainital",
    "statename": "UTTARAKHAND"
  },
  {
    "pincode": "263132",
    "officename": "Paharpani B.O",
    "officeType": "B.O",
    "Deliverystatus": "Delivery",
    "divisionname": "Nainital",
    "regionname": "Dehradun",
    "circlename": "Uttarakhand",
    "Taluk": "Dhari",
    "Districtname": "Nainital",
    "statename": "UTTARAKHAND"
  },
  {
    "pincode": "263132",
    "officename": "Sargakhet B.O",
    "officeType": "B.O",
    "Deliverystatus": "Delivery",
    "divisionname": "Nainital",
    "regionname": "Dehradun",
    "circlename": "Uttarakhand",
    "Taluk": "Nainital",
    "Districtname": "Nainital",
    "statename": "UTTARAKHAND"
  },
  {
    "pincode": "263132",
    "officename": "Satbungs B.O",
    "officeType": "B.O",
    "Deliverystatus": "Delivery",
    "divisionname": "Nainital",
    "regionname": "Dehradun",
    "circlename": "Uttarakhand",
    "Taluk": "Dhari",
    "Districtname": "Nainital",
    "statename": "UTTARAKHAND"
  },
  {
    "pincode": "263132",
    "officename": "Sunderkhal B.O",
    "officeType": "B.O",
    "Deliverystatus": "Delivery",
    "divisionname": "Nainital",
    "regionname": "Dehradun",
    "circlename": "Uttarakhand",
    "Taluk": "Dhari",
    "Districtname": "Nainital",
    "statename": "UTTARAKHAND"
  },
  {
    "pincode": "263132",
    "officename": "Supi B.O",
    "officeType": "B.O",
    "Deliverystatus": "Delivery",
    "divisionname": "Nainital",
    "regionname": "Dehradun",
    "circlename": "Uttarakhand",
    "Taluk": "Dhari",
    "Districtname": "Nainital",
    "statename": "UTTARAKHAND"
  }
]
