[
  {
    "pincode": "263153",
    "officename": "31 Bn PAC Rudarpur S.O",
    "officeType": "S.O",
    "Deliverystatus": "Non-Delivery",
    "divisionname": "Nainital",
    "regionname": "Dehradun",
    "circlename": "Uttarakhand",
    "Taluk": "Kichha",
    "Districtname": "Udham Singh Nagar",
    "statename": "UTTARAKHAND"
  },
  {
    "pincode": "263153",
    "officename": "Bhurarani B.O",
    "officeType": "B.O",
    "Deliverystatus": "Delivery",
    "divisionname": "Nainital",
    "regionname": "Dehradun",
    "circlename": "Uttarakhand",
    "Taluk": "Kichha",
    "Districtname": "Udham Singh Nagar",
    "statename": "UTTARAKHAND"
  },
  {
    "pincode": "263153",
    "officename": "COLLECTORATE PARISAR S.O",
    "officeType": "S.O",
    "Deliverystatus": "Non-Delivery",
    "divisionname": "Nainital",
    "regionname": "Dehradun",
    "circlename": "Uttarakhand",
    "Taluk": "Kichha",
    "Districtname": "Udham Singh Nagar",
    "statename": "UTTARAKHAND"
  },
  {
    "pincode": "263153",
    "officename": "Chattarpur B.O",
    "officeType": "B.O",
    "Deliverystatus": "Delivery",
    "divisionname": "Nainital",
    "regionname": "Dehradun",
    "circlename": "Uttarakhand",
    "Taluk": "Kashipur",
    "Districtname": "Udham Singh Nagar",
    "statename": "UTTARAKHAND"
  },
  {
    "pincode": "263153",
    "officename": "Danpur B.O",
    "officeType": "B.O",
    "Deliverystatus": "Delivery",
    "divisionname": "Nainital",
    "regionname": "Dehradun",
    "circlename": "Uttarakhand",
    "Taluk": "Kashipur",
    "Districtname": "Udham Singh Nagar",
    "statename": "UTTARAKHAND"
  },
  {
    "pincode": "263153",
    "officename": "Khanpur B.O",
    "officeType": "B.O",
    "Deliverystatus": "Delivery",
    "divisionname": "Nainital",
    "regionname": "Dehradun",
    "circlename": "Uttarakhand",
    "Taluk": "Kichha",
    "Districtname": "Udham Singh Nagar",
    "statename": "UTTARAKHAND"
  },
  {
    "pincode": "263153",
    "officename": "Rudarpur S.O",
    "officeType": "S.O",
    "Deliverystatus": "Delivery",
    "divisionname": "Nainital",
    "regionname": "Dehradun",
    "circlename": "Uttarakhand",
    "Taluk": "Kichha",
    "Districtname": "Udham Singh Nagar",
    "statename": "UTTARAKHAND"
  },
  {
    "pincode": "263153",
    "officename": "T.C. Rudarpur B.O",
    "officeType": "B.O",
    "Deliverystatus": "Delivery",
    "divisionname": "Nainital",
    "regionname": "Dehradun",
    "circlename": "Uttarakhand",
    "Taluk": "Kichha",
    "Districtname": "Udham Singh Nagar",
    "statename": "UTTARAKHAND"
  }
]
