[
  {
    "pincode": "263159",
    "officename": "Amghari B.O",
    "officeType": "B.O",
    "Deliverystatus": "Delivery",
    "divisionname": "Nainital",
    "regionname": "Dehradun",
    "circlename": "Uttarakhand",
    "Taluk": "Nainital",
    "Districtname": "Nainital",
    "statename": "UTTARAKHAND"
  },
  {
    "pincode": "263159",
    "officename": "Bajunia Haldu B.O",
    "officeType": "B.O",
    "Deliverystatus": "Delivery",
    "divisionname": "Nainital",
    "regionname": "Dehradun",
    "circlename": "Uttarakhand",
    "Taluk": "Kaladhungi",
    "Districtname": "Nainital",
    "statename": "UTTARAKHAND"
  },
  {
    "pincode": "263159",
    "officename": "Dohania B.O",
    "officeType": "B.O",
    "Deliverystatus": "Delivery",
    "divisionname": "Nainital",
    "regionname": "Dehradun",
    "circlename": "Uttarakhand",
    "Taluk": "Kaladhungi",
    "Districtname": "Nainital",
    "statename": "UTTARAKHAND"
  },
  {
    "pincode": "263159",
    "officename": "Don B.O",
    "officeType": "B.O",
    "Deliverystatus": "Delivery",
    "divisionname": "Nainital",
    "regionname": "Dehradun",
    "circlename": "Uttarakhand",
    "Taluk": "Nainital",
    "Districtname": "Nainital",
    "statename": "UTTARAKHAND"
  },
  {
    "pincode": "263159",
    "officename": "Gintigaon B.O",
    "officeType": "B.O",
    "Deliverystatus": "Delivery",
    "divisionname": "Nainital",
    "regionname": "Dehradun",
    "circlename": "Uttarakhand",
    "Taluk": "Kaladhungi",
    "Districtname": "Nainital",
    "statename": "UTTARAKHAND"
  },
  {
    "pincode": "263159",
    "officename": "Kotabagh S.O",
    "officeType": "S.O",
    "Deliverystatus": "Delivery",
    "divisionname": "Nainital",
    "regionname": "Dehradun",
    "circlename": "Uttarakhand",
    "Taluk": "Haldwani",
    "Districtname": "Nainital",
    "statename": "UTTARAKHAND"
  },
  {
    "pincode": "263159",
    "officename": "Patalia B.O",
    "officeType": "B.O",
    "Deliverystatus": "Delivery",
    "divisionname": "Nainital",
    "regionname": "Dehradun",
    "circlename": "Uttarakhand",
    "Taluk": "Haldwani",
    "Districtname": "Nainital",
    "statename": "UTTARAKHAND"
  },
  {
    "pincode": "263159",
    "officename": "Patkote B.O",
    "officeType": "B.O",
    "Deliverystatus": "Delivery",
    "divisionname": "Nainital",
    "regionname": "Dehradun",
    "circlename": "Uttarakhand",
    "Taluk": "Ramnagar",
    "Districtname": "Nainital",
    "statename": "UTTARAKHAND"
  },
  {
    "pincode": "263159",
    "officename": "Sanana B.O",
    "officeType": "B.O",
    "Deliverystatus": "Delivery",
    "divisionname": "Nainital",
    "regionname": "Dehradun",
    "circlename": "Uttarakhand",
    "Taluk": "Nainital",
    "Districtname": "Nainital",
    "statename": "UTTARAKHAND"
  },
  {
    "pincode": "263159",
    "officename": "Saur B.O",
    "officeType": "B.O",
    "Deliverystatus": "Delivery",
    "divisionname": "Nainital",
    "regionname": "Dehradun",
    "circlename": "Uttarakhand",
    "Taluk": "Kaladhungi",
    "Districtname": "Nainital",
    "statename": "UTTARAKHAND"
  },
  {
    "pincode": "263159",
    "officename": "Syat B.O",
    "officeType": "B.O",
    "Deliverystatus": "Delivery",
    "divisionname": "Nainital",
    "regionname": "Dehradun",
    "circlename": "Uttarakhand",
    "Taluk": "Kaladhungi",
    "Districtname": "Nainital",
    "statename": "UTTARAKHAND"
  }
]
