[
  {
    "pincode": "263157",
    "officename": "Adhora B.O",
    "officeType": "B.O",
    "Deliverystatus": "Delivery",
    "divisionname": "Nainital",
    "regionname": "Dehradun",
    "circlename": "Uttarakhand",
    "Taluk": "Dhari",
    "Districtname": "Nainital",
    "statename": "UTTARAKHAND"
  },
  {
    "pincode": "263157",
    "officename": "Amjhar B.O",
    "officeType": "B.O",
    "Deliverystatus": "Delivery",
    "divisionname": "Nainital",
    "regionname": "Dehradun",
    "circlename": "Uttarakhand",
    "Taluk": "Dhari",
    "Districtname": "Nainital",
    "statename": "UTTARAKHAND"
  },
  {
    "pincode": "263157",
    "officename": "Badon B.O",
    "officeType": "B.O",
    "Deliverystatus": "Delivery",
    "divisionname": "Nainital",
    "regionname": "Dehradun",
    "circlename": "Uttarakhand",
    "Taluk": "Dhari",
    "Districtname": "Nainital",
    "statename": "UTTARAKHAND"
  },
  {
    "pincode": "263157",
    "officename": "Dalkania B.O",
    "officeType": "B.O",
    "Deliverystatus": "Delivery",
    "divisionname": "Nainital",
    "regionname": "Dehradun",
    "circlename": "Uttarakhand",
    "Taluk": "Dhari",
    "Districtname": "Nainital",
    "statename": "UTTARAKHAND"
  },
  {
    "pincode": "263157",
    "officename": "Deoli B.O",
    "officeType": "B.O",
    "Deliverystatus": "Delivery",
    "divisionname": "Nainital",
    "regionname": "Dehradun",
    "circlename": "Uttarakhand",
    "Taluk": "Dhari",
    "Districtname": "Nainital",
    "statename": "UTTARAKHAND"
  },
  {
    "pincode": "263157",
    "officename": "Jhargaon B.O",
    "officeType": "B.O",
    "Deliverystatus": "Delivery",
    "divisionname": "Nainital",
    "regionname": "Dehradun",
    "circlename": "Uttarakhand",
    "Taluk": "Dhari",
    "Districtname": "Nainital",
    "statename": "UTTARAKHAND"
  },
  {
    "pincode": "263157",
    "officename": "Kala Agar B.O",
    "officeType": "B.O",
    "Deliverystatus": "Delivery",
    "divisionname": "Nainital",
    "regionname": "Dehradun",
    "circlename": "Uttarakhand",
    "Taluk": "Dhari",
    "Districtname": "Nainital",
    "statename": "UTTARAKHAND"
  },
  {
    "pincode": "263157",
    "officename": "Khansyon B.O",
    "officeType": "B.O",
    "Deliverystatus": "Delivery",
    "divisionname": "Nainital",
    "regionname": "Dehradun",
    "circlename": "Uttarakhand",
    "Taluk": "Dhari",
    "Districtname": "Nainital",
    "statename": "UTTARAKHAND"
  },
  {
    "pincode": "263157",
    "officename": "Okhalkanda S.O",
    "officeType": "S.O",
    "Deliverystatus": "Delivery",
    "divisionname": "Nainital",
    "regionname": "Dehradun",
    "circlename": "Uttarakhand",
    "Taluk": "Dhari",
    "Districtname": "Nainital",
    "statename": "UTTARAKHAND"
  },
  {
    "pincode": "263157",
    "officename": "Padampur B.O",
    "officeType": "B.O",
    "Deliverystatus": "Delivery",
    "divisionname": "Nainital",
    "regionname": "Dehradun",
    "circlename": "Uttarakhand",
    "Taluk": "Dhari",
    "Districtname": "Nainital",
    "statename": "UTTARAKHAND"
  },
  {
    "pincode": "263157",
    "officename": "Patlot B.O",
    "officeType": "B.O",
    "Deliverystatus": "Delivery",
    "divisionname": "Nainital",
    "regionname": "Dehradun",
    "circlename": "Uttarakhand",
    "Taluk": "Dhari",
    "Districtname": "Nainital",
    "statename": "UTTARAKHAND"
  },
  {
    "pincode": "263157",
    "officename": "Sui B.O",
    "officeType": "B.O",
    "Deliverystatus": "Delivery",
    "divisionname": "Nainital",
    "regionname": "Dehradun",
    "circlename": "Uttarakhand",
    "Taluk": "Dhari",
    "Districtname": "Nainital",
    "statename": "UTTARAKHAND"
  },
  {
    "pincode": "263157",
    "officename": "Surang B.O",
    "officeType": "B.O",
    "Deliverystatus": "Delivery",
    "divisionname": "Nainital",
    "regionname": "Dehradun",
    "circlename": "Uttarakhand",
    "Taluk": "Dhari",
    "Districtname": "Nainital",
    "statename": "UTTARAKHAND"
  },
  {
    "pincode": "263157",
    "officename": "Suwakote Pokhari B.O",
    "officeType": "B.O",
    "Deliverystatus": "Delivery",
    "divisionname": "Nainital",
    "regionname": "Dehradun",
    "circlename": "Uttarakhand",
    "Taluk": "Dhari",
    "Districtname": "Nainital",
    "statename": "UTTARAKHAND"
  },
  {
    "pincode": "263157",
    "officename": "Talli Pokhari B.O",
    "officeType": "B.O",
    "Deliverystatus": "Delivery",
    "divisionname": "Nainital",
    "regionname": "Dehradun",
    "circlename": "Uttarakhand",
    "Taluk": "Dhari",
    "Districtname": "Nainital",
    "statename": "UTTARAKHAND"
  },
  {
    "pincode": "263157",
    "officename": "Tushrar B.O",
    "officeType": "B.O",
    "Deliverystatus": "Delivery",
    "divisionname": "Nainital",
    "regionname": "Dehradun",
    "circlename": "Uttarakhand",
    "Taluk": "Dhari",
    "Districtname": "Nainital",
    "statename": "UTTARAKHAND"
  }
]
