[
  {
    "pincode": "263135",
    "officename": "Dhaniakote B.O",
    "officeType": "B.O",
    "Deliverystatus": "Delivery",
    "divisionname": "Nainital",
    "regionname": "Dehradun",
    "circlename": "Uttarakhand",
    "Taluk": "Kosya Kutauli",
    "Districtname": "Nainital",
    "statename": "UTTARAKHAND"
  },
  {
    "pincode": "263135",
    "officename": "Garampani S.O",
    "officeType": "S.O",
    "Deliverystatus": "Delivery",
    "divisionname": "Nainital",
    "regionname": "Dehradun",
    "circlename": "Uttarakhand",
    "Taluk": "Kosya Kutauli",
    "Districtname": "Nainital",
    "statename": "UTTARAKHAND"
  },
  {
    "pincode": "263135",
    "officename": "Garjoli B.O",
    "officeType": "B.O",
    "Deliverystatus": "Delivery",
    "divisionname": "Nainital",
    "regionname": "Dehradun",
    "circlename": "Uttarakhand",
    "Taluk": "Kushya Kutali",
    "Districtname": "Nainital",
    "statename": "UTTARAKHAND"
  },
  {
    "pincode": "263135",
    "officename": "Jurasi Kutali B.O",
    "officeType": "B.O",
    "Deliverystatus": "Delivery",
    "divisionname": "Nainital",
    "regionname": "Dehradun",
    "circlename": "Uttarakhand",
    "Taluk": "Kushya Kuali",
    "Districtname": "Nainital",
    "statename": "UTTARAKHAND"
  },
  {
    "pincode": "263135",
    "officename": "Lohali B.O",
    "officeType": "B.O",
    "Deliverystatus": "Delivery",
    "divisionname": "Nainital",
    "regionname": "Dehradun",
    "circlename": "Uttarakhand",
    "Taluk": "Kushya Kutali",
    "Districtname": "Nainital",
    "statename": "UTTARAKHAND"
  },
  {
    "pincode": "263135",
    "officename": "Ratighat B.O",
    "officeType": "B.O",
    "Deliverystatus": "Delivery",
    "divisionname": "Nainital",
    "regionname": "Dehradun",
    "circlename": "Uttarakhand",
    "Taluk": "Kosya Kutauli",
    "Districtname": "Nainital",
    "statename": "UTTARAKHAND"
  },
  {
    "pincode": "263135",
    "officename": "Simalkha B.O",
    "officeType": "B.O",
    "Deliverystatus": "Delivery",
    "divisionname": "Nainital",
    "regionname": "Dehradun",
    "circlename": "Uttarakhand",
    "Taluk": "Kushya Kutali",
    "Districtname": "Nainital",
    "statename": "UTTARAKHAND"
  },
  {
    "pincode": "263135",
    "officename": "Simrar B.O",
    "officeType": "B.O",
    "Deliverystatus": "Delivery",
    "divisionname": "Nainital",
    "regionname": "Dehradun",
    "circlename": "Uttarakhand",
    "Taluk": "Kushya Kutali",
    "Districtname": "Nainital",
    "statename": "UTTARAKHAND"
  },
  {
    "pincode": "263135",
    "officename": "Suyal Bari B.O",
    "officeType": "B.O",
    "Deliverystatus": "Delivery",
    "divisionname": "Nainital",
    "regionname": "Dehradun",
    "circlename": "Uttarakhand",
    "Taluk": "Kushya Kutali",
    "Districtname": "Nainital",
    "statename": "UTTARAKHAND"
  },
  {
    "pincode": "263135",
    "officename": "Talla Bardho B.O",
    "officeType": "B.O",
    "Deliverystatus": "Delivery",
    "divisionname": "Nainital",
    "regionname": "Dehradun",
    "circlename": "Uttarakhand",
    "Taluk": "Kosya Kutauli",
    "Districtname": "Nainital",
    "statename": "UTTARAKHAND"
  }
]
