[
  {
    "pincode": "263637",
    "officename": "Bhainsar Gaon B.O",
    "officeType": "B.O",
    "Deliverystatus": "Delivery",
    "divisionname": "Almora",
    "regionname": "Dehradun",
    "circlename": "Uttarakhand",
    "Taluk": "Someshwar",
    "Districtname": "Almora",
    "statename": "UTTARAKHAND"
  },
  {
    "pincode": "263637",
    "officename": "Bhoolgaon B.O",
    "officeType": "B.O",
    "Deliverystatus": "Delivery",
    "divisionname": "Almora",
    "regionname": "Dehradun",
    "circlename": "Uttarakhand",
    "Taluk": "Someshwar",
    "Districtname": "Almora",
    "statename": "UTTARAKHAND"
  },
  {
    "pincode": "263637",
    "officename": "Dhaularh B.O",
    "officeType": "B.O",
    "Deliverystatus": "Delivery",
    "divisionname": "Almora",
    "regionname": "Dehradun",
    "circlename": "Uttarakhand",
    "Taluk": "Someshwar",
    "Districtname": "Almora",
    "statename": "UTTARAKHAND"
  },
  {
    "pincode": "263637",
    "officename": "Dhaunigarh B.O",
    "officeType": "B.O",
    "Deliverystatus": "Delivery",
    "divisionname": "Almora",
    "regionname": "Dehradun",
    "circlename": "Uttarakhand",
    "Taluk": "Someshwar",
    "Districtname": "Almora",
    "statename": "UTTARAKHAND"
  },
  {
    "pincode": "263637",
    "officename": "Jhupulchaura B.O",
    "officeType": "B.O",
    "Deliverystatus": "Delivery",
    "divisionname": "Almora",
    "regionname": "Dehradun",
    "circlename": "Uttarakhand",
    "Taluk": "Someshwar",
    "Districtname": "Almora",
    "statename": "UTTARAKHAND"
  },
  {
    "pincode": "263637",
    "officename": "Lod B.O",
    "officeType": "B.O",
    "Deliverystatus": "Delivery",
    "divisionname": "Almora",
    "regionname": "Dehradun",
    "circlename": "Uttarakhand",
    "Taluk": "Someshwar",
    "Districtname": "Almora",
    "statename": "UTTARAKHAND"
  },
  {
    "pincode": "263637",
    "officename": "Rasyaragaon B.O",
    "officeType": "B.O",
    "Deliverystatus": "Delivery",
    "divisionname": "Almora",
    "regionname": "Dehradun",
    "circlename": "Uttarakhand",
    "Taluk": "Someshwar",
    "Districtname": "Almora",
    "statename": "UTTARAKHAND"
  },
  {
    "pincode": "263637",
    "officename": "Someshwar S.O",
    "officeType": "S.O",
    "Deliverystatus": "Delivery",
    "divisionname": "Almora",
    "regionname": "Dehradun",
    "circlename": "Uttarakhand",
    "Taluk": "Someshwar",
    "Districtname": "Almora",
    "statename": "UTTARAKHAND"
  }
]
