[
  {
    "pincode": "263628",
    "officename": "Ason Mallakote B.O",
    "officeType": "B.O",
    "Deliverystatus": "Delivery",
    "divisionname": "Almora",
    "regionname": "Dehradun",
    "circlename": "Uttarakhand",
    "Taluk": "Bageshwar",
    "Districtname": "Bageshwar",
    "statename": "UTTARAKHAND"
  },
  {
    "pincode": "263628",
    "officename": "Bauri B.O",
    "officeType": "B.O",
    "Deliverystatus": "Delivery",
    "divisionname": "Almora",
    "regionname": "Dehradun",
    "circlename": "Uttarakhand",
    "Taluk": "Bageshwar",
    "Districtname": "Bageshwar",
    "statename": "UTTARAKHAND"
  },
  {
    "pincode": "263628",
    "officename": "Bohala B.O",
    "officeType": "B.O",
    "Deliverystatus": "Delivery",
    "divisionname": "Almora",
    "regionname": "Dehradun",
    "circlename": "Uttarakhand",
    "Taluk": "Bageshwar",
    "Districtname": "Bageshwar",
    "statename": "UTTARAKHAND"
  },
  {
    "pincode": "263628",
    "officename": "Chhani B.O",
    "officeType": "B.O",
    "Deliverystatus": "Delivery",
    "divisionname": "Almora",
    "regionname": "Dehradun",
    "circlename": "Uttarakhand",
    "Taluk": "Bageshwar",
    "Districtname": "Bageshwar",
    "statename": "UTTARAKHAND"
  },
  {
    "pincode": "263628",
    "officename": "Gananath Vidyapeeth B.O",
    "officeType": "B.O",
    "Deliverystatus": "Delivery",
    "divisionname": "Almora",
    "regionname": "Dehradun",
    "circlename": "Uttarakhand",
    "Taluk": "Someshwar",
    "Districtname": "Bageshwar",
    "statename": "UTTARAKHAND"
  },
  {
    "pincode": "263628",
    "officename": "Kafaligair B.O",
    "officeType": "B.O",
    "Deliverystatus": "Delivery",
    "divisionname": "Almora",
    "regionname": "Dehradun",
    "circlename": "Uttarakhand",
    "Taluk": "Bageshwar",
    "Districtname": "Bageshwar",
    "statename": "UTTARAKHAND"
  },
  {
    "pincode": "263628",
    "officename": "Kathpurchhina B.O",
    "officeType": "B.O",
    "Deliverystatus": "Delivery",
    "divisionname": "Almora",
    "regionname": "Dehradun",
    "circlename": "Uttarakhand",
    "Taluk": "Bageshwar",
    "Districtname": "Bageshwar",
    "statename": "UTTARAKHAND"
  },
  {
    "pincode": "263628",
    "officename": "Khankar B.O",
    "officeType": "B.O",
    "Deliverystatus": "Delivery",
    "divisionname": "Almora",
    "regionname": "Dehradun",
    "circlename": "Uttarakhand",
    "Taluk": "Bageshwar",
    "Districtname": "Bageshwar",
    "statename": "UTTARAKHAND"
  },
  {
    "pincode": "263628",
    "officename": "Khaulsir B.O",
    "officeType": "B.O",
    "Deliverystatus": "Delivery",
    "divisionname": "Almora",
    "regionname": "Dehradun",
    "circlename": "Uttarakhand",
    "Taluk": "Bageshwar",
    "Districtname": "Bageshwar",
    "statename": "UTTARAKHAND"
  },
  {
    "pincode": "263628",
    "officename": "Lob B.O",
    "officeType": "B.O",
    "Deliverystatus": "Delivery",
    "divisionname": "Almora",
    "regionname": "Dehradun",
    "circlename": "Uttarakhand",
    "Taluk": "Bageshwar",
    "Districtname": "Bageshwar",
    "statename": "UTTARAKHAND"
  },
  {
    "pincode": "263628",
    "officename": "Okhalisirod B.O",
    "officeType": "B.O",
    "Deliverystatus": "Delivery",
    "divisionname": "Almora",
    "regionname": "Dehradun",
    "circlename": "Uttarakhand",
    "Taluk": "Bageshwar",
    "Districtname": "Bageshwar",
    "statename": "UTTARAKHAND"
  },
  {
    "pincode": "263628",
    "officename": "Simsyari B.O",
    "officeType": "B.O",
    "Deliverystatus": "Delivery",
    "divisionname": "Almora",
    "regionname": "Dehradun",
    "circlename": "Uttarakhand",
    "Taluk": "Bageshwar",
    "Districtname": "Bageshwar",
    "statename": "UTTARAKHAND"
  },
  {
    "pincode": "263628",
    "officename": "Takula S.O",
    "officeType": "S.O",
    "Deliverystatus": "Delivery",
    "divisionname": "Almora",
    "regionname": "Dehradun",
    "circlename": "Uttarakhand",
    "Taluk": "Someshwar",
    "Districtname": "Almora",
    "statename": "UTTARAKHAND"
  }
]
