[
  {
    "pincode": "263634",
    "officename": "Baira B.O",
    "officeType": "B.O",
    "Deliverystatus": "Delivery",
    "divisionname": "Almora",
    "regionname": "Dehradun",
    "circlename": "Uttarakhand",
    "Taluk": "Kapkote",
    "Districtname": "Bageshwar",
    "statename": "UTTARAKHAND"
  },
  {
    "pincode": "263634",
    "officename": "Banlekh B.O",
    "officeType": "B.O",
    "Deliverystatus": "Delivery",
    "divisionname": "Almora",
    "regionname": "Dehradun",
    "circlename": "Uttarakhand",
    "Taluk": "Kapkote",
    "Districtname": "Bageshwar",
    "statename": "UTTARAKHAND"
  },
  {
    "pincode": "263634",
    "officename": "Dofar S.O",
    "officeType": "S.O",
    "Deliverystatus": "Delivery",
    "divisionname": "Almora",
    "regionname": "Dehradun",
    "circlename": "Uttarakhand",
    "Taluk": "Kapkote",
    "Districtname": "Bageshwar",
    "statename": "UTTARAKHAND"
  },
  {
    "pincode": "263634",
    "officename": "Horali B.O",
    "officeType": "B.O",
    "Deliverystatus": "Delivery",
    "divisionname": "Almora",
    "regionname": "Dehradun",
    "circlename": "Uttarakhand",
    "Taluk": "Kapkote",
    "Districtname": "Bageshwar",
    "statename": "UTTARAKHAND"
  },
  {
    "pincode": "263634",
    "officename": "Jarati B.O",
    "officeType": "B.O",
    "Deliverystatus": "Delivery",
    "divisionname": "Almora",
    "regionname": "Dehradun",
    "circlename": "Uttarakhand",
    "Taluk": "Kapkote",
    "Districtname": "Bageshwar",
    "statename": "UTTARAKHAND"
  },
  {
    "pincode": "263634",
    "officename": "Junayal B.O",
    "officeType": "B.O",
    "Deliverystatus": "Delivery",
    "divisionname": "Almora",
    "regionname": "Dehradun",
    "circlename": "Uttarakhand",
    "Taluk": "Kapkote",
    "Districtname": "Bageshwar",
    "statename": "UTTARAKHAND"
  },
  {
    "pincode": "263634",
    "officename": "Kafali B.O",
    "officeType": "B.O",
    "Deliverystatus": "Delivery",
    "divisionname": "Almora",
    "regionname": "Dehradun",
    "circlename": "Uttarakhand",
    "Taluk": "Kapkote",
    "Districtname": "Bageshwar",
    "statename": "UTTARAKHAND"
  },
  {
    "pincode": "263634",
    "officename": "Papon B.O",
    "officeType": "B.O",
    "Deliverystatus": "Delivery",
    "divisionname": "Almora",
    "regionname": "Dehradun",
    "circlename": "Uttarakhand",
    "Taluk": "Kapkote",
    "Districtname": "Bageshwar",
    "statename": "UTTARAKHAND"
  },
  {
    "pincode": "263634",
    "officename": "Saneti B.O",
    "officeType": "B.O",
    "Deliverystatus": "Delivery",
    "divisionname": "Almora",
    "regionname": "Dehradun",
    "circlename": "Uttarakhand",
    "Taluk": "Kapkote",
    "Districtname": "Bageshwar",
    "statename": "UTTARAKHAND"
  },
  {
    "pincode": "263634",
    "officename": "Sangarh B.O",
    "officeType": "B.O",
    "Deliverystatus": "Delivery",
    "divisionname": "Almora",
    "regionname": "Dehradun",
    "circlename": "Uttarakhand",
    "Taluk": "Kapkote",
    "Districtname": "Bageshwar",
    "statename": "UTTARAKHAND"
  }
]
