[
  {
    "pincode": "263624",
    "officename": "Barechhina S.O",
    "officeType": "S.O",
    "Deliverystatus": "Delivery",
    "divisionname": "Almora",
    "regionname": "Dehradun",
    "circlename": "Uttarakhand",
    "Taluk": "Almora",
    "Districtname": "Almora",
    "statename": "UTTARAKHAND"
  },
  {
    "pincode": "263624",
    "officename": "Bhainsiachhana B.O",
    "officeType": "B.O",
    "Deliverystatus": "Delivery",
    "divisionname": "Almora",
    "regionname": "Dehradun",
    "circlename": "Uttarakhand",
    "Taluk": "Almora",
    "Districtname": "Almora",
    "statename": "UTTARAKHAND"
  },
  {
    "pincode": "263624",
    "officename": "Dhaulchhina ED B.O",
    "officeType": "B.O",
    "Deliverystatus": "Delivery",
    "divisionname": "Almora",
    "regionname": "Dehradun",
    "circlename": "Uttarakhand",
    "Taluk": "Bhanoli",
    "Districtname": "Almora",
    "statename": "UTTARAKHAND"
  },
  {
    "pincode": "263624",
    "officename": "Jamrari B.O",
    "officeType": "B.O",
    "Deliverystatus": "Delivery",
    "divisionname": "Almora",
    "regionname": "Dehradun",
    "circlename": "Uttarakhand",
    "Taluk": "Almora",
    "Districtname": "Bageshwar",
    "statename": "UTTARAKHAND"
  },
  {
    "pincode": "263624",
    "officename": "Kanarichhina B.O",
    "officeType": "B.O",
    "Deliverystatus": "Delivery",
    "divisionname": "Almora",
    "regionname": "Dehradun",
    "circlename": "Uttarakhand",
    "Taluk": "Almora",
    "Districtname": "Almora",
    "statename": "UTTARAKHAND"
  },
  {
    "pincode": "263624",
    "officename": "Khastilari B.O",
    "officeType": "B.O",
    "Deliverystatus": "Delivery",
    "divisionname": "Almora",
    "regionname": "Dehradun",
    "circlename": "Uttarakhand",
    "Taluk": "Almora",
    "Districtname": "Almora",
    "statename": "UTTARAKHAND"
  },
  {
    "pincode": "263624",
    "officename": "Mangalta B.O",
    "officeType": "B.O",
    "Deliverystatus": "Delivery",
    "divisionname": "Almora",
    "regionname": "Dehradun",
    "circlename": "Uttarakhand",
    "Taluk": "Almora",
    "Districtname": "Almora",
    "statename": "UTTARAKHAND"
  },
  {
    "pincode": "263624",
    "officename": "Maniagar B.O",
    "officeType": "B.O",
    "Deliverystatus": "Delivery",
    "divisionname": "Almora",
    "regionname": "Dehradun",
    "circlename": "Uttarakhand",
    "Taluk": "Almora",
    "Districtname": "Almora",
    "statename": "UTTARAKHAND"
  },
  {
    "pincode": "263624",
    "officename": "Nagarkhan B.O",
    "officeType": "B.O",
    "Deliverystatus": "Delivery",
    "divisionname": "Almora",
    "regionname": "Dehradun",
    "circlename": "Uttarakhand",
    "Taluk": "Almora",
    "Districtname": "Almora",
    "statename": "UTTARAKHAND"
  },
  {
    "pincode": "263624",
    "officename": "Naraindewal B.O",
    "officeType": "B.O",
    "Deliverystatus": "Delivery",
    "divisionname": "Almora",
    "regionname": "Dehradun",
    "circlename": "Uttarakhand",
    "Taluk": "Almora",
    "Districtname": "Almora",
    "statename": "UTTARAKHAND"
  },
  {
    "pincode": "263624",
    "officename": "Palyun B.O",
    "officeType": "B.O",
    "Deliverystatus": "Delivery",
    "divisionname": "Almora",
    "regionname": "Dehradun",
    "circlename": "Uttarakhand",
    "Taluk": "Almora",
    "Districtname": "Almora",
    "statename": "UTTARAKHAND"
  },
  {
    "pincode": "263624",
    "officename": "Sainj B.O",
    "officeType": "B.O",
    "Deliverystatus": "Delivery",
    "divisionname": "Almora",
    "regionname": "Dehradun",
    "circlename": "Uttarakhand",
    "Taluk": "Almora",
    "Districtname": "Almora",
    "statename": "UTTARAKHAND"
  },
  {
    "pincode": "263624",
    "officename": "Salla Bhatkote B.O",
    "officeType": "B.O",
    "Deliverystatus": "Delivery",
    "divisionname": "Almora",
    "regionname": "Dehradun",
    "circlename": "Uttarakhand",
    "Taluk": "Almora",
    "Districtname": "Almora",
    "statename": "UTTARAKHAND"
  }
]
