[
  {
    "pincode": "263631",
    "officename": "Dewal Bichral B.O",
    "officeType": "B.O",
    "Deliverystatus": "Delivery",
    "divisionname": "Almora",
    "regionname": "Dehradun",
    "circlename": "Uttarakhand",
    "Taluk": "Kanda",
    "Districtname": "Bageshwar",
    "statename": "UTTARAKHAND"
  },
  {
    "pincode": "263631",
    "officename": "Dhapolasera B.O",
    "officeType": "B.O",
    "Deliverystatus": "Delivery",
    "divisionname": "Almora",
    "regionname": "Dehradun",
    "circlename": "Uttarakhand",
    "Taluk": "Kanda",
    "Districtname": "Bageshwar",
    "statename": "UTTARAKHAND"
  },
  {
    "pincode": "263631",
    "officename": "Jethai B.O",
    "officeType": "B.O",
    "Deliverystatus": "Delivery",
    "divisionname": "Almora",
    "regionname": "Dehradun",
    "circlename": "Uttarakhand",
    "Taluk": "Kanda",
    "Districtname": "Bageshwar",
    "statename": "UTTARAKHAND"
  },
  {
    "pincode": "263631",
    "officename": "Kanda S.O",
    "officeType": "S.O",
    "Deliverystatus": "Delivery",
    "divisionname": "Almora",
    "regionname": "Dehradun",
    "circlename": "Uttarakhand",
    "Taluk": "Kanda",
    "Districtname": "Bageshwar",
    "statename": "UTTARAKHAND"
  },
  {
    "pincode": "263631",
    "officename": "Kapoori B.O",
    "officeType": "B.O",
    "Deliverystatus": "Delivery",
    "divisionname": "Almora",
    "regionname": "Dehradun",
    "circlename": "Uttarakhand",
    "Taluk": "Kanda",
    "Districtname": "Bageshwar",
    "statename": "UTTARAKHAND"
  },
  {
    "pincode": "263631",
    "officename": "Khatigaon B.O",
    "officeType": "B.O",
    "Deliverystatus": "Delivery",
    "divisionname": "Almora",
    "regionname": "Dehradun",
    "circlename": "Uttarakhand",
    "Taluk": "Kanda",
    "Districtname": "Bageshwar",
    "statename": "UTTARAKHAND"
  },
  {
    "pincode": "263631",
    "officename": "Mantoli B.O",
    "officeType": "B.O",
    "Deliverystatus": "Delivery",
    "divisionname": "Almora",
    "regionname": "Dehradun",
    "circlename": "Uttarakhand",
    "Taluk": "Kanda",
    "Districtname": "Bageshwar",
    "statename": "UTTARAKHAND"
  },
  {
    "pincode": "263631",
    "officename": "Nargoli B.O",
    "officeType": "B.O",
    "Deliverystatus": "Delivery",
    "divisionname": "Almora",
    "regionname": "Dehradun",
    "circlename": "Uttarakhand",
    "Taluk": "Kanda",
    "Districtname": "Bageshwar",
    "statename": "UTTARAKHAND"
  },
  {
    "pincode": "263631",
    "officename": "Rawatsera B.O",
    "officeType": "B.O",
    "Deliverystatus": "Delivery",
    "divisionname": "Almora",
    "regionname": "Dehradun",
    "circlename": "Uttarakhand",
    "Taluk": "Kanda",
    "Districtname": "Bageshwar",
    "statename": "UTTARAKHAND"
  },
  {
    "pincode": "263631",
    "officename": "Sani Udiyar B.O",
    "officeType": "B.O",
    "Deliverystatus": "Delivery",
    "divisionname": "Almora",
    "regionname": "Dehradun",
    "circlename": "Uttarakhand",
    "Taluk": "Kanda",
    "Districtname": "Bageshwar",
    "statename": "UTTARAKHAND"
  },
  {
    "pincode": "263631",
    "officename": "Simkuna B.O",
    "officeType": "B.O",
    "Deliverystatus": "Delivery",
    "divisionname": "Almora",
    "regionname": "Dehradun",
    "circlename": "Uttarakhand",
    "Taluk": "Kanda",
    "Districtname": "Bageshwar",
    "statename": "UTTARAKHAND"
  },
  {
    "pincode": "263631",
    "officename": "Uprara B.O",
    "officeType": "B.O",
    "Deliverystatus": "Delivery",
    "divisionname": "Almora",
    "regionname": "Dehradun",
    "circlename": "Uttarakhand",
    "Taluk": "Kanda",
    "Districtname": "Bageshwar",
    "statename": "UTTARAKHAND"
  }
]
