[
  {
    "pincode": "263640",
    "officename": "Bhantola B.O",
    "officeType": "B.O",
    "Deliverystatus": "Delivery",
    "divisionname": "Almora",
    "regionname": "Dehradun",
    "circlename": "Uttarakhand",
    "Taluk": "Kanda",
    "Districtname": "Bageshwar",
    "statename": "UTTARAKHAND"
  },
  {
    "pincode": "263640",
    "officename": "Dhapti B.O",
    "officeType": "B.O",
    "Deliverystatus": "Delivery",
    "divisionname": "Almora",
    "regionname": "Dehradun",
    "circlename": "Uttarakhand",
    "Taluk": "Kanda",
    "Districtname": "Bageshwar",
    "statename": "UTTARAKHAND"
  },
  {
    "pincode": "263640",
    "officename": "Jakhani B.O",
    "officeType": "B.O",
    "Deliverystatus": "Delivery",
    "divisionname": "Almora",
    "regionname": "Dehradun",
    "circlename": "Uttarakhand",
    "Taluk": "Kanda",
    "Districtname": "Bageshwar",
    "statename": "UTTARAKHAND"
  },
  {
    "pincode": "263640",
    "officename": "Jhankra B.O",
    "officeType": "B.O",
    "Deliverystatus": "Delivery",
    "divisionname": "Almora",
    "regionname": "Dehradun",
    "circlename": "Uttarakhand",
    "Taluk": "Kanda",
    "Districtname": "Bageshwar",
    "statename": "UTTARAKHAND"
  },
  {
    "pincode": "263640",
    "officename": "Kameridevi S.O",
    "officeType": "S.O",
    "Deliverystatus": "Delivery",
    "divisionname": "Almora",
    "regionname": "Dehradun",
    "circlename": "Uttarakhand",
    "Taluk": "Kanda",
    "Districtname": "Bageshwar",
    "statename": "UTTARAKHAND"
  },
  {
    "pincode": "263640",
    "officename": "Khantoli B.O",
    "officeType": "B.O",
    "Deliverystatus": "Delivery",
    "divisionname": "Almora",
    "regionname": "Dehradun",
    "circlename": "Uttarakhand",
    "Taluk": "Kanda",
    "Districtname": "Bageshwar",
    "statename": "UTTARAKHAND"
  },
  {
    "pincode": "263640",
    "officename": "Mahruri B.O",
    "officeType": "B.O",
    "Deliverystatus": "Delivery",
    "divisionname": "Almora",
    "regionname": "Dehradun",
    "circlename": "Uttarakhand",
    "Taluk": "Kanda",
    "Districtname": "Bageshwar",
    "statename": "UTTARAKHAND"
  },
  {
    "pincode": "263640",
    "officename": "Malsoona B.O",
    "officeType": "B.O",
    "Deliverystatus": "Delivery",
    "divisionname": "Almora",
    "regionname": "Dehradun",
    "circlename": "Uttarakhand",
    "Taluk": "Kanda",
    "Districtname": "Bageshwar",
    "statename": "UTTARAKHAND"
  },
  {
    "pincode": "263640",
    "officename": "Simgari B.O",
    "officeType": "B.O",
    "Deliverystatus": "Delivery",
    "divisionname": "Almora",
    "regionname": "Dehradun",
    "circlename": "Uttarakhand",
    "Taluk": "Kanda",
    "Districtname": "Bageshwar",
    "statename": "UTTARAKHAND"
  },
  {
    "pincode": "263640",
    "officename": "Syankote B.O",
    "officeType": "B.O",
    "Deliverystatus": "Delivery",
    "divisionname": "Almora",
    "regionname": "Dehradun",
    "circlename": "Uttarakhand",
    "Taluk": "Kanda",
    "Districtname": "Bageshwar",
    "statename": "UTTARAKHAND"
  },
  {
    "pincode": "263640",
    "officename": "Vijaipur B.O",
    "officeType": "B.O",
    "Deliverystatus": "Delivery",
    "divisionname": "Almora",
    "regionname": "Dehradun",
    "circlename": "Uttarakhand",
    "Taluk": "Kanda",
    "Districtname": "Bageshwar",
    "statename": "UTTARAKHAND"
  }
]
