[
  {
    "pincode": "263656",
    "officename": "Bhagoti B.O",
    "officeType": "B.O",
    "Deliverystatus": "Delivery",
    "divisionname": "Almora",
    "regionname": "Dehradun",
    "circlename": "Uttarakhand",
    "Taluk": "Chaukhutia",
    "Districtname": "Almora",
    "statename": "UTTARAKHAND"
  },
  {
    "pincode": "263656",
    "officename": "Bhatkote B.O",
    "officeType": "B.O",
    "Deliverystatus": "Delivery",
    "divisionname": "Almora",
    "regionname": "Dehradun",
    "circlename": "Uttarakhand",
    "Taluk": "Chaukhutia",
    "Districtname": "Almora",
    "statename": "UTTARAKHAND"
  },
  {
    "pincode": "263656",
    "officename": "Bheltgaon B.O",
    "officeType": "B.O",
    "Deliverystatus": "Delivery",
    "divisionname": "Almora",
    "regionname": "Dehradun",
    "circlename": "Uttarakhand",
    "Taluk": "Chaukhutia",
    "Districtname": "Almora",
    "statename": "UTTARAKHAND"
  },
  {
    "pincode": "263656",
    "officename": "Chhitar B.O",
    "officeType": "B.O",
    "Deliverystatus": "Delivery",
    "divisionname": "Almora",
    "regionname": "Dehradun",
    "circlename": "Uttarakhand",
    "Taluk": "Chaukhutia",
    "Districtname": "Almora",
    "statename": "UTTARAKHAND"
  },
  {
    "pincode": "263656",
    "officename": "Dhamdewal B.O",
    "officeType": "B.O",
    "Deliverystatus": "Delivery",
    "divisionname": "Almora",
    "regionname": "Dehradun",
    "circlename": "Uttarakhand",
    "Taluk": "Chaukhutia",
    "Districtname": "Almora",
    "statename": "UTTARAKHAND"
  },
  {
    "pincode": "263656",
    "officename": "Ganai S.O",
    "officeType": "S.O",
    "Deliverystatus": "Delivery",
    "divisionname": "Almora",
    "regionname": "Dehradun",
    "circlename": "Uttarakhand",
    "Taluk": "Chaukhutia",
    "Districtname": "Almora",
    "statename": "UTTARAKHAND"
  },
  {
    "pincode": "263656",
    "officename": "Godi B.O",
    "officeType": "B.O",
    "Deliverystatus": "Delivery",
    "divisionname": "Almora",
    "regionname": "Dehradun",
    "circlename": "Uttarakhand",
    "Taluk": "Chaukhutia",
    "Districtname": "Almora",
    "statename": "UTTARAKHAND"
  },
  {
    "pincode": "263656",
    "officename": "Jairambakhal B.O",
    "officeType": "B.O",
    "Deliverystatus": "Delivery",
    "divisionname": "Almora",
    "regionname": "Dehradun",
    "circlename": "Uttarakhand",
    "Taluk": "Chaukhutia",
    "Districtname": "Almora",
    "statename": "UTTARAKHAND"
  },
  {
    "pincode": "263656",
    "officename": "Jaurasi B.O",
    "officeType": "B.O",
    "Deliverystatus": "Delivery",
    "divisionname": "Almora",
    "regionname": "Dehradun",
    "circlename": "Uttarakhand",
    "Taluk": "Chaukhutia",
    "Districtname": "Almora",
    "statename": "UTTARAKHAND"
  },
  {
    "pincode": "263656",
    "officename": "Khatyari B.O",
    "officeType": "B.O",
    "Deliverystatus": "Delivery",
    "divisionname": "Almora",
    "regionname": "Dehradun",
    "circlename": "Uttarakhand",
    "Taluk": "Chaukhutia",
    "Districtname": "Almora",
    "statename": "UTTARAKHAND"
  },
  {
    "pincode": "263656",
    "officename": "Khira B.O",
    "officeType": "B.O",
    "Deliverystatus": "Delivery",
    "divisionname": "Almora",
    "regionname": "Dehradun",
    "circlename": "Uttarakhand",
    "Taluk": "Chaukhutia",
    "Districtname": "Almora",
    "statename": "UTTARAKHAND"
  },
  {
    "pincode": "263656",
    "officename": "Marku Bakhal B.O",
    "officeType": "B.O",
    "Deliverystatus": "Delivery",
    "divisionname": "Almora",
    "regionname": "Dehradun",
    "circlename": "Uttarakhand",
    "Taluk": "Chaukhutia",
    "Districtname": "Almora",
    "statename": "UTTARAKHAND"
  },
  {
    "pincode": "263656",
    "officename": "Panduwakhal B.O",
    "officeType": "B.O",
    "Deliverystatus": "Delivery",
    "divisionname": "Almora",
    "regionname": "Dehradun",
    "circlename": "Uttarakhand",
    "Taluk": "Chaukhutia",
    "Districtname": "Almora",
    "statename": "UTTARAKHAND"
  },
  {
    "pincode": "263656",
    "officename": "Rampur B.O",
    "officeType": "B.O",
    "Deliverystatus": "Delivery",
    "divisionname": "Almora",
    "regionname": "Dehradun",
    "circlename": "Uttarakhand",
    "Taluk": "Chaukhutia",
    "Districtname": "Almora",
    "statename": "UTTARAKHAND"
  },
  {
    "pincode": "263656",
    "officename": "Taragtal B.O",
    "officeType": "B.O",
    "Deliverystatus": "Delivery",
    "divisionname": "Almora",
    "regionname": "Dehradun",
    "circlename": "Uttarakhand",
    "Taluk": "Chaukhutia",
    "Districtname": "Almora",
    "statename": "UTTARAKHAND"
  }
]
