[
  {
    "pincode": "263641",
    "officename": "Anna B.O",
    "officeType": "B.O",
    "Deliverystatus": "Delivery",
    "divisionname": "Almora",
    "regionname": "Dehradun",
    "circlename": "Uttarakhand",
    "Taluk": "Garur",
    "Districtname": "Bageshwar",
    "statename": "UTTARAKHAND"
  },
  {
    "pincode": "263641",
    "officename": "Baijnath S.O (Bageshwar)",
    "officeType": "S.O",
    "Deliverystatus": "Delivery",
    "divisionname": "Almora",
    "regionname": "Dehradun",
    "circlename": "Uttarakhand",
    "Taluk": "Garur",
    "Districtname": "Bageshwar",
    "statename": "UTTARAKHAND"
  },
  {
    "pincode": "263641",
    "officename": "Bamrari B.O",
    "officeType": "B.O",
    "Deliverystatus": "Delivery",
    "divisionname": "Almora",
    "regionname": "Dehradun",
    "circlename": "Uttarakhand",
    "Taluk": "Garur",
    "Districtname": "Bageshwar",
    "statename": "UTTARAKHAND"
  },
  {
    "pincode": "263641",
    "officename": "Bantoli B.O",
    "officeType": "B.O",
    "Deliverystatus": "Delivery",
    "divisionname": "Almora",
    "regionname": "Dehradun",
    "circlename": "Uttarakhand",
    "Taluk": "Garur",
    "Districtname": "Bageshwar",
    "statename": "UTTARAKHAND"
  },
  {
    "pincode": "263641",
    "officename": "Bheta B.O",
    "officeType": "B.O",
    "Deliverystatus": "Delivery",
    "divisionname": "Almora",
    "regionname": "Dehradun",
    "circlename": "Uttarakhand",
    "Taluk": "Garur",
    "Districtname": "Bageshwar",
    "statename": "UTTARAKHAND"
  },
  {
    "pincode": "263641",
    "officename": "Deonai B.O",
    "officeType": "B.O",
    "Deliverystatus": "Delivery",
    "divisionname": "Almora",
    "regionname": "Dehradun",
    "circlename": "Uttarakhand",
    "Taluk": "Garur",
    "Districtname": "Bageshwar",
    "statename": "UTTARAKHAND"
  },
  {
    "pincode": "263641",
    "officename": "Gagarigole ED B.O",
    "officeType": "B.O",
    "Deliverystatus": "Delivery",
    "divisionname": "Almora",
    "regionname": "Dehradun",
    "circlename": "Uttarakhand",
    "Taluk": "Garur",
    "Districtname": "Bageshwar",
    "statename": "UTTARAKHAND"
  },
  {
    "pincode": "263641",
    "officename": "Kapkoti B.O",
    "officeType": "B.O",
    "Deliverystatus": "Delivery",
    "divisionname": "Almora",
    "regionname": "Dehradun",
    "circlename": "Uttarakhand",
    "Taluk": "Garur",
    "Districtname": "Bageshwar",
    "statename": "UTTARAKHAND"
  },
  {
    "pincode": "263641",
    "officename": "Matena B.O",
    "officeType": "B.O",
    "Deliverystatus": "Delivery",
    "divisionname": "Almora",
    "regionname": "Dehradun",
    "circlename": "Uttarakhand",
    "Taluk": "Garur",
    "Districtname": "Bageshwar",
    "statename": "UTTARAKHAND"
  },
  {
    "pincode": "263641",
    "officename": "Mostgaon B.O",
    "officeType": "B.O",
    "Deliverystatus": "Delivery",
    "divisionname": "Almora",
    "regionname": "Dehradun",
    "circlename": "Uttarakhand",
    "Taluk": "Garur",
    "Districtname": "Bageshwar",
    "statename": "UTTARAKHAND"
  },
  {
    "pincode": "263641",
    "officename": "Okhalson B.O",
    "officeType": "B.O",
    "Deliverystatus": "Delivery",
    "divisionname": "Almora",
    "regionname": "Dehradun",
    "circlename": "Uttarakhand",
    "Taluk": "Garur",
    "Districtname": "Bageshwar",
    "statename": "UTTARAKHAND"
  },
  {
    "pincode": "263641",
    "officename": "Patli B.O",
    "officeType": "B.O",
    "Deliverystatus": "Delivery",
    "divisionname": "Almora",
    "regionname": "Dehradun",
    "circlename": "Uttarakhand",
    "Taluk": "Garur",
    "Districtname": "Bageshwar",
    "statename": "UTTARAKHAND"
  },
  {
    "pincode": "263641",
    "officename": "Rawaikhal B.O",
    "officeType": "B.O",
    "Deliverystatus": "Delivery",
    "divisionname": "Almora",
    "regionname": "Dehradun",
    "circlename": "Uttarakhand",
    "Taluk": "Garur",
    "Districtname": "Bageshwar",
    "statename": "UTTARAKHAND"
  },
  {
    "pincode": "263641",
    "officename": "Tilsari B.O",
    "officeType": "B.O",
    "Deliverystatus": "Delivery",
    "divisionname": "Almora",
    "regionname": "Dehradun",
    "circlename": "Uttarakhand",
    "Taluk": "Garur",
    "Districtname": "Bageshwar",
    "statename": "UTTARAKHAND"
  }
]
