[
  {
    "pincode": "263646",
    "officename": "Ajoli Malli B.O",
    "officeType": "B.O",
    "Deliverystatus": "Delivery",
    "divisionname": "Almora",
    "regionname": "Dehradun",
    "circlename": "Uttarakhand",
    "Taluk": "Ranikhet",
    "Districtname": "Almora",
    "statename": "UTTARAKHAND"
  },
  {
    "pincode": "263646",
    "officename": "Bhatronjkhan S.O",
    "officeType": "S.O",
    "Deliverystatus": "Delivery",
    "divisionname": "Almora",
    "regionname": "Dehradun",
    "circlename": "Uttarakhand",
    "Taluk": "Bhikiyasen",
    "Districtname": "Almora",
    "statename": "UTTARAKHAND"
  },
  {
    "pincode": "263646",
    "officename": "Bhaunkhal B.O",
    "officeType": "B.O",
    "Deliverystatus": "Delivery",
    "divisionname": "Almora",
    "regionname": "Dehradun",
    "circlename": "Uttarakhand",
    "Taluk": "Ranikhet",
    "Districtname": "Almora",
    "statename": "UTTARAKHAND"
  },
  {
    "pincode": "263646",
    "officename": "Ghatti B.O",
    "officeType": "B.O",
    "Deliverystatus": "Delivery",
    "divisionname": "Almora",
    "regionname": "Dehradun",
    "circlename": "Uttarakhand",
    "Taluk": "Ranikhet",
    "Districtname": "Almora",
    "statename": "UTTARAKHAND"
  },
  {
    "pincode": "263646",
    "officename": "Harara B.O",
    "officeType": "B.O",
    "Deliverystatus": "Delivery",
    "divisionname": "Almora",
    "regionname": "Dehradun",
    "circlename": "Uttarakhand",
    "Taluk": "Ranikhet",
    "Districtname": "Almora",
    "statename": "UTTARAKHAND"
  },
  {
    "pincode": "263646",
    "officename": "Jakh B.O",
    "officeType": "B.O",
    "Deliverystatus": "Delivery",
    "divisionname": "Almora",
    "regionname": "Dehradun",
    "circlename": "Uttarakhand",
    "Taluk": "Ranikhet",
    "Districtname": "Almora",
    "statename": "UTTARAKHAND"
  },
  {
    "pincode": "263646",
    "officename": "Kotuli Malli B.O",
    "officeType": "B.O",
    "Deliverystatus": "Delivery",
    "divisionname": "Almora",
    "regionname": "Dehradun",
    "circlename": "Uttarakhand",
    "Taluk": "Ranikhet",
    "Districtname": "Almora",
    "statename": "UTTARAKHAND"
  },
  {
    "pincode": "263646",
    "officename": "Machhor B.O",
    "officeType": "B.O",
    "Deliverystatus": "Delivery",
    "divisionname": "Almora",
    "regionname": "Dehradun",
    "circlename": "Uttarakhand",
    "Taluk": "Ranikhet",
    "Districtname": "Almora",
    "statename": "UTTARAKHAND"
  },
  {
    "pincode": "263646",
    "officename": "Panuwadeokhan B.O",
    "officeType": "B.O",
    "Deliverystatus": "Delivery",
    "divisionname": "Almora",
    "regionname": "Dehradun",
    "circlename": "Uttarakhand",
    "Taluk": "Ranikhet",
    "Districtname": "Almora",
    "statename": "UTTARAKHAND"
  },
  {
    "pincode": "263646",
    "officename": "Tolyun B.O",
    "officeType": "B.O",
    "Deliverystatus": "Delivery",
    "divisionname": "Almora",
    "regionname": "Dehradun",
    "circlename": "Uttarakhand",
    "Taluk": "Ranikhet",
    "Districtname": "Almora",
    "statename": "UTTARAKHAND"
  },
  {
    "pincode": "263646",
    "officename": "Totam B.O",
    "officeType": "B.O",
    "Deliverystatus": "Delivery",
    "divisionname": "Almora",
    "regionname": "Dehradun",
    "circlename": "Uttarakhand",
    "Taluk": "Ranikhet",
    "Districtname": "Almora",
    "statename": "UTTARAKHAND"
  }
]
