[
  {
    "pincode": "271215",
    "officename": "Achkawapur B.O",
    "officeType": "B.O",
    "Deliverystatus": "Delivery",
    "divisionname": "Gonda",
    "regionname": "Gorakhpur",
    "circlename": "Uttar Pradesh",
    "Taluk": "Tulsipur",
    "Districtname": "Balrampur",
    "statename": "UTTAR PRADESH"
  },
  {
    "pincode": "271215",
    "officename": "Adamtara B.O",
    "officeType": "B.O",
    "Deliverystatus": "Delivery",
    "divisionname": "Gonda",
    "regionname": "Gorakhpur",
    "circlename": "Uttar Pradesh",
    "Taluk": "Tulsipur",
    "Districtname": "Balrampur",
    "statename": "UTTAR PRADESH"
  },
  {
    "pincode": "271215",
    "officename": "Bargadha Sohna B.O",
    "officeType": "B.O",
    "Deliverystatus": "Delivery",
    "divisionname": "Gonda",
    "regionname": "Gorakhpur",
    "circlename": "Uttar Pradesh",
    "Taluk": "Tulsipur",
    "Districtname": "Balrampur",
    "statename": "UTTAR PRADESH"
  },
  {
    "pincode": "271215",
    "officename": "Bargadwa B.O",
    "officeType": "B.O",
    "Deliverystatus": "Delivery",
    "divisionname": "Gonda",
    "regionname": "Gorakhpur",
    "circlename": "Uttar Pradesh",
    "Taluk": "Tulsipur",
    "Districtname": "Balrampur",
    "statename": "UTTAR PRADESH"
  },
  {
    "pincode": "271215",
    "officename": "Belhsa B.O",
    "officeType": "B.O",
    "Deliverystatus": "Delivery",
    "divisionname": "Gonda",
    "regionname": "Gorakhpur",
    "circlename": "Uttar Pradesh",
    "Taluk": "Tulsipur",
    "Districtname": "Balrampur",
    "statename": "UTTAR PRADESH"
  },
  {
    "pincode": "271215",
    "officename": "Bemiha B.O",
    "officeType": "B.O",
    "Deliverystatus": "Delivery",
    "divisionname": "Gonda",
    "regionname": "Gorakhpur",
    "circlename": "Uttar Pradesh",
    "Taluk": "Tulsipur",
    "Districtname": "Balrampur",
    "statename": "UTTAR PRADESH"
  },
  {
    "pincode": "271215",
    "officename": "Bhagwanpur Khadar B.O",
    "officeType": "B.O",
    "Deliverystatus": "Delivery",
    "divisionname": "Gonda",
    "regionname": "Gorakhpur",
    "circlename": "Uttar Pradesh",
    "Taluk": "Tulsipur",
    "Districtname": "Balrampur",
    "statename": "UTTAR PRADESH"
  },
  {
    "pincode": "271215",
    "officename": "Dhawai B.O",
    "officeType": "B.O",
    "Deliverystatus": "Delivery",
    "divisionname": "Gonda",
    "regionname": "Gorakhpur",
    "circlename": "Uttar Pradesh",
    "Taluk": "Tulsipur",
    "Districtname": "Balrampur",
    "statename": "UTTAR PRADESH"
  },
  {
    "pincode": "271215",
    "officename": "Ganeshpur B.O",
    "officeType": "B.O",
    "Deliverystatus": "Delivery",
    "divisionname": "Gonda",
    "regionname": "Gorakhpur",
    "circlename": "Uttar Pradesh",
    "Taluk": "Tulsipur",
    "Districtname": "Balrampur",
    "statename": "UTTAR PRADESH"
  },
  {
    "pincode": "271215",
    "officename": "Kundwa B.O",
    "officeType": "B.O",
    "Deliverystatus": "Delivery",
    "divisionname": "Gonda",
    "regionname": "Gorakhpur",
    "circlename": "Uttar Pradesh",
    "Taluk": "Tulsipur",
    "Districtname": "Balrampur",
    "statename": "UTTAR PRADESH"
  },
  {
    "pincode": "271215",
    "officename": "Kutti Ram Talha B.O",
    "officeType": "B.O",
    "Deliverystatus": "Delivery",
    "divisionname": "Gonda",
    "regionname": "Gorakhpur",
    "circlename": "Uttar Pradesh",
    "Taluk": "Tulsipur",
    "Districtname": "Balrampur",
    "statename": "UTTAR PRADESH"
  },
  {
    "pincode": "271215",
    "officename": "Madha Nagar B.O",
    "officeType": "B.O",
    "Deliverystatus": "Delivery",
    "divisionname": "Gonda",
    "regionname": "Gorakhpur",
    "circlename": "Uttar Pradesh",
    "Taluk": "Tulsipur",
    "Districtname": "Balrampur",
    "statename": "UTTAR PRADESH"
  },
  {
    "pincode": "271215",
    "officename": "Malda B.O",
    "officeType": "B.O",
    "Deliverystatus": "Delivery",
    "divisionname": "Gonda",
    "regionname": "Gorakhpur",
    "circlename": "Uttar Pradesh",
    "Taluk": "Tulsipur",
    "Districtname": "Balrampur",
    "statename": "UTTAR PRADESH"
  },
  {
    "pincode": "271215",
    "officename": "Manpur B.O",
    "officeType": "B.O",
    "Deliverystatus": "Delivery",
    "divisionname": "Gonda",
    "regionname": "Gorakhpur",
    "circlename": "Uttar Pradesh",
    "Taluk": "Tulsipur",
    "Districtname": "Balrampur",
    "statename": "UTTAR PRADESH"
  },
  {
    "pincode": "271215",
    "officename": "Mnohrapur B.O",
    "officeType": "B.O",
    "Deliverystatus": "Delivery",
    "divisionname": "Gonda",
    "regionname": "Gorakhpur",
    "circlename": "Uttar Pradesh",
    "Taluk": "Tulsipur",
    "Districtname": "Balrampur",
    "statename": "UTTAR PRADESH"
  },
  {
    "pincode": "271215",
    "officename": "Pipriha Jamuni B.O",
    "officeType": "B.O",
    "Deliverystatus": "Delivery",
    "divisionname": "Gonda",
    "regionname": "Gorakhpur",
    "circlename": "Uttar Pradesh",
    "Taluk": "Tulsipur",
    "Districtname": "Balrampur",
    "statename": "UTTAR PRADESH"
  },
  {
    "pincode": "271215",
    "officename": "Purani Bazar Pachperwa S.O",
    "officeType": "S.O",
    "Deliverystatus": "Delivery",
    "divisionname": "Gonda",
    "regionname": "Gorakhpur",
    "circlename": "Uttar Pradesh",
    "Taluk": "",
    "Districtname": "Balrampur",
    "statename": "UTTAR PRADESH"
  },
  {
    "pincode": "271215",
    "officename": "Tirlokpur B.O",
    "officeType": "B.O",
    "Deliverystatus": "Delivery",
    "divisionname": "Gonda",
    "regionname": "Gorakhpur",
    "circlename": "Uttar Pradesh",
    "Taluk": "Tulsipuir",
    "Districtname": "Balrampur",
    "statename": "UTTAR PRADESH"
  },
  {
    "pincode": "271215",
    "officename": "Vijay Nagar B.O",
    "officeType": "B.O",
    "Deliverystatus": "Delivery",
    "divisionname": "Gonda",
    "regionname": "Gorakhpur",
    "circlename": "Uttar Pradesh",
    "Taluk": "Tulsipur",
    "Districtname": "Balrampur",
    "statename": "UTTAR PRADESH"
  }
]
