[
  {
    "pincode": "271207",
    "officename": "Bardaulia B.O",
    "officeType": "B.O",
    "Deliverystatus": "Delivery",
    "divisionname": "Gonda",
    "regionname": "Gorakhpur",
    "circlename": "Uttar Pradesh",
    "Taluk": "Tulsipur",
    "Districtname": "Balrampur",
    "statename": "UTTAR PRADESH"
  },
  {
    "pincode": "271207",
    "officename": "Bisunpur B.O",
    "officeType": "B.O",
    "Deliverystatus": "Delivery",
    "divisionname": "Gonda",
    "regionname": "Gorakhpur",
    "circlename": "Uttar Pradesh",
    "Taluk": "Balrampur",
    "Districtname": "Balrampur",
    "statename": "UTTAR PRADESH"
  },
  {
    "pincode": "271207",
    "officename": "Chaudhary Deeh B.O",
    "officeType": "B.O",
    "Deliverystatus": "Delivery",
    "divisionname": "Gonda",
    "regionname": "Gorakhpur",
    "circlename": "Uttar Pradesh",
    "Taluk": "Tulsipur",
    "Districtname": "Balrampur",
    "statename": "UTTAR PRADESH"
  },
  {
    "pincode": "271207",
    "officename": "Deopura B.O",
    "officeType": "B.O",
    "Deliverystatus": "Delivery",
    "divisionname": "Gonda",
    "regionname": "Gorakhpur",
    "circlename": "Uttar Pradesh",
    "Taluk": "Tulsipur",
    "Districtname": "Balrampur",
    "statename": "UTTAR PRADESH"
  },
  {
    "pincode": "271207",
    "officename": "Hasanpur B.O",
    "officeType": "B.O",
    "Deliverystatus": "Delivery",
    "divisionname": "Gonda",
    "regionname": "Gorakhpur",
    "circlename": "Uttar Pradesh",
    "Taluk": "Tulsipur",
    "Districtname": "Balrampur",
    "statename": "UTTAR PRADESH"
  },
  {
    "pincode": "271207",
    "officename": "Motipur B.O",
    "officeType": "B.O",
    "Deliverystatus": "Delivery",
    "divisionname": "Gonda",
    "regionname": "Gorakhpur",
    "circlename": "Uttar Pradesh",
    "Taluk": "Tulsipur",
    "Districtname": "Balrampur",
    "statename": "UTTAR PRADESH"
  },
  {
    "pincode": "271207",
    "officename": "Shankar Nagar B.O",
    "officeType": "B.O",
    "Deliverystatus": "Delivery",
    "divisionname": "Gonda",
    "regionname": "Gorakhpur",
    "circlename": "Uttar Pradesh",
    "Taluk": "Tulsipur",
    "Districtname": "Balrampur",
    "statename": "UTTAR PRADESH"
  },
  {
    "pincode": "271207",
    "officename": "Shivpura S.O",
    "officeType": "S.O",
    "Deliverystatus": "Delivery",
    "divisionname": "Gonda",
    "regionname": "Gorakhpur",
    "circlename": "Uttar Pradesh",
    "Taluk": "Balrampur",
    "Districtname": "Balrampur",
    "statename": "UTTAR PRADESH"
  },
  {
    "pincode": "271207",
    "officename": "Sonpur B.O",
    "officeType": "B.O",
    "Deliverystatus": "Delivery",
    "divisionname": "Gonda",
    "regionname": "Gorakhpur",
    "circlename": "Uttar Pradesh",
    "Taluk": "Tulsipur",
    "Districtname": "Balrampur",
    "statename": "UTTAR PRADESH"
  },
  {
    "pincode": "271207",
    "officename": "Udaipur B.O",
    "officeType": "B.O",
    "Deliverystatus": "Delivery",
    "divisionname": "Gonda",
    "regionname": "Gorakhpur",
    "circlename": "Uttar Pradesh",
    "Taluk": "Tulsipur",
    "Districtname": "Balrampur",
    "statename": "UTTAR PRADESH"
  }
]
