[
  {
    "pincode": "271208",
    "officename": "Bangai B.O",
    "officeType": "B.O",
    "Deliverystatus": "Delivery",
    "divisionname": "Gonda",
    "regionname": "Gorakhpur",
    "circlename": "Uttar Pradesh",
    "Taluk": "Tulsipur",
    "Districtname": "Balrampur",
    "statename": "UTTAR PRADESH"
  },
  {
    "pincode": "271208",
    "officename": "Bhagwanpur B.O",
    "officeType": "B.O",
    "Deliverystatus": "Delivery",
    "divisionname": "Gonda",
    "regionname": "Gorakhpur",
    "circlename": "Uttar Pradesh",
    "Taluk": "Tulsipur",
    "Districtname": "Balrampur",
    "statename": "UTTAR PRADESH"
  },
  {
    "pincode": "271208",
    "officename": "Bhangaha Kala B.O",
    "officeType": "B.O",
    "Deliverystatus": "Delivery",
    "divisionname": "Gonda",
    "regionname": "Gorakhpur",
    "circlename": "Uttar Pradesh",
    "Taluk": "Tulsipur",
    "Districtname": "Balrampur",
    "statename": "UTTAR PRADESH"
  },
  {
    "pincode": "271208",
    "officename": "Chauhattar Kalan B.O",
    "officeType": "B.O",
    "Deliverystatus": "Delivery",
    "divisionname": "Gonda",
    "regionname": "Gorakhpur",
    "circlename": "Uttar Pradesh",
    "Taluk": "Gonda",
    "Districtname": "Gonda",
    "statename": "UTTAR PRADESH"
  },
  {
    "pincode": "271208",
    "officename": "Dharampur B.O",
    "officeType": "B.O",
    "Deliverystatus": "Delivery",
    "divisionname": "Gonda",
    "regionname": "Gorakhpur",
    "circlename": "Uttar Pradesh",
    "Taluk": "Balrampur",
    "Districtname": "Balrampur",
    "statename": "UTTAR PRADESH"
  },
  {
    "pincode": "271208",
    "officename": "Gudra B.O",
    "officeType": "B.O",
    "Deliverystatus": "Delivery",
    "divisionname": "Gonda",
    "regionname": "Gorakhpur",
    "circlename": "Uttar Pradesh",
    "Taluk": "Tulsipur",
    "Districtname": "Balrampur",
    "statename": "UTTAR PRADESH"
  },
  {
    "pincode": "271208",
    "officename": "Jahandaria B.O",
    "officeType": "B.O",
    "Deliverystatus": "Delivery",
    "divisionname": "Gonda",
    "regionname": "Gorakhpur",
    "circlename": "Uttar Pradesh",
    "Taluk": "Tulsipur",
    "Districtname": "Balrampur",
    "statename": "UTTAR PRADESH"
  },
  {
    "pincode": "271208",
    "officename": "Kondari B.O",
    "officeType": "B.O",
    "Deliverystatus": "Delivery",
    "divisionname": "Gonda",
    "regionname": "Gorakhpur",
    "circlename": "Uttar Pradesh",
    "Taluk": "Tulsipur",
    "Districtname": "Balrampur",
    "statename": "UTTAR PRADESH"
  },
  {
    "pincode": "271208",
    "officename": "Lal Nagar Sipahia B.O",
    "officeType": "B.O",
    "Deliverystatus": "Delivery",
    "divisionname": "Gonda",
    "regionname": "Gorakhpur",
    "circlename": "Uttar Pradesh",
    "Taluk": "Tulsipur",
    "Districtname": "Balrampur",
    "statename": "UTTAR PRADESH"
  },
  {
    "pincode": "271208",
    "officename": "Laukahwa B.O",
    "officeType": "B.O",
    "Deliverystatus": "Delivery",
    "divisionname": "Gonda",
    "regionname": "Gorakhpur",
    "circlename": "Uttar Pradesh",
    "Taluk": "Tulsipur",
    "Districtname": "Balrampur",
    "statename": "UTTAR PRADESH"
  },
  {
    "pincode": "271208",
    "officename": "Laxmi Nagar B.O",
    "officeType": "B.O",
    "Deliverystatus": "Delivery",
    "divisionname": "Gonda",
    "regionname": "Gorakhpur",
    "circlename": "Uttar Pradesh",
    "Taluk": "Tulsipur",
    "Districtname": "Balrampur",
    "statename": "UTTAR PRADESH"
  },
  {
    "pincode": "271208",
    "officename": "Majgaon B.O",
    "officeType": "B.O",
    "Deliverystatus": "Delivery",
    "divisionname": "Gonda",
    "regionname": "Gorakhpur",
    "circlename": "Uttar Pradesh",
    "Taluk": "Tulsipur",
    "Districtname": "Balrampur",
    "statename": "UTTAR PRADESH"
  },
  {
    "pincode": "271208",
    "officename": "Naikiniya B.O",
    "officeType": "B.O",
    "Deliverystatus": "Delivery",
    "divisionname": "Gonda",
    "regionname": "Gorakhpur",
    "circlename": "Uttar Pradesh",
    "Taluk": "Tulsipur",
    "Districtname": "Balrampur",
    "statename": "UTTAR PRADESH"
  },
  {
    "pincode": "271208",
    "officename": "Rani Jot B.O",
    "officeType": "B.O",
    "Deliverystatus": "Delivery",
    "divisionname": "Gonda",
    "regionname": "Gorakhpur",
    "circlename": "Uttar Pradesh",
    "Taluk": "Tulsipur",
    "Districtname": "Balrampur",
    "statename": "UTTAR PRADESH"
  },
  {
    "pincode": "271208",
    "officename": "Tulsipur S.O",
    "officeType": "S.O",
    "Deliverystatus": "Delivery",
    "divisionname": "Gonda",
    "regionname": "Gorakhpur",
    "circlename": "Uttar Pradesh",
    "Taluk": "Tulsipur",
    "Districtname": "Balrampur",
    "statename": "UTTAR PRADESH"
  }
]
