[
  {
    "pincode": "271307",
    "officename": "Achalpur Kaithawalia B.O",
    "officeType": "B.O",
    "Deliverystatus": "Delivery",
    "divisionname": "Gonda",
    "regionname": "Gorakhpur",
    "circlename": "Uttar Pradesh",
    "Taluk": "Gonda",
    "Districtname": "Gonda",
    "statename": "UTTAR PRADESH"
  },
  {
    "pincode": "271307",
    "officename": "Bhelya Madanpur B.O",
    "officeType": "B.O",
    "Deliverystatus": "Delivery",
    "divisionname": "Gonda",
    "regionname": "Gorakhpur",
    "circlename": "Uttar Pradesh",
    "Taluk": "Utraula",
    "Districtname": "Balrampur",
    "statename": "UTTAR PRADESH"
  },
  {
    "pincode": "271307",
    "officename": "Bishunpur Sagar B.O",
    "officeType": "B.O",
    "Deliverystatus": "Delivery",
    "divisionname": "Gonda",
    "regionname": "Gorakhpur",
    "circlename": "Uttar Pradesh",
    "Taluk": "Utraula",
    "Districtname": "Balrampur",
    "statename": "UTTAR PRADESH"
  },
  {
    "pincode": "271307",
    "officename": "Deoria Inayat B.O",
    "officeType": "B.O",
    "Deliverystatus": "Delivery",
    "divisionname": "Gonda",
    "regionname": "Gorakhpur",
    "circlename": "Uttar Pradesh",
    "Taluk": "Utraula",
    "Districtname": "Balrampur",
    "statename": "UTTAR PRADESH"
  },
  {
    "pincode": "271307",
    "officename": "Golahipur B.O",
    "officeType": "B.O",
    "Deliverystatus": "Delivery",
    "divisionname": "Gonda",
    "regionname": "Gorakhpur",
    "circlename": "Uttar Pradesh",
    "Taluk": "Utraula",
    "Districtname": "Balrampur",
    "statename": "UTTAR PRADESH"
  },
  {
    "pincode": "271307",
    "officename": "Intai Abdullah B.O",
    "officeType": "B.O",
    "Deliverystatus": "Delivery",
    "divisionname": "Gonda",
    "regionname": "Gorakhpur",
    "circlename": "Uttar Pradesh",
    "Taluk": "Utraula",
    "Districtname": "Balrampur",
    "statename": "UTTAR PRADESH"
  },
  {
    "pincode": "271307",
    "officename": "Kharhawa Deehwa B.O",
    "officeType": "B.O",
    "Deliverystatus": "Delivery",
    "divisionname": "Gonda",
    "regionname": "Gorakhpur",
    "circlename": "Uttar Pradesh",
    "Taluk": "Utraula",
    "Districtname": "Balrampur",
    "statename": "UTTAR PRADESH"
  },
  {
    "pincode": "271307",
    "officename": "Lokiya Tahir B.O",
    "officeType": "B.O",
    "Deliverystatus": "Delivery",
    "divisionname": "Gonda",
    "regionname": "Gorakhpur",
    "circlename": "Uttar Pradesh",
    "Taluk": "Utraula",
    "Districtname": "Balrampur",
    "statename": "UTTAR PRADESH"
  },
  {
    "pincode": "271307",
    "officename": "Maddo Chaura B.O",
    "officeType": "B.O",
    "Deliverystatus": "Delivery",
    "divisionname": "Gonda",
    "regionname": "Gorakhpur",
    "circlename": "Uttar Pradesh",
    "Taluk": "Utraula",
    "Districtname": "Balrampur",
    "statename": "UTTAR PRADESH"
  },
  {
    "pincode": "271307",
    "officename": "Maruia Bujurga B.O",
    "officeType": "B.O",
    "Deliverystatus": "Delivery",
    "divisionname": "Gonda",
    "regionname": "Gorakhpur",
    "circlename": "Uttar Pradesh",
    "Taluk": "Mankapur",
    "Districtname": "Gonda",
    "statename": "UTTAR PRADESH"
  },
  {
    "pincode": "271307",
    "officename": "Obarideeh B.O",
    "officeType": "B.O",
    "Deliverystatus": "Delivery",
    "divisionname": "Gonda",
    "regionname": "Gorakhpur",
    "circlename": "Uttar Pradesh",
    "Taluk": "Utraula",
    "Districtname": "Balrampur",
    "statename": "UTTAR PRADESH"
  },
  {
    "pincode": "271307",
    "officename": "Ramapur Grant B.O",
    "officeType": "B.O",
    "Deliverystatus": "Delivery",
    "divisionname": "Gonda",
    "regionname": "Gorakhpur",
    "circlename": "Uttar Pradesh",
    "Taluk": "Utraula",
    "Districtname": "Balrampur",
    "statename": "UTTAR PRADESH"
  },
  {
    "pincode": "271307",
    "officename": "Sadullanagar S.O",
    "officeType": "S.O",
    "Deliverystatus": "Delivery",
    "divisionname": "Gonda",
    "regionname": "Gorakhpur",
    "circlename": "Uttar Pradesh",
    "Taluk": "Utraula",
    "Districtname": "Balrampur",
    "statename": "UTTAR PRADESH"
  }
]
