[
  {
    "pincode": "271313",
    "officename": "Babhnan Sugar Factory S.O",
    "officeType": "S.O",
    "Deliverystatus": "Delivery",
    "divisionname": "Gonda",
    "regionname": "Gorakhpur",
    "circlename": "Uttar Pradesh",
    "Taluk": "Mankapur",
    "Districtname": "Gonda",
    "statename": "UTTAR PRADESH"
  },
  {
    "pincode": "271313",
    "officename": "Belahri Bujurg B.O",
    "officeType": "B.O",
    "Deliverystatus": "Delivery",
    "divisionname": "Gonda",
    "regionname": "Gorakhpur",
    "circlename": "Uttar Pradesh",
    "Taluk": "Mankapur",
    "Districtname": "Gonda",
    "statename": "UTTAR PRADESH"
  },
  {
    "pincode": "271313",
    "officename": "Charu B.O",
    "officeType": "B.O",
    "Deliverystatus": "Delivery",
    "divisionname": "Gonda",
    "regionname": "Gorakhpur",
    "circlename": "Uttar Pradesh",
    "Taluk": "Mankapur",
    "Districtname": "Gonda",
    "statename": "UTTAR PRADESH"
  },
  {
    "pincode": "271313",
    "officename": "Chuwar B.O",
    "officeType": "B.O",
    "Deliverystatus": "Delivery",
    "divisionname": "Gonda",
    "regionname": "Gorakhpur",
    "circlename": "Uttar Pradesh",
    "Taluk": "Mankapur",
    "Districtname": "Gonda",
    "statename": "UTTAR PRADESH"
  },
  {
    "pincode": "271313",
    "officename": "Khamariaha Bujurg B.O",
    "officeType": "B.O",
    "Deliverystatus": "Delivery",
    "divisionname": "Gonda",
    "regionname": "Gorakhpur",
    "circlename": "Uttar Pradesh",
    "Taluk": "Mankapur",
    "Districtname": "Gonda",
    "statename": "UTTAR PRADESH"
  },
  {
    "pincode": "271313",
    "officename": "Kotkhas B.O",
    "officeType": "B.O",
    "Deliverystatus": "Delivery",
    "divisionname": "Gonda",
    "regionname": "Gorakhpur",
    "circlename": "Uttar Pradesh",
    "Taluk": "Mankapur",
    "Districtname": "Gonda",
    "statename": "UTTAR PRADESH"
  },
  {
    "pincode": "271313",
    "officename": "Mahrajganj Grant B.O",
    "officeType": "B.O",
    "Deliverystatus": "Delivery",
    "divisionname": "Gonda",
    "regionname": "Gorakhpur",
    "circlename": "Uttar Pradesh",
    "Taluk": "",
    "Districtname": "Gonda",
    "statename": "UTTAR PRADESH"
  },
  {
    "pincode": "271313",
    "officename": "Mandap B.O",
    "officeType": "B.O",
    "Deliverystatus": "Delivery",
    "divisionname": "Gonda",
    "regionname": "Gorakhpur",
    "circlename": "Uttar Pradesh",
    "Taluk": "Mankapur",
    "Districtname": "Gonda",
    "statename": "UTTAR PRADESH"
  },
  {
    "pincode": "271313",
    "officename": "Parsa Tiwari B.O",
    "officeType": "B.O",
    "Deliverystatus": "Delivery",
    "divisionname": "Gonda",
    "regionname": "Gorakhpur",
    "circlename": "Uttar Pradesh",
    "Taluk": "Mankapur",
    "Districtname": "Gonda",
    "statename": "UTTAR PRADESH"
  },
  {
    "pincode": "271313",
    "officename": "Parsaudaikar B.O",
    "officeType": "B.O",
    "Deliverystatus": "Delivery",
    "divisionname": "Gonda",
    "regionname": "Gorakhpur",
    "circlename": "Uttar Pradesh",
    "Taluk": "Manapur",
    "Districtname": "Gonda",
    "statename": "UTTAR PRADESH"
  },
  {
    "pincode": "271313",
    "officename": "Sabarpur B.O",
    "officeType": "B.O",
    "Deliverystatus": "Delivery",
    "divisionname": "Gonda",
    "regionname": "Gorakhpur",
    "circlename": "Uttar Pradesh",
    "Taluk": "Mankapur",
    "Districtname": "Gonda",
    "statename": "UTTAR PRADESH"
  }
]
