[
  {
    "pincode": "271403",
    "officename": "Amdahi B.O",
    "officeType": "B.O",
    "Deliverystatus": "Delivery",
    "divisionname": "Gonda",
    "regionname": "Gorakhpur",
    "circlename": "Uttar Pradesh",
    "Taluk": "Tarabganj",
    "Districtname": "Gonda",
    "statename": "UTTAR PRADESH"
  },
  {
    "pincode": "271403",
    "officename": "Bangaon B.O",
    "officeType": "B.O",
    "Deliverystatus": "Delivery",
    "divisionname": "Gonda",
    "regionname": "Gorakhpur",
    "circlename": "Uttar Pradesh",
    "Taluk": "Tarabganj",
    "Districtname": "Gonda",
    "statename": "UTTAR PRADESH"
  },
  {
    "pincode": "271403",
    "officename": "Dhanauli B.O",
    "officeType": "B.O",
    "Deliverystatus": "Delivery",
    "divisionname": "Gonda",
    "regionname": "Gorakhpur",
    "circlename": "Uttar Pradesh",
    "Taluk": "Tarabganjj",
    "Districtname": "Gonda",
    "statename": "UTTAR PRADESH"
  },
  {
    "pincode": "271403",
    "officename": "Dhodhey Pur B.O",
    "officeType": "B.O",
    "Deliverystatus": "Delivery",
    "divisionname": "Gonda",
    "regionname": "Gorakhpur",
    "circlename": "Uttar Pradesh",
    "Taluk": "Tarabganj",
    "Districtname": "Gonda",
    "statename": "UTTAR PRADESH"
  },
  {
    "pincode": "271403",
    "officename": "Garauli B.O",
    "officeType": "B.O",
    "Deliverystatus": "Delivery",
    "divisionname": "Gonda",
    "regionname": "Gorakhpur",
    "circlename": "Uttar Pradesh",
    "Taluk": "Tarabganj",
    "Districtname": "Gonda",
    "statename": "UTTAR PRADESH"
  },
  {
    "pincode": "271403",
    "officename": "Jamtha B.O",
    "officeType": "B.O",
    "Deliverystatus": "Delivery",
    "divisionname": "Gonda",
    "regionname": "Gorakhpur",
    "circlename": "Uttar Pradesh",
    "Taluk": "Tarabganu",
    "Districtname": "Gonda",
    "statename": "UTTAR PRADESH"
  },
  {
    "pincode": "271403",
    "officename": "Khojanpur B.O",
    "officeType": "B.O",
    "Deliverystatus": "Delivery",
    "divisionname": "Gonda",
    "regionname": "Gorakhpur",
    "circlename": "Uttar Pradesh",
    "Taluk": "Tarabganj",
    "Districtname": "Gonda",
    "statename": "UTTAR PRADESH"
  },
  {
    "pincode": "271403",
    "officename": "Kindhaura B.O",
    "officeType": "B.O",
    "Deliverystatus": "Delivery",
    "divisionname": "Gonda",
    "regionname": "Gorakhpur",
    "circlename": "Uttar Pradesh",
    "Taluk": "Taranganj",
    "Districtname": "Gonda",
    "statename": "UTTAR PRADESH"
  },
  {
    "pincode": "271403",
    "officename": "Niyama B.O",
    "officeType": "B.O",
    "Deliverystatus": "Delivery",
    "divisionname": "Gonda",
    "regionname": "Gorakhpur",
    "circlename": "Uttar Pradesh",
    "Taluk": "Taranganj",
    "Districtname": "Gonda",
    "statename": "UTTAR PRADESH"
  },
  {
    "pincode": "271403",
    "officename": "Paras B.O",
    "officeType": "B.O",
    "Deliverystatus": "Delivery",
    "divisionname": "Gonda",
    "regionname": "Gorakhpur",
    "circlename": "Uttar Pradesh",
    "Taluk": "Tarabganj",
    "Districtname": "Gonda",
    "statename": "UTTAR PRADESH"
  },
  {
    "pincode": "271403",
    "officename": "Pure Ghisiram B.O",
    "officeType": "B.O",
    "Deliverystatus": "Delivery",
    "divisionname": "Gonda",
    "regionname": "Gorakhpur",
    "circlename": "Uttar Pradesh",
    "Taluk": "Tarabganj",
    "Districtname": "Gonda",
    "statename": "UTTAR PRADESH"
  },
  {
    "pincode": "271403",
    "officename": "Ram Adhin Purwa B.O",
    "officeType": "B.O",
    "Deliverystatus": "Delivery",
    "divisionname": "Gonda",
    "regionname": "Gorakhpur",
    "circlename": "Uttar Pradesh",
    "Taluk": "Tarabganj",
    "Districtname": "Gonda",
    "statename": "UTTAR PRADESH"
  },
  {
    "pincode": "271403",
    "officename": "Ranipur B.O",
    "officeType": "B.O",
    "Deliverystatus": "Delivery",
    "divisionname": "Gonda",
    "regionname": "Gorakhpur",
    "circlename": "Uttar Pradesh",
    "Taluk": "Tarabganj",
    "Districtname": "Gonda",
    "statename": "UTTAR PRADESH"
  },
  {
    "pincode": "271403",
    "officename": "Sarawa B.O",
    "officeType": "B.O",
    "Deliverystatus": "Delivery",
    "divisionname": "Gonda",
    "regionname": "Gorakhpur",
    "circlename": "Uttar Pradesh",
    "Taluk": "Tarabganj",
    "Districtname": "Gonda",
    "statename": "UTTAR PRADESH"
  },
  {
    "pincode": "271403",
    "officename": "Singha Chanda B.O",
    "officeType": "B.O",
    "Deliverystatus": "Delivery",
    "divisionname": "Gonda",
    "regionname": "Gorakhpur",
    "circlename": "Uttar Pradesh",
    "Taluk": "Tarabganj",
    "Districtname": "Gonda",
    "statename": "UTTAR PRADESH"
  },
  {
    "pincode": "271403",
    "officename": "Tarabganj S.O",
    "officeType": "S.O",
    "Deliverystatus": "Delivery",
    "divisionname": "Gonda",
    "regionname": "Gorakhpur",
    "circlename": "Uttar Pradesh",
    "Taluk": "Tarabganj",
    "Districtname": "Gonda",
    "statename": "UTTAR PRADESH"
  },
  {
    "pincode": "271403",
    "officename": "Taradheeh B.O",
    "officeType": "B.O",
    "Deliverystatus": "Delivery",
    "divisionname": "Gonda",
    "regionname": "Gorakhpur",
    "circlename": "Uttar Pradesh",
    "Taluk": "Tarabganjj",
    "Districtname": "Gonda",
    "statename": "UTTAR PRADESH"
  },
  {
    "pincode": "271403",
    "officename": "Tiwari Bazar B.O",
    "officeType": "B.O",
    "Deliverystatus": "Delivery",
    "divisionname": "Gonda",
    "regionname": "Gorakhpur",
    "circlename": "Uttar Pradesh",
    "Taluk": "Tarabganj",
    "Districtname": "Gonda",
    "statename": "UTTAR PRADESH"
  }
]
