[
  {
    "pincode": "271602",
    "officename": "Bangai Barwar B.O",
    "officeType": "B.O",
    "Deliverystatus": "Delivery",
    "divisionname": "Gonda",
    "regionname": "Gorakhpur",
    "circlename": "Uttar Pradesh",
    "Taluk": "Gonda",
    "Districtname": "Gonda",
    "statename": "UTTAR PRADESH"
  },
  {
    "pincode": "271602",
    "officename": "Bankati Suryabali Singh B.O",
    "officeType": "B.O",
    "Deliverystatus": "Delivery",
    "divisionname": "Gonda",
    "regionname": "Gorakhpur",
    "circlename": "Uttar Pradesh",
    "Taluk": "Gonda",
    "Districtname": "Gonda",
    "statename": "UTTAR PRADESH"
  },
  {
    "pincode": "271602",
    "officename": "Belbhari B.O",
    "officeType": "B.O",
    "Deliverystatus": "Delivery",
    "divisionname": "Gonda",
    "regionname": "Gorakhpur",
    "circlename": "Uttar Pradesh",
    "Taluk": "Gonda",
    "Districtname": "Gonda",
    "statename": "UTTAR PRADESH"
  },
  {
    "pincode": "271602",
    "officename": "Bisambharpur B.O",
    "officeType": "B.O",
    "Deliverystatus": "Delivery",
    "divisionname": "Gonda",
    "regionname": "Gorakhpur",
    "circlename": "Uttar Pradesh",
    "Taluk": "Gonda",
    "Districtname": "Gonda",
    "statename": "UTTAR PRADESH"
  },
  {
    "pincode": "271602",
    "officename": "Dhaneypur S.O",
    "officeType": "S.O",
    "Deliverystatus": "Delivery",
    "divisionname": "Gonda",
    "regionname": "Gorakhpur",
    "circlename": "Uttar Pradesh",
    "Taluk": "Gonda",
    "Districtname": "Gonda",
    "statename": "UTTAR PRADESH"
  },
  {
    "pincode": "271602",
    "officename": "Dulhapur B.O",
    "officeType": "B.O",
    "Deliverystatus": "Delivery",
    "divisionname": "Gonda",
    "regionname": "Gorakhpur",
    "circlename": "Uttar Pradesh",
    "Taluk": "Gonda",
    "Districtname": "Gonda",
    "statename": "UTTAR PRADESH"
  },
  {
    "pincode": "271602",
    "officename": "Dutt Nagar B.O",
    "officeType": "B.O",
    "Deliverystatus": "Delivery",
    "divisionname": "Gonda",
    "regionname": "Gorakhpur",
    "circlename": "Uttar Pradesh",
    "Taluk": "Gonda",
    "Districtname": "Gonda",
    "statename": "UTTAR PRADESH"
  },
  {
    "pincode": "271602",
    "officename": "Rudragarh Nausi B.O",
    "officeType": "B.O",
    "Deliverystatus": "Delivery",
    "divisionname": "Gonda",
    "regionname": "Gorakhpur",
    "circlename": "Uttar Pradesh",
    "Taluk": "Gonda",
    "Districtname": "Gonda",
    "statename": "UTTAR PRADESH"
  }
]
