[
  {
    "pincode": "271604",
    "officename": "Alipur Bujurg B.O",
    "officeType": "B.O",
    "Deliverystatus": "Delivery",
    "divisionname": "Gonda",
    "regionname": "Gorakhpur",
    "circlename": "Uttar Pradesh",
    "Taluk": "Utraula",
    "Districtname": "Balrampur",
    "statename": "UTTAR PRADESH"
  },
  {
    "pincode": "271604",
    "officename": "Bank Bazar B.O",
    "officeType": "B.O",
    "Deliverystatus": "Delivery",
    "divisionname": "Gonda",
    "regionname": "Gorakhpur",
    "circlename": "Uttar Pradesh",
    "Taluk": "Utraula",
    "Districtname": "Balrampur",
    "statename": "UTTAR PRADESH"
  },
  {
    "pincode": "271604",
    "officename": "Barhara Bhitaura B.O",
    "officeType": "B.O",
    "Deliverystatus": "Delivery",
    "divisionname": "Gonda",
    "regionname": "Gorakhpur",
    "circlename": "Uttar Pradesh",
    "Taluk": "Utraula",
    "Districtname": "Balrampur",
    "statename": "UTTAR PRADESH"
  },
  {
    "pincode": "271604",
    "officename": "Bhairampur B.O",
    "officeType": "B.O",
    "Deliverystatus": "Delivery",
    "divisionname": "Gonda",
    "regionname": "Gorakhpur",
    "circlename": "Uttar Pradesh",
    "Taluk": "Utraula",
    "Districtname": "Balrampur",
    "statename": "UTTAR PRADESH"
  },
  {
    "pincode": "271604",
    "officename": "Chhitarpara B.O",
    "officeType": "B.O",
    "Deliverystatus": "Delivery",
    "divisionname": "Gonda",
    "regionname": "Gorakhpur",
    "circlename": "Uttar Pradesh",
    "Taluk": "Utraula",
    "Districtname": "Balrampur",
    "statename": "UTTAR PRADESH"
  },
  {
    "pincode": "271604",
    "officename": "Dhaurahara B.O",
    "officeType": "B.O",
    "Deliverystatus": "Delivery",
    "divisionname": "Gonda",
    "regionname": "Gorakhpur",
    "circlename": "Uttar Pradesh",
    "Taluk": "Colonelganj",
    "Districtname": "Gonda",
    "statename": "UTTAR PRADESH"
  },
  {
    "pincode": "271604",
    "officename": "Dualata Bad Grant B.O",
    "officeType": "B.O",
    "Deliverystatus": "Delivery",
    "divisionname": "Gonda",
    "regionname": "Gorakhpur",
    "circlename": "Uttar Pradesh",
    "Taluk": "Utraula",
    "Districtname": "Balrampur",
    "statename": "UTTAR PRADESH"
  },
  {
    "pincode": "271604",
    "officename": "Entai Rampur B.O",
    "officeType": "B.O",
    "Deliverystatus": "Delivery",
    "divisionname": "Gonda",
    "regionname": "Gorakhpur",
    "circlename": "Uttar Pradesh",
    "Taluk": "Utraula",
    "Districtname": "Balrampur",
    "statename": "UTTAR PRADESH"
  },
  {
    "pincode": "271604",
    "officename": "Gaindas Bujurg B.O",
    "officeType": "B.O",
    "Deliverystatus": "Delivery",
    "divisionname": "Gonda",
    "regionname": "Gorakhpur",
    "circlename": "Uttar Pradesh",
    "Taluk": "Utraula",
    "Districtname": "Balrampur",
    "statename": "UTTAR PRADESH"
  },
  {
    "pincode": "271604",
    "officename": "Gajpur Grant B.O",
    "officeType": "B.O",
    "Deliverystatus": "Delivery",
    "divisionname": "Gonda",
    "regionname": "Gorakhpur",
    "circlename": "Uttar Pradesh",
    "Taluk": "Utraula",
    "Districtname": "Balrampur",
    "statename": "UTTAR PRADESH"
  },
  {
    "pincode": "271604",
    "officename": "Godahana B.O",
    "officeType": "B.O",
    "Deliverystatus": "Delivery",
    "divisionname": "Gonda",
    "regionname": "Gorakhpur",
    "circlename": "Uttar Pradesh",
    "Taluk": "Utraula",
    "Districtname": "Balrampur",
    "statename": "UTTAR PRADESH"
  },
  {
    "pincode": "271604",
    "officename": "Husaina Bad Grant B.O",
    "officeType": "B.O",
    "Deliverystatus": "Delivery",
    "divisionname": "Gonda",
    "regionname": "Gorakhpur",
    "circlename": "Uttar Pradesh",
    "Taluk": "Utraula",
    "Districtname": "Balrampur",
    "statename": "UTTAR PRADESH"
  },
  {
    "pincode": "271604",
    "officename": "Intai B.O",
    "officeType": "B.O",
    "Deliverystatus": "Delivery",
    "divisionname": "Gonda",
    "regionname": "Gorakhpur",
    "circlename": "Uttar Pradesh",
    "Taluk": "Utraula",
    "Districtname": "Balrampur",
    "statename": "UTTAR PRADESH"
  },
  {
    "pincode": "271604",
    "officename": "Jaita Pur B.O",
    "officeType": "B.O",
    "Deliverystatus": "Delivery",
    "divisionname": "Gonda",
    "regionname": "Gorakhpur",
    "circlename": "Uttar Pradesh",
    "Taluk": "Utraula",
    "Districtname": "Balrampur",
    "statename": "UTTAR PRADESH"
  },
  {
    "pincode": "271604",
    "officename": "Khajuria B.O",
    "officeType": "B.O",
    "Deliverystatus": "Delivery",
    "divisionname": "Gonda",
    "regionname": "Gorakhpur",
    "circlename": "Uttar Pradesh",
    "Taluk": "Utraula",
    "Districtname": "Balrampur",
    "statename": "UTTAR PRADESH"
  },
  {
    "pincode": "271604",
    "officename": "Nandauri B.O",
    "officeType": "B.O",
    "Deliverystatus": "Delivery",
    "divisionname": "Gonda",
    "regionname": "Gorakhpur",
    "circlename": "Uttar Pradesh",
    "Taluk": "Utraula",
    "Districtname": "Balrampur",
    "statename": "UTTAR PRADESH"
  },
  {
    "pincode": "271604",
    "officename": "Naubasta Mundila B.O",
    "officeType": "B.O",
    "Deliverystatus": "Delivery",
    "divisionname": "Gonda",
    "regionname": "Gorakhpur",
    "circlename": "Uttar Pradesh",
    "Taluk": "Balrampur",
    "Districtname": "Balrampur",
    "statename": "UTTAR PRADESH"
  },
  {
    "pincode": "271604",
    "officename": "Parsona B.O",
    "officeType": "B.O",
    "Deliverystatus": "Delivery",
    "divisionname": "Gonda",
    "regionname": "Gorakhpur",
    "circlename": "Uttar Pradesh",
    "Taluk": "Utraula",
    "Districtname": "Balrampur",
    "statename": "UTTAR PRADESH"
  },
  {
    "pincode": "271604",
    "officename": "Pehar B.O",
    "officeType": "B.O",
    "Deliverystatus": "Delivery",
    "divisionname": "Gonda",
    "regionname": "Gorakhpur",
    "circlename": "Uttar Pradesh",
    "Taluk": "Utraula",
    "Districtname": "Balrampur",
    "statename": "UTTAR PRADESH"
  },
  {
    "pincode": "271604",
    "officename": "Sukhuiya B.O",
    "officeType": "B.O",
    "Deliverystatus": "Delivery",
    "divisionname": "Gonda",
    "regionname": "Gorakhpur",
    "circlename": "Uttar Pradesh",
    "Taluk": "Utraula",
    "Districtname": "Balrampur",
    "statename": "UTTAR PRADESH"
  },
  {
    "pincode": "271604",
    "officename": "Terhawa Nabad B.O",
    "officeType": "B.O",
    "Deliverystatus": "Delivery",
    "divisionname": "Gonda",
    "regionname": "Gorakhpur",
    "circlename": "Uttar Pradesh",
    "Taluk": "Utraula",
    "Districtname": "Balrampur",
    "statename": "UTTAR PRADESH"
  },
  {
    "pincode": "271604",
    "officename": "Utraula Bazar B.O",
    "officeType": "B.O",
    "Deliverystatus": "Non-Delivery",
    "divisionname": "Gonda",
    "regionname": "Gorakhpur",
    "circlename": "Uttar Pradesh",
    "Taluk": "Utraula",
    "Districtname": "Balrampur",
    "statename": "UTTAR PRADESH"
  },
  {
    "pincode": "271604",
    "officename": "Utraula S.O",
    "officeType": "S.O",
    "Deliverystatus": "Delivery",
    "divisionname": "Gonda",
    "regionname": "Gorakhpur",
    "circlename": "Uttar Pradesh",
    "Taluk": "",
    "Districtname": "Balrampur",
    "statename": "UTTAR PRADESH"
  }
]
