[
  {
    "pincode": "271851",
    "officename": "Ambarpur B.O",
    "officeType": "B.O",
    "Deliverystatus": "Delivery",
    "divisionname": "Bahraich",
    "regionname": "Gorakhpur",
    "circlename": "Uttar Pradesh",
    "Taluk": "Nanpara",
    "Districtname": "Bahraich",
    "statename": "UTTAR PRADESH"
  },
  {
    "pincode": "271851",
    "officename": "Bakaina Bazar B.O",
    "officeType": "B.O",
    "Deliverystatus": "Delivery",
    "divisionname": "Bahraich",
    "regionname": "Gorakhpur",
    "circlename": "Uttar Pradesh",
    "Taluk": "Mahasi",
    "Districtname": "Bahraich",
    "statename": "UTTAR PRADESH"
  },
  {
    "pincode": "271851",
    "officename": "Chok Sahar B.O",
    "officeType": "B.O",
    "Deliverystatus": "Delivery",
    "divisionname": "Bahraich",
    "regionname": "Gorakhpur",
    "circlename": "Uttar Pradesh",
    "Taluk": "Mahasi",
    "Districtname": "Bahraich",
    "statename": "UTTAR PRADESH"
  },
  {
    "pincode": "271851",
    "officename": "Curaipurwa B.O",
    "officeType": "B.O",
    "Deliverystatus": "Delivery",
    "divisionname": "Bahraich",
    "regionname": "Gorakhpur",
    "circlename": "Uttar Pradesh",
    "Taluk": "Bahraich",
    "Districtname": "Bahraich",
    "statename": "UTTAR PRADESH"
  },
  {
    "pincode": "271851",
    "officename": "Garethi Gurudutt Singh B.O",
    "officeType": "B.O",
    "Deliverystatus": "Delivery",
    "divisionname": "Bahraich",
    "regionname": "Gorakhpur",
    "circlename": "Uttar Pradesh",
    "Taluk": "Mahsi",
    "Districtname": "Bahraich",
    "statename": "UTTAR PRADESH"
  },
  {
    "pincode": "271851",
    "officename": "Kewalpur B.O",
    "officeType": "B.O",
    "Deliverystatus": "Delivery",
    "divisionname": "Bahraich",
    "regionname": "Gorakhpur",
    "circlename": "Uttar Pradesh",
    "Taluk": "Nanpara",
    "Districtname": "Bahraich",
    "statename": "UTTAR PRADESH"
  },
  {
    "pincode": "271851",
    "officename": "Khaira Dhaukal B.O",
    "officeType": "B.O",
    "Deliverystatus": "Delivery",
    "divisionname": "Bahraich",
    "regionname": "Gorakhpur",
    "circlename": "Uttar Pradesh",
    "Taluk": "Nanpara",
    "Districtname": "Bahraich",
    "statename": "UTTAR PRADESH"
  },
  {
    "pincode": "271851",
    "officename": "Kharighat S.O",
    "officeType": "S.O",
    "Deliverystatus": "Delivery",
    "divisionname": "Bahraich",
    "regionname": "Gorakhpur",
    "circlename": "Uttar Pradesh",
    "Taluk": "Mahasi",
    "Districtname": "Bahraich",
    "statename": "UTTAR PRADESH"
  },
  {
    "pincode": "271851",
    "officename": "Kishunpur Meetha B.O",
    "officeType": "B.O",
    "Deliverystatus": "Delivery",
    "divisionname": "Bahraich",
    "regionname": "Gorakhpur",
    "circlename": "Uttar Pradesh",
    "Taluk": "Mahasi",
    "Districtname": "Bahraich",
    "statename": "UTTAR PRADESH"
  },
  {
    "pincode": "271851",
    "officename": "Maikupurwa B.O",
    "officeType": "B.O",
    "Deliverystatus": "Delivery",
    "divisionname": "Bahraich",
    "regionname": "Gorakhpur",
    "circlename": "Uttar Pradesh",
    "Taluk": "Mahasi",
    "Districtname": "Bahraich",
    "statename": "UTTAR PRADESH"
  },
  {
    "pincode": "271851",
    "officename": "Matera Kalan B.O",
    "officeType": "B.O",
    "Deliverystatus": "Delivery",
    "divisionname": "Bahraich",
    "regionname": "Gorakhpur",
    "circlename": "Uttar Pradesh",
    "Taluk": "Nanpara",
    "Districtname": "Bahraich",
    "statename": "UTTAR PRADESH"
  },
  {
    "pincode": "271851",
    "officename": "Mukeria B.O",
    "officeType": "B.O",
    "Deliverystatus": "Delivery",
    "divisionname": "Bahraich",
    "regionname": "Gorakhpur",
    "circlename": "Uttar Pradesh",
    "Taluk": "Mahasi",
    "Districtname": "Bahraich",
    "statename": "UTTAR PRADESH"
  },
  {
    "pincode": "271851",
    "officename": "Naruttampur B.O",
    "officeType": "B.O",
    "Deliverystatus": "Delivery",
    "divisionname": "Bahraich",
    "regionname": "Gorakhpur",
    "circlename": "Uttar Pradesh",
    "Taluk": "Nanpara",
    "Districtname": "Bahraich",
    "statename": "UTTAR PRADESH"
  },
  {
    "pincode": "271851",
    "officename": "Nautala B.O",
    "officeType": "B.O",
    "Deliverystatus": "Delivery",
    "divisionname": "Bahraich",
    "regionname": "Gorakhpur",
    "circlename": "Uttar Pradesh",
    "Taluk": "Mahasi",
    "Districtname": "Bahraich",
    "statename": "UTTAR PRADESH"
  },
  {
    "pincode": "271851",
    "officename": "Pachdevri B.O",
    "officeType": "B.O",
    "Deliverystatus": "Delivery",
    "divisionname": "Bahraich",
    "regionname": "Gorakhpur",
    "circlename": "Uttar Pradesh",
    "Taluk": "Mahasi **",
    "Districtname": "Bahraich",
    "statename": "UTTAR PRADESH"
  },
  {
    "pincode": "271851",
    "officename": "Raipur B.O",
    "officeType": "B.O",
    "Deliverystatus": "Delivery",
    "divisionname": "Bahraich",
    "regionname": "Gorakhpur",
    "circlename": "Uttar Pradesh",
    "Taluk": "Mahasi",
    "Districtname": "Bahraich",
    "statename": "UTTAR PRADESH"
  },
  {
    "pincode": "271851",
    "officename": "Rajapur Kalan B.O",
    "officeType": "B.O",
    "Deliverystatus": "Delivery",
    "divisionname": "Bahraich",
    "regionname": "Gorakhpur",
    "circlename": "Uttar Pradesh",
    "Taluk": "Mahasi",
    "Districtname": "Bahraich",
    "statename": "UTTAR PRADESH"
  },
  {
    "pincode": "271851",
    "officename": "Shankarpur Laxmanpur B.O",
    "officeType": "B.O",
    "Deliverystatus": "Delivery",
    "divisionname": "Bahraich",
    "regionname": "Gorakhpur",
    "circlename": "Uttar Pradesh",
    "Taluk": "Nanpara",
    "Districtname": "Bahraich",
    "statename": "UTTAR PRADESH"
  },
  {
    "pincode": "271851",
    "officename": "Vanshpurwa B.O",
    "officeType": "B.O",
    "Deliverystatus": "Delivery",
    "divisionname": "Bahraich",
    "regionname": "Gorakhpur",
    "circlename": "Uttar Pradesh",
    "Taluk": "Mahasi",
    "Districtname": "Bahraich",
    "statename": "UTTAR PRADESH"
  }
]
