[
  {
    "pincode": "271825",
    "officename": "Barnapur S.O",
    "officeType": "S.O",
    "Deliverystatus": "Delivery",
    "divisionname": "Bahraich",
    "regionname": "Gorakhpur",
    "circlename": "Uttar Pradesh",
    "Taluk": "Mahasi Tahsil",
    "Districtname": "Bahraich",
    "statename": "UTTAR PRADESH"
  },
  {
    "pincode": "271825",
    "officename": "Bhabnoti Shankarpur B.O",
    "officeType": "B.O",
    "Deliverystatus": "Delivery",
    "divisionname": "Bahraich",
    "regionname": "Gorakhpur",
    "circlename": "Uttar Pradesh",
    "Taluk": "Mahasi",
    "Districtname": "Bahraich",
    "statename": "UTTAR PRADESH"
  },
  {
    "pincode": "271825",
    "officename": "Fattepur B.O",
    "officeType": "B.O",
    "Deliverystatus": "Delivery",
    "divisionname": "Bahraich",
    "regionname": "Gorakhpur",
    "circlename": "Uttar Pradesh",
    "Taluk": "Mahasi",
    "Districtname": "Bahraich",
    "statename": "UTTAR PRADESH"
  },
  {
    "pincode": "271825",
    "officename": "Gadamar Kuurd B.O",
    "officeType": "B.O",
    "Deliverystatus": "Delivery",
    "divisionname": "Bahraich",
    "regionname": "Gorakhpur",
    "circlename": "Uttar Pradesh",
    "Taluk": "Mahasi",
    "Districtname": "Bahraich",
    "statename": "UTTAR PRADESH"
  },
  {
    "pincode": "271825",
    "officename": "Gopchandpur B.O",
    "officeType": "B.O",
    "Deliverystatus": "Delivery",
    "divisionname": "Bahraich",
    "regionname": "Gorakhpur",
    "circlename": "Uttar Pradesh",
    "Taluk": "Mahasi",
    "Districtname": "Bahraich",
    "statename": "UTTAR PRADESH"
  },
  {
    "pincode": "271825",
    "officename": "Hardi B.O",
    "officeType": "B.O",
    "Deliverystatus": "Delivery",
    "divisionname": "Bahraich",
    "regionname": "Gorakhpur",
    "circlename": "Uttar Pradesh",
    "Taluk": "Mahasi",
    "Districtname": "Bahraich",
    "statename": "UTTAR PRADESH"
  },
  {
    "pincode": "271825",
    "officename": "Khasha Mohd.Pur B.O",
    "officeType": "B.O",
    "Deliverystatus": "Delivery",
    "divisionname": "Bahraich",
    "regionname": "Gorakhpur",
    "circlename": "Uttar Pradesh",
    "Taluk": "Mahasi **",
    "Districtname": "Bahraich",
    "statename": "UTTAR PRADESH"
  },
  {
    "pincode": "271825",
    "officename": "Lakkha Baundi B.O",
    "officeType": "B.O",
    "Deliverystatus": "Delivery",
    "divisionname": "Bahraich",
    "regionname": "Gorakhpur",
    "circlename": "Uttar Pradesh",
    "Taluk": "Mahasi",
    "Districtname": "Bahraich",
    "statename": "UTTAR PRADESH"
  },
  {
    "pincode": "271825",
    "officename": "Maurauwa Bazar B.O",
    "officeType": "B.O",
    "Deliverystatus": "Delivery",
    "divisionname": "Bahraich",
    "regionname": "Gorakhpur",
    "circlename": "Uttar Pradesh",
    "Taluk": "Mahasi **",
    "Districtname": "Bahraich",
    "statename": "UTTAR PRADESH"
  },
  {
    "pincode": "271825",
    "officename": "Newada B.O",
    "officeType": "B.O",
    "Deliverystatus": "Delivery",
    "divisionname": "Bahraich",
    "regionname": "Gorakhpur",
    "circlename": "Uttar Pradesh",
    "Taluk": "Mahasi",
    "Districtname": "Bahraich",
    "statename": "UTTAR PRADESH"
  },
  {
    "pincode": "271825",
    "officename": "Pipri B.O",
    "officeType": "B.O",
    "Deliverystatus": "Delivery",
    "divisionname": "Bahraich",
    "regionname": "Gorakhpur",
    "circlename": "Uttar Pradesh",
    "Taluk": "Mahasi",
    "Districtname": "Bahraich",
    "statename": "UTTAR PRADESH"
  },
  {
    "pincode": "271825",
    "officename": "Rampurwa B.O",
    "officeType": "B.O",
    "Deliverystatus": "Delivery",
    "divisionname": "Bahraich",
    "regionname": "Gorakhpur",
    "circlename": "Uttar Pradesh",
    "Taluk": "Mahasi **",
    "Districtname": "Bahraich",
    "statename": "UTTAR PRADESH"
  },
  {
    "pincode": "271825",
    "officename": "Sablapur B.O",
    "officeType": "B.O",
    "Deliverystatus": "Delivery",
    "divisionname": "Bahraich",
    "regionname": "Gorakhpur",
    "circlename": "Uttar Pradesh",
    "Taluk": "Mahasi",
    "Districtname": "Bahraich",
    "statename": "UTTAR PRADESH"
  },
  {
    "pincode": "271825",
    "officename": "Sasia Chunamani B.O",
    "officeType": "B.O",
    "Deliverystatus": "Delivery",
    "divisionname": "Bahraich",
    "regionname": "Gorakhpur",
    "circlename": "Uttar Pradesh",
    "Taluk": "Mahasi **",
    "Districtname": "Bahraich",
    "statename": "UTTAR PRADESH"
  },
  {
    "pincode": "271825",
    "officename": "Tandwabasantpur B.O",
    "officeType": "B.O",
    "Deliverystatus": "Delivery",
    "divisionname": "Bahraich",
    "regionname": "Gorakhpur",
    "circlename": "Uttar Pradesh",
    "Taluk": "Mahasi Tahsil",
    "Districtname": "Bahraich",
    "statename": "UTTAR PRADESH"
  }
]
