[
  {
    "pincode": "271840",
    "officename": "Babhni B.O",
    "officeType": "B.O",
    "Deliverystatus": "Delivery",
    "divisionname": "Bahraich",
    "regionname": "Gorakhpur",
    "circlename": "Uttar Pradesh",
    "Taluk": "Bhinga",
    "Districtname": "Shrawasti",
    "statename": "UTTAR PRADESH"
  },
  {
    "pincode": "271840",
    "officename": "Bachkahwa B.O",
    "officeType": "B.O",
    "Deliverystatus": "Delivery",
    "divisionname": "Bahraich",
    "regionname": "Gorakhpur",
    "circlename": "Uttar Pradesh",
    "Taluk": "Bhinga",
    "Districtname": "Shrawasti",
    "statename": "UTTAR PRADESH"
  },
  {
    "pincode": "271840",
    "officename": "Badal Pur B.O",
    "officeType": "B.O",
    "Deliverystatus": "Delivery",
    "divisionname": "Bahraich",
    "regionname": "Gorakhpur",
    "circlename": "Uttar Pradesh",
    "Taluk": "Bhinga",
    "Districtname": "Shrawasti",
    "statename": "UTTAR PRADESH"
  },
  {
    "pincode": "271840",
    "officename": "Beerpur B.O",
    "officeType": "B.O",
    "Deliverystatus": "Delivery",
    "divisionname": "Bahraich",
    "regionname": "Gorakhpur",
    "circlename": "Uttar Pradesh",
    "Taluk": "Bhinga",
    "Districtname": "Shrawasti",
    "statename": "UTTAR PRADESH"
  },
  {
    "pincode": "271840",
    "officename": "Bhartha Rosan Garh B.O",
    "officeType": "B.O",
    "Deliverystatus": "Delivery",
    "divisionname": "Bahraich",
    "regionname": "Gorakhpur",
    "circlename": "Uttar Pradesh",
    "Taluk": "Bhinga",
    "Districtname": "Shrawasti",
    "statename": "UTTAR PRADESH"
  },
  {
    "pincode": "271840",
    "officename": "Bishunapur B.O",
    "officeType": "B.O",
    "Deliverystatus": "Delivery",
    "divisionname": "Bahraich",
    "regionname": "Gorakhpur",
    "circlename": "Uttar Pradesh",
    "Taluk": "Bhinga",
    "Districtname": "Shrawasti",
    "statename": "UTTAR PRADESH"
  },
  {
    "pincode": "271840",
    "officename": "Gabbapur B.O",
    "officeType": "B.O",
    "Deliverystatus": "Delivery",
    "divisionname": "Bahraich",
    "regionname": "Gorakhpur",
    "circlename": "Uttar Pradesh",
    "Taluk": "Bhinga",
    "Districtname": "Shrawasti",
    "statename": "UTTAR PRADESH"
  },
  {
    "pincode": "271840",
    "officename": "Gulara B.O",
    "officeType": "B.O",
    "Deliverystatus": "Delivery",
    "divisionname": "Bahraich",
    "regionname": "Gorakhpur",
    "circlename": "Uttar Pradesh",
    "Taluk": "Bhinga",
    "Districtname": "Shrawasti",
    "statename": "UTTAR PRADESH"
  },
  {
    "pincode": "271840",
    "officename": "Hempur B.O",
    "officeType": "B.O",
    "Deliverystatus": "Delivery",
    "divisionname": "Bahraich",
    "regionname": "Gorakhpur",
    "circlename": "Uttar Pradesh",
    "Taluk": "Bhinga",
    "Districtname": "Shrawasti",
    "statename": "UTTAR PRADESH"
  },
  {
    "pincode": "271840",
    "officename": "Jabdi B.O",
    "officeType": "B.O",
    "Deliverystatus": "Delivery",
    "divisionname": "Bahraich",
    "regionname": "Gorakhpur",
    "circlename": "Uttar Pradesh",
    "Taluk": "Bhinga",
    "Districtname": "Shrawasti",
    "statename": "UTTAR PRADESH"
  },
  {
    "pincode": "271840",
    "officename": "Katkuiya B.O",
    "officeType": "B.O",
    "Deliverystatus": "Delivery",
    "divisionname": "Bahraich",
    "regionname": "Gorakhpur",
    "circlename": "Uttar Pradesh",
    "Taluk": "Bhinga",
    "Districtname": "Shrawasti",
    "statename": "UTTAR PRADESH"
  },
  {
    "pincode": "271840",
    "officename": "Madhwapur B.O",
    "officeType": "B.O",
    "Deliverystatus": "Delivery",
    "divisionname": "Bahraich",
    "regionname": "Gorakhpur",
    "circlename": "Uttar Pradesh",
    "Taluk": "Bhinga",
    "Districtname": "Shrawasti",
    "statename": "UTTAR PRADESH"
  },
  {
    "pincode": "271840",
    "officename": "Medikiya B.O",
    "officeType": "B.O",
    "Deliverystatus": "Delivery",
    "divisionname": "Bahraich",
    "regionname": "Gorakhpur",
    "circlename": "Uttar Pradesh",
    "Taluk": "Bhinga",
    "Districtname": "Shrawasti",
    "statename": "UTTAR PRADESH"
  },
  {
    "pincode": "271840",
    "officename": "Motipur B.O",
    "officeType": "B.O",
    "Deliverystatus": "Delivery",
    "divisionname": "Bahraich",
    "regionname": "Gorakhpur",
    "circlename": "Uttar Pradesh",
    "Taluk": "Bhinga",
    "Districtname": "Shrawasti",
    "statename": "UTTAR PRADESH"
  },
  {
    "pincode": "271840",
    "officename": "Pure Prasad B.O",
    "officeType": "B.O",
    "Deliverystatus": "Delivery",
    "divisionname": "Bahraich",
    "regionname": "Gorakhpur",
    "circlename": "Uttar Pradesh",
    "Taluk": "Bhinga",
    "Districtname": "Shrawasti",
    "statename": "UTTAR PRADESH"
  },
  {
    "pincode": "271840",
    "officename": "Pure Wale B.O",
    "officeType": "B.O",
    "Deliverystatus": "Delivery",
    "divisionname": "Bahraich",
    "regionname": "Gorakhpur",
    "circlename": "Uttar Pradesh",
    "Taluk": "Bhinga",
    "Districtname": "Shrawasti",
    "statename": "UTTAR PRADESH"
  },
  {
    "pincode": "271840",
    "officename": "Ranipur B.O",
    "officeType": "B.O",
    "Deliverystatus": "Delivery",
    "divisionname": "Bahraich",
    "regionname": "Gorakhpur",
    "circlename": "Uttar Pradesh",
    "Taluk": "Bhinga",
    "Districtname": "Shrawasti",
    "statename": "UTTAR PRADESH"
  },
  {
    "pincode": "271840",
    "officename": "Shahpur Bargadwa B.O",
    "officeType": "B.O",
    "Deliverystatus": "Delivery",
    "divisionname": "Bahraich",
    "regionname": "Gorakhpur",
    "circlename": "Uttar Pradesh",
    "Taluk": "Bhinga",
    "Districtname": "Shrawasti",
    "statename": "UTTAR PRADESH"
  },
  {
    "pincode": "271840",
    "officename": "Shankarpur B.O",
    "officeType": "B.O",
    "Deliverystatus": "Delivery",
    "divisionname": "Bahraich",
    "regionname": "Gorakhpur",
    "circlename": "Uttar Pradesh",
    "Taluk": "Bhinga",
    "Districtname": "Shrawasti",
    "statename": "UTTAR PRADESH"
  },
  {
    "pincode": "271840",
    "officename": "Sirsia S.O",
    "officeType": "S.O",
    "Deliverystatus": "Delivery",
    "divisionname": "Bahraich",
    "regionname": "Gorakhpur",
    "circlename": "Uttar Pradesh",
    "Taluk": "Bhinga",
    "Districtname": "Shrawasti",
    "statename": "UTTAR PRADESH"
  },
  {
    "pincode": "271840",
    "officename": "Sonbarsa B.O",
    "officeType": "B.O",
    "Deliverystatus": "Delivery",
    "divisionname": "Bahraich",
    "regionname": "Gorakhpur",
    "circlename": "Uttar Pradesh",
    "Taluk": "Bhinga",
    "Districtname": "Shrawasti",
    "statename": "UTTAR PRADESH"
  },
  {
    "pincode": "271840",
    "officename": "Taal Baghaura B.O",
    "officeType": "B.O",
    "Deliverystatus": "Delivery",
    "divisionname": "Bahraich",
    "regionname": "Gorakhpur",
    "circlename": "Uttar Pradesh",
    "Taluk": "Bhinga",
    "Districtname": "Shrawasti",
    "statename": "UTTAR PRADESH"
  },
  {
    "pincode": "271840",
    "officename": "Titiharia B.O",
    "officeType": "B.O",
    "Deliverystatus": "Delivery",
    "divisionname": "Bahraich",
    "regionname": "Gorakhpur",
    "circlename": "Uttar Pradesh",
    "Taluk": "Bhinga",
    "Districtname": "Shrawasti",
    "statename": "UTTAR PRADESH"
  }
]
