[
  {
    "pincode": "271821",
    "officename": "Bisheswarganj S.O",
    "officeType": "S.O",
    "Deliverystatus": "Delivery",
    "divisionname": "Bahraich",
    "regionname": "Gorakhpur",
    "circlename": "Uttar Pradesh",
    "Taluk": "Payagpur",
    "Districtname": "Shrawasti",
    "statename": "UTTAR PRADESH"
  },
  {
    "pincode": "271821",
    "officename": "Ganga Jamuni B.O",
    "officeType": "B.O",
    "Deliverystatus": "Delivery",
    "divisionname": "Bahraich",
    "regionname": "Gorakhpur",
    "circlename": "Uttar Pradesh",
    "Taluk": "Bahraich",
    "Districtname": "Bahraich",
    "statename": "UTTAR PRADESH"
  },
  {
    "pincode": "271821",
    "officename": "Gangwal B.O",
    "officeType": "B.O",
    "Deliverystatus": "Delivery",
    "divisionname": "Bahraich",
    "regionname": "Gorakhpur",
    "circlename": "Uttar Pradesh",
    "Taluk": "Bahraich",
    "Districtname": "Bahraich",
    "statename": "UTTAR PRADESH"
  },
  {
    "pincode": "271821",
    "officename": "Khanpur Mallah B.O",
    "officeType": "B.O",
    "Deliverystatus": "Delivery",
    "divisionname": "Bahraich",
    "regionname": "Gorakhpur",
    "circlename": "Uttar Pradesh",
    "Taluk": "Bahraich",
    "Districtname": "Bahraich",
    "statename": "UTTAR PRADESH"
  },
  {
    "pincode": "271821",
    "officename": "Khariha B.O",
    "officeType": "B.O",
    "Deliverystatus": "Delivery",
    "divisionname": "Bahraich",
    "regionname": "Gorakhpur",
    "circlename": "Uttar Pradesh",
    "Taluk": "Bahraich",
    "Districtname": "Bahraich",
    "statename": "UTTAR PRADESH"
  },
  {
    "pincode": "271821",
    "officename": "Kursaha B.O",
    "officeType": "B.O",
    "Deliverystatus": "Delivery",
    "divisionname": "Bahraich",
    "regionname": "Gorakhpur",
    "circlename": "Uttar Pradesh",
    "Taluk": "Bahraich",
    "Districtname": "Bahraich",
    "statename": "UTTAR PRADESH"
  },
  {
    "pincode": "271821",
    "officename": "Lakkharampur B.O",
    "officeType": "B.O",
    "Deliverystatus": "Delivery",
    "divisionname": "Bahraich",
    "regionname": "Gorakhpur",
    "circlename": "Uttar Pradesh",
    "Taluk": "Bahraich",
    "Districtname": "Bahraich",
    "statename": "UTTAR PRADESH"
  },
  {
    "pincode": "271821",
    "officename": "Puraina B.O",
    "officeType": "B.O",
    "Deliverystatus": "Delivery",
    "divisionname": "Bahraich",
    "regionname": "Gorakhpur",
    "circlename": "Uttar Pradesh",
    "Taluk": "Bahraich",
    "Districtname": "Bahraich",
    "statename": "UTTAR PRADESH"
  },
  {
    "pincode": "271821",
    "officename": "Raniapur Gobrahi B.O",
    "officeType": "B.O",
    "Deliverystatus": "Delivery",
    "divisionname": "Bahraich",
    "regionname": "Gorakhpur",
    "circlename": "Uttar Pradesh",
    "Taluk": "Bahraich",
    "Districtname": "Bahraich",
    "statename": "UTTAR PRADESH"
  },
  {
    "pincode": "271821",
    "officename": "Shivpur Bairagi B.O",
    "officeType": "B.O",
    "Deliverystatus": "Delivery",
    "divisionname": "Bahraich",
    "regionname": "Gorakhpur",
    "circlename": "Uttar Pradesh",
    "Taluk": "Bahraich",
    "Districtname": "Bahraich",
    "statename": "UTTAR PRADESH"
  },
  {
    "pincode": "271821",
    "officename": "Sohariyawan B.O",
    "officeType": "B.O",
    "Deliverystatus": "Delivery",
    "divisionname": "Bahraich",
    "regionname": "Gorakhpur",
    "circlename": "Uttar Pradesh",
    "Taluk": "Bahraich",
    "Districtname": "Bahraich",
    "statename": "UTTAR PRADESH"
  }
]
