[
  {
    "pincode": "271835",
    "officename": "Chetia Murar B.O",
    "officeType": "B.O",
    "Deliverystatus": "Delivery",
    "divisionname": "Bahraich",
    "regionname": "Gorakhpur",
    "circlename": "Uttar Pradesh",
    "Taluk": "Ikauna",
    "Districtname": "Shrawasti",
    "statename": "UTTAR PRADESH"
  },
  {
    "pincode": "271835",
    "officename": "Dharsawan B.O",
    "officeType": "B.O",
    "Deliverystatus": "Delivery",
    "divisionname": "Bahraich",
    "regionname": "Gorakhpur",
    "circlename": "Uttar Pradesh",
    "Taluk": "Ikauna",
    "Districtname": "Shrawasti",
    "statename": "UTTAR PRADESH"
  },
  {
    "pincode": "271835",
    "officename": "Gilaula S.O",
    "officeType": "S.O",
    "Deliverystatus": "Delivery",
    "divisionname": "Bahraich",
    "regionname": "Gorakhpur",
    "circlename": "Uttar Pradesh",
    "Taluk": "Ikauna",
    "Districtname": "Shrawasti",
    "statename": "UTTAR PRADESH"
  },
  {
    "pincode": "271835",
    "officename": "Jaichandpur B.O",
    "officeType": "B.O",
    "Deliverystatus": "Delivery",
    "divisionname": "Bahraich",
    "regionname": "Gorakhpur",
    "circlename": "Uttar Pradesh",
    "Taluk": "Ikauna",
    "Districtname": "Shrawasti",
    "statename": "UTTAR PRADESH"
  },
  {
    "pincode": "271835",
    "officename": "Katha B.O",
    "officeType": "B.O",
    "Deliverystatus": "Delivery",
    "divisionname": "Bahraich",
    "regionname": "Gorakhpur",
    "circlename": "Uttar Pradesh",
    "Taluk": "Ikauna",
    "Districtname": "Shrawasti",
    "statename": "UTTAR PRADESH"
  },
  {
    "pincode": "271835",
    "officename": "Raideeh B.O",
    "officeType": "B.O",
    "Deliverystatus": "Delivery",
    "divisionname": "Bahraich",
    "regionname": "Gorakhpur",
    "circlename": "Uttar Pradesh",
    "Taluk": "Ikauna",
    "Districtname": "Shrawasti",
    "statename": "UTTAR PRADESH"
  },
  {
    "pincode": "271835",
    "officename": "Rampur Painda B.O",
    "officeType": "B.O",
    "Deliverystatus": "Delivery",
    "divisionname": "Bahraich",
    "regionname": "Gorakhpur",
    "circlename": "Uttar Pradesh",
    "Taluk": "Ikauna",
    "Districtname": "Shrawasti",
    "statename": "UTTAR PRADESH"
  },
  {
    "pincode": "271835",
    "officename": "Semgarha B.O",
    "officeType": "B.O",
    "Deliverystatus": "Delivery",
    "divisionname": "Bahraich",
    "regionname": "Gorakhpur",
    "circlename": "Uttar Pradesh",
    "Taluk": "Ikauna",
    "Districtname": "Shrawasti",
    "statename": "UTTAR PRADESH"
  },
  {
    "pincode": "271835",
    "officename": "Shahpur Bara B.O",
    "officeType": "B.O",
    "Deliverystatus": "Delivery",
    "divisionname": "Bahraich",
    "regionname": "Gorakhpur",
    "circlename": "Uttar Pradesh",
    "Taluk": "Ikauna",
    "Districtname": "Shrawasti",
    "statename": "UTTAR PRADESH"
  },
  {
    "pincode": "271835",
    "officename": "Siswara B.O",
    "officeType": "B.O",
    "Deliverystatus": "Delivery",
    "divisionname": "Bahraich",
    "regionname": "Gorakhpur",
    "circlename": "Uttar Pradesh",
    "Taluk": "Ikauna",
    "Districtname": "Shrawasti",
    "statename": "UTTAR PRADESH"
  },
  {
    "pincode": "271835",
    "officename": "Vijaypur Sisawan B.O",
    "officeType": "B.O",
    "Deliverystatus": "Delivery",
    "divisionname": "Bahraich",
    "regionname": "Gorakhpur",
    "circlename": "Uttar Pradesh",
    "Taluk": "Ikauna",
    "Districtname": "Shrawasti",
    "statename": "UTTAR PRADESH"
  }
]
