[
  {
    "pincode": "271831",
    "officename": "Aggapur B.O",
    "officeType": "B.O",
    "Deliverystatus": "Delivery",
    "divisionname": "Bahraich",
    "regionname": "Gorakhpur",
    "circlename": "Uttar Pradesh",
    "Taluk": "Bhinga",
    "Districtname": "Shrawasti",
    "statename": "UTTAR PRADESH"
  },
  {
    "pincode": "271831",
    "officename": "Akbarapur Semra B.O",
    "officeType": "B.O",
    "Deliverystatus": "Delivery",
    "divisionname": "Bahraich",
    "regionname": "Gorakhpur",
    "circlename": "Uttar Pradesh",
    "Taluk": "Bhinga",
    "Districtname": "Shrawasti",
    "statename": "UTTAR PRADESH"
  },
  {
    "pincode": "271831",
    "officename": "Amwa B.O",
    "officeType": "B.O",
    "Deliverystatus": "Delivery",
    "divisionname": "Bahraich",
    "regionname": "Gorakhpur",
    "circlename": "Uttar Pradesh",
    "Taluk": "Bhinga",
    "Districtname": "Shrawasti",
    "statename": "UTTAR PRADESH"
  },
  {
    "pincode": "271831",
    "officename": "Bairagijot B.O",
    "officeType": "B.O",
    "Deliverystatus": "Delivery",
    "divisionname": "Bahraich",
    "regionname": "Gorakhpur",
    "circlename": "Uttar Pradesh",
    "Taluk": "Bhinga",
    "Districtname": "Shrawasti",
    "statename": "UTTAR PRADESH"
  },
  {
    "pincode": "271831",
    "officename": "Banthihwa B.O",
    "officeType": "B.O",
    "Deliverystatus": "Delivery",
    "divisionname": "Bahraich",
    "regionname": "Gorakhpur",
    "circlename": "Uttar Pradesh",
    "Taluk": "Bhinga",
    "Districtname": "Shrawasti",
    "statename": "UTTAR PRADESH"
  },
  {
    "pincode": "271831",
    "officename": "Bhangha B.O",
    "officeType": "B.O",
    "Deliverystatus": "Delivery",
    "divisionname": "Bahraich",
    "regionname": "Gorakhpur",
    "circlename": "Uttar Pradesh",
    "Taluk": "Bhinga",
    "Districtname": "Shrawasti",
    "statename": "UTTAR PRADESH"
  },
  {
    "pincode": "271831",
    "officename": "Bhinga S.O",
    "officeType": "S.O",
    "Deliverystatus": "Delivery",
    "divisionname": "Bahraich",
    "regionname": "Gorakhpur",
    "circlename": "Uttar Pradesh",
    "Taluk": "Bhinga",
    "Districtname": "Shrawasti",
    "statename": "UTTAR PRADESH"
  },
  {
    "pincode": "271831",
    "officename": "Chahalwa B.O",
    "officeType": "B.O",
    "Deliverystatus": "Delivery",
    "divisionname": "Bahraich",
    "regionname": "Gorakhpur",
    "circlename": "Uttar Pradesh",
    "Taluk": "Bhinga",
    "Districtname": "Shrawasti",
    "statename": "UTTAR PRADESH"
  },
  {
    "pincode": "271831",
    "officename": "Dudhwania B.O",
    "officeType": "B.O",
    "Deliverystatus": "Delivery",
    "divisionname": "Bahraich",
    "regionname": "Gorakhpur",
    "circlename": "Uttar Pradesh",
    "Taluk": "Bhinga",
    "Districtname": "Shrawasti",
    "statename": "UTTAR PRADESH"
  },
  {
    "pincode": "271831",
    "officename": "Ekgharwa B.O",
    "officeType": "B.O",
    "Deliverystatus": "Delivery",
    "divisionname": "Bahraich",
    "regionname": "Gorakhpur",
    "circlename": "Uttar Pradesh",
    "Taluk": "Bhinga",
    "Districtname": "Shrawasti",
    "statename": "UTTAR PRADESH"
  },
  {
    "pincode": "271831",
    "officename": "Gothwa B.O",
    "officeType": "B.O",
    "Deliverystatus": "Delivery",
    "divisionname": "Bahraich",
    "regionname": "Gorakhpur",
    "circlename": "Uttar Pradesh",
    "Taluk": "Bhinga",
    "Districtname": "Shrawasti",
    "statename": "UTTAR PRADESH"
  },
  {
    "pincode": "271831",
    "officename": "Hariharpur Rani B.O",
    "officeType": "B.O",
    "Deliverystatus": "Delivery",
    "divisionname": "Bahraich",
    "regionname": "Gorakhpur",
    "circlename": "Uttar Pradesh",
    "Taluk": "Bhinga",
    "Districtname": "Shrawasti",
    "statename": "UTTAR PRADESH"
  },
  {
    "pincode": "271831",
    "officename": "Janki Nagar B.O",
    "officeType": "B.O",
    "Deliverystatus": "Delivery",
    "divisionname": "Bahraich",
    "regionname": "Gorakhpur",
    "circlename": "Uttar Pradesh",
    "Taluk": "Bhinga",
    "Districtname": "Shrawasti",
    "statename": "UTTAR PRADESH"
  },
  {
    "pincode": "271831",
    "officename": "Jogin Bharia B.O",
    "officeType": "B.O",
    "Deliverystatus": "Delivery",
    "divisionname": "Bahraich",
    "regionname": "Gorakhpur",
    "circlename": "Uttar Pradesh",
    "Taluk": "Bhinga",
    "Districtname": "Shrawasti",
    "statename": "UTTAR PRADESH"
  },
  {
    "pincode": "271831",
    "officename": "Jokhwa Bazar B.O",
    "officeType": "B.O",
    "Deliverystatus": "Delivery",
    "divisionname": "Bahraich",
    "regionname": "Gorakhpur",
    "circlename": "Uttar Pradesh",
    "Taluk": "Bhinga",
    "Districtname": "Shrawasti",
    "statename": "UTTAR PRADESH"
  },
  {
    "pincode": "271831",
    "officename": "Kishun Pur Chand Bhari B.O",
    "officeType": "B.O",
    "Deliverystatus": "Delivery",
    "divisionname": "Bahraich",
    "regionname": "Gorakhpur",
    "circlename": "Uttar Pradesh",
    "Taluk": "Bhinga",
    "Districtname": "Shrawasti",
    "statename": "UTTAR PRADESH"
  },
  {
    "pincode": "271831",
    "officename": "Kotwa B.O",
    "officeType": "B.O",
    "Deliverystatus": "Delivery",
    "divisionname": "Bahraich",
    "regionname": "Gorakhpur",
    "circlename": "Uttar Pradesh",
    "Taluk": "Bhinga",
    "Districtname": "Shrawasti",
    "statename": "UTTAR PRADESH"
  },
  {
    "pincode": "271831",
    "officename": "Laxmanpur Bazar B.O",
    "officeType": "B.O",
    "Deliverystatus": "Delivery",
    "divisionname": "Bahraich",
    "regionname": "Gorakhpur",
    "circlename": "Uttar Pradesh",
    "Taluk": "Bhinga",
    "Districtname": "Shrawasti",
    "statename": "UTTAR PRADESH"
  },
  {
    "pincode": "271831",
    "officename": "Machhrihwa B.O",
    "officeType": "B.O",
    "Deliverystatus": "Delivery",
    "divisionname": "Bahraich",
    "regionname": "Gorakhpur",
    "circlename": "Uttar Pradesh",
    "Taluk": "Bhinga",
    "Districtname": "Shrawasti",
    "statename": "UTTAR PRADESH"
  },
  {
    "pincode": "271831",
    "officename": "Mujehna B.O",
    "officeType": "B.O",
    "Deliverystatus": "Delivery",
    "divisionname": "Bahraich",
    "regionname": "Gorakhpur",
    "circlename": "Uttar Pradesh",
    "Taluk": "Bhinga",
    "Districtname": "Shrawasti",
    "statename": "UTTAR PRADESH"
  },
  {
    "pincode": "271831",
    "officename": "Naubasta B.O",
    "officeType": "B.O",
    "Deliverystatus": "Delivery",
    "divisionname": "Bahraich",
    "regionname": "Gorakhpur",
    "circlename": "Uttar Pradesh",
    "Taluk": "Bhinga",
    "Districtname": "Shrawasti",
    "statename": "UTTAR PRADESH"
  },
  {
    "pincode": "271831",
    "officename": "Parasrampur B.O",
    "officeType": "B.O",
    "Deliverystatus": "Delivery",
    "divisionname": "Bahraich",
    "regionname": "Gorakhpur",
    "circlename": "Uttar Pradesh",
    "Taluk": "Bhinga",
    "Districtname": "Shrawasti",
    "statename": "UTTAR PRADESH"
  },
  {
    "pincode": "271831",
    "officename": "Parsa Deharia B.O",
    "officeType": "B.O",
    "Deliverystatus": "Delivery",
    "divisionname": "Bahraich",
    "regionname": "Gorakhpur",
    "circlename": "Uttar Pradesh",
    "Taluk": "Bhinga",
    "Districtname": "Shrawasti",
    "statename": "UTTAR PRADESH"
  },
  {
    "pincode": "271831",
    "officename": "Patna Khargaura B.O",
    "officeType": "B.O",
    "Deliverystatus": "Delivery",
    "divisionname": "Bahraich",
    "regionname": "Gorakhpur",
    "circlename": "Uttar Pradesh",
    "Taluk": "Bhinga",
    "Districtname": "Shrawasti",
    "statename": "UTTAR PRADESH"
  },
  {
    "pincode": "271831",
    "officename": "Pure Gokul Singh B.O",
    "officeType": "B.O",
    "Deliverystatus": "Delivery",
    "divisionname": "Bahraich",
    "regionname": "Gorakhpur",
    "circlename": "Uttar Pradesh",
    "Taluk": "Bhinga",
    "Districtname": "Shrawasti",
    "statename": "UTTAR PRADESH"
  },
  {
    "pincode": "271831",
    "officename": "Ramgarhi B.O",
    "officeType": "B.O",
    "Deliverystatus": "Delivery",
    "divisionname": "Bahraich",
    "regionname": "Gorakhpur",
    "circlename": "Uttar Pradesh",
    "Taluk": "Bhinga",
    "Districtname": "Shrawasti",
    "statename": "UTTAR PRADESH"
  },
  {
    "pincode": "271831",
    "officename": "Samari Chak Pihani B.O",
    "officeType": "B.O",
    "Deliverystatus": "Delivery",
    "divisionname": "Bahraich",
    "regionname": "Gorakhpur",
    "circlename": "Uttar Pradesh",
    "Taluk": "Bhinga",
    "Districtname": "Shrawasti",
    "statename": "UTTAR PRADESH"
  }
]
