[
  {
    "pincode": "271902",
    "officename": "Babkapur B.O",
    "officeType": "B.O",
    "Deliverystatus": "Delivery",
    "divisionname": "Bahraich",
    "regionname": "Gorakhpur",
    "circlename": "Uttar Pradesh",
    "Taluk": "Kaiserganj",
    "Districtname": "Bahraich",
    "statename": "UTTAR PRADESH"
  },
  {
    "pincode": "271902",
    "officename": "Balchandpur B.O",
    "officeType": "B.O",
    "Deliverystatus": "Delivery",
    "divisionname": "Bahraich",
    "regionname": "Gorakhpur",
    "circlename": "Uttar Pradesh",
    "Taluk": "Kaiserganj",
    "Districtname": "Bahraich",
    "statename": "UTTAR PRADESH"
  },
  {
    "pincode": "271902",
    "officename": "Bamiyari B.O",
    "officeType": "B.O",
    "Deliverystatus": "Delivery",
    "divisionname": "Bahraich",
    "regionname": "Gorakhpur",
    "circlename": "Uttar Pradesh",
    "Taluk": "Kaiserganj",
    "Districtname": "Bahraich",
    "statename": "UTTAR PRADESH"
  },
  {
    "pincode": "271902",
    "officename": "Baundi B.O",
    "officeType": "B.O",
    "Deliverystatus": "Delivery",
    "divisionname": "Bahraich",
    "regionname": "Gorakhpur",
    "circlename": "Uttar Pradesh",
    "Taluk": "",
    "Districtname": "Bahraich",
    "statename": "UTTAR PRADESH"
  },
  {
    "pincode": "271902",
    "officename": "Bhilora Basu B.O",
    "officeType": "B.O",
    "Deliverystatus": "Delivery",
    "divisionname": "Bahraich",
    "regionname": "Gorakhpur",
    "circlename": "Uttar Pradesh",
    "Taluk": "Kaiserganj",
    "Districtname": "Bahraich",
    "statename": "UTTAR PRADESH"
  },
  {
    "pincode": "271902",
    "officename": "Dahaura B.O",
    "officeType": "B.O",
    "Deliverystatus": "Delivery",
    "divisionname": "Bahraich",
    "regionname": "Gorakhpur",
    "circlename": "Uttar Pradesh",
    "Taluk": "Kaiserganj",
    "Districtname": "Bahraich",
    "statename": "UTTAR PRADESH"
  },
  {
    "pincode": "271902",
    "officename": "Fakharpur S.O",
    "officeType": "S.O",
    "Deliverystatus": "Delivery",
    "divisionname": "Bahraich",
    "regionname": "Gorakhpur",
    "circlename": "Uttar Pradesh",
    "Taluk": "Kaiserganj",
    "Districtname": "Bahraich",
    "statename": "UTTAR PRADESH"
  },
  {
    "pincode": "271902",
    "officename": "Gajadharpur B.O",
    "officeType": "B.O",
    "Deliverystatus": "Delivery",
    "divisionname": "Bahraich",
    "regionname": "Gorakhpur",
    "circlename": "Uttar Pradesh",
    "Taluk": "Kaiserganj",
    "Districtname": "Bahraich",
    "statename": "UTTAR PRADESH"
  },
  {
    "pincode": "271902",
    "officename": "Gureharipur B.O",
    "officeType": "B.O",
    "Deliverystatus": "Delivery",
    "divisionname": "Bahraich",
    "regionname": "Gorakhpur",
    "circlename": "Uttar Pradesh",
    "Taluk": "Mahasi **",
    "Districtname": "Bahraich",
    "statename": "UTTAR PRADESH"
  },
  {
    "pincode": "271902",
    "officename": "Jaitapur B.O",
    "officeType": "B.O",
    "Deliverystatus": "Delivery",
    "divisionname": "Bahraich",
    "regionname": "Gorakhpur",
    "circlename": "Uttar Pradesh",
    "Taluk": "Kaiserganj",
    "Districtname": "Bahraich",
    "statename": "UTTAR PRADESH"
  },
  {
    "pincode": "271902",
    "officename": "Kaudha B.O",
    "officeType": "B.O",
    "Deliverystatus": "Delivery",
    "divisionname": "Bahraich",
    "regionname": "Gorakhpur",
    "circlename": "Uttar Pradesh",
    "Taluk": "Kaiserganj",
    "Districtname": "Bahraich",
    "statename": "UTTAR PRADESH"
  },
  {
    "pincode": "271902",
    "officename": "Khairabazar B.O",
    "officeType": "B.O",
    "Deliverystatus": "Delivery",
    "divisionname": "Bahraich",
    "regionname": "Gorakhpur",
    "circlename": "Uttar Pradesh",
    "Taluk": "Nanpara",
    "Districtname": "Bahraich",
    "statename": "UTTAR PRADESH"
  },
  {
    "pincode": "271902",
    "officename": "Khapurwa B.O",
    "officeType": "B.O",
    "Deliverystatus": "Delivery",
    "divisionname": "Bahraich",
    "regionname": "Gorakhpur",
    "circlename": "Uttar Pradesh",
    "Taluk": "Kaiserganj",
    "Districtname": "Bahraich",
    "statename": "UTTAR PRADESH"
  },
  {
    "pincode": "271902",
    "officename": "Kundaspara B.O",
    "officeType": "B.O",
    "Deliverystatus": "Delivery",
    "divisionname": "Bahraich",
    "regionname": "Gorakhpur",
    "circlename": "Uttar Pradesh",
    "Taluk": "Kaiserganj",
    "Districtname": "Bahraich",
    "statename": "UTTAR PRADESH"
  },
  {
    "pincode": "271902",
    "officename": "Madhavpur B.O",
    "officeType": "B.O",
    "Deliverystatus": "Delivery",
    "divisionname": "Bahraich",
    "regionname": "Gorakhpur",
    "circlename": "Uttar Pradesh",
    "Taluk": "Kaiserganj",
    "Districtname": "Bahraich",
    "statename": "UTTAR PRADESH"
  },
  {
    "pincode": "271902",
    "officename": "Maila Saraiya B.O",
    "officeType": "B.O",
    "Deliverystatus": "Delivery",
    "divisionname": "Bahraich",
    "regionname": "Gorakhpur",
    "circlename": "Uttar Pradesh",
    "Taluk": "",
    "Districtname": "Bahraich",
    "statename": "UTTAR PRADESH"
  },
  {
    "pincode": "271902",
    "officename": "Mundki B.O",
    "officeType": "B.O",
    "Deliverystatus": "Delivery",
    "divisionname": "Bahraich",
    "regionname": "Gorakhpur",
    "circlename": "Uttar Pradesh",
    "Taluk": "Kaiserganj",
    "Districtname": "Bahraich",
    "statename": "UTTAR PRADESH"
  },
  {
    "pincode": "271902",
    "officename": "Nandwal B.O",
    "officeType": "B.O",
    "Deliverystatus": "Delivery",
    "divisionname": "Bahraich",
    "regionname": "Gorakhpur",
    "circlename": "Uttar Pradesh",
    "Taluk": "Kaiserganj",
    "Districtname": "Bahraich",
    "statename": "UTTAR PRADESH"
  },
  {
    "pincode": "271902",
    "officename": "Raipura B.O",
    "officeType": "B.O",
    "Deliverystatus": "Delivery",
    "divisionname": "Bahraich",
    "regionname": "Gorakhpur",
    "circlename": "Uttar Pradesh",
    "Taluk": "Kaiserganj",
    "Districtname": "Bahraich",
    "statename": "UTTAR PRADESH"
  },
  {
    "pincode": "271902",
    "officename": "Ramgarhi B.O",
    "officeType": "B.O",
    "Deliverystatus": "Delivery",
    "divisionname": "Bahraich",
    "regionname": "Gorakhpur",
    "circlename": "Uttar Pradesh",
    "Taluk": "Kaiserganj",
    "Districtname": "Bahraich",
    "statename": "UTTAR PRADESH"
  },
  {
    "pincode": "271902",
    "officename": "Sarai Jagna B.O",
    "officeType": "B.O",
    "Deliverystatus": "Delivery",
    "divisionname": "Bahraich",
    "regionname": "Gorakhpur",
    "circlename": "Uttar Pradesh",
    "Taluk": "Kaiserganj",
    "Districtname": "Bahraich",
    "statename": "UTTAR PRADESH"
  },
  {
    "pincode": "271902",
    "officename": "Shukulpurwa B.O",
    "officeType": "B.O",
    "Deliverystatus": "Delivery",
    "divisionname": "Bahraich",
    "regionname": "Gorakhpur",
    "circlename": "Uttar Pradesh",
    "Taluk": "Kaiserganj",
    "Districtname": "Bahraich",
    "statename": "UTTAR PRADESH"
  },
  {
    "pincode": "271902",
    "officename": "Tendwa Mahant B.O",
    "officeType": "B.O",
    "Deliverystatus": "Delivery",
    "divisionname": "Bahraich",
    "regionname": "Gorakhpur",
    "circlename": "Uttar Pradesh",
    "Taluk": "Kaiserganj",
    "Districtname": "Bahraich",
    "statename": "UTTAR PRADESH"
  }
]
