[
  {
    "pincode": "271904",
    "officename": "Arai Umari B.O",
    "officeType": "B.O",
    "Deliverystatus": "Delivery",
    "divisionname": "Bahraich",
    "regionname": "Gorakhpur",
    "circlename": "Uttar Pradesh",
    "Taluk": "",
    "Districtname": "Bahraich",
    "statename": "UTTAR PRADESH"
  },
  {
    "pincode": "271904",
    "officename": "Badholi B.O",
    "officeType": "B.O",
    "Deliverystatus": "Delivery",
    "divisionname": "Bahraich",
    "regionname": "Gorakhpur",
    "circlename": "Uttar Pradesh",
    "Taluk": "Kaiserganj",
    "Districtname": "Bahraich",
    "statename": "UTTAR PRADESH"
  },
  {
    "pincode": "271904",
    "officename": "Harchanda B.O",
    "officeType": "B.O",
    "Deliverystatus": "Delivery",
    "divisionname": "Bahraich",
    "regionname": "Gorakhpur",
    "circlename": "Uttar Pradesh",
    "Taluk": "Kaiserganj",
    "Districtname": "Bahraich",
    "statename": "UTTAR PRADESH"
  },
  {
    "pincode": "271904",
    "officename": "Jarwal S.O",
    "officeType": "S.O",
    "Deliverystatus": "Delivery",
    "divisionname": "Bahraich",
    "regionname": "Gorakhpur",
    "circlename": "Uttar Pradesh",
    "Taluk": "Kaiserganj",
    "Districtname": "Bahraich",
    "statename": "UTTAR PRADESH"
  },
  {
    "pincode": "271904",
    "officename": "Kandila Khas B.O",
    "officeType": "B.O",
    "Deliverystatus": "Delivery",
    "divisionname": "Bahraich",
    "regionname": "Gorakhpur",
    "circlename": "Uttar Pradesh",
    "Taluk": "Kaiserganj",
    "Districtname": "Bahraich",
    "statename": "UTTAR PRADESH"
  },
  {
    "pincode": "271904",
    "officename": "Mahuri Kala B.O",
    "officeType": "B.O",
    "Deliverystatus": "Delivery",
    "divisionname": "Bahraich",
    "regionname": "Gorakhpur",
    "circlename": "Uttar Pradesh",
    "Taluk": "Kaiserganj",
    "Districtname": "Bahraich",
    "statename": "UTTAR PRADESH"
  },
  {
    "pincode": "271904",
    "officename": "Mustafabad B.O",
    "officeType": "B.O",
    "Deliverystatus": "Delivery",
    "divisionname": "Bahraich",
    "regionname": "Gorakhpur",
    "circlename": "Uttar Pradesh",
    "Taluk": "Kaiserganj",
    "Districtname": "Bahraich",
    "statename": "UTTAR PRADESH"
  },
  {
    "pincode": "271904",
    "officename": "Rani Ganj B.O",
    "officeType": "B.O",
    "Deliverystatus": "Delivery",
    "divisionname": "Bahraich",
    "regionname": "Gorakhpur",
    "circlename": "Uttar Pradesh",
    "Taluk": "Kaiserganj",
    "Districtname": "Bahraich",
    "statename": "UTTAR PRADESH"
  }
]
