[
  {
    "pincode": "272130",
    "officename": "Bhainsaha B.O",
    "officeType": "B.O",
    "Deliverystatus": "Delivery",
    "divisionname": "Basti",
    "regionname": "Gorakhpur",
    "circlename": "Uttar Pradesh",
    "Taluk": "Harraiya",
    "Districtname": "Basti",
    "statename": "UTTAR PRADESH"
  },
  {
    "pincode": "272130",
    "officename": "Deferi B.O",
    "officeType": "B.O",
    "Deliverystatus": "Delivery",
    "divisionname": "Basti",
    "regionname": "Gorakhpur",
    "circlename": "Uttar Pradesh",
    "Taluk": "Harraiya",
    "Districtname": "Basti",
    "statename": "UTTAR PRADESH"
  },
  {
    "pincode": "272130",
    "officename": "Gopinathpur B.O",
    "officeType": "B.O",
    "Deliverystatus": "Delivery",
    "divisionname": "Basti",
    "regionname": "Gorakhpur",
    "circlename": "Uttar Pradesh",
    "Taluk": "Harraiya",
    "Districtname": "Basti",
    "statename": "UTTAR PRADESH"
  },
  {
    "pincode": "272130",
    "officename": "Harish Nagar B.O",
    "officeType": "B.O",
    "Deliverystatus": "Delivery",
    "divisionname": "Basti",
    "regionname": "Gorakhpur",
    "circlename": "Uttar Pradesh",
    "Taluk": "Harraiya",
    "Districtname": "Basti",
    "statename": "UTTAR PRADESH"
  },
  {
    "pincode": "272130",
    "officename": "Jagdishpur B.O",
    "officeType": "B.O",
    "Deliverystatus": "Delivery",
    "divisionname": "Basti",
    "regionname": "Gorakhpur",
    "circlename": "Uttar Pradesh",
    "Taluk": "Harraiya",
    "Districtname": "Basti",
    "statename": "UTTAR PRADESH"
  },
  {
    "pincode": "272130",
    "officename": "Kharawan Kunwsar B.O",
    "officeType": "B.O",
    "Deliverystatus": "Delivery",
    "divisionname": "Basti",
    "regionname": "Gorakhpur",
    "circlename": "Uttar Pradesh",
    "Taluk": "Harraiya",
    "Districtname": "Basti",
    "statename": "UTTAR PRADESH"
  },
  {
    "pincode": "272130",
    "officename": "Lalpur B.O",
    "officeType": "B.O",
    "Deliverystatus": "Delivery",
    "divisionname": "Basti",
    "regionname": "Gorakhpur",
    "circlename": "Uttar Pradesh",
    "Taluk": "Harraiya",
    "Districtname": "Basti",
    "statename": "UTTAR PRADESH"
  },
  {
    "pincode": "272130",
    "officename": "Nedula B.O",
    "officeType": "B.O",
    "Deliverystatus": "Delivery",
    "divisionname": "Basti",
    "regionname": "Gorakhpur",
    "circlename": "Uttar Pradesh",
    "Taluk": "Harraiya",
    "Districtname": "Basti",
    "statename": "UTTAR PRADESH"
  },
  {
    "pincode": "272130",
    "officename": "Parasrampur S.O",
    "officeType": "S.O",
    "Deliverystatus": "Delivery",
    "divisionname": "Basti",
    "regionname": "Gorakhpur",
    "circlename": "Uttar Pradesh",
    "Taluk": "Harraiya",
    "Districtname": "Basti",
    "statename": "UTTAR PRADESH"
  },
  {
    "pincode": "272130",
    "officename": "Raghunathpur B.O",
    "officeType": "B.O",
    "Deliverystatus": "Delivery",
    "divisionname": "Basti",
    "regionname": "Gorakhpur",
    "circlename": "Uttar Pradesh",
    "Taluk": "Harraiya",
    "Districtname": "Basti",
    "statename": "UTTAR PRADESH"
  },
  {
    "pincode": "272130",
    "officename": "Salempur B.O",
    "officeType": "B.O",
    "Deliverystatus": "Delivery",
    "divisionname": "Basti",
    "regionname": "Gorakhpur",
    "circlename": "Uttar Pradesh",
    "Taluk": "Harraiya",
    "Districtname": "Basti",
    "statename": "UTTAR PRADESH"
  },
  {
    "pincode": "272130",
    "officename": "Sringinari B.O",
    "officeType": "B.O",
    "Deliverystatus": "Delivery",
    "divisionname": "Basti",
    "regionname": "Gorakhpur",
    "circlename": "Uttar Pradesh",
    "Taluk": "Harraiya",
    "Districtname": "Basti",
    "statename": "UTTAR PRADESH"
  }
]
