[
  {
    "pincode": "272192",
    "officename": "Bairwa B.O",
    "officeType": "B.O",
    "Deliverystatus": "Delivery",
    "divisionname": "Basti",
    "regionname": "Gorakhpur",
    "circlename": "Uttar Pradesh",
    "Taluk": "Itwa",
    "Districtname": "Siddharthnagar",
    "statename": "UTTAR PRADESH"
  },
  {
    "pincode": "272192",
    "officename": "Bajrabhari B.O",
    "officeType": "B.O",
    "Deliverystatus": "Delivery",
    "divisionname": "Basti",
    "regionname": "Gorakhpur",
    "circlename": "Uttar Pradesh",
    "Taluk": "Itwa",
    "Districtname": "Siddharthnagar",
    "statename": "UTTAR PRADESH"
  },
  {
    "pincode": "272192",
    "officename": "Bhadokhar B.O",
    "officeType": "B.O",
    "Deliverystatus": "Delivery",
    "divisionname": "Basti",
    "regionname": "Gorakhpur",
    "circlename": "Uttar Pradesh",
    "Taluk": "Itwa",
    "Districtname": "Siddharthnagar",
    "statename": "UTTAR PRADESH"
  },
  {
    "pincode": "272192",
    "officename": "Bhojwar B.O",
    "officeType": "B.O",
    "Deliverystatus": "Delivery",
    "divisionname": "Basti",
    "regionname": "Gorakhpur",
    "circlename": "Uttar Pradesh",
    "Taluk": "Itwa",
    "Districtname": "Siddharthnagar",
    "statename": "UTTAR PRADESH"
  },
  {
    "pincode": "272192",
    "officename": "Biskohar B.O",
    "officeType": "B.O",
    "Deliverystatus": "Delivery",
    "divisionname": "Basti",
    "regionname": "Gorakhpur",
    "circlename": "Uttar Pradesh",
    "Taluk": "Itwa",
    "Districtname": "Siddharthnagar",
    "statename": "UTTAR PRADESH"
  },
  {
    "pincode": "272192",
    "officename": "Dhangarwa B.O",
    "officeType": "B.O",
    "Deliverystatus": "Delivery",
    "divisionname": "Basti",
    "regionname": "Gorakhpur",
    "circlename": "Uttar Pradesh",
    "Taluk": "Itwa",
    "Districtname": "Siddharthnagar",
    "statename": "UTTAR PRADESH"
  },
  {
    "pincode": "272192",
    "officename": "Dhobha B.O",
    "officeType": "B.O",
    "Deliverystatus": "Delivery",
    "divisionname": "Basti",
    "regionname": "Gorakhpur",
    "circlename": "Uttar Pradesh",
    "Taluk": "Itwa",
    "Districtname": "Siddharthnagar",
    "statename": "UTTAR PRADESH"
  },
  {
    "pincode": "272192",
    "officename": "Gagapur B.O",
    "officeType": "B.O",
    "Deliverystatus": "Delivery",
    "divisionname": "Basti",
    "regionname": "Gorakhpur",
    "circlename": "Uttar Pradesh",
    "Taluk": "Itwa",
    "Districtname": "Siddharthnagar",
    "statename": "UTTAR PRADESH"
  },
  {
    "pincode": "272192",
    "officename": "Govindpur B.O",
    "officeType": "B.O",
    "Deliverystatus": "Delivery",
    "divisionname": "Basti",
    "regionname": "Gorakhpur",
    "circlename": "Uttar Pradesh",
    "Taluk": "Itwa",
    "Districtname": "Siddharthnagar",
    "statename": "UTTAR PRADESH"
  },
  {
    "pincode": "272192",
    "officename": "Itwa S.O",
    "officeType": "S.O",
    "Deliverystatus": "Delivery",
    "divisionname": "Basti",
    "regionname": "Gorakhpur",
    "circlename": "Uttar Pradesh",
    "Taluk": "Itwa",
    "Districtname": "Siddharthnagar",
    "statename": "UTTAR PRADESH"
  },
  {
    "pincode": "272192",
    "officename": "Jigina Thakur B.O",
    "officeType": "B.O",
    "Deliverystatus": "Delivery",
    "divisionname": "Basti",
    "regionname": "Gorakhpur",
    "circlename": "Uttar Pradesh",
    "Taluk": "Itwa",
    "Districtname": "Siddharthnagar",
    "statename": "UTTAR PRADESH"
  },
  {
    "pincode": "272192",
    "officename": "Karahiagosain B.O",
    "officeType": "B.O",
    "Deliverystatus": "Delivery",
    "divisionname": "Basti",
    "regionname": "Gorakhpur",
    "circlename": "Uttar Pradesh",
    "Taluk": "Itwa",
    "Districtname": "Siddharthnagar",
    "statename": "UTTAR PRADESH"
  },
  {
    "pincode": "272192",
    "officename": "Kathela B.O",
    "officeType": "B.O",
    "Deliverystatus": "Delivery",
    "divisionname": "Basti",
    "regionname": "Gorakhpur",
    "circlename": "Uttar Pradesh",
    "Taluk": "Itwa",
    "Districtname": "Siddharthnagar",
    "statename": "UTTAR PRADESH"
  },
  {
    "pincode": "272192",
    "officename": "Khadsari B.O",
    "officeType": "B.O",
    "Deliverystatus": "Delivery",
    "divisionname": "Basti",
    "regionname": "Gorakhpur",
    "circlename": "Uttar Pradesh",
    "Taluk": "Itwa",
    "Districtname": "Siddharthnagar",
    "statename": "UTTAR PRADESH"
  },
  {
    "pincode": "272192",
    "officename": "Khuniyawan B.O",
    "officeType": "B.O",
    "Deliverystatus": "Delivery",
    "divisionname": "Basti",
    "regionname": "Gorakhpur",
    "circlename": "Uttar Pradesh",
    "Taluk": "Itwa",
    "Districtname": "Siddharthnagar",
    "statename": "UTTAR PRADESH"
  },
  {
    "pincode": "272192",
    "officename": "Mahadeoghurhoo B.O",
    "officeType": "B.O",
    "Deliverystatus": "Delivery",
    "divisionname": "Basti",
    "regionname": "Gorakhpur",
    "circlename": "Uttar Pradesh",
    "Taluk": "Itwa",
    "Districtname": "Siddharthnagar",
    "statename": "UTTAR PRADESH"
  },
  {
    "pincode": "272192",
    "officename": "Maina B.O",
    "officeType": "B.O",
    "Deliverystatus": "Delivery",
    "divisionname": "Basti",
    "regionname": "Gorakhpur",
    "circlename": "Uttar Pradesh",
    "Taluk": "Itwa",
    "Districtname": "Siddharthnagar",
    "statename": "UTTAR PRADESH"
  },
  {
    "pincode": "272192",
    "officename": "Mudila Nankar B.O",
    "officeType": "B.O",
    "Deliverystatus": "Delivery",
    "divisionname": "Basti",
    "regionname": "Gorakhpur",
    "circlename": "Uttar Pradesh",
    "Taluk": "Itwa",
    "Districtname": "Siddharthnagar",
    "statename": "UTTAR PRADESH"
  },
  {
    "pincode": "272192",
    "officename": "Patila B.O",
    "officeType": "B.O",
    "Deliverystatus": "Delivery",
    "divisionname": "Basti",
    "regionname": "Gorakhpur",
    "circlename": "Uttar Pradesh",
    "Taluk": "Itwa",
    "Districtname": "Siddharthnagar",
    "statename": "UTTAR PRADESH"
  },
  {
    "pincode": "272192",
    "officename": "Rehra Kalan B.O",
    "officeType": "B.O",
    "Deliverystatus": "Delivery",
    "divisionname": "Basti",
    "regionname": "Gorakhpur",
    "circlename": "Uttar Pradesh",
    "Taluk": "Itwa",
    "Districtname": "Siddharthnagar",
    "statename": "UTTAR PRADESH"
  },
  {
    "pincode": "272192",
    "officename": "Semari Khan Kot B.O",
    "officeType": "B.O",
    "Deliverystatus": "Delivery",
    "divisionname": "Basti",
    "regionname": "Gorakhpur",
    "circlename": "Uttar Pradesh",
    "Taluk": "Itwa",
    "Districtname": "Siddharthnagar",
    "statename": "UTTAR PRADESH"
  },
  {
    "pincode": "272192",
    "officename": "Tenuwagrant B.O",
    "officeType": "B.O",
    "Deliverystatus": "Delivery",
    "divisionname": "Basti",
    "regionname": "Gorakhpur",
    "circlename": "Uttar Pradesh",
    "Taluk": "Itwa",
    "Districtname": "Siddharthnagar",
    "statename": "UTTAR PRADESH"
  },
  {
    "pincode": "272192",
    "officename": "Trilokpur B.O",
    "officeType": "B.O",
    "Deliverystatus": "Delivery",
    "divisionname": "Basti",
    "regionname": "Gorakhpur",
    "circlename": "Uttar Pradesh",
    "Taluk": "Itwa",
    "Districtname": "Siddharthnagar",
    "statename": "UTTAR PRADESH"
  }
]
