[
  {
    "pincode": "272189",
    "officename": "Beerpur B.O",
    "officeType": "B.O",
    "Deliverystatus": "Delivery",
    "divisionname": "Basti",
    "regionname": "Gorakhpur",
    "circlename": "Uttar Pradesh",
    "Taluk": "Domariaganj",
    "Districtname": "Siddharthnagar",
    "statename": "UTTAR PRADESH"
  },
  {
    "pincode": "272189",
    "officename": "Bhandariamanik Ganj B.O",
    "officeType": "B.O",
    "Deliverystatus": "Delivery",
    "divisionname": "Basti",
    "regionname": "Gorakhpur",
    "circlename": "Uttar Pradesh",
    "Taluk": "Domariaganj",
    "Districtname": "Siddharthnagar",
    "statename": "UTTAR PRADESH"
  },
  {
    "pincode": "272189",
    "officename": "Bharwatia Bzr B.O",
    "officeType": "B.O",
    "Deliverystatus": "Delivery",
    "divisionname": "Basti",
    "regionname": "Gorakhpur",
    "circlename": "Uttar Pradesh",
    "Taluk": "Domariaganj",
    "Districtname": "Siddharthnagar",
    "statename": "UTTAR PRADESH"
  },
  {
    "pincode": "272189",
    "officename": "Bijwar Barhai B.O",
    "officeType": "B.O",
    "Deliverystatus": "Delivery",
    "divisionname": "Basti",
    "regionname": "Gorakhpur",
    "circlename": "Uttar Pradesh",
    "Taluk": "Domariaganj",
    "Districtname": "Siddharthnagar",
    "statename": "UTTAR PRADESH"
  },
  {
    "pincode": "272189",
    "officename": "Bitharia B.O",
    "officeType": "B.O",
    "Deliverystatus": "Delivery",
    "divisionname": "Basti",
    "regionname": "Gorakhpur",
    "circlename": "Uttar Pradesh",
    "Taluk": "Domariaganj",
    "Districtname": "Siddharthnagar",
    "statename": "UTTAR PRADESH"
  },
  {
    "pincode": "272189",
    "officename": "Chafa B.O",
    "officeType": "B.O",
    "Deliverystatus": "Delivery",
    "divisionname": "Basti",
    "regionname": "Gorakhpur",
    "circlename": "Uttar Pradesh",
    "Taluk": "Domariaganj",
    "Districtname": "Siddharthnagar",
    "statename": "UTTAR PRADESH"
  },
  {
    "pincode": "272189",
    "officename": "Dhaurahara B.O",
    "officeType": "B.O",
    "Deliverystatus": "Delivery",
    "divisionname": "Basti",
    "regionname": "Gorakhpur",
    "circlename": "Uttar Pradesh",
    "Taluk": "Domariaganj",
    "Districtname": "Siddharthnagar",
    "statename": "UTTAR PRADESH"
  },
  {
    "pincode": "272189",
    "officename": "Dhobha B.O",
    "officeType": "B.O",
    "Deliverystatus": "Delivery",
    "divisionname": "Basti",
    "regionname": "Gorakhpur",
    "circlename": "Uttar Pradesh",
    "Taluk": "Domariaganj",
    "Districtname": "Siddharthnagar",
    "statename": "UTTAR PRADESH"
  },
  {
    "pincode": "272189",
    "officename": "Domariaganj S.O",
    "officeType": "S.O",
    "Deliverystatus": "Delivery",
    "divisionname": "Basti",
    "regionname": "Gorakhpur",
    "circlename": "Uttar Pradesh",
    "Taluk": "Domariaganj",
    "Districtname": "Siddharthnagar",
    "statename": "UTTAR PRADESH"
  },
  {
    "pincode": "272189",
    "officename": "Fatehpur B.O",
    "officeType": "B.O",
    "Deliverystatus": "Delivery",
    "divisionname": "Basti",
    "regionname": "Gorakhpur",
    "circlename": "Uttar Pradesh",
    "Taluk": "Domariaganj",
    "Districtname": "Siddharthnagar",
    "statename": "UTTAR PRADESH"
  },
  {
    "pincode": "272189",
    "officename": "Gaura Bazar B.O",
    "officeType": "B.O",
    "Deliverystatus": "Delivery",
    "divisionname": "Basti",
    "regionname": "Gorakhpur",
    "circlename": "Uttar Pradesh",
    "Taluk": "Domariaganj",
    "Districtname": "Siddharthnagar",
    "statename": "UTTAR PRADESH"
  },
  {
    "pincode": "272189",
    "officename": "Jhahraon B.O",
    "officeType": "B.O",
    "Deliverystatus": "Delivery",
    "divisionname": "Basti",
    "regionname": "Gorakhpur",
    "circlename": "Uttar Pradesh",
    "Taluk": "Domariaganj",
    "Districtname": "Siddharthnagar",
    "statename": "UTTAR PRADESH"
  },
  {
    "pincode": "272189",
    "officename": "Kusumhi B.O",
    "officeType": "B.O",
    "Deliverystatus": "Delivery",
    "divisionname": "Basti",
    "regionname": "Gorakhpur",
    "circlename": "Uttar Pradesh",
    "Taluk": "Domariaganj",
    "Districtname": "Siddharthnagar",
    "statename": "UTTAR PRADESH"
  },
  {
    "pincode": "272189",
    "officename": "Malimainha B.O",
    "officeType": "B.O",
    "Deliverystatus": "Delivery",
    "divisionname": "Basti",
    "regionname": "Gorakhpur",
    "circlename": "Uttar Pradesh",
    "Taluk": "Domariaganj",
    "Districtname": "Siddharthnagar",
    "statename": "UTTAR PRADESH"
  },
  {
    "pincode": "272189",
    "officename": "Penda B.O",
    "officeType": "B.O",
    "Deliverystatus": "Delivery",
    "divisionname": "Basti",
    "regionname": "Gorakhpur",
    "circlename": "Uttar Pradesh",
    "Taluk": "Domariaganj",
    "Districtname": "Siddharthnagar",
    "statename": "UTTAR PRADESH"
  },
  {
    "pincode": "272189",
    "officename": "Quadirabad B.O",
    "officeType": "B.O",
    "Deliverystatus": "Delivery",
    "divisionname": "Basti",
    "regionname": "Gorakhpur",
    "circlename": "Uttar Pradesh",
    "Taluk": "Domariaganj",
    "Districtname": "Siddharthnagar",
    "statename": "UTTAR PRADESH"
  },
  {
    "pincode": "272189",
    "officename": "Rasoolpur B.O",
    "officeType": "B.O",
    "Deliverystatus": "Delivery",
    "divisionname": "Basti",
    "regionname": "Gorakhpur",
    "circlename": "Uttar Pradesh",
    "Taluk": "Domariaganj",
    "Districtname": "Siddharthnagar",
    "statename": "UTTAR PRADESH"
  },
  {
    "pincode": "272189",
    "officename": "Sehari Khas B.O",
    "officeType": "B.O",
    "Deliverystatus": "Delivery",
    "divisionname": "Basti",
    "regionname": "Gorakhpur",
    "circlename": "Uttar Pradesh",
    "Taluk": "Domariaganj",
    "Districtname": "Siddharthnagar",
    "statename": "UTTAR PRADESH"
  },
  {
    "pincode": "272189",
    "officename": "Shahpur B.O",
    "officeType": "B.O",
    "Deliverystatus": "Delivery",
    "divisionname": "Basti",
    "regionname": "Gorakhpur",
    "circlename": "Uttar Pradesh",
    "Taluk": "Domariaganj",
    "Districtname": "Siddharthnagar",
    "statename": "UTTAR PRADESH"
  },
  {
    "pincode": "272189",
    "officename": "Turkaulia B.O",
    "officeType": "B.O",
    "Deliverystatus": "Delivery",
    "divisionname": "Basti",
    "regionname": "Gorakhpur",
    "circlename": "Uttar Pradesh",
    "Taluk": "Domariaganj",
    "Districtname": "Siddharthnagar",
    "statename": "UTTAR PRADESH"
  }
]
