[
  {
    "pincode": "272170",
    "officename": "Ahra B.O",
    "officeType": "B.O",
    "Deliverystatus": "Delivery",
    "divisionname": "Basti",
    "regionname": "Gorakhpur",
    "circlename": "Uttar Pradesh",
    "Taluk": "",
    "Districtname": "Sant Kabir Nagar",
    "statename": "UTTAR PRADESH"
  },
  {
    "pincode": "272170",
    "officename": "Baghari B.O",
    "officeType": "B.O",
    "Deliverystatus": "Delivery",
    "divisionname": "Basti",
    "regionname": "Gorakhpur",
    "circlename": "Uttar Pradesh",
    "Taluk": "Basti",
    "Districtname": "Basti",
    "statename": "UTTAR PRADESH"
  },
  {
    "pincode": "272170",
    "officename": "Bansgoan B.O",
    "officeType": "B.O",
    "Deliverystatus": "Delivery",
    "divisionname": "Basti",
    "regionname": "Gorakhpur",
    "circlename": "Uttar Pradesh",
    "Taluk": "Basti",
    "Districtname": "Basti",
    "statename": "UTTAR PRADESH"
  },
  {
    "pincode": "272170",
    "officename": "Bhuwandand B.O",
    "officeType": "B.O",
    "Deliverystatus": "Delivery",
    "divisionname": "Basti",
    "regionname": "Gorakhpur",
    "circlename": "Uttar Pradesh",
    "Taluk": "Khalilabad",
    "Districtname": "Sant Kabir Nagar",
    "statename": "UTTAR PRADESH"
  },
  {
    "pincode": "272170",
    "officename": "Bodwal B.O",
    "officeType": "B.O",
    "Deliverystatus": "Delivery",
    "divisionname": "Basti",
    "regionname": "Gorakhpur",
    "circlename": "Uttar Pradesh",
    "Taluk": "Basti",
    "Districtname": "Basti",
    "statename": "UTTAR PRADESH"
  },
  {
    "pincode": "272170",
    "officename": "Budhakala B.O",
    "officeType": "B.O",
    "Deliverystatus": "Delivery",
    "divisionname": "Basti",
    "regionname": "Gorakhpur",
    "circlename": "Uttar Pradesh",
    "Taluk": "Khalilabad",
    "Districtname": "Sant Kabir Nagar",
    "statename": "UTTAR PRADESH"
  },
  {
    "pincode": "272170",
    "officename": "Chaikala B.O",
    "officeType": "B.O",
    "Deliverystatus": "Delivery",
    "divisionname": "Basti",
    "regionname": "Gorakhpur",
    "circlename": "Uttar Pradesh",
    "Taluk": "Khalilabad",
    "Districtname": "Sant Kabir Nagar",
    "statename": "UTTAR PRADESH"
  },
  {
    "pincode": "272170",
    "officename": "Changera Mangera B.O",
    "officeType": "B.O",
    "Deliverystatus": "Delivery",
    "divisionname": "Basti",
    "regionname": "Gorakhpur",
    "circlename": "Uttar Pradesh",
    "Taluk": "Khalilabad",
    "Districtname": "Sant Kabir Nagar",
    "statename": "UTTAR PRADESH"
  },
  {
    "pincode": "272170",
    "officename": "Daridiha B.O",
    "officeType": "B.O",
    "Deliverystatus": "Delivery",
    "divisionname": "Basti",
    "regionname": "Gorakhpur",
    "circlename": "Uttar Pradesh",
    "Taluk": "Khalilabad",
    "Districtname": "Sant Kabir Nagar",
    "statename": "UTTAR PRADESH"
  },
  {
    "pincode": "272170",
    "officename": "Ekdangi B.O",
    "officeType": "B.O",
    "Deliverystatus": "Delivery",
    "divisionname": "Basti",
    "regionname": "Gorakhpur",
    "circlename": "Uttar Pradesh",
    "Taluk": "Basti Sadar",
    "Districtname": "Basti",
    "statename": "UTTAR PRADESH"
  },
  {
    "pincode": "272170",
    "officename": "Gulariha Sirma B.O",
    "officeType": "B.O",
    "Deliverystatus": "Delivery",
    "divisionname": "Basti",
    "regionname": "Gorakhpur",
    "circlename": "Uttar Pradesh",
    "Taluk": "Basti Sadar",
    "Districtname": "Basti",
    "statename": "UTTAR PRADESH"
  },
  {
    "pincode": "272170",
    "officename": "Karah Pithia B.O",
    "officeType": "B.O",
    "Deliverystatus": "Delivery",
    "divisionname": "Basti",
    "regionname": "Gorakhpur",
    "circlename": "Uttar Pradesh",
    "Taluk": "Basti Sadar",
    "Districtname": "Basti",
    "statename": "UTTAR PRADESH"
  },
  {
    "pincode": "272170",
    "officename": "Kuriyar B.O",
    "officeType": "B.O",
    "Deliverystatus": "Delivery",
    "divisionname": "Basti",
    "regionname": "Gorakhpur",
    "circlename": "Uttar Pradesh",
    "Taluk": "Basti Sadar",
    "Districtname": "Basti",
    "statename": "UTTAR PRADESH"
  },
  {
    "pincode": "272170",
    "officename": "Kurthia B.O",
    "officeType": "B.O",
    "Deliverystatus": "Delivery",
    "divisionname": "Basti",
    "regionname": "Gorakhpur",
    "circlename": "Uttar Pradesh",
    "Taluk": "Khalilabad",
    "Districtname": "Sant Kabir Nagar",
    "statename": "UTTAR PRADESH"
  },
  {
    "pincode": "272170",
    "officename": "Munderwa S.O",
    "officeType": "S.O",
    "Deliverystatus": "Delivery",
    "divisionname": "Basti",
    "regionname": "Gorakhpur",
    "circlename": "Uttar Pradesh",
    "Taluk": "Basti Sadar",
    "Districtname": "Basti",
    "statename": "UTTAR PRADESH"
  },
  {
    "pincode": "272170",
    "officename": "Padari B.O",
    "officeType": "B.O",
    "Deliverystatus": "Delivery",
    "divisionname": "Basti",
    "regionname": "Gorakhpur",
    "circlename": "Uttar Pradesh",
    "Taluk": "Basti Sadar",
    "Districtname": "Basti",
    "statename": "UTTAR PRADESH"
  },
  {
    "pincode": "272170",
    "officename": "Rajapur Sarraiya B.O",
    "officeType": "B.O",
    "Deliverystatus": "Delivery",
    "divisionname": "Basti",
    "regionname": "Gorakhpur",
    "circlename": "Uttar Pradesh",
    "Taluk": "Khalilabad",
    "Districtname": "Sant Kabir Nagar",
    "statename": "UTTAR PRADESH"
  },
  {
    "pincode": "272170",
    "officename": "Rampur B.O",
    "officeType": "B.O",
    "Deliverystatus": "Delivery",
    "divisionname": "Basti",
    "regionname": "Gorakhpur",
    "circlename": "Uttar Pradesh",
    "Taluk": "Basti Sadar",
    "Districtname": "Basti",
    "statename": "UTTAR PRADESH"
  },
  {
    "pincode": "272170",
    "officename": "Sallepur B.O",
    "officeType": "B.O",
    "Deliverystatus": "Delivery",
    "divisionname": "Basti",
    "regionname": "Gorakhpur",
    "circlename": "Uttar Pradesh",
    "Taluk": "Khalilabad",
    "Districtname": "Sant Kabir Nagar",
    "statename": "UTTAR PRADESH"
  },
  {
    "pincode": "272170",
    "officename": "Sanda B.O",
    "officeType": "B.O",
    "Deliverystatus": "Delivery",
    "divisionname": "Basti",
    "regionname": "Gorakhpur",
    "circlename": "Uttar Pradesh",
    "Taluk": "Basti Sadar",
    "Districtname": "Basti",
    "statename": "UTTAR PRADESH"
  },
  {
    "pincode": "272170",
    "officename": "Sonkhar B.O",
    "officeType": "B.O",
    "Deliverystatus": "Delivery",
    "divisionname": "Basti",
    "regionname": "Gorakhpur",
    "circlename": "Uttar Pradesh",
    "Taluk": "Basti Sadar",
    "Districtname": "Basti",
    "statename": "UTTAR PRADESH"
  },
  {
    "pincode": "272170",
    "officename": "Unchahara Kala B.O",
    "officeType": "B.O",
    "Deliverystatus": "Delivery",
    "divisionname": "Basti",
    "regionname": "Gorakhpur",
    "circlename": "Uttar Pradesh",
    "Taluk": "Khalilabad",
    "Districtname": "Sant Kabir Nagar",
    "statename": "UTTAR PRADESH"
  },
  {
    "pincode": "272170",
    "officename": "Unchgaon B.O",
    "officeType": "B.O",
    "Deliverystatus": "Delivery",
    "divisionname": "Basti",
    "regionname": "Gorakhpur",
    "circlename": "Uttar Pradesh",
    "Taluk": "Basti Sadar",
    "Districtname": "Basti",
    "statename": "UTTAR PRADESH"
  }
]
