[
  {
    "pincode": "272164",
    "officename": "Belduha B.O",
    "officeType": "B.O",
    "Deliverystatus": "Delivery",
    "divisionname": "Basti",
    "regionname": "Gorakhpur",
    "circlename": "Uttar Pradesh",
    "Taluk": "Dhanghata",
    "Districtname": "Sant Kabir Nagar",
    "statename": "UTTAR PRADESH"
  },
  {
    "pincode": "272164",
    "officename": "Bhagata B.O",
    "officeType": "B.O",
    "Deliverystatus": "Delivery",
    "divisionname": "Basti",
    "regionname": "Gorakhpur",
    "circlename": "Uttar Pradesh",
    "Taluk": "Dhanghata",
    "Districtname": "Sant Kabir Nagar",
    "statename": "UTTAR PRADESH"
  },
  {
    "pincode": "272164",
    "officename": "Chandrahar B.O",
    "officeType": "B.O",
    "Deliverystatus": "Delivery",
    "divisionname": "Basti",
    "regionname": "Gorakhpur",
    "circlename": "Uttar Pradesh",
    "Taluk": "Dhanghata",
    "Districtname": "Sant Kabir Nagar",
    "statename": "UTTAR PRADESH"
  },
  {
    "pincode": "272164",
    "officename": "Devapar B.O",
    "officeType": "B.O",
    "Deliverystatus": "Delivery",
    "divisionname": "Basti",
    "regionname": "Gorakhpur",
    "circlename": "Uttar Pradesh",
    "Taluk": "Dhanghata",
    "Districtname": "Sant Kabir Nagar",
    "statename": "UTTAR PRADESH"
  },
  {
    "pincode": "272164",
    "officename": "Dhanjwsal B.O",
    "officeType": "B.O",
    "Deliverystatus": "Delivery",
    "divisionname": "Basti",
    "regionname": "Gorakhpur",
    "circlename": "Uttar Pradesh",
    "Taluk": "Dhanghata",
    "Districtname": "Sant Kabir Nagar",
    "statename": "UTTAR PRADESH"
  },
  {
    "pincode": "272164",
    "officename": "Govindpur B.O",
    "officeType": "B.O",
    "Deliverystatus": "Delivery",
    "divisionname": "Basti",
    "regionname": "Gorakhpur",
    "circlename": "Uttar Pradesh",
    "Taluk": "Dhanghata",
    "Districtname": "Sant Kabir Nagar",
    "statename": "UTTAR PRADESH"
  },
  {
    "pincode": "272164",
    "officename": "Hariharpur S.O",
    "officeType": "S.O",
    "Deliverystatus": "Delivery",
    "divisionname": "Basti",
    "regionname": "Gorakhpur",
    "circlename": "Uttar Pradesh",
    "Taluk": "Dhanghata",
    "Districtname": "Sant Kabir Nagar",
    "statename": "UTTAR PRADESH"
  },
  {
    "pincode": "272164",
    "officename": "Molnapur B.O",
    "officeType": "B.O",
    "Deliverystatus": "Delivery",
    "divisionname": "Basti",
    "regionname": "Gorakhpur",
    "circlename": "Uttar Pradesh",
    "Taluk": "Dhanghata",
    "Districtname": "Sant Kabir Nagar",
    "statename": "UTTAR PRADESH"
  },
  {
    "pincode": "272164",
    "officename": "Popaya B.O",
    "officeType": "B.O",
    "Deliverystatus": "Delivery",
    "divisionname": "Basti",
    "regionname": "Gorakhpur",
    "circlename": "Uttar Pradesh",
    "Taluk": "Dhanghata",
    "Districtname": "Sant Kabir Nagar",
    "statename": "UTTAR PRADESH"
  },
  {
    "pincode": "272164",
    "officename": "Tamakhas B.O",
    "officeType": "B.O",
    "Deliverystatus": "Delivery",
    "divisionname": "Basti",
    "regionname": "Gorakhpur",
    "circlename": "Uttar Pradesh",
    "Taluk": "Dhanghata",
    "Districtname": "Sant Kabir Nagar",
    "statename": "UTTAR PRADESH"
  },
  {
    "pincode": "272164",
    "officename": "Taraini B.O",
    "officeType": "B.O",
    "Deliverystatus": "Delivery",
    "divisionname": "Basti",
    "regionname": "Gorakhpur",
    "circlename": "Uttar Pradesh",
    "Taluk": "Dhanghata",
    "Districtname": "Sant Kabir Nagar",
    "statename": "UTTAR PRADESH"
  },
  {
    "pincode": "272164",
    "officename": "Tumpar B.O",
    "officeType": "B.O",
    "Deliverystatus": "Delivery",
    "divisionname": "Basti",
    "regionname": "Gorakhpur",
    "circlename": "Uttar Pradesh",
    "Taluk": "Dhanghata",
    "Districtname": "Sant Kabir Nagar",
    "statename": "UTTAR PRADESH"
  },
  {
    "pincode": "272164",
    "officename": "Vishwanathpur B.O",
    "officeType": "B.O",
    "Deliverystatus": "Delivery",
    "divisionname": "Basti",
    "regionname": "Gorakhpur",
    "circlename": "Uttar Pradesh",
    "Taluk": "Dhanghata",
    "Districtname": "Sant Kabir Nagar",
    "statename": "UTTAR PRADESH"
  }
]
