[
  {
    "pincode": "272190",
    "officename": "Amrauli Sumali B.O",
    "officeType": "B.O",
    "Deliverystatus": "Delivery",
    "divisionname": "Basti",
    "regionname": "Gorakhpur",
    "circlename": "Uttar Pradesh",
    "Taluk": "Bhanpur",
    "Districtname": "Basti",
    "statename": "UTTAR PRADESH"
  },
  {
    "pincode": "272190",
    "officename": "Bargadwa B.O",
    "officeType": "B.O",
    "Deliverystatus": "Delivery",
    "divisionname": "Basti",
    "regionname": "Gorakhpur",
    "circlename": "Uttar Pradesh",
    "Taluk": "Bhanpur (sonha)",
    "Districtname": "Basti",
    "statename": "UTTAR PRADESH"
  },
  {
    "pincode": "272190",
    "officename": "Bishunpurwa B.O",
    "officeType": "B.O",
    "Deliverystatus": "Delivery",
    "divisionname": "Basti",
    "regionname": "Gorakhpur",
    "circlename": "Uttar Pradesh",
    "Taluk": "Bhanpur",
    "Districtname": "Basti",
    "statename": "UTTAR PRADESH"
  },
  {
    "pincode": "272190",
    "officename": "Chaukwa B.O",
    "officeType": "B.O",
    "Deliverystatus": "Delivery",
    "divisionname": "Basti",
    "regionname": "Gorakhpur",
    "circlename": "Uttar Pradesh",
    "Taluk": "Bhanpur",
    "Districtname": "Basti",
    "statename": "UTTAR PRADESH"
  },
  {
    "pincode": "272190",
    "officename": "Jahlipur B.O",
    "officeType": "B.O",
    "Deliverystatus": "Delivery",
    "divisionname": "Basti",
    "regionname": "Gorakhpur",
    "circlename": "Uttar Pradesh",
    "Taluk": "Bhanpur",
    "Districtname": "Basti",
    "statename": "UTTAR PRADESH"
  },
  {
    "pincode": "272190",
    "officename": "Jinswa B.O",
    "officeType": "B.O",
    "Deliverystatus": "Delivery",
    "divisionname": "Basti",
    "regionname": "Gorakhpur",
    "circlename": "Uttar Pradesh",
    "Taluk": "Bhanpur",
    "Districtname": "Basti",
    "statename": "UTTAR PRADESH"
  },
  {
    "pincode": "272190",
    "officename": "Lapsi B.O",
    "officeType": "B.O",
    "Deliverystatus": "Delivery",
    "divisionname": "Basti",
    "regionname": "Gorakhpur",
    "circlename": "Uttar Pradesh",
    "Taluk": "Bhanpur",
    "Districtname": "Basti",
    "statename": "UTTAR PRADESH"
  },
  {
    "pincode": "272190",
    "officename": "Majhauwa Khurd B.O",
    "officeType": "B.O",
    "Deliverystatus": "Delivery",
    "divisionname": "Basti",
    "regionname": "Gorakhpur",
    "circlename": "Uttar Pradesh",
    "Taluk": "Bhanpur",
    "Districtname": "Basti",
    "statename": "UTTAR PRADESH"
  },
  {
    "pincode": "272190",
    "officename": "Saltauwa S.O",
    "officeType": "S.O",
    "Deliverystatus": "Delivery",
    "divisionname": "Basti",
    "regionname": "Gorakhpur",
    "circlename": "Uttar Pradesh",
    "Taluk": "Bhanpur",
    "Districtname": "Basti",
    "statename": "UTTAR PRADESH"
  },
  {
    "pincode": "272190",
    "officename": "Sihari Sardaha B.O",
    "officeType": "B.O",
    "Deliverystatus": "Delivery",
    "divisionname": "Basti",
    "regionname": "Gorakhpur",
    "circlename": "Uttar Pradesh",
    "Taluk": "Bhanpur",
    "Districtname": "Basti",
    "statename": "UTTAR PRADESH"
  },
  {
    "pincode": "272190",
    "officename": "Sonha B.O",
    "officeType": "B.O",
    "Deliverystatus": "Delivery",
    "divisionname": "Basti",
    "regionname": "Gorakhpur",
    "circlename": "Uttar Pradesh",
    "Taluk": "Bhanpur",
    "Districtname": "Basti",
    "statename": "UTTAR PRADESH"
  },
  {
    "pincode": "272190",
    "officename": "Teliha Deeh B.O",
    "officeType": "B.O",
    "Deliverystatus": "Delivery",
    "divisionname": "Basti",
    "regionname": "Gorakhpur",
    "circlename": "Uttar Pradesh",
    "Taluk": "Bhanpur",
    "Districtname": "Basti",
    "statename": "UTTAR PRADESH"
  }
]
