[
  {
    "pincode": "272150",
    "officename": "Ambari B.O",
    "officeType": "B.O",
    "Deliverystatus": "Delivery",
    "divisionname": "Basti",
    "regionname": "Gorakhpur",
    "circlename": "Uttar Pradesh",
    "Taluk": "Basti",
    "Districtname": "Basti",
    "statename": "UTTAR PRADESH"
  },
  {
    "pincode": "272150",
    "officename": "Dasia B.O",
    "officeType": "B.O",
    "Deliverystatus": "Delivery",
    "divisionname": "Basti",
    "regionname": "Gorakhpur",
    "circlename": "Uttar Pradesh",
    "Taluk": "Bhanpur Baboo",
    "Districtname": "Basti",
    "statename": "UTTAR PRADESH"
  },
  {
    "pincode": "272150",
    "officename": "Hanumanganj S.O (Basti)",
    "officeType": "S.O",
    "Deliverystatus": "Delivery",
    "divisionname": "Basti",
    "regionname": "Gorakhpur",
    "circlename": "Uttar Pradesh",
    "Taluk": "Rudhauli",
    "Districtname": "Basti",
    "statename": "UTTAR PRADESH"
  },
  {
    "pincode": "272150",
    "officename": "Kohra B.O",
    "officeType": "B.O",
    "Deliverystatus": "Delivery",
    "divisionname": "Basti",
    "regionname": "Gorakhpur",
    "circlename": "Uttar Pradesh",
    "Taluk": "Rudhauli",
    "Districtname": "Basti",
    "statename": "UTTAR PRADESH"
  },
  {
    "pincode": "272150",
    "officename": "Majhauwa Baikunth B.O",
    "officeType": "B.O",
    "Deliverystatus": "Delivery",
    "divisionname": "Basti",
    "regionname": "Gorakhpur",
    "circlename": "Uttar Pradesh",
    "Taluk": "Rudhauli",
    "Districtname": "Basti",
    "statename": "UTTAR PRADESH"
  },
  {
    "pincode": "272150",
    "officename": "Misraulia Bhaiya B.O",
    "officeType": "B.O",
    "Deliverystatus": "Delivery",
    "divisionname": "Basti",
    "regionname": "Gorakhpur",
    "circlename": "Uttar Pradesh",
    "Taluk": "Rudhauli",
    "Districtname": "Basti",
    "statename": "UTTAR PRADESH"
  },
  {
    "pincode": "272150",
    "officename": "Parsa  Damya B.O",
    "officeType": "B.O",
    "Deliverystatus": "Delivery",
    "divisionname": "Basti",
    "regionname": "Gorakhpur",
    "circlename": "Uttar Pradesh",
    "Taluk": "Bhanpur Babu",
    "Districtname": "Basti",
    "statename": "UTTAR PRADESH"
  },
  {
    "pincode": "272150",
    "officename": "Raunakala B.O",
    "officeType": "B.O",
    "Deliverystatus": "Delivery",
    "divisionname": "Basti",
    "regionname": "Gorakhpur",
    "circlename": "Uttar Pradesh",
    "Taluk": "Rudhauli",
    "Districtname": "Basti",
    "statename": "UTTAR PRADESH"
  }
]
