[
  {
    "pincode": "272175",
    "officename": "Atraura B.O",
    "officeType": "B.O",
    "Deliverystatus": "Delivery",
    "divisionname": "Basti",
    "regionname": "Gorakhpur",
    "circlename": "Uttar Pradesh",
    "Taluk": "Basti",
    "Districtname": "Basti",
    "statename": "UTTAR PRADESH"
  },
  {
    "pincode": "272175",
    "officename": "Baghauli B.O",
    "officeType": "B.O",
    "Deliverystatus": "Delivery",
    "divisionname": "Basti",
    "regionname": "Gorakhpur",
    "circlename": "Uttar Pradesh",
    "Taluk": "Basti",
    "Districtname": "Basti",
    "statename": "UTTAR PRADESH"
  },
  {
    "pincode": "272175",
    "officename": "Bania Bari B.O",
    "officeType": "B.O",
    "Deliverystatus": "Delivery",
    "divisionname": "Basti",
    "regionname": "Gorakhpur",
    "circlename": "Uttar Pradesh",
    "Taluk": "Khalilabad",
    "Districtname": "Sant Kabir Nagar",
    "statename": "UTTAR PRADESH"
  },
  {
    "pincode": "272175",
    "officename": "Bargo B.O",
    "officeType": "B.O",
    "Deliverystatus": "Delivery",
    "divisionname": "Basti",
    "regionname": "Gorakhpur",
    "circlename": "Uttar Pradesh",
    "Taluk": "Basti",
    "Districtname": "Basti",
    "statename": "UTTAR PRADESH"
  },
  {
    "pincode": "272175",
    "officename": "Bhujaini B.O",
    "officeType": "B.O",
    "Deliverystatus": "Delivery",
    "divisionname": "Basti",
    "regionname": "Gorakhpur",
    "circlename": "Uttar Pradesh",
    "Taluk": "Khalilabad",
    "Districtname": "Sant Kabir Nagar",
    "statename": "UTTAR PRADESH"
  },
  {
    "pincode": "272175",
    "officename": "Chakdahi B.O",
    "officeType": "B.O",
    "Deliverystatus": "Delivery",
    "divisionname": "Basti",
    "regionname": "Gorakhpur",
    "circlename": "Uttar Pradesh",
    "Taluk": "Khalilabad",
    "Districtname": "Sant Kabir Nagar",
    "statename": "UTTAR PRADESH"
  },
  {
    "pincode": "272175",
    "officename": "Deegha B.O",
    "officeType": "B.O",
    "Deliverystatus": "Delivery",
    "divisionname": "Basti",
    "regionname": "Gorakhpur",
    "circlename": "Uttar Pradesh",
    "Taluk": "Khalilabad",
    "Districtname": "Sant Kabir Nagar",
    "statename": "UTTAR PRADESH"
  },
  {
    "pincode": "272175",
    "officename": "Dhamaicha B.O",
    "officeType": "B.O",
    "Deliverystatus": "Delivery",
    "divisionname": "Basti",
    "regionname": "Gorakhpur",
    "circlename": "Uttar Pradesh",
    "Taluk": "Khalilabad",
    "Districtname": "Sant Kabir Nagar",
    "statename": "UTTAR PRADESH"
  },
  {
    "pincode": "272175",
    "officename": "Ekma B.O",
    "officeType": "B.O",
    "Deliverystatus": "Delivery",
    "divisionname": "Basti",
    "regionname": "Gorakhpur",
    "circlename": "Uttar Pradesh",
    "Taluk": "Khalilabad",
    "Districtname": "Sant Kabir Nagar",
    "statename": "UTTAR PRADESH"
  },
  {
    "pincode": "272175",
    "officename": "Gandhigram B.O",
    "officeType": "B.O",
    "Deliverystatus": "Delivery",
    "divisionname": "Basti",
    "regionname": "Gorakhpur",
    "circlename": "Uttar Pradesh",
    "Taluk": "Khalilabad",
    "Districtname": "Sant Kabir Nagar",
    "statename": "UTTAR PRADESH"
  },
  {
    "pincode": "272175",
    "officename": "Gangauli B.O",
    "officeType": "B.O",
    "Deliverystatus": "Delivery",
    "divisionname": "Basti",
    "regionname": "Gorakhpur",
    "circlename": "Uttar Pradesh",
    "Taluk": "Khalilabad",
    "Districtname": "Sant Kabir Nagar",
    "statename": "UTTAR PRADESH"
  },
  {
    "pincode": "272175",
    "officename": "Ghatramha B.O",
    "officeType": "B.O",
    "Deliverystatus": "Delivery",
    "divisionname": "Basti",
    "regionname": "Gorakhpur",
    "circlename": "Uttar Pradesh",
    "Taluk": "Khalilabad",
    "Districtname": "Sant Kabir Nagar",
    "statename": "UTTAR PRADESH"
  },
  {
    "pincode": "272175",
    "officename": "Gorhi B.O",
    "officeType": "B.O",
    "Deliverystatus": "Delivery",
    "divisionname": "Basti",
    "regionname": "Gorakhpur",
    "circlename": "Uttar Pradesh",
    "Taluk": "Khalilabad",
    "Districtname": "Sant Kabir Nagar",
    "statename": "UTTAR PRADESH"
  },
  {
    "pincode": "272175",
    "officename": "Khalilabad Bus Stand S.O",
    "officeType": "S.O",
    "Deliverystatus": "Non-Delivery",
    "divisionname": "Basti",
    "regionname": "Gorakhpur",
    "circlename": "Uttar Pradesh",
    "Taluk": "Khalilabad",
    "Districtname": "Sant Kabir Nagar",
    "statename": "UTTAR PRADESH"
  },
  {
    "pincode": "272175",
    "officename": "Khalilabad S.O",
    "officeType": "S.O",
    "Deliverystatus": "Delivery",
    "divisionname": "Basti",
    "regionname": "Gorakhpur",
    "circlename": "Uttar Pradesh",
    "Taluk": "Khalilabad",
    "Districtname": "Sant Kabir Nagar",
    "statename": "UTTAR PRADESH"
  },
  {
    "pincode": "272175",
    "officename": "Koni B.O",
    "officeType": "B.O",
    "Deliverystatus": "Delivery",
    "divisionname": "Basti",
    "regionname": "Gorakhpur",
    "circlename": "Uttar Pradesh",
    "Taluk": "Khalilabad",
    "Districtname": "Sant Kabir Nagar",
    "statename": "UTTAR PRADESH"
  },
  {
    "pincode": "272175",
    "officename": "Lahuradeva B.O",
    "officeType": "B.O",
    "Deliverystatus": "Delivery",
    "divisionname": "Basti",
    "regionname": "Gorakhpur",
    "circlename": "Uttar Pradesh",
    "Taluk": "Khalilabad",
    "Districtname": "Sant Kabir Nagar",
    "statename": "UTTAR PRADESH"
  },
  {
    "pincode": "272175",
    "officename": "Madhopur B.O",
    "officeType": "B.O",
    "Deliverystatus": "Delivery",
    "divisionname": "Basti",
    "regionname": "Gorakhpur",
    "circlename": "Uttar Pradesh",
    "Taluk": "Khalilabad",
    "Districtname": "Sant Kabir Nagar",
    "statename": "UTTAR PRADESH"
  },
  {
    "pincode": "272175",
    "officename": "Meerganj B.O",
    "officeType": "B.O",
    "Deliverystatus": "Delivery",
    "divisionname": "Basti",
    "regionname": "Gorakhpur",
    "circlename": "Uttar Pradesh",
    "Taluk": "Khalilabad",
    "Districtname": "Sant Kabir Nagar",
    "statename": "UTTAR PRADESH"
  },
  {
    "pincode": "272175",
    "officename": "Misraulia B.O",
    "officeType": "B.O",
    "Deliverystatus": "Delivery",
    "divisionname": "Basti",
    "regionname": "Gorakhpur",
    "circlename": "Uttar Pradesh",
    "Taluk": "Khalilabad",
    "Districtname": "Sant Kabir Nagar",
    "statename": "UTTAR PRADESH"
  },
  {
    "pincode": "272175",
    "officename": "Pakhuwapar B.O",
    "officeType": "B.O",
    "Deliverystatus": "Delivery",
    "divisionname": "Basti",
    "regionname": "Gorakhpur",
    "circlename": "Uttar Pradesh",
    "Taluk": "Khalilabad",
    "Districtname": "Sant Kabir Nagar",
    "statename": "UTTAR PRADESH"
  },
  {
    "pincode": "272175",
    "officename": "Samdaha B.O",
    "officeType": "B.O",
    "Deliverystatus": "Delivery",
    "divisionname": "Basti",
    "regionname": "Gorakhpur",
    "circlename": "Uttar Pradesh",
    "Taluk": "Khalilabad",
    "Districtname": "Sant Kabir Nagar",
    "statename": "UTTAR PRADESH"
  },
  {
    "pincode": "272175",
    "officename": "Shivapar B.O",
    "officeType": "B.O",
    "Deliverystatus": "Delivery",
    "divisionname": "Basti",
    "regionname": "Gorakhpur",
    "circlename": "Uttar Pradesh",
    "Taluk": "Khalilabad",
    "Districtname": "Sant Kabir Nagar",
    "statename": "UTTAR PRADESH"
  },
  {
    "pincode": "272175",
    "officename": "Sikari B.O",
    "officeType": "B.O",
    "Deliverystatus": "Delivery",
    "divisionname": "Basti",
    "regionname": "Gorakhpur",
    "circlename": "Uttar Pradesh",
    "Taluk": "Khalilabad",
    "Districtname": "Sant Kabir Nagar",
    "statename": "UTTAR PRADESH"
  },
  {
    "pincode": "272175",
    "officename": "Sugapankhi B.O",
    "officeType": "B.O",
    "Deliverystatus": "Delivery",
    "divisionname": "Basti",
    "regionname": "Gorakhpur",
    "circlename": "Uttar Pradesh",
    "Taluk": "Khalilabad",
    "Districtname": "Sant Kabir Nagar",
    "statename": "UTTAR PRADESH"
  },
  {
    "pincode": "272175",
    "officename": "T.N.Deoria B.O",
    "officeType": "B.O",
    "Deliverystatus": "Delivery",
    "divisionname": "Basti",
    "regionname": "Gorakhpur",
    "circlename": "Uttar Pradesh",
    "Taluk": "Khalilabad",
    "Districtname": "Sant Kabir Nagar",
    "statename": "UTTAR PRADESH"
  },
  {
    "pincode": "272175",
    "officename": "Tama B.O",
    "officeType": "B.O",
    "Deliverystatus": "Delivery",
    "divisionname": "Basti",
    "regionname": "Gorakhpur",
    "circlename": "Uttar Pradesh",
    "Taluk": "Khalilabad",
    "Districtname": "Sant Kabir Nagar",
    "statename": "UTTAR PRADESH"
  },
  {
    "pincode": "272175",
    "officename": "Umari Kalan B.O",
    "officeType": "B.O",
    "Deliverystatus": "Delivery",
    "divisionname": "Basti",
    "regionname": "Gorakhpur",
    "circlename": "Uttar Pradesh",
    "Taluk": "Khalilabad",
    "Districtname": "Sant Kabir Nagar",
    "statename": "UTTAR PRADESH"
  },
  {
    "pincode": "272175",
    "officename": "Utrawal B.O",
    "officeType": "B.O",
    "Deliverystatus": "Delivery",
    "divisionname": "Basti",
    "regionname": "Gorakhpur",
    "circlename": "Uttar Pradesh",
    "Taluk": "Khalilabad",
    "Districtname": "Sant Kabir Nagar",
    "statename": "UTTAR PRADESH"
  }
]
