[
  {
    "pincode": "272153",
    "officename": "Ajgara B.O",
    "officeType": "B.O",
    "Deliverystatus": "Delivery",
    "divisionname": "Basti",
    "regionname": "Gorakhpur",
    "circlename": "Uttar Pradesh",
    "Taluk": "Bansi",
    "Districtname": "Siddharthnagar",
    "statename": "UTTAR PRADESH"
  },
  {
    "pincode": "272153",
    "officename": "Asnar B.O",
    "officeType": "B.O",
    "Deliverystatus": "Delivery",
    "divisionname": "Basti",
    "regionname": "Gorakhpur",
    "circlename": "Uttar Pradesh",
    "Taluk": "Basti",
    "Districtname": "Basti",
    "statename": "UTTAR PRADESH"
  },
  {
    "pincode": "272153",
    "officename": "Asogwa B.O",
    "officeType": "B.O",
    "Deliverystatus": "Delivery",
    "divisionname": "Basti",
    "regionname": "Gorakhpur",
    "circlename": "Uttar Pradesh",
    "Taluk": "Basti",
    "Districtname": "Basti",
    "statename": "UTTAR PRADESH"
  },
  {
    "pincode": "272153",
    "officename": "Bangawa B.O",
    "officeType": "B.O",
    "Deliverystatus": "Delivery",
    "divisionname": "Basti",
    "regionname": "Gorakhpur",
    "circlename": "Uttar Pradesh",
    "Taluk": "Basti",
    "Districtname": "Basti",
    "statename": "UTTAR PRADESH"
  },
  {
    "pincode": "272153",
    "officename": "Bankuiya B.O",
    "officeType": "B.O",
    "Deliverystatus": "Delivery",
    "divisionname": "Basti",
    "regionname": "Gorakhpur",
    "circlename": "Uttar Pradesh",
    "Taluk": "Basti",
    "Districtname": "Basti",
    "statename": "UTTAR PRADESH"
  },
  {
    "pincode": "272153",
    "officename": "Bansi H.O",
    "officeType": "H.O",
    "Deliverystatus": "Delivery",
    "divisionname": "Basti",
    "regionname": "Gorakhpur",
    "circlename": "Uttar Pradesh",
    "Taluk": "Basti",
    "Districtname": "Basti",
    "statename": "UTTAR PRADESH"
  },
  {
    "pincode": "272153",
    "officename": "Barao Nansar B.O",
    "officeType": "B.O",
    "Deliverystatus": "Delivery",
    "divisionname": "Basti",
    "regionname": "Gorakhpur",
    "circlename": "Uttar Pradesh",
    "Taluk": "Bansi",
    "Districtname": "Siddharthnagar",
    "statename": "UTTAR PRADESH"
  },
  {
    "pincode": "272153",
    "officename": "Bargadwa  Khabhri B.O",
    "officeType": "B.O",
    "Deliverystatus": "Delivery",
    "divisionname": "Basti",
    "regionname": "Gorakhpur",
    "circlename": "Uttar Pradesh",
    "Taluk": "Basti",
    "Districtname": "Basti",
    "statename": "UTTAR PRADESH"
  },
  {
    "pincode": "272153",
    "officename": "Basantpur B.O",
    "officeType": "B.O",
    "Deliverystatus": "Delivery",
    "divisionname": "Basti",
    "regionname": "Gorakhpur",
    "circlename": "Uttar Pradesh",
    "Taluk": "Basti",
    "Districtname": "Basti",
    "statename": "UTTAR PRADESH"
  },
  {
    "pincode": "272153",
    "officename": "Bhanwari B.O",
    "officeType": "B.O",
    "Deliverystatus": "Delivery",
    "divisionname": "Basti",
    "regionname": "Gorakhpur",
    "circlename": "Uttar Pradesh",
    "Taluk": "Basti",
    "Districtname": "Basti",
    "statename": "UTTAR PRADESH"
  },
  {
    "pincode": "272153",
    "officename": "Bidra B.O",
    "officeType": "B.O",
    "Deliverystatus": "Delivery",
    "divisionname": "Basti",
    "regionname": "Gorakhpur",
    "circlename": "Uttar Pradesh",
    "Taluk": "Itwa",
    "Districtname": "Siddharthnagar",
    "statename": "UTTAR PRADESH"
  },
  {
    "pincode": "272153",
    "officename": "Bihra B.O",
    "officeType": "B.O",
    "Deliverystatus": "Delivery",
    "divisionname": "Basti",
    "regionname": "Gorakhpur",
    "circlename": "Uttar Pradesh",
    "Taluk": "Bansi",
    "Districtname": "Siddharthnagar",
    "statename": "UTTAR PRADESH"
  },
  {
    "pincode": "272153",
    "officename": "Chetia B.O",
    "officeType": "B.O",
    "Deliverystatus": "Delivery",
    "divisionname": "Basti",
    "regionname": "Gorakhpur",
    "circlename": "Uttar Pradesh",
    "Taluk": "Bansi",
    "Districtname": "Siddharthnagar",
    "statename": "UTTAR PRADESH"
  },
  {
    "pincode": "272153",
    "officename": "Dandwaghat B.O",
    "officeType": "B.O",
    "Deliverystatus": "Delivery",
    "divisionname": "Basti",
    "regionname": "Gorakhpur",
    "circlename": "Uttar Pradesh",
    "Taluk": "Bansi",
    "Districtname": "Siddharthnagar",
    "statename": "UTTAR PRADESH"
  },
  {
    "pincode": "272153",
    "officename": "Gauri B.O",
    "officeType": "B.O",
    "Deliverystatus": "Delivery",
    "divisionname": "Basti",
    "regionname": "Gorakhpur",
    "circlename": "Uttar Pradesh",
    "Taluk": "Bansi",
    "Districtname": "Siddharthnagar",
    "statename": "UTTAR PRADESH"
  },
  {
    "pincode": "272153",
    "officename": "Harraiya Nankar B.O",
    "officeType": "B.O",
    "Deliverystatus": "Delivery",
    "divisionname": "Basti",
    "regionname": "Gorakhpur",
    "circlename": "Uttar Pradesh",
    "Taluk": "Bansi",
    "Districtname": "Siddharthnagar",
    "statename": "UTTAR PRADESH"
  },
  {
    "pincode": "272153",
    "officename": "Janiajote B.O",
    "officeType": "B.O",
    "Deliverystatus": "Delivery",
    "divisionname": "Basti",
    "regionname": "Gorakhpur",
    "circlename": "Uttar Pradesh",
    "Taluk": "Bansi",
    "Districtname": "Siddharthnagar",
    "statename": "UTTAR PRADESH"
  },
  {
    "pincode": "272153",
    "officename": "Jeewa B.O",
    "officeType": "B.O",
    "Deliverystatus": "Delivery",
    "divisionname": "Basti",
    "regionname": "Gorakhpur",
    "circlename": "Uttar Pradesh",
    "Taluk": "Bansi",
    "Districtname": "Siddharthnagar",
    "statename": "UTTAR PRADESH"
  },
  {
    "pincode": "272153",
    "officename": "Kakrapokhar B.O",
    "officeType": "B.O",
    "Deliverystatus": "Delivery",
    "divisionname": "Basti",
    "regionname": "Gorakhpur",
    "circlename": "Uttar Pradesh",
    "Taluk": "Bansi",
    "Districtname": "Siddharthnagar",
    "statename": "UTTAR PRADESH"
  },
  {
    "pincode": "272153",
    "officename": "Karahi B.O",
    "officeType": "B.O",
    "Deliverystatus": "Delivery",
    "divisionname": "Basti",
    "regionname": "Gorakhpur",
    "circlename": "Uttar Pradesh",
    "Taluk": "Itwa",
    "Districtname": "Siddharthnagar",
    "statename": "UTTAR PRADESH"
  },
  {
    "pincode": "272153",
    "officename": "Khaira B.O",
    "officeType": "B.O",
    "Deliverystatus": "Delivery",
    "divisionname": "Basti",
    "regionname": "Gorakhpur",
    "circlename": "Uttar Pradesh",
    "Taluk": "Itwa",
    "Districtname": "Siddharthnagar",
    "statename": "UTTAR PRADESH"
  },
  {
    "pincode": "272153",
    "officename": "Kolhui B.O",
    "officeType": "B.O",
    "Deliverystatus": "Delivery",
    "divisionname": "Basti",
    "regionname": "Gorakhpur",
    "circlename": "Uttar Pradesh",
    "Taluk": "Itwa",
    "Districtname": "Siddharthnagar",
    "statename": "UTTAR PRADESH"
  },
  {
    "pincode": "272153",
    "officename": "Kotiagarori B.O",
    "officeType": "B.O",
    "Deliverystatus": "Delivery",
    "divisionname": "Basti",
    "regionname": "Gorakhpur",
    "circlename": "Uttar Pradesh",
    "Taluk": "Bansi",
    "Districtname": "Siddharthnagar",
    "statename": "UTTAR PRADESH"
  },
  {
    "pincode": "272153",
    "officename": "Kurthia B.O",
    "officeType": "B.O",
    "Deliverystatus": "Delivery",
    "divisionname": "Basti",
    "regionname": "Gorakhpur",
    "circlename": "Uttar Pradesh",
    "Taluk": "Basti",
    "Districtname": "Basti",
    "statename": "UTTAR PRADESH"
  },
  {
    "pincode": "272153",
    "officename": "Madhukarpur B.O",
    "officeType": "B.O",
    "Deliverystatus": "Delivery",
    "divisionname": "Basti",
    "regionname": "Gorakhpur",
    "circlename": "Uttar Pradesh",
    "Taluk": "Bansi",
    "Districtname": "Siddharthnagar",
    "statename": "UTTAR PRADESH"
  },
  {
    "pincode": "272153",
    "officename": "Mau B.O",
    "officeType": "B.O",
    "Deliverystatus": "Delivery",
    "divisionname": "Basti",
    "regionname": "Gorakhpur",
    "circlename": "Uttar Pradesh",
    "Taluk": "Bansi",
    "Districtname": "Siddharthnagar",
    "statename": "UTTAR PRADESH"
  },
  {
    "pincode": "272153",
    "officename": "Mithwal Bazaar B.O",
    "officeType": "B.O",
    "Deliverystatus": "Delivery",
    "divisionname": "Basti",
    "regionname": "Gorakhpur",
    "circlename": "Uttar Pradesh",
    "Taluk": "",
    "Districtname": "Siddharthnagar",
    "statename": "UTTAR PRADESH"
  },
  {
    "pincode": "272153",
    "officename": "Narkataha B.O",
    "officeType": "B.O",
    "Deliverystatus": "Delivery",
    "divisionname": "Basti",
    "regionname": "Gorakhpur",
    "circlename": "Uttar Pradesh",
    "Taluk": "Bansi",
    "Districtname": "Siddharthnagar",
    "statename": "UTTAR PRADESH"
  },
  {
    "pincode": "272153",
    "officename": "Pachhar B.O",
    "officeType": "B.O",
    "Deliverystatus": "Delivery",
    "divisionname": "Basti",
    "regionname": "Gorakhpur",
    "circlename": "Uttar Pradesh",
    "Taluk": "Bansi",
    "Districtname": "Siddharthnagar",
    "statename": "UTTAR PRADESH"
  },
  {
    "pincode": "272153",
    "officename": "Pathara Bzr B.O",
    "officeType": "B.O",
    "Deliverystatus": "Delivery",
    "divisionname": "Basti",
    "regionname": "Gorakhpur",
    "circlename": "Uttar Pradesh",
    "Taluk": "Bansi",
    "Districtname": "Siddharthnagar",
    "statename": "UTTAR PRADESH"
  },
  {
    "pincode": "272153",
    "officename": "Ramwapur Dubey B.O",
    "officeType": "B.O",
    "Deliverystatus": "Delivery",
    "divisionname": "Basti",
    "regionname": "Gorakhpur",
    "circlename": "Uttar Pradesh",
    "Taluk": "Bansi",
    "Districtname": "Siddharthnagar",
    "statename": "UTTAR PRADESH"
  },
  {
    "pincode": "272153",
    "officename": "Rudrapur B.O",
    "officeType": "B.O",
    "Deliverystatus": "Delivery",
    "divisionname": "Basti",
    "regionname": "Gorakhpur",
    "circlename": "Uttar Pradesh",
    "Taluk": "Bansi",
    "Districtname": "Siddharthnagar",
    "statename": "UTTAR PRADESH"
  },
  {
    "pincode": "272153",
    "officename": "Sekhui B.O",
    "officeType": "B.O",
    "Deliverystatus": "Delivery",
    "divisionname": "Basti",
    "regionname": "Gorakhpur",
    "circlename": "Uttar Pradesh",
    "Taluk": "Bansi",
    "Districtname": "Siddharthnagar",
    "statename": "UTTAR PRADESH"
  },
  {
    "pincode": "272153",
    "officename": "Sonkhar B.O",
    "officeType": "B.O",
    "Deliverystatus": "Delivery",
    "divisionname": "Basti",
    "regionname": "Gorakhpur",
    "circlename": "Uttar Pradesh",
    "Taluk": "Bansi",
    "Districtname": "Siddharthnagar",
    "statename": "UTTAR PRADESH"
  },
  {
    "pincode": "272153",
    "officename": "Suparaja B.O",
    "officeType": "B.O",
    "Deliverystatus": "Delivery",
    "divisionname": "Basti",
    "regionname": "Gorakhpur",
    "circlename": "Uttar Pradesh",
    "Taluk": "Bansi",
    "Districtname": "Siddharthnagar",
    "statename": "UTTAR PRADESH"
  },
  {
    "pincode": "272153",
    "officename": "Talpurwa B.O",
    "officeType": "B.O",
    "Deliverystatus": "Delivery",
    "divisionname": "Basti",
    "regionname": "Gorakhpur",
    "circlename": "Uttar Pradesh",
    "Taluk": "Bansi",
    "Districtname": "Siddharthnagar",
    "statename": "UTTAR PRADESH"
  },
  {
    "pincode": "272153",
    "officename": "Tilauli B.O",
    "officeType": "B.O",
    "Deliverystatus": "Delivery",
    "divisionname": "Basti",
    "regionname": "Gorakhpur",
    "circlename": "Uttar Pradesh",
    "Taluk": "Bansi",
    "Districtname": "Siddharthnagar",
    "statename": "UTTAR PRADESH"
  }
]
