[
  {
    "pincode": "272270",
    "officename": "Belhar Kala B.O",
    "officeType": "B.O",
    "Deliverystatus": "Delivery",
    "divisionname": "Basti",
    "regionname": "Gorakhpur",
    "circlename": "Uttar Pradesh",
    "Taluk": "Menhdawal",
    "Districtname": "Sant Kabir Nagar",
    "statename": "UTTAR PRADESH"
  },
  {
    "pincode": "272270",
    "officename": "Bhainsamafi B.O",
    "officeType": "B.O",
    "Deliverystatus": "Delivery",
    "divisionname": "Basti",
    "regionname": "Gorakhpur",
    "circlename": "Uttar Pradesh",
    "Taluk": "Menhdawal",
    "Districtname": "Sant Kabir Nagar",
    "statename": "UTTAR PRADESH"
  },
  {
    "pincode": "272270",
    "officename": "Bhataura B.O",
    "officeType": "B.O",
    "Deliverystatus": "Delivery",
    "divisionname": "Basti",
    "regionname": "Gorakhpur",
    "circlename": "Uttar Pradesh",
    "Taluk": "Menhdawal",
    "Districtname": "Sant Kabir Nagar",
    "statename": "UTTAR PRADESH"
  },
  {
    "pincode": "272270",
    "officename": "Karma Kalan B.O",
    "officeType": "B.O",
    "Deliverystatus": "Delivery",
    "divisionname": "Basti",
    "regionname": "Gorakhpur",
    "circlename": "Uttar Pradesh",
    "Taluk": "Menhdawal",
    "Districtname": "Sant Kabir Nagar",
    "statename": "UTTAR PRADESH"
  },
  {
    "pincode": "272270",
    "officename": "Kotia Urf Sekhui B.O",
    "officeType": "B.O",
    "Deliverystatus": "Delivery",
    "divisionname": "Basti",
    "regionname": "Gorakhpur",
    "circlename": "Uttar Pradesh",
    "Taluk": "Menhdawal",
    "Districtname": "Sant Kabir Nagar",
    "statename": "UTTAR PRADESH"
  },
  {
    "pincode": "272270",
    "officename": "Loharsan B.O",
    "officeType": "B.O",
    "Deliverystatus": "Delivery",
    "divisionname": "Basti",
    "regionname": "Gorakhpur",
    "circlename": "Uttar Pradesh",
    "Taluk": "Menhdawal",
    "Districtname": "Sant Kabir Nagar",
    "statename": "UTTAR PRADESH"
  },
  {
    "pincode": "272270",
    "officename": "Narayanpur B.O",
    "officeType": "B.O",
    "Deliverystatus": "Delivery",
    "divisionname": "Basti",
    "regionname": "Gorakhpur",
    "circlename": "Uttar Pradesh",
    "Taluk": "Menhdawal",
    "Districtname": "Sant Kabir Nagar",
    "statename": "UTTAR PRADESH"
  },
  {
    "pincode": "272270",
    "officename": "Santha S.O",
    "officeType": "S.O",
    "Deliverystatus": "Delivery",
    "divisionname": "Basti",
    "regionname": "Gorakhpur",
    "circlename": "Uttar Pradesh",
    "Taluk": "Menhdawal",
    "Districtname": "Sant Kabir Nagar",
    "statename": "UTTAR PRADESH"
  }
]
