[
  {
    "pincode": "272207",
    "officename": "Bheemapar B.O",
    "officeType": "B.O",
    "Deliverystatus": "Delivery",
    "divisionname": "Basti",
    "regionname": "Gorakhpur",
    "circlename": "Uttar Pradesh",
    "Taluk": "Naugarh",
    "Districtname": "Siddharthnagar",
    "statename": "UTTAR PRADESH"
  },
  {
    "pincode": "272207",
    "officename": "Civil Line Siddharthnagar S.O",
    "officeType": "S.O",
    "Deliverystatus": "Non-Delivery",
    "divisionname": "Basti",
    "regionname": "Gorakhpur",
    "circlename": "Uttar Pradesh",
    "Taluk": "Naugarh",
    "Districtname": "Siddharthnagar",
    "statename": "UTTAR PRADESH"
  },
  {
    "pincode": "272207",
    "officename": "Deora Bazar B.O",
    "officeType": "B.O",
    "Deliverystatus": "Delivery",
    "divisionname": "Basti",
    "regionname": "Gorakhpur",
    "circlename": "Uttar Pradesh",
    "Taluk": "Naugarh",
    "Districtname": "Siddharthnagar",
    "statename": "UTTAR PRADESH"
  },
  {
    "pincode": "272207",
    "officename": "Dhensanankar B.O",
    "officeType": "B.O",
    "Deliverystatus": "Delivery",
    "divisionname": "Basti",
    "regionname": "Gorakhpur",
    "circlename": "Uttar Pradesh",
    "Taluk": "Naugarh",
    "Districtname": "Siddharthnagar",
    "statename": "UTTAR PRADESH"
  },
  {
    "pincode": "272207",
    "officename": "Harraiya B.O",
    "officeType": "B.O",
    "Deliverystatus": "Delivery",
    "divisionname": "Basti",
    "regionname": "Gorakhpur",
    "circlename": "Uttar Pradesh",
    "Taluk": "Naugarh",
    "Districtname": "Siddharthnagar",
    "statename": "UTTAR PRADESH"
  },
  {
    "pincode": "272207",
    "officename": "Jogia Udaipur B.O",
    "officeType": "B.O",
    "Deliverystatus": "Delivery",
    "divisionname": "Basti",
    "regionname": "Gorakhpur",
    "circlename": "Uttar Pradesh",
    "Taluk": "Naugarh",
    "Districtname": "Siddharthnagar",
    "statename": "UTTAR PRADESH"
  },
  {
    "pincode": "272207",
    "officename": "Kondragrant B.O",
    "officeType": "B.O",
    "Deliverystatus": "Delivery",
    "divisionname": "Basti",
    "regionname": "Gorakhpur",
    "circlename": "Uttar Pradesh",
    "Taluk": "Naugarh",
    "Districtname": "Siddharthnagar",
    "statename": "UTTAR PRADESH"
  },
  {
    "pincode": "272207",
    "officename": "Madhuharpur B.O",
    "officeType": "B.O",
    "Deliverystatus": "Delivery",
    "divisionname": "Basti",
    "regionname": "Gorakhpur",
    "circlename": "Uttar Pradesh",
    "Taluk": "",
    "Districtname": "Siddharthnagar",
    "statename": "UTTAR PRADESH"
  },
  {
    "pincode": "272207",
    "officename": "Maharia B.O",
    "officeType": "B.O",
    "Deliverystatus": "Delivery",
    "divisionname": "Basti",
    "regionname": "Gorakhpur",
    "circlename": "Uttar Pradesh",
    "Taluk": "Naugarh",
    "Districtname": "Siddharthnagar",
    "statename": "UTTAR PRADESH"
  },
  {
    "pincode": "272207",
    "officename": "Mahulani B.O",
    "officeType": "B.O",
    "Deliverystatus": "Delivery",
    "divisionname": "Basti",
    "regionname": "Gorakhpur",
    "circlename": "Uttar Pradesh",
    "Taluk": "Naugarh",
    "Districtname": "Siddharthnagar",
    "statename": "UTTAR PRADESH"
  },
  {
    "pincode": "272207",
    "officename": "Patni Jungle B.O",
    "officeType": "B.O",
    "Deliverystatus": "Delivery",
    "divisionname": "Basti",
    "regionname": "Gorakhpur",
    "circlename": "Uttar Pradesh",
    "Taluk": "Naugarh",
    "Districtname": "Siddharthnagar",
    "statename": "UTTAR PRADESH"
  },
  {
    "pincode": "272207",
    "officename": "Tetari Bazar S.O",
    "officeType": "S.O",
    "Deliverystatus": "Delivery",
    "divisionname": "Basti",
    "regionname": "Gorakhpur",
    "circlename": "Uttar Pradesh",
    "Taluk": "Naugarh",
    "Districtname": "Siddharthnagar",
    "statename": "UTTAR PRADESH"
  }
]
