[
  {
    "pincode": "272204",
    "officename": "Ahri B.O",
    "officeType": "B.O",
    "Deliverystatus": "Delivery",
    "divisionname": "Basti",
    "regionname": "Gorakhpur",
    "circlename": "Uttar Pradesh",
    "Taluk": "Naugarh",
    "Districtname": "Siddharthnagar",
    "statename": "UTTAR PRADESH"
  },
  {
    "pincode": "272204",
    "officename": "Bhadehargrant B.O",
    "officeType": "B.O",
    "Deliverystatus": "Delivery",
    "divisionname": "Basti",
    "regionname": "Gorakhpur",
    "circlename": "Uttar Pradesh",
    "Taluk": "Shohratgarh",
    "Districtname": "Siddharthnagar",
    "statename": "UTTAR PRADESH"
  },
  {
    "pincode": "272204",
    "officename": "Chilihia B.O",
    "officeType": "B.O",
    "Deliverystatus": "Delivery",
    "divisionname": "Basti",
    "regionname": "Gorakhpur",
    "circlename": "Uttar Pradesh",
    "Taluk": "Shohratgarh",
    "Districtname": "Siddharthnagar",
    "statename": "UTTAR PRADESH"
  },
  {
    "pincode": "272204",
    "officename": "Dhusurai Bzg B.O",
    "officeType": "B.O",
    "Deliverystatus": "Delivery",
    "divisionname": "Basti",
    "regionname": "Gorakhpur",
    "circlename": "Uttar Pradesh",
    "Taluk": "Shohratgarh",
    "Districtname": "Siddharthnagar",
    "statename": "UTTAR PRADESH"
  },
  {
    "pincode": "272204",
    "officename": "Harkauli B.O",
    "officeType": "B.O",
    "Deliverystatus": "Delivery",
    "divisionname": "Basti",
    "regionname": "Gorakhpur",
    "circlename": "Uttar Pradesh",
    "Taluk": "Naugarh",
    "Districtname": "Siddharthnagar",
    "statename": "UTTAR PRADESH"
  },
  {
    "pincode": "272204",
    "officename": "Katehna B.O",
    "officeType": "B.O",
    "Deliverystatus": "Delivery",
    "divisionname": "Basti",
    "regionname": "Gorakhpur",
    "circlename": "Uttar Pradesh",
    "Taluk": "Naugarh",
    "Districtname": "Siddharthnagar",
    "statename": "UTTAR PRADESH"
  },
  {
    "pincode": "272204",
    "officename": "Khurhuria B.O",
    "officeType": "B.O",
    "Deliverystatus": "Delivery",
    "divisionname": "Basti",
    "regionname": "Gorakhpur",
    "circlename": "Uttar Pradesh",
    "Taluk": "Shohratgarh",
    "Districtname": "Siddharthnagar",
    "statename": "UTTAR PRADESH"
  },
  {
    "pincode": "272204",
    "officename": "Santora B.O",
    "officeType": "B.O",
    "Deliverystatus": "Delivery",
    "divisionname": "Basti",
    "regionname": "Gorakhpur",
    "circlename": "Uttar Pradesh",
    "Taluk": "Shohratgarh",
    "Districtname": "Siddharthnagar",
    "statename": "UTTAR PRADESH"
  },
  {
    "pincode": "272204",
    "officename": "Udairajganj S.O",
    "officeType": "S.O",
    "Deliverystatus": "Delivery",
    "divisionname": "Basti",
    "regionname": "Gorakhpur",
    "circlename": "Uttar Pradesh",
    "Taluk": "Shohratgarh",
    "Districtname": "Siddharthnagar",
    "statename": "UTTAR PRADESH"
  }
]
