[
  {
    "pincode": "273001",
    "officename": "Alinagar S.O",
    "officeType": "S.O",
    "Deliverystatus": "Non-Delivery",
    "divisionname": "Gorakhpur",
    "regionname": "Gorakhpur",
    "circlename": "Uttar Pradesh",
    "Taluk": "Gorakhpur",
    "Districtname": "Gorakhpur",
    "statename": "UTTAR PRADESH"
  },
  {
    "pincode": "273001",
    "officename": "Allahadadpur S.O",
    "officeType": "S.O",
    "Deliverystatus": "Non-Delivery",
    "divisionname": "Gorakhpur",
    "regionname": "Gorakhpur",
    "circlename": "Uttar Pradesh",
    "Taluk": "Gorakhpur",
    "Districtname": "Gorakhpur",
    "statename": "UTTAR PRADESH"
  },
  {
    "pincode": "273001",
    "officename": "Bank Road S.O (Gorakhpur)",
    "officeType": "S.O",
    "Deliverystatus": "Non-Delivery",
    "divisionname": "Gorakhpur",
    "regionname": "Gorakhpur",
    "circlename": "Uttar Pradesh",
    "Taluk": "Gorakhpur",
    "Districtname": "Gorakhpur",
    "statename": "UTTAR PRADESH"
  },
  {
    "pincode": "273001",
    "officename": "Betia Hata S.O",
    "officeType": "S.O",
    "Deliverystatus": "Non-Delivery",
    "divisionname": "Gorakhpur",
    "regionname": "Gorakhpur",
    "circlename": "Uttar Pradesh",
    "Taluk": "Gorakhpur Sadar",
    "Districtname": "Gorakhpur",
    "statename": "UTTAR PRADESH"
  },
  {
    "pincode": "273001",
    "officename": "Bilandpur S.O",
    "officeType": "S.O",
    "Deliverystatus": "Non-Delivery",
    "divisionname": "Gorakhpur",
    "regionname": "Gorakhpur",
    "circlename": "Uttar Pradesh",
    "Taluk": "Gorakhpur Sadar",
    "Districtname": "Gorakhpur",
    "statename": "UTTAR PRADESH"
  },
  {
    "pincode": "273001",
    "officename": "Buxipur S.O",
    "officeType": "S.O",
    "Deliverystatus": "Non-Delivery",
    "divisionname": "Gorakhpur",
    "regionname": "Gorakhpur",
    "circlename": "Uttar Pradesh",
    "Taluk": "Gorakhpur",
    "Districtname": "Gorakhpur",
    "statename": "UTTAR PRADESH"
  },
  {
    "pincode": "273001",
    "officename": "Civil Court S.O (Gorakhpur)",
    "officeType": "S.O",
    "Deliverystatus": "Non-Delivery",
    "divisionname": "Gorakhpur",
    "regionname": "Gorakhpur",
    "circlename": "Uttar Pradesh",
    "Taluk": "Gorakhpur",
    "Districtname": "Gorakhpur",
    "statename": "UTTAR PRADESH"
  },
  {
    "pincode": "273001",
    "officename": "Daudpur S.O",
    "officeType": "S.O",
    "Deliverystatus": "Non-Delivery",
    "divisionname": "Gorakhpur",
    "regionname": "Gorakhpur",
    "circlename": "Uttar Pradesh",
    "Taluk": "Gorakhpur Sadar",
    "Districtname": "Gorakhpur",
    "statename": "UTTAR PRADESH"
  },
  {
    "pincode": "273001",
    "officename": "Dharamshala S.O",
    "officeType": "S.O",
    "Deliverystatus": "Non-Delivery",
    "divisionname": "Gorakhpur",
    "regionname": "Gorakhpur",
    "circlename": "Uttar Pradesh",
    "Taluk": "Gorakhpur",
    "Districtname": "Gorakhpur",
    "statename": "UTTAR PRADESH"
  },
  {
    "pincode": "273001",
    "officename": "Golghar S.O",
    "officeType": "S.O",
    "Deliverystatus": "Non-Delivery",
    "divisionname": "Gorakhpur",
    "regionname": "Gorakhpur",
    "circlename": "Uttar Pradesh",
    "Taluk": "Gorakhpur",
    "Districtname": "Gorakhpur",
    "statename": "UTTAR PRADESH"
  },
  {
    "pincode": "273001",
    "officename": "Gorakhpur H.O",
    "officeType": "H.O",
    "Deliverystatus": "Delivery",
    "divisionname": "Gorakhpur",
    "regionname": "Gorakhpur",
    "circlename": "Uttar Pradesh",
    "Taluk": "Gorakhpur",
    "Districtname": "Gorakhpur",
    "statename": "UTTAR PRADESH"
  },
  {
    "pincode": "273001",
    "officename": "Gorakhpur Kutchery S.O",
    "officeType": "S.O",
    "Deliverystatus": "Non-Delivery",
    "divisionname": "Gorakhpur",
    "regionname": "Gorakhpur",
    "circlename": "Uttar Pradesh",
    "Taluk": "Gorakhpur",
    "Districtname": "Gorakhpur",
    "statename": "UTTAR PRADESH"
  },
  {
    "pincode": "273001",
    "officename": "Kazipur Kalan S.O",
    "officeType": "S.O",
    "Deliverystatus": "Non-Delivery",
    "divisionname": "Gorakhpur",
    "regionname": "Gorakhpur",
    "circlename": "Uttar Pradesh",
    "Taluk": "Gorakhpur Sadar",
    "Districtname": "Gorakhpur",
    "statename": "UTTAR PRADESH"
  },
  {
    "pincode": "273001",
    "officename": "Labour Camp S.O",
    "officeType": "S.O",
    "Deliverystatus": "Non-Delivery",
    "divisionname": "Gorakhpur",
    "regionname": "Gorakhpur",
    "circlename": "Uttar Pradesh",
    "Taluk": "Gorakhpur",
    "Districtname": "Gorakhpur",
    "statename": "UTTAR PRADESH"
  }
]
