[
  {
    "pincode": "273164",
    "officename": "Adda Bazar B.O",
    "officeType": "B.O",
    "Deliverystatus": "Delivery",
    "divisionname": "Gorakhpur",
    "regionname": "Gorakhpur",
    "circlename": "Uttar Pradesh",
    "Taluk": "Nautanawa",
    "Districtname": "Maharajganj",
    "statename": "UTTAR PRADESH"
  },
  {
    "pincode": "273164",
    "officename": "Akasarawa B.O",
    "officeType": "B.O",
    "Deliverystatus": "Delivery",
    "divisionname": "Gorakhpur",
    "regionname": "Gorakhpur",
    "circlename": "Uttar Pradesh",
    "Taluk": "Nautanawa",
    "Districtname": "Maharajganj",
    "statename": "UTTAR PRADESH"
  },
  {
    "pincode": "273164",
    "officename": "Banarisihakhurd B.O",
    "officeType": "B.O",
    "Deliverystatus": "Delivery",
    "divisionname": "Gorakhpur",
    "regionname": "Gorakhpur",
    "circlename": "Uttar Pradesh",
    "Taluk": "Nautanawa",
    "Districtname": "Maharajganj",
    "statename": "UTTAR PRADESH"
  },
  {
    "pincode": "273164",
    "officename": "Bhagawanpur B.O",
    "officeType": "B.O",
    "Deliverystatus": "Delivery",
    "divisionname": "Gorakhpur",
    "regionname": "Gorakhpur",
    "circlename": "Uttar Pradesh",
    "Taluk": "Nautanawa",
    "Districtname": "Maharajganj",
    "statename": "UTTAR PRADESH"
  },
  {
    "pincode": "273164",
    "officename": "Bhagirathpur B.O",
    "officeType": "B.O",
    "Deliverystatus": "Delivery",
    "divisionname": "Gorakhpur",
    "regionname": "Gorakhpur",
    "circlename": "Uttar Pradesh",
    "Taluk": "Nautanawa",
    "Districtname": "Maharajganj",
    "statename": "UTTAR PRADESH"
  },
  {
    "pincode": "273164",
    "officename": "Chakdah B.O",
    "officeType": "B.O",
    "Deliverystatus": "Delivery",
    "divisionname": "Gorakhpur",
    "regionname": "Gorakhpur",
    "circlename": "Uttar Pradesh",
    "Taluk": "",
    "Districtname": "Maharajganj",
    "statename": "UTTAR PRADESH"
  },
  {
    "pincode": "273164",
    "officename": "Charalaha B.O",
    "officeType": "B.O",
    "Deliverystatus": "Delivery",
    "divisionname": "Gorakhpur",
    "regionname": "Gorakhpur",
    "circlename": "Uttar Pradesh",
    "Taluk": "Nautanawa",
    "Districtname": "Maharajganj",
    "statename": "UTTAR PRADESH"
  },
  {
    "pincode": "273164",
    "officename": "Jara B.O",
    "officeType": "B.O",
    "Deliverystatus": "Delivery",
    "divisionname": "Gorakhpur",
    "regionname": "Gorakhpur",
    "circlename": "Uttar Pradesh",
    "Taluk": "Nautanawa",
    "Districtname": "Maharajganj",
    "statename": "UTTAR PRADESH"
  },
  {
    "pincode": "273164",
    "officename": "Kajari B.O",
    "officeType": "B.O",
    "Deliverystatus": "Delivery",
    "divisionname": "Gorakhpur",
    "regionname": "Gorakhpur",
    "circlename": "Uttar Pradesh",
    "Taluk": "Nautanawa",
    "Districtname": "Maharajganj",
    "statename": "UTTAR PRADESH"
  },
  {
    "pincode": "273164",
    "officename": "Karamahwa B.O",
    "officeType": "B.O",
    "Deliverystatus": "Delivery",
    "divisionname": "Gorakhpur",
    "regionname": "Gorakhpur",
    "circlename": "Uttar Pradesh",
    "Taluk": "Nautanawa",
    "Districtname": "Maharajganj",
    "statename": "UTTAR PRADESH"
  },
  {
    "pincode": "273164",
    "officename": "Karialia B.O",
    "officeType": "B.O",
    "Deliverystatus": "Delivery",
    "divisionname": "Gorakhpur",
    "regionname": "Gorakhpur",
    "circlename": "Uttar Pradesh",
    "Taluk": "Nautanawa",
    "Districtname": "Maharajganj",
    "statename": "UTTAR PRADESH"
  },
  {
    "pincode": "273164",
    "officename": "Khoria Bazar B.O",
    "officeType": "B.O",
    "Deliverystatus": "Delivery",
    "divisionname": "Gorakhpur",
    "regionname": "Gorakhpur",
    "circlename": "Uttar Pradesh",
    "Taluk": "Nautanawa",
    "Districtname": "Maharajganj",
    "statename": "UTTAR PRADESH"
  },
  {
    "pincode": "273164",
    "officename": "Naikot B.O",
    "officeType": "B.O",
    "Deliverystatus": "Delivery",
    "divisionname": "Gorakhpur",
    "regionname": "Gorakhpur",
    "circlename": "Uttar Pradesh",
    "Taluk": "Nautanawa",
    "Districtname": "Maharajganj",
    "statename": "UTTAR PRADESH"
  },
  {
    "pincode": "273164",
    "officename": "Nautanwa Bazar S.O",
    "officeType": "S.O",
    "Deliverystatus": "Delivery",
    "divisionname": "Gorakhpur",
    "regionname": "Gorakhpur",
    "circlename": "Uttar Pradesh",
    "Taluk": "Maharajganj",
    "Districtname": "Maharajganj",
    "statename": "UTTAR PRADESH"
  },
  {
    "pincode": "273164",
    "officename": "Nipania B.O",
    "officeType": "B.O",
    "Deliverystatus": "Delivery",
    "divisionname": "Gorakhpur",
    "regionname": "Gorakhpur",
    "circlename": "Uttar Pradesh",
    "Taluk": "Nautanwa",
    "Districtname": "Maharajganj",
    "statename": "UTTAR PRADESH"
  },
  {
    "pincode": "273164",
    "officename": "Puraniha B.O",
    "officeType": "B.O",
    "Deliverystatus": "Delivery",
    "divisionname": "Gorakhpur",
    "regionname": "Gorakhpur",
    "circlename": "Uttar Pradesh",
    "Taluk": "Nautanawa",
    "Districtname": "Maharajganj",
    "statename": "UTTAR PRADESH"
  },
  {
    "pincode": "273164",
    "officename": "Ramnagar B.O",
    "officeType": "B.O",
    "Deliverystatus": "Delivery",
    "divisionname": "Gorakhpur",
    "regionname": "Gorakhpur",
    "circlename": "Uttar Pradesh",
    "Taluk": "",
    "Districtname": "Maharajganj",
    "statename": "UTTAR PRADESH"
  },
  {
    "pincode": "273164",
    "officename": "Ratanpur B.O",
    "officeType": "B.O",
    "Deliverystatus": "Delivery",
    "divisionname": "Gorakhpur",
    "regionname": "Gorakhpur",
    "circlename": "Uttar Pradesh",
    "Taluk": "Nautanawa",
    "Districtname": "Maharajganj",
    "statename": "UTTAR PRADESH"
  },
  {
    "pincode": "273164",
    "officename": "Sonauli Bazar B.O",
    "officeType": "B.O",
    "Deliverystatus": "Delivery",
    "divisionname": "Gorakhpur",
    "regionname": "Gorakhpur",
    "circlename": "Uttar Pradesh",
    "Taluk": "Nautanawa",
    "Districtname": "Maharajganj",
    "statename": "UTTAR PRADESH"
  }
]
