[
  {
    "pincode": "273161",
    "officename": "Baisar B.O",
    "officeType": "B.O",
    "Deliverystatus": "Delivery",
    "divisionname": "Gorakhpur",
    "regionname": "Gorakhpur",
    "circlename": "Uttar Pradesh",
    "Taluk": "Farenda",
    "Districtname": "Maharajganj",
    "statename": "UTTAR PRADESH"
  },
  {
    "pincode": "273161",
    "officename": "Bandoh B.O",
    "officeType": "B.O",
    "Deliverystatus": "Delivery",
    "divisionname": "Gorakhpur",
    "regionname": "Gorakhpur",
    "circlename": "Uttar Pradesh",
    "Taluk": "Farenda",
    "Districtname": "Maharajganj",
    "statename": "UTTAR PRADESH"
  },
  {
    "pincode": "273161",
    "officename": "Belouha B.O",
    "officeType": "B.O",
    "Deliverystatus": "Delivery",
    "divisionname": "Gorakhpur",
    "regionname": "Gorakhpur",
    "circlename": "Uttar Pradesh",
    "Taluk": "Farenda",
    "Districtname": "Maharajganj",
    "statename": "UTTAR PRADESH"
  },
  {
    "pincode": "273161",
    "officename": "Dhani Bazar S.O",
    "officeType": "S.O",
    "Deliverystatus": "Delivery",
    "divisionname": "Gorakhpur",
    "regionname": "Gorakhpur",
    "circlename": "Uttar Pradesh",
    "Taluk": "Fharenda",
    "Districtname": "Maharajganj",
    "statename": "UTTAR PRADESH"
  },
  {
    "pincode": "273161",
    "officename": "Mahdewa B.O",
    "officeType": "B.O",
    "Deliverystatus": "Delivery",
    "divisionname": "Gorakhpur",
    "regionname": "Gorakhpur",
    "circlename": "Uttar Pradesh",
    "Taluk": "Farenda",
    "Districtname": "Maharajganj",
    "statename": "UTTAR PRADESH"
  },
  {
    "pincode": "273161",
    "officename": "Marhatha B.O",
    "officeType": "B.O",
    "Deliverystatus": "Delivery",
    "divisionname": "Gorakhpur",
    "regionname": "Gorakhpur",
    "circlename": "Uttar Pradesh",
    "Taluk": "Farenda",
    "Districtname": "Maharajganj",
    "statename": "UTTAR PRADESH"
  },
  {
    "pincode": "273161",
    "officename": "Nausagra B.O",
    "officeType": "B.O",
    "Deliverystatus": "Delivery",
    "divisionname": "Gorakhpur",
    "regionname": "Gorakhpur",
    "circlename": "Uttar Pradesh",
    "Taluk": "Farenda",
    "Districtname": "Maharajganj",
    "statename": "UTTAR PRADESH"
  },
  {
    "pincode": "273161",
    "officename": "Sikandrajitpur B.O",
    "officeType": "B.O",
    "Deliverystatus": "Delivery",
    "divisionname": "Gorakhpur",
    "regionname": "Gorakhpur",
    "circlename": "Uttar Pradesh",
    "Taluk": "Farenda",
    "Districtname": "Maharajganj",
    "statename": "UTTAR PRADESH"
  }
]
