[
  {
    "pincode": "273207",
    "officename": "Badhara Mir B.O",
    "officeType": "B.O",
    "Deliverystatus": "Delivery",
    "divisionname": "Gorakhpur",
    "regionname": "Gorakhpur",
    "circlename": "Uttar Pradesh",
    "Taluk": "Mahrajganj",
    "Districtname": "Maharajganj",
    "statename": "UTTAR PRADESH"
  },
  {
    "pincode": "273207",
    "officename": "Bheria B.O",
    "officeType": "B.O",
    "Deliverystatus": "Delivery",
    "divisionname": "Gorakhpur",
    "regionname": "Gorakhpur",
    "circlename": "Uttar Pradesh",
    "Taluk": "",
    "Districtname": "Maharajganj",
    "statename": "UTTAR PRADESH"
  },
  {
    "pincode": "273207",
    "officename": "Gaunaria B.O",
    "officeType": "B.O",
    "Deliverystatus": "Delivery",
    "divisionname": "Gorakhpur",
    "regionname": "Gorakhpur",
    "circlename": "Uttar Pradesh",
    "Taluk": "Nichlaul",
    "Districtname": "Maharajganj",
    "statename": "UTTAR PRADESH"
  },
  {
    "pincode": "273207",
    "officename": "Jagdaur B.O",
    "officeType": "B.O",
    "Deliverystatus": "Delivery",
    "divisionname": "Gorakhpur",
    "regionname": "Gorakhpur",
    "circlename": "Uttar Pradesh",
    "Taluk": "Nichlaul",
    "Districtname": "Maharajganj",
    "statename": "UTTAR PRADESH"
  },
  {
    "pincode": "273207",
    "officename": "Jamie Pandit B.O",
    "officeType": "B.O",
    "Deliverystatus": "Delivery",
    "divisionname": "Gorakhpur",
    "regionname": "Gorakhpur",
    "circlename": "Uttar Pradesh",
    "Taluk": "Nichlaul",
    "Districtname": "Maharajganj",
    "statename": "UTTAR PRADESH"
  },
  {
    "pincode": "273207",
    "officename": "Madhubani B.O",
    "officeType": "B.O",
    "Deliverystatus": "Delivery",
    "divisionname": "Gorakhpur",
    "regionname": "Gorakhpur",
    "circlename": "Uttar Pradesh",
    "Taluk": "Nichlaul",
    "Districtname": "Maharajganj",
    "statename": "UTTAR PRADESH"
  },
  {
    "pincode": "273207",
    "officename": "Mishraulia B.O",
    "officeType": "B.O",
    "Deliverystatus": "Delivery",
    "divisionname": "Gorakhpur",
    "regionname": "Gorakhpur",
    "circlename": "Uttar Pradesh",
    "Taluk": "Nichlaul",
    "Districtname": "Maharajganj",
    "statename": "UTTAR PRADESH"
  },
  {
    "pincode": "273207",
    "officename": "Mithaura Bazar S.O",
    "officeType": "S.O",
    "Deliverystatus": "Delivery",
    "divisionname": "Gorakhpur",
    "regionname": "Gorakhpur",
    "circlename": "Uttar Pradesh",
    "Taluk": "Nichaulal",
    "Districtname": "Maharajganj",
    "statename": "UTTAR PRADESH"
  },
  {
    "pincode": "273207",
    "officename": "Mujahna Buzurg B.O",
    "officeType": "B.O",
    "Deliverystatus": "Delivery",
    "divisionname": "Gorakhpur",
    "regionname": "Gorakhpur",
    "circlename": "Uttar Pradesh",
    "Taluk": "Mahrajganj",
    "Districtname": "Maharajganj",
    "statename": "UTTAR PRADESH"
  },
  {
    "pincode": "273207",
    "officename": "Pachrenawa B.O",
    "officeType": "B.O",
    "Deliverystatus": "Delivery",
    "divisionname": "Gorakhpur",
    "regionname": "Gorakhpur",
    "circlename": "Uttar Pradesh",
    "Taluk": "Mahrajganj",
    "Districtname": "Maharajganj",
    "statename": "UTTAR PRADESH"
  },
  {
    "pincode": "273207",
    "officename": "Parsauni B.O",
    "officeType": "B.O",
    "Deliverystatus": "Delivery",
    "divisionname": "Gorakhpur",
    "regionname": "Gorakhpur",
    "circlename": "Uttar Pradesh",
    "Taluk": "Mahrajganj",
    "Districtname": "Maharajganj",
    "statename": "UTTAR PRADESH"
  },
  {
    "pincode": "273207",
    "officename": "Pipra Bazar B.O",
    "officeType": "B.O",
    "Deliverystatus": "Delivery",
    "divisionname": "Gorakhpur",
    "regionname": "Gorakhpur",
    "circlename": "Uttar Pradesh",
    "Taluk": "Nichlaul",
    "Districtname": "Maharajganj",
    "statename": "UTTAR PRADESH"
  },
  {
    "pincode": "273207",
    "officename": "Senduria B.O",
    "officeType": "B.O",
    "Deliverystatus": "Delivery",
    "divisionname": "Gorakhpur",
    "regionname": "Gorakhpur",
    "circlename": "Uttar Pradesh",
    "Taluk": "Mahraganj",
    "Districtname": "Maharajganj",
    "statename": "UTTAR PRADESH"
  },
  {
    "pincode": "273207",
    "officename": "Sonbarsa B.O",
    "officeType": "B.O",
    "Deliverystatus": "Delivery",
    "divisionname": "Gorakhpur",
    "regionname": "Gorakhpur",
    "circlename": "Uttar Pradesh",
    "Taluk": "Nichlaul",
    "Districtname": "Maharajganj",
    "statename": "UTTAR PRADESH"
  }
]
