[
  {
    "pincode": "273201",
    "officename": "Baghar B.O",
    "officeType": "B.O",
    "Deliverystatus": "Delivery",
    "divisionname": "Gorakhpur",
    "regionname": "Gorakhpur",
    "circlename": "Uttar Pradesh",
    "Taluk": "Chauri Chaura",
    "Districtname": "Gorakhpur",
    "statename": "UTTAR PRADESH"
  },
  {
    "pincode": "273201",
    "officename": "Bishwnathpur B.O",
    "officeType": "B.O",
    "Deliverystatus": "Delivery",
    "divisionname": "Gorakhpur",
    "regionname": "Gorakhpur",
    "circlename": "Uttar Pradesh",
    "Taluk": "Chauri Chaura",
    "Districtname": "Gorakhpur",
    "statename": "UTTAR PRADESH"
  },
  {
    "pincode": "273201",
    "officename": "Chauri Chaura S.O",
    "officeType": "S.O",
    "Deliverystatus": "Delivery",
    "divisionname": "Gorakhpur",
    "regionname": "Gorakhpur",
    "circlename": "Uttar Pradesh",
    "Taluk": "Chauri Chaura",
    "Districtname": "Gorakhpur",
    "statename": "UTTAR PRADESH"
  },
  {
    "pincode": "273201",
    "officename": "Gaunar B.O",
    "officeType": "B.O",
    "Deliverystatus": "Delivery",
    "divisionname": "Gorakhpur",
    "regionname": "Gorakhpur",
    "circlename": "Uttar Pradesh",
    "Taluk": "Chauri Chaura",
    "Districtname": "Gorakhpur",
    "statename": "UTTAR PRADESH"
  },
  {
    "pincode": "273201",
    "officename": "Mehia B.O",
    "officeType": "B.O",
    "Deliverystatus": "Delivery",
    "divisionname": "Gorakhpur",
    "regionname": "Gorakhpur",
    "circlename": "Uttar Pradesh",
    "Taluk": "Chauri Chaura",
    "Districtname": "Gorakhpur",
    "statename": "UTTAR PRADESH"
  },
  {
    "pincode": "273201",
    "officename": "Mundera Bazar B.O",
    "officeType": "B.O",
    "Deliverystatus": "Delivery",
    "divisionname": "Gorakhpur",
    "regionname": "Gorakhpur",
    "circlename": "Uttar Pradesh",
    "Taluk": "",
    "Districtname": "Gorakhpur",
    "statename": "UTTAR PRADESH"
  },
  {
    "pincode": "273201",
    "officename": "Parsauni B.O",
    "officeType": "B.O",
    "Deliverystatus": "Delivery",
    "divisionname": "Gorakhpur",
    "regionname": "Gorakhpur",
    "circlename": "Uttar Pradesh",
    "Taluk": "Chauri Chaura",
    "Districtname": "Gorakhpur",
    "statename": "UTTAR PRADESH"
  },
  {
    "pincode": "273201",
    "officename": "Pholwaria B.O",
    "officeType": "B.O",
    "Deliverystatus": "Delivery",
    "divisionname": "Gorakhpur",
    "regionname": "Gorakhpur",
    "circlename": "Uttar Pradesh",
    "Taluk": "Chauri Chaura",
    "Districtname": "Gorakhpur",
    "statename": "UTTAR PRADESH"
  },
  {
    "pincode": "273201",
    "officename": "Rampur Rakba B.O",
    "officeType": "B.O",
    "Deliverystatus": "Delivery",
    "divisionname": "Gorakhpur",
    "regionname": "Gorakhpur",
    "circlename": "Uttar Pradesh",
    "Taluk": "Chauri Chaura",
    "Districtname": "Gorakhpur",
    "statename": "UTTAR PRADESH"
  },
  {
    "pincode": "273201",
    "officename": "S Athwa Purvi B.O",
    "officeType": "B.O",
    "Deliverystatus": "Delivery",
    "divisionname": "Gorakhpur",
    "regionname": "Gorakhpur",
    "circlename": "Uttar Pradesh",
    "Taluk": "Chauri Chaura",
    "Districtname": "Gorakhpur",
    "statename": "UTTAR PRADESH"
  },
  {
    "pincode": "273201",
    "officename": "Sonbarsa B.O",
    "officeType": "B.O",
    "Deliverystatus": "Delivery",
    "divisionname": "Gorakhpur",
    "regionname": "Gorakhpur",
    "circlename": "Uttar Pradesh",
    "Taluk": "Chauri Chaura",
    "Districtname": "Gorakhpur",
    "statename": "UTTAR PRADESH"
  }
]
