[
  {
    "pincode": "273406",
    "officename": "Baraipurwa B.O",
    "officeType": "B.O",
    "Deliverystatus": "Delivery",
    "divisionname": "Gorakhpur",
    "regionname": "Gorakhpur",
    "circlename": "Uttar Pradesh",
    "Taluk": "",
    "Districtname": "Gorakhpur",
    "statename": "UTTAR PRADESH"
  },
  {
    "pincode": "273406",
    "officename": "Barni Gopalpur B.O",
    "officeType": "B.O",
    "Deliverystatus": "Delivery",
    "divisionname": "Gorakhpur",
    "regionname": "Gorakhpur",
    "circlename": "Uttar Pradesh",
    "Taluk": "Bansgaon",
    "Districtname": "Gorakhpur",
    "statename": "UTTAR PRADESH"
  },
  {
    "pincode": "273406",
    "officename": "Bhatauli B.O",
    "officeType": "B.O",
    "Deliverystatus": "Delivery",
    "divisionname": "Gorakhpur",
    "regionname": "Gorakhpur",
    "circlename": "Uttar Pradesh",
    "Taluk": "Bansgaon",
    "Districtname": "Gorakhpur",
    "statename": "UTTAR PRADESH"
  },
  {
    "pincode": "273406",
    "officename": "Gaursaira B.O",
    "officeType": "B.O",
    "Deliverystatus": "Delivery",
    "divisionname": "Gorakhpur",
    "regionname": "Gorakhpur",
    "circlename": "Uttar Pradesh",
    "Taluk": "",
    "Districtname": "Gorakhpur",
    "statename": "UTTAR PRADESH"
  },
  {
    "pincode": "273406",
    "officename": "Hardi Chak B.O",
    "officeType": "B.O",
    "Deliverystatus": "Delivery",
    "divisionname": "Gorakhpur",
    "regionname": "Gorakhpur",
    "circlename": "Uttar Pradesh",
    "Taluk": "",
    "Districtname": "Gorakhpur",
    "statename": "UTTAR PRADESH"
  },
  {
    "pincode": "273406",
    "officename": "Ropnari B.O",
    "officeType": "B.O",
    "Deliverystatus": "Delivery",
    "divisionname": "Gorakhpur",
    "regionname": "Gorakhpur",
    "circlename": "Uttar Pradesh",
    "Taluk": "Bansgaon",
    "Districtname": "Gorakhpur",
    "statename": "UTTAR PRADESH"
  },
  {
    "pincode": "273406",
    "officename": "Saraya Tiwari B.O",
    "officeType": "B.O",
    "Deliverystatus": "Delivery",
    "divisionname": "Gorakhpur",
    "regionname": "Gorakhpur",
    "circlename": "Uttar Pradesh",
    "Taluk": "Bansgaon",
    "Districtname": "Gorakhpur",
    "statename": "UTTAR PRADESH"
  },
  {
    "pincode": "273406",
    "officename": "Unwal S.O",
    "officeType": "S.O",
    "Deliverystatus": "Delivery",
    "divisionname": "Gorakhpur",
    "regionname": "Gorakhpur",
    "circlename": "Uttar Pradesh",
    "Taluk": "KHAJANI",
    "Districtname": "Gorakhpur",
    "statename": "UTTAR PRADESH"
  }
]
