[
  {
    "pincode": "273404",
    "officename": "Babhnauli B.O",
    "officeType": "B.O",
    "Deliverystatus": "Delivery",
    "divisionname": "Gorakhpur",
    "regionname": "Gorakhpur",
    "circlename": "Uttar Pradesh",
    "Taluk": "Khajni",
    "Districtname": "Gorakhpur",
    "statename": "UTTAR PRADESH"
  },
  {
    "pincode": "273404",
    "officename": "Belghat S.O",
    "officeType": "S.O",
    "Deliverystatus": "Delivery",
    "divisionname": "Gorakhpur",
    "regionname": "Gorakhpur",
    "circlename": "Uttar Pradesh",
    "Taluk": "",
    "Districtname": "Gorakhpur",
    "statename": "UTTAR PRADESH"
  },
  {
    "pincode": "273404",
    "officename": "Gaighat B.O",
    "officeType": "B.O",
    "Deliverystatus": "Delivery",
    "divisionname": "Gorakhpur",
    "regionname": "Gorakhpur",
    "circlename": "Uttar Pradesh",
    "Taluk": "Khajani",
    "Districtname": "Gorakhpur",
    "statename": "UTTAR PRADESH"
  },
  {
    "pincode": "273404",
    "officename": "Kuri Bazar B.O",
    "officeType": "B.O",
    "Deliverystatus": "Delivery",
    "divisionname": "Gorakhpur",
    "regionname": "Gorakhpur",
    "circlename": "Uttar Pradesh",
    "Taluk": "Khajani",
    "Districtname": "Gorakhpur",
    "statename": "UTTAR PRADESH"
  },
  {
    "pincode": "273404",
    "officename": "Lakhuapakar B.O",
    "officeType": "B.O",
    "Deliverystatus": "Delivery",
    "divisionname": "Gorakhpur",
    "regionname": "Gorakhpur",
    "circlename": "Uttar Pradesh",
    "Taluk": "Khajani",
    "Districtname": "Gorakhpur",
    "statename": "UTTAR PRADESH"
  },
  {
    "pincode": "273404",
    "officename": "Piparshandi B.O",
    "officeType": "B.O",
    "Deliverystatus": "Delivery",
    "divisionname": "Gorakhpur",
    "regionname": "Gorakhpur",
    "circlename": "Uttar Pradesh",
    "Taluk": "Khajani",
    "Districtname": "Gorakhpur",
    "statename": "UTTAR PRADESH"
  },
  {
    "pincode": "273404",
    "officename": "Shankarpur B.O",
    "officeType": "B.O",
    "Deliverystatus": "Delivery",
    "divisionname": "Gorakhpur",
    "regionname": "Gorakhpur",
    "circlename": "Uttar Pradesh",
    "Taluk": "Khajni",
    "Districtname": "Gorakhpur",
    "statename": "UTTAR PRADESH"
  },
  {
    "pincode": "273404",
    "officename": "Siswa Babu B.O",
    "officeType": "B.O",
    "Deliverystatus": "Delivery",
    "divisionname": "Gorakhpur",
    "regionname": "Gorakhpur",
    "circlename": "Uttar Pradesh",
    "Taluk": "",
    "Districtname": "Gorakhpur",
    "statename": "UTTAR PRADESH"
  }
]
