[
  {
    "pincode": "274001",
    "officename": "Babhani B.O",
    "officeType": "B.O",
    "Deliverystatus": "Delivery",
    "divisionname": "Deoria",
    "regionname": "Gorakhpur",
    "circlename": "Uttar Pradesh",
    "Taluk": "",
    "Districtname": "Deoria",
    "statename": "UTTAR PRADESH"
  },
  {
    "pincode": "274001",
    "officename": "Badhaya Buzurg B.O",
    "officeType": "B.O",
    "Deliverystatus": "Delivery",
    "divisionname": "Deoria",
    "regionname": "Gorakhpur",
    "circlename": "Uttar Pradesh",
    "Taluk": "",
    "Districtname": "Deoria",
    "statename": "UTTAR PRADESH"
  },
  {
    "pincode": "274001",
    "officename": "Bairauna B.O",
    "officeType": "B.O",
    "Deliverystatus": "Delivery",
    "divisionname": "Deoria",
    "regionname": "Gorakhpur",
    "circlename": "Uttar Pradesh",
    "Taluk": "",
    "Districtname": "Deoria",
    "statename": "UTTAR PRADESH"
  },
  {
    "pincode": "274001",
    "officename": "Barhara B.O",
    "officeType": "B.O",
    "Deliverystatus": "Delivery",
    "divisionname": "Deoria",
    "regionname": "Gorakhpur",
    "circlename": "Uttar Pradesh",
    "Taluk": "Deoria Sadar",
    "Districtname": "Deoria",
    "statename": "UTTAR PRADESH"
  },
  {
    "pincode": "274001",
    "officename": "Bariarpur B.O",
    "officeType": "B.O",
    "Deliverystatus": "Delivery",
    "divisionname": "Deoria",
    "regionname": "Gorakhpur",
    "circlename": "Uttar Pradesh",
    "Taluk": "",
    "Districtname": "Deoria",
    "statename": "UTTAR PRADESH"
  },
  {
    "pincode": "274001",
    "officename": "Batrauli B.O",
    "officeType": "B.O",
    "Deliverystatus": "Delivery",
    "divisionname": "Deoria",
    "regionname": "Gorakhpur",
    "circlename": "Uttar Pradesh",
    "Taluk": "",
    "Districtname": "Deoria",
    "statename": "UTTAR PRADESH"
  },
  {
    "pincode": "274001",
    "officename": "Belwania B.O",
    "officeType": "B.O",
    "Deliverystatus": "Delivery",
    "divisionname": "Deoria",
    "regionname": "Gorakhpur",
    "circlename": "Uttar Pradesh",
    "Taluk": "",
    "Districtname": "Deoria",
    "statename": "UTTAR PRADESH"
  },
  {
    "pincode": "274001",
    "officename": "Deoria H.O",
    "officeType": "H.O",
    "Deliverystatus": "Delivery",
    "divisionname": "Deoria",
    "regionname": "Gorakhpur",
    "circlename": "Uttar Pradesh",
    "Taluk": "",
    "Districtname": "Deoria",
    "statename": "UTTAR PRADESH"
  },
  {
    "pincode": "274001",
    "officename": "Deoria Kutchary S.O",
    "officeType": "S.O",
    "Deliverystatus": "Non-Delivery",
    "divisionname": "Deoria",
    "regionname": "Gorakhpur",
    "circlename": "Uttar Pradesh",
    "Taluk": "Deoria Sadar",
    "Districtname": "Deoria",
    "statename": "UTTAR PRADESH"
  },
  {
    "pincode": "274001",
    "officename": "Deoria Meer B.O",
    "officeType": "B.O",
    "Deliverystatus": "Delivery",
    "divisionname": "Deoria",
    "regionname": "Gorakhpur",
    "circlename": "Uttar Pradesh",
    "Taluk": "",
    "Districtname": "Deoria",
    "statename": "UTTAR PRADESH"
  },
  {
    "pincode": "274001",
    "officename": "Deoria New Colony S.O",
    "officeType": "S.O",
    "Deliverystatus": "Non-Delivery",
    "divisionname": "Deoria",
    "regionname": "Gorakhpur",
    "circlename": "Uttar Pradesh",
    "Taluk": "Deoria Sadar",
    "Districtname": "Deoria",
    "statename": "UTTAR PRADESH"
  },
  {
    "pincode": "274001",
    "officename": "Deoria Sadar R.S. S.O",
    "officeType": "S.O",
    "Deliverystatus": "Non-Delivery",
    "divisionname": "Deoria",
    "regionname": "Gorakhpur",
    "circlename": "Uttar Pradesh",
    "Taluk": "Deoria Sadar",
    "Districtname": "Deoria",
    "statename": "UTTAR PRADESH"
  },
  {
    "pincode": "274001",
    "officename": "Dhanauti Khurd B.O",
    "officeType": "B.O",
    "Deliverystatus": "Delivery",
    "divisionname": "Deoria",
    "regionname": "Gorakhpur",
    "circlename": "Uttar Pradesh",
    "Taluk": "",
    "Districtname": "Deoria",
    "statename": "UTTAR PRADESH"
  },
  {
    "pincode": "274001",
    "officename": "G.I.Estate B.O",
    "officeType": "B.O",
    "Deliverystatus": "Delivery",
    "divisionname": "Deoria",
    "regionname": "Gorakhpur",
    "circlename": "Uttar Pradesh",
    "Taluk": "Deoria Sadar",
    "Districtname": "Deoria",
    "statename": "UTTAR PRADESH"
  },
  {
    "pincode": "274001",
    "officename": "Garer B.O",
    "officeType": "B.O",
    "Deliverystatus": "Delivery",
    "divisionname": "Deoria",
    "regionname": "Gorakhpur",
    "circlename": "Uttar Pradesh",
    "Taluk": "",
    "Districtname": "Deoria",
    "statename": "UTTAR PRADESH"
  },
  {
    "pincode": "274001",
    "officename": "Hanuman Mandir S.O",
    "officeType": "S.O",
    "Deliverystatus": "Non-Delivery",
    "divisionname": "Deoria",
    "regionname": "Gorakhpur",
    "circlename": "Uttar Pradesh",
    "Taluk": "Deoria Sadar",
    "Districtname": "Deoria",
    "statename": "UTTAR PRADESH"
  },
  {
    "pincode": "274001",
    "officename": "Hata Banuadih B.O",
    "officeType": "B.O",
    "Deliverystatus": "Delivery",
    "divisionname": "Deoria",
    "regionname": "Gorakhpur",
    "circlename": "Uttar Pradesh",
    "Taluk": "Deoria Sadar",
    "Districtname": "Deoria",
    "statename": "UTTAR PRADESH"
  },
  {
    "pincode": "274001",
    "officename": "Katrari B.O",
    "officeType": "B.O",
    "Deliverystatus": "Delivery",
    "divisionname": "Deoria",
    "regionname": "Gorakhpur",
    "circlename": "Uttar Pradesh",
    "Taluk": "",
    "Districtname": "Deoria",
    "statename": "UTTAR PRADESH"
  },
  {
    "pincode": "274001",
    "officename": "Kushahari B.O",
    "officeType": "B.O",
    "Deliverystatus": "Delivery",
    "divisionname": "Deoria",
    "regionname": "Gorakhpur",
    "circlename": "Uttar Pradesh",
    "Taluk": "",
    "Districtname": "Deoria",
    "statename": "UTTAR PRADESH"
  },
  {
    "pincode": "274001",
    "officename": "Lahilpar B.O",
    "officeType": "B.O",
    "Deliverystatus": "Delivery",
    "divisionname": "Deoria",
    "regionname": "Gorakhpur",
    "circlename": "Uttar Pradesh",
    "Taluk": "",
    "Districtname": "Deoria",
    "statename": "UTTAR PRADESH"
  },
  {
    "pincode": "274001",
    "officename": "Majhgaon B.O",
    "officeType": "B.O",
    "Deliverystatus": "Delivery",
    "divisionname": "Deoria",
    "regionname": "Gorakhpur",
    "circlename": "Uttar Pradesh",
    "Taluk": "",
    "Districtname": "Deoria",
    "statename": "UTTAR PRADESH"
  },
  {
    "pincode": "274001",
    "officename": "Nai Bazar S.O (Deoria)",
    "officeType": "S.O",
    "Deliverystatus": "Non-Delivery",
    "divisionname": "Deoria",
    "regionname": "Gorakhpur",
    "circlename": "Uttar Pradesh",
    "Taluk": "Deoria",
    "Districtname": "Deoria",
    "statename": "UTTAR PRADESH"
  },
  {
    "pincode": "274001",
    "officename": "Paikauli Maharaj B.O",
    "officeType": "B.O",
    "Deliverystatus": "Delivery",
    "divisionname": "Deoria",
    "regionname": "Gorakhpur",
    "circlename": "Uttar Pradesh",
    "Taluk": "Deoria",
    "Districtname": "Deoria",
    "statename": "UTTAR PRADESH"
  },
  {
    "pincode": "274001",
    "officename": "Parsia Jaddu B.O",
    "officeType": "B.O",
    "Deliverystatus": "Delivery",
    "divisionname": "Deoria",
    "regionname": "Gorakhpur",
    "circlename": "Uttar Pradesh",
    "Taluk": "",
    "Districtname": "Deoria",
    "statename": "UTTAR PRADESH"
  },
  {
    "pincode": "274001",
    "officename": "Phulwaria Lachhi B.O",
    "officeType": "B.O",
    "Deliverystatus": "Delivery",
    "divisionname": "Deoria",
    "regionname": "Gorakhpur",
    "circlename": "Uttar Pradesh",
    "Taluk": "",
    "Districtname": "Deoria",
    "statename": "UTTAR PRADESH"
  },
  {
    "pincode": "274001",
    "officename": "Pipara Chandrabhan B.O",
    "officeType": "B.O",
    "Deliverystatus": "Delivery",
    "divisionname": "Deoria",
    "regionname": "Gorakhpur",
    "circlename": "Uttar Pradesh",
    "Taluk": "Deoria Sadar",
    "Districtname": "Deoria",
    "statename": "UTTAR PRADESH"
  },
  {
    "pincode": "274001",
    "officename": "Piperpanti B.O",
    "officeType": "B.O",
    "Deliverystatus": "Delivery",
    "divisionname": "Deoria",
    "regionname": "Gorakhpur",
    "circlename": "Uttar Pradesh",
    "Taluk": "",
    "Districtname": "Deoria",
    "statename": "UTTAR PRADESH"
  },
  {
    "pincode": "274001",
    "officename": "Ram Gulam Tola S.O",
    "officeType": "S.O",
    "Deliverystatus": "Non-Delivery",
    "divisionname": "Deoria",
    "regionname": "Gorakhpur",
    "circlename": "Uttar Pradesh",
    "Taluk": "Deoria Sadar",
    "Districtname": "Deoria",
    "statename": "UTTAR PRADESH"
  },
  {
    "pincode": "274001",
    "officename": "Rampur Awasthi B.O",
    "officeType": "B.O",
    "Deliverystatus": "Delivery",
    "divisionname": "Deoria",
    "regionname": "Gorakhpur",
    "circlename": "Uttar Pradesh",
    "Taluk": "",
    "Districtname": "Deoria",
    "statename": "UTTAR PRADESH"
  },
  {
    "pincode": "274001",
    "officename": "S.V.Marg S.O",
    "officeType": "S.O",
    "Deliverystatus": "Non-Delivery",
    "divisionname": "Deoria",
    "regionname": "Gorakhpur",
    "circlename": "Uttar Pradesh",
    "Taluk": "Deoria Sadar",
    "Districtname": "Deoria",
    "statename": "UTTAR PRADESH"
  },
  {
    "pincode": "274001",
    "officename": "Siswa Panday B.O",
    "officeType": "B.O",
    "Deliverystatus": "Delivery",
    "divisionname": "Deoria",
    "regionname": "Gorakhpur",
    "circlename": "Uttar Pradesh",
    "Taluk": "",
    "Districtname": "Deoria",
    "statename": "UTTAR PRADESH"
  },
  {
    "pincode": "274001",
    "officename": "Sonughat B.O",
    "officeType": "B.O",
    "Deliverystatus": "Delivery",
    "divisionname": "Deoria",
    "regionname": "Gorakhpur",
    "circlename": "Uttar Pradesh",
    "Taluk": "",
    "Districtname": "Deoria",
    "statename": "UTTAR PRADESH"
  }
]
