[
  {
    "pincode": "274203",
    "officename": "Arjun Dumari B.O",
    "officeType": "B.O",
    "Deliverystatus": "Delivery",
    "divisionname": "Deoria",
    "regionname": "Gorakhpur",
    "circlename": "Uttar Pradesh",
    "Taluk": "",
    "Districtname": "Kushinagar",
    "statename": "UTTAR PRADESH"
  },
  {
    "pincode": "274203",
    "officename": "Bhaisahi Bazar B.O",
    "officeType": "B.O",
    "Deliverystatus": "Delivery",
    "divisionname": "Deoria",
    "regionname": "Gorakhpur",
    "circlename": "Uttar Pradesh",
    "Taluk": "",
    "Districtname": "Kushinagar",
    "statename": "UTTAR PRADESH"
  },
  {
    "pincode": "274203",
    "officename": "Bhuri Pakar B.O",
    "officeType": "B.O",
    "Deliverystatus": "Delivery",
    "divisionname": "Deoria",
    "regionname": "Gorakhpur",
    "circlename": "Uttar Pradesh",
    "Taluk": "Hata",
    "Districtname": "Kushinagar",
    "statename": "UTTAR PRADESH"
  },
  {
    "pincode": "274203",
    "officename": "Bikram Bhisunpur B.O",
    "officeType": "B.O",
    "Deliverystatus": "Delivery",
    "divisionname": "Deoria",
    "regionname": "Gorakhpur",
    "circlename": "Uttar Pradesh",
    "Taluk": "",
    "Districtname": "Kushinagar",
    "statename": "UTTAR PRADESH"
  },
  {
    "pincode": "274203",
    "officename": "Dharmpur B.O",
    "officeType": "B.O",
    "Deliverystatus": "Delivery",
    "divisionname": "Deoria",
    "regionname": "Gorakhpur",
    "circlename": "Uttar Pradesh",
    "Taluk": "",
    "Districtname": "Kushinagar",
    "statename": "UTTAR PRADESH"
  },
  {
    "pincode": "274203",
    "officename": "Hata S.O",
    "officeType": "S.O",
    "Deliverystatus": "Delivery",
    "divisionname": "Deoria",
    "regionname": "Gorakhpur",
    "circlename": "Uttar Pradesh",
    "Taluk": "",
    "Districtname": "Kushinagar",
    "statename": "UTTAR PRADESH"
  },
  {
    "pincode": "274203",
    "officename": "Jhanga B.O",
    "officeType": "B.O",
    "Deliverystatus": "Delivery",
    "divisionname": "Deoria",
    "regionname": "Gorakhpur",
    "circlename": "Uttar Pradesh",
    "Taluk": "",
    "Districtname": "Kushinagar",
    "statename": "UTTAR PRADESH"
  },
  {
    "pincode": "274203",
    "officename": "Langari B.O",
    "officeType": "B.O",
    "Deliverystatus": "Delivery",
    "divisionname": "Deoria",
    "regionname": "Gorakhpur",
    "circlename": "Uttar Pradesh",
    "Taluk": "",
    "Districtname": "Kushinagar",
    "statename": "UTTAR PRADESH"
  },
  {
    "pincode": "274203",
    "officename": "Narainpur B.O",
    "officeType": "B.O",
    "Deliverystatus": "Delivery",
    "divisionname": "Deoria",
    "regionname": "Gorakhpur",
    "circlename": "Uttar Pradesh",
    "Taluk": "",
    "Districtname": "Kushinagar",
    "statename": "UTTAR PRADESH"
  },
  {
    "pincode": "274203",
    "officename": "Paikauli B.O",
    "officeType": "B.O",
    "Deliverystatus": "Delivery",
    "divisionname": "Deoria",
    "regionname": "Gorakhpur",
    "circlename": "Uttar Pradesh",
    "Taluk": "Hata",
    "Districtname": "Kushinagar",
    "statename": "UTTAR PRADESH"
  },
  {
    "pincode": "274203",
    "officename": "Pipara B.O",
    "officeType": "B.O",
    "Deliverystatus": "Delivery",
    "divisionname": "Deoria",
    "regionname": "Gorakhpur",
    "circlename": "Uttar Pradesh",
    "Taluk": "Hata",
    "Districtname": "Kushinagar",
    "statename": "UTTAR PRADESH"
  },
  {
    "pincode": "274203",
    "officename": "Pipraicha B.O",
    "officeType": "B.O",
    "Deliverystatus": "Delivery",
    "divisionname": "Deoria",
    "regionname": "Gorakhpur",
    "circlename": "Uttar Pradesh",
    "Taluk": "",
    "Districtname": "Kushinagar",
    "statename": "UTTAR PRADESH"
  },
  {
    "pincode": "274203",
    "officename": "Rampur Buzurug B.O",
    "officeType": "B.O",
    "Deliverystatus": "Delivery",
    "divisionname": "Deoria",
    "regionname": "Gorakhpur",
    "circlename": "Uttar Pradesh",
    "Taluk": "",
    "Districtname": "Kushinagar",
    "statename": "UTTAR PRADESH"
  },
  {
    "pincode": "274203",
    "officename": "Rampur Sohrauna B.O",
    "officeType": "B.O",
    "Deliverystatus": "Delivery",
    "divisionname": "Deoria",
    "regionname": "Gorakhpur",
    "circlename": "Uttar Pradesh",
    "Taluk": "",
    "Districtname": "Kushinagar",
    "statename": "UTTAR PRADESH"
  },
  {
    "pincode": "274203",
    "officename": "Sakrauli B.O",
    "officeType": "B.O",
    "Deliverystatus": "Delivery",
    "divisionname": "Deoria",
    "regionname": "Gorakhpur",
    "circlename": "Uttar Pradesh",
    "Taluk": "",
    "Districtname": "Kushinagar",
    "statename": "UTTAR PRADESH"
  },
  {
    "pincode": "274203",
    "officename": "Samogar B.O",
    "officeType": "B.O",
    "Deliverystatus": "Delivery",
    "divisionname": "Deoria",
    "regionname": "Gorakhpur",
    "circlename": "Uttar Pradesh",
    "Taluk": "",
    "Districtname": "Kushinagar",
    "statename": "UTTAR PRADESH"
  },
  {
    "pincode": "274203",
    "officename": "Sirsia B.O",
    "officeType": "B.O",
    "Deliverystatus": "Delivery",
    "divisionname": "Deoria",
    "regionname": "Gorakhpur",
    "circlename": "Uttar Pradesh",
    "Taluk": "",
    "Districtname": "Kushinagar",
    "statename": "UTTAR PRADESH"
  }
]
