[
  {
    "pincode": "274302",
    "officename": "Amawa Digar B.O",
    "officeType": "B.O",
    "Deliverystatus": "Delivery",
    "divisionname": "Deoria",
    "regionname": "Gorakhpur",
    "circlename": "Uttar Pradesh",
    "Taluk": "Tamkuhi Raj",
    "Districtname": "Kushinagar",
    "statename": "UTTAR PRADESH"
  },
  {
    "pincode": "274302",
    "officename": "Bansgaon B.O",
    "officeType": "B.O",
    "Deliverystatus": "Delivery",
    "divisionname": "Deoria",
    "regionname": "Gorakhpur",
    "circlename": "Uttar Pradesh",
    "Taluk": "Padrauna",
    "Districtname": "Kushinagar",
    "statename": "UTTAR PRADESH"
  },
  {
    "pincode": "274302",
    "officename": "Barwa Patti B.O",
    "officeType": "B.O",
    "Deliverystatus": "Delivery",
    "divisionname": "Deoria",
    "regionname": "Gorakhpur",
    "circlename": "Uttar Pradesh",
    "Taluk": "Padrauna",
    "Districtname": "Kushinagar",
    "statename": "UTTAR PRADESH"
  },
  {
    "pincode": "274302",
    "officename": "Bishunpura B.O",
    "officeType": "B.O",
    "Deliverystatus": "Delivery",
    "divisionname": "Deoria",
    "regionname": "Gorakhpur",
    "circlename": "Uttar Pradesh",
    "Taluk": "",
    "Districtname": "Kushinagar",
    "statename": "UTTAR PRADESH"
  },
  {
    "pincode": "274302",
    "officename": "Chaf B.O",
    "officeType": "B.O",
    "Deliverystatus": "Delivery",
    "divisionname": "Deoria",
    "regionname": "Gorakhpur",
    "circlename": "Uttar Pradesh",
    "Taluk": "",
    "Districtname": "Kushinagar",
    "statename": "UTTAR PRADESH"
  },
  {
    "pincode": "274302",
    "officename": "Dashahawa B.O",
    "officeType": "B.O",
    "Deliverystatus": "Delivery",
    "divisionname": "Deoria",
    "regionname": "Gorakhpur",
    "circlename": "Uttar Pradesh",
    "Taluk": "",
    "Districtname": "Kushinagar",
    "statename": "UTTAR PRADESH"
  },
  {
    "pincode": "274302",
    "officename": "Dharampur Parbat B.O",
    "officeType": "B.O",
    "Deliverystatus": "Delivery",
    "divisionname": "Deoria",
    "regionname": "Gorakhpur",
    "circlename": "Uttar Pradesh",
    "Taluk": "",
    "Districtname": "Kushinagar",
    "statename": "UTTAR PRADESH"
  },
  {
    "pincode": "274302",
    "officename": "Dudhai S.O",
    "officeType": "S.O",
    "Deliverystatus": "Delivery",
    "divisionname": "Deoria",
    "regionname": "Gorakhpur",
    "circlename": "Uttar Pradesh",
    "Taluk": "",
    "Districtname": "Kushinagar",
    "statename": "UTTAR PRADESH"
  },
  {
    "pincode": "274302",
    "officename": "Gauri Sriram B.O",
    "officeType": "B.O",
    "Deliverystatus": "Delivery",
    "divisionname": "Deoria",
    "regionname": "Gorakhpur",
    "circlename": "Uttar Pradesh",
    "Taluk": "",
    "Districtname": "Kushinagar",
    "statename": "UTTAR PRADESH"
  },
  {
    "pincode": "274302",
    "officename": "Gurwalia B.O",
    "officeType": "B.O",
    "Deliverystatus": "Delivery",
    "divisionname": "Deoria",
    "regionname": "Gorakhpur",
    "circlename": "Uttar Pradesh",
    "Taluk": "",
    "Districtname": "Kushinagar",
    "statename": "UTTAR PRADESH"
  },
  {
    "pincode": "274302",
    "officename": "Mahuawa Buzurg B.O",
    "officeType": "B.O",
    "Deliverystatus": "Delivery",
    "divisionname": "Deoria",
    "regionname": "Gorakhpur",
    "circlename": "Uttar Pradesh",
    "Taluk": "",
    "Districtname": "Kushinagar",
    "statename": "UTTAR PRADESH"
  },
  {
    "pincode": "274302",
    "officename": "Rampur Barhan B.O",
    "officeType": "B.O",
    "Deliverystatus": "Delivery",
    "divisionname": "Deoria",
    "regionname": "Gorakhpur",
    "circlename": "Uttar Pradesh",
    "Taluk": "",
    "Districtname": "Kushinagar",
    "statename": "UTTAR PRADESH"
  },
  {
    "pincode": "274302",
    "officename": "Tirma Sahun B.O",
    "officeType": "B.O",
    "Deliverystatus": "Delivery",
    "divisionname": "Deoria",
    "regionname": "Gorakhpur",
    "circlename": "Uttar Pradesh",
    "Taluk": "",
    "Districtname": "Kushinagar",
    "statename": "UTTAR PRADESH"
  }
]
