[
  {
    "pincode": "274305",
    "officename": "Amwa Bazar B.O",
    "officeType": "B.O",
    "Deliverystatus": "Delivery",
    "divisionname": "Deoria",
    "regionname": "Gorakhpur",
    "circlename": "Uttar Pradesh",
    "Taluk": "Hata",
    "Districtname": "Kushinagar",
    "statename": "UTTAR PRADESH"
  },
  {
    "pincode": "274305",
    "officename": "Barwa Bazar B.O",
    "officeType": "B.O",
    "Deliverystatus": "Delivery",
    "divisionname": "Deoria",
    "regionname": "Gorakhpur",
    "circlename": "Uttar Pradesh",
    "Taluk": "Padrauna",
    "Districtname": "Kushinagar",
    "statename": "UTTAR PRADESH"
  },
  {
    "pincode": "274305",
    "officename": "Khajuri Bazar B.O",
    "officeType": "B.O",
    "Deliverystatus": "Delivery",
    "divisionname": "Deoria",
    "regionname": "Gorakhpur",
    "circlename": "Uttar Pradesh",
    "Taluk": "",
    "Districtname": "Kushinagar",
    "statename": "UTTAR PRADESH"
  },
  {
    "pincode": "274305",
    "officename": "Kotwa Bazar B.O",
    "officeType": "B.O",
    "Deliverystatus": "Delivery",
    "divisionname": "Deoria",
    "regionname": "Gorakhpur",
    "circlename": "Uttar Pradesh",
    "Taluk": "Padrauna",
    "Districtname": "Kushinagar",
    "statename": "UTTAR PRADESH"
  },
  {
    "pincode": "274305",
    "officename": "Kushumhi B.O",
    "officeType": "B.O",
    "Deliverystatus": "Delivery",
    "divisionname": "Deoria",
    "regionname": "Gorakhpur",
    "circlename": "Uttar Pradesh",
    "Taluk": "",
    "Districtname": "Kushinagar",
    "statename": "UTTAR PRADESH"
  },
  {
    "pincode": "274305",
    "officename": "Morban B.O",
    "officeType": "B.O",
    "Deliverystatus": "Delivery",
    "divisionname": "Deoria",
    "regionname": "Gorakhpur",
    "circlename": "Uttar Pradesh",
    "Taluk": "",
    "Districtname": "Kushinagar",
    "statename": "UTTAR PRADESH"
  },
  {
    "pincode": "274305",
    "officename": "Naurangia B.O",
    "officeType": "B.O",
    "Deliverystatus": "Delivery",
    "divisionname": "Deoria",
    "regionname": "Gorakhpur",
    "circlename": "Uttar Pradesh",
    "Taluk": "",
    "Districtname": "Kushinagar",
    "statename": "UTTAR PRADESH"
  },
  {
    "pincode": "274305",
    "officename": "Pakariyar Bazar B.O",
    "officeType": "B.O",
    "Deliverystatus": "Delivery",
    "divisionname": "Deoria",
    "regionname": "Gorakhpur",
    "circlename": "Uttar Pradesh",
    "Taluk": "",
    "Districtname": "Kushinagar",
    "statename": "UTTAR PRADESH"
  },
  {
    "pincode": "274305",
    "officename": "Parwarpar B.O",
    "officeType": "B.O",
    "Deliverystatus": "Delivery",
    "divisionname": "Deoria",
    "regionname": "Gorakhpur",
    "circlename": "Uttar Pradesh",
    "Taluk": "",
    "Districtname": "Kushinagar",
    "statename": "UTTAR PRADESH"
  },
  {
    "pincode": "274305",
    "officename": "Pipra Bazar B.O",
    "officeType": "B.O",
    "Deliverystatus": "Delivery",
    "divisionname": "Deoria",
    "regionname": "Gorakhpur",
    "circlename": "Uttar Pradesh",
    "Taluk": "",
    "Districtname": "Kushinagar",
    "statename": "UTTAR PRADESH"
  },
  {
    "pincode": "274305",
    "officename": "Rambar Buzurg B.O",
    "officeType": "B.O",
    "Deliverystatus": "Delivery",
    "divisionname": "Deoria",
    "regionname": "Gorakhpur",
    "circlename": "Uttar Pradesh",
    "Taluk": "",
    "Districtname": "Kushinagar",
    "statename": "UTTAR PRADESH"
  },
  {
    "pincode": "274305",
    "officename": "Ramkola S.O",
    "officeType": "S.O",
    "Deliverystatus": "Delivery",
    "divisionname": "Deoria",
    "regionname": "Gorakhpur",
    "circlename": "Uttar Pradesh",
    "Taluk": "Padrauna",
    "Districtname": "Kushinagar",
    "statename": "UTTAR PRADESH"
  },
  {
    "pincode": "274305",
    "officename": "Ruari B.O",
    "officeType": "B.O",
    "Deliverystatus": "Delivery",
    "divisionname": "Deoria",
    "regionname": "Gorakhpur",
    "circlename": "Uttar Pradesh",
    "Taluk": "",
    "Districtname": "Kushinagar",
    "statename": "UTTAR PRADESH"
  },
  {
    "pincode": "274305",
    "officename": "Sidhawey B.O",
    "officeType": "B.O",
    "Deliverystatus": "Delivery",
    "divisionname": "Deoria",
    "regionname": "Gorakhpur",
    "circlename": "Uttar Pradesh",
    "Taluk": "",
    "Districtname": "Kushinagar",
    "statename": "UTTAR PRADESH"
  },
  {
    "pincode": "274305",
    "officename": "Singaha B.O",
    "officeType": "B.O",
    "Deliverystatus": "Delivery",
    "divisionname": "Deoria",
    "regionname": "Gorakhpur",
    "circlename": "Uttar Pradesh",
    "Taluk": "Padrauna",
    "Districtname": "Kushinagar",
    "statename": "UTTAR PRADESH"
  },
  {
    "pincode": "274305",
    "officename": "Tekuatar B.O",
    "officeType": "B.O",
    "Deliverystatus": "Delivery",
    "divisionname": "Deoria",
    "regionname": "Gorakhpur",
    "circlename": "Uttar Pradesh",
    "Taluk": "",
    "Districtname": "Kushinagar",
    "statename": "UTTAR PRADESH"
  }
]
