[
  {
    "pincode": "274409",
    "officename": "Ahiraulidan B.O",
    "officeType": "B.O",
    "Deliverystatus": "Delivery",
    "divisionname": "Deoria",
    "regionname": "Gorakhpur",
    "circlename": "Uttar Pradesh",
    "Taluk": "Tamkuhi",
    "Districtname": "Kushinagar",
    "statename": "UTTAR PRADESH"
  },
  {
    "pincode": "274409",
    "officename": "Baghachaur B.O",
    "officeType": "B.O",
    "Deliverystatus": "Delivery",
    "divisionname": "Deoria",
    "regionname": "Gorakhpur",
    "circlename": "Uttar Pradesh",
    "Taluk": "",
    "Districtname": "Kushinagar",
    "statename": "UTTAR PRADESH"
  },
  {
    "pincode": "274409",
    "officename": "Bahadur Pur B.O",
    "officeType": "B.O",
    "Deliverystatus": "Delivery",
    "divisionname": "Deoria",
    "regionname": "Gorakhpur",
    "circlename": "Uttar Pradesh",
    "Taluk": "",
    "Districtname": "Kushinagar",
    "statename": "UTTAR PRADESH"
  },
  {
    "pincode": "274409",
    "officename": "Jabahi Dayal B.O",
    "officeType": "B.O",
    "Deliverystatus": "Delivery",
    "divisionname": "Deoria",
    "regionname": "Gorakhpur",
    "circlename": "Uttar Pradesh",
    "Taluk": "",
    "Districtname": "Kushinagar",
    "statename": "UTTAR PRADESH"
  },
  {
    "pincode": "274409",
    "officename": "Mathia Sriram B.O",
    "officeType": "B.O",
    "Deliverystatus": "Delivery",
    "divisionname": "Deoria",
    "regionname": "Gorakhpur",
    "circlename": "Uttar Pradesh",
    "Taluk": "",
    "Districtname": "Kushinagar",
    "statename": "UTTAR PRADESH"
  },
  {
    "pincode": "274409",
    "officename": "Pipara Agarwa B.O",
    "officeType": "B.O",
    "Deliverystatus": "Delivery",
    "divisionname": "Deoria",
    "regionname": "Gorakhpur",
    "circlename": "Uttar Pradesh",
    "Taluk": "Tamkuhi",
    "Districtname": "Kushinagar",
    "statename": "UTTAR PRADESH"
  },
  {
    "pincode": "274409",
    "officename": "Salemgarh B.O",
    "officeType": "B.O",
    "Deliverystatus": "Delivery",
    "divisionname": "Deoria",
    "regionname": "Gorakhpur",
    "circlename": "Uttar Pradesh",
    "Taluk": "",
    "Districtname": "Kushinagar",
    "statename": "UTTAR PRADESH"
  },
  {
    "pincode": "274409",
    "officename": "Tarya Lachhiram B.O",
    "officeType": "B.O",
    "Deliverystatus": "Delivery",
    "divisionname": "Deoria",
    "regionname": "Gorakhpur",
    "circlename": "Uttar Pradesh",
    "Taluk": "",
    "Districtname": "Kushinagar",
    "statename": "UTTAR PRADESH"
  },
  {
    "pincode": "274409",
    "officename": "Tarya Sujan S.O",
    "officeType": "S.O",
    "Deliverystatus": "Delivery",
    "divisionname": "Deoria",
    "regionname": "Gorakhpur",
    "circlename": "Uttar Pradesh",
    "Taluk": "",
    "Districtname": "Kushinagar",
    "statename": "UTTAR PRADESH"
  },
  {
    "pincode": "274409",
    "officename": "Vedupar B.O",
    "officeType": "B.O",
    "Deliverystatus": "Delivery",
    "divisionname": "Deoria",
    "regionname": "Gorakhpur",
    "circlename": "Uttar Pradesh",
    "Taluk": "",
    "Districtname": "Kushinagar",
    "statename": "UTTAR PRADESH"
  }
]
