[
  {
    "pincode": "274501",
    "officename": "Baidauli B.O",
    "officeType": "B.O",
    "Deliverystatus": "Delivery",
    "divisionname": "Deoria",
    "regionname": "Gorakhpur",
    "circlename": "Uttar Pradesh",
    "Taluk": "Salempur",
    "Districtname": "Deoria",
    "statename": "UTTAR PRADESH"
  },
  {
    "pincode": "274501",
    "officename": "Baikunth Pur B.O",
    "officeType": "B.O",
    "Deliverystatus": "Delivery",
    "divisionname": "Deoria",
    "regionname": "Gorakhpur",
    "circlename": "Uttar Pradesh",
    "Taluk": "",
    "Districtname": "Deoria",
    "statename": "UTTAR PRADESH"
  },
  {
    "pincode": "274501",
    "officename": "Barhara B.O",
    "officeType": "B.O",
    "Deliverystatus": "Delivery",
    "divisionname": "Deoria",
    "regionname": "Gorakhpur",
    "circlename": "Uttar Pradesh",
    "Taluk": "",
    "Districtname": "Deoria",
    "statename": "UTTAR PRADESH"
  },
  {
    "pincode": "274501",
    "officename": "Bijapur Jhantaur B.O",
    "officeType": "B.O",
    "Deliverystatus": "Delivery",
    "divisionname": "Deoria",
    "regionname": "Gorakhpur",
    "circlename": "Uttar Pradesh",
    "Taluk": "",
    "Districtname": "Deoria",
    "statename": "UTTAR PRADESH"
  },
  {
    "pincode": "274501",
    "officename": "Jaitpura B.O",
    "officeType": "B.O",
    "Deliverystatus": "Delivery",
    "divisionname": "Deoria",
    "regionname": "Gorakhpur",
    "circlename": "Uttar Pradesh",
    "Taluk": "Salempur",
    "Districtname": "Deoria",
    "statename": "UTTAR PRADESH"
  },
  {
    "pincode": "274501",
    "officename": "Karaundi B.O",
    "officeType": "B.O",
    "Deliverystatus": "Delivery",
    "divisionname": "Deoria",
    "regionname": "Gorakhpur",
    "circlename": "Uttar Pradesh",
    "Taluk": "",
    "Districtname": "Deoria",
    "statename": "UTTAR PRADESH"
  },
  {
    "pincode": "274501",
    "officename": "Khukhundoo S.O",
    "officeType": "S.O",
    "Deliverystatus": "Delivery",
    "divisionname": "Deoria",
    "regionname": "Gorakhpur",
    "circlename": "Uttar Pradesh",
    "Taluk": "",
    "Districtname": "Deoria",
    "statename": "UTTAR PRADESH"
  },
  {
    "pincode": "274501",
    "officename": "Majhwalia B.O",
    "officeType": "B.O",
    "Deliverystatus": "Delivery",
    "divisionname": "Deoria",
    "regionname": "Gorakhpur",
    "circlename": "Uttar Pradesh",
    "Taluk": "",
    "Districtname": "Deoria",
    "statename": "UTTAR PRADESH"
  },
  {
    "pincode": "274501",
    "officename": "Noonkhar B.O",
    "officeType": "B.O",
    "Deliverystatus": "Delivery",
    "divisionname": "Deoria",
    "regionname": "Gorakhpur",
    "circlename": "Uttar Pradesh",
    "Taluk": "",
    "Districtname": "Deoria",
    "statename": "UTTAR PRADESH"
  },
  {
    "pincode": "274501",
    "officename": "Parsia Mishir B.O",
    "officeType": "B.O",
    "Deliverystatus": "Delivery",
    "divisionname": "Deoria",
    "regionname": "Gorakhpur",
    "circlename": "Uttar Pradesh",
    "Taluk": "",
    "Districtname": "Deoria",
    "statename": "UTTAR PRADESH"
  },
  {
    "pincode": "274501",
    "officename": "Pipara Shukul B.O",
    "officeType": "B.O",
    "Deliverystatus": "Delivery",
    "divisionname": "Deoria",
    "regionname": "Gorakhpur",
    "circlename": "Uttar Pradesh",
    "Taluk": "",
    "Districtname": "Deoria",
    "statename": "UTTAR PRADESH"
  },
  {
    "pincode": "274501",
    "officename": "Sallahpur B.O",
    "officeType": "B.O",
    "Deliverystatus": "Delivery",
    "divisionname": "Deoria",
    "regionname": "Gorakhpur",
    "circlename": "Uttar Pradesh",
    "Taluk": "",
    "Districtname": "Deoria",
    "statename": "UTTAR PRADESH"
  }
]
