[
  {
    "pincode": "274502",
    "officename": "Babhnauli Pandey B.O",
    "officeType": "B.O",
    "Deliverystatus": "Delivery",
    "divisionname": "Deoria",
    "regionname": "Gorakhpur",
    "circlename": "Uttar Pradesh",
    "Taluk": "",
    "Districtname": "Deoria",
    "statename": "UTTAR PRADESH"
  },
  {
    "pincode": "274502",
    "officename": "Baurdih B.O",
    "officeType": "B.O",
    "Deliverystatus": "Delivery",
    "divisionname": "Deoria",
    "regionname": "Gorakhpur",
    "circlename": "Uttar Pradesh",
    "Taluk": "Salempur",
    "Districtname": "Deoria",
    "statename": "UTTAR PRADESH"
  },
  {
    "pincode": "274502",
    "officename": "Churia B.O",
    "officeType": "B.O",
    "Deliverystatus": "Delivery",
    "divisionname": "Deoria",
    "regionname": "Gorakhpur",
    "circlename": "Uttar Pradesh",
    "Taluk": "",
    "Districtname": "Deoria",
    "statename": "UTTAR PRADESH"
  },
  {
    "pincode": "274502",
    "officename": "Lar S.O",
    "officeType": "S.O",
    "Deliverystatus": "Delivery",
    "divisionname": "Deoria",
    "regionname": "Gorakhpur",
    "circlename": "Uttar Pradesh",
    "Taluk": "Salempur",
    "Districtname": "Deoria",
    "statename": "UTTAR PRADESH"
  },
  {
    "pincode": "274502",
    "officename": "Matiara Jagdish B.O",
    "officeType": "B.O",
    "Deliverystatus": "Delivery",
    "divisionname": "Deoria",
    "regionname": "Gorakhpur",
    "circlename": "Uttar Pradesh",
    "Taluk": "",
    "Districtname": "Deoria",
    "statename": "UTTAR PRADESH"
  },
  {
    "pincode": "274502",
    "officename": "Mehraunaghat B.O",
    "officeType": "B.O",
    "Deliverystatus": "Delivery",
    "divisionname": "Deoria",
    "regionname": "Gorakhpur",
    "circlename": "Uttar Pradesh",
    "Taluk": "",
    "Districtname": "Deoria",
    "statename": "UTTAR PRADESH"
  },
  {
    "pincode": "274502",
    "officename": "Nadauli B.O",
    "officeType": "B.O",
    "Deliverystatus": "Delivery",
    "divisionname": "Deoria",
    "regionname": "Gorakhpur",
    "circlename": "Uttar Pradesh",
    "Taluk": "",
    "Districtname": "Deoria",
    "statename": "UTTAR PRADESH"
  },
  {
    "pincode": "274502",
    "officename": "Naini B.O",
    "officeType": "B.O",
    "Deliverystatus": "Delivery",
    "divisionname": "Deoria",
    "regionname": "Gorakhpur",
    "circlename": "Uttar Pradesh",
    "Taluk": "",
    "Districtname": "Deoria",
    "statename": "UTTAR PRADESH"
  },
  {
    "pincode": "274502",
    "officename": "Rawatpar Amethia B.O",
    "officeType": "B.O",
    "Deliverystatus": "Delivery",
    "divisionname": "Deoria",
    "regionname": "Gorakhpur",
    "circlename": "Uttar Pradesh",
    "Taluk": "",
    "Districtname": "Deoria",
    "statename": "UTTAR PRADESH"
  },
  {
    "pincode": "274502",
    "officename": "Ropan Chhapara B.O",
    "officeType": "B.O",
    "Deliverystatus": "Delivery",
    "divisionname": "Deoria",
    "regionname": "Gorakhpur",
    "circlename": "Uttar Pradesh",
    "Taluk": "Salempur",
    "Districtname": "Deoria",
    "statename": "UTTAR PRADESH"
  },
  {
    "pincode": "274502",
    "officename": "Sutawar B.O",
    "officeType": "B.O",
    "Deliverystatus": "Delivery",
    "divisionname": "Deoria",
    "regionname": "Gorakhpur",
    "circlename": "Uttar Pradesh",
    "Taluk": "",
    "Districtname": "Deoria",
    "statename": "UTTAR PRADESH"
  }
]
