[
  {
    "pincode": "274703",
    "officename": "Bankul B.O",
    "officeType": "B.O",
    "Deliverystatus": "Delivery",
    "divisionname": "Deoria",
    "regionname": "Gorakhpur",
    "circlename": "Uttar Pradesh",
    "Taluk": "Bhatpar Rani",
    "Districtname": "Deoria",
    "statename": "UTTAR PRADESH"
  },
  {
    "pincode": "274703",
    "officename": "Bansopatti B.O",
    "officeType": "B.O",
    "Deliverystatus": "Delivery",
    "divisionname": "Deoria",
    "regionname": "Gorakhpur",
    "circlename": "Uttar Pradesh",
    "Taluk": "Bhatpar Rani",
    "Districtname": "Deoria",
    "statename": "UTTAR PRADESH"
  },
  {
    "pincode": "274703",
    "officename": "Bhawani Chapar B.O",
    "officeType": "B.O",
    "Deliverystatus": "Delivery",
    "divisionname": "Deoria",
    "regionname": "Gorakhpur",
    "circlename": "Uttar Pradesh",
    "Taluk": "",
    "Districtname": "Deoria",
    "statename": "UTTAR PRADESH"
  },
  {
    "pincode": "274703",
    "officename": "Bhopatpura B.O",
    "officeType": "B.O",
    "Deliverystatus": "Delivery",
    "divisionname": "Deoria",
    "regionname": "Gorakhpur",
    "circlename": "Uttar Pradesh",
    "Taluk": "Bhatpar Rani",
    "Districtname": "Deoria",
    "statename": "UTTAR PRADESH"
  },
  {
    "pincode": "274703",
    "officename": "Hata B.O",
    "officeType": "B.O",
    "Deliverystatus": "Delivery",
    "divisionname": "Deoria",
    "regionname": "Gorakhpur",
    "circlename": "Uttar Pradesh",
    "Taluk": "",
    "Districtname": "Deoria",
    "statename": "UTTAR PRADESH"
  },
  {
    "pincode": "274703",
    "officename": "Khurwasia B.O",
    "officeType": "B.O",
    "Deliverystatus": "Delivery",
    "divisionname": "Deoria",
    "regionname": "Gorakhpur",
    "circlename": "Uttar Pradesh",
    "Taluk": "Bhatpar Rani",
    "Districtname": "Deoria",
    "statename": "UTTAR PRADESH"
  },
  {
    "pincode": "274703",
    "officename": "Paratappur S.O",
    "officeType": "S.O",
    "Deliverystatus": "Delivery",
    "divisionname": "Deoria",
    "regionname": "Gorakhpur",
    "circlename": "Uttar Pradesh",
    "Taluk": "Bhatpar Rani",
    "Districtname": "Deoria",
    "statename": "UTTAR PRADESH"
  },
  {
    "pincode": "274703",
    "officename": "Rahimpur B.O",
    "officeType": "B.O",
    "Deliverystatus": "Delivery",
    "divisionname": "Deoria",
    "regionname": "Gorakhpur",
    "circlename": "Uttar Pradesh",
    "Taluk": "Bhatpar Rani",
    "Districtname": "Deoria",
    "statename": "UTTAR PRADESH"
  },
  {
    "pincode": "274703",
    "officename": "Ratsia B.O",
    "officeType": "B.O",
    "Deliverystatus": "Delivery",
    "divisionname": "Deoria",
    "regionname": "Gorakhpur",
    "circlename": "Uttar Pradesh",
    "Taluk": "Bhatpar Rani",
    "Districtname": "Deoria",
    "statename": "UTTAR PRADESH"
  }
]
