[
  {
    "pincode": "274701",
    "officename": "Belwa Baboo B.O",
    "officeType": "B.O",
    "Deliverystatus": "Delivery",
    "divisionname": "Deoria",
    "regionname": "Gorakhpur",
    "circlename": "Uttar Pradesh",
    "Taluk": "Salempur",
    "Districtname": "Deoria",
    "statename": "UTTAR PRADESH"
  },
  {
    "pincode": "274701",
    "officename": "Bharahey Chaura B.O",
    "officeType": "B.O",
    "Deliverystatus": "Delivery",
    "divisionname": "Deoria",
    "regionname": "Gorakhpur",
    "circlename": "Uttar Pradesh",
    "Taluk": "",
    "Districtname": "Deoria",
    "statename": "UTTAR PRADESH"
  },
  {
    "pincode": "274701",
    "officename": "Bhatni S.O",
    "officeType": "S.O",
    "Deliverystatus": "Delivery",
    "divisionname": "Deoria",
    "regionname": "Gorakhpur",
    "circlename": "Uttar Pradesh",
    "Taluk": "Bhatpsar Rani",
    "Districtname": "Deoria",
    "statename": "UTTAR PRADESH"
  },
  {
    "pincode": "274701",
    "officename": "Dumari B.O",
    "officeType": "B.O",
    "Deliverystatus": "Delivery",
    "divisionname": "Deoria",
    "regionname": "Gorakhpur",
    "circlename": "Uttar Pradesh",
    "Taluk": "Salempur",
    "Districtname": "Deoria",
    "statename": "UTTAR PRADESH"
  },
  {
    "pincode": "274701",
    "officename": "Nonapar B.O",
    "officeType": "B.O",
    "Deliverystatus": "Delivery",
    "divisionname": "Deoria",
    "regionname": "Gorakhpur",
    "circlename": "Uttar Pradesh",
    "Taluk": "",
    "Districtname": "Deoria",
    "statename": "UTTAR PRADESH"
  },
  {
    "pincode": "274701",
    "officename": "Padari Bazar B.O",
    "officeType": "B.O",
    "Deliverystatus": "Delivery",
    "divisionname": "Deoria",
    "regionname": "Gorakhpur",
    "circlename": "Uttar Pradesh",
    "Taluk": "",
    "Districtname": "Deoria",
    "statename": "UTTAR PRADESH"
  },
  {
    "pincode": "274701",
    "officename": "Peokol B.O",
    "officeType": "B.O",
    "Deliverystatus": "Delivery",
    "divisionname": "Deoria",
    "regionname": "Gorakhpur",
    "circlename": "Uttar Pradesh",
    "Taluk": "Salempur",
    "Districtname": "Deoria",
    "statename": "UTTAR PRADESH"
  },
  {
    "pincode": "274701",
    "officename": "Pipara Dixit B.O",
    "officeType": "B.O",
    "Deliverystatus": "Delivery",
    "divisionname": "Deoria",
    "regionname": "Gorakhpur",
    "circlename": "Uttar Pradesh",
    "Taluk": "Salempur",
    "Districtname": "Deoria",
    "statename": "UTTAR PRADESH"
  },
  {
    "pincode": "274701",
    "officename": "Puraini B.O",
    "officeType": "B.O",
    "Deliverystatus": "Delivery",
    "divisionname": "Deoria",
    "regionname": "Gorakhpur",
    "circlename": "Uttar Pradesh",
    "Taluk": "Salempur",
    "Districtname": "Deoria",
    "statename": "UTTAR PRADESH"
  },
  {
    "pincode": "274701",
    "officename": "Rampur Khori Bari B.O",
    "officeType": "B.O",
    "Deliverystatus": "Delivery",
    "divisionname": "Deoria",
    "regionname": "Gorakhpur",
    "circlename": "Uttar Pradesh",
    "Taluk": "Salempur",
    "Districtname": "Deoria",
    "statename": "UTTAR PRADESH"
  },
  {
    "pincode": "274701",
    "officename": "Sisawa B.O",
    "officeType": "B.O",
    "Deliverystatus": "Delivery",
    "divisionname": "Deoria",
    "regionname": "Gorakhpur",
    "circlename": "Uttar Pradesh",
    "Taluk": "",
    "Districtname": "Deoria",
    "statename": "UTTAR PRADESH"
  }
]
