[
  {
    "pincode": "275105",
    "officename": "Ariyaso B.O",
    "officeType": "B.O",
    "Deliverystatus": "Delivery",
    "divisionname": "Azamgarh",
    "regionname": "Gorakhpur",
    "circlename": "Uttar Pradesh",
    "Taluk": "Ghosi",
    "Districtname": "Mau",
    "statename": "UTTAR PRADESH"
  },
  {
    "pincode": "275105",
    "officename": "Jamal Mirja Pur S.O",
    "officeType": "S.O",
    "Deliverystatus": "Delivery",
    "divisionname": "Azamgarh",
    "regionname": "Gorakhpur",
    "circlename": "Uttar Pradesh",
    "Taluk": "Maunath Bhanjan",
    "Districtname": "Mau",
    "statename": "UTTAR PRADESH"
  },
  {
    "pincode": "275105",
    "officename": "Kalyanpur B.O",
    "officeType": "B.O",
    "Deliverystatus": "Delivery",
    "divisionname": "Azamgarh",
    "regionname": "Gorakhpur",
    "circlename": "Uttar Pradesh",
    "Taluk": "Ghosi",
    "Districtname": "Mau",
    "statename": "UTTAR PRADESH"
  },
  {
    "pincode": "275105",
    "officename": "Kari Sath B.O",
    "officeType": "B.O",
    "Deliverystatus": "Delivery",
    "divisionname": "Azamgarh",
    "regionname": "Gorakhpur",
    "circlename": "Uttar Pradesh",
    "Taluk": "Ghosi",
    "Districtname": "Mau",
    "statename": "UTTAR PRADESH"
  },
  {
    "pincode": "275105",
    "officename": "Lilari Bharauli B.O",
    "officeType": "B.O",
    "Deliverystatus": "Delivery",
    "divisionname": "Azamgarh",
    "regionname": "Gorakhpur",
    "circlename": "Uttar Pradesh",
    "Taluk": "Ghosi",
    "Districtname": "Mau",
    "statename": "UTTAR PRADESH"
  },
  {
    "pincode": "275105",
    "officename": "Maur Bojh B.O",
    "officeType": "B.O",
    "Deliverystatus": "Delivery",
    "divisionname": "Azamgarh",
    "regionname": "Gorakhpur",
    "circlename": "Uttar Pradesh",
    "Taluk": "Maunath Bhanjan",
    "Districtname": "Mau",
    "statename": "UTTAR PRADESH"
  },
  {
    "pincode": "275105",
    "officename": "Pidhwal B.O",
    "officeType": "B.O",
    "Deliverystatus": "Delivery",
    "divisionname": "Azamgarh",
    "regionname": "Gorakhpur",
    "circlename": "Uttar Pradesh",
    "Taluk": "Ghosi",
    "Districtname": "Mau",
    "statename": "UTTAR PRADESH"
  },
  {
    "pincode": "275105",
    "officename": "Sarai Ganesh B.O",
    "officeType": "B.O",
    "Deliverystatus": "Delivery",
    "divisionname": "Azamgarh",
    "regionname": "Gorakhpur",
    "circlename": "Uttar Pradesh",
    "Taluk": "Ghoshi",
    "Districtname": "Mau",
    "statename": "UTTAR PRADESH"
  }
]
