[
  {
    "pincode": "275202",
    "officename": "Baragaon B.O",
    "officeType": "B.O",
    "Deliverystatus": "Delivery",
    "divisionname": "Ghazipur",
    "regionname": "Allahabad",
    "circlename": "Uttar Pradesh",
    "Taluk": "Saidpur",
    "Districtname": "Ghazipur",
    "statename": "UTTAR PRADESH"
  },
  {
    "pincode": "275202",
    "officename": "Dhamupur B.O",
    "officeType": "B.O",
    "Deliverystatus": "Delivery",
    "divisionname": "Ghazipur",
    "regionname": "Allahabad",
    "circlename": "Uttar Pradesh",
    "Taluk": "Jakhania",
    "Districtname": "Ghazipur",
    "statename": "UTTAR PRADESH"
  },
  {
    "pincode": "275202",
    "officename": "Dullahpur S.O",
    "officeType": "S.O",
    "Deliverystatus": "Delivery",
    "divisionname": "Ghazipur",
    "regionname": "Allahabad",
    "circlename": "Uttar Pradesh",
    "Taluk": "Jakhania",
    "Districtname": "Ghazipur",
    "statename": "UTTAR PRADESH"
  },
  {
    "pincode": "275202",
    "officename": "Hardaspur Kalan B.O",
    "officeType": "B.O",
    "Deliverystatus": "Delivery",
    "divisionname": "Ghazipur",
    "regionname": "Allahabad",
    "circlename": "Uttar Pradesh",
    "Taluk": "Jakhania",
    "Districtname": "Ghazipur",
    "statename": "UTTAR PRADESH"
  },
  {
    "pincode": "275202",
    "officename": "Jalalabad B.O",
    "officeType": "B.O",
    "Deliverystatus": "Delivery",
    "divisionname": "Ghazipur",
    "regionname": "Allahabad",
    "circlename": "Uttar Pradesh",
    "Taluk": "Jakhania",
    "Districtname": "Ghazipur",
    "statename": "UTTAR PRADESH"
  },
  {
    "pincode": "275202",
    "officename": "Lediha B.O",
    "officeType": "B.O",
    "Deliverystatus": "Delivery",
    "divisionname": "Ghazipur",
    "regionname": "Allahabad",
    "circlename": "Uttar Pradesh",
    "Taluk": "Jakhania",
    "Districtname": "Ghazipur",
    "statename": "UTTAR PRADESH"
  },
  {
    "pincode": "275202",
    "officename": "Orarai B.O",
    "officeType": "B.O",
    "Deliverystatus": "Delivery",
    "divisionname": "Ghazipur",
    "regionname": "Allahabad",
    "circlename": "Uttar Pradesh",
    "Taluk": "Jakhania",
    "Districtname": "Ghazipur",
    "statename": "UTTAR PRADESH"
  },
  {
    "pincode": "275202",
    "officename": "Rehti Malipur B.O",
    "officeType": "B.O",
    "Deliverystatus": "Delivery",
    "divisionname": "Ghazipur",
    "regionname": "Allahabad",
    "circlename": "Uttar Pradesh",
    "Taluk": "Jakhania",
    "Districtname": "Ghazipur",
    "statename": "UTTAR PRADESH"
  },
  {
    "pincode": "275202",
    "officename": "Sikhari B.O",
    "officeType": "B.O",
    "Deliverystatus": "Delivery",
    "divisionname": "Ghazipur",
    "regionname": "Allahabad",
    "circlename": "Uttar Pradesh",
    "Taluk": "Jakhanian **",
    "Districtname": "Ghazipur",
    "statename": "UTTAR PRADESH"
  },
  {
    "pincode": "275202",
    "officename": "Tirchhi B.O",
    "officeType": "B.O",
    "Deliverystatus": "Delivery",
    "divisionname": "Ghazipur",
    "regionname": "Allahabad",
    "circlename": "Uttar Pradesh",
    "Taluk": "Jakhania",
    "Districtname": "Ghazipur",
    "statename": "UTTAR PRADESH"
  }
]
