[
  {
    "pincode": "275307",
    "officename": "Bela Sultanpur B.O",
    "officeType": "B.O",
    "Deliverystatus": "Delivery",
    "divisionname": "Azamgarh",
    "regionname": "Gorakhpur",
    "circlename": "Uttar Pradesh",
    "Taluk": "Azamgarh",
    "Districtname": "Azamgarh",
    "statename": "UTTAR PRADESH"
  },
  {
    "pincode": "275307",
    "officename": "Lakhani Mubarakpur B.O",
    "officeType": "B.O",
    "Deliverystatus": "Delivery",
    "divisionname": "Azamgarh",
    "regionname": "Gorakhpur",
    "circlename": "Uttar Pradesh",
    "Taluk": "Ghosi",
    "Districtname": "Mau",
    "statename": "UTTAR PRADESH"
  },
  {
    "pincode": "275307",
    "officename": "Lalitpur B.O",
    "officeType": "B.O",
    "Deliverystatus": "Delivery",
    "divisionname": "Azamgarh",
    "regionname": "Gorakhpur",
    "circlename": "Uttar Pradesh",
    "Taluk": "Ghosi",
    "Districtname": "Mau",
    "statename": "UTTAR PRADESH"
  },
  {
    "pincode": "275307",
    "officename": "Majhwara B.O",
    "officeType": "B.O",
    "Deliverystatus": "Delivery",
    "divisionname": "Azamgarh",
    "regionname": "Gorakhpur",
    "circlename": "Uttar Pradesh",
    "Taluk": "Ghosi",
    "Districtname": "Mau",
    "statename": "UTTAR PRADESH"
  },
  {
    "pincode": "275307",
    "officename": "Makhmelpur B.O",
    "officeType": "B.O",
    "Deliverystatus": "Delivery",
    "divisionname": "Azamgarh",
    "regionname": "Gorakhpur",
    "circlename": "Uttar Pradesh",
    "Taluk": "Ghosi",
    "Districtname": "Mau",
    "statename": "UTTAR PRADESH"
  },
  {
    "pincode": "275307",
    "officename": "Moongmas B.O",
    "officeType": "B.O",
    "Deliverystatus": "Delivery",
    "divisionname": "Azamgarh",
    "regionname": "Gorakhpur",
    "circlename": "Uttar Pradesh",
    "Taluk": "Ghosi",
    "Districtname": "Mau",
    "statename": "UTTAR PRADESH"
  },
  {
    "pincode": "275307",
    "officename": "Parasupur B.O",
    "officeType": "B.O",
    "Deliverystatus": "Delivery",
    "divisionname": "Azamgarh",
    "regionname": "Gorakhpur",
    "circlename": "Uttar Pradesh",
    "Taluk": "Madhuban",
    "Districtname": "Mau",
    "statename": "UTTAR PRADESH"
  },
  {
    "pincode": "275307",
    "officename": "Pawani B.O",
    "officeType": "B.O",
    "Deliverystatus": "Delivery",
    "divisionname": "Azamgarh",
    "regionname": "Gorakhpur",
    "circlename": "Uttar Pradesh",
    "Taluk": "Ghosi",
    "Districtname": "Mau",
    "statename": "UTTAR PRADESH"
  },
  {
    "pincode": "275307",
    "officename": "Semari Jamal Pur S.O",
    "officeType": "S.O",
    "Deliverystatus": "Delivery",
    "divisionname": "Azamgarh",
    "regionname": "Gorakhpur",
    "circlename": "Uttar Pradesh",
    "Taluk": "Ghosi",
    "Districtname": "Mau",
    "statename": "UTTAR PRADESH"
  }
]
