[
  {
    "pincode": "276131",
    "officename": "Bhujahi B.O",
    "officeType": "B.O",
    "Deliverystatus": "Delivery",
    "divisionname": "Azamgarh",
    "regionname": "Gorakhpur",
    "circlename": "Uttar Pradesh",
    "Taluk": "Sadar",
    "Districtname": "Azamgarh",
    "statename": "UTTAR PRADESH"
  },
  {
    "pincode": "276131",
    "officename": "Dharwara B.O",
    "officeType": "B.O",
    "Deliverystatus": "Delivery",
    "divisionname": "Azamgarh",
    "regionname": "Gorakhpur",
    "circlename": "Uttar Pradesh",
    "Taluk": "Sadar",
    "Districtname": "Azamgarh",
    "statename": "UTTAR PRADESH"
  },
  {
    "pincode": "276131",
    "officename": "Jahana Ganj S.O",
    "officeType": "S.O",
    "Deliverystatus": "Delivery",
    "divisionname": "Azamgarh",
    "regionname": "Gorakhpur",
    "circlename": "Uttar Pradesh",
    "Taluk": "Sadar",
    "Districtname": "Azamgarh",
    "statename": "UTTAR PRADESH"
  },
  {
    "pincode": "276131",
    "officename": "Karisath B.O",
    "officeType": "B.O",
    "Deliverystatus": "Delivery",
    "divisionname": "Azamgarh",
    "regionname": "Gorakhpur",
    "circlename": "Uttar Pradesh",
    "Taluk": "Burhanpur",
    "Districtname": "Azamgarh",
    "statename": "UTTAR PRADESH"
  },
  {
    "pincode": "276131",
    "officename": "Khoulukhor B.O",
    "officeType": "B.O",
    "Deliverystatus": "Delivery",
    "divisionname": "Azamgarh",
    "regionname": "Gorakhpur",
    "circlename": "Uttar Pradesh",
    "Taluk": "Burhanpur",
    "Districtname": "Azamgarh",
    "statename": "UTTAR PRADESH"
  },
  {
    "pincode": "276131",
    "officename": "Koilari B.O",
    "officeType": "B.O",
    "Deliverystatus": "Delivery",
    "divisionname": "Azamgarh",
    "regionname": "Gorakhpur",
    "circlename": "Uttar Pradesh",
    "Taluk": "Burhanpur",
    "Districtname": "Azamgarh",
    "statename": "UTTAR PRADESH"
  },
  {
    "pincode": "276131",
    "officename": "Lapsipur B.O",
    "officeType": "B.O",
    "Deliverystatus": "Delivery",
    "divisionname": "Azamgarh",
    "regionname": "Gorakhpur",
    "circlename": "Uttar Pradesh",
    "Taluk": "Mehnagar **",
    "Districtname": "Azamgarh",
    "statename": "UTTAR PRADESH"
  },
  {
    "pincode": "276131",
    "officename": "Mahuyamurarpur B.O",
    "officeType": "B.O",
    "Deliverystatus": "Delivery",
    "divisionname": "Azamgarh",
    "regionname": "Gorakhpur",
    "circlename": "Uttar Pradesh",
    "Taluk": "Burhanpur",
    "Districtname": "Azamgarh",
    "statename": "UTTAR PRADESH"
  },
  {
    "pincode": "276131",
    "officename": "Mittupur B.O",
    "officeType": "B.O",
    "Deliverystatus": "Delivery",
    "divisionname": "Azamgarh",
    "regionname": "Gorakhpur",
    "circlename": "Uttar Pradesh",
    "Taluk": "Burhanpur",
    "Districtname": "Azamgarh",
    "statename": "UTTAR PRADESH"
  },
  {
    "pincode": "276131",
    "officename": "Punargi B.O",
    "officeType": "B.O",
    "Deliverystatus": "Delivery",
    "divisionname": "Azamgarh",
    "regionname": "Gorakhpur",
    "circlename": "Uttar Pradesh",
    "Taluk": "Burhanpur",
    "Districtname": "Azamgarh",
    "statename": "UTTAR PRADESH"
  },
  {
    "pincode": "276131",
    "officename": "Sema B.O",
    "officeType": "B.O",
    "Deliverystatus": "Delivery",
    "divisionname": "Azamgarh",
    "regionname": "Gorakhpur",
    "circlename": "Uttar Pradesh",
    "Taluk": "Sadar",
    "Districtname": "Azamgarh",
    "statename": "UTTAR PRADESH"
  }
]
