[
  {
    "pincode": "276128",
    "officename": "Badaura B.O",
    "officeType": "B.O",
    "Deliverystatus": "Delivery",
    "divisionname": "Azamgarh",
    "regionname": "Gorakhpur",
    "circlename": "Uttar Pradesh",
    "Taluk": "Sadar",
    "Districtname": "Azamgarh",
    "statename": "UTTAR PRADESH"
  },
  {
    "pincode": "276128",
    "officename": "Bhangaha B.O",
    "officeType": "B.O",
    "Deliverystatus": "Delivery",
    "divisionname": "Azamgarh",
    "regionname": "Gorakhpur",
    "circlename": "Uttar Pradesh",
    "Taluk": "Sadar",
    "Districtname": "Azamgarh",
    "statename": "UTTAR PRADESH"
  },
  {
    "pincode": "276128",
    "officename": "Chandesar S.O",
    "officeType": "S.O",
    "Deliverystatus": "Delivery",
    "divisionname": "Azamgarh",
    "regionname": "Gorakhpur",
    "circlename": "Uttar Pradesh",
    "Taluk": "Sadar",
    "Districtname": "Azamgarh",
    "statename": "UTTAR PRADESH"
  },
  {
    "pincode": "276128",
    "officename": "Deeha B.O",
    "officeType": "B.O",
    "Deliverystatus": "Delivery",
    "divisionname": "Azamgarh",
    "regionname": "Gorakhpur",
    "circlename": "Uttar Pradesh",
    "Taluk": "Lalganj",
    "Districtname": "Azamgarh",
    "statename": "UTTAR PRADESH"
  },
  {
    "pincode": "276128",
    "officename": "Gambhir Ban B.O",
    "officeType": "B.O",
    "Deliverystatus": "Delivery",
    "divisionname": "Azamgarh",
    "regionname": "Gorakhpur",
    "circlename": "Uttar Pradesh",
    "Taluk": "Jahana Ganj",
    "Districtname": "Azamgarh",
    "statename": "UTTAR PRADESH"
  },
  {
    "pincode": "276128",
    "officename": "Gopal Pur Sadar B.O",
    "officeType": "B.O",
    "Deliverystatus": "Delivery",
    "divisionname": "Azamgarh",
    "regionname": "Gorakhpur",
    "circlename": "Uttar Pradesh",
    "Taluk": "",
    "Districtname": "Azamgarh",
    "statename": "UTTAR PRADESH"
  },
  {
    "pincode": "276128",
    "officename": "Jamal Pur B.O",
    "officeType": "B.O",
    "Deliverystatus": "Delivery",
    "divisionname": "Azamgarh",
    "regionname": "Gorakhpur",
    "circlename": "Uttar Pradesh",
    "Taluk": "Sadar",
    "Districtname": "Azamgarh",
    "statename": "UTTAR PRADESH"
  },
  {
    "pincode": "276128",
    "officename": "Kanaila B.O",
    "officeType": "B.O",
    "Deliverystatus": "Delivery",
    "divisionname": "Azamgarh",
    "regionname": "Gorakhpur",
    "circlename": "Uttar Pradesh",
    "Taluk": "Mehnagar **",
    "Districtname": "Azamgarh",
    "statename": "UTTAR PRADESH"
  },
  {
    "pincode": "276128",
    "officename": "Kisun Pur B.O",
    "officeType": "B.O",
    "Deliverystatus": "Delivery",
    "divisionname": "Azamgarh",
    "regionname": "Gorakhpur",
    "circlename": "Uttar Pradesh",
    "Taluk": "Jahana Ganj",
    "Districtname": "Azamgarh",
    "statename": "UTTAR PRADESH"
  },
  {
    "pincode": "276128",
    "officename": "Mohamdalla B.O",
    "officeType": "B.O",
    "Deliverystatus": "Delivery",
    "divisionname": "Azamgarh",
    "regionname": "Gorakhpur",
    "circlename": "Uttar Pradesh",
    "Taluk": "",
    "Districtname": "Azamgarh",
    "statename": "UTTAR PRADESH"
  },
  {
    "pincode": "276128",
    "officename": "Palhani B.O",
    "officeType": "B.O",
    "Deliverystatus": "Delivery",
    "divisionname": "Azamgarh",
    "regionname": "Gorakhpur",
    "circlename": "Uttar Pradesh",
    "Taluk": "Sadar",
    "Districtname": "Azamgarh",
    "statename": "UTTAR PRADESH"
  },
  {
    "pincode": "276128",
    "officename": "Samaida B.O",
    "officeType": "B.O",
    "Deliverystatus": "Delivery",
    "divisionname": "Azamgarh",
    "regionname": "Gorakhpur",
    "circlename": "Uttar Pradesh",
    "Taluk": "Lalganj",
    "Districtname": "Azamgarh",
    "statename": "UTTAR PRADESH"
  },
  {
    "pincode": "276128",
    "officename": "Sewata B.O",
    "officeType": "B.O",
    "Deliverystatus": "Delivery",
    "divisionname": "Azamgarh",
    "regionname": "Gorakhpur",
    "circlename": "Uttar Pradesh",
    "Taluk": "Sadar",
    "Districtname": "Azamgarh",
    "statename": "UTTAR PRADESH"
  },
  {
    "pincode": "276128",
    "officename": "Sidhari, B.O",
    "officeType": "B.O",
    "Deliverystatus": "Non-Delivery",
    "divisionname": "Azamgarh",
    "regionname": "Gorakhpur",
    "circlename": "Uttar Pradesh",
    "Taluk": "",
    "Districtname": "Azamgarh",
    "statename": "UTTAR PRADESH"
  },
  {
    "pincode": "276128",
    "officename": "Uchagaon B.O",
    "officeType": "B.O",
    "Deliverystatus": "Delivery",
    "divisionname": "Azamgarh",
    "regionname": "Gorakhpur",
    "circlename": "Uttar Pradesh",
    "Taluk": "Sadar",
    "Districtname": "Azamgarh",
    "statename": "UTTAR PRADESH"
  },
  {
    "pincode": "276128",
    "officename": "Zafarpur B.O",
    "officeType": "B.O",
    "Deliverystatus": "Delivery",
    "divisionname": "Azamgarh",
    "regionname": "Gorakhpur",
    "circlename": "Uttar Pradesh",
    "Taluk": "Azamgarh",
    "Districtname": "Azamgarh",
    "statename": "UTTAR PRADESH"
  }
]
