[
  {
    "pincode": "277121",
    "officename": "Balesara B.O",
    "officeType": "B.O",
    "Deliverystatus": "Delivery",
    "divisionname": "Ballia",
    "regionname": "Gorakhpur",
    "circlename": "Uttar Pradesh",
    "Taluk": "Ballia",
    "Districtname": "Ballia",
    "statename": "UTTAR PRADESH"
  },
  {
    "pincode": "277121",
    "officename": "Budhuan B.O",
    "officeType": "B.O",
    "Deliverystatus": "Delivery",
    "divisionname": "Ballia",
    "regionname": "Gorakhpur",
    "circlename": "Uttar Pradesh",
    "Taluk": "Rasra",
    "Districtname": "Ballia",
    "statename": "UTTAR PRADESH"
  },
  {
    "pincode": "277121",
    "officename": "Garwar S.O",
    "officeType": "S.O",
    "Deliverystatus": "Delivery",
    "divisionname": "Ballia",
    "regionname": "Gorakhpur",
    "circlename": "Uttar Pradesh",
    "Taluk": "Ballia",
    "Districtname": "Ballia",
    "statename": "UTTAR PRADESH"
  },
  {
    "pincode": "277121",
    "officename": "Jigini B.O",
    "officeType": "B.O",
    "Deliverystatus": "Delivery",
    "divisionname": "Ballia",
    "regionname": "Gorakhpur",
    "circlename": "Uttar Pradesh",
    "Taluk": "Ballia",
    "Districtname": "Ballia",
    "statename": "UTTAR PRADESH"
  },
  {
    "pincode": "277121",
    "officename": "Kharahatar B.O",
    "officeType": "B.O",
    "Deliverystatus": "Delivery",
    "divisionname": "Ballia",
    "regionname": "Gorakhpur",
    "circlename": "Uttar Pradesh",
    "Taluk": "Ballia",
    "Districtname": "Ballia",
    "statename": "UTTAR PRADESH"
  },
  {
    "pincode": "277121",
    "officename": "Kurejee B.O",
    "officeType": "B.O",
    "Deliverystatus": "Delivery",
    "divisionname": "Ballia",
    "regionname": "Gorakhpur",
    "circlename": "Uttar Pradesh",
    "Taluk": "Ballia",
    "Districtname": "Ballia",
    "statename": "UTTAR PRADESH"
  },
  {
    "pincode": "277121",
    "officename": "Saraya B.O",
    "officeType": "B.O",
    "Deliverystatus": "Delivery",
    "divisionname": "Ballia",
    "regionname": "Gorakhpur",
    "circlename": "Uttar Pradesh",
    "Taluk": "Ballia",
    "Districtname": "Ballia",
    "statename": "UTTAR PRADESH"
  },
  {
    "pincode": "277121",
    "officename": "Shahpur B.O",
    "officeType": "B.O",
    "Deliverystatus": "Delivery",
    "divisionname": "Ballia",
    "regionname": "Gorakhpur",
    "circlename": "Uttar Pradesh",
    "Taluk": "Ballia",
    "Districtname": "Ballia",
    "statename": "UTTAR PRADESH"
  }
]
