[
  {
    "pincode": "277208",
    "officename": "Chakia B.O",
    "officeType": "B.O",
    "Deliverystatus": "Delivery",
    "divisionname": "Ballia",
    "regionname": "Gorakhpur",
    "circlename": "Uttar Pradesh",
    "Taluk": "Bairia",
    "Districtname": "Ballia",
    "statename": "UTTAR PRADESH"
  },
  {
    "pincode": "277208",
    "officename": "Durjanpur B.O",
    "officeType": "B.O",
    "Deliverystatus": "Delivery",
    "divisionname": "Ballia",
    "regionname": "Gorakhpur",
    "circlename": "Uttar Pradesh",
    "Taluk": "Bairia",
    "Districtname": "Ballia",
    "statename": "UTTAR PRADESH"
  },
  {
    "pincode": "277208",
    "officename": "Gonhia Chapra B.O",
    "officeType": "B.O",
    "Deliverystatus": "Delivery",
    "divisionname": "Ballia",
    "regionname": "Gorakhpur",
    "circlename": "Uttar Pradesh",
    "Taluk": "Bairia",
    "Districtname": "Ballia",
    "statename": "UTTAR PRADESH"
  },
  {
    "pincode": "277208",
    "officename": "Gopalnagar B.O",
    "officeType": "B.O",
    "Deliverystatus": "Delivery",
    "divisionname": "Ballia",
    "regionname": "Gorakhpur",
    "circlename": "Uttar Pradesh",
    "Taluk": "Bairia",
    "Districtname": "Ballia",
    "statename": "UTTAR PRADESH"
  },
  {
    "pincode": "277208",
    "officename": "Ibrahima Bad B.O",
    "officeType": "B.O",
    "Deliverystatus": "Delivery",
    "divisionname": "Ballia",
    "regionname": "Gorakhpur",
    "circlename": "Uttar Pradesh",
    "Taluk": "Bairia",
    "Districtname": "Ballia",
    "statename": "UTTAR PRADESH"
  },
  {
    "pincode": "277208",
    "officename": "Jamalpur B.O",
    "officeType": "B.O",
    "Deliverystatus": "Delivery",
    "divisionname": "Ballia",
    "regionname": "Gorakhpur",
    "circlename": "Uttar Pradesh",
    "Taluk": "Bairia",
    "Districtname": "Ballia",
    "statename": "UTTAR PRADESH"
  },
  {
    "pincode": "277208",
    "officename": "Karmanpur B.O",
    "officeType": "B.O",
    "Deliverystatus": "Delivery",
    "divisionname": "Ballia",
    "regionname": "Gorakhpur",
    "circlename": "Uttar Pradesh",
    "Taluk": "Bairia",
    "Districtname": "Ballia",
    "statename": "UTTAR PRADESH"
  },
  {
    "pincode": "277208",
    "officename": "Madhubani B.O",
    "officeType": "B.O",
    "Deliverystatus": "Delivery",
    "divisionname": "Ballia",
    "regionname": "Gorakhpur",
    "circlename": "Uttar Pradesh",
    "Taluk": "Bairia",
    "Districtname": "Ballia",
    "statename": "UTTAR PRADESH"
  },
  {
    "pincode": "277208",
    "officename": "Narayengarh B.O",
    "officeType": "B.O",
    "Deliverystatus": "Delivery",
    "divisionname": "Ballia",
    "regionname": "Gorakhpur",
    "circlename": "Uttar Pradesh",
    "Taluk": "Bairia",
    "Districtname": "Ballia",
    "statename": "UTTAR PRADESH"
  },
  {
    "pincode": "277208",
    "officename": "Raniganj Bazar S.O",
    "officeType": "S.O",
    "Deliverystatus": "Delivery",
    "divisionname": "Ballia",
    "regionname": "Gorakhpur",
    "circlename": "Uttar Pradesh",
    "Taluk": "Bairia",
    "Districtname": "Ballia",
    "statename": "UTTAR PRADESH"
  },
  {
    "pincode": "277208",
    "officename": "Sonbarsa B.O",
    "officeType": "B.O",
    "Deliverystatus": "Delivery",
    "divisionname": "Ballia",
    "regionname": "Gorakhpur",
    "circlename": "Uttar Pradesh",
    "Taluk": "Bairia",
    "Districtname": "Ballia",
    "statename": "UTTAR PRADESH"
  },
  {
    "pincode": "277208",
    "officename": "Suremanpur B.O",
    "officeType": "B.O",
    "Deliverystatus": "Delivery",
    "divisionname": "Ballia",
    "regionname": "Gorakhpur",
    "circlename": "Uttar Pradesh",
    "Taluk": "Bairia",
    "Districtname": "Ballia",
    "statename": "UTTAR PRADESH"
  }
]
