[
  {
    "pincode": "281201",
    "officename": "Ahamadpur B.O",
    "officeType": "B.O",
    "Deliverystatus": "Delivery",
    "divisionname": "Mathura",
    "regionname": "Agra",
    "circlename": "Uttar Pradesh",
    "Taluk": "Mant",
    "Districtname": "Mathura",
    "statename": "UTTAR PRADESH"
  },
  {
    "pincode": "281201",
    "officename": "Awakhera B.O",
    "officeType": "B.O",
    "Deliverystatus": "Delivery",
    "divisionname": "Mathura",
    "regionname": "Agra",
    "circlename": "Uttar Pradesh",
    "Taluk": "Mant",
    "Districtname": "Mathura",
    "statename": "UTTAR PRADESH"
  },
  {
    "pincode": "281201",
    "officename": "Bajna S.O (Mathura)",
    "officeType": "S.O",
    "Deliverystatus": "Delivery",
    "divisionname": "Mathura",
    "regionname": "Agra",
    "circlename": "Uttar Pradesh",
    "Taluk": "Mant",
    "Districtname": "Mathura",
    "statename": "UTTAR PRADESH"
  },
  {
    "pincode": "281201",
    "officename": "Barauth B.O",
    "officeType": "B.O",
    "Deliverystatus": "Delivery",
    "divisionname": "Mathura",
    "regionname": "Agra",
    "circlename": "Uttar Pradesh",
    "Taluk": "Mant",
    "Districtname": "Mathura",
    "statename": "UTTAR PRADESH"
  },
  {
    "pincode": "281201",
    "officename": "Chandpur B.O",
    "officeType": "B.O",
    "Deliverystatus": "Delivery",
    "divisionname": "Mathura",
    "regionname": "Agra",
    "circlename": "Uttar Pradesh",
    "Taluk": "Mant",
    "Districtname": "Mathura",
    "statename": "UTTAR PRADESH"
  },
  {
    "pincode": "281201",
    "officename": "Edalgarhi B.O",
    "officeType": "B.O",
    "Deliverystatus": "Delivery",
    "divisionname": "Mathura",
    "regionname": "Agra",
    "circlename": "Uttar Pradesh",
    "Taluk": "Mant",
    "Districtname": "Mathura",
    "statename": "UTTAR PRADESH"
  },
  {
    "pincode": "281201",
    "officename": "Kolahar B.O",
    "officeType": "B.O",
    "Deliverystatus": "Delivery",
    "divisionname": "Mathura",
    "regionname": "Agra",
    "circlename": "Uttar Pradesh",
    "Taluk": "Mant",
    "Districtname": "Mathura",
    "statename": "UTTAR PRADESH"
  },
  {
    "pincode": "281201",
    "officename": "Managarhi B.O",
    "officeType": "B.O",
    "Deliverystatus": "Delivery",
    "divisionname": "Mathura",
    "regionname": "Agra",
    "circlename": "Uttar Pradesh",
    "Taluk": "Mant",
    "Districtname": "Mathura",
    "statename": "UTTAR PRADESH"
  },
  {
    "pincode": "281201",
    "officename": "Matholi B.O",
    "officeType": "B.O",
    "Deliverystatus": "Delivery",
    "divisionname": "Mathura",
    "regionname": "Agra",
    "circlename": "Uttar Pradesh",
    "Taluk": "Mant",
    "Districtname": "Mathura",
    "statename": "UTTAR PRADESH"
  },
  {
    "pincode": "281201",
    "officename": "Parasoli B.O",
    "officeType": "B.O",
    "Deliverystatus": "Delivery",
    "divisionname": "Mathura",
    "regionname": "Agra",
    "circlename": "Uttar Pradesh",
    "Taluk": "Mant",
    "Districtname": "Mathura",
    "statename": "UTTAR PRADESH"
  },
  {
    "pincode": "281201",
    "officename": "Pchahara B.O",
    "officeType": "B.O",
    "Deliverystatus": "Delivery",
    "divisionname": "Mathura",
    "regionname": "Agra",
    "circlename": "Uttar Pradesh",
    "Taluk": "Mant",
    "Districtname": "Mathura",
    "statename": "UTTAR PRADESH"
  },
  {
    "pincode": "281201",
    "officename": "Sakatpur B.O",
    "officeType": "B.O",
    "Deliverystatus": "Delivery",
    "divisionname": "Mathura",
    "regionname": "Agra",
    "circlename": "Uttar Pradesh",
    "Taluk": "Mant",
    "Districtname": "Mathura",
    "statename": "UTTAR PRADESH"
  },
  {
    "pincode": "281201",
    "officename": "Shall B.O",
    "officeType": "B.O",
    "Deliverystatus": "Delivery",
    "divisionname": "Mathura",
    "regionname": "Agra",
    "circlename": "Uttar Pradesh",
    "Taluk": "Mant",
    "Districtname": "Mathura",
    "statename": "UTTAR PRADESH"
  }
]
