[
  {
    "pincode": "281306",
    "officename": "Basamaroo B.O",
    "officeType": "B.O",
    "Deliverystatus": "Delivery",
    "divisionname": "Mathura",
    "regionname": "Agra",
    "circlename": "Uttar Pradesh",
    "Taluk": "Sadabad",
    "Districtname": "Hathras",
    "statename": "UTTAR PRADESH"
  },
  {
    "pincode": "281306",
    "officename": "Bedai B.O",
    "officeType": "B.O",
    "Deliverystatus": "Delivery",
    "divisionname": "Mathura",
    "regionname": "Agra",
    "circlename": "Uttar Pradesh",
    "Taluk": "Sadabad",
    "Districtname": "Hathras",
    "statename": "UTTAR PRADESH"
  },
  {
    "pincode": "281306",
    "officename": "Edalpur B.O",
    "officeType": "B.O",
    "Deliverystatus": "Delivery",
    "divisionname": "Mathura",
    "regionname": "Agra",
    "circlename": "Uttar Pradesh",
    "Taluk": "Sadabad",
    "Districtname": "Hathras",
    "statename": "UTTAR PRADESH"
  },
  {
    "pincode": "281306",
    "officename": "Jarau B.O",
    "officeType": "B.O",
    "Deliverystatus": "Delivery",
    "divisionname": "Mathura",
    "regionname": "Agra",
    "circlename": "Uttar Pradesh",
    "Taluk": "Sadabad",
    "Districtname": "Hathras",
    "statename": "UTTAR PRADESH"
  },
  {
    "pincode": "281306",
    "officename": "Karkauli B.O",
    "officeType": "B.O",
    "Deliverystatus": "Delivery",
    "divisionname": "Mathura",
    "regionname": "Agra",
    "circlename": "Uttar Pradesh",
    "Taluk": "Sadabad",
    "Districtname": "Hathras",
    "statename": "UTTAR PRADESH"
  },
  {
    "pincode": "281306",
    "officename": "Khajauthi B.O",
    "officeType": "B.O",
    "Deliverystatus": "Delivery",
    "divisionname": "Mathura",
    "regionname": "Agra",
    "circlename": "Uttar Pradesh",
    "Taluk": "Sadabad",
    "Districtname": "Hathras",
    "statename": "UTTAR PRADESH"
  },
  {
    "pincode": "281306",
    "officename": "Naugaon B.O",
    "officeType": "B.O",
    "Deliverystatus": "Delivery",
    "divisionname": "Mathura",
    "regionname": "Agra",
    "circlename": "Uttar Pradesh",
    "Taluk": "Sadabad",
    "Districtname": "Hathras",
    "statename": "UTTAR PRADESH"
  },
  {
    "pincode": "281306",
    "officename": "Sadabad S.O",
    "officeType": "S.O",
    "Deliverystatus": "Delivery",
    "divisionname": "Mathura",
    "regionname": "Agra",
    "circlename": "Uttar Pradesh",
    "Taluk": "Sadabad",
    "Districtname": "Hathras",
    "statename": "UTTAR PRADESH"
  },
  {
    "pincode": "281306",
    "officename": "Salempur B.O",
    "officeType": "B.O",
    "Deliverystatus": "Delivery",
    "divisionname": "Mathura",
    "regionname": "Agra",
    "circlename": "Uttar Pradesh",
    "Taluk": "Sadabad",
    "Districtname": "Hathras",
    "statename": "UTTAR PRADESH"
  },
  {
    "pincode": "281306",
    "officename": "Samadpur B.O",
    "officeType": "B.O",
    "Deliverystatus": "Delivery",
    "divisionname": "Mathura",
    "regionname": "Agra",
    "circlename": "Uttar Pradesh",
    "Taluk": "Sadabad",
    "Districtname": "Hathras",
    "statename": "UTTAR PRADESH"
  }
]
