[
  {
    "pincode": "281403",
    "officename": "Barchawali B.O",
    "officeType": "B.O",
    "Deliverystatus": "Delivery",
    "divisionname": "Mathura",
    "regionname": "Agra",
    "circlename": "Uttar Pradesh",
    "Taluk": "Chhata",
    "Districtname": "Mathura",
    "statename": "UTTAR PRADESH"
  },
  {
    "pincode": "281403",
    "officename": "Bathain Kalan B.O",
    "officeType": "B.O",
    "Deliverystatus": "Delivery",
    "divisionname": "Mathura",
    "regionname": "Agra",
    "circlename": "Uttar Pradesh",
    "Taluk": "Chhata",
    "Districtname": "Mathura",
    "statename": "UTTAR PRADESH"
  },
  {
    "pincode": "281403",
    "officename": "Bukharari B.O",
    "officeType": "B.O",
    "Deliverystatus": "Delivery",
    "divisionname": "Mathura",
    "regionname": "Agra",
    "circlename": "Uttar Pradesh",
    "Taluk": "Chhata",
    "Districtname": "Mathura",
    "statename": "UTTAR PRADESH"
  },
  {
    "pincode": "281403",
    "officename": "Dahgaon B.O",
    "officeType": "B.O",
    "Deliverystatus": "Delivery",
    "divisionname": "Mathura",
    "regionname": "Agra",
    "circlename": "Uttar Pradesh",
    "Taluk": "Chhata",
    "Districtname": "Mathura",
    "statename": "UTTAR PRADESH"
  },
  {
    "pincode": "281403",
    "officename": "Gidoh B.O",
    "officeType": "B.O",
    "Deliverystatus": "Delivery",
    "divisionname": "Mathura",
    "regionname": "Agra",
    "circlename": "Uttar Pradesh",
    "Taluk": "Chhata",
    "Districtname": "Mathura",
    "statename": "UTTAR PRADESH"
  },
  {
    "pincode": "281403",
    "officename": "Hatana B.O",
    "officeType": "B.O",
    "Deliverystatus": "Delivery",
    "divisionname": "Mathura",
    "regionname": "Agra",
    "circlename": "Uttar Pradesh",
    "Taluk": "Chhata",
    "Districtname": "Mathura",
    "statename": "UTTAR PRADESH"
  },
  {
    "pincode": "281403",
    "officename": "Jab B.O",
    "officeType": "B.O",
    "Deliverystatus": "Delivery",
    "divisionname": "Mathura",
    "regionname": "Agra",
    "circlename": "Uttar Pradesh",
    "Taluk": "Chhata",
    "Districtname": "Mathura",
    "statename": "UTTAR PRADESH"
  },
  {
    "pincode": "281403",
    "officename": "Kadauna B.O",
    "officeType": "B.O",
    "Deliverystatus": "Delivery",
    "divisionname": "Mathura",
    "regionname": "Agra",
    "circlename": "Uttar Pradesh",
    "Taluk": "Chhata",
    "Districtname": "Mathura",
    "statename": "UTTAR PRADESH"
  },
  {
    "pincode": "281403",
    "officename": "Karnar B.O",
    "officeType": "B.O",
    "Deliverystatus": "Delivery",
    "divisionname": "Mathura",
    "regionname": "Agra",
    "circlename": "Uttar Pradesh",
    "Taluk": "Chhata",
    "Districtname": "Mathura",
    "statename": "UTTAR PRADESH"
  },
  {
    "pincode": "281403",
    "officename": "Kharauth B.O",
    "officeType": "B.O",
    "Deliverystatus": "Delivery",
    "divisionname": "Mathura",
    "regionname": "Agra",
    "circlename": "Uttar Pradesh",
    "Taluk": "Chhata",
    "Districtname": "Mathura",
    "statename": "UTTAR PRADESH"
  },
  {
    "pincode": "281403",
    "officename": "Kosi Kalan S.O",
    "officeType": "S.O",
    "Deliverystatus": "Delivery",
    "divisionname": "Mathura",
    "regionname": "Agra",
    "circlename": "Uttar Pradesh",
    "Taluk": "Chhata",
    "Districtname": "Mathura",
    "statename": "UTTAR PRADESH"
  },
  {
    "pincode": "281403",
    "officename": "Kotban B.O",
    "officeType": "B.O",
    "Deliverystatus": "Delivery",
    "divisionname": "Mathura",
    "regionname": "Agra",
    "circlename": "Uttar Pradesh",
    "Taluk": "Chhata",
    "Districtname": "Mathura",
    "statename": "UTTAR PRADESH"
  },
  {
    "pincode": "281403",
    "officename": "Lalpur B.O",
    "officeType": "B.O",
    "Deliverystatus": "Delivery",
    "divisionname": "Mathura",
    "regionname": "Agra",
    "circlename": "Uttar Pradesh",
    "Taluk": "Chhata",
    "Districtname": "Mathura",
    "statename": "UTTAR PRADESH"
  },
  {
    "pincode": "281403",
    "officename": "Nandgaon B.O",
    "officeType": "B.O",
    "Deliverystatus": "Delivery",
    "divisionname": "Mathura",
    "regionname": "Agra",
    "circlename": "Uttar Pradesh",
    "Taluk": "Chhata",
    "Districtname": "Mathura",
    "statename": "UTTAR PRADESH"
  },
  {
    "pincode": "281403",
    "officename": "Phalen B.O",
    "officeType": "B.O",
    "Deliverystatus": "Delivery",
    "divisionname": "Mathura",
    "regionname": "Agra",
    "circlename": "Uttar Pradesh",
    "Taluk": "Chhata",
    "Districtname": "Mathura",
    "statename": "UTTAR PRADESH"
  },
  {
    "pincode": "281403",
    "officename": "Roop Nagar B.O",
    "officeType": "B.O",
    "Deliverystatus": "Delivery",
    "divisionname": "Mathura",
    "regionname": "Agra",
    "circlename": "Uttar Pradesh",
    "Taluk": "Chhata",
    "Districtname": "Mathura",
    "statename": "UTTAR PRADESH"
  },
  {
    "pincode": "281403",
    "officename": "Sahpur B.O",
    "officeType": "B.O",
    "Deliverystatus": "Delivery",
    "divisionname": "Mathura",
    "regionname": "Agra",
    "circlename": "Uttar Pradesh",
    "Taluk": "Chhata",
    "Districtname": "Mathura",
    "statename": "UTTAR PRADESH"
  }
]
