[
  {
    "pincode": "281401",
    "officename": "Bishambhara B.O",
    "officeType": "B.O",
    "Deliverystatus": "Delivery",
    "divisionname": "Mathura",
    "regionname": "Agra",
    "circlename": "Uttar Pradesh",
    "Taluk": "Chhata",
    "Districtname": "Mathura",
    "statename": "UTTAR PRADESH"
  },
  {
    "pincode": "281401",
    "officename": "Chhata S.O (Mathura)",
    "officeType": "S.O",
    "Deliverystatus": "Delivery",
    "divisionname": "Mathura",
    "regionname": "Agra",
    "circlename": "Uttar Pradesh",
    "Taluk": "Chhata",
    "Districtname": "Mathura",
    "statename": "UTTAR PRADESH"
  },
  {
    "pincode": "281401",
    "officename": "Dautana B.O",
    "officeType": "B.O",
    "Deliverystatus": "Delivery",
    "divisionname": "Mathura",
    "regionname": "Agra",
    "circlename": "Uttar Pradesh",
    "Taluk": "Chhata",
    "Districtname": "Mathura",
    "statename": "UTTAR PRADESH"
  },
  {
    "pincode": "281401",
    "officename": "Dhamsinga B.O",
    "officeType": "B.O",
    "Deliverystatus": "Delivery",
    "divisionname": "Mathura",
    "regionname": "Agra",
    "circlename": "Uttar Pradesh",
    "Taluk": "",
    "Districtname": "Azamgarh",
    "statename": "UTTAR PRADESH"
  },
  {
    "pincode": "281401",
    "officename": "Khaira B.O",
    "officeType": "B.O",
    "Deliverystatus": "Delivery",
    "divisionname": "Mathura",
    "regionname": "Agra",
    "circlename": "Uttar Pradesh",
    "Taluk": "Chhata",
    "Districtname": "Mathura",
    "statename": "UTTAR PRADESH"
  },
  {
    "pincode": "281401",
    "officename": "Ladhpur B.O",
    "officeType": "B.O",
    "Deliverystatus": "Delivery",
    "divisionname": "Mathura",
    "regionname": "Agra",
    "circlename": "Uttar Pradesh",
    "Taluk": "Chhata",
    "Districtname": "Mathura",
    "statename": "UTTAR PRADESH"
  },
  {
    "pincode": "281401",
    "officename": "Nari B.O",
    "officeType": "B.O",
    "Deliverystatus": "Delivery",
    "divisionname": "Mathura",
    "regionname": "Agra",
    "circlename": "Uttar Pradesh",
    "Taluk": "Chhata",
    "Districtname": "Mathura",
    "statename": "UTTAR PRADESH"
  },
  {
    "pincode": "281401",
    "officename": "Paingaon B.O",
    "officeType": "B.O",
    "Deliverystatus": "Delivery",
    "divisionname": "Mathura",
    "regionname": "Agra",
    "circlename": "Uttar Pradesh",
    "Taluk": "Chhata",
    "Districtname": "Mathura",
    "statename": "UTTAR PRADESH"
  },
  {
    "pincode": "281401",
    "officename": "Ranwari B.O",
    "officeType": "B.O",
    "Deliverystatus": "Delivery",
    "divisionname": "Mathura",
    "regionname": "Agra",
    "circlename": "Uttar Pradesh",
    "Taluk": "Chhata",
    "Districtname": "Mathura",
    "statename": "UTTAR PRADESH"
  }
]
