[
  {
    "pincode": "282006",
    "officename": "Bamrauli Katara B.O",
    "officeType": "B.O",
    "Deliverystatus": "Delivery",
    "divisionname": "Agra",
    "regionname": "Agra",
    "circlename": "Uttar Pradesh",
    "Taluk": "Agra",
    "Districtname": "Agra",
    "statename": "UTTAR PRADESH"
  },
  {
    "pincode": "282006",
    "officename": "Budhana Mustkil B.O",
    "officeType": "B.O",
    "Deliverystatus": "Delivery",
    "divisionname": "Agra",
    "regionname": "Agra",
    "circlename": "Uttar Pradesh",
    "Taluk": "Agra",
    "Districtname": "Agra",
    "statename": "UTTAR PRADESH"
  },
  {
    "pincode": "282006",
    "officename": "Chhalesar B.O",
    "officeType": "B.O",
    "Deliverystatus": "Delivery",
    "divisionname": "Agra",
    "regionname": "Agra",
    "circlename": "Uttar Pradesh",
    "Taluk": "",
    "Districtname": "Agra",
    "statename": "UTTAR PRADESH"
  },
  {
    "pincode": "282006",
    "officename": "Dhandupura B.O",
    "officeType": "B.O",
    "Deliverystatus": "Delivery",
    "divisionname": "Agra",
    "regionname": "Agra",
    "circlename": "Uttar Pradesh",
    "Taluk": "",
    "Districtname": "Agra",
    "statename": "UTTAR PRADESH"
  },
  {
    "pincode": "282006",
    "officename": "Foundry Nagar S.O",
    "officeType": "S.O",
    "Deliverystatus": "Non-Delivery",
    "divisionname": "Agra",
    "regionname": "Agra",
    "circlename": "Uttar Pradesh",
    "Taluk": "",
    "Districtname": "Agra",
    "statename": "UTTAR PRADESH"
  },
  {
    "pincode": "282006",
    "officename": "Hazipur Khera B.O",
    "officeType": "B.O",
    "Deliverystatus": "Delivery",
    "divisionname": "Agra",
    "regionname": "Agra",
    "circlename": "Uttar Pradesh",
    "Taluk": "Etmadpur",
    "Districtname": "Agra",
    "statename": "UTTAR PRADESH"
  },
  {
    "pincode": "282006",
    "officename": "Industrial Estate S.O (Agra)",
    "officeType": "S.O",
    "Deliverystatus": "Non-Delivery",
    "divisionname": "Agra",
    "regionname": "Agra",
    "circlename": "Uttar Pradesh",
    "Taluk": "",
    "Districtname": "Agra",
    "statename": "UTTAR PRADESH"
  },
  {
    "pincode": "282006",
    "officename": "Kalal Kheria B.O",
    "officeType": "B.O",
    "Deliverystatus": "Delivery",
    "divisionname": "Agra",
    "regionname": "Agra",
    "circlename": "Uttar Pradesh",
    "Taluk": "Agra",
    "Districtname": "Agra",
    "statename": "UTTAR PRADESH"
  },
  {
    "pincode": "282006",
    "officename": "Nagla Sabla B.O",
    "officeType": "B.O",
    "Deliverystatus": "Delivery",
    "divisionname": "Agra",
    "regionname": "Agra",
    "circlename": "Uttar Pradesh",
    "Taluk": "",
    "Districtname": "Agra",
    "statename": "UTTAR PRADESH"
  },
  {
    "pincode": "282006",
    "officename": "Naraich B.O",
    "officeType": "B.O",
    "Deliverystatus": "Non-Delivery",
    "divisionname": "Agra",
    "regionname": "Agra",
    "circlename": "Uttar Pradesh",
    "Taluk": "",
    "Districtname": "Agra",
    "statename": "UTTAR PRADESH"
  },
  {
    "pincode": "282006",
    "officename": "Nunhai B.O",
    "officeType": "B.O",
    "Deliverystatus": "Non-Delivery",
    "divisionname": "Agra",
    "regionname": "Agra",
    "circlename": "Uttar Pradesh",
    "Taluk": "",
    "Districtname": "Agra",
    "statename": "UTTAR PRADESH"
  },
  {
    "pincode": "282006",
    "officename": "Rehan Kalan B.O",
    "officeType": "B.O",
    "Deliverystatus": "Delivery",
    "divisionname": "Agra",
    "regionname": "Agra",
    "circlename": "Uttar Pradesh",
    "Taluk": "",
    "Districtname": "Agra",
    "statename": "UTTAR PRADESH"
  },
  {
    "pincode": "282006",
    "officename": "Yamuna Bridge S.O",
    "officeType": "S.O",
    "Deliverystatus": "Delivery",
    "divisionname": "Agra",
    "regionname": "Agra",
    "circlename": "Uttar Pradesh",
    "Taluk": "",
    "Districtname": "Agra",
    "statename": "UTTAR PRADESH"
  }
]
