[
  {
    "pincode": "283142",
    "officename": "Bachhela Bachheli B.O",
    "officeType": "B.O",
    "Deliverystatus": "Delivery",
    "divisionname": "Mainpuri",
    "regionname": "Agra",
    "circlename": "Uttar Pradesh",
    "Taluk": "Jasarana",
    "Districtname": "Firozabad",
    "statename": "UTTAR PRADESH"
  },
  {
    "pincode": "283142",
    "officename": "Balipur B.O",
    "officeType": "B.O",
    "Deliverystatus": "Delivery",
    "divisionname": "Mainpuri",
    "regionname": "Agra",
    "circlename": "Uttar Pradesh",
    "Taluk": "Jasarana",
    "Districtname": "Firozabad",
    "statename": "UTTAR PRADESH"
  },
  {
    "pincode": "283142",
    "officename": "Bhadan B.O",
    "officeType": "B.O",
    "Deliverystatus": "Delivery",
    "divisionname": "Mainpuri",
    "regionname": "Agra",
    "circlename": "Uttar Pradesh",
    "Taluk": "Jasarana",
    "Districtname": "Firozabad",
    "statename": "UTTAR PRADESH"
  },
  {
    "pincode": "283142",
    "officename": "Garhsan B.O",
    "officeType": "B.O",
    "Deliverystatus": "Delivery",
    "divisionname": "Mainpuri",
    "regionname": "Agra",
    "circlename": "Uttar Pradesh",
    "Taluk": "Jasarana",
    "Districtname": "Firozabad",
    "statename": "UTTAR PRADESH"
  },
  {
    "pincode": "283142",
    "officename": "Kaurari Kherha B.O",
    "officeType": "B.O",
    "Deliverystatus": "Delivery",
    "divisionname": "Mainpuri",
    "regionname": "Agra",
    "circlename": "Uttar Pradesh",
    "Taluk": "Jasarana",
    "Districtname": "Firozabad",
    "statename": "UTTAR PRADESH"
  },
  {
    "pincode": "283142",
    "officename": "Kharaua B.O",
    "officeType": "B.O",
    "Deliverystatus": "Delivery",
    "divisionname": "Mainpuri",
    "regionname": "Agra",
    "circlename": "Uttar Pradesh",
    "Taluk": "Jasarana",
    "Districtname": "Firozabad",
    "statename": "UTTAR PRADESH"
  },
  {
    "pincode": "283142",
    "officename": "Nagla Gulal B.O",
    "officeType": "B.O",
    "Deliverystatus": "Delivery",
    "divisionname": "Mainpuri",
    "regionname": "Agra",
    "circlename": "Uttar Pradesh",
    "Taluk": "Shikohabad",
    "Districtname": "Firozabad",
    "statename": "UTTAR PRADESH"
  },
  {
    "pincode": "283142",
    "officename": "Pariyar S.O",
    "officeType": "S.O",
    "Deliverystatus": "Delivery",
    "divisionname": "Mainpuri",
    "regionname": "Agra",
    "circlename": "Uttar Pradesh",
    "Taluk": "Shikohabad",
    "Districtname": "Firozabad",
    "statename": "UTTAR PRADESH"
  },
  {
    "pincode": "283142",
    "officename": "Ruchan  Manikpur B.O",
    "officeType": "B.O",
    "Deliverystatus": "Delivery",
    "divisionname": "Mainpuri",
    "regionname": "Agra",
    "circlename": "Uttar Pradesh",
    "Taluk": "Jasarana",
    "Districtname": "Firozabad",
    "statename": "UTTAR PRADESH"
  },
  {
    "pincode": "283142",
    "officename": "Ukhrend B.O",
    "officeType": "B.O",
    "Deliverystatus": "Delivery",
    "divisionname": "Mainpuri",
    "regionname": "Agra",
    "circlename": "Uttar Pradesh",
    "Taluk": "Jasarana",
    "Districtname": "Firozabad",
    "statename": "UTTAR PRADESH"
  },
  {
    "pincode": "283142",
    "officename": "Urawar--hastref B.O",
    "officeType": "B.O",
    "Deliverystatus": "Delivery",
    "divisionname": "Mainpuri",
    "regionname": "Agra",
    "circlename": "Uttar Pradesh",
    "Taluk": "Jasarana",
    "Districtname": "Firozabad",
    "statename": "UTTAR PRADESH"
  }
]
