[
  {
    "pincode": "283123",
    "officename": "Barenda B.O",
    "officeType": "B.O",
    "Deliverystatus": "Delivery",
    "divisionname": "Agra",
    "regionname": "Agra",
    "circlename": "Uttar Pradesh",
    "Taluk": "Bah",
    "Districtname": "Agra",
    "statename": "UTTAR PRADESH"
  },
  {
    "pincode": "283123",
    "officename": "Basoni B.O",
    "officeType": "B.O",
    "Deliverystatus": "Delivery",
    "divisionname": "Agra",
    "regionname": "Agra",
    "circlename": "Uttar Pradesh",
    "Taluk": "Bah",
    "Districtname": "Agra",
    "statename": "UTTAR PRADESH"
  },
  {
    "pincode": "283123",
    "officename": "Biprawali B.O",
    "officeType": "B.O",
    "Deliverystatus": "Delivery",
    "divisionname": "Agra",
    "regionname": "Agra",
    "circlename": "Uttar Pradesh",
    "Taluk": "Bah",
    "Districtname": "Agra",
    "statename": "UTTAR PRADESH"
  },
  {
    "pincode": "283123",
    "officename": "Gajaura B.O",
    "officeType": "B.O",
    "Deliverystatus": "Delivery",
    "divisionname": "Agra",
    "regionname": "Agra",
    "circlename": "Uttar Pradesh",
    "Taluk": "Bah",
    "Districtname": "Agra",
    "statename": "UTTAR PRADESH"
  },
  {
    "pincode": "283123",
    "officename": "Karkoli B.O",
    "officeType": "B.O",
    "Deliverystatus": "Delivery",
    "divisionname": "Agra",
    "regionname": "Agra",
    "circlename": "Uttar Pradesh",
    "Taluk": "Bah",
    "Districtname": "Agra",
    "statename": "UTTAR PRADESH"
  },
  {
    "pincode": "283123",
    "officename": "Kukthari B.O",
    "officeType": "B.O",
    "Deliverystatus": "Delivery",
    "divisionname": "Agra",
    "regionname": "Agra",
    "circlename": "Uttar Pradesh",
    "Taluk": "Bah",
    "Districtname": "Agra",
    "statename": "UTTAR PRADESH"
  },
  {
    "pincode": "283123",
    "officename": "Manikpura B.O",
    "officeType": "B.O",
    "Deliverystatus": "Delivery",
    "divisionname": "Agra",
    "regionname": "Agra",
    "circlename": "Uttar Pradesh",
    "Taluk": "Bah",
    "Districtname": "Agra",
    "statename": "UTTAR PRADESH"
  },
  {
    "pincode": "283123",
    "officename": "Pinahat S.O",
    "officeType": "S.O",
    "Deliverystatus": "Delivery",
    "divisionname": "Agra",
    "regionname": "Agra",
    "circlename": "Uttar Pradesh",
    "Taluk": "",
    "Districtname": "Agra",
    "statename": "UTTAR PRADESH"
  },
  {
    "pincode": "283123",
    "officename": "Reha B.O",
    "officeType": "B.O",
    "Deliverystatus": "Delivery",
    "divisionname": "Agra",
    "regionname": "Agra",
    "circlename": "Uttar Pradesh",
    "Taluk": "Bah",
    "Districtname": "Agra",
    "statename": "UTTAR PRADESH"
  },
  {
    "pincode": "283123",
    "officename": "Sabora B.O",
    "officeType": "B.O",
    "Deliverystatus": "Delivery",
    "divisionname": "Agra",
    "regionname": "Agra",
    "circlename": "Uttar Pradesh",
    "Taluk": "Bah",
    "Districtname": "Agra",
    "statename": "UTTAR PRADESH"
  },
  {
    "pincode": "283123",
    "officename": "Tasond B.O",
    "officeType": "B.O",
    "Deliverystatus": "Delivery",
    "divisionname": "Agra",
    "regionname": "Agra",
    "circlename": "Uttar Pradesh",
    "Taluk": "Bah",
    "Districtname": "Agra",
    "statename": "UTTAR PRADESH"
  },
  {
    "pincode": "283123",
    "officename": "Umretha B.O",
    "officeType": "B.O",
    "Deliverystatus": "Delivery",
    "divisionname": "Agra",
    "regionname": "Agra",
    "circlename": "Uttar Pradesh",
    "Taluk": "Bah",
    "Districtname": "Agra",
    "statename": "UTTAR PRADESH"
  }
]
