[
  {
    "pincode": "283101",
    "officename": "Achnera Mandi B.O",
    "officeType": "B.O",
    "Deliverystatus": "Non-Delivery",
    "divisionname": "Agra",
    "regionname": "Agra",
    "circlename": "Uttar Pradesh",
    "Taluk": "",
    "Districtname": "Agra",
    "statename": "UTTAR PRADESH"
  },
  {
    "pincode": "283101",
    "officename": "Achnera S.O",
    "officeType": "S.O",
    "Deliverystatus": "Delivery",
    "divisionname": "Agra",
    "regionname": "Agra",
    "circlename": "Uttar Pradesh",
    "Taluk": "",
    "Districtname": "Agra",
    "statename": "UTTAR PRADESH"
  },
  {
    "pincode": "283101",
    "officename": "Arrua Khas B.O",
    "officeType": "B.O",
    "Deliverystatus": "Delivery",
    "divisionname": "Agra",
    "regionname": "Agra",
    "circlename": "Uttar Pradesh",
    "Taluk": "",
    "Districtname": "Agra",
    "statename": "UTTAR PRADESH"
  },
  {
    "pincode": "283101",
    "officename": "Baharawati B.O",
    "officeType": "B.O",
    "Deliverystatus": "Delivery",
    "divisionname": "Agra",
    "regionname": "Agra",
    "circlename": "Uttar Pradesh",
    "Taluk": "",
    "Districtname": "Agra",
    "statename": "UTTAR PRADESH"
  },
  {
    "pincode": "283101",
    "officename": "Biara B.O",
    "officeType": "B.O",
    "Deliverystatus": "Delivery",
    "divisionname": "Agra",
    "regionname": "Agra",
    "circlename": "Uttar Pradesh",
    "Taluk": "",
    "Districtname": "Agra",
    "statename": "UTTAR PRADESH"
  },
  {
    "pincode": "283101",
    "officename": "Daultabad B.O",
    "officeType": "B.O",
    "Deliverystatus": "Delivery",
    "divisionname": "Agra",
    "regionname": "Agra",
    "circlename": "Uttar Pradesh",
    "Taluk": "",
    "Districtname": "Agra",
    "statename": "UTTAR PRADESH"
  },
  {
    "pincode": "283101",
    "officename": "Hansela B.O",
    "officeType": "B.O",
    "Deliverystatus": "Delivery",
    "divisionname": "Agra",
    "regionname": "Agra",
    "circlename": "Uttar Pradesh",
    "Taluk": "",
    "Districtname": "Agra",
    "statename": "UTTAR PRADESH"
  },
  {
    "pincode": "283101",
    "officename": "Kachaura B.O",
    "officeType": "B.O",
    "Deliverystatus": "Delivery",
    "divisionname": "Agra",
    "regionname": "Agra",
    "circlename": "Uttar Pradesh",
    "Taluk": "Kiraoli",
    "Districtname": "Agra",
    "statename": "UTTAR PRADESH"
  },
  {
    "pincode": "283101",
    "officename": "Kathwari B.O",
    "officeType": "B.O",
    "Deliverystatus": "Delivery",
    "divisionname": "Agra",
    "regionname": "Agra",
    "circlename": "Uttar Pradesh",
    "Taluk": "",
    "Districtname": "Agra",
    "statename": "UTTAR PRADESH"
  },
  {
    "pincode": "283101",
    "officename": "Mangrol Jat B.O",
    "officeType": "B.O",
    "Deliverystatus": "Delivery",
    "divisionname": "Agra",
    "regionname": "Agra",
    "circlename": "Uttar Pradesh",
    "Taluk": "Kiraoli",
    "Districtname": "Agra",
    "statename": "UTTAR PRADESH"
  },
  {
    "pincode": "283101",
    "officename": "Raibha B.O",
    "officeType": "B.O",
    "Deliverystatus": "Delivery",
    "divisionname": "Agra",
    "regionname": "Agra",
    "circlename": "Uttar Pradesh",
    "Taluk": "Kiraoli",
    "Districtname": "Agra",
    "statename": "UTTAR PRADESH"
  },
  {
    "pincode": "283101",
    "officename": "Rampur B.O",
    "officeType": "B.O",
    "Deliverystatus": "Delivery",
    "divisionname": "Agra",
    "regionname": "Agra",
    "circlename": "Uttar Pradesh",
    "Taluk": "",
    "Districtname": "Agra",
    "statename": "UTTAR PRADESH"
  },
  {
    "pincode": "283101",
    "officename": "Sandhan B.O",
    "officeType": "B.O",
    "Deliverystatus": "Delivery",
    "divisionname": "Agra",
    "regionname": "Agra",
    "circlename": "Uttar Pradesh",
    "Taluk": "",
    "Districtname": "Agra",
    "statename": "UTTAR PRADESH"
  },
  {
    "pincode": "283101",
    "officename": "Turkia B.O",
    "officeType": "B.O",
    "Deliverystatus": "Delivery",
    "divisionname": "Agra",
    "regionname": "Agra",
    "circlename": "Uttar Pradesh",
    "Taluk": "Kiraoli",
    "Districtname": "Agra",
    "statename": "UTTAR PRADESH"
  }
]
