[
  {
    "pincode": "283103",
    "officename": "Baghai B.O",
    "officeType": "B.O",
    "Deliverystatus": "Delivery",
    "divisionname": "Mainpuri",
    "regionname": "Agra",
    "circlename": "Uttar Pradesh",
    "Taluk": "",
    "Districtname": "Firozabad",
    "statename": "UTTAR PRADESH"
  },
  {
    "pincode": "283103",
    "officename": "Hirangaon B.O",
    "officeType": "B.O",
    "Deliverystatus": "Delivery",
    "divisionname": "Mainpuri",
    "regionname": "Agra",
    "circlename": "Uttar Pradesh",
    "Taluk": "Firozabad",
    "Districtname": "Firozabad",
    "statename": "UTTAR PRADESH"
  },
  {
    "pincode": "283103",
    "officename": "Husainpur B.O",
    "officeType": "B.O",
    "Deliverystatus": "Delivery",
    "divisionname": "Mainpuri",
    "regionname": "Agra",
    "circlename": "Uttar Pradesh",
    "Taluk": "Firozabad",
    "Districtname": "Firozabad",
    "statename": "UTTAR PRADESH"
  },
  {
    "pincode": "283103",
    "officename": "Jarakhi B.O",
    "officeType": "B.O",
    "Deliverystatus": "Delivery",
    "divisionname": "Mainpuri",
    "regionname": "Agra",
    "circlename": "Uttar Pradesh",
    "Taluk": "Firozabad",
    "Districtname": "Firozabad",
    "statename": "UTTAR PRADESH"
  },
  {
    "pincode": "283103",
    "officename": "Kotaki B.O",
    "officeType": "B.O",
    "Deliverystatus": "Delivery",
    "divisionname": "Mainpuri",
    "regionname": "Agra",
    "circlename": "Uttar Pradesh",
    "Taluk": "Firozabad",
    "Districtname": "Firozabad",
    "statename": "UTTAR PRADESH"
  },
  {
    "pincode": "283103",
    "officename": "Kurri Kuppa B.O",
    "officeType": "B.O",
    "Deliverystatus": "Delivery",
    "divisionname": "Mainpuri",
    "regionname": "Agra",
    "circlename": "Uttar Pradesh",
    "Taluk": "Firozabad",
    "Districtname": "Firozabad",
    "statename": "UTTAR PRADESH"
  },
  {
    "pincode": "283103",
    "officename": "Oef  Firozabad S.O",
    "officeType": "S.O",
    "Deliverystatus": "Delivery",
    "divisionname": "Mainpuri",
    "regionname": "Agra",
    "circlename": "Uttar Pradesh",
    "Taluk": "Firozabad",
    "Districtname": "Firozabad",
    "statename": "UTTAR PRADESH"
  },
  {
    "pincode": "283103",
    "officename": "Usayani B.O",
    "officeType": "B.O",
    "Deliverystatus": "Delivery",
    "divisionname": "Mainpuri",
    "regionname": "Agra",
    "circlename": "Uttar Pradesh",
    "Taluk": "Firozabad",
    "Districtname": "Firozabad",
    "statename": "UTTAR PRADESH"
  }
]
