[
  {
    "pincode": "283136",
    "officename": "Akbarpur Kutukpur B.O",
    "officeType": "B.O",
    "Deliverystatus": "Delivery",
    "divisionname": "Mainpuri",
    "regionname": "Agra",
    "circlename": "Uttar Pradesh",
    "Taluk": "Jasrana",
    "Districtname": "Firozabad",
    "statename": "UTTAR PRADESH"
  },
  {
    "pincode": "283136",
    "officename": "Bahat B.O",
    "officeType": "B.O",
    "Deliverystatus": "Delivery",
    "divisionname": "Mainpuri",
    "regionname": "Agra",
    "circlename": "Uttar Pradesh",
    "Taluk": "Jasrana",
    "Districtname": "Firozabad",
    "statename": "UTTAR PRADESH"
  },
  {
    "pincode": "283136",
    "officename": "Banbara B.O",
    "officeType": "B.O",
    "Deliverystatus": "Delivery",
    "divisionname": "Mainpuri",
    "regionname": "Agra",
    "circlename": "Uttar Pradesh",
    "Taluk": "Jasrana",
    "Districtname": "Firozabad",
    "statename": "UTTAR PRADESH"
  },
  {
    "pincode": "283136",
    "officename": "Jasrana S.O",
    "officeType": "S.O",
    "Deliverystatus": "Delivery",
    "divisionname": "Mainpuri",
    "regionname": "Agra",
    "circlename": "Uttar Pradesh",
    "Taluk": "Jasrana",
    "Districtname": "Firozabad",
    "statename": "UTTAR PRADESH"
  },
  {
    "pincode": "283136",
    "officename": "Jhapara B.O",
    "officeType": "B.O",
    "Deliverystatus": "Delivery",
    "divisionname": "Mainpuri",
    "regionname": "Agra",
    "circlename": "Uttar Pradesh",
    "Taluk": "Jasrana",
    "Districtname": "Firozabad",
    "statename": "UTTAR PRADESH"
  },
  {
    "pincode": "283136",
    "officename": "Kaurara Bujurga B.O",
    "officeType": "B.O",
    "Deliverystatus": "Delivery",
    "divisionname": "Mainpuri",
    "regionname": "Agra",
    "circlename": "Uttar Pradesh",
    "Taluk": "Jasrana",
    "Districtname": "Firozabad",
    "statename": "UTTAR PRADESH"
  },
  {
    "pincode": "283136",
    "officename": "Kushiyari B.O",
    "officeType": "B.O",
    "Deliverystatus": "Delivery",
    "divisionname": "Mainpuri",
    "regionname": "Agra",
    "circlename": "Uttar Pradesh",
    "Taluk": "Jasrana",
    "Districtname": "Firozabad",
    "statename": "UTTAR PRADESH"
  },
  {
    "pincode": "283136",
    "officename": "Milawali B.O",
    "officeType": "B.O",
    "Deliverystatus": "Delivery",
    "divisionname": "Mainpuri",
    "regionname": "Agra",
    "circlename": "Uttar Pradesh",
    "Taluk": "Jasrana",
    "Districtname": "Firozabad",
    "statename": "UTTAR PRADESH"
  },
  {
    "pincode": "283136",
    "officename": "Patti B.O",
    "officeType": "B.O",
    "Deliverystatus": "Delivery",
    "divisionname": "Mainpuri",
    "regionname": "Agra",
    "circlename": "Uttar Pradesh",
    "Taluk": "Jasrana",
    "Districtname": "Firozabad",
    "statename": "UTTAR PRADESH"
  },
  {
    "pincode": "283136",
    "officename": "Salempur B.O",
    "officeType": "B.O",
    "Deliverystatus": "Delivery",
    "divisionname": "Mainpuri",
    "regionname": "Agra",
    "circlename": "Uttar Pradesh",
    "Taluk": "Jasrana",
    "Districtname": "Firozabad",
    "statename": "UTTAR PRADESH"
  }
]
