[
  {
    "pincode": "283102",
    "officename": "Akhabai B.O",
    "officeType": "B.O",
    "Deliverystatus": "Delivery",
    "divisionname": "Agra",
    "regionname": "Agra",
    "circlename": "Uttar Pradesh",
    "Taluk": "Kiraoli",
    "Districtname": "Agra",
    "statename": "UTTAR PRADESH"
  },
  {
    "pincode": "283102",
    "officename": "Akola S.O (Agra)",
    "officeType": "S.O",
    "Deliverystatus": "Delivery",
    "divisionname": "Agra",
    "regionname": "Agra",
    "circlename": "Uttar Pradesh",
    "Taluk": "",
    "Districtname": "Agra",
    "statename": "UTTAR PRADESH"
  },
  {
    "pincode": "283102",
    "officename": "Barara B.O",
    "officeType": "B.O",
    "Deliverystatus": "Delivery",
    "divisionname": "Agra",
    "regionname": "Agra",
    "circlename": "Uttar Pradesh",
    "Taluk": "",
    "Districtname": "Agra",
    "statename": "UTTAR PRADESH"
  },
  {
    "pincode": "283102",
    "officename": "Berichahar B.O",
    "officeType": "B.O",
    "Deliverystatus": "Delivery",
    "divisionname": "Agra",
    "regionname": "Agra",
    "circlename": "Uttar Pradesh",
    "Taluk": "Kheragarh",
    "Districtname": "Agra",
    "statename": "UTTAR PRADESH"
  },
  {
    "pincode": "283102",
    "officename": "Bisalpur B.O",
    "officeType": "B.O",
    "Deliverystatus": "Delivery",
    "divisionname": "Agra",
    "regionname": "Agra",
    "circlename": "Uttar Pradesh",
    "Taluk": "Kheragarh",
    "Districtname": "Agra",
    "statename": "UTTAR PRADESH"
  },
  {
    "pincode": "283102",
    "officename": "Dhanoli B.O",
    "officeType": "B.O",
    "Deliverystatus": "Non-Delivery",
    "divisionname": "Agra",
    "regionname": "Agra",
    "circlename": "Uttar Pradesh",
    "Taluk": "Kiraoli",
    "Districtname": "Agra",
    "statename": "UTTAR PRADESH"
  },
  {
    "pincode": "283102",
    "officename": "Garsani B.O",
    "officeType": "B.O",
    "Deliverystatus": "Delivery",
    "divisionname": "Agra",
    "regionname": "Agra",
    "circlename": "Uttar Pradesh",
    "Taluk": "",
    "Districtname": "Agra",
    "statename": "UTTAR PRADESH"
  },
  {
    "pincode": "283102",
    "officename": "Jarua Katra B.O",
    "officeType": "B.O",
    "Deliverystatus": "Delivery",
    "divisionname": "Agra",
    "regionname": "Agra",
    "circlename": "Uttar Pradesh",
    "Taluk": "Agra",
    "Districtname": "Agra",
    "statename": "UTTAR PRADESH"
  },
  {
    "pincode": "283102",
    "officename": "Kheria B.O",
    "officeType": "B.O",
    "Deliverystatus": "Delivery",
    "divisionname": "Agra",
    "regionname": "Agra",
    "circlename": "Uttar Pradesh",
    "Taluk": "",
    "Districtname": "Agra",
    "statename": "UTTAR PRADESH"
  },
  {
    "pincode": "283102",
    "officename": "Malpura B.O",
    "officeType": "B.O",
    "Deliverystatus": "Delivery",
    "divisionname": "Agra",
    "regionname": "Agra",
    "circlename": "Uttar Pradesh",
    "Taluk": "Agra",
    "Districtname": "Agra",
    "statename": "UTTAR PRADESH"
  },
  {
    "pincode": "283102",
    "officename": "Mankeda B.O",
    "officeType": "B.O",
    "Deliverystatus": "Delivery",
    "divisionname": "Agra",
    "regionname": "Agra",
    "circlename": "Uttar Pradesh",
    "Taluk": "Agra",
    "Districtname": "Agra",
    "statename": "UTTAR PRADESH"
  },
  {
    "pincode": "283102",
    "officename": "Murkia B.O",
    "officeType": "B.O",
    "Deliverystatus": "Delivery",
    "divisionname": "Agra",
    "regionname": "Agra",
    "circlename": "Uttar Pradesh",
    "Taluk": "Kheragarh",
    "Districtname": "Agra",
    "statename": "UTTAR PRADESH"
  },
  {
    "pincode": "283102",
    "officename": "Ujarai B.O",
    "officeType": "B.O",
    "Deliverystatus": "Delivery",
    "divisionname": "Agra",
    "regionname": "Agra",
    "circlename": "Uttar Pradesh",
    "Taluk": "Kiraoli",
    "Districtname": "Agra",
    "statename": "UTTAR PRADESH"
  }
]
