[
  {
    "pincode": "283203",
    "officename": "Akalabad Hasanpur B.O",
    "officeType": "B.O",
    "Deliverystatus": "Delivery",
    "divisionname": "Mainpuri",
    "regionname": "Agra",
    "circlename": "Uttar Pradesh",
    "Taluk": "Firozabad",
    "Districtname": "Firozabad",
    "statename": "UTTAR PRADESH"
  },
  {
    "pincode": "283203",
    "officename": "Alhadadpur B.O",
    "officeType": "B.O",
    "Deliverystatus": "Delivery",
    "divisionname": "Mainpuri",
    "regionname": "Agra",
    "circlename": "Uttar Pradesh",
    "Taluk": "Firozabad",
    "Districtname": "Firozabad",
    "statename": "UTTAR PRADESH"
  },
  {
    "pincode": "283203",
    "officename": "Ali Nagar Kenjra B.O",
    "officeType": "B.O",
    "Deliverystatus": "Delivery",
    "divisionname": "Mainpuri",
    "regionname": "Agra",
    "circlename": "Uttar Pradesh",
    "Taluk": "Firozabad",
    "Districtname": "Firozabad",
    "statename": "UTTAR PRADESH"
  },
  {
    "pincode": "283203",
    "officename": "Asafabad B.O",
    "officeType": "B.O",
    "Deliverystatus": "Delivery",
    "divisionname": "Mainpuri",
    "regionname": "Agra",
    "circlename": "Uttar Pradesh",
    "Taluk": "Firozabad",
    "Districtname": "Firozabad",
    "statename": "UTTAR PRADESH"
  },
  {
    "pincode": "283203",
    "officename": "Asan B.O",
    "officeType": "B.O",
    "Deliverystatus": "Delivery",
    "divisionname": "Mainpuri",
    "regionname": "Agra",
    "circlename": "Uttar Pradesh",
    "Taluk": "Firozabad",
    "Districtname": "Firozabad",
    "statename": "UTTAR PRADESH"
  },
  {
    "pincode": "283203",
    "officename": "Basai Mohammadpur B.O",
    "officeType": "B.O",
    "Deliverystatus": "Delivery",
    "divisionname": "Mainpuri",
    "regionname": "Agra",
    "circlename": "Uttar Pradesh",
    "Taluk": "Firozabad",
    "Districtname": "Firozabad",
    "statename": "UTTAR PRADESH"
  },
  {
    "pincode": "283203",
    "officename": "Bharaul B.O",
    "officeType": "B.O",
    "Deliverystatus": "Delivery",
    "divisionname": "Mainpuri",
    "regionname": "Agra",
    "circlename": "Uttar Pradesh",
    "Taluk": "Shikohabad",
    "Districtname": "Firozabad",
    "statename": "UTTAR PRADESH"
  },
  {
    "pincode": "283203",
    "officename": "Bilhena B.O",
    "officeType": "B.O",
    "Deliverystatus": "Delivery",
    "divisionname": "Mainpuri",
    "regionname": "Agra",
    "circlename": "Uttar Pradesh",
    "Taluk": "Firozabad",
    "Districtname": "Firozabad",
    "statename": "UTTAR PRADESH"
  },
  {
    "pincode": "283203",
    "officename": "Chandwar B.O",
    "officeType": "B.O",
    "Deliverystatus": "Delivery",
    "divisionname": "Mainpuri",
    "regionname": "Agra",
    "circlename": "Uttar Pradesh",
    "Taluk": "Firozabad",
    "Districtname": "Firozabad",
    "statename": "UTTAR PRADESH"
  },
  {
    "pincode": "283203",
    "officename": "Datawali B.O",
    "officeType": "B.O",
    "Deliverystatus": "Delivery",
    "divisionname": "Mainpuri",
    "regionname": "Agra",
    "circlename": "Uttar Pradesh",
    "Taluk": "Firozabad",
    "Districtname": "Firozabad",
    "statename": "UTTAR PRADESH"
  },
  {
    "pincode": "283203",
    "officename": "Dokeli B.O",
    "officeType": "B.O",
    "Deliverystatus": "Delivery",
    "divisionname": "Mainpuri",
    "regionname": "Agra",
    "circlename": "Uttar Pradesh",
    "Taluk": "Firozabad",
    "Districtname": "Firozabad",
    "statename": "UTTAR PRADESH"
  },
  {
    "pincode": "283203",
    "officename": "Dolupura B.O",
    "officeType": "B.O",
    "Deliverystatus": "Delivery",
    "divisionname": "Mainpuri",
    "regionname": "Agra",
    "circlename": "Uttar Pradesh",
    "Taluk": "",
    "Districtname": "Firozabad",
    "statename": "UTTAR PRADESH"
  },
  {
    "pincode": "283203",
    "officename": "Firozabad Bazar B.O",
    "officeType": "B.O",
    "Deliverystatus": "Non-Delivery",
    "divisionname": "Mainpuri",
    "regionname": "Agra",
    "circlename": "Uttar Pradesh",
    "Taluk": "Firozabad",
    "Districtname": "Firozabad",
    "statename": "UTTAR PRADESH"
  },
  {
    "pincode": "283203",
    "officename": "Firozabad H.O",
    "officeType": "H.O",
    "Deliverystatus": "Delivery",
    "divisionname": "Mainpuri",
    "regionname": "Agra",
    "circlename": "Uttar Pradesh",
    "Taluk": "Firozabad",
    "Districtname": "Firozabad",
    "statename": "UTTAR PRADESH"
  },
  {
    "pincode": "283203",
    "officename": "Gazipur B.O",
    "officeType": "B.O",
    "Deliverystatus": "Delivery",
    "divisionname": "Mainpuri",
    "regionname": "Agra",
    "circlename": "Uttar Pradesh",
    "Taluk": "Firozabad",
    "Districtname": "Firozabad",
    "statename": "UTTAR PRADESH"
  },
  {
    "pincode": "283203",
    "officename": "Gonchh B.O",
    "officeType": "B.O",
    "Deliverystatus": "Delivery",
    "divisionname": "Mainpuri",
    "regionname": "Agra",
    "circlename": "Uttar Pradesh",
    "Taluk": "Firozabad",
    "Districtname": "Firozabad",
    "statename": "UTTAR PRADESH"
  },
  {
    "pincode": "283203",
    "officename": "Gudaun B.O",
    "officeType": "B.O",
    "Deliverystatus": "Delivery",
    "divisionname": "Mainpuri",
    "regionname": "Agra",
    "circlename": "Uttar Pradesh",
    "Taluk": "Firozbaad",
    "Districtname": "Firozabad",
    "statename": "UTTAR PRADESH"
  },
  {
    "pincode": "283203",
    "officename": "Jakhai B.O",
    "officeType": "B.O",
    "Deliverystatus": "Delivery",
    "divisionname": "Mainpuri",
    "regionname": "Agra",
    "circlename": "Uttar Pradesh",
    "Taluk": "Firozabad",
    "Districtname": "Firozabad",
    "statename": "UTTAR PRADESH"
  },
  {
    "pincode": "283203",
    "officename": "Jalalpur B.O",
    "officeType": "B.O",
    "Deliverystatus": "Delivery",
    "divisionname": "Mainpuri",
    "regionname": "Agra",
    "circlename": "Uttar Pradesh",
    "Taluk": "Firozabad",
    "Districtname": "Firozabad",
    "statename": "UTTAR PRADESH"
  },
  {
    "pincode": "283203",
    "officename": "Jarauli Kalan B.O",
    "officeType": "B.O",
    "Deliverystatus": "Delivery",
    "divisionname": "Mainpuri",
    "regionname": "Agra",
    "circlename": "Uttar Pradesh",
    "Taluk": "Firozabad",
    "Districtname": "Firozabad",
    "statename": "UTTAR PRADESH"
  },
  {
    "pincode": "283203",
    "officename": "Khair Garh B.O",
    "officeType": "B.O",
    "Deliverystatus": "Delivery",
    "divisionname": "Mainpuri",
    "regionname": "Agra",
    "circlename": "Uttar Pradesh",
    "Taluk": "Shikohabad",
    "Districtname": "Firozabad",
    "statename": "UTTAR PRADESH"
  },
  {
    "pincode": "283203",
    "officename": "Labour Collony  Firozabad S.O",
    "officeType": "S.O",
    "Deliverystatus": "Non-Delivery",
    "divisionname": "Mainpuri",
    "regionname": "Agra",
    "circlename": "Uttar Pradesh",
    "Taluk": "Firozabad",
    "Districtname": "Firozabad",
    "statename": "UTTAR PRADESH"
  },
  {
    "pincode": "283203",
    "officename": "Madhoganj B.O",
    "officeType": "B.O",
    "Deliverystatus": "Non-Delivery",
    "divisionname": "Mainpuri",
    "regionname": "Agra",
    "circlename": "Uttar Pradesh",
    "Taluk": "Shikohabad",
    "Districtname": "Firozabad",
    "statename": "UTTAR PRADESH"
  },
  {
    "pincode": "283203",
    "officename": "Mainpuri Gate  Firozabad B.O",
    "officeType": "B.O",
    "Deliverystatus": "Non-Delivery",
    "divisionname": "Mainpuri",
    "regionname": "Agra",
    "circlename": "Uttar Pradesh",
    "Taluk": "Firozabad",
    "Districtname": "Firozabad",
    "statename": "UTTAR PRADESH"
  },
  {
    "pincode": "283203",
    "officename": "Matsena B.O",
    "officeType": "B.O",
    "Deliverystatus": "Delivery",
    "divisionname": "Mainpuri",
    "regionname": "Agra",
    "circlename": "Uttar Pradesh",
    "Taluk": "Firozabad",
    "Districtname": "Firozabad",
    "statename": "UTTAR PRADESH"
  },
  {
    "pincode": "283203",
    "officename": "Muiddinpur B.O",
    "officeType": "B.O",
    "Deliverystatus": "Delivery",
    "divisionname": "Mainpuri",
    "regionname": "Agra",
    "circlename": "Uttar Pradesh",
    "Taluk": "Firozabad",
    "Districtname": "Firozabad",
    "statename": "UTTAR PRADESH"
  },
  {
    "pincode": "283203",
    "officename": "Narayan Nagar S.O",
    "officeType": "S.O",
    "Deliverystatus": "Non-Delivery",
    "divisionname": "Mainpuri",
    "regionname": "Agra",
    "circlename": "Uttar Pradesh",
    "Taluk": "Firozabad",
    "Districtname": "Firozabad",
    "statename": "UTTAR PRADESH"
  },
  {
    "pincode": "283203",
    "officename": "Nepai B.O",
    "officeType": "B.O",
    "Deliverystatus": "Delivery",
    "divisionname": "Mainpuri",
    "regionname": "Agra",
    "circlename": "Uttar Pradesh",
    "Taluk": "Firozabad",
    "Districtname": "Firozabad",
    "statename": "UTTAR PRADESH"
  },
  {
    "pincode": "283203",
    "officename": "Pachwan B.O",
    "officeType": "B.O",
    "Deliverystatus": "Delivery",
    "divisionname": "Mainpuri",
    "regionname": "Agra",
    "circlename": "Uttar Pradesh",
    "Taluk": "Firozabad",
    "Districtname": "Firozabad",
    "statename": "UTTAR PRADESH"
  },
  {
    "pincode": "283203",
    "officename": "Railway Road Firozabad S.O",
    "officeType": "S.O",
    "Deliverystatus": "Non-Delivery",
    "divisionname": "Mainpuri",
    "regionname": "Agra",
    "circlename": "Uttar Pradesh",
    "Taluk": "Firozabad",
    "Districtname": "Firozabad",
    "statename": "UTTAR PRADESH"
  },
  {
    "pincode": "283203",
    "officename": "Raipura B.O",
    "officeType": "B.O",
    "Deliverystatus": "Delivery",
    "divisionname": "Mainpuri",
    "regionname": "Agra",
    "circlename": "Uttar Pradesh",
    "Taluk": "Firozabad",
    "Districtname": "Firozabad",
    "statename": "UTTAR PRADESH"
  },
  {
    "pincode": "283203",
    "officename": "Rupaspur B.O",
    "officeType": "B.O",
    "Deliverystatus": "Delivery",
    "divisionname": "Mainpuri",
    "regionname": "Agra",
    "circlename": "Uttar Pradesh",
    "Taluk": "Firozabad",
    "Districtname": "Firozabad",
    "statename": "UTTAR PRADESH"
  },
  {
    "pincode": "283203",
    "officename": "S N H Road Firozabad S.O",
    "officeType": "S.O",
    "Deliverystatus": "Non-Delivery",
    "divisionname": "Mainpuri",
    "regionname": "Agra",
    "circlename": "Uttar Pradesh",
    "Taluk": "Firozabad",
    "Districtname": "Firozabad",
    "statename": "UTTAR PRADESH"
  },
  {
    "pincode": "283203",
    "officename": "Sarhamai B.O",
    "officeType": "B.O",
    "Deliverystatus": "Delivery",
    "divisionname": "Mainpuri",
    "regionname": "Agra",
    "circlename": "Uttar Pradesh",
    "Taluk": "Firozabad",
    "Districtname": "Firozabad",
    "statename": "UTTAR PRADESH"
  }
]
