[
  {
    "pincode": "284002",
    "officename": "Bara Bazar S.O (Jhansi)",
    "officeType": "S.O",
    "Deliverystatus": "Non-Delivery",
    "divisionname": "Jhansi",
    "regionname": "Agra",
    "circlename": "Uttar Pradesh",
    "Taluk": "Jhansi",
    "Districtname": "Jhansi",
    "statename": "UTTAR PRADESH"
  },
  {
    "pincode": "284002",
    "officename": "Bhojala B.O",
    "officeType": "B.O",
    "Deliverystatus": "Delivery",
    "divisionname": "Jhansi",
    "regionname": "Agra",
    "circlename": "Uttar Pradesh",
    "Taluk": "Jhansi",
    "Districtname": "Jhansi",
    "statename": "UTTAR PRADESH"
  },
  {
    "pincode": "284002",
    "officename": "Boodha B.O",
    "officeType": "B.O",
    "Deliverystatus": "Delivery",
    "divisionname": "Jhansi",
    "regionname": "Agra",
    "circlename": "Uttar Pradesh",
    "Taluk": "Jhansi",
    "Districtname": "Jhansi",
    "statename": "UTTAR PRADESH"
  },
  {
    "pincode": "284002",
    "officename": "Isagarh B.O",
    "officeType": "B.O",
    "Deliverystatus": "Delivery",
    "divisionname": "Jhansi",
    "regionname": "Agra",
    "circlename": "Uttar Pradesh",
    "Taluk": "Jhansi",
    "Districtname": "Jhansi",
    "statename": "UTTAR PRADESH"
  },
  {
    "pincode": "284002",
    "officename": "Jhansi City S.O",
    "officeType": "S.O",
    "Deliverystatus": "Delivery",
    "divisionname": "Jhansi",
    "regionname": "Agra",
    "circlename": "Uttar Pradesh",
    "Taluk": "Jhansi",
    "Districtname": "Jhansi",
    "statename": "UTTAR PRADESH"
  },
  {
    "pincode": "284002",
    "officename": "Khushipura B.O",
    "officeType": "B.O",
    "Deliverystatus": "Non-Delivery",
    "divisionname": "Jhansi",
    "regionname": "Agra",
    "circlename": "Uttar Pradesh",
    "Taluk": "Jhansi",
    "Districtname": "Jhansi",
    "statename": "UTTAR PRADESH"
  },
  {
    "pincode": "284002",
    "officename": "Nai Basti B.O",
    "officeType": "B.O",
    "Deliverystatus": "Non-Delivery",
    "divisionname": "Jhansi",
    "regionname": "Agra",
    "circlename": "Uttar Pradesh",
    "Taluk": "Jhansi",
    "Districtname": "Jhansi",
    "statename": "UTTAR PRADESH"
  },
  {
    "pincode": "284002",
    "officename": "Naria Bazar S.O",
    "officeType": "S.O",
    "Deliverystatus": "Non-Delivery",
    "divisionname": "Jhansi",
    "regionname": "Agra",
    "circlename": "Uttar Pradesh",
    "Taluk": "Jhansi",
    "Districtname": "Jhansi",
    "statename": "UTTAR PRADESH"
  },
  {
    "pincode": "284002",
    "officename": "Orchha Gate B.O",
    "officeType": "B.O",
    "Deliverystatus": "Non-Delivery",
    "divisionname": "Jhansi",
    "regionname": "Agra",
    "circlename": "Uttar Pradesh",
    "Taluk": "Jhansi",
    "Districtname": "Jhansi",
    "statename": "UTTAR PRADESH"
  },
  {
    "pincode": "284002",
    "officename": "Sainyargate B.O",
    "officeType": "B.O",
    "Deliverystatus": "Non-Delivery",
    "divisionname": "Jhansi",
    "regionname": "Agra",
    "circlename": "Uttar Pradesh",
    "Taluk": "Jhansi",
    "Districtname": "Jhansi",
    "statename": "UTTAR PRADESH"
  },
  {
    "pincode": "284002",
    "officename": "Subhashganj S.O",
    "officeType": "S.O",
    "Deliverystatus": "Non-Delivery",
    "divisionname": "Jhansi",
    "regionname": "Agra",
    "circlename": "Uttar Pradesh",
    "Taluk": "Jhansi",
    "Districtname": "Jhansi",
    "statename": "UTTAR PRADESH"
  }
]
