[
  {
    "pincode": "284124",
    "officename": "Baroda Swami B.O",
    "officeType": "B.O",
    "Deliverystatus": "Delivery",
    "divisionname": "Jhansi",
    "regionname": "Agra",
    "circlename": "Uttar Pradesh",
    "Taluk": "Lalitpur",
    "Districtname": "Lalitpur",
    "statename": "UTTAR PRADESH"
  },
  {
    "pincode": "284124",
    "officename": "Ghisauli B.O",
    "officeType": "B.O",
    "Deliverystatus": "Delivery",
    "divisionname": "Jhansi",
    "regionname": "Agra",
    "circlename": "Uttar Pradesh",
    "Taluk": "Lalitpur",
    "Districtname": "Lalitpur",
    "statename": "UTTAR PRADESH"
  },
  {
    "pincode": "284124",
    "officename": "Jakhaura S.O",
    "officeType": "S.O",
    "Deliverystatus": "Delivery",
    "divisionname": "Jhansi",
    "regionname": "Agra",
    "circlename": "Uttar Pradesh",
    "Taluk": "",
    "Districtname": "Lalitpur",
    "statename": "UTTAR PRADESH"
  },
  {
    "pincode": "284124",
    "officename": "Kisalwans B.O",
    "officeType": "B.O",
    "Deliverystatus": "Delivery",
    "divisionname": "Jhansi",
    "regionname": "Agra",
    "circlename": "Uttar Pradesh",
    "Taluk": "Lalitpur",
    "Districtname": "Lalitpur",
    "statename": "UTTAR PRADESH"
  },
  {
    "pincode": "284124",
    "officename": "Mainwara B.O",
    "officeType": "B.O",
    "Deliverystatus": "Delivery",
    "divisionname": "Jhansi",
    "regionname": "Agra",
    "circlename": "Uttar Pradesh",
    "Taluk": "Lalitpur",
    "Districtname": "Lalitpur",
    "statename": "UTTAR PRADESH"
  },
  {
    "pincode": "284124",
    "officename": "Nanaura B.O",
    "officeType": "B.O",
    "Deliverystatus": "Delivery",
    "divisionname": "Jhansi",
    "regionname": "Agra",
    "circlename": "Uttar Pradesh",
    "Taluk": "Lalitpur",
    "Districtname": "Lalitpur",
    "statename": "UTTAR PRADESH"
  },
  {
    "pincode": "284124",
    "officename": "Nauharkalan B.O",
    "officeType": "B.O",
    "Deliverystatus": "Delivery",
    "divisionname": "Jhansi",
    "regionname": "Agra",
    "circlename": "Uttar Pradesh",
    "Taluk": "Lalitpur",
    "Districtname": "Lalitpur",
    "statename": "UTTAR PRADESH"
  },
  {
    "pincode": "284124",
    "officename": "Pipra Raipur B.O",
    "officeType": "B.O",
    "Deliverystatus": "Delivery",
    "divisionname": "Jhansi",
    "regionname": "Agra",
    "circlename": "Uttar Pradesh",
    "Taluk": "Lalitpur",
    "Districtname": "Lalitpur",
    "statename": "UTTAR PRADESH"
  },
  {
    "pincode": "284124",
    "officename": "Rakh Panchampur B.O",
    "officeType": "B.O",
    "Deliverystatus": "Delivery",
    "divisionname": "Jhansi",
    "regionname": "Agra",
    "circlename": "Uttar Pradesh",
    "Taluk": "",
    "Districtname": "Lalitpur",
    "statename": "UTTAR PRADESH"
  },
  {
    "pincode": "284124",
    "officename": "Siron Kalan B.O",
    "officeType": "B.O",
    "Deliverystatus": "Delivery",
    "divisionname": "Jhansi",
    "regionname": "Agra",
    "circlename": "Uttar Pradesh",
    "Taluk": "Lalitpur",
    "Districtname": "Lalitpur",
    "statename": "UTTAR PRADESH"
  },
  {
    "pincode": "284124",
    "officename": "Sirsi B.O",
    "officeType": "B.O",
    "Deliverystatus": "Delivery",
    "divisionname": "Jhansi",
    "regionname": "Agra",
    "circlename": "Uttar Pradesh",
    "Taluk": "",
    "Districtname": "Lalitpur",
    "statename": "UTTAR PRADESH"
  }
]
