[
  {
    "pincode": "284121",
    "officename": "Baragaon S.O (Jhansi)",
    "officeType": "S.O",
    "Deliverystatus": "Delivery",
    "divisionname": "Jhansi",
    "regionname": "Agra",
    "circlename": "Uttar Pradesh",
    "Taluk": "",
    "Districtname": "Jhansi",
    "statename": "UTTAR PRADESH"
  },
  {
    "pincode": "284121",
    "officename": "Baratakalan B.O",
    "officeType": "B.O",
    "Deliverystatus": "Delivery",
    "divisionname": "Jhansi",
    "regionname": "Agra",
    "circlename": "Uttar Pradesh",
    "Taluk": "Jhansi",
    "Districtname": "Jhansi",
    "statename": "UTTAR PRADESH"
  },
  {
    "pincode": "284121",
    "officename": "Birguwan B.O",
    "officeType": "B.O",
    "Deliverystatus": "Delivery",
    "divisionname": "Jhansi",
    "regionname": "Agra",
    "circlename": "Uttar Pradesh",
    "Taluk": "Jhansi",
    "Districtname": "Jhansi",
    "statename": "UTTAR PRADESH"
  },
  {
    "pincode": "284121",
    "officename": "Dhamnakhurd B.O",
    "officeType": "B.O",
    "Deliverystatus": "Delivery",
    "divisionname": "Jhansi",
    "regionname": "Agra",
    "circlename": "Uttar Pradesh",
    "Taluk": "Jhansi",
    "Districtname": "Jhansi",
    "statename": "UTTAR PRADESH"
  },
  {
    "pincode": "284121",
    "officename": "Garhmau B.O",
    "officeType": "B.O",
    "Deliverystatus": "Delivery",
    "divisionname": "Jhansi",
    "regionname": "Agra",
    "circlename": "Uttar Pradesh",
    "Taluk": "Jhansi",
    "Districtname": "Jhansi",
    "statename": "UTTAR PRADESH"
  },
  {
    "pincode": "284121",
    "officename": "Jonri Buzurg B.O",
    "officeType": "B.O",
    "Deliverystatus": "Delivery",
    "divisionname": "Jhansi",
    "regionname": "Agra",
    "circlename": "Uttar Pradesh",
    "Taluk": "Jhansi",
    "Districtname": "Jhansi",
    "statename": "UTTAR PRADESH"
  },
  {
    "pincode": "284121",
    "officename": "Palar B.O",
    "officeType": "B.O",
    "Deliverystatus": "Delivery",
    "divisionname": "Jhansi",
    "regionname": "Agra",
    "circlename": "Uttar Pradesh",
    "Taluk": "Jhansi",
    "Districtname": "Jhansi",
    "statename": "UTTAR PRADESH"
  },
  {
    "pincode": "284121",
    "officename": "Ranguwan B.O",
    "officeType": "B.O",
    "Deliverystatus": "Delivery",
    "divisionname": "Jhansi",
    "regionname": "Agra",
    "circlename": "Uttar Pradesh",
    "Taluk": "Jhansi",
    "Districtname": "Jhansi",
    "statename": "UTTAR PRADESH"
  },
  {
    "pincode": "284121",
    "officename": "Sarol B.O",
    "officeType": "B.O",
    "Deliverystatus": "Delivery",
    "divisionname": "Jhansi",
    "regionname": "Agra",
    "circlename": "Uttar Pradesh",
    "Taluk": "Jhansi",
    "Districtname": "Jhansi",
    "statename": "UTTAR PRADESH"
  },
  {
    "pincode": "284121",
    "officename": "Ujyan B.O",
    "officeType": "B.O",
    "Deliverystatus": "Delivery",
    "divisionname": "Jhansi",
    "regionname": "Agra",
    "circlename": "Uttar Pradesh",
    "Taluk": "Jhansi",
    "Districtname": "Jhansi",
    "statename": "UTTAR PRADESH"
  }
]
