[
  {
    "pincode": "284202",
    "officename": "Asta B.O",
    "officeType": "B.O",
    "Deliverystatus": "Delivery",
    "divisionname": "Jhansi",
    "regionname": "Agra",
    "circlename": "Uttar Pradesh",
    "Taluk": "Garautha",
    "Districtname": "Jhansi",
    "statename": "UTTAR PRADESH"
  },
  {
    "pincode": "284202",
    "officename": "Baghaira B.O",
    "officeType": "B.O",
    "Deliverystatus": "Delivery",
    "divisionname": "Jhansi",
    "regionname": "Agra",
    "circlename": "Uttar Pradesh",
    "Taluk": "Garautha",
    "Districtname": "Jhansi",
    "statename": "UTTAR PRADESH"
  },
  {
    "pincode": "284202",
    "officename": "Bamaur B.O",
    "officeType": "B.O",
    "Deliverystatus": "Delivery",
    "divisionname": "Jhansi",
    "regionname": "Agra",
    "circlename": "Uttar Pradesh",
    "Taluk": "Garautha",
    "Districtname": "Jhansi",
    "statename": "UTTAR PRADESH"
  },
  {
    "pincode": "284202",
    "officename": "Bangri B.O",
    "officeType": "B.O",
    "Deliverystatus": "Delivery",
    "divisionname": "Jhansi",
    "regionname": "Agra",
    "circlename": "Uttar Pradesh",
    "Taluk": "",
    "Districtname": "Jhansi",
    "statename": "UTTAR PRADESH"
  },
  {
    "pincode": "284202",
    "officename": "Dhanaura B.O",
    "officeType": "B.O",
    "Deliverystatus": "Delivery",
    "divisionname": "Jhansi",
    "regionname": "Agra",
    "circlename": "Uttar Pradesh",
    "Taluk": "Garautha",
    "Districtname": "Jhansi",
    "statename": "UTTAR PRADESH"
  },
  {
    "pincode": "284202",
    "officename": "Dhawari B.O",
    "officeType": "B.O",
    "Deliverystatus": "Delivery",
    "divisionname": "Jhansi",
    "regionname": "Agra",
    "circlename": "Uttar Pradesh",
    "Taluk": "",
    "Districtname": "Jhansi",
    "statename": "UTTAR PRADESH"
  },
  {
    "pincode": "284202",
    "officename": "Garhwai B.O",
    "officeType": "B.O",
    "Deliverystatus": "Delivery",
    "divisionname": "Jhansi",
    "regionname": "Agra",
    "circlename": "Uttar Pradesh",
    "Taluk": "Garautha",
    "Districtname": "Jhansi",
    "statename": "UTTAR PRADESH"
  },
  {
    "pincode": "284202",
    "officename": "Ghuraiya B.O",
    "officeType": "B.O",
    "Deliverystatus": "Delivery",
    "divisionname": "Jhansi",
    "regionname": "Agra",
    "circlename": "Uttar Pradesh",
    "Taluk": "Garautha",
    "Districtname": "Jhansi",
    "statename": "UTTAR PRADESH"
  },
  {
    "pincode": "284202",
    "officename": "Gokul B.O",
    "officeType": "B.O",
    "Deliverystatus": "Delivery",
    "divisionname": "Jhansi",
    "regionname": "Agra",
    "circlename": "Uttar Pradesh",
    "Taluk": "Garautha",
    "Districtname": "Jhansi",
    "statename": "UTTAR PRADESH"
  },
  {
    "pincode": "284202",
    "officename": "Gursarai S.O",
    "officeType": "S.O",
    "Deliverystatus": "Delivery",
    "divisionname": "Jhansi",
    "regionname": "Agra",
    "circlename": "Uttar Pradesh",
    "Taluk": "Garautha",
    "Districtname": "Jhansi",
    "statename": "UTTAR PRADESH"
  },
  {
    "pincode": "284202",
    "officename": "Jakhaura B.O",
    "officeType": "B.O",
    "Deliverystatus": "Delivery",
    "divisionname": "Jhansi",
    "regionname": "Agra",
    "circlename": "Uttar Pradesh",
    "Taluk": "Garautha",
    "Districtname": "Jhansi",
    "statename": "UTTAR PRADESH"
  },
  {
    "pincode": "284202",
    "officename": "Karguwan Khurd B.O",
    "officeType": "B.O",
    "Deliverystatus": "Delivery",
    "divisionname": "Jhansi",
    "regionname": "Agra",
    "circlename": "Uttar Pradesh",
    "Taluk": "Garautha",
    "Districtname": "Jhansi",
    "statename": "UTTAR PRADESH"
  },
  {
    "pincode": "284202",
    "officename": "Kudri B.O",
    "officeType": "B.O",
    "Deliverystatus": "Delivery",
    "divisionname": "Jhansi",
    "regionname": "Agra",
    "circlename": "Uttar Pradesh",
    "Taluk": "Garautha",
    "Districtname": "Jhansi",
    "statename": "UTTAR PRADESH"
  },
  {
    "pincode": "284202",
    "officename": "Kuretha B.O",
    "officeType": "B.O",
    "Deliverystatus": "Delivery",
    "divisionname": "Jhansi",
    "regionname": "Agra",
    "circlename": "Uttar Pradesh",
    "Taluk": "Garautha",
    "Districtname": "Jhansi",
    "statename": "UTTAR PRADESH"
  },
  {
    "pincode": "284202",
    "officename": "Nagra B.O",
    "officeType": "B.O",
    "Deliverystatus": "Delivery",
    "divisionname": "Jhansi",
    "regionname": "Agra",
    "circlename": "Uttar Pradesh",
    "Taluk": "Garautha",
    "Districtname": "Jhansi",
    "statename": "UTTAR PRADESH"
  },
  {
    "pincode": "284202",
    "officename": "Nauta B.O",
    "officeType": "B.O",
    "Deliverystatus": "Delivery",
    "divisionname": "Jhansi",
    "regionname": "Agra",
    "circlename": "Uttar Pradesh",
    "Taluk": "Garautha",
    "Districtname": "Jhansi",
    "statename": "UTTAR PRADESH"
  },
  {
    "pincode": "284202",
    "officename": "Sarsenda B.O",
    "officeType": "B.O",
    "Deliverystatus": "Delivery",
    "divisionname": "Jhansi",
    "regionname": "Agra",
    "circlename": "Uttar Pradesh",
    "Taluk": "",
    "Districtname": "Jhansi",
    "statename": "UTTAR PRADESH"
  },
  {
    "pincode": "284202",
    "officename": "Sutta B.O",
    "officeType": "B.O",
    "Deliverystatus": "Delivery",
    "divisionname": "Jhansi",
    "regionname": "Agra",
    "circlename": "Uttar Pradesh",
    "Taluk": "Garautha",
    "Districtname": "Jhansi",
    "statename": "UTTAR PRADESH"
  },
  {
    "pincode": "284202",
    "officename": "Tehrauli B.O",
    "officeType": "B.O",
    "Deliverystatus": "Delivery",
    "divisionname": "Jhansi",
    "regionname": "Agra",
    "circlename": "Uttar Pradesh",
    "Taluk": "",
    "Districtname": "Jhansi",
    "statename": "UTTAR PRADESH"
  }
]
