[
  {
    "pincode": "284301",
    "officename": "Aupara B.O",
    "officeType": "B.O",
    "Deliverystatus": "Delivery",
    "divisionname": "Jhansi",
    "regionname": "Agra",
    "circlename": "Uttar Pradesh",
    "Taluk": "",
    "Districtname": "Jhansi",
    "statename": "UTTAR PRADESH"
  },
  {
    "pincode": "284301",
    "officename": "Bajhera B.O",
    "officeType": "B.O",
    "Deliverystatus": "Delivery",
    "divisionname": "Jhansi",
    "regionname": "Agra",
    "circlename": "Uttar Pradesh",
    "Taluk": "Jhnsi",
    "Districtname": "Jhansi",
    "statename": "UTTAR PRADESH"
  },
  {
    "pincode": "284301",
    "officename": "Baral B.O",
    "officeType": "B.O",
    "Deliverystatus": "Delivery",
    "divisionname": "Jhansi",
    "regionname": "Agra",
    "circlename": "Uttar Pradesh",
    "Taluk": "",
    "Districtname": "Jhansi",
    "statename": "UTTAR PRADESH"
  },
  {
    "pincode": "284301",
    "officename": "Chirgaon S.O (Jhansi)",
    "officeType": "S.O",
    "Deliverystatus": "Delivery",
    "divisionname": "Jhansi",
    "regionname": "Agra",
    "circlename": "Uttar Pradesh",
    "Taluk": "",
    "Districtname": "Jhansi",
    "statename": "UTTAR PRADESH"
  },
  {
    "pincode": "284301",
    "officename": "Jaryai B.O",
    "officeType": "B.O",
    "Deliverystatus": "Delivery",
    "divisionname": "Jhansi",
    "regionname": "Agra",
    "circlename": "Uttar Pradesh",
    "Taluk": "Jhansi",
    "Districtname": "Jhansi",
    "statename": "UTTAR PRADESH"
  },
  {
    "pincode": "284301",
    "officename": "Karguwan B.O",
    "officeType": "B.O",
    "Deliverystatus": "Delivery",
    "divisionname": "Jhansi",
    "regionname": "Agra",
    "circlename": "Uttar Pradesh",
    "Taluk": "Jhansi",
    "Districtname": "Jhansi",
    "statename": "UTTAR PRADESH"
  },
  {
    "pincode": "284301",
    "officename": "Pahari Buzurg B.O",
    "officeType": "B.O",
    "Deliverystatus": "Delivery",
    "divisionname": "Jhansi",
    "regionname": "Agra",
    "circlename": "Uttar Pradesh",
    "Taluk": "Jhansi",
    "Districtname": "Jhansi",
    "statename": "UTTAR PRADESH"
  },
  {
    "pincode": "284301",
    "officename": "Ram Nagar B.O",
    "officeType": "B.O",
    "Deliverystatus": "Delivery",
    "divisionname": "Jhansi",
    "regionname": "Agra",
    "circlename": "Uttar Pradesh",
    "Taluk": "",
    "Districtname": "Jhansi",
    "statename": "UTTAR PRADESH"
  },
  {
    "pincode": "284301",
    "officename": "Simthari B.O",
    "officeType": "B.O",
    "Deliverystatus": "Delivery",
    "divisionname": "Jhansi",
    "regionname": "Agra",
    "circlename": "Uttar Pradesh",
    "Taluk": "Jhansi",
    "Districtname": "Jhansi",
    "statename": "UTTAR PRADESH"
  },
  {
    "pincode": "284301",
    "officename": "Siya B.O",
    "officeType": "B.O",
    "Deliverystatus": "Delivery",
    "divisionname": "Jhansi",
    "regionname": "Agra",
    "circlename": "Uttar Pradesh",
    "Taluk": "Jhansi",
    "Districtname": "Jhansi",
    "statename": "UTTAR PRADESH"
  }
]
