[
  {
    "pincode": "284303",
    "officename": "Amra B.O",
    "officeType": "B.O",
    "Deliverystatus": "Delivery",
    "divisionname": "Jhansi",
    "regionname": "Agra",
    "circlename": "Uttar Pradesh",
    "Taluk": "Moth",
    "Districtname": "Jhansi",
    "statename": "UTTAR PRADESH"
  },
  {
    "pincode": "284303",
    "officename": "Amrokh B.O",
    "officeType": "B.O",
    "Deliverystatus": "Delivery",
    "divisionname": "Jhansi",
    "regionname": "Agra",
    "circlename": "Uttar Pradesh",
    "Taluk": "Moth",
    "Districtname": "Jhansi",
    "statename": "UTTAR PRADESH"
  },
  {
    "pincode": "284303",
    "officename": "Atariya B.O",
    "officeType": "B.O",
    "Deliverystatus": "Delivery",
    "divisionname": "Jhansi",
    "regionname": "Agra",
    "circlename": "Uttar Pradesh",
    "Taluk": "Moth",
    "Districtname": "Jhansi",
    "statename": "UTTAR PRADESH"
  },
  {
    "pincode": "284303",
    "officename": "Bakwan B.O",
    "officeType": "B.O",
    "Deliverystatus": "Delivery",
    "divisionname": "Jhansi",
    "regionname": "Agra",
    "circlename": "Uttar Pradesh",
    "Taluk": "Moth",
    "Districtname": "Jhansi",
    "statename": "UTTAR PRADESH"
  },
  {
    "pincode": "284303",
    "officename": "Basobai B.O",
    "officeType": "B.O",
    "Deliverystatus": "Delivery",
    "divisionname": "Jhansi",
    "regionname": "Agra",
    "circlename": "Uttar Pradesh",
    "Taluk": "Moth",
    "Districtname": "Jhansi",
    "statename": "UTTAR PRADESH"
  },
  {
    "pincode": "284303",
    "officename": "Belma Kalan B.O",
    "officeType": "B.O",
    "Deliverystatus": "Delivery",
    "divisionname": "Jhansi",
    "regionname": "Agra",
    "circlename": "Uttar Pradesh",
    "Taluk": "Moth",
    "Districtname": "Jhansi",
    "statename": "UTTAR PRADESH"
  },
  {
    "pincode": "284303",
    "officename": "Bharosa B.O",
    "officeType": "B.O",
    "Deliverystatus": "Delivery",
    "divisionname": "Jhansi",
    "regionname": "Agra",
    "circlename": "Uttar Pradesh",
    "Taluk": "Moth",
    "Districtname": "Jhansi",
    "statename": "UTTAR PRADESH"
  },
  {
    "pincode": "284303",
    "officename": "Bheonraghat B.O",
    "officeType": "B.O",
    "Deliverystatus": "Delivery",
    "divisionname": "Jhansi",
    "regionname": "Agra",
    "circlename": "Uttar Pradesh",
    "Taluk": "Moth",
    "Districtname": "Jhansi",
    "statename": "UTTAR PRADESH"
  },
  {
    "pincode": "284303",
    "officename": "Chelra B.O",
    "officeType": "B.O",
    "Deliverystatus": "Delivery",
    "divisionname": "Jhansi",
    "regionname": "Agra",
    "circlename": "Uttar Pradesh",
    "Taluk": "Moth",
    "Districtname": "Jhansi",
    "statename": "UTTAR PRADESH"
  },
  {
    "pincode": "284303",
    "officename": "Jaunra B.O",
    "officeType": "B.O",
    "Deliverystatus": "Delivery",
    "divisionname": "Jhansi",
    "regionname": "Agra",
    "circlename": "Uttar Pradesh",
    "Taluk": "Moth",
    "Districtname": "Jhansi",
    "statename": "UTTAR PRADESH"
  },
  {
    "pincode": "284303",
    "officename": "Karkos B.O",
    "officeType": "B.O",
    "Deliverystatus": "Delivery",
    "divisionname": "Jhansi",
    "regionname": "Agra",
    "circlename": "Uttar Pradesh",
    "Taluk": "Moth",
    "Districtname": "Jhansi",
    "statename": "UTTAR PRADESH"
  },
  {
    "pincode": "284303",
    "officename": "Kharauwa B.O",
    "officeType": "B.O",
    "Deliverystatus": "Delivery",
    "divisionname": "Jhansi",
    "regionname": "Agra",
    "circlename": "Uttar Pradesh",
    "Taluk": "Moth",
    "Districtname": "Jhansi",
    "statename": "UTTAR PRADESH"
  },
  {
    "pincode": "284303",
    "officename": "Kumhariya B.O",
    "officeType": "B.O",
    "Deliverystatus": "Delivery",
    "divisionname": "Jhansi",
    "regionname": "Agra",
    "circlename": "Uttar Pradesh",
    "Taluk": "Moth",
    "Districtname": "Jhansi",
    "statename": "UTTAR PRADESH"
  },
  {
    "pincode": "284303",
    "officename": "Kumhrar B.O",
    "officeType": "B.O",
    "Deliverystatus": "Delivery",
    "divisionname": "Jhansi",
    "regionname": "Agra",
    "circlename": "Uttar Pradesh",
    "Taluk": "Moth",
    "Districtname": "Jhansi",
    "statename": "UTTAR PRADESH"
  },
  {
    "pincode": "284303",
    "officename": "Ladawra B.O",
    "officeType": "B.O",
    "Deliverystatus": "Delivery",
    "divisionname": "Jhansi",
    "regionname": "Agra",
    "circlename": "Uttar Pradesh",
    "Taluk": "Moth",
    "Districtname": "Jhansi",
    "statename": "UTTAR PRADESH"
  },
  {
    "pincode": "284303",
    "officename": "Lawan B.O",
    "officeType": "B.O",
    "Deliverystatus": "Delivery",
    "divisionname": "Jhansi",
    "regionname": "Agra",
    "circlename": "Uttar Pradesh",
    "Taluk": "Moth",
    "Districtname": "Jhansi",
    "statename": "UTTAR PRADESH"
  },
  {
    "pincode": "284303",
    "officename": "Moth S.O",
    "officeType": "S.O",
    "Deliverystatus": "Delivery",
    "divisionname": "Jhansi",
    "regionname": "Agra",
    "circlename": "Uttar Pradesh",
    "Taluk": "Moth",
    "Districtname": "Jhansi",
    "statename": "UTTAR PRADESH"
  },
  {
    "pincode": "284303",
    "officename": "Nandkhas B.O",
    "officeType": "B.O",
    "Deliverystatus": "Delivery",
    "divisionname": "Jhansi",
    "regionname": "Agra",
    "circlename": "Uttar Pradesh",
    "Taluk": "Moth",
    "Districtname": "Jhansi",
    "statename": "UTTAR PRADESH"
  },
  {
    "pincode": "284303",
    "officename": "Pandori B.O",
    "officeType": "B.O",
    "Deliverystatus": "Delivery",
    "divisionname": "Jhansi",
    "regionname": "Agra",
    "circlename": "Uttar Pradesh",
    "Taluk": "Moth",
    "Districtname": "Jhansi",
    "statename": "UTTAR PRADESH"
  },
  {
    "pincode": "284303",
    "officename": "Patti Kumharra B.O",
    "officeType": "B.O",
    "Deliverystatus": "Delivery",
    "divisionname": "Jhansi",
    "regionname": "Agra",
    "circlename": "Uttar Pradesh",
    "Taluk": "Moth",
    "Districtname": "Jhansi",
    "statename": "UTTAR PRADESH"
  },
  {
    "pincode": "284303",
    "officename": "Pulia B.O",
    "officeType": "B.O",
    "Deliverystatus": "Delivery",
    "divisionname": "Jhansi",
    "regionname": "Agra",
    "circlename": "Uttar Pradesh",
    "Taluk": "Moth",
    "Districtname": "Jhansi",
    "statename": "UTTAR PRADESH"
  },
  {
    "pincode": "284303",
    "officename": "Reo B.O",
    "officeType": "B.O",
    "Deliverystatus": "Delivery",
    "divisionname": "Jhansi",
    "regionname": "Agra",
    "circlename": "Uttar Pradesh",
    "Taluk": "Moth",
    "Districtname": "Jhansi",
    "statename": "UTTAR PRADESH"
  },
  {
    "pincode": "284303",
    "officename": "Semri B.O",
    "officeType": "B.O",
    "Deliverystatus": "Delivery",
    "divisionname": "Jhansi",
    "regionname": "Agra",
    "circlename": "Uttar Pradesh",
    "Taluk": "Moth",
    "Districtname": "Jhansi",
    "statename": "UTTAR PRADESH"
  },
  {
    "pincode": "284303",
    "officename": "Shahjahanpur B.O",
    "officeType": "B.O",
    "Deliverystatus": "Delivery",
    "divisionname": "Jhansi",
    "regionname": "Agra",
    "circlename": "Uttar Pradesh",
    "Taluk": "Moth",
    "Districtname": "Jhansi",
    "statename": "UTTAR PRADESH"
  },
  {
    "pincode": "284303",
    "officename": "Simiriya B.O",
    "officeType": "B.O",
    "Deliverystatus": "Delivery",
    "divisionname": "Jhansi",
    "regionname": "Agra",
    "circlename": "Uttar Pradesh",
    "Taluk": "",
    "Districtname": "Jalaun",
    "statename": "UTTAR PRADESH"
  },
  {
    "pincode": "284303",
    "officename": "Talaud B.O",
    "officeType": "B.O",
    "Deliverystatus": "Delivery",
    "divisionname": "Jhansi",
    "regionname": "Agra",
    "circlename": "Uttar Pradesh",
    "Taluk": "Moth",
    "Districtname": "Jhansi",
    "statename": "UTTAR PRADESH"
  },
  {
    "pincode": "284303",
    "officename": "Tori B.O",
    "officeType": "B.O",
    "Deliverystatus": "Delivery",
    "divisionname": "Jhansi",
    "regionname": "Agra",
    "circlename": "Uttar Pradesh",
    "Taluk": "Moth",
    "Districtname": "Jhansi",
    "statename": "UTTAR PRADESH"
  }
]
