[
  {
    "pincode": "284406",
    "officename": "Arjunkhiriya B.O",
    "officeType": "B.O",
    "Deliverystatus": "Delivery",
    "divisionname": "Jhansi",
    "regionname": "Agra",
    "circlename": "Uttar Pradesh",
    "Taluk": "Mahroni",
    "Districtname": "Lalitpur",
    "statename": "UTTAR PRADESH"
  },
  {
    "pincode": "284406",
    "officename": "Balabehat B.O",
    "officeType": "B.O",
    "Deliverystatus": "Delivery",
    "divisionname": "Jhansi",
    "regionname": "Agra",
    "circlename": "Uttar Pradesh",
    "Taluk": "Mahroni",
    "Districtname": "Lalitpur",
    "statename": "UTTAR PRADESH"
  },
  {
    "pincode": "284406",
    "officename": "Bomori Bansa B.O",
    "officeType": "B.O",
    "Deliverystatus": "Delivery",
    "divisionname": "Jhansi",
    "regionname": "Agra",
    "circlename": "Uttar Pradesh",
    "Taluk": "",
    "Districtname": "Lalitpur",
    "statename": "UTTAR PRADESH"
  },
  {
    "pincode": "284406",
    "officename": "Dongra Kalan B.O",
    "officeType": "B.O",
    "Deliverystatus": "Delivery",
    "divisionname": "Jhansi",
    "regionname": "Agra",
    "circlename": "Uttar Pradesh",
    "Taluk": "Mahroni",
    "Districtname": "Lalitpur",
    "statename": "UTTAR PRADESH"
  },
  {
    "pincode": "284406",
    "officename": "Dongra Khurd B.O",
    "officeType": "B.O",
    "Deliverystatus": "Delivery",
    "divisionname": "Jhansi",
    "regionname": "Agra",
    "circlename": "Uttar Pradesh",
    "Taluk": "Mahroni",
    "Districtname": "Lalitpur",
    "statename": "UTTAR PRADESH"
  },
  {
    "pincode": "284406",
    "officename": "Gauna B.O",
    "officeType": "B.O",
    "Deliverystatus": "Delivery",
    "divisionname": "Jhansi",
    "regionname": "Agra",
    "circlename": "Uttar Pradesh",
    "Taluk": "Mahroni",
    "Districtname": "Lalitpur",
    "statename": "UTTAR PRADESH"
  },
  {
    "pincode": "284406",
    "officename": "Mahauli B.O",
    "officeType": "B.O",
    "Deliverystatus": "Delivery",
    "divisionname": "Jhansi",
    "regionname": "Agra",
    "circlename": "Uttar Pradesh",
    "Taluk": "Mahroni",
    "Districtname": "Lalitpur",
    "statename": "UTTAR PRADESH"
  },
  {
    "pincode": "284406",
    "officename": "Narahat S.O",
    "officeType": "S.O",
    "Deliverystatus": "Delivery",
    "divisionname": "Jhansi",
    "regionname": "Agra",
    "circlename": "Uttar Pradesh",
    "Taluk": "Lalitpur",
    "Districtname": "Lalitpur",
    "statename": "UTTAR PRADESH"
  },
  {
    "pincode": "284406",
    "officename": "Paraul B.O",
    "officeType": "B.O",
    "Deliverystatus": "Delivery",
    "divisionname": "Jhansi",
    "regionname": "Agra",
    "circlename": "Uttar Pradesh",
    "Taluk": "Mahroni",
    "Districtname": "Lalitpur",
    "statename": "UTTAR PRADESH"
  },
  {
    "pincode": "284406",
    "officename": "Patna B.O",
    "officeType": "B.O",
    "Deliverystatus": "Delivery",
    "divisionname": "Jhansi",
    "regionname": "Agra",
    "circlename": "Uttar Pradesh",
    "Taluk": "Mahroni",
    "Districtname": "Lalitpur",
    "statename": "UTTAR PRADESH"
  },
  {
    "pincode": "284406",
    "officename": "Umariya B.O",
    "officeType": "B.O",
    "Deliverystatus": "Delivery",
    "divisionname": "Jhansi",
    "regionname": "Agra",
    "circlename": "Uttar Pradesh",
    "Taluk": "",
    "Districtname": "Lalitpur",
    "statename": "UTTAR PRADESH"
  }
]
