[
  {
    "pincode": "284405",
    "officename": "Bamhori Bahadur Singh B.O",
    "officeType": "B.O",
    "Deliverystatus": "Delivery",
    "divisionname": "Jhansi",
    "regionname": "Agra",
    "circlename": "Uttar Pradesh",
    "Taluk": "Mahroni",
    "Districtname": "Lalitpur",
    "statename": "UTTAR PRADESH"
  },
  {
    "pincode": "284405",
    "officename": "Bhondi B.O",
    "officeType": "B.O",
    "Deliverystatus": "Delivery",
    "divisionname": "Jhansi",
    "regionname": "Agra",
    "circlename": "Uttar Pradesh",
    "Taluk": "Mahroni",
    "Districtname": "Lalitpur",
    "statename": "UTTAR PRADESH"
  },
  {
    "pincode": "284405",
    "officename": "Chhapchhaul B.O",
    "officeType": "B.O",
    "Deliverystatus": "Delivery",
    "divisionname": "Jhansi",
    "regionname": "Agra",
    "circlename": "Uttar Pradesh",
    "Taluk": "Mahroni",
    "Districtname": "Lalitpur",
    "statename": "UTTAR PRADESH"
  },
  {
    "pincode": "284405",
    "officename": "Dhawari B.O",
    "officeType": "B.O",
    "Deliverystatus": "Delivery",
    "divisionname": "Jhansi",
    "regionname": "Agra",
    "circlename": "Uttar Pradesh",
    "Taluk": "Mahroni",
    "Districtname": "Lalitpur",
    "statename": "UTTAR PRADESH"
  },
  {
    "pincode": "284405",
    "officename": "Gona Kushmadh B.O",
    "officeType": "B.O",
    "Deliverystatus": "Delivery",
    "divisionname": "Jhansi",
    "regionname": "Agra",
    "circlename": "Uttar Pradesh",
    "Taluk": "",
    "Districtname": "Lalitpur",
    "statename": "UTTAR PRADESH"
  },
  {
    "pincode": "284405",
    "officename": "Gurha B.O",
    "officeType": "B.O",
    "Deliverystatus": "Delivery",
    "divisionname": "Jhansi",
    "regionname": "Agra",
    "circlename": "Uttar Pradesh",
    "Taluk": "Mahroni",
    "Districtname": "Lalitpur",
    "statename": "UTTAR PRADESH"
  },
  {
    "pincode": "284405",
    "officename": "Kakrauwa B.O",
    "officeType": "B.O",
    "Deliverystatus": "Delivery",
    "divisionname": "Jhansi",
    "regionname": "Agra",
    "circlename": "Uttar Pradesh",
    "Taluk": "Mahroni",
    "Districtname": "Lalitpur",
    "statename": "UTTAR PRADESH"
  },
  {
    "pincode": "284405",
    "officename": "Khajuriya B.O",
    "officeType": "B.O",
    "Deliverystatus": "Delivery",
    "divisionname": "Jhansi",
    "regionname": "Agra",
    "circlename": "Uttar Pradesh",
    "Taluk": "",
    "Districtname": "Lalitpur",
    "statename": "UTTAR PRADESH"
  },
  {
    "pincode": "284405",
    "officename": "Khiriya Latkanju B.O",
    "officeType": "B.O",
    "Deliverystatus": "Delivery",
    "divisionname": "Jhansi",
    "regionname": "Agra",
    "circlename": "Uttar Pradesh",
    "Taluk": "Mahroni",
    "Districtname": "Lalitpur",
    "statename": "UTTAR PRADESH"
  },
  {
    "pincode": "284405",
    "officename": "Khitwans B.O",
    "officeType": "B.O",
    "Deliverystatus": "Delivery",
    "divisionname": "Jhansi",
    "regionname": "Agra",
    "circlename": "Uttar Pradesh",
    "Taluk": "",
    "Districtname": "Lalitpur",
    "statename": "UTTAR PRADESH"
  },
  {
    "pincode": "284405",
    "officename": "Kumheri B.O",
    "officeType": "B.O",
    "Deliverystatus": "Delivery",
    "divisionname": "Jhansi",
    "regionname": "Agra",
    "circlename": "Uttar Pradesh",
    "Taluk": "Mahroni",
    "Districtname": "Lalitpur",
    "statename": "UTTAR PRADESH"
  },
  {
    "pincode": "284405",
    "officename": "Mahroni S.O",
    "officeType": "S.O",
    "Deliverystatus": "Delivery",
    "divisionname": "Jhansi",
    "regionname": "Agra",
    "circlename": "Uttar Pradesh",
    "Taluk": "",
    "Districtname": "Lalitpur",
    "statename": "UTTAR PRADESH"
  },
  {
    "pincode": "284405",
    "officename": "Naikaura B.O",
    "officeType": "B.O",
    "Deliverystatus": "Delivery",
    "divisionname": "Jhansi",
    "regionname": "Agra",
    "circlename": "Uttar Pradesh",
    "Taluk": "Mahroni",
    "Districtname": "Lalitpur",
    "statename": "UTTAR PRADESH"
  },
  {
    "pincode": "284405",
    "officename": "Nainwara B.O",
    "officeType": "B.O",
    "Deliverystatus": "Delivery",
    "divisionname": "Jhansi",
    "regionname": "Agra",
    "circlename": "Uttar Pradesh",
    "Taluk": "Mahroni",
    "Districtname": "Lalitpur",
    "statename": "UTTAR PRADESH"
  },
  {
    "pincode": "284405",
    "officename": "Patha B.O",
    "officeType": "B.O",
    "Deliverystatus": "Delivery",
    "divisionname": "Jhansi",
    "regionname": "Agra",
    "circlename": "Uttar Pradesh",
    "Taluk": "",
    "Districtname": "Jhansi",
    "statename": "UTTAR PRADESH"
  },
  {
    "pincode": "284405",
    "officename": "Saujana B.O",
    "officeType": "B.O",
    "Deliverystatus": "Delivery",
    "divisionname": "Jhansi",
    "regionname": "Agra",
    "circlename": "Uttar Pradesh",
    "Taluk": "Mahroni",
    "Districtname": "Lalitpur",
    "statename": "UTTAR PRADESH"
  },
  {
    "pincode": "284405",
    "officename": "Silawan B.O",
    "officeType": "B.O",
    "Deliverystatus": "Delivery",
    "divisionname": "Jhansi",
    "regionname": "Agra",
    "circlename": "Uttar Pradesh",
    "Taluk": "Mahroni",
    "Districtname": "Lalitpur",
    "statename": "UTTAR PRADESH"
  },
  {
    "pincode": "284405",
    "officename": "Sindwaha B.O",
    "officeType": "B.O",
    "Deliverystatus": "Delivery",
    "divisionname": "Jhansi",
    "regionname": "Agra",
    "circlename": "Uttar Pradesh",
    "Taluk": "Mahroni",
    "Districtname": "Lalitpur",
    "statename": "UTTAR PRADESH"
  }
]
