[
  {
    "pincode": "285001",
    "officename": "Aeir B.O",
    "officeType": "B.O",
    "Deliverystatus": "Delivery",
    "divisionname": "Jhansi",
    "regionname": "Agra",
    "circlename": "Uttar Pradesh",
    "Taluk": "Orai",
    "Districtname": "Jalaun",
    "statename": "UTTAR PRADESH"
  },
  {
    "pincode": "285001",
    "officename": "Baragaon B.O",
    "officeType": "B.O",
    "Deliverystatus": "Delivery",
    "divisionname": "Jhansi",
    "regionname": "Agra",
    "circlename": "Uttar Pradesh",
    "Taluk": "",
    "Districtname": "Jalaun",
    "statename": "UTTAR PRADESH"
  },
  {
    "pincode": "285001",
    "officename": "Beerpura B.O",
    "officeType": "B.O",
    "Deliverystatus": "Delivery",
    "divisionname": "Jhansi",
    "regionname": "Agra",
    "circlename": "Uttar Pradesh",
    "Taluk": "Orai",
    "Districtname": "Jalaun",
    "statename": "UTTAR PRADESH"
  },
  {
    "pincode": "285001",
    "officename": "Chilli B.O",
    "officeType": "B.O",
    "Deliverystatus": "Delivery",
    "divisionname": "Jhansi",
    "regionname": "Agra",
    "circlename": "Uttar Pradesh",
    "Taluk": "Orai",
    "Districtname": "Jalaun",
    "statename": "UTTAR PRADESH"
  },
  {
    "pincode": "285001",
    "officename": "Churkhi B.O",
    "officeType": "B.O",
    "Deliverystatus": "Delivery",
    "divisionname": "Jhansi",
    "regionname": "Agra",
    "circlename": "Uttar Pradesh",
    "Taluk": "Jalaun",
    "Districtname": "Jalaun",
    "statename": "UTTAR PRADESH"
  },
  {
    "pincode": "285001",
    "officename": "Dhanaura B.O",
    "officeType": "B.O",
    "Deliverystatus": "Delivery",
    "divisionname": "Jhansi",
    "regionname": "Agra",
    "circlename": "Uttar Pradesh",
    "Taluk": "",
    "Districtname": "Jalaun",
    "statename": "UTTAR PRADESH"
  },
  {
    "pincode": "285001",
    "officename": "Dhantauli B.O",
    "officeType": "B.O",
    "Deliverystatus": "Delivery",
    "divisionname": "Jhansi",
    "regionname": "Agra",
    "circlename": "Uttar Pradesh",
    "Taluk": "",
    "Districtname": "Jalaun",
    "statename": "UTTAR PRADESH"
  },
  {
    "pincode": "285001",
    "officename": "Dvc Road Orai S.O",
    "officeType": "S.O",
    "Deliverystatus": "Non-Delivery",
    "divisionname": "Jhansi",
    "regionname": "Agra",
    "circlename": "Uttar Pradesh",
    "Taluk": "Orai",
    "Districtname": "Jalaun",
    "statename": "UTTAR PRADESH"
  },
  {
    "pincode": "285001",
    "officename": "Garhar B.O",
    "officeType": "B.O",
    "Deliverystatus": "Delivery",
    "divisionname": "Jhansi",
    "regionname": "Agra",
    "circlename": "Uttar Pradesh",
    "Taluk": "Orai",
    "Districtname": "Jalaun",
    "statename": "UTTAR PRADESH"
  },
  {
    "pincode": "285001",
    "officename": "Gohan B.O",
    "officeType": "B.O",
    "Deliverystatus": "Non-Delivery",
    "divisionname": "Jhansi",
    "regionname": "Agra",
    "circlename": "Uttar Pradesh",
    "Taluk": "Jalaun",
    "Districtname": "Jalaun",
    "statename": "UTTAR PRADESH"
  },
  {
    "pincode": "285001",
    "officename": "Hardoi Guzar B.O",
    "officeType": "B.O",
    "Deliverystatus": "Non-Delivery",
    "divisionname": "Jhansi",
    "regionname": "Agra",
    "circlename": "Uttar Pradesh",
    "Taluk": "Orai",
    "Districtname": "Jalaun",
    "statename": "UTTAR PRADESH"
  },
  {
    "pincode": "285001",
    "officename": "Imiliya B.O",
    "officeType": "B.O",
    "Deliverystatus": "Delivery",
    "divisionname": "Jhansi",
    "regionname": "Agra",
    "circlename": "Uttar Pradesh",
    "Taluk": "Orai",
    "Districtname": "Jalaun",
    "statename": "UTTAR PRADESH"
  },
  {
    "pincode": "285001",
    "officename": "Itaura B.O",
    "officeType": "B.O",
    "Deliverystatus": "Non-Delivery",
    "divisionname": "Jhansi",
    "regionname": "Agra",
    "circlename": "Uttar Pradesh",
    "Taluk": "Orai",
    "Districtname": "Jalaun",
    "statename": "UTTAR PRADESH"
  },
  {
    "pincode": "285001",
    "officename": "Kailiya B.O",
    "officeType": "B.O",
    "Deliverystatus": "Delivery",
    "divisionname": "Jhansi",
    "regionname": "Agra",
    "circlename": "Uttar Pradesh",
    "Taluk": "Konch",
    "Districtname": "Jalaun",
    "statename": "UTTAR PRADESH"
  },
  {
    "pincode": "285001",
    "officename": "Karmer B.O",
    "officeType": "B.O",
    "Deliverystatus": "Delivery",
    "divisionname": "Jhansi",
    "regionname": "Agra",
    "circlename": "Uttar Pradesh",
    "Taluk": "Orai",
    "Districtname": "Jalaun",
    "statename": "UTTAR PRADESH"
  },
  {
    "pincode": "285001",
    "officename": "Kharka B.O",
    "officeType": "B.O",
    "Deliverystatus": "Delivery",
    "divisionname": "Jhansi",
    "regionname": "Agra",
    "circlename": "Uttar Pradesh",
    "Taluk": "Orai",
    "Districtname": "Jalaun",
    "statename": "UTTAR PRADESH"
  },
  {
    "pincode": "285001",
    "officename": "Kharoosa B.O",
    "officeType": "B.O",
    "Deliverystatus": "Delivery",
    "divisionname": "Jhansi",
    "regionname": "Agra",
    "circlename": "Uttar Pradesh",
    "Taluk": "Orai",
    "Districtname": "Jalaun",
    "statename": "UTTAR PRADESH"
  },
  {
    "pincode": "285001",
    "officename": "Kharra B.O",
    "officeType": "B.O",
    "Deliverystatus": "Delivery",
    "divisionname": "Jhansi",
    "regionname": "Agra",
    "circlename": "Uttar Pradesh",
    "Taluk": "Orai",
    "Districtname": "Jalaun",
    "statename": "UTTAR PRADESH"
  },
  {
    "pincode": "285001",
    "officename": "Kukargaon B.O",
    "officeType": "B.O",
    "Deliverystatus": "Delivery",
    "divisionname": "Jhansi",
    "regionname": "Agra",
    "circlename": "Uttar Pradesh",
    "Taluk": "Orai",
    "Districtname": "Jalaun",
    "statename": "UTTAR PRADESH"
  },
  {
    "pincode": "285001",
    "officename": "Mandri B.O",
    "officeType": "B.O",
    "Deliverystatus": "Delivery",
    "divisionname": "Jhansi",
    "regionname": "Agra",
    "circlename": "Uttar Pradesh",
    "Taluk": "Orai",
    "Districtname": "Jalaun",
    "statename": "UTTAR PRADESH"
  },
  {
    "pincode": "285001",
    "officename": "Nunsai B.O",
    "officeType": "B.O",
    "Deliverystatus": "Delivery",
    "divisionname": "Jhansi",
    "regionname": "Agra",
    "circlename": "Uttar Pradesh",
    "Taluk": "",
    "Districtname": "Jalaun",
    "statename": "UTTAR PRADESH"
  },
  {
    "pincode": "285001",
    "officename": "Orai H.O",
    "officeType": "H.O",
    "Deliverystatus": "Delivery",
    "divisionname": "Jhansi",
    "regionname": "Agra",
    "circlename": "Uttar Pradesh",
    "Taluk": "Orai",
    "Districtname": "Jalaun",
    "statename": "UTTAR PRADESH"
  },
  {
    "pincode": "285001",
    "officename": "Orai Kutchery S.O",
    "officeType": "S.O",
    "Deliverystatus": "Non-Delivery",
    "divisionname": "Jhansi",
    "regionname": "Agra",
    "circlename": "Uttar Pradesh",
    "Taluk": "Orai",
    "Districtname": "Jalaun",
    "statename": "UTTAR PRADESH"
  },
  {
    "pincode": "285001",
    "officename": "Orai Railway Station S.O",
    "officeType": "S.O",
    "Deliverystatus": "Non-Delivery",
    "divisionname": "Jhansi",
    "regionname": "Agra",
    "circlename": "Uttar Pradesh",
    "Taluk": "Orai",
    "Districtname": "Jalaun",
    "statename": "UTTAR PRADESH"
  },
  {
    "pincode": "285001",
    "officename": "Orai Town S.O",
    "officeType": "S.O",
    "Deliverystatus": "Non-Delivery",
    "divisionname": "Jhansi",
    "regionname": "Agra",
    "circlename": "Uttar Pradesh",
    "Taluk": "Orai",
    "Districtname": "Jalaun",
    "statename": "UTTAR PRADESH"
  },
  {
    "pincode": "285001",
    "officename": "Rahiya B.O",
    "officeType": "B.O",
    "Deliverystatus": "Delivery",
    "divisionname": "Jhansi",
    "regionname": "Agra",
    "circlename": "Uttar Pradesh",
    "Taluk": "Orai",
    "Districtname": "Jalaun",
    "statename": "UTTAR PRADESH"
  },
  {
    "pincode": "285001",
    "officename": "Rath Road Orai S.O",
    "officeType": "S.O",
    "Deliverystatus": "Non-Delivery",
    "divisionname": "Jhansi",
    "regionname": "Agra",
    "circlename": "Uttar Pradesh",
    "Taluk": "Orai",
    "Districtname": "Jalaun",
    "statename": "UTTAR PRADESH"
  },
  {
    "pincode": "285001",
    "officename": "Roora Addu B.O",
    "officeType": "B.O",
    "Deliverystatus": "Delivery",
    "divisionname": "Jhansi",
    "regionname": "Agra",
    "circlename": "Uttar Pradesh",
    "Taluk": "Orai",
    "Districtname": "Jalaun",
    "statename": "UTTAR PRADESH"
  },
  {
    "pincode": "285001",
    "officename": "Shahjadpura B.O",
    "officeType": "B.O",
    "Deliverystatus": "Delivery",
    "divisionname": "Jhansi",
    "regionname": "Agra",
    "circlename": "Uttar Pradesh",
    "Taluk": "Orai",
    "Districtname": "Jalaun",
    "statename": "UTTAR PRADESH"
  },
  {
    "pincode": "285001",
    "officename": "Sihari Daoodpur B.O",
    "officeType": "B.O",
    "Deliverystatus": "Delivery",
    "divisionname": "Jhansi",
    "regionname": "Agra",
    "circlename": "Uttar Pradesh",
    "Taluk": "",
    "Districtname": "Jalaun",
    "statename": "UTTAR PRADESH"
  },
  {
    "pincode": "285001",
    "officename": "Timron B.O",
    "officeType": "B.O",
    "Deliverystatus": "Delivery",
    "divisionname": "Jhansi",
    "regionname": "Agra",
    "circlename": "Uttar Pradesh",
    "Taluk": "",
    "Districtname": "Jalaun",
    "statename": "UTTAR PRADESH"
  }
]
