[
  {
    "pincode": "285124",
    "officename": "Bahadurpur B.O",
    "officeType": "B.O",
    "Deliverystatus": "Delivery",
    "divisionname": "Jhansi",
    "regionname": "Agra",
    "circlename": "Uttar Pradesh",
    "Taluk": "Jalaun",
    "Districtname": "Jalaun",
    "statename": "UTTAR PRADESH"
  },
  {
    "pincode": "285124",
    "officename": "Bilond B.O",
    "officeType": "B.O",
    "Deliverystatus": "Delivery",
    "divisionname": "Jhansi",
    "regionname": "Agra",
    "circlename": "Uttar Pradesh",
    "Taluk": "Jalaun",
    "Districtname": "Jalaun",
    "statename": "UTTAR PRADESH"
  },
  {
    "pincode": "285124",
    "officename": "Dhoota B.O",
    "officeType": "B.O",
    "Deliverystatus": "Delivery",
    "divisionname": "Jhansi",
    "regionname": "Agra",
    "circlename": "Uttar Pradesh",
    "Taluk": "Jalaun",
    "Districtname": "Jalaun",
    "statename": "UTTAR PRADESH"
  },
  {
    "pincode": "285124",
    "officename": "Jagammanpur S.O",
    "officeType": "S.O",
    "Deliverystatus": "Delivery",
    "divisionname": "Jhansi",
    "regionname": "Agra",
    "circlename": "Uttar Pradesh",
    "Taluk": "Jalaun",
    "Districtname": "Jalaun",
    "statename": "UTTAR PRADESH"
  },
  {
    "pincode": "285124",
    "officename": "Jaigha B.O",
    "officeType": "B.O",
    "Deliverystatus": "Delivery",
    "divisionname": "Jhansi",
    "regionname": "Agra",
    "circlename": "Uttar Pradesh",
    "Taluk": "Jalaun",
    "Districtname": "Jalaun",
    "statename": "UTTAR PRADESH"
  },
  {
    "pincode": "285124",
    "officename": "Lidaupur B.O",
    "officeType": "B.O",
    "Deliverystatus": "Delivery",
    "divisionname": "Jhansi",
    "regionname": "Agra",
    "circlename": "Uttar Pradesh",
    "Taluk": "Jalaun",
    "Districtname": "Jalaun",
    "statename": "UTTAR PRADESH"
  },
  {
    "pincode": "285124",
    "officename": "Mai B.O",
    "officeType": "B.O",
    "Deliverystatus": "Delivery",
    "divisionname": "Jhansi",
    "regionname": "Agra",
    "circlename": "Uttar Pradesh",
    "Taluk": "Jalaun",
    "Districtname": "Jalaun",
    "statename": "UTTAR PRADESH"
  },
  {
    "pincode": "285124",
    "officename": "Patrahi B.O",
    "officeType": "B.O",
    "Deliverystatus": "Delivery",
    "divisionname": "Jhansi",
    "regionname": "Agra",
    "circlename": "Uttar Pradesh",
    "Taluk": "Jalaun",
    "Districtname": "Jalaun",
    "statename": "UTTAR PRADESH"
  }
]
