[
  {
    "pincode": "285126",
    "officename": "Chitaura B.O",
    "officeType": "B.O",
    "Deliverystatus": "Delivery",
    "divisionname": "Jhansi",
    "regionname": "Agra",
    "circlename": "Uttar Pradesh",
    "Taluk": "Madhogarh",
    "Districtname": "Jalaun",
    "statename": "UTTAR PRADESH"
  },
  {
    "pincode": "285126",
    "officename": "Dhamna B.O",
    "officeType": "B.O",
    "Deliverystatus": "Delivery",
    "divisionname": "Jhansi",
    "regionname": "Agra",
    "circlename": "Uttar Pradesh",
    "Taluk": "Madhogarh",
    "Districtname": "Jalaun",
    "statename": "UTTAR PRADESH"
  },
  {
    "pincode": "285126",
    "officename": "Harauli B.O",
    "officeType": "B.O",
    "Deliverystatus": "Delivery",
    "divisionname": "Jhansi",
    "regionname": "Agra",
    "circlename": "Uttar Pradesh",
    "Taluk": "Madhogarh",
    "Districtname": "Jalaun",
    "statename": "UTTAR PRADESH"
  },
  {
    "pincode": "285126",
    "officename": "Kailor B.O",
    "officeType": "B.O",
    "Deliverystatus": "Delivery",
    "divisionname": "Jhansi",
    "regionname": "Agra",
    "circlename": "Uttar Pradesh",
    "Taluk": "Madhogarh",
    "Districtname": "Jalaun",
    "statename": "UTTAR PRADESH"
  },
  {
    "pincode": "285126",
    "officename": "Kursenda B.O",
    "officeType": "B.O",
    "Deliverystatus": "Delivery",
    "divisionname": "Jhansi",
    "regionname": "Agra",
    "circlename": "Uttar Pradesh",
    "Taluk": "Madhogarh",
    "Districtname": "Jalaun",
    "statename": "UTTAR PRADESH"
  },
  {
    "pincode": "285126",
    "officename": "Madhogarh S.O (Jalaun)",
    "officeType": "S.O",
    "Deliverystatus": "Delivery",
    "divisionname": "Jhansi",
    "regionname": "Agra",
    "circlename": "Uttar Pradesh",
    "Taluk": "Jalaun",
    "Districtname": "Jalaun",
    "statename": "UTTAR PRADESH"
  },
  {
    "pincode": "285126",
    "officename": "Ramhetpura B.O",
    "officeType": "B.O",
    "Deliverystatus": "Delivery",
    "divisionname": "Jhansi",
    "regionname": "Agra",
    "circlename": "Uttar Pradesh",
    "Taluk": "Madhogarh",
    "Districtname": "Jalaun",
    "statename": "UTTAR PRADESH"
  },
  {
    "pincode": "285126",
    "officename": "Sihari B.O",
    "officeType": "B.O",
    "Deliverystatus": "Delivery",
    "divisionname": "Jhansi",
    "regionname": "Agra",
    "circlename": "Uttar Pradesh",
    "Taluk": "Madhogarh",
    "Districtname": "Jalaun",
    "statename": "UTTAR PRADESH"
  }
]
