[
  {
    "pincode": "301030",
    "officename": "Bahala B.O",
    "officeType": "B.O",
    "Deliverystatus": "Delivery",
    "divisionname": "Alwar",
    "regionname": "Jaipur HQ",
    "circlename": "Rajasthan",
    "Taluk": "Alwar",
    "Districtname": "Alwar",
    "statename": "RAJASTHAN"
  },
  {
    "pincode": "301030",
    "officename": "Bhageet B.O",
    "officeType": "B.O",
    "Deliverystatus": "Delivery",
    "divisionname": "Alwar",
    "regionname": "Jaipur HQ",
    "circlename": "Rajasthan",
    "Taluk": "Alwar",
    "Districtname": "Alwar",
    "statename": "RAJASTHAN"
  },
  {
    "pincode": "301030",
    "officename": "Desula B.O",
    "officeType": "B.O",
    "Deliverystatus": "Delivery",
    "divisionname": "Alwar",
    "regionname": "Jaipur HQ",
    "circlename": "Rajasthan",
    "Taluk": "Alwar",
    "Districtname": "Alwar",
    "statename": "RAJASTHAN"
  },
  {
    "pincode": "301030",
    "officename": "Jatpur B.O",
    "officeType": "B.O",
    "Deliverystatus": "Delivery",
    "divisionname": "Alwar",
    "regionname": "Jaipur HQ",
    "circlename": "Rajasthan",
    "Taluk": "Alwar",
    "Districtname": "Alwar",
    "statename": "RAJASTHAN"
  },
  {
    "pincode": "301030",
    "officename": "Khanpur Jat B.O",
    "officeType": "B.O",
    "Deliverystatus": "Delivery",
    "divisionname": "Alwar",
    "regionname": "Jaipur HQ",
    "circlename": "Rajasthan",
    "Taluk": "Alwar",
    "Districtname": "Alwar",
    "statename": "RAJASTHAN"
  },
  {
    "pincode": "301030",
    "officename": "Kherli Syed B.O",
    "officeType": "B.O",
    "Deliverystatus": "Delivery",
    "divisionname": "Alwar",
    "regionname": "Jaipur HQ",
    "circlename": "Rajasthan",
    "Taluk": "Alwar",
    "Districtname": "Alwar",
    "statename": "RAJASTHAN"
  },
  {
    "pincode": "301030",
    "officename": "Matasya Ind. Area S.O",
    "officeType": "S.O",
    "Deliverystatus": "Delivery",
    "divisionname": "Alwar",
    "regionname": "Jaipur HQ",
    "circlename": "Rajasthan",
    "Taluk": "Ramgarh",
    "Districtname": "Alwar",
    "statename": "RAJASTHAN"
  },
  {
    "pincode": "301030",
    "officename": "Salpur B.O",
    "officeType": "B.O",
    "Deliverystatus": "Delivery",
    "divisionname": "Alwar",
    "regionname": "Jaipur HQ",
    "circlename": "Rajasthan",
    "Taluk": "Alwar",
    "Districtname": "Alwar",
    "statename": "RAJASTHAN"
  }
]
