[
  {
    "pincode": "301026",
    "officename": "Alaora B.O",
    "officeType": "B.O",
    "Deliverystatus": "Delivery",
    "divisionname": "Alwar",
    "regionname": "Jaipur HQ",
    "circlename": "Rajasthan",
    "Taluk": "Ramgarh",
    "Districtname": "Alwar",
    "statename": "RAJASTHAN"
  },
  {
    "pincode": "301026",
    "officename": "Chomu B.O",
    "officeType": "B.O",
    "Deliverystatus": "Delivery",
    "divisionname": "Alwar",
    "regionname": "Jaipur HQ",
    "circlename": "Rajasthan",
    "Taluk": "Ramgarh",
    "Districtname": "Alwar",
    "statename": "RAJASTHAN"
  },
  {
    "pincode": "301026",
    "officename": "Indpura B.O",
    "officeType": "B.O",
    "Deliverystatus": "Delivery",
    "divisionname": "Alwar",
    "regionname": "Jaipur HQ",
    "circlename": "Rajasthan",
    "Taluk": "Ramgarh",
    "Districtname": "Alwar",
    "statename": "RAJASTHAN"
  },
  {
    "pincode": "301026",
    "officename": "KHERI B.O",
    "officeType": "B.O",
    "Deliverystatus": "Delivery",
    "divisionname": "Alwar",
    "regionname": "Jaipur HQ",
    "circlename": "Rajasthan",
    "Taluk": "Ramgarh",
    "Districtname": "Alwar",
    "statename": "RAJASTHAN"
  },
  {
    "pincode": "301026",
    "officename": "Kkoh B.O",
    "officeType": "B.O",
    "Deliverystatus": "Delivery",
    "divisionname": "Alwar",
    "regionname": "Jaipur HQ",
    "circlename": "Rajasthan",
    "Taluk": "Ramgarh",
    "Districtname": "Alwar",
    "statename": "RAJASTHAN"
  },
  {
    "pincode": "301026",
    "officename": "Malpur B.O",
    "officeType": "B.O",
    "Deliverystatus": "Delivery",
    "divisionname": "Alwar",
    "regionname": "Jaipur HQ",
    "circlename": "Rajasthan",
    "Taluk": "Ramgarh",
    "Districtname": "Alwar",
    "statename": "RAJASTHAN"
  },
  {
    "pincode": "301026",
    "officename": "Milakpur B.O",
    "officeType": "B.O",
    "Deliverystatus": "Delivery",
    "divisionname": "Alwar",
    "regionname": "Jaipur HQ",
    "circlename": "Rajasthan",
    "Taluk": "Ramgarh",
    "Districtname": "Alwar",
    "statename": "RAJASTHAN"
  },
  {
    "pincode": "301026",
    "officename": "Naswari B.O",
    "officeType": "B.O",
    "Deliverystatus": "Delivery",
    "divisionname": "Alwar",
    "regionname": "Jaipur HQ",
    "circlename": "Rajasthan",
    "Taluk": "Ramgarh",
    "Districtname": "Alwar",
    "statename": "RAJASTHAN"
  },
  {
    "pincode": "301026",
    "officename": "Peproli B.O",
    "officeType": "B.O",
    "Deliverystatus": "Delivery",
    "divisionname": "Alwar",
    "regionname": "Jaipur HQ",
    "circlename": "Rajasthan",
    "Taluk": "Ramgarh",
    "Districtname": "Alwar",
    "statename": "RAJASTHAN"
  },
  {
    "pincode": "301026",
    "officename": "Ramgarh S.O (Alwar)",
    "officeType": "S.O",
    "Deliverystatus": "Delivery",
    "divisionname": "Alwar",
    "regionname": "Jaipur HQ",
    "circlename": "Rajasthan",
    "Taluk": "Ramgarh",
    "Districtname": "Alwar",
    "statename": "RAJASTHAN"
  },
  {
    "pincode": "301026",
    "officename": "Sainthli B.O",
    "officeType": "B.O",
    "Deliverystatus": "Delivery",
    "divisionname": "Alwar",
    "regionname": "Jaipur HQ",
    "circlename": "Rajasthan",
    "Taluk": "Ramgarh",
    "Districtname": "Alwar",
    "statename": "RAJASTHAN"
  },
  {
    "pincode": "301026",
    "officename": "Sirmor B.O",
    "officeType": "B.O",
    "Deliverystatus": "Delivery",
    "divisionname": "Alwar",
    "regionname": "Jaipur HQ",
    "circlename": "Rajasthan",
    "Taluk": "Ramgarh",
    "Districtname": "Alwar",
    "statename": "RAJASTHAN"
  },
  {
    "pincode": "301026",
    "officename": "khilora B.O",
    "officeType": "B.O",
    "Deliverystatus": "Delivery",
    "divisionname": "Alwar",
    "regionname": "Jaipur HQ",
    "circlename": "Rajasthan",
    "Taluk": "Ramgarh",
    "Districtname": "Alwar",
    "statename": "RAJASTHAN"
  }
]
