[
  {
    "pincode": "301001",
    "officename": "Akbarpur B.O",
    "officeType": "B.O",
    "Deliverystatus": "Delivery",
    "divisionname": "Alwar",
    "regionname": "Jaipur HQ",
    "circlename": "Rajasthan",
    "Taluk": "Alwar",
    "Districtname": "Alwar",
    "statename": "RAJASTHAN"
  },
  {
    "pincode": "301001",
    "officename": "Alwar Bus Stand S.O",
    "officeType": "S.O",
    "Deliverystatus": "Non-Delivery",
    "divisionname": "Alwar",
    "regionname": "Jaipur HQ",
    "circlename": "Rajasthan",
    "Taluk": "Alwar",
    "Districtname": "Alwar",
    "statename": "RAJASTHAN"
  },
  {
    "pincode": "301001",
    "officename": "Alwar H.O",
    "officeType": "H.O",
    "Deliverystatus": "Delivery",
    "divisionname": "Alwar",
    "regionname": "Jaipur HQ",
    "circlename": "Rajasthan",
    "Taluk": "Alwar",
    "Districtname": "Alwar",
    "statename": "RAJASTHAN"
  },
  {
    "pincode": "301001",
    "officename": "Aryanagar Alwar S.O",
    "officeType": "S.O",
    "Deliverystatus": "Non-Delivery",
    "divisionname": "Alwar",
    "regionname": "Jaipur HQ",
    "circlename": "Rajasthan",
    "Taluk": "Alwar",
    "Districtname": "Alwar",
    "statename": "RAJASTHAN"
  },
  {
    "pincode": "301001",
    "officename": "Bagarrajput B.O",
    "officeType": "B.O",
    "Deliverystatus": "Delivery",
    "divisionname": "Alwar",
    "regionname": "Jaipur HQ",
    "circlename": "Rajasthan",
    "Taluk": "Alwar",
    "Districtname": "Alwar",
    "statename": "RAJASTHAN"
  },
  {
    "pincode": "301001",
    "officename": "Bamboli B.O",
    "officeType": "B.O",
    "Deliverystatus": "Delivery",
    "divisionname": "Alwar",
    "regionname": "Jaipur HQ",
    "circlename": "Rajasthan",
    "Taluk": "Alwar",
    "Districtname": "Alwar",
    "statename": "RAJASTHAN"
  },
  {
    "pincode": "301001",
    "officename": "Bhoggore B.O",
    "officeType": "B.O",
    "Deliverystatus": "Delivery",
    "divisionname": "Alwar",
    "regionname": "Jaipur HQ",
    "circlename": "Rajasthan",
    "Taluk": "Alwar",
    "Districtname": "Alwar",
    "statename": "RAJASTHAN"
  },
  {
    "pincode": "301001",
    "officename": "Burja B.O",
    "officeType": "B.O",
    "Deliverystatus": "Delivery",
    "divisionname": "Alwar",
    "regionname": "Jaipur HQ",
    "circlename": "Rajasthan",
    "Taluk": "Alwar",
    "Districtname": "Alwar",
    "statename": "RAJASTHAN"
  },
  {
    "pincode": "301001",
    "officename": "Chandoli B.O",
    "officeType": "B.O",
    "Deliverystatus": "Delivery",
    "divisionname": "Alwar",
    "regionname": "Jaipur HQ",
    "circlename": "Rajasthan",
    "Taluk": "Alwar",
    "Districtname": "Alwar",
    "statename": "RAJASTHAN"
  },
  {
    "pincode": "301001",
    "officename": "Delhi Gate Alwar S.O",
    "officeType": "S.O",
    "Deliverystatus": "Non-Delivery",
    "divisionname": "Alwar",
    "regionname": "Jaipur HQ",
    "circlename": "Rajasthan",
    "Taluk": "Alwar",
    "Districtname": "Alwar",
    "statename": "RAJASTHAN"
  },
  {
    "pincode": "301001",
    "officename": "Diwakari B.O",
    "officeType": "B.O",
    "Deliverystatus": "Delivery",
    "divisionname": "Alwar",
    "regionname": "Jaipur HQ",
    "circlename": "Rajasthan",
    "Taluk": "Alwar",
    "Districtname": "Alwar",
    "statename": "RAJASTHAN"
  },
  {
    "pincode": "301001",
    "officename": "Ghat B.O",
    "officeType": "B.O",
    "Deliverystatus": "Delivery",
    "divisionname": "Alwar",
    "regionname": "Jaipur HQ",
    "circlename": "Rajasthan",
    "Taluk": "Alwar",
    "Districtname": "Alwar",
    "statename": "RAJASTHAN"
  },
  {
    "pincode": "301001",
    "officename": "H.B.Colony Alwar S.O",
    "officeType": "S.O",
    "Deliverystatus": "Non-Delivery",
    "divisionname": "Alwar",
    "regionname": "Jaipur HQ",
    "circlename": "Rajasthan",
    "Taluk": "Alwar",
    "Districtname": "Alwar",
    "statename": "RAJASTHAN"
  },
  {
    "pincode": "301001",
    "officename": "Itarana Alwar B.O",
    "officeType": "B.O",
    "Deliverystatus": "Delivery",
    "divisionname": "Alwar",
    "regionname": "Jaipur HQ",
    "circlename": "Rajasthan",
    "Taluk": "Alwar",
    "Districtname": "Alwar",
    "statename": "RAJASTHAN"
  },
  {
    "pincode": "301001",
    "officename": "Jatiyana B.O",
    "officeType": "B.O",
    "Deliverystatus": "Delivery",
    "divisionname": "Alwar",
    "regionname": "Jaipur HQ",
    "circlename": "Rajasthan",
    "Taluk": "Alwar",
    "Districtname": "Alwar",
    "statename": "RAJASTHAN"
  },
  {
    "pincode": "301001",
    "officename": "Khuteta Kalan B.O",
    "officeType": "B.O",
    "Deliverystatus": "Delivery",
    "divisionname": "Alwar",
    "regionname": "Jaipur HQ",
    "circlename": "Rajasthan",
    "Taluk": "Alwar",
    "Districtname": "Alwar",
    "statename": "RAJASTHAN"
  },
  {
    "pincode": "301001",
    "officename": "Machari B.O",
    "officeType": "B.O",
    "Deliverystatus": "Delivery",
    "divisionname": "Alwar",
    "regionname": "Jaipur HQ",
    "circlename": "Rajasthan",
    "Taluk": "Alwar",
    "Districtname": "Alwar",
    "statename": "RAJASTHAN"
  },
  {
    "pincode": "301001",
    "officename": "Madhogarh B.O",
    "officeType": "B.O",
    "Deliverystatus": "Delivery",
    "divisionname": "Alwar",
    "regionname": "Jaipur HQ",
    "circlename": "Rajasthan",
    "Taluk": "Alwar",
    "Districtname": "Alwar",
    "statename": "RAJASTHAN"
  },
  {
    "pincode": "301001",
    "officename": "Mahuakhurd B.O",
    "officeType": "B.O",
    "Deliverystatus": "Delivery",
    "divisionname": "Alwar",
    "regionname": "Jaipur HQ",
    "circlename": "Rajasthan",
    "Taluk": "Alwar",
    "Districtname": "Alwar",
    "statename": "RAJASTHAN"
  },
  {
    "pincode": "301001",
    "officename": "Malakhera Gate Alwar S.O",
    "officeType": "S.O",
    "Deliverystatus": "Non-Delivery",
    "divisionname": "Alwar",
    "regionname": "Jaipur HQ",
    "circlename": "Rajasthan",
    "Taluk": "Alwar",
    "Districtname": "Alwar",
    "statename": "RAJASTHAN"
  },
  {
    "pincode": "301001",
    "officename": "Nangli Megha B.O",
    "officeType": "B.O",
    "Deliverystatus": "Delivery",
    "divisionname": "Alwar",
    "regionname": "Jaipur HQ",
    "circlename": "Rajasthan",
    "Taluk": "Alwar",
    "Districtname": "Alwar",
    "statename": "RAJASTHAN"
  },
  {
    "pincode": "301001",
    "officename": "Parisal B.O",
    "officeType": "B.O",
    "Deliverystatus": "Delivery",
    "divisionname": "Alwar",
    "regionname": "Jaipur HQ",
    "circlename": "Rajasthan",
    "Taluk": "Alwar",
    "Districtname": "Alwar",
    "statename": "RAJASTHAN"
  },
  {
    "pincode": "301001",
    "officename": "Railway Station Alwar S.O",
    "officeType": "S.O",
    "Deliverystatus": "Non-Delivery",
    "divisionname": "Alwar",
    "regionname": "Jaipur HQ",
    "circlename": "Rajasthan",
    "Taluk": "Alwar",
    "Districtname": "Alwar",
    "statename": "RAJASTHAN"
  },
  {
    "pincode": "301001",
    "officename": "Raisis B.O",
    "officeType": "B.O",
    "Deliverystatus": "Delivery",
    "divisionname": "Alwar",
    "regionname": "Jaipur HQ",
    "circlename": "Rajasthan",
    "Taluk": "Alwar",
    "Districtname": "Alwar",
    "statename": "RAJASTHAN"
  },
  {
    "pincode": "301001",
    "officename": "Ranjeet Nager S.O",
    "officeType": "S.O",
    "Deliverystatus": "Non-Delivery",
    "divisionname": "Alwar",
    "regionname": "Jaipur HQ",
    "circlename": "Rajasthan",
    "Taluk": "Alwar",
    "Districtname": "Alwar",
    "statename": "RAJASTHAN"
  },
  {
    "pincode": "301001",
    "officename": "Rata Khurd B.O",
    "officeType": "B.O",
    "Deliverystatus": "Delivery",
    "divisionname": "Alwar",
    "regionname": "Jaipur HQ",
    "circlename": "Rajasthan",
    "Taluk": "Alwar",
    "Districtname": "Alwar",
    "statename": "RAJASTHAN"
  },
  {
    "pincode": "301001",
    "officename": "Sectt. Alwar S.O",
    "officeType": "S.O",
    "Deliverystatus": "Non-Delivery",
    "divisionname": "Alwar",
    "regionname": "Jaipur HQ",
    "circlename": "Rajasthan",
    "Taluk": "Alwar",
    "Districtname": "Alwar",
    "statename": "RAJASTHAN"
  },
  {
    "pincode": "301001",
    "officename": "Shahpur B.O",
    "officeType": "B.O",
    "Deliverystatus": "Delivery",
    "divisionname": "Alwar",
    "regionname": "Jaipur HQ",
    "circlename": "Rajasthan",
    "Taluk": "Alwar",
    "Districtname": "Alwar",
    "statename": "RAJASTHAN"
  },
  {
    "pincode": "301001",
    "officename": "Shivajee Park Alwar S.O",
    "officeType": "S.O",
    "Deliverystatus": "Non-Delivery",
    "divisionname": "Alwar",
    "regionname": "Jaipur HQ",
    "circlename": "Rajasthan",
    "Taluk": "Alwar",
    "Districtname": "Alwar",
    "statename": "RAJASTHAN"
  },
  {
    "pincode": "301001",
    "officename": "Siliserh B.O",
    "officeType": "B.O",
    "Deliverystatus": "Delivery",
    "divisionname": "Alwar",
    "regionname": "Jaipur HQ",
    "circlename": "Rajasthan",
    "Taluk": "Alwar",
    "Districtname": "Alwar",
    "statename": "RAJASTHAN"
  },
  {
    "pincode": "301001",
    "officename": "Toolera B.O",
    "officeType": "B.O",
    "Deliverystatus": "Delivery",
    "divisionname": "Alwar",
    "regionname": "Jaipur HQ",
    "circlename": "Rajasthan",
    "Taluk": "Alwar",
    "Districtname": "Alwar",
    "statename": "RAJASTHAN"
  },
  {
    "pincode": "301001",
    "officename": "Tripoliya Alwar S.O",
    "officeType": "S.O",
    "Deliverystatus": "Non-Delivery",
    "divisionname": "Alwar",
    "regionname": "Jaipur HQ",
    "circlename": "Rajasthan",
    "Taluk": "Alwar",
    "Districtname": "Alwar",
    "statename": "RAJASTHAN"
  },
  {
    "pincode": "301001",
    "officename": "Umren B.O",
    "officeType": "B.O",
    "Deliverystatus": "Delivery",
    "divisionname": "Alwar",
    "regionname": "Jaipur HQ",
    "circlename": "Rajasthan",
    "Taluk": "Alwar",
    "Districtname": "Alwar",
    "statename": "RAJASTHAN"
  },
  {
    "pincode": "301001",
    "officename": "Vijai Mandir B.O",
    "officeType": "B.O",
    "Deliverystatus": "Delivery",
    "divisionname": "Alwar",
    "regionname": "Jaipur HQ",
    "circlename": "Rajasthan",
    "Taluk": "Alwar",
    "Districtname": "Alwar",
    "statename": "RAJASTHAN"
  }
]
