[
  {
    "pincode": "301408",
    "officename": "Ballupura B.O",
    "officeType": "B.O",
    "Deliverystatus": "Delivery",
    "divisionname": "Alwar",
    "regionname": "Jaipur HQ",
    "circlename": "Rajasthan",
    "Taluk": "Rajgarh",
    "Districtname": "Alwar",
    "statename": "RAJASTHAN"
  },
  {
    "pincode": "301408",
    "officename": "Barer B.O",
    "officeType": "B.O",
    "Deliverystatus": "Delivery",
    "divisionname": "Alwar",
    "regionname": "Jaipur HQ",
    "circlename": "Rajasthan",
    "Taluk": "Rajgarh",
    "Districtname": "Alwar",
    "statename": "RAJASTHAN"
  },
  {
    "pincode": "301408",
    "officename": "Bighota B.O",
    "officeType": "B.O",
    "Deliverystatus": "Delivery",
    "divisionname": "Alwar",
    "regionname": "Jaipur HQ",
    "circlename": "Rajasthan",
    "Taluk": "Rajgarh",
    "Districtname": "Alwar",
    "statename": "RAJASTHAN"
  },
  {
    "pincode": "301408",
    "officename": "Binjari B.O",
    "officeType": "B.O",
    "Deliverystatus": "Delivery",
    "divisionname": "Alwar",
    "regionname": "Jaipur HQ",
    "circlename": "Rajasthan",
    "Taluk": "Rajgarh",
    "Districtname": "Alwar",
    "statename": "RAJASTHAN"
  },
  {
    "pincode": "301408",
    "officename": "Devti B.O",
    "officeType": "B.O",
    "Deliverystatus": "Delivery",
    "divisionname": "Alwar",
    "regionname": "Jaipur HQ",
    "circlename": "Rajasthan",
    "Taluk": "Rajgarh",
    "Districtname": "Alwar",
    "statename": "RAJASTHAN"
  },
  {
    "pincode": "301408",
    "officename": "Dhamred B.O",
    "officeType": "B.O",
    "Deliverystatus": "Delivery",
    "divisionname": "Alwar",
    "regionname": "Jaipur HQ",
    "circlename": "Rajasthan",
    "Taluk": "Rajgarh",
    "Districtname": "Alwar",
    "statename": "RAJASTHAN"
  },
  {
    "pincode": "301408",
    "officename": "Doroli B.O",
    "officeType": "B.O",
    "Deliverystatus": "Delivery",
    "divisionname": "Alwar",
    "regionname": "Jaipur HQ",
    "circlename": "Rajasthan",
    "Taluk": "Rajgarh",
    "Districtname": "Alwar",
    "statename": "RAJASTHAN"
  },
  {
    "pincode": "301408",
    "officename": "Dubbi B.O",
    "officeType": "B.O",
    "Deliverystatus": "Delivery",
    "divisionname": "Alwar",
    "regionname": "Jaipur HQ",
    "circlename": "Rajasthan",
    "Taluk": "Rajgarh",
    "Districtname": "Alwar",
    "statename": "RAJASTHAN"
  },
  {
    "pincode": "301408",
    "officename": "Karoth B.O",
    "officeType": "B.O",
    "Deliverystatus": "Delivery",
    "divisionname": "Alwar",
    "regionname": "Jaipur HQ",
    "circlename": "Rajasthan",
    "Taluk": "Rajgarh",
    "Districtname": "Alwar",
    "statename": "RAJASTHAN"
  },
  {
    "pincode": "301408",
    "officename": "Koondla B.O",
    "officeType": "B.O",
    "Deliverystatus": "Delivery",
    "divisionname": "Alwar",
    "regionname": "Jaipur HQ",
    "circlename": "Rajasthan",
    "Taluk": "Rajgarh",
    "Districtname": "Alwar",
    "statename": "RAJASTHAN"
  },
  {
    "pincode": "301408",
    "officename": "Machari B.O",
    "officeType": "B.O",
    "Deliverystatus": "Delivery",
    "divisionname": "Alwar",
    "regionname": "Jaipur HQ",
    "circlename": "Rajasthan",
    "Taluk": "Rajgarh",
    "Districtname": "Alwar",
    "statename": "RAJASTHAN"
  },
  {
    "pincode": "301408",
    "officename": "Machari Chowk,rajgarh S.O",
    "officeType": "S.O",
    "Deliverystatus": "Non-Delivery",
    "divisionname": "Alwar",
    "regionname": "Jaipur HQ",
    "circlename": "Rajasthan",
    "Taluk": "Rajgarh",
    "Districtname": "Alwar",
    "statename": "RAJASTHAN"
  },
  {
    "pincode": "301408",
    "officename": "Moonpur B.O",
    "officeType": "B.O",
    "Deliverystatus": "Delivery",
    "divisionname": "Alwar",
    "regionname": "Jaipur HQ",
    "circlename": "Rajasthan",
    "Taluk": "Rajgarh",
    "Districtname": "Alwar",
    "statename": "RAJASTHAN"
  },
  {
    "pincode": "301408",
    "officename": "Motiwara B.O",
    "officeType": "B.O",
    "Deliverystatus": "Delivery",
    "divisionname": "Alwar",
    "regionname": "Jaipur HQ",
    "circlename": "Rajasthan",
    "Taluk": "Rajgarh",
    "Districtname": "Alwar",
    "statename": "RAJASTHAN"
  },
  {
    "pincode": "301408",
    "officename": "Nathalwara B.O",
    "officeType": "B.O",
    "Deliverystatus": "Delivery",
    "divisionname": "Alwar",
    "regionname": "Jaipur HQ",
    "circlename": "Rajasthan",
    "Taluk": "Rajgarh",
    "Districtname": "Alwar",
    "statename": "RAJASTHAN"
  },
  {
    "pincode": "301408",
    "officename": "Neemla B.O",
    "officeType": "B.O",
    "Deliverystatus": "Delivery",
    "divisionname": "Alwar",
    "regionname": "Jaipur HQ",
    "circlename": "Rajasthan",
    "Taluk": "Rajgarh",
    "Districtname": "Alwar",
    "statename": "RAJASTHAN"
  },
  {
    "pincode": "301408",
    "officename": "Pada B.O",
    "officeType": "B.O",
    "Deliverystatus": "Delivery",
    "divisionname": "Alwar",
    "regionname": "Jaipur HQ",
    "circlename": "Rajasthan",
    "Taluk": "Rajgarh",
    "Districtname": "Alwar",
    "statename": "RAJASTHAN"
  },
  {
    "pincode": "301408",
    "officename": "Rajgarh (Alwar) S.O",
    "officeType": "S.O",
    "Deliverystatus": "Delivery",
    "divisionname": "Alwar",
    "regionname": "Jaipur HQ",
    "circlename": "Rajasthan",
    "Taluk": "Rajgarh",
    "Districtname": "Alwar",
    "statename": "RAJASTHAN"
  },
  {
    "pincode": "301408",
    "officename": "Rajgarh R.S. S.O",
    "officeType": "S.O",
    "Deliverystatus": "Non-Delivery",
    "divisionname": "Alwar",
    "regionname": "Jaipur HQ",
    "circlename": "Rajasthan",
    "Taluk": "Rajgarh",
    "Districtname": "Alwar",
    "statename": "RAJASTHAN"
  },
  {
    "pincode": "301408",
    "officename": "Sakat B.O",
    "officeType": "B.O",
    "Deliverystatus": "Delivery",
    "divisionname": "Alwar",
    "regionname": "Jaipur HQ",
    "circlename": "Rajasthan",
    "Taluk": "Rajgarh",
    "Districtname": "Alwar",
    "statename": "RAJASTHAN"
  },
  {
    "pincode": "301408",
    "officename": "Srichandpura B.O",
    "officeType": "B.O",
    "Deliverystatus": "Delivery",
    "divisionname": "Alwar",
    "regionname": "Jaipur HQ",
    "circlename": "Rajasthan",
    "Taluk": "Rajgarh",
    "Districtname": "Alwar",
    "statename": "RAJASTHAN"
  },
  {
    "pincode": "301408",
    "officename": "Surer B.O",
    "officeType": "B.O",
    "Deliverystatus": "Delivery",
    "divisionname": "Alwar",
    "regionname": "Jaipur HQ",
    "circlename": "Rajasthan",
    "Taluk": "Rajgarh",
    "Districtname": "Alwar",
    "statename": "RAJASTHAN"
  },
  {
    "pincode": "301408",
    "officename": "Thana B.O",
    "officeType": "B.O",
    "Deliverystatus": "Delivery",
    "divisionname": "Alwar",
    "regionname": "Jaipur HQ",
    "circlename": "Rajasthan",
    "Taluk": "Rajgarh",
    "Districtname": "Alwar",
    "statename": "RAJASTHAN"
  },
  {
    "pincode": "301408",
    "officename": "Vabeli B.O",
    "officeType": "B.O",
    "Deliverystatus": "Delivery",
    "divisionname": "Alwar",
    "regionname": "Jaipur HQ",
    "circlename": "Rajasthan",
    "Taluk": "Rajgarh",
    "Districtname": "Alwar",
    "statename": "RAJASTHAN"
  }
]
