[
  {
    "pincode": "302001",
    "officename": "Ashok Nagar S.O (Jaipur)",
    "officeType": "S.O",
    "Deliverystatus": "Non-Delivery",
    "divisionname": "Jaipur City",
    "regionname": "Jaipur HQ",
    "circlename": "Rajasthan",
    "Taluk": "Jaipur",
    "Districtname": "Jaipur",
    "statename": "RAJASTHAN"
  },
  {
    "pincode": "302001",
    "officename": "Bhura Tiba S.O",
    "officeType": "S.O",
    "Deliverystatus": "Non-Delivery",
    "divisionname": "Jaipur City",
    "regionname": "Jaipur HQ",
    "circlename": "Rajasthan",
    "Taluk": "Jaipur",
    "Districtname": "Jaipur",
    "statename": "RAJASTHAN"
  },
  {
    "pincode": "302001",
    "officename": "C.P.M.G S.O",
    "officeType": "S.O",
    "Deliverystatus": "Non-Delivery",
    "divisionname": "Jaipur City",
    "regionname": "Jaipur HQ",
    "circlename": "Rajasthan",
    "Taluk": "Jaipur",
    "Districtname": "Jaipur",
    "statename": "RAJASTHAN"
  },
  {
    "pincode": "302001",
    "officename": "Chandpole Bazar S.O",
    "officeType": "S.O",
    "Deliverystatus": "Non-Delivery",
    "divisionname": "Jaipur City",
    "regionname": "Jaipur HQ",
    "circlename": "Rajasthan",
    "Taluk": "Jaipur",
    "Districtname": "Jaipur",
    "statename": "RAJASTHAN"
  },
  {
    "pincode": "302001",
    "officename": "Indra Bazar S.O",
    "officeType": "S.O",
    "Deliverystatus": "Non-Delivery",
    "divisionname": "Jaipur City",
    "regionname": "Jaipur HQ",
    "circlename": "Rajasthan",
    "Taluk": "Jaipur",
    "Districtname": "Jaipur",
    "statename": "RAJASTHAN"
  },
  {
    "pincode": "302001",
    "officename": "Jaipur G.P.O.",
    "officeType": "H.O",
    "Deliverystatus": "Delivery",
    "divisionname": "Jaipur City",
    "regionname": "Jaipur HQ",
    "circlename": "Rajasthan",
    "Taluk": "Jaipur",
    "Districtname": "Jaipur",
    "statename": "RAJASTHAN"
  },
  {
    "pincode": "302001",
    "officename": "M.I.Road S.O",
    "officeType": "S.O",
    "Deliverystatus": "Non-Delivery",
    "divisionname": "Jaipur City",
    "regionname": "Jaipur HQ",
    "circlename": "Rajasthan",
    "Taluk": "Jaipur",
    "Districtname": "Jaipur",
    "statename": "RAJASTHAN"
  },
  {
    "pincode": "302001",
    "officename": "Purani Basti S.O (Jaipur)",
    "officeType": "S.O",
    "Deliverystatus": "Non-Delivery",
    "divisionname": "Jaipur City",
    "regionname": "Jaipur HQ",
    "circlename": "Rajasthan",
    "Taluk": "Jaipur",
    "Districtname": "Jaipur",
    "statename": "RAJASTHAN"
  },
  {
    "pincode": "302001",
    "officename": "Rajasthan State Hotel S.O",
    "officeType": "S.O",
    "Deliverystatus": "Non-Delivery",
    "divisionname": "Jaipur City",
    "regionname": "Jaipur HQ",
    "circlename": "Rajasthan",
    "Taluk": "Jaipur",
    "Districtname": "Jaipur",
    "statename": "RAJASTHAN"
  }
]
