[
  {
    "pincode": "302027",
    "officename": "Crpf Campus  Lalwas S.O",
    "officeType": "S.O",
    "Deliverystatus": "Delivery",
    "divisionname": "Jaipur City",
    "regionname": "Jaipur HQ",
    "circlename": "Rajasthan",
    "Taluk": "Amer",
    "Districtname": "Jaipur",
    "statename": "RAJASTHAN"
  },
  {
    "pincode": "302027",
    "officename": "Indergarh B.O",
    "officeType": "B.O",
    "Deliverystatus": "Non-Delivery",
    "divisionname": "Jaipur City",
    "regionname": "Jaipur HQ",
    "circlename": "Rajasthan",
    "Taluk": "Amer",
    "Districtname": "Jaipur",
    "statename": "RAJASTHAN"
  },
  {
    "pincode": "302027",
    "officename": "Jaisingh Pura Khor B.O",
    "officeType": "B.O",
    "Deliverystatus": "Non-Delivery",
    "divisionname": "Jaipur City",
    "regionname": "Jaipur HQ",
    "circlename": "Rajasthan",
    "Taluk": "Amber",
    "Districtname": "Jaipur",
    "statename": "RAJASTHAN"
  },
  {
    "pincode": "302027",
    "officename": "Langareeyawas B.O",
    "officeType": "B.O",
    "Deliverystatus": "Non-Delivery",
    "divisionname": "Jaipur City",
    "regionname": "Jaipur HQ",
    "circlename": "Rajasthan",
    "Taluk": "Amer",
    "Districtname": "Jaipur",
    "statename": "RAJASTHAN"
  },
  {
    "pincode": "302027",
    "officename": "Rahori B.O",
    "officeType": "B.O",
    "Deliverystatus": "Non-Delivery",
    "divisionname": "Jaipur City",
    "regionname": "Jaipur HQ",
    "circlename": "Rajasthan",
    "Taluk": "Amer",
    "Districtname": "Jaipur",
    "statename": "RAJASTHAN"
  },
  {
    "pincode": "302027",
    "officename": "Roop Was B.O",
    "officeType": "B.O",
    "Deliverystatus": "Non-Delivery",
    "divisionname": "Jaipur City",
    "regionname": "Jaipur HQ",
    "circlename": "Rajasthan",
    "Taluk": "Amer",
    "Districtname": "Jaipur",
    "statename": "RAJASTHAN"
  },
  {
    "pincode": "302027",
    "officename": "Saipura B.O",
    "officeType": "B.O",
    "Deliverystatus": "Non-Delivery",
    "divisionname": "Jaipur City",
    "regionname": "Jaipur HQ",
    "circlename": "Rajasthan",
    "Taluk": "Amer",
    "Districtname": "Jaipur",
    "statename": "RAJASTHAN"
  },
  {
    "pincode": "302027",
    "officename": "Saiwar B.O",
    "officeType": "B.O",
    "Deliverystatus": "Non-Delivery",
    "divisionname": "Jaipur City",
    "regionname": "Jaipur HQ",
    "circlename": "Rajasthan",
    "Taluk": "Amer",
    "Districtname": "Jaipur",
    "statename": "RAJASTHAN"
  }
]
