[
  {
    "pincode": "303007",
    "officename": "Ajairajpura B.O",
    "officeType": "B.O",
    "Deliverystatus": "Delivery",
    "divisionname": "Jaipur Moffusil",
    "regionname": "Jaipur HQ",
    "circlename": "Rajasthan",
    "Taluk": "Jaipur",
    "Districtname": "Jaipur",
    "statename": "RAJASTHAN"
  },
  {
    "pincode": "303007",
    "officename": "Awania B.O",
    "officeType": "B.O",
    "Deliverystatus": "Delivery",
    "divisionname": "Jaipur Moffusil",
    "regionname": "Jaipur HQ",
    "circlename": "Rajasthan",
    "Taluk": "Jaipur",
    "Districtname": "Jaipur",
    "statename": "RAJASTHAN"
  },
  {
    "pincode": "303007",
    "officename": "Bagru S.O",
    "officeType": "S.O",
    "Deliverystatus": "Delivery",
    "divisionname": "Jaipur Moffusil",
    "regionname": "Jaipur HQ",
    "circlename": "Rajasthan",
    "Taluk": "Jaipur",
    "Districtname": "Jaipur",
    "statename": "RAJASTHAN"
  },
  {
    "pincode": "303007",
    "officename": "Begas B.O",
    "officeType": "B.O",
    "Deliverystatus": "Delivery",
    "divisionname": "Jaipur Moffusil",
    "regionname": "Jaipur HQ",
    "circlename": "Rajasthan",
    "Taluk": "Jaipur",
    "Districtname": "Jaipur",
    "statename": "RAJASTHAN"
  },
  {
    "pincode": "303007",
    "officename": "Dehmi Kalan B.O",
    "officeType": "B.O",
    "Deliverystatus": "Delivery",
    "divisionname": "Jaipur Moffusil",
    "regionname": "Jaipur HQ",
    "circlename": "Rajasthan",
    "Taluk": "Jaipur",
    "Districtname": "Jaipur",
    "statename": "RAJASTHAN"
  },
  {
    "pincode": "303007",
    "officename": "Gadota B.O",
    "officeType": "B.O",
    "Deliverystatus": "Delivery",
    "divisionname": "Jaipur Moffusil",
    "regionname": "Jaipur HQ",
    "circlename": "Rajasthan",
    "Taluk": "Jaipur",
    "Districtname": "Jaipur",
    "statename": "RAJASTHAN"
  },
  {
    "pincode": "303007",
    "officename": "Mahlan B.O",
    "officeType": "B.O",
    "Deliverystatus": "Delivery",
    "divisionname": "Jaipur Moffusil",
    "regionname": "Jaipur HQ",
    "circlename": "Rajasthan",
    "Taluk": "Jaipur",
    "Districtname": "Jaipur",
    "statename": "RAJASTHAN"
  },
  {
    "pincode": "303007",
    "officename": "Rampura Unti B.O",
    "officeType": "B.O",
    "Deliverystatus": "Delivery",
    "divisionname": "Jaipur Moffusil",
    "regionname": "Jaipur HQ",
    "circlename": "Rajasthan",
    "Taluk": "Jaipur",
    "Districtname": "Jaipur",
    "statename": "RAJASTHAN"
  }
]
