[
  {
    "pincode": "303120",
    "officename": "Amloda B.O",
    "officeType": "B.O",
    "Deliverystatus": "Delivery",
    "divisionname": "Jaipur Moffusil",
    "regionname": "Jaipur HQ",
    "circlename": "Rajasthan",
    "Taluk": "Jaipur",
    "Districtname": "Jaipur",
    "statename": "RAJASTHAN"
  },
  {
    "pincode": "303120",
    "officename": "Behlod B.O",
    "officeType": "B.O",
    "Deliverystatus": "Delivery",
    "divisionname": "Jaipur Moffusil",
    "regionname": "Jaipur HQ",
    "circlename": "Rajasthan",
    "Taluk": "Jaipur",
    "Districtname": "Jaipur",
    "statename": "RAJASTHAN"
  },
  {
    "pincode": "303120",
    "officename": "Bobadi B.O",
    "officeType": "B.O",
    "Deliverystatus": "Delivery",
    "divisionname": "Jaipur Moffusil",
    "regionname": "Jaipur HQ",
    "circlename": "Rajasthan",
    "Taluk": "Jaipur",
    "Districtname": "Jaipur",
    "statename": "RAJASTHAN"
  },
  {
    "pincode": "303120",
    "officename": "Chharsa B.O",
    "officeType": "B.O",
    "Deliverystatus": "Delivery",
    "divisionname": "Jaipur Moffusil",
    "regionname": "Jaipur HQ",
    "circlename": "Rajasthan",
    "Taluk": "Jaipur",
    "Districtname": "Jaipur",
    "statename": "RAJASTHAN"
  },
  {
    "pincode": "303120",
    "officename": "Dantala Meena B.O",
    "officeType": "B.O",
    "Deliverystatus": "Delivery",
    "divisionname": "Jaipur Moffusil",
    "regionname": "Jaipur HQ",
    "circlename": "Rajasthan",
    "Taluk": "Jaipur",
    "Districtname": "Jaipur",
    "statename": "RAJASTHAN"
  },
  {
    "pincode": "303120",
    "officename": "Dhola B.O",
    "officeType": "B.O",
    "Deliverystatus": "Delivery",
    "divisionname": "Jaipur Moffusil",
    "regionname": "Jaipur HQ",
    "circlename": "Rajasthan",
    "Taluk": "Jaipur",
    "Districtname": "Jaipur",
    "statename": "RAJASTHAN"
  },
  {
    "pincode": "303120",
    "officename": "Gathwadi S.O",
    "officeType": "S.O",
    "Deliverystatus": "Delivery",
    "divisionname": "Jaipur Moffusil",
    "regionname": "Jaipur HQ",
    "circlename": "Rajasthan",
    "Taluk": "Jaipur",
    "Districtname": "Jaipur",
    "statename": "RAJASTHAN"
  },
  {
    "pincode": "303120",
    "officename": "Jaichandpura B.O",
    "officeType": "B.O",
    "Deliverystatus": "Delivery",
    "divisionname": "Jaipur Moffusil",
    "regionname": "Jaipur HQ",
    "circlename": "Rajasthan",
    "Taluk": "Jaipur",
    "Districtname": "Jaipur",
    "statename": "RAJASTHAN"
  },
  {
    "pincode": "303120",
    "officename": "Kanwarpura B.O",
    "officeType": "B.O",
    "Deliverystatus": "Delivery",
    "divisionname": "Jaipur Moffusil",
    "regionname": "Jaipur HQ",
    "circlename": "Rajasthan",
    "Taluk": "Jaipur",
    "Districtname": "Jaipur",
    "statename": "RAJASTHAN"
  },
  {
    "pincode": "303120",
    "officename": "Khora Lad Khani B.O",
    "officeType": "B.O",
    "Deliverystatus": "Delivery",
    "divisionname": "Jaipur Moffusil",
    "regionname": "Jaipur HQ",
    "circlename": "Rajasthan",
    "Taluk": "Jaipur",
    "Districtname": "Jaipur",
    "statename": "RAJASTHAN"
  },
  {
    "pincode": "303120",
    "officename": "Surana B.O",
    "officeType": "B.O",
    "Deliverystatus": "Delivery",
    "divisionname": "Jaipur Moffusil",
    "regionname": "Jaipur HQ",
    "circlename": "Rajasthan",
    "Taluk": "Jaipur",
    "Districtname": "Jaipur",
    "statename": "RAJASTHAN"
  },
  {
    "pincode": "303120",
    "officename": "Tala B.O",
    "officeType": "B.O",
    "Deliverystatus": "Delivery",
    "divisionname": "Jaipur Moffusil",
    "regionname": "Jaipur HQ",
    "circlename": "Rajasthan",
    "Taluk": "Jaipur",
    "Districtname": "Jaipur",
    "statename": "RAJASTHAN"
  }
]
