[
  {
    "pincode": "303303",
    "officename": "Alooda B.O",
    "officeType": "B.O",
    "Deliverystatus": "Delivery",
    "divisionname": "Jaipur Moffusil",
    "regionname": "Jaipur HQ",
    "circlename": "Rajasthan",
    "Taluk": "Dausa",
    "Districtname": "Dausa",
    "statename": "RAJASTHAN"
  },
  {
    "pincode": "303303",
    "officename": "Bada Gaon B.O",
    "officeType": "B.O",
    "Deliverystatus": "Delivery",
    "divisionname": "Jaipur Moffusil",
    "regionname": "Jaipur HQ",
    "circlename": "Rajasthan",
    "Taluk": "Dausa",
    "Districtname": "Dausa",
    "statename": "RAJASTHAN"
  },
  {
    "pincode": "303303",
    "officename": "Baniyana B.O",
    "officeType": "B.O",
    "Deliverystatus": "Delivery",
    "divisionname": "Jaipur Moffusil",
    "regionname": "Jaipur HQ",
    "circlename": "Rajasthan",
    "Taluk": "Dausa",
    "Districtname": "Dausa",
    "statename": "RAJASTHAN"
  },
  {
    "pincode": "303303",
    "officename": "Bhandana B.O",
    "officeType": "B.O",
    "Deliverystatus": "Delivery",
    "divisionname": "Jaipur Moffusil",
    "regionname": "Jaipur HQ",
    "circlename": "Rajasthan",
    "Taluk": "Dausa",
    "Districtname": "Dausa",
    "statename": "RAJASTHAN"
  },
  {
    "pincode": "303303",
    "officename": "Bhankari B.O",
    "officeType": "B.O",
    "Deliverystatus": "Delivery",
    "divisionname": "Jaipur Moffusil",
    "regionname": "Jaipur HQ",
    "circlename": "Rajasthan",
    "Taluk": "Dausa",
    "Districtname": "Dausa",
    "statename": "RAJASTHAN"
  },
  {
    "pincode": "303303",
    "officename": "Chandrana B.O",
    "officeType": "B.O",
    "Deliverystatus": "Delivery",
    "divisionname": "Jaipur Moffusil",
    "regionname": "Jaipur HQ",
    "circlename": "Rajasthan",
    "Taluk": "Dausa",
    "Districtname": "Dausa",
    "statename": "RAJASTHAN"
  },
  {
    "pincode": "303303",
    "officename": "Chawandeda B.O",
    "officeType": "B.O",
    "Deliverystatus": "Delivery",
    "divisionname": "Jaipur Moffusil",
    "regionname": "Jaipur HQ",
    "circlename": "Rajasthan",
    "Taluk": "Dausa",
    "Districtname": "Dausa",
    "statename": "RAJASTHAN"
  },
  {
    "pincode": "303303",
    "officename": "Collectorate Dausa S.O",
    "officeType": "S.O",
    "Deliverystatus": "Non-Delivery",
    "divisionname": "Jaipur Moffusil",
    "regionname": "Jaipur HQ",
    "circlename": "Rajasthan",
    "Taluk": "Dausa",
    "Districtname": "Dausa",
    "statename": "RAJASTHAN"
  },
  {
    "pincode": "303303",
    "officename": "Dausa H.O",
    "officeType": "H.O",
    "Deliverystatus": "Delivery",
    "divisionname": "Jaipur Moffusil",
    "regionname": "Jaipur HQ",
    "circlename": "Rajasthan",
    "Taluk": "Dausa",
    "Districtname": "Dausa",
    "statename": "RAJASTHAN"
  },
  {
    "pincode": "303303",
    "officename": "Dausa Mandi S.O",
    "officeType": "S.O",
    "Deliverystatus": "Non-Delivery",
    "divisionname": "Jaipur Moffusil",
    "regionname": "Jaipur HQ",
    "circlename": "Rajasthan",
    "Taluk": "Dausa",
    "Districtname": "Dausa",
    "statename": "RAJASTHAN"
  },
  {
    "pincode": "303303",
    "officename": "Dausa Town S.O",
    "officeType": "S.O",
    "Deliverystatus": "Non-Delivery",
    "divisionname": "Jaipur Moffusil",
    "regionname": "Jaipur HQ",
    "circlename": "Rajasthan",
    "Taluk": "Dausa",
    "Districtname": "Dausa",
    "statename": "RAJASTHAN"
  },
  {
    "pincode": "303303",
    "officename": "Hingotia B.O",
    "officeType": "B.O",
    "Deliverystatus": "Delivery",
    "divisionname": "Jaipur Moffusil",
    "regionname": "Jaipur HQ",
    "circlename": "Rajasthan",
    "Taluk": "Dausa",
    "Districtname": "Dausa",
    "statename": "RAJASTHAN"
  },
  {
    "pincode": "303303",
    "officename": "Jasota B.O",
    "officeType": "B.O",
    "Deliverystatus": "Delivery",
    "divisionname": "Jaipur Moffusil",
    "regionname": "Jaipur HQ",
    "circlename": "Rajasthan",
    "Taluk": "Dausa",
    "Districtname": "Dausa",
    "statename": "RAJASTHAN"
  },
  {
    "pincode": "303303",
    "officename": "Jirota Khurd B.O",
    "officeType": "B.O",
    "Deliverystatus": "Delivery",
    "divisionname": "Jaipur Moffusil",
    "regionname": "Jaipur HQ",
    "circlename": "Rajasthan",
    "Taluk": "Dausa",
    "Districtname": "Dausa",
    "statename": "RAJASTHAN"
  },
  {
    "pincode": "303303",
    "officename": "Kherwal B.O",
    "officeType": "B.O",
    "Deliverystatus": "Delivery",
    "divisionname": "Jaipur Moffusil",
    "regionname": "Jaipur HQ",
    "circlename": "Rajasthan",
    "Taluk": "Dausa",
    "Districtname": "Dausa",
    "statename": "RAJASTHAN"
  },
  {
    "pincode": "303303",
    "officename": "Ladi Ka Bas B.O",
    "officeType": "B.O",
    "Deliverystatus": "Delivery",
    "divisionname": "Jaipur Moffusil",
    "regionname": "Jaipur HQ",
    "circlename": "Rajasthan",
    "Taluk": "Dausa",
    "Districtname": "Dausa",
    "statename": "RAJASTHAN"
  },
  {
    "pincode": "303303",
    "officename": "Mahesara Kalan B.O",
    "officeType": "B.O",
    "Deliverystatus": "Delivery",
    "divisionname": "Jaipur Moffusil",
    "regionname": "Jaipur HQ",
    "circlename": "Rajasthan",
    "Taluk": "Dausa",
    "Districtname": "Dausa",
    "statename": "RAJASTHAN"
  },
  {
    "pincode": "303303",
    "officename": "Maheshara Khurd B.O",
    "officeType": "B.O",
    "Deliverystatus": "Delivery",
    "divisionname": "Jaipur Moffusil",
    "regionname": "Jaipur HQ",
    "circlename": "Rajasthan",
    "Taluk": "Dausa",
    "Districtname": "Dausa",
    "statename": "RAJASTHAN"
  },
  {
    "pincode": "303303",
    "officename": "Malarna B.O",
    "officeType": "B.O",
    "Deliverystatus": "Delivery",
    "divisionname": "Jaipur Moffusil",
    "regionname": "Jaipur HQ",
    "circlename": "Rajasthan",
    "Taluk": "Dausa",
    "Districtname": "Dausa",
    "statename": "RAJASTHAN"
  },
  {
    "pincode": "303303",
    "officename": "Nangal Bairsi B.O",
    "officeType": "B.O",
    "Deliverystatus": "Delivery",
    "divisionname": "Jaipur Moffusil",
    "regionname": "Jaipur HQ",
    "circlename": "Rajasthan",
    "Taluk": "Dausa",
    "Districtname": "Dausa",
    "statename": "RAJASTHAN"
  },
  {
    "pincode": "303303",
    "officename": "Surajpura B.O",
    "officeType": "B.O",
    "Deliverystatus": "Delivery",
    "divisionname": "Jaipur Moffusil",
    "regionname": "Jaipur HQ",
    "circlename": "Rajasthan",
    "Taluk": "Dausa",
    "Districtname": "Dausa",
    "statename": "RAJASTHAN"
  }
]
