[
  {
    "pincode": "303328",
    "officename": "Bhadwa B.O",
    "officeType": "B.O",
    "Deliverystatus": "Delivery",
    "divisionname": "Jaipur Moffusil",
    "regionname": "Jaipur HQ",
    "circlename": "Rajasthan",
    "Taluk": "Jaipur",
    "Districtname": "Jaipur",
    "statename": "RAJASTHAN"
  },
  {
    "pincode": "303328",
    "officename": "Bhaislana B.O",
    "officeType": "B.O",
    "Deliverystatus": "Delivery",
    "divisionname": "Jaipur Moffusil",
    "regionname": "Jaipur HQ",
    "circlename": "Rajasthan",
    "Taluk": "Jaipur",
    "Districtname": "Jaipur",
    "statename": "RAJASTHAN"
  },
  {
    "pincode": "303328",
    "officename": "Bhojpura B.O",
    "officeType": "B.O",
    "Deliverystatus": "Delivery",
    "divisionname": "Jaipur Moffusil",
    "regionname": "Jaipur HQ",
    "circlename": "Rajasthan",
    "Taluk": "Jaipur",
    "Districtname": "Jaipur",
    "statename": "RAJASTHAN"
  },
  {
    "pincode": "303328",
    "officename": "Dhani Boraj B.O",
    "officeType": "B.O",
    "Deliverystatus": "Delivery",
    "divisionname": "Jaipur Moffusil",
    "regionname": "Jaipur HQ",
    "circlename": "Rajasthan",
    "Taluk": "Jaipur",
    "Districtname": "Jaipur",
    "statename": "RAJASTHAN"
  },
  {
    "pincode": "303328",
    "officename": "Dheendha B.O",
    "officeType": "B.O",
    "Deliverystatus": "Delivery",
    "divisionname": "Jaipur Moffusil",
    "regionname": "Jaipur HQ",
    "circlename": "Rajasthan",
    "Taluk": "Jaipur",
    "Districtname": "Jaipur",
    "statename": "RAJASTHAN"
  },
  {
    "pincode": "303328",
    "officename": "Hingonia B.O",
    "officeType": "B.O",
    "Deliverystatus": "Delivery",
    "divisionname": "Jaipur Moffusil",
    "regionname": "Jaipur HQ",
    "circlename": "Rajasthan",
    "Taluk": "Jaipur",
    "Districtname": "Jaipur",
    "statename": "RAJASTHAN"
  },
  {
    "pincode": "303328",
    "officename": "Jobner S.O",
    "officeType": "S.O",
    "Deliverystatus": "Delivery",
    "divisionname": "Jaipur Moffusil",
    "regionname": "Jaipur HQ",
    "circlename": "Rajasthan",
    "Taluk": "",
    "Districtname": "Jaipur",
    "statename": "RAJASTHAN"
  },
  {
    "pincode": "303328",
    "officename": "Jorpura B.O",
    "officeType": "B.O",
    "Deliverystatus": "Delivery",
    "divisionname": "Jaipur Moffusil",
    "regionname": "Jaipur HQ",
    "circlename": "Rajasthan",
    "Taluk": "Jaipur",
    "Districtname": "Jaipur",
    "statename": "RAJASTHAN"
  },
  {
    "pincode": "303328",
    "officename": "Jorpura Sundariawas B.O",
    "officeType": "B.O",
    "Deliverystatus": "Delivery",
    "divisionname": "Jaipur Moffusil",
    "regionname": "Jaipur HQ",
    "circlename": "Rajasthan",
    "Taluk": "Jaipur",
    "Districtname": "Jaipur",
    "statename": "RAJASTHAN"
  },
  {
    "pincode": "303328",
    "officename": "Kalakh B.O",
    "officeType": "B.O",
    "Deliverystatus": "Delivery",
    "divisionname": "Jaipur Moffusil",
    "regionname": "Jaipur HQ",
    "circlename": "Rajasthan",
    "Taluk": "Jaipur",
    "Districtname": "Jaipur",
    "statename": "RAJASTHAN"
  },
  {
    "pincode": "303328",
    "officename": "Kodi B.O",
    "officeType": "B.O",
    "Deliverystatus": "Delivery",
    "divisionname": "Jaipur Moffusil",
    "regionname": "Jaipur HQ",
    "circlename": "Rajasthan",
    "Taluk": "Jaipur",
    "Districtname": "Jaipur",
    "statename": "RAJASTHAN"
  },
  {
    "pincode": "303328",
    "officename": "Mundoti B.O",
    "officeType": "B.O",
    "Deliverystatus": "Delivery",
    "divisionname": "Jaipur Moffusil",
    "regionname": "Jaipur HQ",
    "circlename": "Rajasthan",
    "Taluk": "Jaipur",
    "Districtname": "Jaipur",
    "statename": "RAJASTHAN"
  },
  {
    "pincode": "303328",
    "officename": "Murlipura B.O",
    "officeType": "B.O",
    "Deliverystatus": "Delivery",
    "divisionname": "Jaipur Moffusil",
    "regionname": "Jaipur HQ",
    "circlename": "Rajasthan",
    "Taluk": "Jaipur",
    "Districtname": "Jaipur",
    "statename": "RAJASTHAN"
  },
  {
    "pincode": "303328",
    "officename": "Sinodiya B.O",
    "officeType": "B.O",
    "Deliverystatus": "Delivery",
    "divisionname": "Jaipur Moffusil",
    "regionname": "Jaipur HQ",
    "circlename": "Rajasthan",
    "Taluk": "Jaipur",
    "Districtname": "Jaipur",
    "statename": "RAJASTHAN"
  }
]
