[
  {
    "pincode": "303304",
    "officename": "Bane Ka Barkhera B.O",
    "officeType": "B.O",
    "Deliverystatus": "Delivery",
    "divisionname": "Jaipur Moffusil",
    "regionname": "Jaipur HQ",
    "circlename": "Rajasthan",
    "Taluk": "Dausa",
    "Districtname": "Dausa",
    "statename": "RAJASTHAN"
  },
  {
    "pincode": "303304",
    "officename": "Dhanawad B.O",
    "officeType": "B.O",
    "Deliverystatus": "Delivery",
    "divisionname": "Jaipur Moffusil",
    "regionname": "Jaipur HQ",
    "circlename": "Rajasthan",
    "Taluk": "Dausa",
    "Districtname": "Dausa",
    "statename": "RAJASTHAN"
  },
  {
    "pincode": "303304",
    "officename": "Dolika B.O",
    "officeType": "B.O",
    "Deliverystatus": "Delivery",
    "divisionname": "Jaipur Moffusil",
    "regionname": "Jaipur HQ",
    "circlename": "Rajasthan",
    "Taluk": "Dausa",
    "Districtname": "Dausa",
    "statename": "RAJASTHAN"
  },
  {
    "pincode": "303304",
    "officename": "Dubbi S.O",
    "officeType": "S.O",
    "Deliverystatus": "Delivery",
    "divisionname": "Jaipur Moffusil",
    "regionname": "Jaipur HQ",
    "circlename": "Rajasthan",
    "Taluk": "Dausa",
    "Districtname": "Dausa",
    "statename": "RAJASTHAN"
  },
  {
    "pincode": "303304",
    "officename": "Kalakho Sadak B.O",
    "officeType": "B.O",
    "Deliverystatus": "Delivery",
    "divisionname": "Jaipur Moffusil",
    "regionname": "Jaipur HQ",
    "circlename": "Rajasthan",
    "Taluk": "Dausa",
    "Districtname": "Dausa",
    "statename": "RAJASTHAN"
  },
  {
    "pincode": "303304",
    "officename": "Kelai B.O",
    "officeType": "B.O",
    "Deliverystatus": "Delivery",
    "divisionname": "Jaipur Moffusil",
    "regionname": "Jaipur HQ",
    "circlename": "Rajasthan",
    "Taluk": "Dausa",
    "Districtname": "Dausa",
    "statename": "RAJASTHAN"
  },
  {
    "pincode": "303304",
    "officename": "Peelwa Kalan B.O",
    "officeType": "B.O",
    "Deliverystatus": "Delivery",
    "divisionname": "Jaipur Moffusil",
    "regionname": "Jaipur HQ",
    "circlename": "Rajasthan",
    "Taluk": "Dausa",
    "Districtname": "Dausa",
    "statename": "RAJASTHAN"
  },
  {
    "pincode": "303304",
    "officename": "Reta B.O",
    "officeType": "B.O",
    "Deliverystatus": "Delivery",
    "divisionname": "Jaipur Moffusil",
    "regionname": "Jaipur HQ",
    "circlename": "Rajasthan",
    "Taluk": "Dausa",
    "Districtname": "Dausa",
    "statename": "RAJASTHAN"
  }
]
