[
  {
    "pincode": "303503",
    "officename": "Bagdi B.O",
    "officeType": "B.O",
    "Deliverystatus": "Delivery",
    "divisionname": "Jaipur Moffusil",
    "regionname": "Jaipur HQ",
    "circlename": "Rajasthan",
    "Taluk": "Dausa",
    "Districtname": "Dausa",
    "statename": "RAJASTHAN"
  },
  {
    "pincode": "303503",
    "officename": "Bilona B.O",
    "officeType": "B.O",
    "Deliverystatus": "Delivery",
    "divisionname": "Jaipur Moffusil",
    "regionname": "Jaipur HQ",
    "circlename": "Rajasthan",
    "Taluk": "Dausa",
    "Districtname": "Dausa",
    "statename": "RAJASTHAN"
  },
  {
    "pincode": "303503",
    "officename": "Chandsen B.O",
    "officeType": "B.O",
    "Deliverystatus": "Delivery",
    "divisionname": "Jaipur Moffusil",
    "regionname": "Jaipur HQ",
    "circlename": "Rajasthan",
    "Taluk": "Dausa",
    "Districtname": "Dausa",
    "statename": "RAJASTHAN"
  },
  {
    "pincode": "303503",
    "officename": "Chondiawas B.O",
    "officeType": "B.O",
    "Deliverystatus": "Delivery",
    "divisionname": "Jaipur Moffusil",
    "regionname": "Jaipur HQ",
    "circlename": "Rajasthan",
    "Taluk": "Dausa",
    "Districtname": "Dausa",
    "statename": "RAJASTHAN"
  },
  {
    "pincode": "303503",
    "officename": "Daulatpura B.O",
    "officeType": "B.O",
    "Deliverystatus": "Delivery",
    "divisionname": "Jaipur Moffusil",
    "regionname": "Jaipur HQ",
    "circlename": "Rajasthan",
    "Taluk": "Dausa",
    "Districtname": "Dausa",
    "statename": "RAJASTHAN"
  },
  {
    "pincode": "303503",
    "officename": "Deoli B.O",
    "officeType": "B.O",
    "Deliverystatus": "Delivery",
    "divisionname": "Jaipur Moffusil",
    "regionname": "Jaipur HQ",
    "circlename": "Rajasthan",
    "Taluk": "Dausa",
    "Districtname": "Dausa",
    "statename": "RAJASTHAN"
  },
  {
    "pincode": "303503",
    "officename": "Hodayali B.O",
    "officeType": "B.O",
    "Deliverystatus": "Delivery",
    "divisionname": "Jaipur Moffusil",
    "regionname": "Jaipur HQ",
    "circlename": "Rajasthan",
    "Taluk": "Dausa",
    "Districtname": "Dausa",
    "statename": "RAJASTHAN"
  },
  {
    "pincode": "303503",
    "officename": "Jhapada B.O",
    "officeType": "B.O",
    "Deliverystatus": "Delivery",
    "divisionname": "Jaipur Moffusil",
    "regionname": "Jaipur HQ",
    "circlename": "Rajasthan",
    "Taluk": "Dausa",
    "Districtname": "Dausa",
    "statename": "RAJASTHAN"
  },
  {
    "pincode": "303503",
    "officename": "Kalyanpura B.O",
    "officeType": "B.O",
    "Deliverystatus": "Delivery",
    "divisionname": "Jaipur Moffusil",
    "regionname": "Jaipur HQ",
    "circlename": "Rajasthan",
    "Taluk": "Dausa",
    "Districtname": "Jaipur",
    "statename": "RAJASTHAN"
  },
  {
    "pincode": "303503",
    "officename": "Kankariya B.O",
    "officeType": "B.O",
    "Deliverystatus": "Delivery",
    "divisionname": "Jaipur Moffusil",
    "regionname": "Jaipur HQ",
    "circlename": "Rajasthan",
    "Taluk": "Dausa",
    "Districtname": "Dausa",
    "statename": "RAJASTHAN"
  },
  {
    "pincode": "303503",
    "officename": "Khatwa B.O",
    "officeType": "B.O",
    "Deliverystatus": "Delivery",
    "divisionname": "Jaipur Moffusil",
    "regionname": "Jaipur HQ",
    "circlename": "Rajasthan",
    "Taluk": "Dausa",
    "Districtname": "Dausa",
    "statename": "RAJASTHAN"
  },
  {
    "pincode": "303503",
    "officename": "Lalpura B.O",
    "officeType": "B.O",
    "Deliverystatus": "Delivery",
    "divisionname": "Jaipur Moffusil",
    "regionname": "Jaipur HQ",
    "circlename": "Rajasthan",
    "Taluk": "Dausa",
    "Districtname": "Dausa",
    "statename": "RAJASTHAN"
  },
  {
    "pincode": "303503",
    "officename": "Lalsot S.O",
    "officeType": "S.O",
    "Deliverystatus": "Delivery",
    "divisionname": "Jaipur Moffusil",
    "regionname": "Jaipur HQ",
    "circlename": "Rajasthan",
    "Taluk": "Dausa",
    "Districtname": "Dausa",
    "statename": "RAJASTHAN"
  },
  {
    "pincode": "303503",
    "officename": "Mirjapura B.O",
    "officeType": "B.O",
    "Deliverystatus": "Delivery",
    "divisionname": "Jaipur Moffusil",
    "regionname": "Jaipur HQ",
    "circlename": "Rajasthan",
    "Taluk": "Dausa",
    "Districtname": "Dausa",
    "statename": "RAJASTHAN"
  },
  {
    "pincode": "303503",
    "officename": "Nirjharna B.O",
    "officeType": "B.O",
    "Deliverystatus": "Delivery",
    "divisionname": "Jaipur Moffusil",
    "regionname": "Jaipur HQ",
    "circlename": "Rajasthan",
    "Taluk": "Dausa",
    "Districtname": "Dausa",
    "statename": "RAJASTHAN"
  },
  {
    "pincode": "303503",
    "officename": "Sanwasa B.O",
    "officeType": "B.O",
    "Deliverystatus": "Delivery",
    "divisionname": "Jaipur Moffusil",
    "regionname": "Jaipur HQ",
    "circlename": "Rajasthan",
    "Taluk": "Dausa",
    "Districtname": "Dausa",
    "statename": "RAJASTHAN"
  },
  {
    "pincode": "303503",
    "officename": "Shivsinghpura B.O",
    "officeType": "B.O",
    "Deliverystatus": "Delivery",
    "divisionname": "Jaipur Moffusil",
    "regionname": "Jaipur HQ",
    "circlename": "Rajasthan",
    "Taluk": "Dausa",
    "Districtname": "Dausa",
    "statename": "RAJASTHAN"
  },
  {
    "pincode": "303503",
    "officename": "Srimaa B.O",
    "officeType": "B.O",
    "Deliverystatus": "Delivery",
    "divisionname": "Jaipur Moffusil",
    "regionname": "Jaipur HQ",
    "circlename": "Rajasthan",
    "Taluk": "Dausa",
    "Districtname": "Dausa",
    "statename": "RAJASTHAN"
  },
  {
    "pincode": "303503",
    "officename": "Sumel B.O",
    "officeType": "B.O",
    "Deliverystatus": "Delivery",
    "divisionname": "Jaipur Moffusil",
    "regionname": "Jaipur HQ",
    "circlename": "Rajasthan",
    "Taluk": "Dausa",
    "Districtname": "Dausa",
    "statename": "RAJASTHAN"
  },
  {
    "pincode": "303503",
    "officename": "Talab Gaon B.O",
    "officeType": "B.O",
    "Deliverystatus": "Delivery",
    "divisionname": "Jaipur Moffusil",
    "regionname": "Jaipur HQ",
    "circlename": "Rajasthan",
    "Taluk": "Dausa",
    "Districtname": "Dausa",
    "statename": "RAJASTHAN"
  },
  {
    "pincode": "303503",
    "officename": "Thuni Dhirajpura B.O",
    "officeType": "B.O",
    "Deliverystatus": "Delivery",
    "divisionname": "Jaipur Moffusil",
    "regionname": "Jaipur HQ",
    "circlename": "Rajasthan",
    "Taluk": "Dausa",
    "Districtname": "Dausa",
    "statename": "RAJASTHAN"
  }
]
