[
  {
    "pincode": "303509",
    "officename": "Chandera B.O",
    "officeType": "B.O",
    "Deliverystatus": "Delivery",
    "divisionname": "Jaipur Moffusil",
    "regionname": "Jaipur HQ",
    "circlename": "Rajasthan",
    "Taluk": "Dausa",
    "Districtname": "Dausa",
    "statename": "RAJASTHAN"
  },
  {
    "pincode": "303509",
    "officename": "Karodi B.O",
    "officeType": "B.O",
    "Deliverystatus": "Delivery",
    "divisionname": "Jaipur Moffusil",
    "regionname": "Jaipur HQ",
    "circlename": "Rajasthan",
    "Taluk": "Dausa",
    "Districtname": "Dausa",
    "statename": "RAJASTHAN"
  },
  {
    "pincode": "303509",
    "officename": "Lotwara B.O",
    "officeType": "B.O",
    "Deliverystatus": "Delivery",
    "divisionname": "Jaipur Moffusil",
    "regionname": "Jaipur HQ",
    "circlename": "Rajasthan",
    "Taluk": "Dausa",
    "Districtname": "Dausa",
    "statename": "RAJASTHAN"
  },
  {
    "pincode": "303509",
    "officename": "Manpur S.O (Dausa)",
    "officeType": "S.O",
    "Deliverystatus": "Delivery",
    "divisionname": "Jaipur Moffusil",
    "regionname": "Jaipur HQ",
    "circlename": "Rajasthan",
    "Taluk": "Dausa",
    "Districtname": "Dausa",
    "statename": "RAJASTHAN"
  },
  {
    "pincode": "303509",
    "officename": "Nandri B.O",
    "officeType": "B.O",
    "Deliverystatus": "Delivery",
    "divisionname": "Jaipur Moffusil",
    "regionname": "Jaipur HQ",
    "circlename": "Rajasthan",
    "Taluk": "Dausa",
    "Districtname": "Dausa",
    "statename": "RAJASTHAN"
  },
  {
    "pincode": "303509",
    "officename": "Pancholi B.O",
    "officeType": "B.O",
    "Deliverystatus": "Delivery",
    "divisionname": "Jaipur Moffusil",
    "regionname": "Jaipur HQ",
    "circlename": "Rajasthan",
    "Taluk": "Dausa",
    "Districtname": "Dausa",
    "statename": "RAJASTHAN"
  },
  {
    "pincode": "303509",
    "officename": "Peepalki B.O",
    "officeType": "B.O",
    "Deliverystatus": "Delivery",
    "divisionname": "Jaipur Moffusil",
    "regionname": "Jaipur HQ",
    "circlename": "Rajasthan",
    "Taluk": "Dausa",
    "Districtname": "Dausa",
    "statename": "RAJASTHAN"
  },
  {
    "pincode": "303509",
    "officename": "Pundarpada B.O",
    "officeType": "B.O",
    "Deliverystatus": "Delivery",
    "divisionname": "Jaipur Moffusil",
    "regionname": "Jaipur HQ",
    "circlename": "Rajasthan",
    "Taluk": "Dausa",
    "Districtname": "Dausa",
    "statename": "RAJASTHAN"
  },
  {
    "pincode": "303509",
    "officename": "Thikriya B.O",
    "officeType": "B.O",
    "Deliverystatus": "Delivery",
    "divisionname": "Jaipur Moffusil",
    "regionname": "Jaipur HQ",
    "circlename": "Rajasthan",
    "Taluk": "Dausa",
    "Districtname": "Dausa",
    "statename": "RAJASTHAN"
  },
  {
    "pincode": "303509",
    "officename": "Udaipuria B.O",
    "officeType": "B.O",
    "Deliverystatus": "Delivery",
    "divisionname": "Jaipur Moffusil",
    "regionname": "Jaipur HQ",
    "circlename": "Rajasthan",
    "Taluk": "Dausa",
    "Districtname": "Jaipur",
    "statename": "RAJASTHAN"
  }
]
