[
  {
    "pincode": "304502",
    "officename": "Aliyari B.O",
    "officeType": "B.O",
    "Deliverystatus": "Delivery",
    "divisionname": "Tonk",
    "regionname": "Ajmer",
    "circlename": "Rajasthan",
    "Taluk": "Tonk",
    "Districtname": "Tonk",
    "statename": "RAJASTHAN"
  },
  {
    "pincode": "304502",
    "officename": "Awara B.O",
    "officeType": "B.O",
    "Deliverystatus": "Delivery",
    "divisionname": "Tonk",
    "regionname": "Ajmer",
    "circlename": "Rajasthan",
    "Taluk": "Tonk",
    "Districtname": "Tonk",
    "statename": "RAJASTHAN"
  },
  {
    "pincode": "304502",
    "officename": "Datob B.O",
    "officeType": "B.O",
    "Deliverystatus": "Delivery",
    "divisionname": "Tonk",
    "regionname": "Ajmer",
    "circlename": "Rajasthan",
    "Taluk": "Tonk",
    "Districtname": "Tonk",
    "statename": "RAJASTHAN"
  },
  {
    "pincode": "304502",
    "officename": "Dungri Kalan B.O",
    "officeType": "B.O",
    "Deliverystatus": "Delivery",
    "divisionname": "Tonk",
    "regionname": "Ajmer",
    "circlename": "Rajasthan",
    "Taluk": "Tonk",
    "Districtname": "Tonk",
    "statename": "RAJASTHAN"
  },
  {
    "pincode": "304502",
    "officename": "Ganwar B.O",
    "officeType": "B.O",
    "Deliverystatus": "Delivery",
    "divisionname": "Tonk",
    "regionname": "Ajmer",
    "circlename": "Rajasthan",
    "Taluk": "Tonk",
    "Districtname": "Tonk",
    "statename": "RAJASTHAN"
  },
  {
    "pincode": "304502",
    "officename": "Indoli B.O",
    "officeType": "B.O",
    "Deliverystatus": "Delivery",
    "divisionname": "Tonk",
    "regionname": "Ajmer",
    "circlename": "Rajasthan",
    "Taluk": "Tonk",
    "Districtname": "Tonk",
    "statename": "RAJASTHAN"
  },
  {
    "pincode": "304502",
    "officename": "Kantoli B.O",
    "officeType": "B.O",
    "Deliverystatus": "Delivery",
    "divisionname": "Tonk",
    "regionname": "Ajmer",
    "circlename": "Rajasthan",
    "Taluk": "Tonk",
    "Districtname": "Tonk",
    "statename": "RAJASTHAN"
  },
  {
    "pincode": "304502",
    "officename": "Kookar B.O",
    "officeType": "B.O",
    "Deliverystatus": "Delivery",
    "divisionname": "Tonk",
    "regionname": "Ajmer",
    "circlename": "Rajasthan",
    "Taluk": "Tonk",
    "Districtname": "Tonk",
    "statename": "RAJASTHAN"
  },
  {
    "pincode": "304502",
    "officename": "Kuharakalan B.O",
    "officeType": "B.O",
    "Deliverystatus": "Delivery",
    "divisionname": "Tonk",
    "regionname": "Ajmer",
    "circlename": "Rajasthan",
    "Taluk": "Tonk",
    "Districtname": "Tonk",
    "statename": "RAJASTHAN"
  },
  {
    "pincode": "304502",
    "officename": "Kurar B.O",
    "officeType": "B.O",
    "Deliverystatus": "Delivery",
    "divisionname": "Tonk",
    "regionname": "Ajmer",
    "circlename": "Rajasthan",
    "Taluk": "Tonk",
    "Districtname": "Tonk",
    "statename": "RAJASTHAN"
  },
  {
    "pincode": "304502",
    "officename": "Malpura S.O",
    "officeType": "S.O",
    "Deliverystatus": "Delivery",
    "divisionname": "Tonk",
    "regionname": "Ajmer",
    "circlename": "Rajasthan",
    "Taluk": "Tonk",
    "Districtname": "Tonk",
    "statename": "RAJASTHAN"
  },
  {
    "pincode": "304502",
    "officename": "Mandolai B.O",
    "officeType": "B.O",
    "Deliverystatus": "Delivery",
    "divisionname": "Tonk",
    "regionname": "Ajmer",
    "circlename": "Rajasthan",
    "Taluk": "Tonk",
    "Districtname": "Tonk",
    "statename": "RAJASTHAN"
  },
  {
    "pincode": "304502",
    "officename": "Mehrun B.O",
    "officeType": "B.O",
    "Deliverystatus": "Delivery",
    "divisionname": "Tonk",
    "regionname": "Ajmer",
    "circlename": "Rajasthan",
    "Taluk": "Tonk",
    "Districtname": "Tonk",
    "statename": "RAJASTHAN"
  },
  {
    "pincode": "304502",
    "officename": "Moar B.O",
    "officeType": "B.O",
    "Deliverystatus": "Delivery",
    "divisionname": "Tonk",
    "regionname": "Ajmer",
    "circlename": "Rajasthan",
    "Taluk": "Tonk",
    "Districtname": "Tonk",
    "statename": "RAJASTHAN"
  },
  {
    "pincode": "304502",
    "officename": "Nagar B.O",
    "officeType": "B.O",
    "Deliverystatus": "Delivery",
    "divisionname": "Tonk",
    "regionname": "Ajmer",
    "circlename": "Rajasthan",
    "Taluk": "Tonk",
    "Districtname": "Tonk",
    "statename": "RAJASTHAN"
  },
  {
    "pincode": "304502",
    "officename": "Pachewar B.O",
    "officeType": "B.O",
    "Deliverystatus": "Delivery",
    "divisionname": "Tonk",
    "regionname": "Ajmer",
    "circlename": "Rajasthan",
    "Taluk": "",
    "Districtname": "Tonk",
    "statename": "RAJASTHAN"
  },
  {
    "pincode": "304502",
    "officename": "Panwalia B.O",
    "officeType": "B.O",
    "Deliverystatus": "Delivery",
    "divisionname": "Tonk",
    "regionname": "Ajmer",
    "circlename": "Rajasthan",
    "Taluk": "Tonk",
    "Districtname": "Tonk",
    "statename": "RAJASTHAN"
  },
  {
    "pincode": "304502",
    "officename": "Parli B.O",
    "officeType": "B.O",
    "Deliverystatus": "Delivery",
    "divisionname": "Tonk",
    "regionname": "Ajmer",
    "circlename": "Rajasthan",
    "Taluk": "Tonk",
    "Districtname": "Tonk",
    "statename": "RAJASTHAN"
  },
  {
    "pincode": "304502",
    "officename": "Rajpura B.O",
    "officeType": "B.O",
    "Deliverystatus": "Delivery",
    "divisionname": "Tonk",
    "regionname": "Ajmer",
    "circlename": "Rajasthan",
    "Taluk": "Tonk",
    "Districtname": "Tonk",
    "statename": "RAJASTHAN"
  },
  {
    "pincode": "304502",
    "officename": "Reendliya B.O",
    "officeType": "B.O",
    "Deliverystatus": "Delivery",
    "divisionname": "Tonk",
    "regionname": "Ajmer",
    "circlename": "Rajasthan",
    "Taluk": "Tonk",
    "Districtname": "Tonk",
    "statename": "RAJASTHAN"
  },
  {
    "pincode": "304502",
    "officename": "Reendliya Rampura B.O",
    "officeType": "B.O",
    "Deliverystatus": "Delivery",
    "divisionname": "Tonk",
    "regionname": "Ajmer",
    "circlename": "Rajasthan",
    "Taluk": "Tonk",
    "Districtname": "Tonk",
    "statename": "RAJASTHAN"
  },
  {
    "pincode": "304502",
    "officename": "Sanwaria B.O",
    "officeType": "B.O",
    "Deliverystatus": "Delivery",
    "divisionname": "Tonk",
    "regionname": "Ajmer",
    "circlename": "Rajasthan",
    "Taluk": "Tonk",
    "Districtname": "Tonk",
    "statename": "RAJASTHAN"
  },
  {
    "pincode": "304502",
    "officename": "Tilanju B.O",
    "officeType": "B.O",
    "Deliverystatus": "Delivery",
    "divisionname": "Tonk",
    "regionname": "Ajmer",
    "circlename": "Rajasthan",
    "Taluk": "Tonk",
    "Districtname": "Tonk",
    "statename": "RAJASTHAN"
  },
  {
    "pincode": "304502",
    "officename": "Tordisagar B.O",
    "officeType": "B.O",
    "Deliverystatus": "Delivery",
    "divisionname": "Tonk",
    "regionname": "Ajmer",
    "circlename": "Rajasthan",
    "Taluk": "Tonk",
    "Districtname": "Tonk",
    "statename": "RAJASTHAN"
  },
  {
    "pincode": "304502",
    "officename": "Uniara Khurd B.O",
    "officeType": "B.O",
    "Deliverystatus": "Delivery",
    "divisionname": "Tonk",
    "regionname": "Ajmer",
    "circlename": "Rajasthan",
    "Taluk": "Tonk",
    "Districtname": "Tonk",
    "statename": "RAJASTHAN"
  }
]
