[
  {
    "pincode": "304504",
    "officename": "Bheepur B.O",
    "officeType": "B.O",
    "Deliverystatus": "Delivery",
    "divisionname": "Tonk",
    "regionname": "Ajmer",
    "circlename": "Rajasthan",
    "Taluk": "Tonk",
    "Districtname": "Tonk",
    "statename": "RAJASTHAN"
  },
  {
    "pincode": "304504",
    "officename": "Borkhandi B.O",
    "officeType": "B.O",
    "Deliverystatus": "Delivery",
    "divisionname": "Tonk",
    "regionname": "Ajmer",
    "circlename": "Rajasthan",
    "Taluk": "Tonk",
    "Districtname": "Tonk",
    "statename": "RAJASTHAN"
  },
  {
    "pincode": "304504",
    "officename": "Chainpura B.O",
    "officeType": "B.O",
    "Deliverystatus": "Delivery",
    "divisionname": "Tonk",
    "regionname": "Ajmer",
    "circlename": "Rajasthan",
    "Taluk": "Tonk",
    "Districtname": "Tonk",
    "statename": "RAJASTHAN"
  },
  {
    "pincode": "304504",
    "officename": "Chavandia B.O",
    "officeType": "B.O",
    "Deliverystatus": "Delivery",
    "divisionname": "Tonk",
    "regionname": "Ajmer",
    "circlename": "Rajasthan",
    "Taluk": "Tonk",
    "Districtname": "Tonk",
    "statename": "RAJASTHAN"
  },
  {
    "pincode": "304504",
    "officename": "Chosla B.O",
    "officeType": "B.O",
    "Deliverystatus": "Delivery",
    "divisionname": "Tonk",
    "regionname": "Ajmer",
    "circlename": "Rajasthan",
    "Taluk": "Tonk",
    "Districtname": "Tonk",
    "statename": "RAJASTHAN"
  },
  {
    "pincode": "304504",
    "officename": "Deshma B.O",
    "officeType": "B.O",
    "Deliverystatus": "Delivery",
    "divisionname": "Tonk",
    "regionname": "Ajmer",
    "circlename": "Rajasthan",
    "Taluk": "Tonk",
    "Districtname": "Tonk",
    "statename": "RAJASTHAN"
  },
  {
    "pincode": "304504",
    "officename": "Dholi B.O",
    "officeType": "B.O",
    "Deliverystatus": "Delivery",
    "divisionname": "Tonk",
    "regionname": "Ajmer",
    "circlename": "Rajasthan",
    "Taluk": "Tonk",
    "Districtname": "Tonk",
    "statename": "RAJASTHAN"
  },
  {
    "pincode": "304504",
    "officename": "Diggi S.O",
    "officeType": "S.O",
    "Deliverystatus": "Delivery",
    "divisionname": "Tonk",
    "regionname": "Ajmer",
    "circlename": "Rajasthan",
    "Taluk": "Tonk",
    "Districtname": "Tonk",
    "statename": "RAJASTHAN"
  },
  {
    "pincode": "304504",
    "officename": "Jhirana B.O",
    "officeType": "B.O",
    "Deliverystatus": "Delivery",
    "divisionname": "Tonk",
    "regionname": "Ajmer",
    "circlename": "Rajasthan",
    "Taluk": "Tonk",
    "Districtname": "Tonk",
    "statename": "RAJASTHAN"
  },
  {
    "pincode": "304504",
    "officename": "Lawa B.O",
    "officeType": "B.O",
    "Deliverystatus": "Delivery",
    "divisionname": "Tonk",
    "regionname": "Ajmer",
    "circlename": "Rajasthan",
    "Taluk": "",
    "Districtname": "Tonk",
    "statename": "RAJASTHAN"
  },
  {
    "pincode": "304504",
    "officename": "Malikpur B.O",
    "officeType": "B.O",
    "Deliverystatus": "Delivery",
    "divisionname": "Tonk",
    "regionname": "Ajmer",
    "circlename": "Rajasthan",
    "Taluk": "Tonk",
    "Districtname": "Tonk",
    "statename": "RAJASTHAN"
  },
  {
    "pincode": "304504",
    "officename": "Naner B.O",
    "officeType": "B.O",
    "Deliverystatus": "Delivery",
    "divisionname": "Tonk",
    "regionname": "Ajmer",
    "circlename": "Rajasthan",
    "Taluk": "Tonk",
    "Districtname": "Tonk",
    "statename": "RAJASTHAN"
  },
  {
    "pincode": "304504",
    "officename": "Nimera B.O",
    "officeType": "B.O",
    "Deliverystatus": "Delivery",
    "divisionname": "Tonk",
    "regionname": "Ajmer",
    "circlename": "Rajasthan",
    "Taluk": "Tonk",
    "Districtname": "Tonk",
    "statename": "RAJASTHAN"
  },
  {
    "pincode": "304504",
    "officename": "Sitarampura B.O",
    "officeType": "B.O",
    "Deliverystatus": "Delivery",
    "divisionname": "Tonk",
    "regionname": "Ajmer",
    "circlename": "Rajasthan",
    "Taluk": "Tonk",
    "Districtname": "Tonk",
    "statename": "RAJASTHAN"
  },
  {
    "pincode": "304504",
    "officename": "Soda B.O",
    "officeType": "B.O",
    "Deliverystatus": "Delivery",
    "divisionname": "Tonk",
    "regionname": "Ajmer",
    "circlename": "Rajasthan",
    "Taluk": "Tonk",
    "Districtname": "Tonk",
    "statename": "RAJASTHAN"
  },
  {
    "pincode": "304504",
    "officename": "Soda Baori B.O",
    "officeType": "B.O",
    "Deliverystatus": "Delivery",
    "divisionname": "Tonk",
    "regionname": "Ajmer",
    "circlename": "Rajasthan",
    "Taluk": "Tonk",
    "Districtname": "Tonk",
    "statename": "RAJASTHAN"
  }
]
