[
  {
    "pincode": "304802",
    "officename": "Anwan B.O",
    "officeType": "B.O",
    "Deliverystatus": "Delivery",
    "divisionname": "Tonk",
    "regionname": "Ajmer",
    "circlename": "Rajasthan",
    "Taluk": "Tonk",
    "Districtname": "Tonk",
    "statename": "RAJASTHAN"
  },
  {
    "pincode": "304802",
    "officename": "Balunda B.O",
    "officeType": "B.O",
    "Deliverystatus": "Delivery",
    "divisionname": "Tonk",
    "regionname": "Ajmer",
    "circlename": "Rajasthan",
    "Taluk": "Tonk",
    "Districtname": "Tonk",
    "statename": "RAJASTHAN"
  },
  {
    "pincode": "304802",
    "officename": "Banthali B.O",
    "officeType": "B.O",
    "Deliverystatus": "Delivery",
    "divisionname": "Tonk",
    "regionname": "Ajmer",
    "circlename": "Rajasthan",
    "Taluk": "Tonk",
    "Districtname": "Tonk",
    "statename": "RAJASTHAN"
  },
  {
    "pincode": "304802",
    "officename": "Chandwar B.O",
    "officeType": "B.O",
    "Deliverystatus": "Delivery",
    "divisionname": "Tonk",
    "regionname": "Ajmer",
    "circlename": "Rajasthan",
    "Taluk": "Tonk",
    "Districtname": "Tonk",
    "statename": "RAJASTHAN"
  },
  {
    "pincode": "304802",
    "officename": "Charnet B.O",
    "officeType": "B.O",
    "Deliverystatus": "Delivery",
    "divisionname": "Tonk",
    "regionname": "Ajmer",
    "circlename": "Rajasthan",
    "Taluk": "Tonk",
    "Districtname": "Tonk",
    "statename": "RAJASTHAN"
  },
  {
    "pincode": "304802",
    "officename": "Dewarawas B.O",
    "officeType": "B.O",
    "Deliverystatus": "Delivery",
    "divisionname": "Tonk",
    "regionname": "Ajmer",
    "circlename": "Rajasthan",
    "Taluk": "Tonk",
    "Districtname": "Tonk",
    "statename": "RAJASTHAN"
  },
  {
    "pincode": "304802",
    "officename": "Duni S.O (Tonk)",
    "officeType": "S.O",
    "Deliverystatus": "Delivery",
    "divisionname": "Tonk",
    "regionname": "Ajmer",
    "circlename": "Rajasthan",
    "Taluk": "Tonk",
    "Districtname": "Tonk",
    "statename": "RAJASTHAN"
  },
  {
    "pincode": "304802",
    "officename": "Ghad B.O",
    "officeType": "B.O",
    "Deliverystatus": "Delivery",
    "divisionname": "Tonk",
    "regionname": "Ajmer",
    "circlename": "Rajasthan",
    "Taluk": "Tonk",
    "Districtname": "Tonk",
    "statename": "RAJASTHAN"
  },
  {
    "pincode": "304802",
    "officename": "Gurai B.O",
    "officeType": "B.O",
    "Deliverystatus": "Delivery",
    "divisionname": "Tonk",
    "regionname": "Ajmer",
    "circlename": "Rajasthan",
    "Taluk": "Tonk",
    "Districtname": "Tonk",
    "statename": "RAJASTHAN"
  },
  {
    "pincode": "304802",
    "officename": "Juniya B.O",
    "officeType": "B.O",
    "Deliverystatus": "Delivery",
    "divisionname": "Tonk",
    "regionname": "Ajmer",
    "circlename": "Rajasthan",
    "Taluk": "Tonk",
    "Districtname": "Tonk",
    "statename": "RAJASTHAN"
  },
  {
    "pincode": "304802",
    "officename": "Kanwara B.O",
    "officeType": "B.O",
    "Deliverystatus": "Delivery",
    "divisionname": "Tonk",
    "regionname": "Ajmer",
    "circlename": "Rajasthan",
    "Taluk": "Tonk",
    "Districtname": "Tonk",
    "statename": "RAJASTHAN"
  },
  {
    "pincode": "304802",
    "officename": "Rajkot B.O",
    "officeType": "B.O",
    "Deliverystatus": "Delivery",
    "divisionname": "Tonk",
    "regionname": "Ajmer",
    "circlename": "Rajasthan",
    "Taluk": "Tonk",
    "Districtname": "Tonk",
    "statename": "RAJASTHAN"
  },
  {
    "pincode": "304802",
    "officename": "Santhali B.O",
    "officeType": "B.O",
    "Deliverystatus": "Delivery",
    "divisionname": "Tonk",
    "regionname": "Ajmer",
    "circlename": "Rajasthan",
    "Taluk": "Tonk",
    "Districtname": "Tonk",
    "statename": "RAJASTHAN"
  },
  {
    "pincode": "304802",
    "officename": "Satwara B.O",
    "officeType": "B.O",
    "Deliverystatus": "Delivery",
    "divisionname": "Tonk",
    "regionname": "Ajmer",
    "circlename": "Rajasthan",
    "Taluk": "Tonk",
    "Districtname": "Tonk",
    "statename": "RAJASTHAN"
  },
  {
    "pincode": "304802",
    "officename": "Sitapura B.O",
    "officeType": "B.O",
    "Deliverystatus": "Delivery",
    "divisionname": "Tonk",
    "regionname": "Ajmer",
    "circlename": "Rajasthan",
    "Taluk": "Tonk",
    "Districtname": "Tonk",
    "statename": "RAJASTHAN"
  },
  {
    "pincode": "304802",
    "officename": "Tonkrawas B.O",
    "officeType": "B.O",
    "Deliverystatus": "Delivery",
    "divisionname": "Tonk",
    "regionname": "Ajmer",
    "circlename": "Rajasthan",
    "Taluk": "Tonk",
    "Districtname": "Tonk",
    "statename": "RAJASTHAN"
  }
]
