[
  {
    "pincode": "304804",
    "officename": "Ambapura Colony Daulta B.O",
    "officeType": "B.O",
    "Deliverystatus": "Delivery",
    "divisionname": "Tonk",
    "regionname": "Ajmer",
    "circlename": "Rajasthan",
    "Taluk": "Tonk",
    "Districtname": "Tonk",
    "statename": "RAJASTHAN"
  },
  {
    "pincode": "304804",
    "officename": "Botunda B.O",
    "officeType": "B.O",
    "Deliverystatus": "Delivery",
    "divisionname": "Tonk",
    "regionname": "Ajmer",
    "circlename": "Rajasthan",
    "Taluk": "Tonk",
    "Districtname": "Tonk",
    "statename": "RAJASTHAN"
  },
  {
    "pincode": "304804",
    "officename": "Deoli Bazar S.O",
    "officeType": "S.O",
    "Deliverystatus": "Non-Delivery",
    "divisionname": "Tonk",
    "regionname": "Ajmer",
    "circlename": "Rajasthan",
    "Taluk": "Tonk",
    "Districtname": "Tonk",
    "statename": "RAJASTHAN"
  },
  {
    "pincode": "304804",
    "officename": "Deoli Gaon B.O",
    "officeType": "B.O",
    "Deliverystatus": "Delivery",
    "divisionname": "Tonk",
    "regionname": "Ajmer",
    "circlename": "Rajasthan",
    "Taluk": "Tonk",
    "Districtname": "Tonk",
    "statename": "RAJASTHAN"
  },
  {
    "pincode": "304804",
    "officename": "Deoli S.O (Tonk)",
    "officeType": "S.O",
    "Deliverystatus": "Delivery",
    "divisionname": "Tonk",
    "regionname": "Ajmer",
    "circlename": "Rajasthan",
    "Taluk": "Tonk",
    "Districtname": "Tonk",
    "statename": "RAJASTHAN"
  },
  {
    "pincode": "304804",
    "officename": "Gaonri B.O",
    "officeType": "B.O",
    "Deliverystatus": "Delivery",
    "divisionname": "Tonk",
    "regionname": "Ajmer",
    "circlename": "Rajasthan",
    "Taluk": "Tonk",
    "Districtname": "Tonk",
    "statename": "RAJASTHAN"
  },
  {
    "pincode": "304804",
    "officename": "Kaseer B.O",
    "officeType": "B.O",
    "Deliverystatus": "Delivery",
    "divisionname": "Tonk",
    "regionname": "Ajmer",
    "circlename": "Rajasthan",
    "Taluk": "Tonk",
    "Districtname": "Tonk",
    "statename": "RAJASTHAN"
  },
  {
    "pincode": "304804",
    "officename": "Rajmahal B.O",
    "officeType": "B.O",
    "Deliverystatus": "Delivery",
    "divisionname": "Tonk",
    "regionname": "Ajmer",
    "circlename": "Rajasthan",
    "Taluk": "Tonk",
    "Districtname": "Tonk",
    "statename": "RAJASTHAN"
  }
]
