[
  {
    "pincode": "305022",
    "officename": "Bhagwan Pura B.O",
    "officeType": "B.O",
    "Deliverystatus": "Delivery",
    "divisionname": "Ajmer",
    "regionname": "Ajmer",
    "circlename": "Rajasthan",
    "Taluk": "Ajmer",
    "Districtname": "Ajmer",
    "statename": "RAJASTHAN"
  },
  {
    "pincode": "305022",
    "officename": "Deo Nagar B.O",
    "officeType": "B.O",
    "Deliverystatus": "Delivery",
    "divisionname": "Ajmer",
    "regionname": "Ajmer",
    "circlename": "Rajasthan",
    "Taluk": "Ajmer",
    "Districtname": "Ajmer",
    "statename": "RAJASTHAN"
  },
  {
    "pincode": "305022",
    "officename": "Ganahera B.O",
    "officeType": "B.O",
    "Deliverystatus": "Delivery",
    "divisionname": "Ajmer",
    "regionname": "Ajmer",
    "circlename": "Rajasthan",
    "Taluk": "Ajmer",
    "Districtname": "Ajmer",
    "statename": "RAJASTHAN"
  },
  {
    "pincode": "305022",
    "officename": "Kanas B.O",
    "officeType": "B.O",
    "Deliverystatus": "Delivery",
    "divisionname": "Ajmer",
    "regionname": "Ajmer",
    "circlename": "Rajasthan",
    "Taluk": "Ajmer",
    "Districtname": "Ajmer",
    "statename": "RAJASTHAN"
  },
  {
    "pincode": "305022",
    "officename": "Kishanpura B.O",
    "officeType": "B.O",
    "Deliverystatus": "Delivery",
    "divisionname": "Ajmer",
    "regionname": "Ajmer",
    "circlename": "Rajasthan",
    "Taluk": "Kishangarh",
    "Districtname": "Ajmer",
    "statename": "RAJASTHAN"
  },
  {
    "pincode": "305022",
    "officename": "Nand B.O",
    "officeType": "B.O",
    "Deliverystatus": "Delivery",
    "divisionname": "Ajmer",
    "regionname": "Ajmer",
    "circlename": "Rajasthan",
    "Taluk": "Kishangarh",
    "Districtname": "Ajmer",
    "statename": "RAJASTHAN"
  },
  {
    "pincode": "305022",
    "officename": "Picholia B.O",
    "officeType": "B.O",
    "Deliverystatus": "Delivery",
    "divisionname": "Ajmer",
    "regionname": "Ajmer",
    "circlename": "Rajasthan",
    "Taluk": "Ajmer",
    "Districtname": "Ajmer",
    "statename": "RAJASTHAN"
  },
  {
    "pincode": "305022",
    "officename": "Pushkar Bazar S.O",
    "officeType": "S.O",
    "Deliverystatus": "Non-Delivery",
    "divisionname": "Ajmer",
    "regionname": "Ajmer",
    "circlename": "Rajasthan",
    "Taluk": "Ajmer",
    "Districtname": "Ajmer",
    "statename": "RAJASTHAN"
  },
  {
    "pincode": "305022",
    "officename": "Pushkar S.O",
    "officeType": "S.O",
    "Deliverystatus": "Delivery",
    "divisionname": "Ajmer",
    "regionname": "Ajmer",
    "circlename": "Rajasthan",
    "Taluk": "Ajmer",
    "Districtname": "Ajmer",
    "statename": "RAJASTHAN"
  },
  {
    "pincode": "305022",
    "officename": "Tilora B.O",
    "officeType": "B.O",
    "Deliverystatus": "Delivery",
    "divisionname": "Ajmer",
    "regionname": "Ajmer",
    "circlename": "Rajasthan",
    "Taluk": "Kishan Garh",
    "Districtname": "Ajmer",
    "statename": "RAJASTHAN"
  }
]
