[
  {
    "pincode": "305206",
    "officename": "Amba Masina B.O",
    "officeType": "B.O",
    "Deliverystatus": "Delivery",
    "divisionname": "Ajmer",
    "regionname": "Ajmer",
    "circlename": "Rajasthan",
    "Taluk": "Ajmer",
    "Districtname": "Ajmer",
    "statename": "RAJASTHAN"
  },
  {
    "pincode": "305206",
    "officename": "Bhaonta B.O",
    "officeType": "B.O",
    "Deliverystatus": "Delivery",
    "divisionname": "Ajmer",
    "regionname": "Ajmer",
    "circlename": "Rajasthan",
    "Taluk": "Ajmer",
    "Districtname": "Ajmer",
    "statename": "RAJASTHAN"
  },
  {
    "pincode": "305206",
    "officename": "Dumara B.O",
    "officeType": "B.O",
    "Deliverystatus": "Delivery",
    "divisionname": "Ajmer",
    "regionname": "Ajmer",
    "circlename": "Rajasthan",
    "Taluk": "Ajmer",
    "Districtname": "Ajmer",
    "statename": "RAJASTHAN"
  },
  {
    "pincode": "305206",
    "officename": "Kesarpura B.O",
    "officeType": "B.O",
    "Deliverystatus": "Delivery",
    "divisionname": "Ajmer",
    "regionname": "Ajmer",
    "circlename": "Rajasthan",
    "Taluk": "Ajmer",
    "Districtname": "Ajmer",
    "statename": "RAJASTHAN"
  },
  {
    "pincode": "305206",
    "officename": "Makrera B.O",
    "officeType": "B.O",
    "Deliverystatus": "Delivery",
    "divisionname": "Ajmer",
    "regionname": "Ajmer",
    "circlename": "Rajasthan",
    "Taluk": "Ajmer",
    "Districtname": "Ajmer",
    "statename": "RAJASTHAN"
  },
  {
    "pincode": "305206",
    "officename": "Nooriawas B.O",
    "officeType": "B.O",
    "Deliverystatus": "Delivery",
    "divisionname": "Ajmer",
    "regionname": "Ajmer",
    "circlename": "Rajasthan",
    "Taluk": "Ajmer",
    "Districtname": "Ajmer",
    "statename": "RAJASTHAN"
  },
  {
    "pincode": "305206",
    "officename": "Saradhana S.O",
    "officeType": "S.O",
    "Deliverystatus": "Delivery",
    "divisionname": "Ajmer",
    "regionname": "Ajmer",
    "circlename": "Rajasthan",
    "Taluk": "Ajmer",
    "Districtname": "Ajmer",
    "statename": "RAJASTHAN"
  },
  {
    "pincode": "305206",
    "officename": "Tabiji B.O",
    "officeType": "B.O",
    "Deliverystatus": "Delivery",
    "divisionname": "Ajmer",
    "regionname": "Ajmer",
    "circlename": "Rajasthan",
    "Taluk": "Ajmer",
    "Districtname": "Ajmer",
    "statename": "RAJASTHAN"
  }
]
