[
  {
    "pincode": "305204",
    "officename": "Budhwara B.O",
    "officeType": "B.O",
    "Deliverystatus": "Delivery",
    "divisionname": "Beawar",
    "regionname": "Ajmer",
    "circlename": "Rajasthan",
    "Taluk": "Beawar",
    "Districtname": "Ajmer",
    "statename": "RAJASTHAN"
  },
  {
    "pincode": "305204",
    "officename": "Fathepura B.O",
    "officeType": "B.O",
    "Deliverystatus": "Delivery",
    "divisionname": "Beawar",
    "regionname": "Ajmer",
    "circlename": "Rajasthan",
    "Taluk": "Beawar",
    "Districtname": "Ajmer",
    "statename": "RAJASTHAN"
  },
  {
    "pincode": "305204",
    "officename": "Kalesara B.O",
    "officeType": "B.O",
    "Deliverystatus": "Delivery",
    "divisionname": "Beawar",
    "regionname": "Ajmer",
    "circlename": "Rajasthan",
    "Taluk": "Beawar",
    "Districtname": "Ajmer",
    "statename": "RAJASTHAN"
  },
  {
    "pincode": "305204",
    "officename": "Karnos B.O",
    "officeType": "B.O",
    "Deliverystatus": "Delivery",
    "divisionname": "Beawar",
    "regionname": "Ajmer",
    "circlename": "Rajasthan",
    "Taluk": "",
    "Districtname": "Ajmer",
    "statename": "RAJASTHAN"
  },
  {
    "pincode": "305204",
    "officename": "Mewaria B.O",
    "officeType": "B.O",
    "Deliverystatus": "Delivery",
    "divisionname": "Beawar",
    "regionname": "Ajmer",
    "circlename": "Rajasthan",
    "Taluk": "Beawar",
    "Districtname": "Ajmer",
    "statename": "RAJASTHAN"
  },
  {
    "pincode": "305204",
    "officename": "Pagaran B.O",
    "officeType": "B.O",
    "Deliverystatus": "Delivery",
    "divisionname": "Beawar",
    "regionname": "Ajmer",
    "circlename": "Rajasthan",
    "Taluk": "Beawar",
    "Districtname": "Ajmer",
    "statename": "RAJASTHAN"
  },
  {
    "pincode": "305204",
    "officename": "Pisangan S.O",
    "officeType": "S.O",
    "Deliverystatus": "Delivery",
    "divisionname": "Beawar",
    "regionname": "Ajmer",
    "circlename": "Rajasthan",
    "Taluk": "Beawar",
    "Districtname": "Ajmer",
    "statename": "RAJASTHAN"
  },
  {
    "pincode": "305204",
    "officename": "Rampura Dabla B.O",
    "officeType": "B.O",
    "Deliverystatus": "Delivery",
    "divisionname": "Beawar",
    "regionname": "Ajmer",
    "circlename": "Rajasthan",
    "Taluk": "Beawar",
    "Districtname": "Ajmer",
    "statename": "RAJASTHAN"
  }
]
