[
  {
    "pincode": "305407",
    "officename": "Bajata B.O",
    "officeType": "B.O",
    "Deliverystatus": "Delivery",
    "divisionname": "Beawar",
    "regionname": "Ajmer",
    "circlename": "Rajasthan",
    "Taluk": "Kekri",
    "Districtname": "Ajmer",
    "statename": "RAJASTHAN"
  },
  {
    "pincode": "305407",
    "officename": "Bisundri B.O",
    "officeType": "B.O",
    "Deliverystatus": "Delivery",
    "divisionname": "Beawar",
    "regionname": "Ajmer",
    "circlename": "Rajasthan",
    "Taluk": "Kekri",
    "Districtname": "Ajmer",
    "statename": "RAJASTHAN"
  },
  {
    "pincode": "305407",
    "officename": "Chitiawas B.O",
    "officeType": "B.O",
    "Deliverystatus": "Delivery",
    "divisionname": "Beawar",
    "regionname": "Ajmer",
    "circlename": "Rajasthan",
    "Taluk": "Kekri",
    "Districtname": "Ajmer",
    "statename": "RAJASTHAN"
  },
  {
    "pincode": "305407",
    "officename": "Chosla B.O",
    "officeType": "B.O",
    "Deliverystatus": "Delivery",
    "divisionname": "Beawar",
    "regionname": "Ajmer",
    "circlename": "Rajasthan",
    "Taluk": "Kekri",
    "Districtname": "Ajmer",
    "statename": "RAJASTHAN"
  },
  {
    "pincode": "305407",
    "officename": "Ghatiyali B.O",
    "officeType": "B.O",
    "Deliverystatus": "Delivery",
    "divisionname": "Beawar",
    "regionname": "Ajmer",
    "circlename": "Rajasthan",
    "Taluk": "Kekri",
    "Districtname": "Ajmer",
    "statename": "RAJASTHAN"
  },
  {
    "pincode": "305407",
    "officename": "Gordha B.O",
    "officeType": "B.O",
    "Deliverystatus": "Delivery",
    "divisionname": "Beawar",
    "regionname": "Ajmer",
    "circlename": "Rajasthan",
    "Taluk": "Kekri",
    "Districtname": "Ajmer",
    "statename": "RAJASTHAN"
  },
  {
    "pincode": "305407",
    "officename": "Gulgaon B.O",
    "officeType": "B.O",
    "Deliverystatus": "Delivery",
    "divisionname": "Beawar",
    "regionname": "Ajmer",
    "circlename": "Rajasthan",
    "Taluk": "Kekri",
    "Districtname": "Ajmer",
    "statename": "RAJASTHAN"
  },
  {
    "pincode": "305407",
    "officename": "Khejri B.O",
    "officeType": "B.O",
    "Deliverystatus": "Delivery",
    "divisionname": "Beawar",
    "regionname": "Ajmer",
    "circlename": "Rajasthan",
    "Taluk": "Kekri",
    "Districtname": "Ajmer",
    "statename": "RAJASTHAN"
  },
  {
    "pincode": "305407",
    "officename": "Kunwar Ji Ka Kalera B.O",
    "officeType": "B.O",
    "Deliverystatus": "Delivery",
    "divisionname": "Beawar",
    "regionname": "Ajmer",
    "circlename": "Rajasthan",
    "Taluk": "Kekri",
    "Districtname": "Ajmer",
    "statename": "RAJASTHAN"
  },
  {
    "pincode": "305407",
    "officename": "Kushayata B.O",
    "officeType": "B.O",
    "Deliverystatus": "Delivery",
    "divisionname": "Beawar",
    "regionname": "Ajmer",
    "circlename": "Rajasthan",
    "Taluk": "Kekri",
    "Districtname": "Ajmer",
    "statename": "RAJASTHAN"
  },
  {
    "pincode": "305407",
    "officename": "Napa Khera B.O",
    "officeType": "B.O",
    "Deliverystatus": "Delivery",
    "divisionname": "Beawar",
    "regionname": "Ajmer",
    "circlename": "Rajasthan",
    "Taluk": "Kekri",
    "Districtname": "Ajmer",
    "statename": "RAJASTHAN"
  },
  {
    "pincode": "305407",
    "officename": "Sadara B.O",
    "officeType": "B.O",
    "Deliverystatus": "Delivery",
    "divisionname": "Beawar",
    "regionname": "Ajmer",
    "circlename": "Rajasthan",
    "Taluk": "Kekri",
    "Districtname": "Ajmer",
    "statename": "RAJASTHAN"
  },
  {
    "pincode": "305407",
    "officename": "Sawar S.O",
    "officeType": "S.O",
    "Deliverystatus": "Delivery",
    "divisionname": "Beawar",
    "regionname": "Ajmer",
    "circlename": "Rajasthan",
    "Taluk": "Kekri",
    "Districtname": "Ajmer",
    "statename": "RAJASTHAN"
  },
  {
    "pincode": "305407",
    "officename": "Tankawas B.O",
    "officeType": "B.O",
    "Deliverystatus": "Delivery",
    "divisionname": "Beawar",
    "regionname": "Ajmer",
    "circlename": "Rajasthan",
    "Taluk": "Kekri",
    "Districtname": "Ajmer",
    "statename": "RAJASTHAN"
  }
]
