[
  {
    "pincode": "305624",
    "officename": "Badi B.O",
    "officeType": "B.O",
    "Deliverystatus": "Delivery",
    "divisionname": "Beawar",
    "regionname": "Ajmer",
    "circlename": "Rajasthan",
    "Taluk": "Nasirabad",
    "Districtname": "Ajmer",
    "statename": "RAJASTHAN"
  },
  {
    "pincode": "305624",
    "officename": "Baral B.O",
    "officeType": "B.O",
    "Deliverystatus": "Delivery",
    "divisionname": "Beawar",
    "regionname": "Ajmer",
    "circlename": "Rajasthan",
    "Taluk": "Nasirabad",
    "Districtname": "Ajmer",
    "statename": "RAJASTHAN"
  },
  {
    "pincode": "305624",
    "officename": "Barali B.O",
    "officeType": "B.O",
    "Deliverystatus": "Delivery",
    "divisionname": "Beawar",
    "regionname": "Ajmer",
    "circlename": "Rajasthan",
    "Taluk": "Nasirabad",
    "Districtname": "Ajmer",
    "statename": "RAJASTHAN"
  },
  {
    "pincode": "305624",
    "officename": "Bijainagar S.O",
    "officeType": "S.O",
    "Deliverystatus": "Delivery",
    "divisionname": "Beawar",
    "regionname": "Ajmer",
    "circlename": "Rajasthan",
    "Taluk": "Bijainagar",
    "Districtname": "Ajmer",
    "statename": "RAJASTHAN"
  },
  {
    "pincode": "305624",
    "officename": "Deolia Kalan B.O",
    "officeType": "B.O",
    "Deliverystatus": "Delivery",
    "divisionname": "Beawar",
    "regionname": "Ajmer",
    "circlename": "Rajasthan",
    "Taluk": "Nasirabad",
    "Districtname": "Ajmer",
    "statename": "RAJASTHAN"
  },
  {
    "pincode": "305624",
    "officename": "Doulatpura B.O",
    "officeType": "B.O",
    "Deliverystatus": "Delivery",
    "divisionname": "Beawar",
    "regionname": "Ajmer",
    "circlename": "Rajasthan",
    "Taluk": "Nasirabad",
    "Districtname": "Ajmer",
    "statename": "RAJASTHAN"
  },
  {
    "pincode": "305624",
    "officename": "Ekal Singha B.O",
    "officeType": "B.O",
    "Deliverystatus": "Delivery",
    "divisionname": "Beawar",
    "regionname": "Ajmer",
    "circlename": "Rajasthan",
    "Taluk": "Nasirabad",
    "Districtname": "Ajmer",
    "statename": "RAJASTHAN"
  },
  {
    "pincode": "305624",
    "officename": "Gudha Khurd B.O",
    "officeType": "B.O",
    "Deliverystatus": "Delivery",
    "divisionname": "Beawar",
    "regionname": "Ajmer",
    "circlename": "Rajasthan",
    "Taluk": "Nasirabad",
    "Districtname": "Ajmer",
    "statename": "RAJASTHAN"
  },
  {
    "pincode": "305624",
    "officename": "Lamagra B.O",
    "officeType": "B.O",
    "Deliverystatus": "Delivery",
    "divisionname": "Beawar",
    "regionname": "Ajmer",
    "circlename": "Rajasthan",
    "Taluk": "Nasirabad",
    "Districtname": "Ajmer",
    "statename": "RAJASTHAN"
  },
  {
    "pincode": "305624",
    "officename": "Nimera B.O",
    "officeType": "B.O",
    "Deliverystatus": "Delivery",
    "divisionname": "Beawar",
    "regionname": "Ajmer",
    "circlename": "Rajasthan",
    "Taluk": "Nasirabad",
    "Districtname": "Ajmer",
    "statename": "RAJASTHAN"
  },
  {
    "pincode": "305624",
    "officename": "Ratakot B.O",
    "officeType": "B.O",
    "Deliverystatus": "Delivery",
    "divisionname": "Beawar",
    "regionname": "Ajmer",
    "circlename": "Rajasthan",
    "Taluk": "Nasirabad",
    "Districtname": "Ajmer",
    "statename": "RAJASTHAN"
  },
  {
    "pincode": "305624",
    "officename": "Sathana B.O",
    "officeType": "B.O",
    "Deliverystatus": "Delivery",
    "divisionname": "Beawar",
    "regionname": "Ajmer",
    "circlename": "Rajasthan",
    "Taluk": "Nasirabad",
    "Districtname": "Ajmer",
    "statename": "RAJASTHAN"
  },
  {
    "pincode": "305624",
    "officename": "Shikhrani B.O",
    "officeType": "B.O",
    "Deliverystatus": "Delivery",
    "divisionname": "Beawar",
    "regionname": "Ajmer",
    "circlename": "Rajasthan",
    "Taluk": "Nasirabad",
    "Districtname": "Ajmer",
    "statename": "RAJASTHAN"
  },
  {
    "pincode": "305624",
    "officename": "Singhawal B.O",
    "officeType": "B.O",
    "Deliverystatus": "Delivery",
    "divisionname": "Beawar",
    "regionname": "Ajmer",
    "circlename": "Rajasthan",
    "Taluk": "Nasirabad",
    "Districtname": "Ajmer",
    "statename": "RAJASTHAN"
  }
]
