[
  {
    "pincode": "305813",
    "officename": "Akodia B.O",
    "officeType": "B.O",
    "Deliverystatus": "Delivery",
    "divisionname": "Ajmer",
    "regionname": "Ajmer",
    "circlename": "Rajasthan",
    "Taluk": "Kishangarh",
    "Districtname": "Ajmer",
    "statename": "RAJASTHAN"
  },
  {
    "pincode": "305813",
    "officename": "Arain S.O",
    "officeType": "S.O",
    "Deliverystatus": "Delivery",
    "divisionname": "Ajmer",
    "regionname": "Ajmer",
    "circlename": "Rajasthan",
    "Taluk": "Kishan Garh",
    "Districtname": "Ajmer",
    "statename": "RAJASTHAN"
  },
  {
    "pincode": "305813",
    "officename": "Bhamolao B.O",
    "officeType": "B.O",
    "Deliverystatus": "Delivery",
    "divisionname": "Ajmer",
    "regionname": "Ajmer",
    "circlename": "Rajasthan",
    "Taluk": "Kishangarh",
    "Districtname": "Ajmer",
    "statename": "RAJASTHAN"
  },
  {
    "pincode": "305813",
    "officename": "Bhogadeet B.O",
    "officeType": "B.O",
    "Deliverystatus": "Delivery",
    "divisionname": "Ajmer",
    "regionname": "Ajmer",
    "circlename": "Rajasthan",
    "Taluk": "Kishangarh",
    "Districtname": "Ajmer",
    "statename": "RAJASTHAN"
  },
  {
    "pincode": "305813",
    "officename": "Dadia B.O",
    "officeType": "B.O",
    "Deliverystatus": "Delivery",
    "divisionname": "Ajmer",
    "regionname": "Ajmer",
    "circlename": "Rajasthan",
    "Taluk": "Kishan Garh",
    "Districtname": "Ajmer",
    "statename": "RAJASTHAN"
  },
  {
    "pincode": "305813",
    "officename": "Dang B.O",
    "officeType": "B.O",
    "Deliverystatus": "Delivery",
    "divisionname": "Ajmer",
    "regionname": "Ajmer",
    "circlename": "Rajasthan",
    "Taluk": "Kishan Garh",
    "Districtname": "Ajmer",
    "statename": "RAJASTHAN"
  },
  {
    "pincode": "305813",
    "officename": "Gagunda B.O",
    "officeType": "B.O",
    "Deliverystatus": "Delivery",
    "divisionname": "Ajmer",
    "regionname": "Ajmer",
    "circlename": "Rajasthan",
    "Taluk": "Kishan Garh",
    "Districtname": "Ajmer",
    "statename": "RAJASTHAN"
  },
  {
    "pincode": "305813",
    "officename": "Gothiana B.O",
    "officeType": "B.O",
    "Deliverystatus": "Delivery",
    "divisionname": "Ajmer",
    "regionname": "Ajmer",
    "circlename": "Rajasthan",
    "Taluk": "Kishangarh",
    "Districtname": "Ajmer",
    "statename": "RAJASTHAN"
  },
  {
    "pincode": "305813",
    "officename": "Kalanada B.O",
    "officeType": "B.O",
    "Deliverystatus": "Delivery",
    "divisionname": "Ajmer",
    "regionname": "Ajmer",
    "circlename": "Rajasthan",
    "Taluk": "Kishangarh",
    "Districtname": "Ajmer",
    "statename": "RAJASTHAN"
  },
  {
    "pincode": "305813",
    "officename": "Lamba B.O",
    "officeType": "B.O",
    "Deliverystatus": "Delivery",
    "divisionname": "Ajmer",
    "regionname": "Ajmer",
    "circlename": "Rajasthan",
    "Taluk": "Kishangarh",
    "Districtname": "Ajmer",
    "statename": "RAJASTHAN"
  },
  {
    "pincode": "305813",
    "officename": "Sandolia B.O",
    "officeType": "B.O",
    "Deliverystatus": "Delivery",
    "divisionname": "Ajmer",
    "regionname": "Ajmer",
    "circlename": "Rajasthan",
    "Taluk": "Kishan Garh",
    "Districtname": "Ajmer",
    "statename": "RAJASTHAN"
  },
  {
    "pincode": "305813",
    "officename": "Sironj B.O",
    "officeType": "B.O",
    "Deliverystatus": "Delivery",
    "divisionname": "Ajmer",
    "regionname": "Ajmer",
    "circlename": "Rajasthan",
    "Taluk": "Kishan Garh",
    "Districtname": "Ajmer",
    "statename": "RAJASTHAN"
  }
]
