[
  {
    "pincode": "305901",
    "officename": "Andheri Deori B.O",
    "officeType": "B.O",
    "Deliverystatus": "Delivery",
    "divisionname": "Beawar",
    "regionname": "Ajmer",
    "circlename": "Rajasthan",
    "Taluk": "Beawar",
    "Districtname": "Ajmer",
    "statename": "RAJASTHAN"
  },
  {
    "pincode": "305901",
    "officename": "Balad B.O",
    "officeType": "B.O",
    "Deliverystatus": "Delivery",
    "divisionname": "Beawar",
    "regionname": "Ajmer",
    "circlename": "Rajasthan",
    "Taluk": "Beawar",
    "Districtname": "Ajmer",
    "statename": "RAJASTHAN"
  },
  {
    "pincode": "305901",
    "officename": "Bayala B.O",
    "officeType": "B.O",
    "Deliverystatus": "Delivery",
    "divisionname": "Beawar",
    "regionname": "Ajmer",
    "circlename": "Rajasthan",
    "Taluk": "Beawar",
    "Districtname": "Ajmer",
    "statename": "RAJASTHAN"
  },
  {
    "pincode": "305901",
    "officename": "Beawar City S.O",
    "officeType": "S.O",
    "Deliverystatus": "Non-Delivery",
    "divisionname": "Beawar",
    "regionname": "Ajmer",
    "circlename": "Rajasthan",
    "Taluk": "Beawar",
    "Districtname": "Ajmer",
    "statename": "RAJASTHAN"
  },
  {
    "pincode": "305901",
    "officename": "Beawar Khas B.O",
    "officeType": "B.O",
    "Deliverystatus": "Delivery",
    "divisionname": "Beawar",
    "regionname": "Ajmer",
    "circlename": "Rajasthan",
    "Taluk": "Beawar",
    "Districtname": "Ajmer",
    "statename": "RAJASTHAN"
  },
  {
    "pincode": "305901",
    "officename": "Beawar R.S. S.O",
    "officeType": "S.O",
    "Deliverystatus": "Non-Delivery",
    "divisionname": "Beawar",
    "regionname": "Ajmer",
    "circlename": "Rajasthan",
    "Taluk": "Beawar",
    "Districtname": "Ajmer",
    "statename": "RAJASTHAN"
  },
  {
    "pincode": "305901",
    "officename": "Beawar [Raj] H.O",
    "officeType": "H.O",
    "Deliverystatus": "Delivery",
    "divisionname": "Beawar",
    "regionname": "Ajmer",
    "circlename": "Rajasthan",
    "Taluk": "Beawar",
    "Districtname": "Ajmer",
    "statename": "RAJASTHAN"
  },
  {
    "pincode": "305901",
    "officename": "Borwa B.O",
    "officeType": "B.O",
    "Deliverystatus": "Delivery",
    "divisionname": "Beawar",
    "regionname": "Ajmer",
    "circlename": "Rajasthan",
    "Taluk": "Beawar",
    "Districtname": "Ajmer",
    "statename": "RAJASTHAN"
  },
  {
    "pincode": "305901",
    "officename": "Dedpura B.O",
    "officeType": "B.O",
    "Deliverystatus": "Delivery",
    "divisionname": "Beawar",
    "regionname": "Ajmer",
    "circlename": "Rajasthan",
    "Taluk": "Beawar",
    "Districtname": "Ajmer",
    "statename": "RAJASTHAN"
  },
  {
    "pincode": "305901",
    "officename": "Delwara B.O",
    "officeType": "B.O",
    "Deliverystatus": "Delivery",
    "divisionname": "Beawar",
    "regionname": "Ajmer",
    "circlename": "Rajasthan",
    "Taluk": "Beawar",
    "Districtname": "Ajmer",
    "statename": "RAJASTHAN"
  },
  {
    "pincode": "305901",
    "officename": "Dewas B.O",
    "officeType": "B.O",
    "Deliverystatus": "Delivery",
    "divisionname": "Beawar",
    "regionname": "Ajmer",
    "circlename": "Rajasthan",
    "Taluk": "Beawar",
    "Districtname": "Ajmer",
    "statename": "RAJASTHAN"
  },
  {
    "pincode": "305901",
    "officename": "Jain Gurukul B.O",
    "officeType": "B.O",
    "Deliverystatus": "Delivery",
    "divisionname": "Beawar",
    "regionname": "Ajmer",
    "circlename": "Rajasthan",
    "Taluk": "Beawar",
    "Districtname": "Ajmer",
    "statename": "RAJASTHAN"
  },
  {
    "pincode": "305901",
    "officename": "Jalia-i B.O",
    "officeType": "B.O",
    "Deliverystatus": "Delivery",
    "divisionname": "Beawar",
    "regionname": "Ajmer",
    "circlename": "Rajasthan",
    "Taluk": "Beawar",
    "Districtname": "Ajmer",
    "statename": "RAJASTHAN"
  },
  {
    "pincode": "305901",
    "officename": "Jeewana B.O",
    "officeType": "B.O",
    "Deliverystatus": "Delivery",
    "divisionname": "Beawar",
    "regionname": "Ajmer",
    "circlename": "Rajasthan",
    "Taluk": "Beawar",
    "Districtname": "Ajmer",
    "statename": "RAJASTHAN"
  },
  {
    "pincode": "305901",
    "officename": "Jhak B.O",
    "officeType": "B.O",
    "Deliverystatus": "Delivery",
    "divisionname": "Beawar",
    "regionname": "Ajmer",
    "circlename": "Rajasthan",
    "Taluk": "Beawar",
    "Districtname": "Ajmer",
    "statename": "RAJASTHAN"
  },
  {
    "pincode": "305901",
    "officename": "Malpura B.O",
    "officeType": "B.O",
    "Deliverystatus": "Delivery",
    "divisionname": "Beawar",
    "regionname": "Ajmer",
    "circlename": "Rajasthan",
    "Taluk": "Beawar",
    "Districtname": "Ajmer",
    "statename": "RAJASTHAN"
  },
  {
    "pincode": "305901",
    "officename": "Narbad Khera B.O",
    "officeType": "B.O",
    "Deliverystatus": "Delivery",
    "divisionname": "Beawar",
    "regionname": "Ajmer",
    "circlename": "Rajasthan",
    "Taluk": "Beawar",
    "Districtname": "Ajmer",
    "statename": "RAJASTHAN"
  },
  {
    "pincode": "305901",
    "officename": "Nehru Nagar (Beawar) S.O",
    "officeType": "S.O",
    "Deliverystatus": "Non-Delivery",
    "divisionname": "Beawar",
    "regionname": "Ajmer",
    "circlename": "Rajasthan",
    "Taluk": "Beawar",
    "Districtname": "Ajmer",
    "statename": "RAJASTHAN"
  },
  {
    "pincode": "305901",
    "officename": "Noondri-Maldev B.O",
    "officeType": "B.O",
    "Deliverystatus": "Delivery",
    "divisionname": "Beawar",
    "regionname": "Ajmer",
    "circlename": "Rajasthan",
    "Taluk": "Beawar",
    "Districtname": "Ajmer",
    "statename": "RAJASTHAN"
  },
  {
    "pincode": "305901",
    "officename": "Noondri-Mendratan B.O",
    "officeType": "B.O",
    "Deliverystatus": "Delivery",
    "divisionname": "Beawar",
    "regionname": "Ajmer",
    "circlename": "Rajasthan",
    "Taluk": "Beawar",
    "Districtname": "Ajmer",
    "statename": "RAJASTHAN"
  },
  {
    "pincode": "305901",
    "officename": "Ramgarh B.O",
    "officeType": "B.O",
    "Deliverystatus": "Delivery",
    "divisionname": "Beawar",
    "regionname": "Ajmer",
    "circlename": "Rajasthan",
    "Taluk": "Beawar",
    "Districtname": "Ajmer",
    "statename": "RAJASTHAN"
  },
  {
    "pincode": "305901",
    "officename": "Roopnagar B.O",
    "officeType": "B.O",
    "Deliverystatus": "Delivery",
    "divisionname": "Beawar",
    "regionname": "Ajmer",
    "circlename": "Rajasthan",
    "Taluk": "Beawar",
    "Districtname": "Ajmer",
    "statename": "RAJASTHAN"
  },
  {
    "pincode": "305901",
    "officename": "Sarmalia B.O",
    "officeType": "B.O",
    "Deliverystatus": "Delivery",
    "divisionname": "Beawar",
    "regionname": "Ajmer",
    "circlename": "Rajasthan",
    "Taluk": "Beawar",
    "Districtname": "Ajmer",
    "statename": "RAJASTHAN"
  },
  {
    "pincode": "305901",
    "officename": "Sedaria B.O",
    "officeType": "B.O",
    "Deliverystatus": "Delivery",
    "divisionname": "Beawar",
    "regionname": "Ajmer",
    "circlename": "Rajasthan",
    "Taluk": "Beawar",
    "Districtname": "Ajmer",
    "statename": "RAJASTHAN"
  },
  {
    "pincode": "305901",
    "officename": "Sendra Road (Beawar) S.O",
    "officeType": "S.O",
    "Deliverystatus": "Non-Delivery",
    "divisionname": "Beawar",
    "regionname": "Ajmer",
    "circlename": "Rajasthan",
    "Taluk": "Beawar",
    "Districtname": "Ajmer",
    "statename": "RAJASTHAN"
  },
  {
    "pincode": "305901",
    "officename": "Shahpura Mohalla( Beawar ) S.O",
    "officeType": "S.O",
    "Deliverystatus": "Non-Delivery",
    "divisionname": "Beawar",
    "regionname": "Ajmer",
    "circlename": "Rajasthan",
    "Taluk": "Beawar",
    "Districtname": "Ajmer",
    "statename": "RAJASTHAN"
  },
  {
    "pincode": "305901",
    "officename": "Shivpura Ghata B.O",
    "officeType": "B.O",
    "Deliverystatus": "Delivery",
    "divisionname": "Beawar",
    "regionname": "Ajmer",
    "circlename": "Rajasthan",
    "Taluk": "Beawar",
    "Districtname": "Ajmer",
    "statename": "RAJASTHAN"
  },
  {
    "pincode": "305901",
    "officename": "Suhawa B.O",
    "officeType": "B.O",
    "Deliverystatus": "Delivery",
    "divisionname": "Beawar",
    "regionname": "Ajmer",
    "circlename": "Rajasthan",
    "Taluk": "Beawar",
    "Districtname": "Ajmer",
    "statename": "RAJASTHAN"
  }
]
