[
  {
    "pincode": "306105",
    "officename": "Bagri Kalaliya B.O",
    "officeType": "B.O",
    "Deliverystatus": "Delivery",
    "divisionname": "Pali",
    "regionname": "Jodhpur",
    "circlename": "Rajasthan",
    "Taluk": "Raipur",
    "Districtname": "Pali",
    "statename": "RAJASTHAN"
  },
  {
    "pincode": "306105",
    "officename": "Bar S.O",
    "officeType": "S.O",
    "Deliverystatus": "Delivery",
    "divisionname": "Pali",
    "regionname": "Jodhpur",
    "circlename": "Rajasthan",
    "Taluk": "Jaitaran",
    "Districtname": "Pali",
    "statename": "RAJASTHAN"
  },
  {
    "pincode": "306105",
    "officename": "Birantiya Kalan B.O",
    "officeType": "B.O",
    "Deliverystatus": "Delivery",
    "divisionname": "Pali",
    "regionname": "Jodhpur",
    "circlename": "Rajasthan",
    "Taluk": "Jaitaran",
    "Districtname": "Pali",
    "statename": "RAJASTHAN"
  },
  {
    "pincode": "306105",
    "officename": "Birantiya Khurd B.O",
    "officeType": "B.O",
    "Deliverystatus": "Delivery",
    "divisionname": "Pali",
    "regionname": "Jodhpur",
    "circlename": "Rajasthan",
    "Taluk": "Jaitaran",
    "Districtname": "Pali",
    "statename": "RAJASTHAN"
  },
  {
    "pincode": "306105",
    "officename": "Hajiwas B.O",
    "officeType": "B.O",
    "Deliverystatus": "Delivery",
    "divisionname": "Pali",
    "regionname": "Jodhpur",
    "circlename": "Rajasthan",
    "Taluk": "Raipur",
    "Districtname": "Pali",
    "statename": "RAJASTHAN"
  },
  {
    "pincode": "306105",
    "officename": "Kalaliya B.O",
    "officeType": "B.O",
    "Deliverystatus": "Delivery",
    "divisionname": "Pali",
    "regionname": "Jodhpur",
    "circlename": "Rajasthan",
    "Taluk": "Raipur",
    "Districtname": "Pali",
    "statename": "RAJASTHAN"
  },
  {
    "pincode": "306105",
    "officename": "Kirana B.O",
    "officeType": "B.O",
    "Deliverystatus": "Delivery",
    "divisionname": "Pali",
    "regionname": "Jodhpur",
    "circlename": "Rajasthan",
    "Taluk": "Raipur",
    "Districtname": "Pali",
    "statename": "RAJASTHAN"
  },
  {
    "pincode": "306105",
    "officename": "Mesiya B.O",
    "officeType": "B.O",
    "Deliverystatus": "Delivery",
    "divisionname": "Pali",
    "regionname": "Jodhpur",
    "circlename": "Rajasthan",
    "Taluk": "Raipur",
    "Districtname": "Pali",
    "statename": "RAJASTHAN"
  }
]
