[
  {
    "pincode": "306102",
    "officename": "Amarpura B.O",
    "officeType": "B.O",
    "Deliverystatus": "Delivery",
    "divisionname": "Pali",
    "regionname": "Jodhpur",
    "circlename": "Rajasthan",
    "Taluk": "Raipur  Mwr",
    "Districtname": "Pali",
    "statename": "RAJASTHAN"
  },
  {
    "pincode": "306102",
    "officename": "Bootiwas B.O",
    "officeType": "B.O",
    "Deliverystatus": "Delivery",
    "divisionname": "Pali",
    "regionname": "Jodhpur",
    "circlename": "Rajasthan",
    "Taluk": "Raipur",
    "Districtname": "Pali",
    "statename": "RAJASTHAN"
  },
  {
    "pincode": "306102",
    "officename": "Chang B.O",
    "officeType": "B.O",
    "Deliverystatus": "Delivery",
    "divisionname": "Pali",
    "regionname": "Jodhpur",
    "circlename": "Rajasthan",
    "Taluk": "Raipur",
    "Districtname": "Pali",
    "statename": "RAJASTHAN"
  },
  {
    "pincode": "306102",
    "officename": "Chittar B.O",
    "officeType": "B.O",
    "Deliverystatus": "Delivery",
    "divisionname": "Pali",
    "regionname": "Jodhpur",
    "circlename": "Rajasthan",
    "Taluk": "Raipur",
    "Districtname": "Pali",
    "statename": "RAJASTHAN"
  },
  {
    "pincode": "306102",
    "officename": "Giri B.O",
    "officeType": "B.O",
    "Deliverystatus": "Delivery",
    "divisionname": "Pali",
    "regionname": "Jodhpur",
    "circlename": "Rajasthan",
    "Taluk": "Raipur",
    "Districtname": "Pali",
    "statename": "RAJASTHAN"
  },
  {
    "pincode": "306102",
    "officename": "Kanuja B.O",
    "officeType": "B.O",
    "Deliverystatus": "Delivery",
    "divisionname": "Pali",
    "regionname": "Jodhpur",
    "circlename": "Rajasthan",
    "Taluk": "Raipur",
    "Districtname": "Pali",
    "statename": "RAJASTHAN"
  },
  {
    "pincode": "306102",
    "officename": "Nanana B.O",
    "officeType": "B.O",
    "Deliverystatus": "Delivery",
    "divisionname": "Pali",
    "regionname": "Jodhpur",
    "circlename": "Rajasthan",
    "Taluk": "Raipur",
    "Districtname": "Pali",
    "statename": "RAJASTHAN"
  },
  {
    "pincode": "306102",
    "officename": "Ratadiya B.O",
    "officeType": "B.O",
    "Deliverystatus": "Delivery",
    "divisionname": "Pali",
    "regionname": "Jodhpur",
    "circlename": "Rajasthan",
    "Taluk": "Raipur",
    "Districtname": "Pali",
    "statename": "RAJASTHAN"
  },
  {
    "pincode": "306102",
    "officename": "Relra B.O",
    "officeType": "B.O",
    "Deliverystatus": "Delivery",
    "divisionname": "Pali",
    "regionname": "Jodhpur",
    "circlename": "Rajasthan",
    "Taluk": "Raipur",
    "Districtname": "Pali",
    "statename": "RAJASTHAN"
  },
  {
    "pincode": "306102",
    "officename": "Sendra S.O",
    "officeType": "S.O",
    "Deliverystatus": "Delivery",
    "divisionname": "Pali",
    "regionname": "Jodhpur",
    "circlename": "Rajasthan",
    "Taluk": "Raipur  Mwr",
    "Districtname": "Pali",
    "statename": "RAJASTHAN"
  },
  {
    "pincode": "306102",
    "officename": "Toonkra B.O",
    "officeType": "B.O",
    "Deliverystatus": "Delivery",
    "divisionname": "Pali",
    "regionname": "Jodhpur",
    "circlename": "Rajasthan",
    "Taluk": "Raipur",
    "Districtname": "Pali",
    "statename": "RAJASTHAN"
  }
]
