[
  {
    "pincode": "306115",
    "officename": "Beerami B.O",
    "officeType": "B.O",
    "Deliverystatus": "Delivery",
    "divisionname": "Pali",
    "regionname": "Jodhpur",
    "circlename": "Rajasthan",
    "Taluk": "Desuri",
    "Districtname": "Pali",
    "statename": "RAJASTHAN"
  },
  {
    "pincode": "306115",
    "officename": "Chanchori B.O",
    "officeType": "B.O",
    "Deliverystatus": "Delivery",
    "divisionname": "Pali",
    "regionname": "Jodhpur",
    "circlename": "Rajasthan",
    "Taluk": "Desuri",
    "Districtname": "Pali",
    "statename": "RAJASTHAN"
  },
  {
    "pincode": "306115",
    "officename": "Dhana B.O",
    "officeType": "B.O",
    "Deliverystatus": "Delivery",
    "divisionname": "Pali",
    "regionname": "Jodhpur",
    "circlename": "Rajasthan",
    "Taluk": "Desuri",
    "Districtname": "Pali",
    "statename": "RAJASTHAN"
  },
  {
    "pincode": "306115",
    "officename": "Itendra Charnan B.O",
    "officeType": "B.O",
    "Deliverystatus": "Delivery",
    "divisionname": "Pali",
    "regionname": "Jodhpur",
    "circlename": "Rajasthan",
    "Taluk": "Desuri",
    "Districtname": "Pali",
    "statename": "RAJASTHAN"
  },
  {
    "pincode": "306115",
    "officename": "Kheemel B.O",
    "officeType": "B.O",
    "Deliverystatus": "Delivery",
    "divisionname": "Pali",
    "regionname": "Jodhpur",
    "circlename": "Rajasthan",
    "Taluk": "Desuri",
    "Districtname": "Pali",
    "statename": "RAJASTHAN"
  },
  {
    "pincode": "306115",
    "officename": "Lapod B.O",
    "officeType": "B.O",
    "Deliverystatus": "Delivery",
    "divisionname": "Pali",
    "regionname": "Jodhpur",
    "circlename": "Rajasthan",
    "Taluk": "Desuri",
    "Districtname": "Pali",
    "statename": "RAJASTHAN"
  },
  {
    "pincode": "306115",
    "officename": "Mandal B.O",
    "officeType": "B.O",
    "Deliverystatus": "Delivery",
    "divisionname": "Pali",
    "regionname": "Jodhpur",
    "circlename": "Rajasthan",
    "Taluk": "Desuri",
    "Districtname": "Pali",
    "statename": "RAJASTHAN"
  },
  {
    "pincode": "306115",
    "officename": "Mokampura B.O",
    "officeType": "B.O",
    "Deliverystatus": "Delivery",
    "divisionname": "Pali",
    "regionname": "Jodhpur",
    "circlename": "Rajasthan",
    "Taluk": "Desuri",
    "Districtname": "Pali",
    "statename": "RAJASTHAN"
  },
  {
    "pincode": "306115",
    "officename": "Rani Gaon B.O",
    "officeType": "B.O",
    "Deliverystatus": "Delivery",
    "divisionname": "Pali",
    "regionname": "Jodhpur",
    "circlename": "Rajasthan",
    "Taluk": "Desuri",
    "Districtname": "Pali",
    "statename": "RAJASTHAN"
  },
  {
    "pincode": "306115",
    "officename": "Rani S.O (Pali)",
    "officeType": "S.O",
    "Deliverystatus": "Delivery",
    "divisionname": "Pali",
    "regionname": "Jodhpur",
    "circlename": "Rajasthan",
    "Taluk": "Desuri",
    "Districtname": "Pali",
    "statename": "RAJASTHAN"
  },
  {
    "pincode": "306115",
    "officename": "Rani Sadar Bazar S.O",
    "officeType": "S.O",
    "Deliverystatus": "Non-Delivery",
    "divisionname": "Pali",
    "regionname": "Jodhpur",
    "circlename": "Rajasthan",
    "Taluk": "Desuri",
    "Districtname": "Pali",
    "statename": "RAJASTHAN"
  },
  {
    "pincode": "306115",
    "officename": "Vidhyawari B.O",
    "officeType": "B.O",
    "Deliverystatus": "Delivery",
    "divisionname": "Pali",
    "regionname": "Jodhpur",
    "circlename": "Rajasthan",
    "Taluk": "Desuri",
    "Districtname": "Pali",
    "statename": "RAJASTHAN"
  }
]
