[
  {
    "pincode": "306603",
    "officename": "Deoli Pabuji B.O",
    "officeType": "B.O",
    "Deliverystatus": "Delivery",
    "divisionname": "Pali",
    "regionname": "Jodhpur",
    "circlename": "Rajasthan",
    "Taluk": "Desuri",
    "Districtname": "Pali",
    "statename": "RAJASTHAN"
  },
  {
    "pincode": "306603",
    "officename": "Dhalop B.O",
    "officeType": "B.O",
    "Deliverystatus": "Delivery",
    "divisionname": "Pali",
    "regionname": "Jodhpur",
    "circlename": "Rajasthan",
    "Taluk": "Desuri",
    "Districtname": "Pali",
    "statename": "RAJASTHAN"
  },
  {
    "pincode": "306603",
    "officename": "Jeewand Kalan B.O",
    "officeType": "B.O",
    "Deliverystatus": "Delivery",
    "divisionname": "Pali",
    "regionname": "Jodhpur",
    "circlename": "Rajasthan",
    "Taluk": "Desuri",
    "Districtname": "Pali",
    "statename": "RAJASTHAN"
  },
  {
    "pincode": "306603",
    "officename": "Kesooli B.O",
    "officeType": "B.O",
    "Deliverystatus": "Delivery",
    "divisionname": "Pali",
    "regionname": "Jodhpur",
    "circlename": "Rajasthan",
    "Taluk": "Desuri",
    "Districtname": "Pali",
    "statename": "RAJASTHAN"
  },
  {
    "pincode": "306603",
    "officename": "Kharda B.O",
    "officeType": "B.O",
    "Deliverystatus": "Delivery",
    "divisionname": "Pali",
    "regionname": "Jodhpur",
    "circlename": "Rajasthan",
    "Taluk": "Desuri",
    "Districtname": "Pali",
    "statename": "RAJASTHAN"
  },
  {
    "pincode": "306603",
    "officename": "Kishanpura B.O",
    "officeType": "B.O",
    "Deliverystatus": "Delivery",
    "divisionname": "Pali",
    "regionname": "Jodhpur",
    "circlename": "Rajasthan",
    "Taluk": "Desuri",
    "Districtname": "Pali",
    "statename": "RAJASTHAN"
  },
  {
    "pincode": "306603",
    "officename": "Kotri B.O",
    "officeType": "B.O",
    "Deliverystatus": "Delivery",
    "divisionname": "Pali",
    "regionname": "Jodhpur",
    "circlename": "Rajasthan",
    "Taluk": "Desuri",
    "Districtname": "Pali",
    "statename": "RAJASTHAN"
  },
  {
    "pincode": "306603",
    "officename": "Nadol S.O",
    "officeType": "S.O",
    "Deliverystatus": "Delivery",
    "divisionname": "Pali",
    "regionname": "Jodhpur",
    "circlename": "Rajasthan",
    "Taluk": "Desuri",
    "Districtname": "Pali",
    "statename": "RAJASTHAN"
  },
  {
    "pincode": "306603",
    "officename": "Neepal B.O",
    "officeType": "B.O",
    "Deliverystatus": "Delivery",
    "divisionname": "Pali",
    "regionname": "Jodhpur",
    "circlename": "Rajasthan",
    "Taluk": "Desuri",
    "Districtname": "Pali",
    "statename": "RAJASTHAN"
  },
  {
    "pincode": "306603",
    "officename": "Prithviraj Ka Gurha B.O",
    "officeType": "B.O",
    "Deliverystatus": "Delivery",
    "divisionname": "Pali",
    "regionname": "Jodhpur",
    "circlename": "Rajasthan",
    "Taluk": "Desuri",
    "Districtname": "Pali",
    "statename": "RAJASTHAN"
  },
  {
    "pincode": "306603",
    "officename": "Sanwalta B.O",
    "officeType": "B.O",
    "Deliverystatus": "Delivery",
    "divisionname": "Pali",
    "regionname": "Jodhpur",
    "circlename": "Rajasthan",
    "Taluk": "Desuri",
    "Districtname": "Pali",
    "statename": "RAJASTHAN"
  }
]
