[
  {
    "pincode": "306902",
    "officename": "B.M.G. Hospital Ramnagar B.O",
    "officeType": "B.O",
    "Deliverystatus": "Delivery",
    "divisionname": "Pali",
    "regionname": "Jodhpur",
    "circlename": "Rajasthan",
    "Taluk": "Sumerpur",
    "Districtname": "Pali",
    "statename": "RAJASTHAN"
  },
  {
    "pincode": "306902",
    "officename": "Fattapura B.O",
    "officeType": "B.O",
    "Deliverystatus": "Delivery",
    "divisionname": "Pali",
    "regionname": "Jodhpur",
    "circlename": "Rajasthan",
    "Taluk": "Sumerpur",
    "Districtname": "Pali",
    "statename": "RAJASTHAN"
  },
  {
    "pincode": "306902",
    "officename": "Kanpura B.O",
    "officeType": "B.O",
    "Deliverystatus": "Delivery",
    "divisionname": "Pali",
    "regionname": "Jodhpur",
    "circlename": "Rajasthan",
    "Taluk": "Sumerpur",
    "Districtname": "Pali",
    "statename": "RAJASTHAN"
  },
  {
    "pincode": "306902",
    "officename": "Koliwara B.O",
    "officeType": "B.O",
    "Deliverystatus": "Delivery",
    "divisionname": "Pali",
    "regionname": "Jodhpur",
    "circlename": "Rajasthan",
    "Taluk": "Sumerpur",
    "Districtname": "Pali",
    "statename": "RAJASTHAN"
  },
  {
    "pincode": "306902",
    "officename": "Netra B.O",
    "officeType": "B.O",
    "Deliverystatus": "Delivery",
    "divisionname": "Pali",
    "regionname": "Jodhpur",
    "circlename": "Rajasthan",
    "Taluk": "Sumerpur",
    "Districtname": "Pali",
    "statename": "RAJASTHAN"
  },
  {
    "pincode": "306902",
    "officename": "Palri-jod B.O",
    "officeType": "B.O",
    "Deliverystatus": "Delivery",
    "divisionname": "Pali",
    "regionname": "Jodhpur",
    "circlename": "Rajasthan",
    "Taluk": "Sumerpur",
    "Districtname": "Pali",
    "statename": "RAJASTHAN"
  },
  {
    "pincode": "306902",
    "officename": "Pomawa B.O",
    "officeType": "B.O",
    "Deliverystatus": "Delivery",
    "divisionname": "Pali",
    "regionname": "Jodhpur",
    "circlename": "Rajasthan",
    "Taluk": "Sumerpur",
    "Districtname": "Pali",
    "statename": "RAJASTHAN"
  },
  {
    "pincode": "306902",
    "officename": "Sumerpur Krishi Upaj Mandi S.O",
    "officeType": "S.O",
    "Deliverystatus": "Non-Delivery",
    "divisionname": "Pali",
    "regionname": "Jodhpur",
    "circlename": "Rajasthan",
    "Taluk": "Sumerpur",
    "Districtname": "Pali",
    "statename": "RAJASTHAN"
  },
  {
    "pincode": "306902",
    "officename": "Sumerpur S.O",
    "officeType": "S.O",
    "Deliverystatus": "Delivery",
    "divisionname": "Pali",
    "regionname": "Jodhpur",
    "circlename": "Rajasthan",
    "Taluk": "Sumerpur",
    "Districtname": "Pali",
    "statename": "RAJASTHAN"
  }
]
