[
  {
    "pincode": "307022",
    "officename": "Ajari B.O",
    "officeType": "B.O",
    "Deliverystatus": "Delivery",
    "divisionname": "Sirohi",
    "regionname": "Jodhpur",
    "circlename": "Rajasthan",
    "Taluk": "",
    "Districtname": "Sirohi",
    "statename": "RAJASTHAN"
  },
  {
    "pincode": "307022",
    "officename": "Janapur B.O",
    "officeType": "B.O",
    "Deliverystatus": "Delivery",
    "divisionname": "Sirohi",
    "regionname": "Jodhpur",
    "circlename": "Rajasthan",
    "Taluk": "",
    "Districtname": "Sirohi",
    "statename": "RAJASTHAN"
  },
  {
    "pincode": "307022",
    "officename": "Jhadoli B.O",
    "officeType": "B.O",
    "Deliverystatus": "Delivery",
    "divisionname": "Sirohi",
    "regionname": "Jodhpur",
    "circlename": "Rajasthan",
    "Taluk": "",
    "Districtname": "Sirohi",
    "statename": "RAJASTHAN"
  },
  {
    "pincode": "307022",
    "officename": "Kojra B.O",
    "officeType": "B.O",
    "Deliverystatus": "Delivery",
    "divisionname": "Sirohi",
    "regionname": "Jodhpur",
    "circlename": "Rajasthan",
    "Taluk": "",
    "Districtname": "Sirohi",
    "statename": "RAJASTHAN"
  },
  {
    "pincode": "307022",
    "officename": "Moras B.O",
    "officeType": "B.O",
    "Deliverystatus": "Delivery",
    "divisionname": "Sirohi",
    "regionname": "Jodhpur",
    "circlename": "Rajasthan",
    "Taluk": "",
    "Districtname": "Sirohi",
    "statename": "RAJASTHAN"
  },
  {
    "pincode": "307022",
    "officename": "Nandia B.O",
    "officeType": "B.O",
    "Deliverystatus": "Delivery",
    "divisionname": "Sirohi",
    "regionname": "Jodhpur",
    "circlename": "Rajasthan",
    "Taluk": "",
    "Districtname": "Sirohi",
    "statename": "RAJASTHAN"
  },
  {
    "pincode": "307022",
    "officename": "Peshua B.O",
    "officeType": "B.O",
    "Deliverystatus": "Delivery",
    "divisionname": "Sirohi",
    "regionname": "Jodhpur",
    "circlename": "Rajasthan",
    "Taluk": "",
    "Districtname": "Sirohi",
    "statename": "RAJASTHAN"
  },
  {
    "pincode": "307022",
    "officename": "Pindwara S.O",
    "officeType": "S.O",
    "Deliverystatus": "Delivery",
    "divisionname": "Sirohi",
    "regionname": "Jodhpur",
    "circlename": "Rajasthan",
    "Taluk": "Pindwara",
    "Districtname": "Sirohi",
    "statename": "RAJASTHAN"
  },
  {
    "pincode": "307022",
    "officename": "Sanwara B.O",
    "officeType": "B.O",
    "Deliverystatus": "Delivery",
    "divisionname": "Sirohi",
    "regionname": "Jodhpur",
    "circlename": "Rajasthan",
    "Taluk": "",
    "Districtname": "Sirohi",
    "statename": "RAJASTHAN"
  },
  {
    "pincode": "307022",
    "officename": "Sivera B.O",
    "officeType": "B.O",
    "Deliverystatus": "Delivery",
    "divisionname": "Sirohi",
    "regionname": "Jodhpur",
    "circlename": "Rajasthan",
    "Taluk": "",
    "Districtname": "Sirohi",
    "statename": "RAJASTHAN"
  },
  {
    "pincode": "307022",
    "officename": "Telpur B.O",
    "officeType": "B.O",
    "Deliverystatus": "Delivery",
    "divisionname": "Sirohi",
    "regionname": "Jodhpur",
    "circlename": "Rajasthan",
    "Taluk": "",
    "Districtname": "Sirohi",
    "statename": "RAJASTHAN"
  },
  {
    "pincode": "307022",
    "officename": "Varli B.O",
    "officeType": "B.O",
    "Deliverystatus": "Delivery",
    "divisionname": "Sirohi",
    "regionname": "Jodhpur",
    "circlename": "Rajasthan",
    "Taluk": "",
    "Districtname": "Sirohi",
    "statename": "RAJASTHAN"
  },
  {
    "pincode": "307022",
    "officename": "Verwara B.O",
    "officeType": "B.O",
    "Deliverystatus": "Delivery",
    "divisionname": "Sirohi",
    "regionname": "Jodhpur",
    "circlename": "Rajasthan",
    "Taluk": "",
    "Districtname": "Sirohi",
    "statename": "RAJASTHAN"
  }
]
