[
  {
    "pincode": "307001",
    "officename": "Balda B.O",
    "officeType": "B.O",
    "Deliverystatus": "Delivery",
    "divisionname": "Sirohi",
    "regionname": "Jodhpur",
    "circlename": "Rajasthan",
    "Taluk": "Sirohi",
    "Districtname": "Sirohi",
    "statename": "RAJASTHAN"
  },
  {
    "pincode": "307001",
    "officename": "Dhanta B.O",
    "officeType": "B.O",
    "Deliverystatus": "Delivery",
    "divisionname": "Sirohi",
    "regionname": "Jodhpur",
    "circlename": "Rajasthan",
    "Taluk": "Sirohi",
    "Districtname": "Sirohi",
    "statename": "RAJASTHAN"
  },
  {
    "pincode": "307001",
    "officename": "Dodua B.O",
    "officeType": "B.O",
    "Deliverystatus": "Delivery",
    "divisionname": "Sirohi",
    "regionname": "Jodhpur",
    "circlename": "Rajasthan",
    "Taluk": "Sirohi",
    "Districtname": "Sirohi",
    "statename": "RAJASTHAN"
  },
  {
    "pincode": "307001",
    "officename": "Gohili B.O",
    "officeType": "B.O",
    "Deliverystatus": "Delivery",
    "divisionname": "Sirohi",
    "regionname": "Jodhpur",
    "circlename": "Rajasthan",
    "Taluk": "",
    "Districtname": "Sirohi",
    "statename": "RAJASTHAN"
  },
  {
    "pincode": "307001",
    "officename": "Khambal B.O",
    "officeType": "B.O",
    "Deliverystatus": "Delivery",
    "divisionname": "Sirohi",
    "regionname": "Jodhpur",
    "circlename": "Rajasthan",
    "Taluk": "",
    "Districtname": "Sirohi",
    "statename": "RAJASTHAN"
  },
  {
    "pincode": "307001",
    "officename": "Krishnaganj B.O",
    "officeType": "B.O",
    "Deliverystatus": "Delivery",
    "divisionname": "Sirohi",
    "regionname": "Jodhpur",
    "circlename": "Rajasthan",
    "Taluk": "",
    "Districtname": "Sirohi",
    "statename": "RAJASTHAN"
  },
  {
    "pincode": "307001",
    "officename": "Makroda B.O",
    "officeType": "B.O",
    "Deliverystatus": "Delivery",
    "divisionname": "Sirohi",
    "regionname": "Jodhpur",
    "circlename": "Rajasthan",
    "Taluk": "",
    "Districtname": "Sirohi",
    "statename": "RAJASTHAN"
  },
  {
    "pincode": "307001",
    "officename": "Mamawali B.O",
    "officeType": "B.O",
    "Deliverystatus": "Delivery",
    "divisionname": "Sirohi",
    "regionname": "Jodhpur",
    "circlename": "Rajasthan",
    "Taluk": "",
    "Districtname": "Sirohi",
    "statename": "RAJASTHAN"
  },
  {
    "pincode": "307001",
    "officename": "Mandwa B.O",
    "officeType": "B.O",
    "Deliverystatus": "Delivery",
    "divisionname": "Sirohi",
    "regionname": "Jodhpur",
    "circlename": "Rajasthan",
    "Taluk": "",
    "Districtname": "Sirohi",
    "statename": "RAJASTHAN"
  },
  {
    "pincode": "307001",
    "officename": "Padiv B.O",
    "officeType": "B.O",
    "Deliverystatus": "Delivery",
    "divisionname": "Sirohi",
    "regionname": "Jodhpur",
    "circlename": "Rajasthan",
    "Taluk": "",
    "Districtname": "Sirohi",
    "statename": "RAJASTHAN"
  },
  {
    "pincode": "307001",
    "officename": "Rampura B.O",
    "officeType": "B.O",
    "Deliverystatus": "Delivery",
    "divisionname": "Sirohi",
    "regionname": "Jodhpur",
    "circlename": "Rajasthan",
    "Taluk": "",
    "Districtname": "Sirohi",
    "statename": "RAJASTHAN"
  },
  {
    "pincode": "307001",
    "officename": "Sindrath B.O",
    "officeType": "B.O",
    "Deliverystatus": "Delivery",
    "divisionname": "Sirohi",
    "regionname": "Jodhpur",
    "circlename": "Rajasthan",
    "Taluk": "",
    "Districtname": "Sirohi",
    "statename": "RAJASTHAN"
  },
  {
    "pincode": "307001",
    "officename": "Sirohi Bhatkra S.O",
    "officeType": "S.O",
    "Deliverystatus": "Non-Delivery",
    "divisionname": "Sirohi",
    "regionname": "Jodhpur",
    "circlename": "Rajasthan",
    "Taluk": "Sirohi",
    "Districtname": "Sirohi",
    "statename": "RAJASTHAN"
  },
  {
    "pincode": "307001",
    "officename": "Sirohi H.O",
    "officeType": "H.O",
    "Deliverystatus": "Delivery",
    "divisionname": "Sirohi",
    "regionname": "Jodhpur",
    "circlename": "Rajasthan",
    "Taluk": "Sirohi",
    "Districtname": "Sirohi",
    "statename": "RAJASTHAN"
  },
  {
    "pincode": "307001",
    "officename": "Sirohi Sarupvilas S.O",
    "officeType": "S.O",
    "Deliverystatus": "Non-Delivery",
    "divisionname": "Sirohi",
    "regionname": "Jodhpur",
    "circlename": "Rajasthan",
    "Taluk": "Sirohi",
    "Districtname": "Sirohi",
    "statename": "RAJASTHAN"
  },
  {
    "pincode": "307001",
    "officename": "Valdra B.O",
    "officeType": "B.O",
    "Deliverystatus": "Delivery",
    "divisionname": "Sirohi",
    "regionname": "Jodhpur",
    "circlename": "Rajasthan",
    "Taluk": "",
    "Districtname": "Sirohi",
    "statename": "RAJASTHAN"
  },
  {
    "pincode": "307001",
    "officename": "Vellangari B.O",
    "officeType": "B.O",
    "Deliverystatus": "Delivery",
    "divisionname": "Sirohi",
    "regionname": "Jodhpur",
    "circlename": "Rajasthan",
    "Taluk": "",
    "Districtname": "Sirohi",
    "statename": "RAJASTHAN"
  }
]
