[
  {
    "pincode": "307024",
    "officename": "Bhimana R.S. B.O",
    "officeType": "B.O",
    "Deliverystatus": "Delivery",
    "divisionname": "Sirohi",
    "regionname": "Jodhpur",
    "circlename": "Rajasthan",
    "Taluk": "",
    "Districtname": "Sirohi",
    "statename": "RAJASTHAN"
  },
  {
    "pincode": "307024",
    "officename": "Bhula B.O",
    "officeType": "B.O",
    "Deliverystatus": "Delivery",
    "divisionname": "Sirohi",
    "regionname": "Jodhpur",
    "circlename": "Rajasthan",
    "Taluk": "",
    "Districtname": "Sirohi",
    "statename": "RAJASTHAN"
  },
  {
    "pincode": "307024",
    "officename": "Doytra B.O",
    "officeType": "B.O",
    "Deliverystatus": "Delivery",
    "divisionname": "Sirohi",
    "regionname": "Jodhpur",
    "circlename": "Rajasthan",
    "Taluk": "",
    "Districtname": "Sirohi",
    "statename": "RAJASTHAN"
  },
  {
    "pincode": "307024",
    "officename": "Paba B.O",
    "officeType": "B.O",
    "Deliverystatus": "Delivery",
    "divisionname": "Sirohi",
    "regionname": "Jodhpur",
    "circlename": "Rajasthan",
    "Taluk": "",
    "Districtname": "Sirohi",
    "statename": "RAJASTHAN"
  },
  {
    "pincode": "307024",
    "officename": "Rohida S.O",
    "officeType": "S.O",
    "Deliverystatus": "Delivery",
    "divisionname": "Sirohi",
    "regionname": "Jodhpur",
    "circlename": "Rajasthan",
    "Taluk": "Aburoad",
    "Districtname": "Sirohi",
    "statename": "RAJASTHAN"
  },
  {
    "pincode": "307024",
    "officename": "Valoriya B.O",
    "officeType": "B.O",
    "Deliverystatus": "Delivery",
    "divisionname": "Sirohi",
    "regionname": "Jodhpur",
    "circlename": "Rajasthan",
    "Taluk": "",
    "Districtname": "Sirohi",
    "statename": "RAJASTHAN"
  },
  {
    "pincode": "307024",
    "officename": "Vasa B.O",
    "officeType": "B.O",
    "Deliverystatus": "Delivery",
    "divisionname": "Sirohi",
    "regionname": "Jodhpur",
    "circlename": "Rajasthan",
    "Taluk": "",
    "Districtname": "Sirohi",
    "statename": "RAJASTHAN"
  },
  {
    "pincode": "307024",
    "officename": "Vatera B.O",
    "officeType": "B.O",
    "Deliverystatus": "Delivery",
    "divisionname": "Sirohi",
    "regionname": "Jodhpur",
    "circlename": "Rajasthan",
    "Taluk": "",
    "Districtname": "Sirohi",
    "statename": "RAJASTHAN"
  }
]
