[
  {
    "pincode": "307511",
    "officename": "Anadra S.O",
    "officeType": "S.O",
    "Deliverystatus": "Delivery",
    "divisionname": "Sirohi",
    "regionname": "Jodhpur",
    "circlename": "Rajasthan",
    "Taluk": "Reodar",
    "Districtname": "Sirohi",
    "statename": "RAJASTHAN"
  },
  {
    "pincode": "307511",
    "officename": "Dabani B.O",
    "officeType": "B.O",
    "Deliverystatus": "Delivery",
    "divisionname": "Sirohi",
    "regionname": "Jodhpur",
    "circlename": "Rajasthan",
    "Taluk": "",
    "Districtname": "Sirohi",
    "statename": "RAJASTHAN"
  },
  {
    "pincode": "307511",
    "officename": "Dak B.O",
    "officeType": "B.O",
    "Deliverystatus": "Delivery",
    "divisionname": "Sirohi",
    "regionname": "Jodhpur",
    "circlename": "Rajasthan",
    "Taluk": "",
    "Districtname": "Sirohi",
    "statename": "RAJASTHAN"
  },
  {
    "pincode": "307511",
    "officename": "Gulabganj B.O",
    "officeType": "B.O",
    "Deliverystatus": "Delivery",
    "divisionname": "Sirohi",
    "regionname": "Jodhpur",
    "circlename": "Rajasthan",
    "Taluk": "",
    "Districtname": "Sirohi",
    "statename": "RAJASTHAN"
  },
  {
    "pincode": "307511",
    "officename": "Hathal B.O",
    "officeType": "B.O",
    "Deliverystatus": "Delivery",
    "divisionname": "Sirohi",
    "regionname": "Jodhpur",
    "circlename": "Rajasthan",
    "Taluk": "",
    "Districtname": "Sirohi",
    "statename": "RAJASTHAN"
  },
  {
    "pincode": "307511",
    "officename": "Malgaon B.O",
    "officeType": "B.O",
    "Deliverystatus": "Delivery",
    "divisionname": "Sirohi",
    "regionname": "Jodhpur",
    "circlename": "Rajasthan",
    "Taluk": "",
    "Districtname": "Sirohi",
    "statename": "RAJASTHAN"
  },
  {
    "pincode": "307511",
    "officename": "Nagani B.O",
    "officeType": "B.O",
    "Deliverystatus": "Delivery",
    "divisionname": "Sirohi",
    "regionname": "Jodhpur",
    "circlename": "Rajasthan",
    "Taluk": "",
    "Districtname": "Sirohi",
    "statename": "RAJASTHAN"
  },
  {
    "pincode": "307511",
    "officename": "Pamera B.O",
    "officeType": "B.O",
    "Deliverystatus": "Delivery",
    "divisionname": "Sirohi",
    "regionname": "Jodhpur",
    "circlename": "Rajasthan",
    "Taluk": "",
    "Districtname": "Sirohi",
    "statename": "RAJASTHAN"
  },
  {
    "pincode": "307511",
    "officename": "Positra B.O",
    "officeType": "B.O",
    "Deliverystatus": "Delivery",
    "divisionname": "Sirohi",
    "regionname": "Jodhpur",
    "circlename": "Rajasthan",
    "Taluk": "",
    "Districtname": "Sirohi",
    "statename": "RAJASTHAN"
  },
  {
    "pincode": "307511",
    "officename": "Sanwara B.O",
    "officeType": "B.O",
    "Deliverystatus": "Delivery",
    "divisionname": "Sirohi",
    "regionname": "Jodhpur",
    "circlename": "Rajasthan",
    "Taluk": "",
    "Districtname": "Sirohi",
    "statename": "RAJASTHAN"
  },
  {
    "pincode": "307511",
    "officename": "Sirodi B.O",
    "officeType": "B.O",
    "Deliverystatus": "Delivery",
    "divisionname": "Sirohi",
    "regionname": "Jodhpur",
    "circlename": "Rajasthan",
    "Taluk": "",
    "Districtname": "Sirohi",
    "statename": "RAJASTHAN"
  },
  {
    "pincode": "307511",
    "officename": "Udwaria B.O",
    "officeType": "B.O",
    "Deliverystatus": "Delivery",
    "divisionname": "Sirohi",
    "regionname": "Jodhpur",
    "circlename": "Rajasthan",
    "Taluk": "",
    "Districtname": "Sirohi",
    "statename": "RAJASTHAN"
  }
]
