[
  {
    "pincode": "311401",
    "officename": "Babrana B.O",
    "officeType": "B.O",
    "Deliverystatus": "Delivery",
    "divisionname": "Bhilwara",
    "regionname": "Ajmer",
    "circlename": "Rajasthan",
    "Taluk": "Bhilwara",
    "Districtname": "Bhilwara",
    "statename": "RAJASTHAN"
  },
  {
    "pincode": "311401",
    "officename": "Banera S.O",
    "officeType": "S.O",
    "Deliverystatus": "Delivery",
    "divisionname": "Bhilwara",
    "regionname": "Ajmer",
    "circlename": "Rajasthan",
    "Taluk": "Bhilwara",
    "Districtname": "Bhilwara",
    "statename": "RAJASTHAN"
  },
  {
    "pincode": "311401",
    "officename": "Bara Mahuwa B.O",
    "officeType": "B.O",
    "Deliverystatus": "Delivery",
    "divisionname": "Bhilwara",
    "regionname": "Ajmer",
    "circlename": "Rajasthan",
    "Taluk": "Bhilwara",
    "Districtname": "Bhilwara",
    "statename": "RAJASTHAN"
  },
  {
    "pincode": "311401",
    "officename": "Baran B.O",
    "officeType": "B.O",
    "Deliverystatus": "Delivery",
    "divisionname": "Bhilwara",
    "regionname": "Ajmer",
    "circlename": "Rajasthan",
    "Taluk": "Bhilwara",
    "Districtname": "Bhilwara",
    "statename": "RAJASTHAN"
  },
  {
    "pincode": "311401",
    "officename": "Chamanpura B.O",
    "officeType": "B.O",
    "Deliverystatus": "Delivery",
    "divisionname": "Bhilwara",
    "regionname": "Ajmer",
    "circlename": "Rajasthan",
    "Taluk": "Bhilwara",
    "Districtname": "Bhilwara",
    "statename": "RAJASTHAN"
  },
  {
    "pincode": "311401",
    "officename": "Kalsans B.O",
    "officeType": "B.O",
    "Deliverystatus": "Delivery",
    "divisionname": "Bhilwara",
    "regionname": "Ajmer",
    "circlename": "Rajasthan",
    "Taluk": "Bhilwara",
    "Districtname": "Bhilwara",
    "statename": "RAJASTHAN"
  },
  {
    "pincode": "311401",
    "officename": "Kankolia B.O",
    "officeType": "B.O",
    "Deliverystatus": "Delivery",
    "divisionname": "Bhilwara",
    "regionname": "Ajmer",
    "circlename": "Rajasthan",
    "Taluk": "Bhilwara",
    "Districtname": "Bhilwara",
    "statename": "RAJASTHAN"
  },
  {
    "pincode": "311401",
    "officename": "Kunwar B.O",
    "officeType": "B.O",
    "Deliverystatus": "Delivery",
    "divisionname": "Bhilwara",
    "regionname": "Ajmer",
    "circlename": "Rajasthan",
    "Taluk": "Bhilwara",
    "Districtname": "Bhilwara",
    "statename": "RAJASTHAN"
  },
  {
    "pincode": "311401",
    "officename": "Rakshi B.O",
    "officeType": "B.O",
    "Deliverystatus": "Delivery",
    "divisionname": "Bhilwara",
    "regionname": "Ajmer",
    "circlename": "Rajasthan",
    "Taluk": "Bhilwara",
    "Districtname": "Bhilwara",
    "statename": "RAJASTHAN"
  },
  {
    "pincode": "311401",
    "officename": "Richda B.O",
    "officeType": "B.O",
    "Deliverystatus": "Delivery",
    "divisionname": "Bhilwara",
    "regionname": "Ajmer",
    "circlename": "Rajasthan",
    "Taluk": "Bhilwara",
    "Districtname": "Bhilwara",
    "statename": "RAJASTHAN"
  },
  {
    "pincode": "311401",
    "officename": "Salriya Kalan B.O",
    "officeType": "B.O",
    "Deliverystatus": "Delivery",
    "divisionname": "Bhilwara",
    "regionname": "Ajmer",
    "circlename": "Rajasthan",
    "Taluk": "Bhilwara",
    "Districtname": "Bhilwara",
    "statename": "RAJASTHAN"
  },
  {
    "pincode": "311401",
    "officename": "Sardarnagar B.O",
    "officeType": "B.O",
    "Deliverystatus": "Delivery",
    "divisionname": "Bhilwara",
    "regionname": "Ajmer",
    "circlename": "Rajasthan",
    "Taluk": "Bhilwara",
    "Districtname": "Bhilwara",
    "statename": "RAJASTHAN"
  }
]
