[
  {
    "pincode": "311404",
    "officename": "Amli Kalan B.O",
    "officeType": "B.O",
    "Deliverystatus": "Delivery",
    "divisionname": "Bhilwara",
    "regionname": "Ajmer",
    "circlename": "Rajasthan",
    "Taluk": "Bhilwara",
    "Districtname": "Bhilwara",
    "statename": "RAJASTHAN"
  },
  {
    "pincode": "311404",
    "officename": "Arnia Ghoda B.O",
    "officeType": "B.O",
    "Deliverystatus": "Delivery",
    "divisionname": "Bhilwara",
    "regionname": "Ajmer",
    "circlename": "Rajasthan",
    "Taluk": "Bhilwara",
    "Districtname": "Bhilwara",
    "statename": "RAJASTHAN"
  },
  {
    "pincode": "311404",
    "officename": "Arnia Rasa B.O",
    "officeType": "B.O",
    "Deliverystatus": "Delivery",
    "divisionname": "Bhilwara",
    "regionname": "Ajmer",
    "circlename": "Rajasthan",
    "Taluk": "Bhilwara",
    "Districtname": "Bhilwara",
    "statename": "RAJASTHAN"
  },
  {
    "pincode": "311404",
    "officename": "Bachkhera B.O",
    "officeType": "B.O",
    "Deliverystatus": "Delivery",
    "divisionname": "Bhilwara",
    "regionname": "Ajmer",
    "circlename": "Rajasthan",
    "Taluk": "Bhilwara",
    "Districtname": "Bhilwara",
    "statename": "RAJASTHAN"
  },
  {
    "pincode": "311404",
    "officename": "Basera B.O",
    "officeType": "B.O",
    "Deliverystatus": "Delivery",
    "divisionname": "Bhilwara",
    "regionname": "Ajmer",
    "circlename": "Rajasthan",
    "Taluk": "Bhilwara",
    "Districtname": "Bhilwara",
    "statename": "RAJASTHAN"
  },
  {
    "pincode": "311404",
    "officename": "Bavdi B.O",
    "officeType": "B.O",
    "Deliverystatus": "Delivery",
    "divisionname": "Bhilwara",
    "regionname": "Ajmer",
    "circlename": "Rajasthan",
    "Taluk": "Bhilwara",
    "Districtname": "Bhilwara",
    "statename": "RAJASTHAN"
  },
  {
    "pincode": "311404",
    "officename": "Bhojpur B.O",
    "officeType": "B.O",
    "Deliverystatus": "Delivery",
    "divisionname": "Bhilwara",
    "regionname": "Ajmer",
    "circlename": "Rajasthan",
    "Taluk": "Bhilwara",
    "Districtname": "Bhilwara",
    "statename": "RAJASTHAN"
  },
  {
    "pincode": "311404",
    "officename": "Biliya B.O",
    "officeType": "B.O",
    "Deliverystatus": "Delivery",
    "divisionname": "Bhilwara",
    "regionname": "Ajmer",
    "circlename": "Rajasthan",
    "Taluk": "Bhilwara",
    "Districtname": "Bhilwara",
    "statename": "RAJASTHAN"
  },
  {
    "pincode": "311404",
    "officename": "Borda B.O",
    "officeType": "B.O",
    "Deliverystatus": "Delivery",
    "divisionname": "Bhilwara",
    "regionname": "Ajmer",
    "circlename": "Rajasthan",
    "Taluk": "Bhilwara",
    "Districtname": "Bhilwara",
    "statename": "RAJASTHAN"
  },
  {
    "pincode": "311404",
    "officename": "Dabla Chanda B.O",
    "officeType": "B.O",
    "Deliverystatus": "Delivery",
    "divisionname": "Bhilwara",
    "regionname": "Ajmer",
    "circlename": "Rajasthan",
    "Taluk": "Bhilwara",
    "Districtname": "Bhilwara",
    "statename": "RAJASTHAN"
  },
  {
    "pincode": "311404",
    "officename": "Dabla Kachra B.O",
    "officeType": "B.O",
    "Deliverystatus": "Delivery",
    "divisionname": "Bhilwara",
    "regionname": "Ajmer",
    "circlename": "Rajasthan",
    "Taluk": "Bhilwara",
    "Districtname": "Bhilwara",
    "statename": "RAJASTHAN"
  },
  {
    "pincode": "311404",
    "officename": "Dhikola B.O",
    "officeType": "B.O",
    "Deliverystatus": "Delivery",
    "divisionname": "Bhilwara",
    "regionname": "Ajmer",
    "circlename": "Rajasthan",
    "Taluk": "Bhilwara",
    "Districtname": "Bhilwara",
    "statename": "RAJASTHAN"
  },
  {
    "pincode": "311404",
    "officename": "Kadisahna B.O",
    "officeType": "B.O",
    "Deliverystatus": "Delivery",
    "divisionname": "Bhilwara",
    "regionname": "Ajmer",
    "circlename": "Rajasthan",
    "Taluk": "Bhilwara",
    "Districtname": "Bhilwara",
    "statename": "RAJASTHAN"
  },
  {
    "pincode": "311404",
    "officename": "Kundgate Shahpura S.O",
    "officeType": "S.O",
    "Deliverystatus": "Non-Delivery",
    "divisionname": "Bhilwara",
    "regionname": "Ajmer",
    "circlename": "Rajasthan",
    "Taluk": "Bhilwara",
    "Districtname": "Bhilwara",
    "statename": "RAJASTHAN"
  },
  {
    "pincode": "311404",
    "officename": "Lulas B.O",
    "officeType": "B.O",
    "Deliverystatus": "Delivery",
    "divisionname": "Bhilwara",
    "regionname": "Ajmer",
    "circlename": "Rajasthan",
    "Taluk": "Bhilwara",
    "Districtname": "Bhilwara",
    "statename": "RAJASTHAN"
  },
  {
    "pincode": "311404",
    "officename": "Mahuwa B.O",
    "officeType": "B.O",
    "Deliverystatus": "Delivery",
    "divisionname": "Bhilwara",
    "regionname": "Ajmer",
    "circlename": "Rajasthan",
    "Taluk": "Bhilwara",
    "Districtname": "Bhilwara",
    "statename": "RAJASTHAN"
  },
  {
    "pincode": "311404",
    "officename": "Mata Ji Ka Khera B.O",
    "officeType": "B.O",
    "Deliverystatus": "Delivery",
    "divisionname": "Bhilwara",
    "regionname": "Ajmer",
    "circlename": "Rajasthan",
    "Taluk": "Bhilwara",
    "Districtname": "Bhilwara",
    "statename": "RAJASTHAN"
  },
  {
    "pincode": "311404",
    "officename": "Mindolia B.O",
    "officeType": "B.O",
    "Deliverystatus": "Delivery",
    "divisionname": "Bhilwara",
    "regionname": "Ajmer",
    "circlename": "Rajasthan",
    "Taluk": "Bhilwara",
    "Districtname": "Bhilwara",
    "statename": "RAJASTHAN"
  },
  {
    "pincode": "311404",
    "officename": "Pratappura B.O",
    "officeType": "B.O",
    "Deliverystatus": "Delivery",
    "divisionname": "Bhilwara",
    "regionname": "Ajmer",
    "circlename": "Rajasthan",
    "Taluk": "Bhilwara",
    "Districtname": "Bhilwara",
    "statename": "RAJASTHAN"
  },
  {
    "pincode": "311404",
    "officename": "Ragurajpura B.O",
    "officeType": "B.O",
    "Deliverystatus": "Delivery",
    "divisionname": "Bhilwara",
    "regionname": "Ajmer",
    "circlename": "Rajasthan",
    "Taluk": "Bhilwara",
    "Districtname": "Bhilwara",
    "statename": "RAJASTHAN"
  },
  {
    "pincode": "311404",
    "officename": "Rahad B.O",
    "officeType": "B.O",
    "Deliverystatus": "Delivery",
    "divisionname": "Bhilwara",
    "regionname": "Ajmer",
    "circlename": "Rajasthan",
    "Taluk": "Bhilwara",
    "Districtname": "Bhilwara",
    "statename": "RAJASTHAN"
  },
  {
    "pincode": "311404",
    "officename": "Shahpura Raj S.O",
    "officeType": "S.O",
    "Deliverystatus": "Delivery",
    "divisionname": "Bhilwara",
    "regionname": "Ajmer",
    "circlename": "Rajasthan",
    "Taluk": "Bhilwara",
    "Districtname": "Bhilwara",
    "statename": "RAJASTHAN"
  },
  {
    "pincode": "311404",
    "officename": "Tehnal B.O",
    "officeType": "B.O",
    "Deliverystatus": "Delivery",
    "divisionname": "Bhilwara",
    "regionname": "Ajmer",
    "circlename": "Rajasthan",
    "Taluk": "Bhilwara",
    "Districtname": "Bhilwara",
    "statename": "RAJASTHAN"
  }
]
