[
  {
    "pincode": "311601",
    "officename": "Bigod S.O",
    "officeType": "S.O",
    "Deliverystatus": "Delivery",
    "divisionname": "Bhilwara",
    "regionname": "Ajmer",
    "circlename": "Rajasthan",
    "Taluk": "Bhilwara",
    "Districtname": "Bhilwara",
    "statename": "RAJASTHAN"
  },
  {
    "pincode": "311601",
    "officename": "Dhakarkhedi B.O",
    "officeType": "B.O",
    "Deliverystatus": "Delivery",
    "divisionname": "Bhilwara",
    "regionname": "Ajmer",
    "circlename": "Rajasthan",
    "Taluk": "Bhilwara",
    "Districtname": "Bhilwara",
    "statename": "RAJASTHAN"
  },
  {
    "pincode": "311601",
    "officename": "Jalia B.O",
    "officeType": "B.O",
    "Deliverystatus": "Delivery",
    "divisionname": "Bhilwara",
    "regionname": "Ajmer",
    "circlename": "Rajasthan",
    "Taluk": "Bhilwara",
    "Districtname": "Bhilwara",
    "statename": "RAJASTHAN"
  },
  {
    "pincode": "311601",
    "officename": "Jawal B.O",
    "officeType": "B.O",
    "Deliverystatus": "Delivery",
    "divisionname": "Bhilwara",
    "regionname": "Ajmer",
    "circlename": "Rajasthan",
    "Taluk": "Bhilwara",
    "Districtname": "Bhilwara",
    "statename": "RAJASTHAN"
  },
  {
    "pincode": "311601",
    "officename": "Jojwa B.O",
    "officeType": "B.O",
    "Deliverystatus": "Delivery",
    "divisionname": "Bhilwara",
    "regionname": "Ajmer",
    "circlename": "Rajasthan",
    "Taluk": "Bhilwara",
    "Districtname": "Bhilwara",
    "statename": "RAJASTHAN"
  },
  {
    "pincode": "311601",
    "officename": "Kankrolia B.O",
    "officeType": "B.O",
    "Deliverystatus": "Delivery",
    "divisionname": "Bhilwara",
    "regionname": "Ajmer",
    "circlename": "Rajasthan",
    "Taluk": "Bhilwara",
    "Districtname": "Bhilwara",
    "statename": "RAJASTHAN"
  },
  {
    "pincode": "311601",
    "officename": "Khatwara B.O",
    "officeType": "B.O",
    "Deliverystatus": "Delivery",
    "divisionname": "Bhilwara",
    "regionname": "Ajmer",
    "circlename": "Rajasthan",
    "Taluk": "Bhilwara",
    "Districtname": "Bhilwara",
    "statename": "RAJASTHAN"
  },
  {
    "pincode": "311601",
    "officename": "Kishangarh B.O",
    "officeType": "B.O",
    "Deliverystatus": "Delivery",
    "divisionname": "Bhilwara",
    "regionname": "Ajmer",
    "circlename": "Rajasthan",
    "Taluk": "Bhilwara",
    "Districtname": "Bhilwara",
    "statename": "RAJASTHAN"
  },
  {
    "pincode": "311601",
    "officename": "Nandrai B.O",
    "officeType": "B.O",
    "Deliverystatus": "Delivery",
    "divisionname": "Bhilwara",
    "regionname": "Ajmer",
    "circlename": "Rajasthan",
    "Taluk": "Bhilwara",
    "Districtname": "Bhilwara",
    "statename": "RAJASTHAN"
  },
  {
    "pincode": "311601",
    "officename": "Suras B.O",
    "officeType": "B.O",
    "Deliverystatus": "Delivery",
    "divisionname": "Bhilwara",
    "regionname": "Ajmer",
    "circlename": "Rajasthan",
    "Taluk": "Bhilwara",
    "Districtname": "Bhilwara",
    "statename": "RAJASTHAN"
  }
]
