[
  {
    "pincode": "311803",
    "officename": "Bheeta B.O",
    "officeType": "B.O",
    "Deliverystatus": "Delivery",
    "divisionname": "Bhilwara",
    "regionname": "Ajmer",
    "circlename": "Rajasthan",
    "Taluk": "Bhilwara",
    "Districtname": "Bhilwara",
    "statename": "RAJASTHAN"
  },
  {
    "pincode": "311803",
    "officename": "Borana CO B.O",
    "officeType": "B.O",
    "Deliverystatus": "Delivery",
    "divisionname": "Bhilwara",
    "regionname": "Ajmer",
    "circlename": "Rajasthan",
    "Taluk": "Bhilwara",
    "Districtname": "Bhilwara",
    "statename": "RAJASTHAN"
  },
  {
    "pincode": "311803",
    "officename": "Khankhermala B.O",
    "officeType": "B.O",
    "Deliverystatus": "Delivery",
    "divisionname": "Bhilwara",
    "regionname": "Ajmer",
    "circlename": "Rajasthan",
    "Taluk": "Bhilwara",
    "Districtname": "Bhilwara",
    "statename": "RAJASTHAN"
  },
  {
    "pincode": "311803",
    "officename": "Kot B.O",
    "officeType": "B.O",
    "Deliverystatus": "Delivery",
    "divisionname": "Bhilwara",
    "regionname": "Ajmer",
    "circlename": "Rajasthan",
    "Taluk": "Bhilwara",
    "Districtname": "Bhilwara",
    "statename": "RAJASTHAN"
  },
  {
    "pincode": "311803",
    "officename": "Nahari B.O",
    "officeType": "B.O",
    "Deliverystatus": "Delivery",
    "divisionname": "Bhilwara",
    "regionname": "Ajmer",
    "circlename": "Rajasthan",
    "Taluk": "Bhilwara",
    "Districtname": "Bhilwara",
    "statename": "RAJASTHAN"
  },
  {
    "pincode": "311803",
    "officename": "Narayan Khera B.O",
    "officeType": "B.O",
    "Deliverystatus": "Delivery",
    "divisionname": "Bhilwara",
    "regionname": "Ajmer",
    "circlename": "Rajasthan",
    "Taluk": "Bhilwara",
    "Districtname": "Bhilwara",
    "statename": "RAJASTHAN"
  },
  {
    "pincode": "311803",
    "officename": "Nathdiyas B.O",
    "officeType": "B.O",
    "Deliverystatus": "Delivery",
    "divisionname": "Bhilwara",
    "regionname": "Ajmer",
    "circlename": "Rajasthan",
    "Taluk": "Bhilwara",
    "Districtname": "Bhilwara",
    "statename": "RAJASTHAN"
  },
  {
    "pincode": "311803",
    "officename": "Palran B.O",
    "officeType": "B.O",
    "Deliverystatus": "Delivery",
    "divisionname": "Bhilwara",
    "regionname": "Ajmer",
    "circlename": "Rajasthan",
    "Taluk": "Bhilwara",
    "Districtname": "Bhilwara",
    "statename": "RAJASTHAN"
  },
  {
    "pincode": "311803",
    "officename": "Pitha Ka Khera B.O",
    "officeType": "B.O",
    "Deliverystatus": "Delivery",
    "divisionname": "Bhilwara",
    "regionname": "Ajmer",
    "circlename": "Rajasthan",
    "Taluk": "Bhilwara",
    "Districtname": "Bhilwara",
    "statename": "RAJASTHAN"
  },
  {
    "pincode": "311803",
    "officename": "Raipur S.O (Bhilwara)",
    "officeType": "S.O",
    "Deliverystatus": "Delivery",
    "divisionname": "Bhilwara",
    "regionname": "Ajmer",
    "circlename": "Rajasthan",
    "Taluk": "Bhilwara",
    "Districtname": "Bhilwara",
    "statename": "RAJASTHAN"
  },
  {
    "pincode": "311803",
    "officename": "Sagreo B.O",
    "officeType": "B.O",
    "Deliverystatus": "Delivery",
    "divisionname": "Bhilwara",
    "regionname": "Ajmer",
    "circlename": "Rajasthan",
    "Taluk": "",
    "Districtname": "Bhilwara",
    "statename": "RAJASTHAN"
  },
  {
    "pincode": "311803",
    "officename": "Sarewadi B.O",
    "officeType": "B.O",
    "Deliverystatus": "Delivery",
    "divisionname": "Bhilwara",
    "regionname": "Ajmer",
    "circlename": "Rajasthan",
    "Taluk": "Bhilwara",
    "Districtname": "Bhilwara",
    "statename": "RAJASTHAN"
  },
  {
    "pincode": "311803",
    "officename": "Thala B.O",
    "officeType": "B.O",
    "Deliverystatus": "Delivery",
    "divisionname": "Bhilwara",
    "regionname": "Ajmer",
    "circlename": "Rajasthan",
    "Taluk": "Bhilwara",
    "Districtname": "Bhilwara",
    "statename": "RAJASTHAN"
  },
  {
    "pincode": "311803",
    "officename": "Umari B.O",
    "officeType": "B.O",
    "Deliverystatus": "Delivery",
    "divisionname": "Bhilwara",
    "regionname": "Ajmer",
    "circlename": "Rajasthan",
    "Taluk": "Bhilwara",
    "Districtname": "Bhilwara",
    "statename": "RAJASTHAN"
  }
]
