[
  {
    "pincode": "311806",
    "officename": "Kangani B.O",
    "officeType": "B.O",
    "Deliverystatus": "Delivery",
    "divisionname": "Bhilwara",
    "regionname": "Ajmer",
    "circlename": "Rajasthan",
    "Taluk": "Bhilwara",
    "Districtname": "Bhilwara",
    "statename": "RAJASTHAN"
  },
  {
    "pincode": "311806",
    "officename": "Khankhala B.O",
    "officeType": "B.O",
    "Deliverystatus": "Delivery",
    "divisionname": "Bhilwara",
    "regionname": "Ajmer",
    "circlename": "Rajasthan",
    "Taluk": "Bhilwara",
    "Districtname": "Bhilwara",
    "statename": "RAJASTHAN"
  },
  {
    "pincode": "311806",
    "officename": "Majhawas B.O",
    "officeType": "B.O",
    "Deliverystatus": "Delivery",
    "divisionname": "Bhilwara",
    "regionname": "Ajmer",
    "circlename": "Rajasthan",
    "Taluk": "Bhilwara",
    "Districtname": "Bhilwara",
    "statename": "RAJASTHAN"
  },
  {
    "pincode": "311806",
    "officename": "Negdia Ka Khera B.O",
    "officeType": "B.O",
    "Deliverystatus": "Delivery",
    "divisionname": "Bhilwara",
    "regionname": "Ajmer",
    "circlename": "Rajasthan",
    "Taluk": "Bhilwara",
    "Districtname": "Bhilwara",
    "statename": "RAJASTHAN"
  },
  {
    "pincode": "311806",
    "officename": "Potlan B.O",
    "officeType": "B.O",
    "Deliverystatus": "Delivery",
    "divisionname": "Bhilwara",
    "regionname": "Ajmer",
    "circlename": "Rajasthan",
    "Taluk": "Bhilwara",
    "Districtname": "Bhilwara",
    "statename": "RAJASTHAN"
  },
  {
    "pincode": "311806",
    "officename": "Sahada S.O",
    "officeType": "S.O",
    "Deliverystatus": "Delivery",
    "divisionname": "Bhilwara",
    "regionname": "Ajmer",
    "circlename": "Rajasthan",
    "Taluk": "Bhilwara",
    "Districtname": "Bhilwara",
    "statename": "RAJASTHAN"
  },
  {
    "pincode": "311806",
    "officename": "Salera B.O",
    "officeType": "B.O",
    "Deliverystatus": "Delivery",
    "divisionname": "Bhilwara",
    "regionname": "Ajmer",
    "circlename": "Rajasthan",
    "Taluk": "Bhilwara",
    "Districtname": "Bhilwara",
    "statename": "RAJASTHAN"
  },
  {
    "pincode": "311806",
    "officename": "Sargaon B.O",
    "officeType": "B.O",
    "Deliverystatus": "Delivery",
    "divisionname": "Bhilwara",
    "regionname": "Ajmer",
    "circlename": "Rajasthan",
    "Taluk": "Bhilwara",
    "Districtname": "Bhilwara",
    "statename": "RAJASTHAN"
  },
  {
    "pincode": "311806",
    "officename": "Satliyas B.O",
    "officeType": "B.O",
    "Deliverystatus": "Delivery",
    "divisionname": "Bhilwara",
    "regionname": "Ajmer",
    "circlename": "Rajasthan",
    "Taluk": "Bhilwara",
    "Districtname": "Bhilwara",
    "statename": "RAJASTHAN"
  },
  {
    "pincode": "311806",
    "officename": "Surawas B.O",
    "officeType": "B.O",
    "Deliverystatus": "Delivery",
    "divisionname": "Bhilwara",
    "regionname": "Ajmer",
    "circlename": "Rajasthan",
    "Taluk": "Bhilwara",
    "Districtname": "Bhilwara",
    "statename": "RAJASTHAN"
  }
]
