[
  {
    "pincode": "312023",
    "officename": "Balkundikalan B.O",
    "officeType": "B.O",
    "Deliverystatus": "Delivery",
    "divisionname": "Chittorgarh",
    "regionname": "Ajmer",
    "circlename": "Rajasthan",
    "Taluk": "Begun",
    "Districtname": "Chittorgarh",
    "statename": "RAJASTHAN"
  },
  {
    "pincode": "312023",
    "officename": "Begun S.O",
    "officeType": "S.O",
    "Deliverystatus": "Delivery",
    "divisionname": "Chittorgarh",
    "regionname": "Ajmer",
    "circlename": "Rajasthan",
    "Taluk": "Begun",
    "Districtname": "Chittorgarh",
    "statename": "RAJASTHAN"
  },
  {
    "pincode": "312023",
    "officename": "Chechi  B.O",
    "officeType": "B.O",
    "Deliverystatus": "Delivery",
    "divisionname": "Chittorgarh",
    "regionname": "Ajmer",
    "circlename": "Rajasthan",
    "Taluk": "Begun",
    "Districtname": "Chittorgarh",
    "statename": "RAJASTHAN"
  },
  {
    "pincode": "312023",
    "officename": "Daulatpura B.O",
    "officeType": "B.O",
    "Deliverystatus": "Delivery",
    "divisionname": "Chittorgarh",
    "regionname": "Ajmer",
    "circlename": "Rajasthan",
    "Taluk": "Begun",
    "Districtname": "Chittorgarh",
    "statename": "RAJASTHAN"
  },
  {
    "pincode": "312023",
    "officename": "Deopura B.O",
    "officeType": "B.O",
    "Deliverystatus": "Delivery",
    "divisionname": "Chittorgarh",
    "regionname": "Ajmer",
    "circlename": "Rajasthan",
    "Taluk": "Begun",
    "Districtname": "Chittorgarh",
    "statename": "RAJASTHAN"
  },
  {
    "pincode": "312023",
    "officename": "Dhamancha B.O",
    "officeType": "B.O",
    "Deliverystatus": "Delivery",
    "divisionname": "Chittorgarh",
    "regionname": "Ajmer",
    "circlename": "Rajasthan",
    "Taluk": "Begun",
    "Districtname": "Chittorgarh",
    "statename": "RAJASTHAN"
  },
  {
    "pincode": "312023",
    "officename": "Dorai B.O",
    "officeType": "B.O",
    "Deliverystatus": "Delivery",
    "divisionname": "Chittorgarh",
    "regionname": "Ajmer",
    "circlename": "Rajasthan",
    "Taluk": "Begun",
    "Districtname": "Chittorgarh",
    "statename": "RAJASTHAN"
  },
  {
    "pincode": "312023",
    "officename": "Gulana B.O",
    "officeType": "B.O",
    "Deliverystatus": "Delivery",
    "divisionname": "Chittorgarh",
    "regionname": "Ajmer",
    "circlename": "Rajasthan",
    "Taluk": "Begun",
    "Districtname": "Chittorgarh",
    "statename": "RAJASTHAN"
  },
  {
    "pincode": "312023",
    "officename": "Jainagar B.O",
    "officeType": "B.O",
    "Deliverystatus": "Delivery",
    "divisionname": "Chittorgarh",
    "regionname": "Ajmer",
    "circlename": "Rajasthan",
    "Taluk": "Begun",
    "Districtname": "Chittorgarh",
    "statename": "RAJASTHAN"
  },
  {
    "pincode": "312023",
    "officename": "Jawada  1 B.O",
    "officeType": "B.O",
    "Deliverystatus": "Delivery",
    "divisionname": "Chittorgarh",
    "regionname": "Ajmer",
    "circlename": "Rajasthan",
    "Taluk": "Begun",
    "Districtname": "Chittorgarh",
    "statename": "RAJASTHAN"
  },
  {
    "pincode": "312023",
    "officename": "Katunda B.O",
    "officeType": "B.O",
    "Deliverystatus": "Delivery",
    "divisionname": "Chittorgarh",
    "regionname": "Ajmer",
    "circlename": "Rajasthan",
    "Taluk": "Begun",
    "Districtname": "Chittorgarh",
    "statename": "RAJASTHAN"
  },
  {
    "pincode": "312023",
    "officename": "Mandawari B.O",
    "officeType": "B.O",
    "Deliverystatus": "Delivery",
    "divisionname": "Chittorgarh",
    "regionname": "Ajmer",
    "circlename": "Rajasthan",
    "Taluk": "Begun",
    "Districtname": "Chittorgarh",
    "statename": "RAJASTHAN"
  },
  {
    "pincode": "312023",
    "officename": "Nandwai B.O",
    "officeType": "B.O",
    "Deliverystatus": "Delivery",
    "divisionname": "Chittorgarh",
    "regionname": "Ajmer",
    "circlename": "Rajasthan",
    "Taluk": "Begun",
    "Districtname": "Chittorgarh",
    "statename": "RAJASTHAN"
  },
  {
    "pincode": "312023",
    "officename": "Pachunda B.O",
    "officeType": "B.O",
    "Deliverystatus": "Delivery",
    "divisionname": "Chittorgarh",
    "regionname": "Ajmer",
    "circlename": "Rajasthan",
    "Taluk": "Begun",
    "Districtname": "Chittorgarh",
    "statename": "RAJASTHAN"
  },
  {
    "pincode": "312023",
    "officename": "Raita B.O",
    "officeType": "B.O",
    "Deliverystatus": "Delivery",
    "divisionname": "Chittorgarh",
    "regionname": "Ajmer",
    "circlename": "Rajasthan",
    "Taluk": "Begun",
    "Districtname": "Chittorgarh",
    "statename": "RAJASTHAN"
  },
  {
    "pincode": "312023",
    "officename": "Rawarda B.O",
    "officeType": "B.O",
    "Deliverystatus": "Delivery",
    "divisionname": "Chittorgarh",
    "regionname": "Ajmer",
    "circlename": "Rajasthan",
    "Taluk": "Begun",
    "Districtname": "Chittorgarh",
    "statename": "RAJASTHAN"
  },
  {
    "pincode": "312023",
    "officename": "Sadi B.O",
    "officeType": "B.O",
    "Deliverystatus": "Delivery",
    "divisionname": "Chittorgarh",
    "regionname": "Ajmer",
    "circlename": "Rajasthan",
    "Taluk": "Begun",
    "Districtname": "Chittorgarh",
    "statename": "RAJASTHAN"
  },
  {
    "pincode": "312023",
    "officename": "Samaria Khurd B.O",
    "officeType": "B.O",
    "Deliverystatus": "Delivery",
    "divisionname": "Chittorgarh",
    "regionname": "Ajmer",
    "circlename": "Rajasthan",
    "Taluk": "Begun",
    "Districtname": "Chittorgarh",
    "statename": "RAJASTHAN"
  },
  {
    "pincode": "312023",
    "officename": "Thukrai B.O",
    "officeType": "B.O",
    "Deliverystatus": "Delivery",
    "divisionname": "Chittorgarh",
    "regionname": "Ajmer",
    "circlename": "Rajasthan",
    "Taluk": "Begun",
    "Districtname": "Chittorgarh",
    "statename": "RAJASTHAN"
  }
]
