[
  {
    "pincode": "312202",
    "officename": "Anoppura B.O",
    "officeType": "B.O",
    "Deliverystatus": "Delivery",
    "divisionname": "Chittorgarh",
    "regionname": "Ajmer",
    "circlename": "Rajasthan",
    "Taluk": "Kapasan",
    "Districtname": "Chittorgarh",
    "statename": "RAJASTHAN"
  },
  {
    "pincode": "312202",
    "officename": "Balarada B.O",
    "officeType": "B.O",
    "Deliverystatus": "Delivery",
    "divisionname": "Chittorgarh",
    "regionname": "Ajmer",
    "circlename": "Rajasthan",
    "Taluk": "Kapasan",
    "Districtname": "Chittorgarh",
    "statename": "RAJASTHAN"
  },
  {
    "pincode": "312202",
    "officename": "Bhatton Ka Bamniya B.O",
    "officeType": "B.O",
    "Deliverystatus": "Delivery",
    "divisionname": "Chittorgarh",
    "regionname": "Ajmer",
    "circlename": "Rajasthan",
    "Taluk": "Kapasan",
    "Districtname": "Chittorgarh",
    "statename": "RAJASTHAN"
  },
  {
    "pincode": "312202",
    "officename": "Damakhera B.O",
    "officeType": "B.O",
    "Deliverystatus": "Delivery",
    "divisionname": "Chittorgarh",
    "regionname": "Ajmer",
    "circlename": "Rajasthan",
    "Taluk": "Kapasan",
    "Districtname": "Chittorgarh",
    "statename": "RAJASTHAN"
  },
  {
    "pincode": "312202",
    "officename": "Dhamana B.O",
    "officeType": "B.O",
    "Deliverystatus": "Delivery",
    "divisionname": "Chittorgarh",
    "regionname": "Ajmer",
    "circlename": "Rajasthan",
    "Taluk": "Kapasan",
    "Districtname": "Chittorgarh",
    "statename": "RAJASTHAN"
  },
  {
    "pincode": "312202",
    "officename": "Dowani B.O",
    "officeType": "B.O",
    "Deliverystatus": "Delivery",
    "divisionname": "Chittorgarh",
    "regionname": "Ajmer",
    "circlename": "Rajasthan",
    "Taluk": "Kapasan",
    "Districtname": "Chittorgarh",
    "statename": "RAJASTHAN"
  },
  {
    "pincode": "312202",
    "officename": "Hathiyana B.O",
    "officeType": "B.O",
    "Deliverystatus": "Delivery",
    "divisionname": "Chittorgarh",
    "regionname": "Ajmer",
    "circlename": "Rajasthan",
    "Taluk": "Kapasan",
    "Districtname": "Chittorgarh",
    "statename": "RAJASTHAN"
  },
  {
    "pincode": "312202",
    "officename": "Jashma B.O",
    "officeType": "B.O",
    "Deliverystatus": "Delivery",
    "divisionname": "Chittorgarh",
    "regionname": "Ajmer",
    "circlename": "Rajasthan",
    "Taluk": "Kapasan",
    "Districtname": "Chittorgarh",
    "statename": "RAJASTHAN"
  },
  {
    "pincode": "312202",
    "officename": "Kapasan  Town S.O",
    "officeType": "S.O",
    "Deliverystatus": "Non-Delivery",
    "divisionname": "Chittorgarh",
    "regionname": "Ajmer",
    "circlename": "Rajasthan",
    "Taluk": "Kapasan",
    "Districtname": "Chittorgarh",
    "statename": "RAJASTHAN"
  },
  {
    "pincode": "312202",
    "officename": "Kapasan S.O",
    "officeType": "S.O",
    "Deliverystatus": "Delivery",
    "divisionname": "Chittorgarh",
    "regionname": "Ajmer",
    "circlename": "Rajasthan",
    "Taluk": "Kapasan",
    "Districtname": "Chittorgarh",
    "statename": "RAJASTHAN"
  },
  {
    "pincode": "312202",
    "officename": "Nimbahera B.O",
    "officeType": "B.O",
    "Deliverystatus": "Delivery",
    "divisionname": "Chittorgarh",
    "regionname": "Ajmer",
    "circlename": "Rajasthan",
    "Taluk": "Kapasan",
    "Districtname": "Chittorgarh",
    "statename": "RAJASTHAN"
  },
  {
    "pincode": "312202",
    "officename": "Pandoli S T B.O",
    "officeType": "B.O",
    "Deliverystatus": "Delivery",
    "divisionname": "Chittorgarh",
    "regionname": "Ajmer",
    "circlename": "Rajasthan",
    "Taluk": "Kapasan",
    "Districtname": "Chittorgarh",
    "statename": "RAJASTHAN"
  },
  {
    "pincode": "312202",
    "officename": "Rolia B.O",
    "officeType": "B.O",
    "Deliverystatus": "Delivery",
    "divisionname": "Chittorgarh",
    "regionname": "Ajmer",
    "circlename": "Rajasthan",
    "Taluk": "Kapasan",
    "Districtname": "Chittorgarh",
    "statename": "RAJASTHAN"
  },
  {
    "pincode": "312202",
    "officename": "Uchnarkhurd B.O",
    "officeType": "B.O",
    "Deliverystatus": "Delivery",
    "divisionname": "Chittorgarh",
    "regionname": "Ajmer",
    "circlename": "Rajasthan",
    "Taluk": "Kapasan",
    "Districtname": "Chittorgarh",
    "statename": "RAJASTHAN"
  }
]
