[
  {
    "pincode": "312619",
    "officename": "Ambirama B.O",
    "officeType": "B.O",
    "Deliverystatus": "Delivery",
    "divisionname": "Chittorgarh",
    "regionname": "Ajmer",
    "circlename": "Rajasthan",
    "Taluk": "Arnod",
    "Districtname": "Chittorgarh",
    "statename": "RAJASTHAN"
  },
  {
    "pincode": "312619",
    "officename": "Banslai B.O",
    "officeType": "B.O",
    "Deliverystatus": "Delivery",
    "divisionname": "Chittorgarh",
    "regionname": "Ajmer",
    "circlename": "Rajasthan",
    "Taluk": "Arnod",
    "Districtname": "Chittorgarh",
    "statename": "RAJASTHAN"
  },
  {
    "pincode": "312619",
    "officename": "Bardia B.O",
    "officeType": "B.O",
    "Deliverystatus": "Delivery",
    "divisionname": "Chittorgarh",
    "regionname": "Ajmer",
    "circlename": "Rajasthan",
    "Taluk": "Arnod",
    "Districtname": "Chittorgarh",
    "statename": "RAJASTHAN"
  },
  {
    "pincode": "312619",
    "officename": "Barisagthali B.O",
    "officeType": "B.O",
    "Deliverystatus": "Delivery",
    "divisionname": "Chittorgarh",
    "regionname": "Ajmer",
    "circlename": "Rajasthan",
    "Taluk": "Arnod",
    "Districtname": "Chittorgarh",
    "statename": "RAJASTHAN"
  },
  {
    "pincode": "312619",
    "officename": "Bori B.O",
    "officeType": "B.O",
    "Deliverystatus": "Delivery",
    "divisionname": "Chittorgarh",
    "regionname": "Ajmer",
    "circlename": "Rajasthan",
    "Taluk": "Arnod",
    "Districtname": "Chittorgarh",
    "statename": "RAJASTHAN"
  },
  {
    "pincode": "312619",
    "officename": "Chakunda B.O",
    "officeType": "B.O",
    "Deliverystatus": "Delivery",
    "divisionname": "Chittorgarh",
    "regionname": "Ajmer",
    "circlename": "Rajasthan",
    "Taluk": "Arnod",
    "Districtname": "Chittorgarh",
    "statename": "RAJASTHAN"
  },
  {
    "pincode": "312619",
    "officename": "Chandera B.O",
    "officeType": "B.O",
    "Deliverystatus": "Delivery",
    "divisionname": "Chittorgarh",
    "regionname": "Ajmer",
    "circlename": "Rajasthan",
    "Taluk": "Arnod",
    "Districtname": "Chittorgarh",
    "statename": "RAJASTHAN"
  },
  {
    "pincode": "312619",
    "officename": "Dalot S.O",
    "officeType": "S.O",
    "Deliverystatus": "Delivery",
    "divisionname": "Chittorgarh",
    "regionname": "Ajmer",
    "circlename": "Rajasthan",
    "Taluk": "Partabgarh",
    "Districtname": "Chittorgarh",
    "statename": "RAJASTHAN"
  },
  {
    "pincode": "312619",
    "officename": "Jeerawata B.O",
    "officeType": "B.O",
    "Deliverystatus": "Delivery",
    "divisionname": "Chittorgarh",
    "regionname": "Ajmer",
    "circlename": "Rajasthan",
    "Taluk": "Arnod",
    "Districtname": "Chittorgarh",
    "statename": "RAJASTHAN"
  },
  {
    "pincode": "312619",
    "officename": "Kangarh B.O",
    "officeType": "B.O",
    "Deliverystatus": "Delivery",
    "divisionname": "Chittorgarh",
    "regionname": "Ajmer",
    "circlename": "Rajasthan",
    "Taluk": "Arnod",
    "Districtname": "Chittorgarh",
    "statename": "RAJASTHAN"
  },
  {
    "pincode": "312619",
    "officename": "Ninor B.O",
    "officeType": "B.O",
    "Deliverystatus": "Delivery",
    "divisionname": "Chittorgarh",
    "regionname": "Ajmer",
    "circlename": "Rajasthan",
    "Taluk": "Arnod",
    "Districtname": "Chittorgarh",
    "statename": "RAJASTHAN"
  },
  {
    "pincode": "312619",
    "officename": "Raipur B.O",
    "officeType": "B.O",
    "Deliverystatus": "Delivery",
    "divisionname": "Chittorgarh",
    "regionname": "Ajmer",
    "circlename": "Rajasthan",
    "Taluk": "Arnod",
    "Districtname": "Chittorgarh",
    "statename": "RAJASTHAN"
  },
  {
    "pincode": "312619",
    "officename": "Raipurjangal B.O",
    "officeType": "B.O",
    "Deliverystatus": "Delivery",
    "divisionname": "Chittorgarh",
    "regionname": "Ajmer",
    "circlename": "Rajasthan",
    "Taluk": "Arnod",
    "Districtname": "Chittorgarh",
    "statename": "RAJASTHAN"
  },
  {
    "pincode": "312619",
    "officename": "Salamgarh B.O",
    "officeType": "B.O",
    "Deliverystatus": "Delivery",
    "divisionname": "Chittorgarh",
    "regionname": "Ajmer",
    "circlename": "Rajasthan",
    "Taluk": "Arnod",
    "Districtname": "Chittorgarh",
    "statename": "RAJASTHAN"
  },
  {
    "pincode": "312619",
    "officename": "Sewna B.O",
    "officeType": "B.O",
    "Deliverystatus": "Delivery",
    "divisionname": "Chittorgarh",
    "regionname": "Ajmer",
    "circlename": "Rajasthan",
    "Taluk": "Arnod",
    "Districtname": "Chittorgarh",
    "statename": "RAJASTHAN"
  },
  {
    "pincode": "312619",
    "officename": "Unthel B.O",
    "officeType": "B.O",
    "Deliverystatus": "Delivery",
    "divisionname": "Chittorgarh",
    "regionname": "Ajmer",
    "circlename": "Rajasthan",
    "Taluk": "Arnod",
    "Districtname": "Chittorgarh",
    "statename": "RAJASTHAN"
  }
]
