[
  {
    "pincode": "312603",
    "officename": "Bhanuja B.O",
    "officeType": "B.O",
    "Deliverystatus": "Delivery",
    "divisionname": "Chittorgarh",
    "regionname": "Ajmer",
    "circlename": "Rajasthan",
    "Taluk": "Bari Sadari",
    "Districtname": "Chittorgarh",
    "statename": "RAJASTHAN"
  },
  {
    "pincode": "312603",
    "officename": "Gardana B.O",
    "officeType": "B.O",
    "Deliverystatus": "Delivery",
    "divisionname": "Chittorgarh",
    "regionname": "Ajmer",
    "circlename": "Rajasthan",
    "Taluk": "Bari Sadri",
    "Districtname": "Chittorgarh",
    "statename": "RAJASTHAN"
  },
  {
    "pincode": "312603",
    "officename": "Khermalia B.O",
    "officeType": "B.O",
    "Deliverystatus": "Delivery",
    "divisionname": "Chittorgarh",
    "regionname": "Ajmer",
    "circlename": "Rajasthan",
    "Taluk": "Bari Sadari",
    "Districtname": "Chittorgarh",
    "statename": "RAJASTHAN"
  },
  {
    "pincode": "312603",
    "officename": "Napawali B.O",
    "officeType": "B.O",
    "Deliverystatus": "Delivery",
    "divisionname": "Chittorgarh",
    "regionname": "Ajmer",
    "circlename": "Rajasthan",
    "Taluk": "Bari Sadari",
    "Districtname": "Chittorgarh",
    "statename": "RAJASTHAN"
  },
  {
    "pincode": "312603",
    "officename": "Nikumbh S.O",
    "officeType": "S.O",
    "Deliverystatus": "Delivery",
    "divisionname": "Chittorgarh",
    "regionname": "Ajmer",
    "circlename": "Rajasthan",
    "Taluk": "Barisadari",
    "Districtname": "Chittorgarh",
    "statename": "RAJASTHAN"
  },
  {
    "pincode": "312603",
    "officename": "Peend B.O",
    "officeType": "B.O",
    "Deliverystatus": "Delivery",
    "divisionname": "Chittorgarh",
    "regionname": "Ajmer",
    "circlename": "Rajasthan",
    "Taluk": "Bari Sadari",
    "Districtname": "Chittorgarh",
    "statename": "RAJASTHAN"
  },
  {
    "pincode": "312603",
    "officename": "Punawali B.O",
    "officeType": "B.O",
    "Deliverystatus": "Delivery",
    "divisionname": "Chittorgarh",
    "regionname": "Ajmer",
    "circlename": "Rajasthan",
    "Taluk": "Barisadri",
    "Districtname": "Chittorgarh",
    "statename": "RAJASTHAN"
  },
  {
    "pincode": "312603",
    "officename": "Sadalkhera B.O",
    "officeType": "B.O",
    "Deliverystatus": "Delivery",
    "divisionname": "Chittorgarh",
    "regionname": "Ajmer",
    "circlename": "Rajasthan",
    "Taluk": "Barisadri",
    "Districtname": "Chittorgarh",
    "statename": "RAJASTHAN"
  }
]
