[
  {
    "pincode": "312901",
    "officename": "Bavlas B.O",
    "officeType": "B.O",
    "Deliverystatus": "Delivery",
    "divisionname": "Chittorgarh",
    "regionname": "Ajmer",
    "circlename": "Rajasthan",
    "Taluk": "Gangrar",
    "Districtname": "Chittorgarh",
    "statename": "RAJASTHAN"
  },
  {
    "pincode": "312901",
    "officename": "Bolon Ka Sanwata B.O",
    "officeType": "B.O",
    "Deliverystatus": "Delivery",
    "divisionname": "Chittorgarh",
    "regionname": "Ajmer",
    "circlename": "Rajasthan",
    "Taluk": "Gangrar",
    "Districtname": "Chittorgarh",
    "statename": "RAJASTHAN"
  },
  {
    "pincode": "312901",
    "officename": "Bood B.O",
    "officeType": "B.O",
    "Deliverystatus": "Delivery",
    "divisionname": "Chittorgarh",
    "regionname": "Ajmer",
    "circlename": "Rajasthan",
    "Taluk": "Gangrar",
    "Districtname": "Chittorgarh",
    "statename": "RAJASTHAN"
  },
  {
    "pincode": "312901",
    "officename": "Borda B.O",
    "officeType": "B.O",
    "Deliverystatus": "Delivery",
    "divisionname": "Chittorgarh",
    "regionname": "Ajmer",
    "circlename": "Rajasthan",
    "Taluk": "Gangrar",
    "Districtname": "Chittorgarh",
    "statename": "RAJASTHAN"
  },
  {
    "pincode": "312901",
    "officename": "Chogawadi B.O",
    "officeType": "B.O",
    "Deliverystatus": "Delivery",
    "divisionname": "Chittorgarh",
    "regionname": "Ajmer",
    "circlename": "Rajasthan",
    "Taluk": "Gangrar",
    "Districtname": "Chittorgarh",
    "statename": "RAJASTHAN"
  },
  {
    "pincode": "312901",
    "officename": "Gangrar S.O",
    "officeType": "S.O",
    "Deliverystatus": "Delivery",
    "divisionname": "Chittorgarh",
    "regionname": "Ajmer",
    "circlename": "Rajasthan",
    "Taluk": "Gangrar",
    "Districtname": "Chittorgarh",
    "statename": "RAJASTHAN"
  },
  {
    "pincode": "312901",
    "officename": "Jawasia B.O",
    "officeType": "B.O",
    "Deliverystatus": "Delivery",
    "divisionname": "Chittorgarh",
    "regionname": "Ajmer",
    "circlename": "Rajasthan",
    "Taluk": "Gangrar",
    "Districtname": "Chittorgarh",
    "statename": "RAJASTHAN"
  },
  {
    "pincode": "312901",
    "officename": "Jojron Ka Kheda B.O",
    "officeType": "B.O",
    "Deliverystatus": "Delivery",
    "divisionname": "Chittorgarh",
    "regionname": "Ajmer",
    "circlename": "Rajasthan",
    "Taluk": "Gangrar",
    "Districtname": "Chittorgarh",
    "statename": "RAJASTHAN"
  },
  {
    "pincode": "312901",
    "officename": "Kanti B.O",
    "officeType": "B.O",
    "Deliverystatus": "Delivery",
    "divisionname": "Chittorgarh",
    "regionname": "Ajmer",
    "circlename": "Rajasthan",
    "Taluk": "Gangrar",
    "Districtname": "Chittorgarh",
    "statename": "RAJASTHAN"
  },
  {
    "pincode": "312901",
    "officename": "Kharkhanda B.O",
    "officeType": "B.O",
    "Deliverystatus": "Delivery",
    "divisionname": "Chittorgarh",
    "regionname": "Ajmer",
    "circlename": "Rajasthan",
    "Taluk": "Gangrar",
    "Districtname": "Chittorgarh",
    "statename": "RAJASTHAN"
  },
  {
    "pincode": "312901",
    "officename": "Kunwalia B.O",
    "officeType": "B.O",
    "Deliverystatus": "Delivery",
    "divisionname": "Chittorgarh",
    "regionname": "Ajmer",
    "circlename": "Rajasthan",
    "Taluk": "Gangrar",
    "Districtname": "Chittorgarh",
    "statename": "RAJASTHAN"
  },
  {
    "pincode": "312901",
    "officename": "Mandfiya B.O",
    "officeType": "B.O",
    "Deliverystatus": "Delivery",
    "divisionname": "Chittorgarh",
    "regionname": "Ajmer",
    "circlename": "Rajasthan",
    "Taluk": "Gangrar",
    "Districtname": "Chittorgarh",
    "statename": "RAJASTHAN"
  },
  {
    "pincode": "312901",
    "officename": "Raghunathpura B.O",
    "officeType": "B.O",
    "Deliverystatus": "Delivery",
    "divisionname": "Chittorgarh",
    "regionname": "Ajmer",
    "circlename": "Rajasthan",
    "Taluk": "Gangrar",
    "Districtname": "Chittorgarh",
    "statename": "RAJASTHAN"
  },
  {
    "pincode": "312901",
    "officename": "Rood B.O",
    "officeType": "B.O",
    "Deliverystatus": "Delivery",
    "divisionname": "Chittorgarh",
    "regionname": "Ajmer",
    "circlename": "Rajasthan",
    "Taluk": "Gangrar",
    "Districtname": "Chittorgarh",
    "statename": "RAJASTHAN"
  },
  {
    "pincode": "312901",
    "officename": "Sadas B.O",
    "officeType": "B.O",
    "Deliverystatus": "Delivery",
    "divisionname": "Chittorgarh",
    "regionname": "Ajmer",
    "circlename": "Rajasthan",
    "Taluk": "Gangrar",
    "Districtname": "Chittorgarh",
    "statename": "RAJASTHAN"
  },
  {
    "pincode": "312901",
    "officename": "Sadi B.O",
    "officeType": "B.O",
    "Deliverystatus": "Delivery",
    "divisionname": "Chittorgarh",
    "regionname": "Ajmer",
    "circlename": "Rajasthan",
    "Taluk": "Gangrar",
    "Districtname": "Chittorgarh",
    "statename": "RAJASTHAN"
  },
  {
    "pincode": "312901",
    "officename": "Soniyana B.O",
    "officeType": "B.O",
    "Deliverystatus": "Delivery",
    "divisionname": "Chittorgarh",
    "regionname": "Ajmer",
    "circlename": "Rajasthan",
    "Taluk": "Gangrar",
    "Districtname": "Chittorgarh",
    "statename": "RAJASTHAN"
  },
  {
    "pincode": "312901",
    "officename": "Sudri B.O",
    "officeType": "B.O",
    "Deliverystatus": "Delivery",
    "divisionname": "Chittorgarh",
    "regionname": "Ajmer",
    "circlename": "Rajasthan",
    "Taluk": "Gangrar",
    "Districtname": "Chittorgarh",
    "statename": "RAJASTHAN"
  },
  {
    "pincode": "312901",
    "officename": "Suwania B.O",
    "officeType": "B.O",
    "Deliverystatus": "Delivery",
    "divisionname": "Chittorgarh",
    "regionname": "Ajmer",
    "circlename": "Rajasthan",
    "Taluk": "Gangrar",
    "Districtname": "Chittorgarh",
    "statename": "RAJASTHAN"
  },
  {
    "pincode": "312901",
    "officename": "Tumbadia B.O",
    "officeType": "B.O",
    "Deliverystatus": "Delivery",
    "divisionname": "Chittorgarh",
    "regionname": "Ajmer",
    "circlename": "Rajasthan",
    "Taluk": "Gangrar",
    "Districtname": "Chittorgarh",
    "statename": "RAJASTHAN"
  },
  {
    "pincode": "312901",
    "officename": "Undwa B.O",
    "officeType": "B.O",
    "Deliverystatus": "Delivery",
    "divisionname": "Chittorgarh",
    "regionname": "Ajmer",
    "circlename": "Rajasthan",
    "Taluk": "Gangrar",
    "Districtname": "Chittorgarh",
    "statename": "RAJASTHAN"
  }
]
