[
  {
    "pincode": "313031",
    "officename": "Alsigarh B.O",
    "officeType": "B.O",
    "Deliverystatus": "Delivery",
    "divisionname": "Udaipur",
    "regionname": "Ajmer",
    "circlename": "Rajasthan",
    "Taluk": "Girva",
    "Districtname": "Udaipur",
    "statename": "RAJASTHAN"
  },
  {
    "pincode": "313031",
    "officename": "Baghpura B.O",
    "officeType": "B.O",
    "Deliverystatus": "Delivery",
    "divisionname": "Udaipur",
    "regionname": "Ajmer",
    "circlename": "Rajasthan",
    "Taluk": "Girva",
    "Districtname": "Udaipur",
    "statename": "RAJASTHAN"
  },
  {
    "pincode": "313031",
    "officename": "Bari Undri B.O",
    "officeType": "B.O",
    "Deliverystatus": "Delivery",
    "divisionname": "Udaipur",
    "regionname": "Ajmer",
    "circlename": "Rajasthan",
    "Taluk": "Girva",
    "Districtname": "Udaipur",
    "statename": "RAJASTHAN"
  },
  {
    "pincode": "313031",
    "officename": "Bujhra B.O",
    "officeType": "B.O",
    "Deliverystatus": "Delivery",
    "divisionname": "Udaipur",
    "regionname": "Ajmer",
    "circlename": "Rajasthan",
    "Taluk": "Girva",
    "Districtname": "Udaipur",
    "statename": "RAJASTHAN"
  },
  {
    "pincode": "313031",
    "officename": "Jekra B.O",
    "officeType": "B.O",
    "Deliverystatus": "Delivery",
    "divisionname": "Udaipur",
    "regionname": "Ajmer",
    "circlename": "Rajasthan",
    "Taluk": "Girva",
    "Districtname": "Udaipur",
    "statename": "RAJASTHAN"
  },
  {
    "pincode": "313031",
    "officename": "Madla B.O",
    "officeType": "B.O",
    "Deliverystatus": "Delivery",
    "divisionname": "Udaipur",
    "regionname": "Ajmer",
    "circlename": "Rajasthan",
    "Taluk": "Girva",
    "Districtname": "Udaipur",
    "statename": "RAJASTHAN"
  },
  {
    "pincode": "313031",
    "officename": "Madri B.O",
    "officeType": "B.O",
    "Deliverystatus": "Delivery",
    "divisionname": "Udaipur",
    "regionname": "Ajmer",
    "circlename": "Rajasthan",
    "Taluk": "Girva",
    "Districtname": "Udaipur",
    "statename": "RAJASTHAN"
  },
  {
    "pincode": "313031",
    "officename": "Makradeo B.O",
    "officeType": "B.O",
    "Deliverystatus": "Delivery",
    "divisionname": "Udaipur",
    "regionname": "Ajmer",
    "circlename": "Rajasthan",
    "Taluk": "Girva",
    "Districtname": "Udaipur",
    "statename": "RAJASTHAN"
  },
  {
    "pincode": "313031",
    "officename": "Nai S.O",
    "officeType": "S.O",
    "Deliverystatus": "Delivery",
    "divisionname": "Udaipur",
    "regionname": "Ajmer",
    "circlename": "Rajasthan",
    "Taluk": "Girwa",
    "Districtname": "Udaipur",
    "statename": "RAJASTHAN"
  },
  {
    "pincode": "313031",
    "officename": "Pai B.O",
    "officeType": "B.O",
    "Deliverystatus": "Delivery",
    "divisionname": "Udaipur",
    "regionname": "Ajmer",
    "circlename": "Rajasthan",
    "Taluk": "Girva",
    "Districtname": "Udaipur",
    "statename": "RAJASTHAN"
  },
  {
    "pincode": "313031",
    "officename": "Pipalwara B.O",
    "officeType": "B.O",
    "Deliverystatus": "Delivery",
    "divisionname": "Udaipur",
    "regionname": "Ajmer",
    "circlename": "Rajasthan",
    "Taluk": "Girva",
    "Districtname": "Udaipur",
    "statename": "RAJASTHAN"
  },
  {
    "pincode": "313031",
    "officename": "Saradeet B.O",
    "officeType": "B.O",
    "Deliverystatus": "Delivery",
    "divisionname": "Udaipur",
    "regionname": "Ajmer",
    "circlename": "Rajasthan",
    "Taluk": "Girva",
    "Districtname": "Udaipur",
    "statename": "RAJASTHAN"
  },
  {
    "pincode": "313031",
    "officename": "Sisarma B.O",
    "officeType": "B.O",
    "Deliverystatus": "Delivery",
    "divisionname": "Udaipur",
    "regionname": "Ajmer",
    "circlename": "Rajasthan",
    "Taluk": "Girwa",
    "Districtname": "Udaipur",
    "statename": "RAJASTHAN"
  }
]
