[
  {
    "pincode": "313001",
    "officename": "Balicha B.O",
    "officeType": "B.O",
    "Deliverystatus": "Delivery",
    "divisionname": "Udaipur",
    "regionname": "Ajmer",
    "circlename": "Rajasthan",
    "Taluk": "Girwa",
    "Districtname": "Udaipur",
    "statename": "RAJASTHAN"
  },
  {
    "pincode": "313001",
    "officename": "Bhuwana B.O",
    "officeType": "B.O",
    "Deliverystatus": "Delivery",
    "divisionname": "Udaipur",
    "regionname": "Ajmer",
    "circlename": "Rajasthan",
    "Taluk": "Girwa",
    "Districtname": "Udaipur",
    "statename": "RAJASTHAN"
  },
  {
    "pincode": "313001",
    "officename": "Dakan Kotra B.O",
    "officeType": "B.O",
    "Deliverystatus": "Delivery",
    "divisionname": "Udaipur",
    "regionname": "Ajmer",
    "circlename": "Rajasthan",
    "Taluk": "Girwa",
    "Districtname": "Udaipur",
    "statename": "RAJASTHAN"
  },
  {
    "pincode": "313001",
    "officename": "Dhinkli B.O",
    "officeType": "B.O",
    "Deliverystatus": "Delivery",
    "divisionname": "Udaipur",
    "regionname": "Ajmer",
    "circlename": "Rajasthan",
    "Taluk": "Girwa",
    "Districtname": "Udaipur",
    "statename": "RAJASTHAN"
  },
  {
    "pincode": "313001",
    "officename": "Dhundi B.O",
    "officeType": "B.O",
    "Deliverystatus": "Delivery",
    "divisionname": "Udaipur",
    "regionname": "Ajmer",
    "circlename": "Rajasthan",
    "Taluk": "",
    "Districtname": "Udaipur",
    "statename": "RAJASTHAN"
  },
  {
    "pincode": "313001",
    "officename": "Fatehpur B.O",
    "officeType": "B.O",
    "Deliverystatus": "Delivery",
    "divisionname": "Udaipur",
    "regionname": "Ajmer",
    "circlename": "Rajasthan",
    "Taluk": "Girwa",
    "Districtname": "Udaipur",
    "statename": "RAJASTHAN"
  },
  {
    "pincode": "313001",
    "officename": "Karda B.O",
    "officeType": "B.O",
    "Deliverystatus": "Delivery",
    "divisionname": "Udaipur",
    "regionname": "Ajmer",
    "circlename": "Rajasthan",
    "Taluk": "Girwa",
    "Districtname": "Udaipur",
    "statename": "RAJASTHAN"
  },
  {
    "pincode": "313001",
    "officename": "Kathar B.O",
    "officeType": "B.O",
    "Deliverystatus": "Delivery",
    "divisionname": "Udaipur",
    "regionname": "Ajmer",
    "circlename": "Rajasthan",
    "Taluk": "Girwa",
    "Districtname": "Udaipur",
    "statename": "RAJASTHAN"
  },
  {
    "pincode": "313001",
    "officename": "Kewda Khurd B.O",
    "officeType": "B.O",
    "Deliverystatus": "Delivery",
    "divisionname": "Udaipur",
    "regionname": "Ajmer",
    "circlename": "Rajasthan",
    "Taluk": "Girwa",
    "Districtname": "Udaipur",
    "statename": "RAJASTHAN"
  },
  {
    "pincode": "313001",
    "officename": "Palodara B.O",
    "officeType": "B.O",
    "Deliverystatus": "Delivery",
    "divisionname": "Udaipur",
    "regionname": "Ajmer",
    "circlename": "Rajasthan",
    "Taluk": "Girwa",
    "Districtname": "Udaipur",
    "statename": "RAJASTHAN"
  },
  {
    "pincode": "313001",
    "officename": "Paner B.O",
    "officeType": "B.O",
    "Deliverystatus": "Delivery",
    "divisionname": "Udaipur",
    "regionname": "Ajmer",
    "circlename": "Rajasthan",
    "Taluk": "Girwa",
    "Districtname": "Udaipur",
    "statename": "RAJASTHAN"
  },
  {
    "pincode": "313001",
    "officename": "Piladhar B.O",
    "officeType": "B.O",
    "Deliverystatus": "Delivery",
    "divisionname": "Udaipur",
    "regionname": "Ajmer",
    "circlename": "Rajasthan",
    "Taluk": "Girwa",
    "Districtname": "Udaipur",
    "statename": "RAJASTHAN"
  },
  {
    "pincode": "313001",
    "officename": "Royda B.O",
    "officeType": "B.O",
    "Deliverystatus": "Delivery",
    "divisionname": "Udaipur",
    "regionname": "Ajmer",
    "circlename": "Rajasthan",
    "Taluk": "Girwa",
    "Districtname": "Udaipur",
    "statename": "RAJASTHAN"
  },
  {
    "pincode": "313001",
    "officename": "Saveena B.O",
    "officeType": "B.O",
    "Deliverystatus": "Delivery",
    "divisionname": "Udaipur",
    "regionname": "Ajmer",
    "circlename": "Rajasthan",
    "Taluk": "Girwa",
    "Districtname": "Udaipur",
    "statename": "RAJASTHAN"
  },
  {
    "pincode": "313001",
    "officename": "Titardi B.O",
    "officeType": "B.O",
    "Deliverystatus": "Delivery",
    "divisionname": "Udaipur",
    "regionname": "Ajmer",
    "circlename": "Rajasthan",
    "Taluk": "Girwa",
    "Districtname": "Udaipur",
    "statename": "RAJASTHAN"
  },
  {
    "pincode": "313001",
    "officename": "Udaipur City S.O",
    "officeType": "S.O",
    "Deliverystatus": "Non-Delivery",
    "divisionname": "Udaipur",
    "regionname": "Ajmer",
    "circlename": "Rajasthan",
    "Taluk": "Girwa",
    "Districtname": "Udaipur",
    "statename": "RAJASTHAN"
  },
  {
    "pincode": "313001",
    "officename": "Udaipur Fatehpura S.O",
    "officeType": "S.O",
    "Deliverystatus": "Non-Delivery",
    "divisionname": "Udaipur",
    "regionname": "Ajmer",
    "circlename": "Rajasthan",
    "Taluk": "Girwa",
    "Districtname": "Udaipur",
    "statename": "RAJASTHAN"
  },
  {
    "pincode": "313001",
    "officename": "Udaipur Macchala Magra S.O",
    "officeType": "S.O",
    "Deliverystatus": "Non-Delivery",
    "divisionname": "Udaipur",
    "regionname": "Ajmer",
    "circlename": "Rajasthan",
    "Taluk": "Girwa",
    "Districtname": "Udaipur",
    "statename": "RAJASTHAN"
  },
  {
    "pincode": "313001",
    "officename": "Udaipur Naya Sarafa S.O",
    "officeType": "S.O",
    "Deliverystatus": "Non-Delivery",
    "divisionname": "Udaipur",
    "regionname": "Ajmer",
    "circlename": "Rajasthan",
    "Taluk": "Girwa",
    "Districtname": "Udaipur",
    "statename": "RAJASTHAN"
  },
  {
    "pincode": "313001",
    "officename": "Udaipur Palace Road S.O",
    "officeType": "S.O",
    "Deliverystatus": "Non-Delivery",
    "divisionname": "Udaipur",
    "regionname": "Ajmer",
    "circlename": "Rajasthan",
    "Taluk": "Girwa",
    "Districtname": "Udaipur",
    "statename": "RAJASTHAN"
  },
  {
    "pincode": "313001",
    "officename": "Udaipur Pratapnagar S.O",
    "officeType": "S.O",
    "Deliverystatus": "Non-Delivery",
    "divisionname": "Udaipur",
    "regionname": "Ajmer",
    "circlename": "Rajasthan",
    "Taluk": "Girwa",
    "Districtname": "Udaipur",
    "statename": "RAJASTHAN"
  },
  {
    "pincode": "313001",
    "officename": "Udaipur Railway Station S.O",
    "officeType": "S.O",
    "Deliverystatus": "Non-Delivery",
    "divisionname": "Udaipur",
    "regionname": "Ajmer",
    "circlename": "Rajasthan",
    "Taluk": "Girwa",
    "Districtname": "Udaipur",
    "statename": "RAJASTHAN"
  },
  {
    "pincode": "313001",
    "officename": "Udaipur Rani Road S.O",
    "officeType": "S.O",
    "Deliverystatus": "Non-Delivery",
    "divisionname": "Udaipur",
    "regionname": "Ajmer",
    "circlename": "Rajasthan",
    "Taluk": "Girwa",
    "Districtname": "Udaipur",
    "statename": "RAJASTHAN"
  },
  {
    "pincode": "313001",
    "officename": "Udaipur Shastri Circle S.O",
    "officeType": "S.O",
    "Deliverystatus": "Delivery",
    "divisionname": "Udaipur",
    "regionname": "Ajmer",
    "circlename": "Rajasthan",
    "Taluk": "Girwa",
    "Districtname": "Udaipur",
    "statename": "RAJASTHAN"
  },
  {
    "pincode": "313001",
    "officename": "Udaipur Station Road S.O",
    "officeType": "S.O",
    "Deliverystatus": "Non-Delivery",
    "divisionname": "Udaipur",
    "regionname": "Ajmer",
    "circlename": "Rajasthan",
    "Taluk": "Girwa",
    "Districtname": "Udaipur",
    "statename": "RAJASTHAN"
  },
  {
    "pincode": "313001",
    "officename": "Udaipur Surajpole S.O",
    "officeType": "S.O",
    "Deliverystatus": "Non-Delivery",
    "divisionname": "Udaipur",
    "regionname": "Ajmer",
    "circlename": "Rajasthan",
    "Taluk": "Girwa",
    "Districtname": "Udaipur",
    "statename": "RAJASTHAN"
  },
  {
    "pincode": "313001",
    "officename": "Udaipur University Campus S.O",
    "officeType": "S.O",
    "Deliverystatus": "Non-Delivery",
    "divisionname": "Udaipur",
    "regionname": "Ajmer",
    "circlename": "Rajasthan",
    "Taluk": "Girwa",
    "Districtname": "Udaipur",
    "statename": "RAJASTHAN"
  }
]
