[
  {
    "pincode": "313334",
    "officename": "Aidana B.O",
    "officeType": "B.O",
    "Deliverystatus": "Delivery",
    "divisionname": "Udaipur",
    "regionname": "Ajmer",
    "circlename": "Rajasthan",
    "Taluk": "Rajsamand",
    "Districtname": "Rajsamand",
    "statename": "RAJASTHAN"
  },
  {
    "pincode": "313334",
    "officename": "Antalia B.O",
    "officeType": "B.O",
    "Deliverystatus": "Delivery",
    "divisionname": "Udaipur",
    "regionname": "Ajmer",
    "circlename": "Rajasthan",
    "Taluk": "Rajsamand",
    "Districtname": "Rajsamand",
    "statename": "RAJASTHAN"
  },
  {
    "pincode": "313334",
    "officename": "Atma B.O",
    "officeType": "B.O",
    "Deliverystatus": "Delivery",
    "divisionname": "Udaipur",
    "regionname": "Ajmer",
    "circlename": "Rajasthan",
    "Taluk": "Rajsamand",
    "Districtname": "Rajsamand",
    "statename": "RAJASTHAN"
  },
  {
    "pincode": "313334",
    "officename": "Dhaneen B.O",
    "officeType": "B.O",
    "Deliverystatus": "Delivery",
    "divisionname": "Udaipur",
    "regionname": "Ajmer",
    "circlename": "Rajasthan",
    "Taluk": "Rajsamand",
    "Districtname": "Rajsamand",
    "statename": "RAJASTHAN"
  },
  {
    "pincode": "313334",
    "officename": "Dhanyla B.O",
    "officeType": "B.O",
    "Deliverystatus": "Delivery",
    "divisionname": "Udaipur",
    "regionname": "Ajmer",
    "circlename": "Rajasthan",
    "Taluk": "Rajsamand",
    "Districtname": "Rajsamand",
    "statename": "RAJASTHAN"
  },
  {
    "pincode": "313334",
    "officename": "Jhanjhar B.O",
    "officeType": "B.O",
    "Deliverystatus": "Delivery",
    "divisionname": "Udaipur",
    "regionname": "Ajmer",
    "circlename": "Rajasthan",
    "Taluk": "Rajsamand",
    "Districtname": "Rajsamand",
    "statename": "RAJASTHAN"
  },
  {
    "pincode": "313334",
    "officename": "Kelwa S.O (Rajsamand)",
    "officeType": "S.O",
    "Deliverystatus": "Delivery",
    "divisionname": "Udaipur",
    "regionname": "Ajmer",
    "circlename": "Rajasthan",
    "Taluk": "Rajsamand",
    "Districtname": "Rajsamand",
    "statename": "RAJASTHAN"
  },
  {
    "pincode": "313334",
    "officename": "Khatmala B.O",
    "officeType": "B.O",
    "Deliverystatus": "Delivery",
    "divisionname": "Udaipur",
    "regionname": "Ajmer",
    "circlename": "Rajasthan",
    "Taluk": "Rajsamand",
    "Districtname": "Rajsamand",
    "statename": "RAJASTHAN"
  },
  {
    "pincode": "313334",
    "officename": "Merda Khalsa B.O",
    "officeType": "B.O",
    "Deliverystatus": "Delivery",
    "divisionname": "Udaipur",
    "regionname": "Ajmer",
    "circlename": "Rajasthan",
    "Taluk": "Rajsamand",
    "Districtname": "Rajsamand",
    "statename": "RAJASTHAN"
  },
  {
    "pincode": "313334",
    "officename": "Padasali B.O",
    "officeType": "B.O",
    "Deliverystatus": "Delivery",
    "divisionname": "Udaipur",
    "regionname": "Ajmer",
    "circlename": "Rajasthan",
    "Taluk": "Rajsamand",
    "Districtname": "Rajsamand",
    "statename": "RAJASTHAN"
  },
  {
    "pincode": "313334",
    "officename": "Sapol B.O",
    "officeType": "B.O",
    "Deliverystatus": "Delivery",
    "divisionname": "Udaipur",
    "regionname": "Ajmer",
    "circlename": "Rajasthan",
    "Taluk": "Rajsamand",
    "Districtname": "Rajsamand",
    "statename": "RAJASTHAN"
  },
  {
    "pincode": "313334",
    "officename": "Siyana B.O",
    "officeType": "B.O",
    "Deliverystatus": "Delivery",
    "divisionname": "Udaipur",
    "regionname": "Ajmer",
    "circlename": "Rajasthan",
    "Taluk": "Rajsamand",
    "Districtname": "Rajsamand",
    "statename": "RAJASTHAN"
  },
  {
    "pincode": "313334",
    "officename": "Tansol B.O",
    "officeType": "B.O",
    "Deliverystatus": "Delivery",
    "divisionname": "Udaipur",
    "regionname": "Ajmer",
    "circlename": "Rajasthan",
    "Taluk": "Rajsamand",
    "Districtname": "Rajsamand",
    "statename": "RAJASTHAN"
  },
  {
    "pincode": "313334",
    "officename": "Tunkra B.O",
    "officeType": "B.O",
    "Deliverystatus": "Delivery",
    "divisionname": "Udaipur",
    "regionname": "Ajmer",
    "circlename": "Rajasthan",
    "Taluk": "Rajsamand",
    "Districtname": "Rajsamand",
    "statename": "RAJASTHAN"
  }
]
