[
  {
    "pincode": "313322",
    "officename": "Balicha B.O",
    "officeType": "B.O",
    "Deliverystatus": "Delivery",
    "divisionname": "Udaipur",
    "regionname": "Ajmer",
    "circlename": "Rajasthan",
    "Taluk": "Khamnore",
    "Districtname": "Rajsamand",
    "statename": "RAJASTHAN"
  },
  {
    "pincode": "313322",
    "officename": "Kadmal B.O",
    "officeType": "B.O",
    "Deliverystatus": "Delivery",
    "divisionname": "Udaipur",
    "regionname": "Ajmer",
    "circlename": "Rajasthan",
    "Taluk": "Khamnore",
    "Districtname": "Rajsamand",
    "statename": "RAJASTHAN"
  },
  {
    "pincode": "313322",
    "officename": "Khamnore S.O",
    "officeType": "S.O",
    "Deliverystatus": "Delivery",
    "divisionname": "Udaipur",
    "regionname": "Ajmer",
    "circlename": "Rajasthan",
    "Taluk": "Khamnore",
    "Districtname": "Rajsamand",
    "statename": "RAJASTHAN"
  },
  {
    "pincode": "313322",
    "officename": "Molela B.O",
    "officeType": "B.O",
    "Deliverystatus": "Delivery",
    "divisionname": "Udaipur",
    "regionname": "Ajmer",
    "circlename": "Rajasthan",
    "Taluk": "Khamnore",
    "Districtname": "Rajsamand",
    "statename": "RAJASTHAN"
  },
  {
    "pincode": "313322",
    "officename": "Saloda B.O",
    "officeType": "B.O",
    "Deliverystatus": "Delivery",
    "divisionname": "Udaipur",
    "regionname": "Ajmer",
    "circlename": "Rajasthan",
    "Taluk": "Khamnore",
    "Districtname": "Rajsamand",
    "statename": "RAJASTHAN"
  },
  {
    "pincode": "313322",
    "officename": "Sema B.O",
    "officeType": "B.O",
    "Deliverystatus": "Delivery",
    "divisionname": "Udaipur",
    "regionname": "Ajmer",
    "circlename": "Rajasthan",
    "Taluk": "Khamnore",
    "Districtname": "Rajsamand",
    "statename": "RAJASTHAN"
  },
  {
    "pincode": "313322",
    "officename": "Semal B.O",
    "officeType": "B.O",
    "Deliverystatus": "Delivery",
    "divisionname": "Udaipur",
    "regionname": "Ajmer",
    "circlename": "Rajasthan",
    "Taluk": "Khamnore",
    "Districtname": "Rajsamand",
    "statename": "RAJASTHAN"
  },
  {
    "pincode": "313322",
    "officename": "Unwas B.O",
    "officeType": "B.O",
    "Deliverystatus": "Delivery",
    "divisionname": "Udaipur",
    "regionname": "Ajmer",
    "circlename": "Rajasthan",
    "Taluk": "Khamnore",
    "Districtname": "Rajsamand",
    "statename": "RAJASTHAN"
  },
  {
    "pincode": "313322",
    "officename": "Vati B.O",
    "officeType": "B.O",
    "Deliverystatus": "Delivery",
    "divisionname": "Udaipur",
    "regionname": "Ajmer",
    "circlename": "Rajasthan",
    "Taluk": "Khamnore",
    "Districtname": "Rajsamand",
    "statename": "RAJASTHAN"
  }
]
