[
  {
    "pincode": "313332",
    "officename": "Aagaria B.O",
    "officeType": "B.O",
    "Deliverystatus": "Delivery",
    "divisionname": "Udaipur",
    "regionname": "Ajmer",
    "circlename": "Rajasthan",
    "Taluk": "Amet",
    "Districtname": "Rajsamand",
    "statename": "RAJASTHAN"
  },
  {
    "pincode": "313332",
    "officename": "Bikawas B.O",
    "officeType": "B.O",
    "Deliverystatus": "Delivery",
    "divisionname": "Udaipur",
    "regionname": "Ajmer",
    "circlename": "Rajasthan",
    "Taluk": "Amet",
    "Districtname": "Rajsamand",
    "statename": "RAJASTHAN"
  },
  {
    "pincode": "313332",
    "officename": "Charbhuja Road S.O",
    "officeType": "S.O",
    "Deliverystatus": "Delivery",
    "divisionname": "Udaipur",
    "regionname": "Ajmer",
    "circlename": "Rajasthan",
    "Taluk": "Charbhuja",
    "Districtname": "Rajsamand",
    "statename": "RAJASTHAN"
  },
  {
    "pincode": "313332",
    "officename": "Gosundi B.O",
    "officeType": "B.O",
    "Deliverystatus": "Delivery",
    "divisionname": "Udaipur",
    "regionname": "Ajmer",
    "circlename": "Rajasthan",
    "Taluk": "Amet",
    "Districtname": "Rajsamand",
    "statename": "RAJASTHAN"
  },
  {
    "pincode": "313332",
    "officename": "Goval B.O",
    "officeType": "B.O",
    "Deliverystatus": "Delivery",
    "divisionname": "Udaipur",
    "regionname": "Ajmer",
    "circlename": "Rajasthan",
    "Taluk": "Amet",
    "Districtname": "Rajsamand",
    "statename": "RAJASTHAN"
  },
  {
    "pincode": "313332",
    "officename": "Jeeran B.O",
    "officeType": "B.O",
    "Deliverystatus": "Delivery",
    "divisionname": "Udaipur",
    "regionname": "Ajmer",
    "circlename": "Rajasthan",
    "Taluk": "Amet",
    "Districtname": "Rajsamand",
    "statename": "RAJASTHAN"
  },
  {
    "pincode": "313332",
    "officename": "Khakharmala B.O",
    "officeType": "B.O",
    "Deliverystatus": "Delivery",
    "divisionname": "Udaipur",
    "regionname": "Ajmer",
    "circlename": "Rajasthan",
    "Taluk": "Amet",
    "Districtname": "Rajsamand",
    "statename": "RAJASTHAN"
  },
  {
    "pincode": "313332",
    "officename": "Kuanthal B.O",
    "officeType": "B.O",
    "Deliverystatus": "Delivery",
    "divisionname": "Udaipur",
    "regionname": "Ajmer",
    "circlename": "Rajasthan",
    "Taluk": "Amet",
    "Districtname": "Rajsamand",
    "statename": "RAJASTHAN"
  },
  {
    "pincode": "313332",
    "officename": "Liki B.O",
    "officeType": "B.O",
    "Deliverystatus": "Delivery",
    "divisionname": "Udaipur",
    "regionname": "Ajmer",
    "circlename": "Rajasthan",
    "Taluk": "Amet",
    "Districtname": "Rajsamand",
    "statename": "RAJASTHAN"
  },
  {
    "pincode": "313332",
    "officename": "Mad B.O",
    "officeType": "B.O",
    "Deliverystatus": "Delivery",
    "divisionname": "Udaipur",
    "regionname": "Ajmer",
    "circlename": "Rajasthan",
    "Taluk": "Amet",
    "Districtname": "Rajsamand",
    "statename": "RAJASTHAN"
  },
  {
    "pincode": "313332",
    "officename": "Nanana B.O",
    "officeType": "B.O",
    "Deliverystatus": "Delivery",
    "divisionname": "Udaipur",
    "regionname": "Ajmer",
    "circlename": "Rajasthan",
    "Taluk": "Amet",
    "Districtname": "Rajsamand",
    "statename": "RAJASTHAN"
  },
  {
    "pincode": "313332",
    "officename": "Narana B.O",
    "officeType": "B.O",
    "Deliverystatus": "Delivery",
    "divisionname": "Udaipur",
    "regionname": "Ajmer",
    "circlename": "Rajasthan",
    "Taluk": "Amet",
    "Districtname": "Rajsamand",
    "statename": "RAJASTHAN"
  },
  {
    "pincode": "313332",
    "officename": "Rinchhed B.O",
    "officeType": "B.O",
    "Deliverystatus": "Non-Delivery",
    "divisionname": "Udaipur",
    "regionname": "Ajmer",
    "circlename": "Rajasthan",
    "Taluk": "Amet",
    "Districtname": "Rajsamand",
    "statename": "RAJASTHAN"
  },
  {
    "pincode": "313332",
    "officename": "Selaguda B.O",
    "officeType": "B.O",
    "Deliverystatus": "Delivery",
    "divisionname": "Udaipur",
    "regionname": "Ajmer",
    "circlename": "Rajasthan",
    "Taluk": "Amet",
    "Districtname": "Rajsamand",
    "statename": "RAJASTHAN"
  },
  {
    "pincode": "313332",
    "officename": "Tikar B.O",
    "officeType": "B.O",
    "Deliverystatus": "Delivery",
    "divisionname": "Udaipur",
    "regionname": "Ajmer",
    "circlename": "Rajasthan",
    "Taluk": "Amet",
    "Districtname": "Rajsamand",
    "statename": "RAJASTHAN"
  }
]
