[
  {
    "pincode": "313321",
    "officename": "Bhada Bhanuja B.O",
    "officeType": "B.O",
    "Deliverystatus": "Delivery",
    "divisionname": "Udaipur",
    "regionname": "Ajmer",
    "circlename": "Rajasthan",
    "Taluk": "Nathdwara",
    "Districtname": "Rajsamand",
    "statename": "RAJASTHAN"
  },
  {
    "pincode": "313321",
    "officename": "Bhensa Kamed B.O",
    "officeType": "B.O",
    "Deliverystatus": "Delivery",
    "divisionname": "Udaipur",
    "regionname": "Ajmer",
    "circlename": "Rajasthan",
    "Taluk": "Nathdwara",
    "Districtname": "Rajsamand",
    "statename": "RAJASTHAN"
  },
  {
    "pincode": "313321",
    "officename": "Goanguda S.O",
    "officeType": "S.O",
    "Deliverystatus": "Delivery",
    "divisionname": "Udaipur",
    "regionname": "Ajmer",
    "circlename": "Rajasthan",
    "Taluk": "Nathdwara",
    "Districtname": "Rajsamand",
    "statename": "RAJASTHAN"
  },
  {
    "pincode": "313321",
    "officename": "Jhalon Ki Madar B.O",
    "officeType": "B.O",
    "Deliverystatus": "Delivery",
    "divisionname": "Udaipur",
    "regionname": "Ajmer",
    "circlename": "Rajasthan",
    "Taluk": "Nathdwara",
    "Districtname": "Rajsamand",
    "statename": "RAJASTHAN"
  },
  {
    "pincode": "313321",
    "officename": "Koshiwara B.O",
    "officeType": "B.O",
    "Deliverystatus": "Delivery",
    "divisionname": "Udaipur",
    "regionname": "Ajmer",
    "circlename": "Rajasthan",
    "Taluk": "Nathdwara",
    "Districtname": "Rajsamand",
    "statename": "RAJASTHAN"
  },
  {
    "pincode": "313321",
    "officename": "Machind B.O",
    "officeType": "B.O",
    "Deliverystatus": "Delivery",
    "divisionname": "Udaipur",
    "regionname": "Ajmer",
    "circlename": "Rajasthan",
    "Taluk": "Nathdwara",
    "Districtname": "Rajsamand",
    "statename": "RAJASTHAN"
  },
  {
    "pincode": "313321",
    "officename": "Morcha B.O",
    "officeType": "B.O",
    "Deliverystatus": "Delivery",
    "divisionname": "Udaipur",
    "regionname": "Ajmer",
    "circlename": "Rajasthan",
    "Taluk": "Nathdwara",
    "Districtname": "Rajsamand",
    "statename": "RAJASTHAN"
  },
  {
    "pincode": "313321",
    "officename": "Pipli B.O",
    "officeType": "B.O",
    "Deliverystatus": "Delivery",
    "divisionname": "Udaipur",
    "regionname": "Ajmer",
    "circlename": "Rajasthan",
    "Taluk": "Nathdwara",
    "Districtname": "Rajsamand",
    "statename": "RAJASTHAN"
  },
  {
    "pincode": "313321",
    "officename": "Sameecha B.O",
    "officeType": "B.O",
    "Deliverystatus": "Delivery",
    "divisionname": "Udaipur",
    "regionname": "Ajmer",
    "circlename": "Rajasthan",
    "Taluk": "Nathdwara",
    "Districtname": "Rajsamand",
    "statename": "RAJASTHAN"
  },
  {
    "pincode": "313321",
    "officename": "Usar B.O",
    "officeType": "B.O",
    "Deliverystatus": "Delivery",
    "divisionname": "Udaipur",
    "regionname": "Ajmer",
    "circlename": "Rajasthan",
    "Taluk": "Nathdwara",
    "Districtname": "Rajsamand",
    "statename": "RAJASTHAN"
  }
]
