[
  {
    "pincode": "313703",
    "officename": "Adwas B.O",
    "officeType": "B.O",
    "Deliverystatus": "Delivery",
    "divisionname": "Udaipur",
    "regionname": "Ajmer",
    "circlename": "Rajasthan",
    "Taluk": "Girwa",
    "Districtname": "Udaipur",
    "statename": "RAJASTHAN"
  },
  {
    "pincode": "313703",
    "officename": "Ajbara B.O",
    "officeType": "B.O",
    "Deliverystatus": "Delivery",
    "divisionname": "Udaipur",
    "regionname": "Ajmer",
    "circlename": "Rajasthan",
    "Taluk": "Girwa",
    "Districtname": "Udaipur",
    "statename": "RAJASTHAN"
  },
  {
    "pincode": "313703",
    "officename": "Bemla B.O",
    "officeType": "B.O",
    "Deliverystatus": "Delivery",
    "divisionname": "Udaipur",
    "regionname": "Ajmer",
    "circlename": "Rajasthan",
    "Taluk": "Girwa",
    "Districtname": "Udaipur",
    "statename": "RAJASTHAN"
  },
  {
    "pincode": "313703",
    "officename": "Dantesar B.O",
    "officeType": "B.O",
    "Deliverystatus": "Delivery",
    "divisionname": "Udaipur",
    "regionname": "Ajmer",
    "circlename": "Rajasthan",
    "Taluk": "Girwa",
    "Districtname": "Udaipur",
    "statename": "RAJASTHAN"
  },
  {
    "pincode": "313703",
    "officename": "Jagat B.O",
    "officeType": "B.O",
    "Deliverystatus": "Delivery",
    "divisionname": "Udaipur",
    "regionname": "Ajmer",
    "circlename": "Rajasthan",
    "Taluk": "Girwa",
    "Districtname": "Udaipur",
    "statename": "RAJASTHAN"
  },
  {
    "pincode": "313703",
    "officename": "Jawad B.O",
    "officeType": "B.O",
    "Deliverystatus": "Delivery",
    "divisionname": "Udaipur",
    "regionname": "Ajmer",
    "circlename": "Rajasthan",
    "Taluk": "Girwa",
    "Districtname": "Udaipur",
    "statename": "RAJASTHAN"
  },
  {
    "pincode": "313703",
    "officename": "Kurawar S.O (Udaipur)",
    "officeType": "S.O",
    "Deliverystatus": "Delivery",
    "divisionname": "Udaipur",
    "regionname": "Ajmer",
    "circlename": "Rajasthan",
    "Taluk": "Girwa",
    "Districtname": "Udaipur",
    "statename": "RAJASTHAN"
  },
  {
    "pincode": "313703",
    "officename": "Methudi B.O",
    "officeType": "B.O",
    "Deliverystatus": "Delivery",
    "divisionname": "Udaipur",
    "regionname": "Ajmer",
    "circlename": "Rajasthan",
    "Taluk": "Girwa",
    "Districtname": "Udaipur",
    "statename": "RAJASTHAN"
  },
  {
    "pincode": "313703",
    "officename": "Naijhar B.O",
    "officeType": "B.O",
    "Deliverystatus": "Delivery",
    "divisionname": "Udaipur",
    "regionname": "Ajmer",
    "circlename": "Rajasthan",
    "Taluk": "Girwa",
    "Districtname": "Udaipur",
    "statename": "RAJASTHAN"
  },
  {
    "pincode": "313703",
    "officename": "Semal B.O",
    "officeType": "B.O",
    "Deliverystatus": "Delivery",
    "divisionname": "Udaipur",
    "regionname": "Ajmer",
    "circlename": "Rajasthan",
    "Taluk": "Girwa",
    "Districtname": "Udaipur",
    "statename": "RAJASTHAN"
  },
  {
    "pincode": "313703",
    "officename": "Shishvi B.O",
    "officeType": "B.O",
    "Deliverystatus": "Delivery",
    "divisionname": "Udaipur",
    "regionname": "Ajmer",
    "circlename": "Rajasthan",
    "Taluk": "Girwa",
    "Districtname": "Udaipur",
    "statename": "RAJASTHAN"
  },
  {
    "pincode": "313703",
    "officename": "Wali B.O",
    "officeType": "B.O",
    "Deliverystatus": "Delivery",
    "divisionname": "Udaipur",
    "regionname": "Ajmer",
    "circlename": "Rajasthan",
    "Taluk": "Girwa",
    "Districtname": "Udaipur",
    "statename": "RAJASTHAN"
  }
]
