[
  {
    "pincode": "313708",
    "officename": "Bekria B.O",
    "officeType": "B.O",
    "Deliverystatus": "Delivery",
    "divisionname": "Udaipur",
    "regionname": "Ajmer",
    "circlename": "Rajasthan",
    "Taluk": "Gogunda",
    "Districtname": "Udaipur",
    "statename": "RAJASTHAN"
  },
  {
    "pincode": "313708",
    "officename": "Dhol B.O",
    "officeType": "B.O",
    "Deliverystatus": "Delivery",
    "divisionname": "Udaipur",
    "regionname": "Ajmer",
    "circlename": "Rajasthan",
    "Taluk": "Gogunda",
    "Districtname": "Udaipur",
    "statename": "RAJASTHAN"
  },
  {
    "pincode": "313708",
    "officename": "Gogrood B.O",
    "officeType": "B.O",
    "Deliverystatus": "Delivery",
    "divisionname": "Udaipur",
    "regionname": "Ajmer",
    "circlename": "Rajasthan",
    "Taluk": "Gogunda",
    "Districtname": "Udaipur",
    "statename": "RAJASTHAN"
  },
  {
    "pincode": "313708",
    "officename": "Jaswantgarh B.O",
    "officeType": "B.O",
    "Deliverystatus": "Delivery",
    "divisionname": "Udaipur",
    "regionname": "Ajmer",
    "circlename": "Rajasthan",
    "Taluk": "Gogunda",
    "Districtname": "Udaipur",
    "statename": "RAJASTHAN"
  },
  {
    "pincode": "313708",
    "officename": "Jhadoli B.O",
    "officeType": "B.O",
    "Deliverystatus": "Delivery",
    "divisionname": "Udaipur",
    "regionname": "Ajmer",
    "circlename": "Rajasthan",
    "Taluk": "Gogunda",
    "Districtname": "Udaipur",
    "statename": "RAJASTHAN"
  },
  {
    "pincode": "313708",
    "officename": "Kyari B.O",
    "officeType": "B.O",
    "Deliverystatus": "Delivery",
    "divisionname": "Udaipur",
    "regionname": "Ajmer",
    "circlename": "Rajasthan",
    "Taluk": "Gogunda",
    "Districtname": "Udaipur",
    "statename": "RAJASTHAN"
  },
  {
    "pincode": "313708",
    "officename": "Loharcha B.O",
    "officeType": "B.O",
    "Deliverystatus": "Delivery",
    "divisionname": "Udaipur",
    "regionname": "Ajmer",
    "circlename": "Rajasthan",
    "Taluk": "Gogunda",
    "Districtname": "Udaipur",
    "statename": "RAJASTHAN"
  },
  {
    "pincode": "313708",
    "officename": "Malwa Ka Chora B.O",
    "officeType": "B.O",
    "Deliverystatus": "Delivery",
    "divisionname": "Udaipur",
    "regionname": "Ajmer",
    "circlename": "Rajasthan",
    "Taluk": "Gogunda",
    "Districtname": "Udaipur",
    "statename": "RAJASTHAN"
  },
  {
    "pincode": "313708",
    "officename": "Mewaron Ka Math B.O",
    "officeType": "B.O",
    "Deliverystatus": "Delivery",
    "divisionname": "Udaipur",
    "regionname": "Ajmer",
    "circlename": "Rajasthan",
    "Taluk": "Gogunda",
    "Districtname": "Udaipur",
    "statename": "RAJASTHAN"
  },
  {
    "pincode": "313708",
    "officename": "Nandeshma S.O",
    "officeType": "S.O",
    "Deliverystatus": "Delivery",
    "divisionname": "Udaipur",
    "regionname": "Ajmer",
    "circlename": "Rajasthan",
    "Taluk": "Gogunda",
    "Districtname": "Udaipur",
    "statename": "RAJASTHAN"
  },
  {
    "pincode": "313708",
    "officename": "Pipla B.O",
    "officeType": "B.O",
    "Deliverystatus": "Delivery",
    "divisionname": "Udaipur",
    "regionname": "Ajmer",
    "circlename": "Rajasthan",
    "Taluk": "Gogunda",
    "Districtname": "Udaipur",
    "statename": "RAJASTHAN"
  },
  {
    "pincode": "313708",
    "officename": "Rao Madra B.O",
    "officeType": "B.O",
    "Deliverystatus": "Delivery",
    "divisionname": "Udaipur",
    "regionname": "Ajmer",
    "circlename": "Rajasthan",
    "Taluk": "Gogunda",
    "Districtname": "Udaipur",
    "statename": "RAJASTHAN"
  },
  {
    "pincode": "313708",
    "officename": "Saidem B.O",
    "officeType": "B.O",
    "Deliverystatus": "Delivery",
    "divisionname": "Udaipur",
    "regionname": "Ajmer",
    "circlename": "Rajasthan",
    "Taluk": "Gogunda",
    "Districtname": "Udaipur",
    "statename": "RAJASTHAN"
  },
  {
    "pincode": "313708",
    "officename": "Teja Ka Was B.O",
    "officeType": "B.O",
    "Deliverystatus": "Delivery",
    "divisionname": "Udaipur",
    "regionname": "Ajmer",
    "circlename": "Rajasthan",
    "Taluk": "Gogunda",
    "Districtname": "Udaipur",
    "statename": "RAJASTHAN"
  }
]
