[
  {
    "pincode": "313801",
    "officename": "Barapal B.O",
    "officeType": "B.O",
    "Deliverystatus": "Delivery",
    "divisionname": "Udaipur",
    "regionname": "Ajmer",
    "circlename": "Rajasthan",
    "Taluk": "Kherwara",
    "Districtname": "Udaipur",
    "statename": "RAJASTHAN"
  },
  {
    "pincode": "313801",
    "officename": "Chanawada B.O",
    "officeType": "B.O",
    "Deliverystatus": "Delivery",
    "divisionname": "Udaipur",
    "regionname": "Ajmer",
    "circlename": "Rajasthan",
    "Taluk": "Kherwara",
    "Districtname": "Udaipur",
    "statename": "RAJASTHAN"
  },
  {
    "pincode": "313801",
    "officename": "Kaya B.O",
    "officeType": "B.O",
    "Deliverystatus": "Delivery",
    "divisionname": "Udaipur",
    "regionname": "Ajmer",
    "circlename": "Rajasthan",
    "Taluk": "Kherwara",
    "Districtname": "Udaipur",
    "statename": "RAJASTHAN"
  },
  {
    "pincode": "313801",
    "officename": "Paduna B.O",
    "officeType": "B.O",
    "Deliverystatus": "Delivery",
    "divisionname": "Udaipur",
    "regionname": "Ajmer",
    "circlename": "Rajasthan",
    "Taluk": "Kherwara",
    "Districtname": "Udaipur",
    "statename": "RAJASTHAN"
  },
  {
    "pincode": "313801",
    "officename": "Pal Kharwad B.O",
    "officeType": "B.O",
    "Deliverystatus": "Delivery",
    "divisionname": "Udaipur",
    "regionname": "Ajmer",
    "circlename": "Rajasthan",
    "Taluk": "Kherwara",
    "Districtname": "Udaipur",
    "statename": "RAJASTHAN"
  },
  {
    "pincode": "313801",
    "officename": "Parsad S.O",
    "officeType": "S.O",
    "Deliverystatus": "Delivery",
    "divisionname": "Udaipur",
    "regionname": "Ajmer",
    "circlename": "Rajasthan",
    "Taluk": "Sarara",
    "Districtname": "Udaipur",
    "statename": "RAJASTHAN"
  },
  {
    "pincode": "313801",
    "officename": "Sarupal B.O",
    "officeType": "B.O",
    "Deliverystatus": "Delivery",
    "divisionname": "Udaipur",
    "regionname": "Ajmer",
    "circlename": "Rajasthan",
    "Taluk": "Kherwara",
    "Districtname": "Udaipur",
    "statename": "RAJASTHAN"
  },
  {
    "pincode": "313801",
    "officename": "Tidi B.O",
    "officeType": "B.O",
    "Deliverystatus": "Delivery",
    "divisionname": "Udaipur",
    "regionname": "Ajmer",
    "circlename": "Rajasthan",
    "Taluk": "Kherwara",
    "Districtname": "Udaipur",
    "statename": "RAJASTHAN"
  }
]
