[
  {
    "pincode": "314027",
    "officename": "Ambada B.O",
    "officeType": "B.O",
    "Deliverystatus": "Delivery",
    "divisionname": "Dungarpur",
    "regionname": "Ajmer",
    "circlename": "Rajasthan",
    "Taluk": "",
    "Districtname": "Dungarpur",
    "statename": "RAJASTHAN"
  },
  {
    "pincode": "314027",
    "officename": "Chadoli B.O",
    "officeType": "B.O",
    "Deliverystatus": "Delivery",
    "divisionname": "Dungarpur",
    "regionname": "Ajmer",
    "circlename": "Rajasthan",
    "Taluk": "Dungarpur",
    "Districtname": "Dungarpur",
    "statename": "RAJASTHAN"
  },
  {
    "pincode": "314027",
    "officename": "Daiyana B.O",
    "officeType": "B.O",
    "Deliverystatus": "Delivery",
    "divisionname": "Dungarpur",
    "regionname": "Ajmer",
    "circlename": "Rajasthan",
    "Taluk": "Dungarpur",
    "Districtname": "Dungarpur",
    "statename": "RAJASTHAN"
  },
  {
    "pincode": "314027",
    "officename": "Diwda Chhota B.O",
    "officeType": "B.O",
    "Deliverystatus": "Delivery",
    "divisionname": "Dungarpur",
    "regionname": "Ajmer",
    "circlename": "Rajasthan",
    "Taluk": "Dungarpur",
    "Districtname": "Dungarpur",
    "statename": "RAJASTHAN"
  },
  {
    "pincode": "314027",
    "officename": "Ghata Ka Gaon B.O",
    "officeType": "B.O",
    "Deliverystatus": "Delivery",
    "divisionname": "Dungarpur",
    "regionname": "Ajmer",
    "circlename": "Rajasthan",
    "Taluk": "Dungarpur",
    "Districtname": "Dungarpur",
    "statename": "RAJASTHAN"
  },
  {
    "pincode": "314027",
    "officename": "Ghotad B.O",
    "officeType": "B.O",
    "Deliverystatus": "Delivery",
    "divisionname": "Dungarpur",
    "regionname": "Ajmer",
    "circlename": "Rajasthan",
    "Taluk": "Dungarpur",
    "Districtname": "Dungarpur",
    "statename": "RAJASTHAN"
  },
  {
    "pincode": "314027",
    "officename": "Hadmala B.O",
    "officeType": "B.O",
    "Deliverystatus": "Delivery",
    "divisionname": "Dungarpur",
    "regionname": "Ajmer",
    "circlename": "Rajasthan",
    "Taluk": "Dungarpur",
    "Districtname": "Dungarpur",
    "statename": "RAJASTHAN"
  },
  {
    "pincode": "314027",
    "officename": "Khadagda S.O",
    "officeType": "S.O",
    "Deliverystatus": "Delivery",
    "divisionname": "Dungarpur",
    "regionname": "Ajmer",
    "circlename": "Rajasthan",
    "Taluk": "Dungarpur",
    "Districtname": "Dungarpur",
    "statename": "RAJASTHAN"
  },
  {
    "pincode": "314027",
    "officename": "Leemri B.O",
    "officeType": "B.O",
    "Deliverystatus": "Delivery",
    "divisionname": "Dungarpur",
    "regionname": "Ajmer",
    "circlename": "Rajasthan",
    "Taluk": "Dungarpur",
    "Districtname": "Dungarpur",
    "statename": "RAJASTHAN"
  },
  {
    "pincode": "314027",
    "officename": "Mewara B.O",
    "officeType": "B.O",
    "Deliverystatus": "Delivery",
    "divisionname": "Dungarpur",
    "regionname": "Ajmer",
    "circlename": "Rajasthan",
    "Taluk": "Dungarpur",
    "Districtname": "Dungarpur",
    "statename": "RAJASTHAN"
  },
  {
    "pincode": "314027",
    "officename": "Semlia Ghata B.O",
    "officeType": "B.O",
    "Deliverystatus": "Delivery",
    "divisionname": "Dungarpur",
    "regionname": "Ajmer",
    "circlename": "Rajasthan",
    "Taluk": "Dungarpur",
    "Districtname": "Dungarpur",
    "statename": "RAJASTHAN"
  },
  {
    "pincode": "314027",
    "officename": "Suraj Gaon B.O",
    "officeType": "B.O",
    "Deliverystatus": "Delivery",
    "divisionname": "Dungarpur",
    "regionname": "Ajmer",
    "circlename": "Rajasthan",
    "Taluk": "Dungarpur",
    "Districtname": "Dungarpur",
    "statename": "RAJASTHAN"
  }
]
