[
  {
    "pincode": "314038",
    "officename": "Baroda B.O",
    "officeType": "B.O",
    "Deliverystatus": "Delivery",
    "divisionname": "Dungarpur",
    "regionname": "Ajmer",
    "circlename": "Rajasthan",
    "Taluk": "",
    "Districtname": "Dungarpur",
    "statename": "RAJASTHAN"
  },
  {
    "pincode": "314038",
    "officename": "Bhiyodi B.O",
    "officeType": "B.O",
    "Deliverystatus": "Delivery",
    "divisionname": "Dungarpur",
    "regionname": "Ajmer",
    "circlename": "Rajasthan",
    "Taluk": "",
    "Districtname": "Dungarpur",
    "statename": "RAJASTHAN"
  },
  {
    "pincode": "314038",
    "officename": "Bodigama Kalan B.O",
    "officeType": "B.O",
    "Deliverystatus": "Delivery",
    "divisionname": "Dungarpur",
    "regionname": "Ajmer",
    "circlename": "Rajasthan",
    "Taluk": "",
    "Districtname": "Dungarpur",
    "statename": "RAJASTHAN"
  },
  {
    "pincode": "314038",
    "officename": "Borigama Chhota B.O",
    "officeType": "B.O",
    "Deliverystatus": "Delivery",
    "divisionname": "Dungarpur",
    "regionname": "Ajmer",
    "circlename": "Rajasthan",
    "Taluk": "Dungarpur",
    "Districtname": "Dungarpur",
    "statename": "RAJASTHAN"
  },
  {
    "pincode": "314038",
    "officename": "Ghotada B.O",
    "officeType": "B.O",
    "Deliverystatus": "Delivery",
    "divisionname": "Dungarpur",
    "regionname": "Ajmer",
    "circlename": "Rajasthan",
    "Taluk": "Dungarpur",
    "Districtname": "Dungarpur",
    "statename": "RAJASTHAN"
  },
  {
    "pincode": "314038",
    "officename": "Jhariyana B.O",
    "officeType": "B.O",
    "Deliverystatus": "Delivery",
    "divisionname": "Dungarpur",
    "regionname": "Ajmer",
    "circlename": "Rajasthan",
    "Taluk": "Dungarpur",
    "Districtname": "Dungarpur",
    "statename": "RAJASTHAN"
  },
  {
    "pincode": "314038",
    "officename": "Kabja B.O",
    "officeType": "B.O",
    "Deliverystatus": "Delivery",
    "divisionname": "Dungarpur",
    "regionname": "Ajmer",
    "circlename": "Rajasthan",
    "Taluk": "Dungarpur",
    "Districtname": "Dungarpur",
    "statename": "RAJASTHAN"
  },
  {
    "pincode": "314038",
    "officename": "Katisor B.O",
    "officeType": "B.O",
    "Deliverystatus": "Delivery",
    "divisionname": "Dungarpur",
    "regionname": "Ajmer",
    "circlename": "Rajasthan",
    "Taluk": "Dungarpur",
    "Districtname": "Dungarpur",
    "statename": "RAJASTHAN"
  },
  {
    "pincode": "314038",
    "officename": "Lalpani B.O",
    "officeType": "B.O",
    "Deliverystatus": "Delivery",
    "divisionname": "Dungarpur",
    "regionname": "Ajmer",
    "circlename": "Rajasthan",
    "Taluk": "Dungarpur",
    "Districtname": "Dungarpur",
    "statename": "RAJASTHAN"
  },
  {
    "pincode": "314038",
    "officename": "Mal B.O",
    "officeType": "B.O",
    "Deliverystatus": "Delivery",
    "divisionname": "Dungarpur",
    "regionname": "Ajmer",
    "circlename": "Rajasthan",
    "Taluk": "Dungarpur",
    "Districtname": "Dungarpur",
    "statename": "RAJASTHAN"
  },
  {
    "pincode": "314038",
    "officename": "Pachalasa Bada B.O",
    "officeType": "B.O",
    "Deliverystatus": "Delivery",
    "divisionname": "Dungarpur",
    "regionname": "Ajmer",
    "circlename": "Rajasthan",
    "Taluk": "Dungarpur",
    "Districtname": "Dungarpur",
    "statename": "RAJASTHAN"
  },
  {
    "pincode": "314038",
    "officename": "Pachlasa Chhota B.O",
    "officeType": "B.O",
    "Deliverystatus": "Delivery",
    "divisionname": "Dungarpur",
    "regionname": "Ajmer",
    "circlename": "Rajasthan",
    "Taluk": "Dungarpur",
    "Districtname": "Dungarpur",
    "statename": "RAJASTHAN"
  },
  {
    "pincode": "314038",
    "officename": "Punjpur S.O",
    "officeType": "S.O",
    "Deliverystatus": "Delivery",
    "divisionname": "Dungarpur",
    "regionname": "Ajmer",
    "circlename": "Rajasthan",
    "Taluk": "Dungarpur",
    "Districtname": "Dungarpur",
    "statename": "RAJASTHAN"
  },
  {
    "pincode": "314038",
    "officename": "Vasunder Chhoti B.O",
    "officeType": "B.O",
    "Deliverystatus": "Delivery",
    "divisionname": "Dungarpur",
    "regionname": "Ajmer",
    "circlename": "Rajasthan",
    "Taluk": "Dungarpur",
    "Districtname": "Dungarpur",
    "statename": "RAJASTHAN"
  }
]
