[
  {
    "pincode": "314030",
    "officename": "Ambada B.O",
    "officeType": "B.O",
    "Deliverystatus": "Delivery",
    "divisionname": "Dungarpur",
    "regionname": "Ajmer",
    "circlename": "Rajasthan",
    "Taluk": "Dungarpur",
    "Districtname": "Dungarpur",
    "statename": "RAJASTHAN"
  },
  {
    "pincode": "314030",
    "officename": "Badgama B.O",
    "officeType": "B.O",
    "Deliverystatus": "Delivery",
    "divisionname": "Dungarpur",
    "regionname": "Ajmer",
    "circlename": "Rajasthan",
    "Taluk": "Dungarpur",
    "Districtname": "Dungarpur",
    "statename": "RAJASTHAN"
  },
  {
    "pincode": "314030",
    "officename": "Bawadi B.O",
    "officeType": "B.O",
    "Deliverystatus": "Delivery",
    "divisionname": "Dungarpur",
    "regionname": "Ajmer",
    "circlename": "Rajasthan",
    "Taluk": "Dungarpur",
    "Districtname": "Dungarpur",
    "statename": "RAJASTHAN"
  },
  {
    "pincode": "314030",
    "officename": "Chikhli S.O (Dungarpur)",
    "officeType": "S.O",
    "Deliverystatus": "Delivery",
    "divisionname": "Dungarpur",
    "regionname": "Ajmer",
    "circlename": "Rajasthan",
    "Taluk": "Dungarpur",
    "Districtname": "Dungarpur",
    "statename": "RAJASTHAN"
  },
  {
    "pincode": "314030",
    "officename": "Dhangaon B.O",
    "officeType": "B.O",
    "Deliverystatus": "Delivery",
    "divisionname": "Dungarpur",
    "regionname": "Ajmer",
    "circlename": "Rajasthan",
    "Taluk": "Dungarpur",
    "Districtname": "Dungarpur",
    "statename": "RAJASTHAN"
  },
  {
    "pincode": "314030",
    "officename": "Doongar B.O",
    "officeType": "B.O",
    "Deliverystatus": "Delivery",
    "divisionname": "Dungarpur",
    "regionname": "Ajmer",
    "circlename": "Rajasthan",
    "Taluk": "Dungarpur",
    "Districtname": "Dungarpur",
    "statename": "RAJASTHAN"
  },
  {
    "pincode": "314030",
    "officename": "Dungarsaran B.O",
    "officeType": "B.O",
    "Deliverystatus": "Delivery",
    "divisionname": "Dungarpur",
    "regionname": "Ajmer",
    "circlename": "Rajasthan",
    "Taluk": "Dungarpur",
    "Districtname": "Dungarpur",
    "statename": "RAJASTHAN"
  },
  {
    "pincode": "314030",
    "officename": "Gara Mertiya B.O",
    "officeType": "B.O",
    "Deliverystatus": "Delivery",
    "divisionname": "Dungarpur",
    "regionname": "Ajmer",
    "circlename": "Rajasthan",
    "Taluk": "Dungarpur",
    "Districtname": "Dungarpur",
    "statename": "RAJASTHAN"
  },
  {
    "pincode": "314030",
    "officename": "Gariyata B.O",
    "officeType": "B.O",
    "Deliverystatus": "Delivery",
    "divisionname": "Dungarpur",
    "regionname": "Ajmer",
    "circlename": "Rajasthan",
    "Taluk": "Dungarpur",
    "Districtname": "Dungarpur",
    "statename": "RAJASTHAN"
  },
  {
    "pincode": "314030",
    "officename": "Gundlara B.O",
    "officeType": "B.O",
    "Deliverystatus": "Delivery",
    "divisionname": "Dungarpur",
    "regionname": "Ajmer",
    "circlename": "Rajasthan",
    "Taluk": "Dungarpur",
    "Districtname": "Dungarpur",
    "statename": "RAJASTHAN"
  },
  {
    "pincode": "314030",
    "officename": "Jasela B.O",
    "officeType": "B.O",
    "Deliverystatus": "Delivery",
    "divisionname": "Dungarpur",
    "regionname": "Ajmer",
    "circlename": "Rajasthan",
    "Taluk": "Dungarpur",
    "Districtname": "Dungarpur",
    "statename": "RAJASTHAN"
  },
  {
    "pincode": "314030",
    "officename": "Kherasa B.O",
    "officeType": "B.O",
    "Deliverystatus": "Delivery",
    "divisionname": "Dungarpur",
    "regionname": "Ajmer",
    "circlename": "Rajasthan",
    "Taluk": "Dungarpur",
    "Districtname": "Dungarpur",
    "statename": "RAJASTHAN"
  },
  {
    "pincode": "314030",
    "officename": "Kochri B.O",
    "officeType": "B.O",
    "Deliverystatus": "Delivery",
    "divisionname": "Dungarpur",
    "regionname": "Ajmer",
    "circlename": "Rajasthan",
    "Taluk": "Dungarpur",
    "Districtname": "Dungarpur",
    "statename": "RAJASTHAN"
  },
  {
    "pincode": "314030",
    "officename": "Kuwan B.O",
    "officeType": "B.O",
    "Deliverystatus": "Delivery",
    "divisionname": "Dungarpur",
    "regionname": "Ajmer",
    "circlename": "Rajasthan",
    "Taluk": "Dungarpur",
    "Districtname": "Dungarpur",
    "statename": "RAJASTHAN"
  },
  {
    "pincode": "314030",
    "officename": "Nandia B.O",
    "officeType": "B.O",
    "Deliverystatus": "Delivery",
    "divisionname": "Dungarpur",
    "regionname": "Ajmer",
    "circlename": "Rajasthan",
    "Taluk": "Dungarpur",
    "Districtname": "Dungarpur",
    "statename": "RAJASTHAN"
  },
  {
    "pincode": "314030",
    "officename": "Panch Kundli B.O",
    "officeType": "B.O",
    "Deliverystatus": "Delivery",
    "divisionname": "Dungarpur",
    "regionname": "Ajmer",
    "circlename": "Rajasthan",
    "Taluk": "Dungarpur",
    "Districtname": "Dungarpur",
    "statename": "RAJASTHAN"
  },
  {
    "pincode": "314030",
    "officename": "Ramsore B.O",
    "officeType": "B.O",
    "Deliverystatus": "Delivery",
    "divisionname": "Dungarpur",
    "regionname": "Ajmer",
    "circlename": "Rajasthan",
    "Taluk": "Dungarpur",
    "Districtname": "Dungarpur",
    "statename": "RAJASTHAN"
  },
  {
    "pincode": "314030",
    "officename": "Rathari B.O",
    "officeType": "B.O",
    "Deliverystatus": "Delivery",
    "divisionname": "Dungarpur",
    "regionname": "Ajmer",
    "circlename": "Rajasthan",
    "Taluk": "Dungarpur",
    "Districtname": "Dungarpur",
    "statename": "RAJASTHAN"
  },
  {
    "pincode": "314030",
    "officename": "Saleda B.O",
    "officeType": "B.O",
    "Deliverystatus": "Delivery",
    "divisionname": "Dungarpur",
    "regionname": "Ajmer",
    "circlename": "Rajasthan",
    "Taluk": "Dungarpur",
    "Districtname": "Dungarpur",
    "statename": "RAJASTHAN"
  },
  {
    "pincode": "314030",
    "officename": "Sendola B.O",
    "officeType": "B.O",
    "Deliverystatus": "Delivery",
    "divisionname": "Dungarpur",
    "regionname": "Ajmer",
    "circlename": "Rajasthan",
    "Taluk": "Dungarpur",
    "Districtname": "Dungarpur",
    "statename": "RAJASTHAN"
  },
  {
    "pincode": "314030",
    "officename": "Tamboliya B.O",
    "officeType": "B.O",
    "Deliverystatus": "Delivery",
    "divisionname": "Dungarpur",
    "regionname": "Ajmer",
    "circlename": "Rajasthan",
    "Taluk": "Dungarpur",
    "Districtname": "Dungarpur",
    "statename": "RAJASTHAN"
  }
]
