[
  {
    "pincode": "314036",
    "officename": "Asela B.O",
    "officeType": "B.O",
    "Deliverystatus": "Delivery",
    "divisionname": "Dungarpur",
    "regionname": "Ajmer",
    "circlename": "Rajasthan",
    "Taluk": "",
    "Districtname": "Dungarpur",
    "statename": "RAJASTHAN"
  },
  {
    "pincode": "314036",
    "officename": "Damdi S.O",
    "officeType": "S.O",
    "Deliverystatus": "Delivery",
    "divisionname": "Dungarpur",
    "regionname": "Ajmer",
    "circlename": "Rajasthan",
    "Taluk": "Dungarpur",
    "Districtname": "Dungarpur",
    "statename": "RAJASTHAN"
  },
  {
    "pincode": "314036",
    "officename": "Dhavri B.O",
    "officeType": "B.O",
    "Deliverystatus": "Delivery",
    "divisionname": "Dungarpur",
    "regionname": "Ajmer",
    "circlename": "Rajasthan",
    "Taluk": "Dungarpur",
    "Districtname": "Dungarpur",
    "statename": "RAJASTHAN"
  },
  {
    "pincode": "314036",
    "officename": "Dowda B.O",
    "officeType": "B.O",
    "Deliverystatus": "Delivery",
    "divisionname": "Dungarpur",
    "regionname": "Ajmer",
    "circlename": "Rajasthan",
    "Taluk": "Dungarpur",
    "Districtname": "Dungarpur",
    "statename": "RAJASTHAN"
  },
  {
    "pincode": "314036",
    "officename": "Gada Moriya B.O",
    "officeType": "B.O",
    "Deliverystatus": "Delivery",
    "divisionname": "Dungarpur",
    "regionname": "Ajmer",
    "circlename": "Rajasthan",
    "Taluk": "Dungarpur",
    "Districtname": "Dungarpur",
    "statename": "RAJASTHAN"
  },
  {
    "pincode": "314036",
    "officename": "Kheda Kachawasa B.O",
    "officeType": "B.O",
    "Deliverystatus": "Delivery",
    "divisionname": "Dungarpur",
    "regionname": "Ajmer",
    "circlename": "Rajasthan",
    "Taluk": "Dungarpur",
    "Districtname": "Dungarpur",
    "statename": "RAJASTHAN"
  },
  {
    "pincode": "314036",
    "officename": "Kherwara Sulai B.O",
    "officeType": "B.O",
    "Deliverystatus": "Delivery",
    "divisionname": "Dungarpur",
    "regionname": "Ajmer",
    "circlename": "Rajasthan",
    "Taluk": "Dungarpur",
    "Districtname": "Dungarpur",
    "statename": "RAJASTHAN"
  },
  {
    "pincode": "314036",
    "officename": "Naraniya B.O",
    "officeType": "B.O",
    "Deliverystatus": "Delivery",
    "divisionname": "Dungarpur",
    "regionname": "Ajmer",
    "circlename": "Rajasthan",
    "Taluk": "Dungarpur",
    "Districtname": "Dungarpur",
    "statename": "RAJASTHAN"
  },
  {
    "pincode": "314036",
    "officename": "Pagara B.O",
    "officeType": "B.O",
    "Deliverystatus": "Delivery",
    "divisionname": "Dungarpur",
    "regionname": "Ajmer",
    "circlename": "Rajasthan",
    "Taluk": "Dungarpur",
    "Districtname": "Dungarpur",
    "statename": "RAJASTHAN"
  },
  {
    "pincode": "314036",
    "officename": "Paldhara B.O",
    "officeType": "B.O",
    "Deliverystatus": "Delivery",
    "divisionname": "Dungarpur",
    "regionname": "Ajmer",
    "circlename": "Rajasthan",
    "Taluk": "Dungarpur",
    "Districtname": "Dungarpur",
    "statename": "RAJASTHAN"
  },
  {
    "pincode": "314036",
    "officename": "Underda B.O",
    "officeType": "B.O",
    "Deliverystatus": "Delivery",
    "divisionname": "Dungarpur",
    "regionname": "Ajmer",
    "circlename": "Rajasthan",
    "Taluk": "Dungarpur",
    "Districtname": "Dungarpur",
    "statename": "RAJASTHAN"
  },
  {
    "pincode": "314036",
    "officename": "Upergaon B.O",
    "officeType": "B.O",
    "Deliverystatus": "Delivery",
    "divisionname": "Dungarpur",
    "regionname": "Ajmer",
    "circlename": "Rajasthan",
    "Taluk": "Dungarpur",
    "Districtname": "Dungarpur",
    "statename": "RAJASTHAN"
  },
  {
    "pincode": "314036",
    "officename": "Vassi B.O",
    "officeType": "B.O",
    "Deliverystatus": "Delivery",
    "divisionname": "Dungarpur",
    "regionname": "Ajmer",
    "circlename": "Rajasthan",
    "Taluk": "Dungarpur",
    "Districtname": "Dungarpur",
    "statename": "RAJASTHAN"
  }
]
