[
  {
    "pincode": "314034",
    "officename": "Bhojato Ka Oda B.O",
    "officeType": "B.O",
    "Deliverystatus": "Delivery",
    "divisionname": "Dungarpur",
    "regionname": "Ajmer",
    "circlename": "Rajasthan",
    "Taluk": "Dungarpur",
    "Districtname": "Dungarpur",
    "statename": "RAJASTHAN"
  },
  {
    "pincode": "314034",
    "officename": "Deosomnath B.O",
    "officeType": "B.O",
    "Deliverystatus": "Delivery",
    "divisionname": "Dungarpur",
    "regionname": "Ajmer",
    "circlename": "Rajasthan",
    "Taluk": "Dungarpur",
    "Districtname": "Dungarpur",
    "statename": "RAJASTHAN"
  },
  {
    "pincode": "314034",
    "officename": "Devla B.O",
    "officeType": "B.O",
    "Deliverystatus": "Delivery",
    "divisionname": "Dungarpur",
    "regionname": "Ajmer",
    "circlename": "Rajasthan",
    "Taluk": "Dungarpur",
    "Districtname": "Dungarpur",
    "statename": "RAJASTHAN"
  },
  {
    "pincode": "314034",
    "officename": "Dhatana B.O",
    "officeType": "B.O",
    "Deliverystatus": "Delivery",
    "divisionname": "Dungarpur",
    "regionname": "Ajmer",
    "circlename": "Rajasthan",
    "Taluk": "Dungarpur",
    "Districtname": "Dungarpur",
    "statename": "RAJASTHAN"
  },
  {
    "pincode": "314034",
    "officename": "Falonj B.O",
    "officeType": "B.O",
    "Deliverystatus": "Delivery",
    "divisionname": "Dungarpur",
    "regionname": "Ajmer",
    "circlename": "Rajasthan",
    "Taluk": "Dungarpur",
    "Districtname": "Dungarpur",
    "statename": "RAJASTHAN"
  },
  {
    "pincode": "314034",
    "officename": "Ganeshpur B.O",
    "officeType": "B.O",
    "Deliverystatus": "Delivery",
    "divisionname": "Dungarpur",
    "regionname": "Ajmer",
    "circlename": "Rajasthan",
    "Taluk": "Dungarpur",
    "Districtname": "Dungarpur",
    "statename": "RAJASTHAN"
  },
  {
    "pincode": "314034",
    "officename": "Hathai B.O",
    "officeType": "B.O",
    "Deliverystatus": "Delivery",
    "divisionname": "Dungarpur",
    "regionname": "Ajmer",
    "circlename": "Rajasthan",
    "Taluk": "Dungarpur",
    "Districtname": "Dungarpur",
    "statename": "RAJASTHAN"
  },
  {
    "pincode": "314034",
    "officename": "Indora B.O",
    "officeType": "B.O",
    "Deliverystatus": "Delivery",
    "divisionname": "Dungarpur",
    "regionname": "Ajmer",
    "circlename": "Rajasthan",
    "Taluk": "Dungarpur",
    "Districtname": "Dungarpur",
    "statename": "RAJASTHAN"
  },
  {
    "pincode": "314034",
    "officename": "Kanthari B.O",
    "officeType": "B.O",
    "Deliverystatus": "Delivery",
    "divisionname": "Dungarpur",
    "regionname": "Ajmer",
    "circlename": "Rajasthan",
    "Taluk": "Dungarpur",
    "Districtname": "Dungarpur",
    "statename": "RAJASTHAN"
  },
  {
    "pincode": "314034",
    "officename": "Kareliya B.O",
    "officeType": "B.O",
    "Deliverystatus": "Delivery",
    "divisionname": "Dungarpur",
    "regionname": "Ajmer",
    "circlename": "Rajasthan",
    "Taluk": "",
    "Districtname": "Dungarpur",
    "statename": "RAJASTHAN"
  },
  {
    "pincode": "314034",
    "officename": "Khampur B.O",
    "officeType": "B.O",
    "Deliverystatus": "Delivery",
    "divisionname": "Dungarpur",
    "regionname": "Ajmer",
    "circlename": "Rajasthan",
    "Taluk": "Dungarpur",
    "Districtname": "Dungarpur",
    "statename": "RAJASTHAN"
  },
  {
    "pincode": "314034",
    "officename": "Kheda Samor B.O",
    "officeType": "B.O",
    "Deliverystatus": "Delivery",
    "divisionname": "Dungarpur",
    "regionname": "Ajmer",
    "circlename": "Rajasthan",
    "Taluk": "Dungarpur",
    "Districtname": "Dungarpur",
    "statename": "RAJASTHAN"
  },
  {
    "pincode": "314034",
    "officename": "Odwariya B.O",
    "officeType": "B.O",
    "Deliverystatus": "Delivery",
    "divisionname": "Dungarpur",
    "regionname": "Ajmer",
    "circlename": "Rajasthan",
    "Taluk": "Dungarpur",
    "Districtname": "Dungarpur",
    "statename": "RAJASTHAN"
  },
  {
    "pincode": "314034",
    "officename": "Parda Thoor B.O",
    "officeType": "B.O",
    "Deliverystatus": "Delivery",
    "divisionname": "Dungarpur",
    "regionname": "Ajmer",
    "circlename": "Rajasthan",
    "Taluk": "Dungarpur",
    "Districtname": "Dungarpur",
    "statename": "RAJASTHAN"
  },
  {
    "pincode": "314034",
    "officename": "Ragunathpura B.O",
    "officeType": "B.O",
    "Deliverystatus": "Delivery",
    "divisionname": "Dungarpur",
    "regionname": "Ajmer",
    "circlename": "Rajasthan",
    "Taluk": "Dungarpur",
    "Districtname": "Dungarpur",
    "statename": "RAJASTHAN"
  },
  {
    "pincode": "314034",
    "officename": "Ramgarh S.O (Dungarpur)",
    "officeType": "S.O",
    "Deliverystatus": "Delivery",
    "divisionname": "Dungarpur",
    "regionname": "Ajmer",
    "circlename": "Rajasthan",
    "Taluk": "Dungarpur",
    "Districtname": "Dungarpur",
    "statename": "RAJASTHAN"
  },
  {
    "pincode": "314034",
    "officename": "Sakani B.O",
    "officeType": "B.O",
    "Deliverystatus": "Delivery",
    "divisionname": "Dungarpur",
    "regionname": "Ajmer",
    "circlename": "Rajasthan",
    "Taluk": "Dungarpur",
    "Districtname": "Dungarpur",
    "statename": "RAJASTHAN"
  },
  {
    "pincode": "314034",
    "officename": "Savgarh B.O",
    "officeType": "B.O",
    "Deliverystatus": "Delivery",
    "divisionname": "Dungarpur",
    "regionname": "Ajmer",
    "circlename": "Rajasthan",
    "Taluk": "Dungarpur",
    "Districtname": "Dungarpur",
    "statename": "RAJASTHAN"
  },
  {
    "pincode": "314034",
    "officename": "Thoorkipal B.O",
    "officeType": "B.O",
    "Deliverystatus": "Delivery",
    "divisionname": "Dungarpur",
    "regionname": "Ajmer",
    "circlename": "Rajasthan",
    "Taluk": "Dungarpur",
    "Districtname": "Dungarpur",
    "statename": "RAJASTHAN"
  }
]
