[
  {
    "pincode": "321025",
    "officename": "Ajan B.O",
    "officeType": "B.O",
    "Deliverystatus": "Delivery",
    "divisionname": "Bharatpur",
    "regionname": "Jaipur HQ",
    "circlename": "Rajasthan",
    "Taluk": "Bharatpur",
    "Districtname": "Bharatpur",
    "statename": "RAJASTHAN"
  },
  {
    "pincode": "321025",
    "officename": "Bilothi B.O",
    "officeType": "B.O",
    "Deliverystatus": "Delivery",
    "divisionname": "Bharatpur",
    "regionname": "Jaipur HQ",
    "circlename": "Rajasthan",
    "Taluk": "Bharatpur",
    "Districtname": "Bharatpur",
    "statename": "RAJASTHAN"
  },
  {
    "pincode": "321025",
    "officename": "Dhormui B.O",
    "officeType": "B.O",
    "Deliverystatus": "Delivery",
    "divisionname": "Bharatpur",
    "regionname": "Jaipur HQ",
    "circlename": "Rajasthan",
    "Taluk": "Bharatpur",
    "Districtname": "Bharatpur",
    "statename": "RAJASTHAN"
  },
  {
    "pincode": "321025",
    "officename": "Jatoli Rathbhan B.O",
    "officeType": "B.O",
    "Deliverystatus": "Delivery",
    "divisionname": "Bharatpur",
    "regionname": "Jaipur HQ",
    "circlename": "Rajasthan",
    "Taluk": "Bharatpur",
    "Districtname": "Bharatpur",
    "statename": "RAJASTHAN"
  },
  {
    "pincode": "321025",
    "officename": "Moroli Kalan B.O",
    "officeType": "B.O",
    "Deliverystatus": "Delivery",
    "divisionname": "Bharatpur",
    "regionname": "Jaipur HQ",
    "circlename": "Rajasthan",
    "Taluk": "Bharatpur",
    "Districtname": "Bharatpur",
    "statename": "RAJASTHAN"
  },
  {
    "pincode": "321025",
    "officename": "Rareh S.O",
    "officeType": "S.O",
    "Deliverystatus": "Delivery",
    "divisionname": "Bharatpur",
    "regionname": "Jaipur HQ",
    "circlename": "Rajasthan",
    "Taluk": "Bharatpur",
    "Districtname": "Bharatpur",
    "statename": "RAJASTHAN"
  },
  {
    "pincode": "321025",
    "officename": "Santruk B.O",
    "officeType": "B.O",
    "Deliverystatus": "Delivery",
    "divisionname": "Bharatpur",
    "regionname": "Jaipur HQ",
    "circlename": "Rajasthan",
    "Taluk": "Bharatpur",
    "Districtname": "Bharatpur",
    "statename": "RAJASTHAN"
  },
  {
    "pincode": "321025",
    "officename": "Takha B.O",
    "officeType": "B.O",
    "Deliverystatus": "Delivery",
    "divisionname": "Bharatpur",
    "regionname": "Jaipur HQ",
    "circlename": "Rajasthan",
    "Taluk": "Bharatpur",
    "Districtname": "Bharatpur",
    "statename": "RAJASTHAN"
  }
]
