[
  {
    "pincode": "321026",
    "officename": "Baben B.O",
    "officeType": "B.O",
    "Deliverystatus": "Delivery",
    "divisionname": "Bharatpur",
    "regionname": "Jaipur HQ",
    "circlename": "Rajasthan",
    "Taluk": "Bharatpur",
    "Districtname": "Bharatpur",
    "statename": "RAJASTHAN"
  },
  {
    "pincode": "321026",
    "officename": "Bhandore B.O",
    "officeType": "B.O",
    "Deliverystatus": "Delivery",
    "divisionname": "Bharatpur",
    "regionname": "Jaipur HQ",
    "circlename": "Rajasthan",
    "Taluk": "Bharatpur",
    "Districtname": "Bharatpur",
    "statename": "RAJASTHAN"
  },
  {
    "pincode": "321026",
    "officename": "Borai B.O",
    "officeType": "B.O",
    "Deliverystatus": "Delivery",
    "divisionname": "Bharatpur",
    "regionname": "Jaipur HQ",
    "circlename": "Rajasthan",
    "Taluk": "Bharatpur",
    "Districtname": "Bharatpur",
    "statename": "RAJASTHAN"
  },
  {
    "pincode": "321026",
    "officename": "Dehra B.O",
    "officeType": "B.O",
    "Deliverystatus": "Delivery",
    "divisionname": "Bharatpur",
    "regionname": "Jaipur HQ",
    "circlename": "Rajasthan",
    "Taluk": "Bharatpur",
    "Districtname": "Bharatpur",
    "statename": "RAJASTHAN"
  },
  {
    "pincode": "321026",
    "officename": "Kanjoli Line S.O",
    "officeType": "S.O",
    "Deliverystatus": "Delivery",
    "divisionname": "Bharatpur",
    "regionname": "Jaipur HQ",
    "circlename": "Rajasthan",
    "Taluk": "Bharatpur",
    "Districtname": "Bharatpur",
    "statename": "RAJASTHAN"
  },
  {
    "pincode": "321026",
    "officename": "Kasoda B.O",
    "officeType": "B.O",
    "Deliverystatus": "Delivery",
    "divisionname": "Bharatpur",
    "regionname": "Jaipur HQ",
    "circlename": "Rajasthan",
    "Taluk": "Bharatpur",
    "Districtname": "Bharatpur",
    "statename": "RAJASTHAN"
  },
  {
    "pincode": "321026",
    "officename": "Madhoni B.O",
    "officeType": "B.O",
    "Deliverystatus": "Delivery",
    "divisionname": "Bharatpur",
    "regionname": "Jaipur HQ",
    "circlename": "Rajasthan",
    "Taluk": "Bharatpur",
    "Districtname": "Bharatpur",
    "statename": "RAJASTHAN"
  },
  {
    "pincode": "321026",
    "officename": "Murwara B.O",
    "officeType": "B.O",
    "Deliverystatus": "Delivery",
    "divisionname": "Bharatpur",
    "regionname": "Jaipur HQ",
    "circlename": "Rajasthan",
    "Taluk": "Bharatpur",
    "Districtname": "Bharatpur",
    "statename": "RAJASTHAN"
  }
]
