[
  {
    "pincode": "321202",
    "officename": "Abhorra B.O",
    "officeType": "B.O",
    "Deliverystatus": "Delivery",
    "divisionname": "Bharatpur",
    "regionname": "Jaipur HQ",
    "circlename": "Rajasthan",
    "Taluk": "Bharatpur",
    "Districtname": "Bharatpur",
    "statename": "RAJASTHAN"
  },
  {
    "pincode": "321202",
    "officename": "Awar B.O",
    "officeType": "B.O",
    "Deliverystatus": "Delivery",
    "divisionname": "Bharatpur",
    "regionname": "Jaipur HQ",
    "circlename": "Rajasthan",
    "Taluk": "Bharatpur",
    "Districtname": "Bharatpur",
    "statename": "RAJASTHAN"
  },
  {
    "pincode": "321202",
    "officename": "Gunsara B.O",
    "officeType": "B.O",
    "Deliverystatus": "Delivery",
    "divisionname": "Bharatpur",
    "regionname": "Jaipur HQ",
    "circlename": "Rajasthan",
    "Taluk": "Bharatpur",
    "Districtname": "Bharatpur",
    "statename": "RAJASTHAN"
  },
  {
    "pincode": "321202",
    "officename": "Kasot B.O",
    "officeType": "B.O",
    "Deliverystatus": "Delivery",
    "divisionname": "Bharatpur",
    "regionname": "Jaipur HQ",
    "circlename": "Rajasthan",
    "Taluk": "Bharatpur",
    "Districtname": "Bharatpur",
    "statename": "RAJASTHAN"
  },
  {
    "pincode": "321202",
    "officename": "Konrer B.O",
    "officeType": "B.O",
    "Deliverystatus": "Delivery",
    "divisionname": "Bharatpur",
    "regionname": "Jaipur HQ",
    "circlename": "Rajasthan",
    "Taluk": "Bharatpur",
    "Districtname": "Bharatpur",
    "statename": "RAJASTHAN"
  },
  {
    "pincode": "321202",
    "officename": "Penghore S.O",
    "officeType": "S.O",
    "Deliverystatus": "Delivery",
    "divisionname": "Bharatpur",
    "regionname": "Jaipur HQ",
    "circlename": "Rajasthan",
    "Taluk": "Bharatpur",
    "Districtname": "Bharatpur",
    "statename": "RAJASTHAN"
  },
  {
    "pincode": "321202",
    "officename": "Talfara B.O",
    "officeType": "B.O",
    "Deliverystatus": "Delivery",
    "divisionname": "Bharatpur",
    "regionname": "Jaipur HQ",
    "circlename": "Rajasthan",
    "Taluk": "Bharatpur",
    "Districtname": "Bharatpur",
    "statename": "RAJASTHAN"
  },
  {
    "pincode": "321202",
    "officename": "Tamrer B.O",
    "officeType": "B.O",
    "Deliverystatus": "Delivery",
    "divisionname": "Bharatpur",
    "regionname": "Jaipur HQ",
    "circlename": "Rajasthan",
    "Taluk": "Bharatpur",
    "Districtname": "Bharatpur",
    "statename": "RAJASTHAN"
  }
]
