[
  {
    "pincode": "321404",
    "officename": "Chak Samri B.O",
    "officeType": "B.O",
    "Deliverystatus": "Delivery",
    "divisionname": "Dholpur",
    "regionname": "Jaipur HQ",
    "circlename": "Rajasthan",
    "Taluk": "Bayana Mdg",
    "Districtname": "Bharatpur",
    "statename": "RAJASTHAN"
  },
  {
    "pincode": "321404",
    "officename": "Chenkora B.O",
    "officeType": "B.O",
    "Deliverystatus": "Delivery",
    "divisionname": "Dholpur",
    "regionname": "Jaipur HQ",
    "circlename": "Rajasthan",
    "Taluk": "Bayana Mdg",
    "Districtname": "Bharatpur",
    "statename": "RAJASTHAN"
  },
  {
    "pincode": "321404",
    "officename": "Daulat Garh B.O",
    "officeType": "B.O",
    "Deliverystatus": "Delivery",
    "divisionname": "Dholpur",
    "regionname": "Jaipur HQ",
    "circlename": "Rajasthan",
    "Taluk": "Bayana Mdg",
    "Districtname": "Bharatpur",
    "statename": "RAJASTHAN"
  },
  {
    "pincode": "321404",
    "officename": "Dorda B.O",
    "officeType": "B.O",
    "Deliverystatus": "Delivery",
    "divisionname": "Dholpur",
    "regionname": "Jaipur HQ",
    "circlename": "Rajasthan",
    "Taluk": "Bayana Mdg",
    "Districtname": "Bharatpur",
    "statename": "RAJASTHAN"
  },
  {
    "pincode": "321404",
    "officename": "Ibrahimpur B.O",
    "officeType": "B.O",
    "Deliverystatus": "Delivery",
    "divisionname": "Dholpur",
    "regionname": "Jaipur HQ",
    "circlename": "Rajasthan",
    "Taluk": "Bayana Mdg",
    "Districtname": "Bharatpur",
    "statename": "RAJASTHAN"
  },
  {
    "pincode": "321404",
    "officename": "Khan Surjapur B.O",
    "officeType": "B.O",
    "Deliverystatus": "Delivery",
    "divisionname": "Dholpur",
    "regionname": "Jaipur HQ",
    "circlename": "Rajasthan",
    "Taluk": "Bayana Mdg",
    "Districtname": "Bharatpur",
    "statename": "RAJASTHAN"
  },
  {
    "pincode": "321404",
    "officename": "Khanwa B.O",
    "officeType": "B.O",
    "Deliverystatus": "Delivery",
    "divisionname": "Dholpur",
    "regionname": "Jaipur HQ",
    "circlename": "Rajasthan",
    "Taluk": "Bayana Mdg",
    "Districtname": "Bharatpur",
    "statename": "RAJASTHAN"
  },
  {
    "pincode": "321404",
    "officename": "Maloni B.O",
    "officeType": "B.O",
    "Deliverystatus": "Delivery",
    "divisionname": "Dholpur",
    "regionname": "Jaipur HQ",
    "circlename": "Rajasthan",
    "Taluk": "Bayana Mdg",
    "Districtname": "Bharatpur",
    "statename": "RAJASTHAN"
  },
  {
    "pincode": "321404",
    "officename": "Mertha B.O",
    "officeType": "B.O",
    "Deliverystatus": "Delivery",
    "divisionname": "Dholpur",
    "regionname": "Jaipur HQ",
    "circlename": "Rajasthan",
    "Taluk": "Bayana Mdg",
    "Districtname": "Bharatpur",
    "statename": "RAJASTHAN"
  },
  {
    "pincode": "321404",
    "officename": "Milsama B.O",
    "officeType": "B.O",
    "Deliverystatus": "Delivery",
    "divisionname": "Dholpur",
    "regionname": "Jaipur HQ",
    "circlename": "Rajasthan",
    "Taluk": "Bayana Mdg",
    "Districtname": "Bharatpur",
    "statename": "RAJASTHAN"
  },
  {
    "pincode": "321404",
    "officename": "Nayagaon B.O",
    "officeType": "B.O",
    "Deliverystatus": "Delivery",
    "divisionname": "Dholpur",
    "regionname": "Jaipur HQ",
    "circlename": "Rajasthan",
    "Taluk": "Roopbas",
    "Districtname": "Bharatpur",
    "statename": "RAJASTHAN"
  },
  {
    "pincode": "321404",
    "officename": "Noharda B.O",
    "officeType": "B.O",
    "Deliverystatus": "Delivery",
    "divisionname": "Dholpur",
    "regionname": "Jaipur HQ",
    "circlename": "Rajasthan",
    "Taluk": "Bayana Mdg",
    "Districtname": "Bharatpur",
    "statename": "RAJASTHAN"
  },
  {
    "pincode": "321404",
    "officename": "Ondelgaddi B.O",
    "officeType": "B.O",
    "Deliverystatus": "Delivery",
    "divisionname": "Dholpur",
    "regionname": "Jaipur HQ",
    "circlename": "Rajasthan",
    "Taluk": "Bayana Mdg",
    "Districtname": "Bharatpur",
    "statename": "RAJASTHAN"
  },
  {
    "pincode": "321404",
    "officename": "Roopbas S.O",
    "officeType": "S.O",
    "Deliverystatus": "Delivery",
    "divisionname": "Dholpur",
    "regionname": "Jaipur HQ",
    "circlename": "Rajasthan",
    "Taluk": "Roopbas",
    "Districtname": "Bharatpur",
    "statename": "RAJASTHAN"
  },
  {
    "pincode": "321404",
    "officename": "Roopbas Town S.O",
    "officeType": "S.O",
    "Deliverystatus": "Non-Delivery",
    "divisionname": "Dholpur",
    "regionname": "Jaipur HQ",
    "circlename": "Rajasthan",
    "Taluk": "Roopbas",
    "Districtname": "Bharatpur",
    "statename": "RAJASTHAN"
  },
  {
    "pincode": "321404",
    "officename": "Rundh B.O",
    "officeType": "B.O",
    "Deliverystatus": "Delivery",
    "divisionname": "Dholpur",
    "regionname": "Jaipur HQ",
    "circlename": "Rajasthan",
    "Taluk": "Roopbas",
    "Districtname": "Bharatpur",
    "statename": "RAJASTHAN"
  }
]
