[
  {
    "pincode": "321406",
    "officename": "Baroli B.O",
    "officeType": "B.O",
    "Deliverystatus": "Delivery",
    "divisionname": "Bharatpur",
    "regionname": "Jaipur HQ",
    "circlename": "Rajasthan",
    "Taluk": "Bharatpur",
    "Districtname": "Bharatpur",
    "statename": "RAJASTHAN"
  },
  {
    "pincode": "321406",
    "officename": "Bhusawar S.O",
    "officeType": "S.O",
    "Deliverystatus": "Delivery",
    "divisionname": "Bharatpur",
    "regionname": "Jaipur HQ",
    "circlename": "Rajasthan",
    "Taluk": "",
    "Districtname": "Bharatpur",
    "statename": "RAJASTHAN"
  },
  {
    "pincode": "321406",
    "officename": "Diwali B.O",
    "officeType": "B.O",
    "Deliverystatus": "Delivery",
    "divisionname": "Bharatpur",
    "regionname": "Jaipur HQ",
    "circlename": "Rajasthan",
    "Taluk": "Bharatpur",
    "Districtname": "Bharatpur",
    "statename": "RAJASTHAN"
  },
  {
    "pincode": "321406",
    "officename": "M.V.Peeth Bhusawar B.O",
    "officeType": "B.O",
    "Deliverystatus": "Delivery",
    "divisionname": "Bharatpur",
    "regionname": "Jaipur HQ",
    "circlename": "Rajasthan",
    "Taluk": "",
    "Districtname": "Bharatpur",
    "statename": "RAJASTHAN"
  },
  {
    "pincode": "321406",
    "officename": "Narharpur B.O",
    "officeType": "B.O",
    "Deliverystatus": "Delivery",
    "divisionname": "Bharatpur",
    "regionname": "Jaipur HQ",
    "circlename": "Rajasthan",
    "Taluk": "Bharatpur",
    "Districtname": "Bharatpur",
    "statename": "RAJASTHAN"
  },
  {
    "pincode": "321406",
    "officename": "Nayagaom Khalsa B.O",
    "officeType": "B.O",
    "Deliverystatus": "Delivery",
    "divisionname": "Bharatpur",
    "regionname": "Jaipur HQ",
    "circlename": "Rajasthan",
    "Taluk": "Bharatpur",
    "Districtname": "Bharatpur",
    "statename": "RAJASTHAN"
  },
  {
    "pincode": "321406",
    "officename": "Randhirgarh B.O",
    "officeType": "B.O",
    "Deliverystatus": "Delivery",
    "divisionname": "Bharatpur",
    "regionname": "Jaipur HQ",
    "circlename": "Rajasthan",
    "Taluk": "Bharatpur",
    "Districtname": "Bharatpur",
    "statename": "RAJASTHAN"
  },
  {
    "pincode": "321406",
    "officename": "Saindhli B.O",
    "officeType": "B.O",
    "Deliverystatus": "Delivery",
    "divisionname": "Bharatpur",
    "regionname": "Jaipur HQ",
    "circlename": "Rajasthan",
    "Taluk": "Weir",
    "Districtname": "Bharatpur",
    "statename": "RAJASTHAN"
  },
  {
    "pincode": "321406",
    "officename": "Suhari B.O",
    "officeType": "B.O",
    "Deliverystatus": "Delivery",
    "divisionname": "Bharatpur",
    "regionname": "Jaipur HQ",
    "circlename": "Rajasthan",
    "Taluk": "Bharatpur",
    "Districtname": "Bharatpur",
    "statename": "RAJASTHAN"
  }
]
