[
  {
    "pincode": "321633",
    "officename": "Bedar B.O",
    "officeType": "B.O",
    "Deliverystatus": "Delivery",
    "divisionname": "Alwar",
    "regionname": "Jaipur HQ",
    "circlename": "Rajasthan",
    "Taluk": "Lachhmangarh",
    "Districtname": "Alwar",
    "statename": "RAJASTHAN"
  },
  {
    "pincode": "321633",
    "officename": "Berla B.O",
    "officeType": "B.O",
    "Deliverystatus": "Delivery",
    "divisionname": "Alwar",
    "regionname": "Jaipur HQ",
    "circlename": "Rajasthan",
    "Taluk": "Laxmangarh",
    "Districtname": "Alwar",
    "statename": "RAJASTHAN"
  },
  {
    "pincode": "321633",
    "officename": "Bharkol B.O",
    "officeType": "B.O",
    "Deliverystatus": "Delivery",
    "divisionname": "Alwar",
    "regionname": "Jaipur HQ",
    "circlename": "Rajasthan",
    "Taluk": "Laxmangarh",
    "Districtname": "Alwar",
    "statename": "RAJASTHAN"
  },
  {
    "pincode": "321633",
    "officename": "Chhilori B.O",
    "officeType": "B.O",
    "Deliverystatus": "Delivery",
    "divisionname": "Alwar",
    "regionname": "Jaipur HQ",
    "circlename": "Rajasthan",
    "Taluk": "Laxmangarh",
    "Districtname": "Alwar",
    "statename": "RAJASTHAN"
  },
  {
    "pincode": "321633",
    "officename": "Chimrauli Gaur B.O",
    "officeType": "B.O",
    "Deliverystatus": "Delivery",
    "divisionname": "Alwar",
    "regionname": "Jaipur HQ",
    "circlename": "Rajasthan",
    "Taluk": "Laxmangarh",
    "Districtname": "Alwar",
    "statename": "RAJASTHAN"
  },
  {
    "pincode": "321633",
    "officename": "Devli B.O",
    "officeType": "B.O",
    "Deliverystatus": "Delivery",
    "divisionname": "Alwar",
    "regionname": "Jaipur HQ",
    "circlename": "Rajasthan",
    "Taluk": "Laxmangarh",
    "Districtname": "Alwar",
    "statename": "RAJASTHAN"
  },
  {
    "pincode": "321633",
    "officename": "Khoramalawali B.O",
    "officeType": "B.O",
    "Deliverystatus": "Delivery",
    "divisionname": "Alwar",
    "regionname": "Jaipur HQ",
    "circlename": "Rajasthan",
    "Taluk": "Laxmangarh",
    "Districtname": "Alwar",
    "statename": "RAJASTHAN"
  },
  {
    "pincode": "321633",
    "officename": "Mauj Pur S.O",
    "officeType": "S.O",
    "Deliverystatus": "Delivery",
    "divisionname": "Alwar",
    "regionname": "Jaipur HQ",
    "circlename": "Rajasthan",
    "Taluk": "Laxmangarh",
    "Districtname": "Alwar",
    "statename": "RAJASTHAN"
  }
]
