[
  {
    "pincode": "321608",
    "officename": "Balahedi B.O",
    "officeType": "B.O",
    "Deliverystatus": "Delivery",
    "divisionname": "Jaipur Moffusil",
    "regionname": "Jaipur HQ",
    "circlename": "Rajasthan",
    "Taluk": "Dausa",
    "Districtname": "Dausa",
    "statename": "RAJASTHAN"
  },
  {
    "pincode": "321608",
    "officename": "Gagwana B.O",
    "officeType": "B.O",
    "Deliverystatus": "Delivery",
    "divisionname": "Jaipur Moffusil",
    "regionname": "Jaipur HQ",
    "circlename": "Rajasthan",
    "Taluk": "Dausa",
    "Districtname": "Dausa",
    "statename": "RAJASTHAN"
  },
  {
    "pincode": "321608",
    "officename": "Hurla B.O",
    "officeType": "B.O",
    "Deliverystatus": "Delivery",
    "divisionname": "Jaipur Moffusil",
    "regionname": "Jaipur HQ",
    "circlename": "Rajasthan",
    "Taluk": "Dausa",
    "Districtname": "Dausa",
    "statename": "RAJASTHAN"
  },
  {
    "pincode": "321608",
    "officename": "Khonchpuri B.O",
    "officeType": "B.O",
    "Deliverystatus": "Delivery",
    "divisionname": "Jaipur Moffusil",
    "regionname": "Jaipur HQ",
    "circlename": "Rajasthan",
    "Taluk": "Dausa",
    "Districtname": "Dausa",
    "statename": "RAJASTHAN"
  },
  {
    "pincode": "321608",
    "officename": "Mahwa S.O",
    "officeType": "S.O",
    "Deliverystatus": "Delivery",
    "divisionname": "Jaipur Moffusil",
    "regionname": "Jaipur HQ",
    "circlename": "Rajasthan",
    "Taluk": "Dausa",
    "Districtname": "Dausa",
    "statename": "RAJASTHAN"
  },
  {
    "pincode": "321608",
    "officename": "Norangwada B.O",
    "officeType": "B.O",
    "Deliverystatus": "Delivery",
    "divisionname": "Jaipur Moffusil",
    "regionname": "Jaipur HQ",
    "circlename": "Rajasthan",
    "Taluk": "Dausa",
    "Districtname": "Dausa",
    "statename": "RAJASTHAN"
  },
  {
    "pincode": "321608",
    "officename": "Pali B.O",
    "officeType": "B.O",
    "Deliverystatus": "Delivery",
    "divisionname": "Jaipur Moffusil",
    "regionname": "Jaipur HQ",
    "circlename": "Rajasthan",
    "Taluk": "Dausa",
    "Districtname": "Dausa",
    "statename": "RAJASTHAN"
  },
  {
    "pincode": "321608",
    "officename": "Ramgarh B.O",
    "officeType": "B.O",
    "Deliverystatus": "Delivery",
    "divisionname": "Jaipur Moffusil",
    "regionname": "Jaipur HQ",
    "circlename": "Rajasthan",
    "Taluk": "Dausa",
    "Districtname": "Dausa",
    "statename": "RAJASTHAN"
  },
  {
    "pincode": "321608",
    "officename": "Rontehdiya B.O",
    "officeType": "B.O",
    "Deliverystatus": "Delivery",
    "divisionname": "Jaipur Moffusil",
    "regionname": "Jaipur HQ",
    "circlename": "Rajasthan",
    "Taluk": "Dausa",
    "Districtname": "Dausa",
    "statename": "RAJASTHAN"
  },
  {
    "pincode": "321608",
    "officename": "Salampura B.O",
    "officeType": "B.O",
    "Deliverystatus": "Delivery",
    "divisionname": "Jaipur Moffusil",
    "regionname": "Jaipur HQ",
    "circlename": "Rajasthan",
    "Taluk": "Dausa",
    "Districtname": "Dausa",
    "statename": "RAJASTHAN"
  },
  {
    "pincode": "321608",
    "officename": "Samleti B.O",
    "officeType": "B.O",
    "Deliverystatus": "Delivery",
    "divisionname": "Jaipur Moffusil",
    "regionname": "Jaipur HQ",
    "circlename": "Rajasthan",
    "Taluk": "Dausa",
    "Districtname": "Dausa",
    "statename": "RAJASTHAN"
  },
  {
    "pincode": "321608",
    "officename": "Tudiyana B.O",
    "officeType": "B.O",
    "Deliverystatus": "Delivery",
    "divisionname": "Jaipur Moffusil",
    "regionname": "Jaipur HQ",
    "circlename": "Rajasthan",
    "Taluk": "Dausa",
    "Districtname": "Dausa",
    "statename": "RAJASTHAN"
  },
  {
    "pincode": "321608",
    "officename": "Vishala B.O",
    "officeType": "B.O",
    "Deliverystatus": "Delivery",
    "divisionname": "Jaipur Moffusil",
    "regionname": "Jaipur HQ",
    "circlename": "Rajasthan",
    "Taluk": "Dausa",
    "Districtname": "Dausa",
    "statename": "RAJASTHAN"
  }
]
