[
  {
    "pincode": "322025",
    "officename": "Akhaigarh B.O",
    "officeType": "B.O",
    "Deliverystatus": "Delivery",
    "divisionname": "Sawaimadhopur",
    "regionname": "Jaipur HQ",
    "circlename": "Rajasthan",
    "Taluk": "Khandar",
    "Districtname": "Sawai Madhopur",
    "statename": "RAJASTHAN"
  },
  {
    "pincode": "322025",
    "officename": "Aniyala B.O",
    "officeType": "B.O",
    "Deliverystatus": "Delivery",
    "divisionname": "Sawaimadhopur",
    "regionname": "Jaipur HQ",
    "circlename": "Rajasthan",
    "Taluk": "Khandar",
    "Districtname": "Sawai Madhopur",
    "statename": "RAJASTHAN"
  },
  {
    "pincode": "322025",
    "officename": "Badwas B.O",
    "officeType": "B.O",
    "Deliverystatus": "Delivery",
    "divisionname": "Sawaimadhopur",
    "regionname": "Jaipur HQ",
    "circlename": "Rajasthan",
    "Taluk": "Khandar",
    "Districtname": "Sawai Madhopur",
    "statename": "RAJASTHAN"
  },
  {
    "pincode": "322025",
    "officename": "Baler B.O",
    "officeType": "B.O",
    "Deliverystatus": "Delivery",
    "divisionname": "Sawaimadhopur",
    "regionname": "Jaipur HQ",
    "circlename": "Rajasthan",
    "Taluk": "Khandar",
    "Districtname": "Sawai Madhopur",
    "statename": "RAJASTHAN"
  },
  {
    "pincode": "322025",
    "officename": "Barnawada B.O",
    "officeType": "B.O",
    "Deliverystatus": "Delivery",
    "divisionname": "Sawaimadhopur",
    "regionname": "Jaipur HQ",
    "circlename": "Rajasthan",
    "Taluk": "Khandar",
    "Districtname": "Sawai Madhopur",
    "statename": "RAJASTHAN"
  },
  {
    "pincode": "322025",
    "officename": "Barod B.O",
    "officeType": "B.O",
    "Deliverystatus": "Delivery",
    "divisionname": "Sawaimadhopur",
    "regionname": "Jaipur HQ",
    "circlename": "Rajasthan",
    "Taluk": "Khandar",
    "Districtname": "Sawai Madhopur",
    "statename": "RAJASTHAN"
  },
  {
    "pincode": "322025",
    "officename": "Bhahraonda Kalan B.O",
    "officeType": "B.O",
    "Deliverystatus": "Delivery",
    "divisionname": "Sawaimadhopur",
    "regionname": "Jaipur HQ",
    "circlename": "Rajasthan",
    "Taluk": "Khandar",
    "Districtname": "Sawai Madhopur",
    "statename": "RAJASTHAN"
  },
  {
    "pincode": "322025",
    "officename": "Bichpuri Gujran B.O",
    "officeType": "B.O",
    "Deliverystatus": "Delivery",
    "divisionname": "Sawaimadhopur",
    "regionname": "Jaipur HQ",
    "circlename": "Rajasthan",
    "Taluk": "Khandar",
    "Districtname": "Sawai Madhopur",
    "statename": "RAJASTHAN"
  },
  {
    "pincode": "322025",
    "officename": "Gandawar B.O",
    "officeType": "B.O",
    "Deliverystatus": "Delivery",
    "divisionname": "Sawaimadhopur",
    "regionname": "Jaipur HQ",
    "circlename": "Rajasthan",
    "Taluk": "Khandar",
    "Districtname": "Sawai Madhopur",
    "statename": "RAJASTHAN"
  },
  {
    "pincode": "322025",
    "officename": "Goth Bihari B.O",
    "officeType": "B.O",
    "Deliverystatus": "Delivery",
    "divisionname": "Sawaimadhopur",
    "regionname": "Jaipur HQ",
    "circlename": "Rajasthan",
    "Taluk": "Khandar",
    "Districtname": "Sawai Madhopur",
    "statename": "RAJASTHAN"
  },
  {
    "pincode": "322025",
    "officename": "Gothra B.O",
    "officeType": "B.O",
    "Deliverystatus": "Delivery",
    "divisionname": "Sawaimadhopur",
    "regionname": "Jaipur HQ",
    "circlename": "Rajasthan",
    "Taluk": "Khandar",
    "Districtname": "Sawai Madhopur",
    "statename": "RAJASTHAN"
  },
  {
    "pincode": "322025",
    "officename": "Khandar S.O",
    "officeType": "S.O",
    "Deliverystatus": "Delivery",
    "divisionname": "Sawaimadhopur",
    "regionname": "Jaipur HQ",
    "circlename": "Rajasthan",
    "Taluk": "Khandar",
    "Districtname": "Sawai Madhopur",
    "statename": "RAJASTHAN"
  },
  {
    "pincode": "322025",
    "officename": "Kosra Chhareta Tod B.O",
    "officeType": "B.O",
    "Deliverystatus": "Delivery",
    "divisionname": "Sawaimadhopur",
    "regionname": "Jaipur HQ",
    "circlename": "Rajasthan",
    "Taluk": "Khandar",
    "Districtname": "Sawai Madhopur",
    "statename": "RAJASTHAN"
  },
  {
    "pincode": "322025",
    "officename": "Kuredi B.O",
    "officeType": "B.O",
    "Deliverystatus": "Delivery",
    "divisionname": "Sawaimadhopur",
    "regionname": "Jaipur HQ",
    "circlename": "Rajasthan",
    "Taluk": "Khandar",
    "Districtname": "Sawai Madhopur",
    "statename": "RAJASTHAN"
  },
  {
    "pincode": "322025",
    "officename": "Kyarda Kalan B.O",
    "officeType": "B.O",
    "Deliverystatus": "Delivery",
    "divisionname": "Sawaimadhopur",
    "regionname": "Jaipur HQ",
    "circlename": "Rajasthan",
    "Taluk": "Khandar",
    "Districtname": "Sawai Madhopur",
    "statename": "RAJASTHAN"
  },
  {
    "pincode": "322025",
    "officename": "Naypur B.O",
    "officeType": "B.O",
    "Deliverystatus": "Delivery",
    "divisionname": "Sawaimadhopur",
    "regionname": "Jaipur HQ",
    "circlename": "Rajasthan",
    "Taluk": "Khandar",
    "Districtname": "Sawai Madhopur",
    "statename": "RAJASTHAN"
  },
  {
    "pincode": "322025",
    "officename": "Padri B.O",
    "officeType": "B.O",
    "Deliverystatus": "Delivery",
    "divisionname": "Sawaimadhopur",
    "regionname": "Jaipur HQ",
    "circlename": "Rajasthan",
    "Taluk": "Khandar",
    "Districtname": "Sawai Madhopur",
    "statename": "RAJASTHAN"
  },
  {
    "pincode": "322025",
    "officename": "Redawat B.O",
    "officeType": "B.O",
    "Deliverystatus": "Delivery",
    "divisionname": "Sawaimadhopur",
    "regionname": "Jaipur HQ",
    "circlename": "Rajasthan",
    "Taluk": "Khandar",
    "Districtname": "Sawai Madhopur",
    "statename": "RAJASTHAN"
  },
  {
    "pincode": "322025",
    "officename": "Singor Kalan B.O",
    "officeType": "B.O",
    "Deliverystatus": "Delivery",
    "divisionname": "Sawaimadhopur",
    "regionname": "Jaipur HQ",
    "circlename": "Rajasthan",
    "Taluk": "Khandar",
    "Districtname": "Sawai Madhopur",
    "statename": "RAJASTHAN"
  },
  {
    "pincode": "322025",
    "officename": "Talwada B.O",
    "officeType": "B.O",
    "Deliverystatus": "Delivery",
    "divisionname": "Sawaimadhopur",
    "regionname": "Jaipur HQ",
    "circlename": "Rajasthan",
    "Taluk": "Khandar",
    "Districtname": "Sawai Madhopur",
    "statename": "RAJASTHAN"
  }
]
