[
  {
    "pincode": "322023",
    "officename": "Bagdoli B.O",
    "officeType": "B.O",
    "Deliverystatus": "Delivery",
    "divisionname": "Sawaimadhopur",
    "regionname": "Jaipur HQ",
    "circlename": "Rajasthan",
    "Taluk": "Bonli",
    "Districtname": "Sawai Madhopur",
    "statename": "RAJASTHAN"
  },
  {
    "pincode": "322023",
    "officename": "Bapui B.O",
    "officeType": "B.O",
    "Deliverystatus": "Delivery",
    "divisionname": "Sawaimadhopur",
    "regionname": "Jaipur HQ",
    "circlename": "Rajasthan",
    "Taluk": "Bonli",
    "Districtname": "Sawai Madhopur",
    "statename": "RAJASTHAN"
  },
  {
    "pincode": "322023",
    "officename": "Bara Gao Sarwar B.O",
    "officeType": "B.O",
    "Deliverystatus": "Delivery",
    "divisionname": "Sawaimadhopur",
    "regionname": "Jaipur HQ",
    "circlename": "Rajasthan",
    "Taluk": "Bonli",
    "Districtname": "Sawai Madhopur",
    "statename": "RAJASTHAN"
  },
  {
    "pincode": "322023",
    "officename": "Bonli S.O",
    "officeType": "S.O",
    "Deliverystatus": "Delivery",
    "divisionname": "Sawaimadhopur",
    "regionname": "Jaipur HQ",
    "circlename": "Rajasthan",
    "Taluk": "Bonli",
    "Districtname": "Sawai Madhopur",
    "statename": "RAJASTHAN"
  },
  {
    "pincode": "322023",
    "officename": "Borda B.O",
    "officeType": "B.O",
    "Deliverystatus": "Delivery",
    "divisionname": "Sawaimadhopur",
    "regionname": "Jaipur HQ",
    "circlename": "Rajasthan",
    "Taluk": "Bonli",
    "Districtname": "Sawai Madhopur",
    "statename": "RAJASTHAN"
  },
  {
    "pincode": "322023",
    "officename": "Gungorad B.O",
    "officeType": "B.O",
    "Deliverystatus": "Delivery",
    "divisionname": "Sawaimadhopur",
    "regionname": "Jaipur HQ",
    "circlename": "Rajasthan",
    "Taluk": "Bonli",
    "Districtname": "Sawai Madhopur",
    "statename": "RAJASTHAN"
  },
  {
    "pincode": "322023",
    "officename": "Jhanun B.O",
    "officeType": "B.O",
    "Deliverystatus": "Delivery",
    "divisionname": "Sawaimadhopur",
    "regionname": "Jaipur HQ",
    "circlename": "Rajasthan",
    "Taluk": "Bonli",
    "Districtname": "Sawai Madhopur",
    "statename": "RAJASTHAN"
  },
  {
    "pincode": "322023",
    "officename": "Kolada B.O",
    "officeType": "B.O",
    "Deliverystatus": "Delivery",
    "divisionname": "Sawaimadhopur",
    "regionname": "Jaipur HQ",
    "circlename": "Rajasthan",
    "Taluk": "Bonli",
    "Districtname": "Sawai Madhopur",
    "statename": "RAJASTHAN"
  },
  {
    "pincode": "322023",
    "officename": "Kushalpura B.O",
    "officeType": "B.O",
    "Deliverystatus": "Delivery",
    "divisionname": "Sawaimadhopur",
    "regionname": "Jaipur HQ",
    "circlename": "Rajasthan",
    "Taluk": "Bonli",
    "Districtname": "Sawai Madhopur",
    "statename": "RAJASTHAN"
  },
  {
    "pincode": "322023",
    "officename": "Lakhanpur B.O",
    "officeType": "B.O",
    "Deliverystatus": "Delivery",
    "divisionname": "Sawaimadhopur",
    "regionname": "Jaipur HQ",
    "circlename": "Rajasthan",
    "Taluk": "Bonli",
    "Districtname": "Sawai Madhopur",
    "statename": "RAJASTHAN"
  },
  {
    "pincode": "322023",
    "officename": "Mitrapura B.O",
    "officeType": "B.O",
    "Deliverystatus": "Delivery",
    "divisionname": "Sawaimadhopur",
    "regionname": "Jaipur HQ",
    "circlename": "Rajasthan",
    "Taluk": "Bonli",
    "Districtname": "Sawai Madhopur",
    "statename": "RAJASTHAN"
  },
  {
    "pincode": "322023",
    "officename": "Moran B.O",
    "officeType": "B.O",
    "Deliverystatus": "Delivery",
    "divisionname": "Sawaimadhopur",
    "regionname": "Jaipur HQ",
    "circlename": "Rajasthan",
    "Taluk": "Bonli",
    "Districtname": "Sawai Madhopur",
    "statename": "RAJASTHAN"
  },
  {
    "pincode": "322023",
    "officename": "Nimod B.O",
    "officeType": "B.O",
    "Deliverystatus": "Delivery",
    "divisionname": "Sawaimadhopur",
    "regionname": "Jaipur HQ",
    "circlename": "Rajasthan",
    "Taluk": "Bonli",
    "Districtname": "Sawai Madhopur",
    "statename": "RAJASTHAN"
  },
  {
    "pincode": "322023",
    "officename": "Pipalwada B.O",
    "officeType": "B.O",
    "Deliverystatus": "Delivery",
    "divisionname": "Sawaimadhopur",
    "regionname": "Jaipur HQ",
    "circlename": "Rajasthan",
    "Taluk": "Bonli",
    "Districtname": "Sawai Madhopur",
    "statename": "RAJASTHAN"
  },
  {
    "pincode": "322023",
    "officename": "Rathod B.O",
    "officeType": "B.O",
    "Deliverystatus": "Delivery",
    "divisionname": "Sawaimadhopur",
    "regionname": "Jaipur HQ",
    "circlename": "Rajasthan",
    "Taluk": "Bonli",
    "Districtname": "Sawai Madhopur",
    "statename": "RAJASTHAN"
  },
  {
    "pincode": "322023",
    "officename": "Udgaon B.O",
    "officeType": "B.O",
    "Deliverystatus": "Delivery",
    "divisionname": "Sawaimadhopur",
    "regionname": "Jaipur HQ",
    "circlename": "Rajasthan",
    "Taluk": "Bonli",
    "Districtname": "Sawai Madhopur",
    "statename": "RAJASTHAN"
  }
]
