[
  {
    "pincode": "322001",
    "officename": "Adarsh Nagar S.O (Sawai Madhopur)",
    "officeType": "S.O",
    "Deliverystatus": "Non-Delivery",
    "divisionname": "Sawaimadhopur",
    "regionname": "Jaipur HQ",
    "circlename": "Rajasthan",
    "Taluk": "Sawaimadhopur",
    "Districtname": "Sawai Madhopur",
    "statename": "RAJASTHAN"
  },
  {
    "pincode": "322001",
    "officename": "Alapur B.O",
    "officeType": "B.O",
    "Deliverystatus": "Delivery",
    "divisionname": "Sawaimadhopur",
    "regionname": "Jaipur HQ",
    "circlename": "Rajasthan",
    "Taluk": "Khandar",
    "Districtname": "Sawai Madhopur",
    "statename": "RAJASTHAN"
  },
  {
    "pincode": "322001",
    "officename": "Atunkalan B.O",
    "officeType": "B.O",
    "Deliverystatus": "Delivery",
    "divisionname": "Sawaimadhopur",
    "regionname": "Jaipur HQ",
    "circlename": "Rajasthan",
    "Taluk": "Sawaimadhopur",
    "Districtname": "Sawai Madhopur",
    "statename": "RAJASTHAN"
  },
  {
    "pincode": "322001",
    "officename": "Baharnwanda Khurd B.O",
    "officeType": "B.O",
    "Deliverystatus": "Delivery",
    "divisionname": "Sawaimadhopur",
    "regionname": "Jaipur HQ",
    "circlename": "Rajasthan",
    "Taluk": "Khandar",
    "Districtname": "Sawai Madhopur",
    "statename": "RAJASTHAN"
  },
  {
    "pincode": "322001",
    "officename": "Chhan B.O",
    "officeType": "B.O",
    "Deliverystatus": "Delivery",
    "divisionname": "Sawaimadhopur",
    "regionname": "Jaipur HQ",
    "circlename": "Rajasthan",
    "Taluk": "Khandar",
    "Districtname": "Sawai Madhopur",
    "statename": "RAJASTHAN"
  },
  {
    "pincode": "322001",
    "officename": "Dakwa B.O",
    "officeType": "B.O",
    "Deliverystatus": "Delivery",
    "divisionname": "Sawaimadhopur",
    "regionname": "Jaipur HQ",
    "circlename": "Rajasthan",
    "Taluk": "Sawaimadhopur",
    "Districtname": "Sawai Madhopur",
    "statename": "RAJASTHAN"
  },
  {
    "pincode": "322001",
    "officename": "Daulatpura B.O",
    "officeType": "B.O",
    "Deliverystatus": "Delivery",
    "divisionname": "Sawaimadhopur",
    "regionname": "Jaipur HQ",
    "circlename": "Rajasthan",
    "Taluk": "Khandar",
    "Districtname": "Sawai Madhopur",
    "statename": "RAJASTHAN"
  },
  {
    "pincode": "322001",
    "officename": "Dhamun Khurd B.O",
    "officeType": "B.O",
    "Deliverystatus": "Delivery",
    "divisionname": "Sawaimadhopur",
    "regionname": "Jaipur HQ",
    "circlename": "Rajasthan",
    "Taluk": "Sawaimadhopur",
    "Districtname": "Sawai Madhopur",
    "statename": "RAJASTHAN"
  },
  {
    "pincode": "322001",
    "officename": "Ghimeera B.O",
    "officeType": "B.O",
    "Deliverystatus": "Delivery",
    "divisionname": "Sawaimadhopur",
    "regionname": "Jaipur HQ",
    "circlename": "Rajasthan",
    "Taluk": "Sawaimadhopur",
    "Districtname": "Sawai Madhopur",
    "statename": "RAJASTHAN"
  },
  {
    "pincode": "322001",
    "officename": "Jinapur B.O",
    "officeType": "B.O",
    "Deliverystatus": "Delivery",
    "divisionname": "Sawaimadhopur",
    "regionname": "Jaipur HQ",
    "circlename": "Rajasthan",
    "Taluk": "Sawaimadhopur",
    "Districtname": "Sawai Madhopur",
    "statename": "RAJASTHAN"
  },
  {
    "pincode": "322001",
    "officename": "Khandeola B.O",
    "officeType": "B.O",
    "Deliverystatus": "Delivery",
    "divisionname": "Sawaimadhopur",
    "regionname": "Jaipur HQ",
    "circlename": "Rajasthan",
    "Taluk": "Sawaimadhopur",
    "Districtname": "Sawai Madhopur",
    "statename": "RAJASTHAN"
  },
  {
    "pincode": "322001",
    "officename": "Khatupura B.O",
    "officeType": "B.O",
    "Deliverystatus": "Delivery",
    "divisionname": "Sawaimadhopur",
    "regionname": "Jaipur HQ",
    "circlename": "Rajasthan",
    "Taluk": "Sawaimadhopur",
    "Districtname": "Sawai Madhopur",
    "statename": "RAJASTHAN"
  },
  {
    "pincode": "322001",
    "officename": "Khijuri B.O",
    "officeType": "B.O",
    "Deliverystatus": "Delivery",
    "divisionname": "Sawaimadhopur",
    "regionname": "Jaipur HQ",
    "circlename": "Rajasthan",
    "Taluk": "Sawaimadhopur",
    "Districtname": "Sawai Madhopur",
    "statename": "RAJASTHAN"
  },
  {
    "pincode": "322001",
    "officename": "Kustala B.O",
    "officeType": "B.O",
    "Deliverystatus": "Delivery",
    "divisionname": "Sawaimadhopur",
    "regionname": "Jaipur HQ",
    "circlename": "Rajasthan",
    "Taluk": "Sawaimadhopur",
    "Districtname": "Sawai Madhopur",
    "statename": "RAJASTHAN"
  },
  {
    "pincode": "322001",
    "officename": "Mai Kalan B.O",
    "officeType": "B.O",
    "Deliverystatus": "Delivery",
    "divisionname": "Sawaimadhopur",
    "regionname": "Jaipur HQ",
    "circlename": "Rajasthan",
    "Taluk": "Khandar",
    "Districtname": "Sawai Madhopur",
    "statename": "RAJASTHAN"
  },
  {
    "pincode": "322001",
    "officename": "Mui B.O",
    "officeType": "B.O",
    "Deliverystatus": "Delivery",
    "divisionname": "Sawaimadhopur",
    "regionname": "Jaipur HQ",
    "circlename": "Rajasthan",
    "Taluk": "Sawaimadhopur",
    "Districtname": "Sawai Madhopur",
    "statename": "RAJASTHAN"
  },
  {
    "pincode": "322001",
    "officename": "Pancholas B.O",
    "officeType": "B.O",
    "Deliverystatus": "Delivery",
    "divisionname": "Sawaimadhopur",
    "regionname": "Jaipur HQ",
    "circlename": "Rajasthan",
    "Taluk": "Sawaimadhopur",
    "Districtname": "Sawai Madhopur",
    "statename": "RAJASTHAN"
  },
  {
    "pincode": "322001",
    "officename": "Rawanjana Chaur B.O",
    "officeType": "B.O",
    "Deliverystatus": "Delivery",
    "divisionname": "Sawaimadhopur",
    "regionname": "Jaipur HQ",
    "circlename": "Rajasthan",
    "Taluk": "Sawaimadhopur",
    "Districtname": "Sawai Madhopur",
    "statename": "RAJASTHAN"
  },
  {
    "pincode": "322001",
    "officename": "Rawanjana Doongar B.O",
    "officeType": "B.O",
    "Deliverystatus": "Delivery",
    "divisionname": "Sawaimadhopur",
    "regionname": "Jaipur HQ",
    "circlename": "Rajasthan",
    "Taluk": "Sawaimadhopur",
    "Districtname": "Sawai Madhopur",
    "statename": "RAJASTHAN"
  },
  {
    "pincode": "322001",
    "officename": "Sawaimadhopur H.O",
    "officeType": "H.O",
    "Deliverystatus": "Delivery",
    "divisionname": "Sawaimadhopur",
    "regionname": "Jaipur HQ",
    "circlename": "Rajasthan",
    "Taluk": "Sawaimadhopur",
    "Districtname": "Sawai Madhopur",
    "statename": "RAJASTHAN"
  },
  {
    "pincode": "322001",
    "officename": "Sherpur Khilchipur B.O",
    "officeType": "B.O",
    "Deliverystatus": "Delivery",
    "divisionname": "Sawaimadhopur",
    "regionname": "Jaipur HQ",
    "circlename": "Rajasthan",
    "Taluk": "Sawaimadhopur",
    "Districtname": "Sawai Madhopur",
    "statename": "RAJASTHAN"
  },
  {
    "pincode": "322001",
    "officename": "Sherpur PSSK B.O",
    "officeType": "B.O",
    "Deliverystatus": "Delivery",
    "divisionname": "Sawaimadhopur",
    "regionname": "Jaipur HQ",
    "circlename": "Rajasthan",
    "Taluk": "Sawaimadhopur",
    "Districtname": "Sawai Madhopur",
    "statename": "RAJASTHAN"
  }
]
