[
  {
    "pincode": "322220",
    "officename": "Chandangaon B.O",
    "officeType": "B.O",
    "Deliverystatus": "Delivery",
    "divisionname": "Sawaimadhopur",
    "regionname": "Jaipur HQ",
    "circlename": "Rajasthan",
    "Taluk": "Hindaun",
    "Districtname": "Karauli",
    "statename": "RAJASTHAN"
  },
  {
    "pincode": "322220",
    "officename": "Danalpur B.O",
    "officeType": "B.O",
    "Deliverystatus": "Delivery",
    "divisionname": "Sawaimadhopur",
    "regionname": "Jaipur HQ",
    "circlename": "Rajasthan",
    "Taluk": "Hindaun",
    "Districtname": "Karauli",
    "statename": "RAJASTHAN"
  },
  {
    "pincode": "322220",
    "officename": "Kemla B.O",
    "officeType": "B.O",
    "Deliverystatus": "Delivery",
    "divisionname": "Sawaimadhopur",
    "regionname": "Jaipur HQ",
    "circlename": "Rajasthan",
    "Taluk": "Nadoti",
    "Districtname": "Karauli",
    "statename": "RAJASTHAN"
  },
  {
    "pincode": "322220",
    "officename": "Maheswa B.O",
    "officeType": "B.O",
    "Deliverystatus": "Delivery",
    "divisionname": "Sawaimadhopur",
    "regionname": "Jaipur HQ",
    "circlename": "Rajasthan",
    "Taluk": "Todabhim",
    "Districtname": "Karauli",
    "statename": "RAJASTHAN"
  },
  {
    "pincode": "322220",
    "officename": "Nisura B.O",
    "officeType": "B.O",
    "Deliverystatus": "Delivery",
    "divisionname": "Sawaimadhopur",
    "regionname": "Jaipur HQ",
    "circlename": "Rajasthan",
    "Taluk": "Todabhim",
    "Districtname": "Karauli",
    "statename": "RAJASTHAN"
  },
  {
    "pincode": "322220",
    "officename": "Pahadiyanagar B.O",
    "officeType": "B.O",
    "Deliverystatus": "Delivery",
    "divisionname": "Sawaimadhopur",
    "regionname": "Jaipur HQ",
    "circlename": "Rajasthan",
    "Taluk": "Todabhim",
    "Districtname": "Karauli",
    "statename": "RAJASTHAN"
  },
  {
    "pincode": "322220",
    "officename": "Ranoli B.O",
    "officeType": "B.O",
    "Deliverystatus": "Delivery",
    "divisionname": "Sawaimadhopur",
    "regionname": "Jaipur HQ",
    "circlename": "Rajasthan",
    "Taluk": "Todabhim",
    "Districtname": "Karauli",
    "statename": "RAJASTHAN"
  },
  {
    "pincode": "322220",
    "officename": "Rendayal Gurjar B.O",
    "officeType": "B.O",
    "Deliverystatus": "Delivery",
    "divisionname": "Sawaimadhopur",
    "regionname": "Jaipur HQ",
    "circlename": "Rajasthan",
    "Taluk": "Gangapur",
    "Districtname": "Sawai Madhopur",
    "statename": "RAJASTHAN"
  },
  {
    "pincode": "322220",
    "officename": "Ronsi B.O",
    "officeType": "B.O",
    "Deliverystatus": "Delivery",
    "divisionname": "Sawaimadhopur",
    "regionname": "Jaipur HQ",
    "circlename": "Rajasthan",
    "Taluk": "Nadoti",
    "Districtname": "Karauli",
    "statename": "RAJASTHAN"
  },
  {
    "pincode": "322220",
    "officename": "Shantiveer Nagar B.O",
    "officeType": "B.O",
    "Deliverystatus": "Delivery",
    "divisionname": "Sawaimadhopur",
    "regionname": "Jaipur HQ",
    "circlename": "Rajasthan",
    "Taluk": "Hindaun",
    "Districtname": "Karauli",
    "statename": "RAJASTHAN"
  },
  {
    "pincode": "322220",
    "officename": "Shekhpura B.O",
    "officeType": "B.O",
    "Deliverystatus": "Delivery",
    "divisionname": "Sawaimadhopur",
    "regionname": "Jaipur HQ",
    "circlename": "Rajasthan",
    "Taluk": "Todabhim",
    "Districtname": "Karauli",
    "statename": "RAJASTHAN"
  },
  {
    "pincode": "322220",
    "officename": "Shrimahaveerji S.O",
    "officeType": "S.O",
    "Deliverystatus": "Delivery",
    "divisionname": "Sawaimadhopur",
    "regionname": "Jaipur HQ",
    "circlename": "Rajasthan",
    "Taluk": "Hindaun",
    "Districtname": "Karauli",
    "statename": "RAJASTHAN"
  }
]
