[
  {
    "pincode": "322242",
    "officename": "Bhawali B.O",
    "officeType": "B.O",
    "Deliverystatus": "Delivery",
    "divisionname": "Sawaimadhopur",
    "regionname": "Jaipur HQ",
    "circlename": "Rajasthan",
    "Taluk": "Karauli",
    "Districtname": "Karauli",
    "statename": "RAJASTHAN"
  },
  {
    "pincode": "322242",
    "officename": "Chhabar B.O",
    "officeType": "B.O",
    "Deliverystatus": "Delivery",
    "divisionname": "Sawaimadhopur",
    "regionname": "Jaipur HQ",
    "circlename": "Rajasthan",
    "Taluk": "Karauli",
    "Districtname": "Karauli",
    "statename": "RAJASTHAN"
  },
  {
    "pincode": "322242",
    "officename": "Gubreda B.O",
    "officeType": "B.O",
    "Deliverystatus": "Delivery",
    "divisionname": "Sawaimadhopur",
    "regionname": "Jaipur HQ",
    "circlename": "Rajasthan",
    "Taluk": "Karauli",
    "Districtname": "Karauli",
    "statename": "RAJASTHAN"
  },
  {
    "pincode": "322242",
    "officename": "Gurda B.O",
    "officeType": "B.O",
    "Deliverystatus": "Delivery",
    "divisionname": "Sawaimadhopur",
    "regionname": "Jaipur HQ",
    "circlename": "Rajasthan",
    "Taluk": "Mandrail",
    "Districtname": "Karauli",
    "statename": "RAJASTHAN"
  },
  {
    "pincode": "322242",
    "officename": "Jamura B.O",
    "officeType": "B.O",
    "Deliverystatus": "Delivery",
    "divisionname": "Sawaimadhopur",
    "regionname": "Jaipur HQ",
    "circlename": "Rajasthan",
    "Taluk": "Karauli",
    "Districtname": "Karauli",
    "statename": "RAJASTHAN"
  },
  {
    "pincode": "322242",
    "officename": "Kanchanpura B.O",
    "officeType": "B.O",
    "Deliverystatus": "Delivery",
    "divisionname": "Sawaimadhopur",
    "regionname": "Jaipur HQ",
    "circlename": "Rajasthan",
    "Taluk": "Karauli",
    "Districtname": "Karauli",
    "statename": "RAJASTHAN"
  },
  {
    "pincode": "322242",
    "officename": "Khedia B.O",
    "officeType": "B.O",
    "Deliverystatus": "Delivery",
    "divisionname": "Sawaimadhopur",
    "regionname": "Jaipur HQ",
    "circlename": "Rajasthan",
    "Taluk": "Karauli",
    "Districtname": "Karauli",
    "statename": "RAJASTHAN"
  },
  {
    "pincode": "322242",
    "officename": "Khunda B.O",
    "officeType": "B.O",
    "Deliverystatus": "Delivery",
    "divisionname": "Sawaimadhopur",
    "regionname": "Jaipur HQ",
    "circlename": "Rajasthan",
    "Taluk": "Karauli",
    "Districtname": "Karauli",
    "statename": "RAJASTHAN"
  },
  {
    "pincode": "322242",
    "officename": "Masalpur S.O",
    "officeType": "S.O",
    "Deliverystatus": "Delivery",
    "divisionname": "Sawaimadhopur",
    "regionname": "Jaipur HQ",
    "circlename": "Rajasthan",
    "Taluk": "Karauli",
    "Districtname": "Karauli",
    "statename": "RAJASTHAN"
  },
  {
    "pincode": "322242",
    "officename": "Narayana B.O",
    "officeType": "B.O",
    "Deliverystatus": "Delivery",
    "divisionname": "Sawaimadhopur",
    "regionname": "Jaipur HQ",
    "circlename": "Rajasthan",
    "Taluk": "Karauli",
    "Districtname": "Karauli",
    "statename": "RAJASTHAN"
  },
  {
    "pincode": "322242",
    "officename": "Ratiyapura B.O",
    "officeType": "B.O",
    "Deliverystatus": "Delivery",
    "divisionname": "Sawaimadhopur",
    "regionname": "Jaipur HQ",
    "circlename": "Rajasthan",
    "Taluk": "Karauli",
    "Districtname": "Karauli",
    "statename": "RAJASTHAN"
  },
  {
    "pincode": "322242",
    "officename": "Rundh Ka Pura B.O",
    "officeType": "B.O",
    "Deliverystatus": "Delivery",
    "divisionname": "Sawaimadhopur",
    "regionname": "Jaipur HQ",
    "circlename": "Rajasthan",
    "Taluk": "Karauli",
    "Districtname": "Karauli",
    "statename": "RAJASTHAN"
  },
  {
    "pincode": "322242",
    "officename": "Siloti B.O",
    "officeType": "B.O",
    "Deliverystatus": "Delivery",
    "divisionname": "Sawaimadhopur",
    "regionname": "Jaipur HQ",
    "circlename": "Rajasthan",
    "Taluk": "Karauli",
    "Districtname": "Karauli",
    "statename": "RAJASTHAN"
  }
]
