[
  {
    "pincode": "322243",
    "officename": "Ateiwa B.O",
    "officeType": "B.O",
    "Deliverystatus": "Delivery",
    "divisionname": "Sawaimadhopur",
    "regionname": "Jaipur HQ",
    "circlename": "Rajasthan",
    "Taluk": "Karauli",
    "Districtname": "Karauli",
    "statename": "RAJASTHAN"
  },
  {
    "pincode": "322243",
    "officename": "Kailadevi S.O",
    "officeType": "S.O",
    "Deliverystatus": "Delivery",
    "divisionname": "Sawaimadhopur",
    "regionname": "Jaipur HQ",
    "circlename": "Rajasthan",
    "Taluk": "Karauli",
    "Districtname": "Karauli",
    "statename": "RAJASTHAN"
  },
  {
    "pincode": "322243",
    "officename": "Kalyani B.O",
    "officeType": "B.O",
    "Deliverystatus": "Delivery",
    "divisionname": "Sawaimadhopur",
    "regionname": "Jaipur HQ",
    "circlename": "Rajasthan",
    "Taluk": "Karauli",
    "Districtname": "Karauli",
    "statename": "RAJASTHAN"
  },
  {
    "pincode": "322243",
    "officename": "Karanpur B.O",
    "officeType": "B.O",
    "Deliverystatus": "Delivery",
    "divisionname": "Sawaimadhopur",
    "regionname": "Jaipur HQ",
    "circlename": "Rajasthan",
    "Taluk": "Sapotara",
    "Districtname": "Karauli",
    "statename": "RAJASTHAN"
  },
  {
    "pincode": "322243",
    "officename": "Karsai B.O",
    "officeType": "B.O",
    "Deliverystatus": "Delivery",
    "divisionname": "Sawaimadhopur",
    "regionname": "Jaipur HQ",
    "circlename": "Rajasthan",
    "Taluk": "Karauli",
    "Districtname": "Karauli",
    "statename": "RAJASTHAN"
  },
  {
    "pincode": "322243",
    "officename": "Khohri B.O",
    "officeType": "B.O",
    "Deliverystatus": "Delivery",
    "divisionname": "Sawaimadhopur",
    "regionname": "Jaipur HQ",
    "circlename": "Rajasthan",
    "Taluk": "Karauli",
    "Districtname": "Karauli",
    "statename": "RAJASTHAN"
  },
  {
    "pincode": "322243",
    "officename": "Kota B.O",
    "officeType": "B.O",
    "Deliverystatus": "Delivery",
    "divisionname": "Sawaimadhopur",
    "regionname": "Jaipur HQ",
    "circlename": "Rajasthan",
    "Taluk": "Karauli",
    "Districtname": "Karauli",
    "statename": "RAJASTHAN"
  },
  {
    "pincode": "322243",
    "officename": "Lohara B.O",
    "officeType": "B.O",
    "Deliverystatus": "Delivery",
    "divisionname": "Sawaimadhopur",
    "regionname": "Jaipur HQ",
    "circlename": "Rajasthan",
    "Taluk": "Karauli",
    "Districtname": "Karauli",
    "statename": "RAJASTHAN"
  },
  {
    "pincode": "322243",
    "officename": "Maharajpura B.O",
    "officeType": "B.O",
    "Deliverystatus": "Delivery",
    "divisionname": "Sawaimadhopur",
    "regionname": "Jaipur HQ",
    "circlename": "Rajasthan",
    "Taluk": "",
    "Districtname": "Sawai Madhopur",
    "statename": "RAJASTHAN"
  },
  {
    "pincode": "322243",
    "officename": "Maholi B.O",
    "officeType": "B.O",
    "Deliverystatus": "Delivery",
    "divisionname": "Sawaimadhopur",
    "regionname": "Jaipur HQ",
    "circlename": "Rajasthan",
    "Taluk": "Karauli",
    "Districtname": "Karauli",
    "statename": "RAJASTHAN"
  },
  {
    "pincode": "322243",
    "officename": "Marmada B.O",
    "officeType": "B.O",
    "Deliverystatus": "Delivery",
    "divisionname": "Sawaimadhopur",
    "regionname": "Jaipur HQ",
    "circlename": "Rajasthan",
    "Taluk": "Sapotara",
    "Districtname": "Karauli",
    "statename": "RAJASTHAN"
  },
  {
    "pincode": "322243",
    "officename": "Nanpur B.O",
    "officeType": "B.O",
    "Deliverystatus": "Delivery",
    "divisionname": "Sawaimadhopur",
    "regionname": "Jaipur HQ",
    "circlename": "Rajasthan",
    "Taluk": "Sapotara",
    "Districtname": "Karauli",
    "statename": "RAJASTHAN"
  },
  {
    "pincode": "322243",
    "officename": "Nibhera B.O",
    "officeType": "B.O",
    "Deliverystatus": "Delivery",
    "divisionname": "Sawaimadhopur",
    "regionname": "Jaipur HQ",
    "circlename": "Rajasthan",
    "Taluk": "Sapotara",
    "Districtname": "Karauli",
    "statename": "RAJASTHAN"
  },
  {
    "pincode": "322243",
    "officename": "Rajor B.O",
    "officeType": "B.O",
    "Deliverystatus": "Delivery",
    "divisionname": "Sawaimadhopur",
    "regionname": "Jaipur HQ",
    "circlename": "Rajasthan",
    "Taluk": "Karaui",
    "Districtname": "Karauli",
    "statename": "RAJASTHAN"
  },
  {
    "pincode": "322243",
    "officename": "Rampur Dhabai B.O",
    "officeType": "B.O",
    "Deliverystatus": "Delivery",
    "divisionname": "Sawaimadhopur",
    "regionname": "Jaipur HQ",
    "circlename": "Rajasthan",
    "Taluk": "Karauli",
    "Districtname": "Karauli",
    "statename": "RAJASTHAN"
  },
  {
    "pincode": "322243",
    "officename": "Toda B.O",
    "officeType": "B.O",
    "Deliverystatus": "Delivery",
    "divisionname": "Sawaimadhopur",
    "regionname": "Jaipur HQ",
    "circlename": "Rajasthan",
    "Taluk": "Saptara",
    "Districtname": "Karauli",
    "statename": "RAJASTHAN"
  }
]
