[
  {
    "pincode": "322238",
    "officename": "Badleta Khurd B.O",
    "officeType": "B.O",
    "Deliverystatus": "Delivery",
    "divisionname": "Sawaimadhopur",
    "regionname": "Jaipur HQ",
    "circlename": "Rajasthan",
    "Taluk": "Todabhim",
    "Districtname": "Karauli",
    "statename": "RAJASTHAN"
  },
  {
    "pincode": "322238",
    "officename": "Balghat S.O",
    "officeType": "S.O",
    "Deliverystatus": "Delivery",
    "divisionname": "Sawaimadhopur",
    "regionname": "Jaipur HQ",
    "circlename": "Rajasthan",
    "Taluk": "Todabhim",
    "Districtname": "Karauli",
    "statename": "RAJASTHAN"
  },
  {
    "pincode": "322238",
    "officename": "Bhandari Anduruni B.O",
    "officeType": "B.O",
    "Deliverystatus": "Delivery",
    "divisionname": "Sawaimadhopur",
    "regionname": "Jaipur HQ",
    "circlename": "Rajasthan",
    "Taluk": "Todabhim",
    "Districtname": "Karauli",
    "statename": "RAJASTHAN"
  },
  {
    "pincode": "322238",
    "officename": "Khudawal B.O",
    "officeType": "B.O",
    "Deliverystatus": "Delivery",
    "divisionname": "Sawaimadhopur",
    "regionname": "Jaipur HQ",
    "circlename": "Rajasthan",
    "Taluk": "Todabhim",
    "Districtname": "Karauli",
    "statename": "RAJASTHAN"
  },
  {
    "pincode": "322238",
    "officename": "Morda B.O",
    "officeType": "B.O",
    "Deliverystatus": "Delivery",
    "divisionname": "Sawaimadhopur",
    "regionname": "Jaipur HQ",
    "circlename": "Rajasthan",
    "Taluk": "Todabhim",
    "Districtname": "Karauli",
    "statename": "RAJASTHAN"
  },
  {
    "pincode": "322238",
    "officename": "Nangal Pahadi B.O",
    "officeType": "B.O",
    "Deliverystatus": "Delivery",
    "divisionname": "Sawaimadhopur",
    "regionname": "Jaipur HQ",
    "circlename": "Rajasthan",
    "Taluk": "Todabhim",
    "Districtname": "Karauli",
    "statename": "RAJASTHAN"
  },
  {
    "pincode": "322238",
    "officename": "Pahadi B.O",
    "officeType": "B.O",
    "Deliverystatus": "Delivery",
    "divisionname": "Sawaimadhopur",
    "regionname": "Jaipur HQ",
    "circlename": "Rajasthan",
    "Taluk": "Todabhim",
    "Districtname": "Karauli",
    "statename": "RAJASTHAN"
  },
  {
    "pincode": "322238",
    "officename": "Urden B.O",
    "officeType": "B.O",
    "Deliverystatus": "Delivery",
    "divisionname": "Sawaimadhopur",
    "regionname": "Jaipur HQ",
    "circlename": "Rajasthan",
    "Taluk": "Todabhim",
    "Districtname": "Karauli",
    "statename": "RAJASTHAN"
  }
]
