[
  {
    "pincode": "323301",
    "officename": "Arnetha B.O",
    "officeType": "B.O",
    "Deliverystatus": "Delivery",
    "divisionname": "Tonk",
    "regionname": "Ajmer",
    "circlename": "Rajasthan",
    "Taluk": "Bundi",
    "Districtname": "Bundi",
    "statename": "RAJASTHAN"
  },
  {
    "pincode": "323301",
    "officename": "Balkasa B.O",
    "officeType": "B.O",
    "Deliverystatus": "Delivery",
    "divisionname": "Tonk",
    "regionname": "Ajmer",
    "circlename": "Rajasthan",
    "Taluk": "Bundi",
    "Districtname": "Bundi",
    "statename": "RAJASTHAN"
  },
  {
    "pincode": "323301",
    "officename": "Chardana B.O",
    "officeType": "B.O",
    "Deliverystatus": "Delivery",
    "divisionname": "Tonk",
    "regionname": "Ajmer",
    "circlename": "Rajasthan",
    "Taluk": "Bundi",
    "Districtname": "Bundi",
    "statename": "RAJASTHAN"
  },
  {
    "pincode": "323301",
    "officename": "Hingonia B.O",
    "officeType": "B.O",
    "Deliverystatus": "Delivery",
    "divisionname": "Tonk",
    "regionname": "Ajmer",
    "circlename": "Rajasthan",
    "Taluk": "Bundi",
    "Districtname": "Bundi",
    "statename": "RAJASTHAN"
  },
  {
    "pincode": "323301",
    "officename": "Jaithal B.O",
    "officeType": "B.O",
    "Deliverystatus": "Delivery",
    "divisionname": "Tonk",
    "regionname": "Ajmer",
    "circlename": "Rajasthan",
    "Taluk": "Bundi",
    "Districtname": "Bundi",
    "statename": "RAJASTHAN"
  },
  {
    "pincode": "323301",
    "officename": "Jaloda B.O",
    "officeType": "B.O",
    "Deliverystatus": "Delivery",
    "divisionname": "Tonk",
    "regionname": "Ajmer",
    "circlename": "Rajasthan",
    "Taluk": "Bundi",
    "Districtname": "Bundi",
    "statename": "RAJASTHAN"
  },
  {
    "pincode": "323301",
    "officename": "Kapren S.O",
    "officeType": "S.O",
    "Deliverystatus": "Delivery",
    "divisionname": "Tonk",
    "regionname": "Ajmer",
    "circlename": "Rajasthan",
    "Taluk": "Bundi",
    "Districtname": "Bundi",
    "statename": "RAJASTHAN"
  },
  {
    "pincode": "323301",
    "officename": "Karwala Ki Jhopri B.O",
    "officeType": "B.O",
    "Deliverystatus": "Delivery",
    "divisionname": "Tonk",
    "regionname": "Ajmer",
    "circlename": "Rajasthan",
    "Taluk": "Bundi",
    "Districtname": "Bundi",
    "statename": "RAJASTHAN"
  },
  {
    "pincode": "323301",
    "officename": "Roteda B.O",
    "officeType": "B.O",
    "Deliverystatus": "Delivery",
    "divisionname": "Tonk",
    "regionname": "Ajmer",
    "circlename": "Rajasthan",
    "Taluk": "Bundi",
    "Districtname": "Bundi",
    "statename": "RAJASTHAN"
  }
]
