[
  {
    "pincode": "323603",
    "officename": "Ajanda B.O",
    "officeType": "B.O",
    "Deliverystatus": "Delivery",
    "divisionname": "Tonk",
    "regionname": "Ajmer",
    "circlename": "Rajasthan",
    "Taluk": "Bundi",
    "Districtname": "Bundi",
    "statename": "RAJASTHAN"
  },
  {
    "pincode": "323603",
    "officename": "Bada Kheda B.O",
    "officeType": "B.O",
    "Deliverystatus": "Delivery",
    "divisionname": "Tonk",
    "regionname": "Ajmer",
    "circlename": "Rajasthan",
    "Taluk": "Bundi",
    "Districtname": "Bundi",
    "statename": "RAJASTHAN"
  },
  {
    "pincode": "323603",
    "officename": "Baswada B.O",
    "officeType": "B.O",
    "Deliverystatus": "Delivery",
    "divisionname": "Tonk",
    "regionname": "Ajmer",
    "circlename": "Rajasthan",
    "Taluk": "Bundi",
    "Districtname": "Bundi",
    "statename": "RAJASTHAN"
  },
  {
    "pincode": "323603",
    "officename": "Dei Kheda B.O",
    "officeType": "B.O",
    "Deliverystatus": "Delivery",
    "divisionname": "Tonk",
    "regionname": "Ajmer",
    "circlename": "Rajasthan",
    "Taluk": "Bundi",
    "Districtname": "Bundi",
    "statename": "RAJASTHAN"
  },
  {
    "pincode": "323603",
    "officename": "Dhagaria B.O",
    "officeType": "B.O",
    "Deliverystatus": "Delivery",
    "divisionname": "Tonk",
    "regionname": "Ajmer",
    "circlename": "Rajasthan",
    "Taluk": "Bundi",
    "Districtname": "Bundi",
    "statename": "RAJASTHAN"
  },
  {
    "pincode": "323603",
    "officename": "Ghat Ka Barana B.O",
    "officeType": "B.O",
    "Deliverystatus": "Delivery",
    "divisionname": "Tonk",
    "regionname": "Ajmer",
    "circlename": "Rajasthan",
    "Taluk": "Bundi",
    "Districtname": "Bundi",
    "statename": "RAJASTHAN"
  },
  {
    "pincode": "323603",
    "officename": "Laban B.O",
    "officeType": "B.O",
    "Deliverystatus": "Delivery",
    "divisionname": "Tonk",
    "regionname": "Ajmer",
    "circlename": "Rajasthan",
    "Taluk": "Bundi",
    "Districtname": "Bundi",
    "statename": "RAJASTHAN"
  },
  {
    "pincode": "323603",
    "officename": "Lakheri S.O",
    "officeType": "S.O",
    "Deliverystatus": "Delivery",
    "divisionname": "Tonk",
    "regionname": "Ajmer",
    "circlename": "Rajasthan",
    "Taluk": "Bundi",
    "Districtname": "Bundi",
    "statename": "RAJASTHAN"
  },
  {
    "pincode": "323603",
    "officename": "Makhida B.O",
    "officeType": "B.O",
    "Deliverystatus": "Delivery",
    "divisionname": "Tonk",
    "regionname": "Ajmer",
    "circlename": "Rajasthan",
    "Taluk": "Bundi",
    "Districtname": "Bundi",
    "statename": "RAJASTHAN"
  },
  {
    "pincode": "323603",
    "officename": "Notada B.O",
    "officeType": "B.O",
    "Deliverystatus": "Delivery",
    "divisionname": "Tonk",
    "regionname": "Ajmer",
    "circlename": "Rajasthan",
    "Taluk": "Bundi",
    "Districtname": "Bundi",
    "statename": "RAJASTHAN"
  },
  {
    "pincode": "323603",
    "officename": "Papdi B.O",
    "officeType": "B.O",
    "Deliverystatus": "Delivery",
    "divisionname": "Tonk",
    "regionname": "Ajmer",
    "circlename": "Rajasthan",
    "Taluk": "Bundi",
    "Districtname": "Bundi",
    "statename": "RAJASTHAN"
  },
  {
    "pincode": "323603",
    "officename": "Rebarpura B.O",
    "officeType": "B.O",
    "Deliverystatus": "Delivery",
    "divisionname": "Tonk",
    "regionname": "Ajmer",
    "circlename": "Rajasthan",
    "Taluk": "Bundi",
    "Districtname": "Bundi",
    "statename": "RAJASTHAN"
  },
  {
    "pincode": "323603",
    "officename": "Sakhawda B.O",
    "officeType": "B.O",
    "Deliverystatus": "Delivery",
    "divisionname": "Tonk",
    "regionname": "Ajmer",
    "circlename": "Rajasthan",
    "Taluk": "Bundi",
    "Districtname": "Bundi",
    "statename": "RAJASTHAN"
  },
  {
    "pincode": "323603",
    "officename": "Utharana B.O",
    "officeType": "B.O",
    "Deliverystatus": "Delivery",
    "divisionname": "Tonk",
    "regionname": "Ajmer",
    "circlename": "Rajasthan",
    "Taluk": "Bundi",
    "Districtname": "Bundi",
    "statename": "RAJASTHAN"
  }
]
