[
  {
    "pincode": "323802",
    "officename": "Bansi B.O",
    "officeType": "B.O",
    "Deliverystatus": "Delivery",
    "divisionname": "Tonk",
    "regionname": "Ajmer",
    "circlename": "Rajasthan",
    "Taluk": "Bundi",
    "Districtname": "Bundi",
    "statename": "RAJASTHAN"
  },
  {
    "pincode": "323802",
    "officename": "Bhajneri B.O",
    "officeType": "B.O",
    "Deliverystatus": "Delivery",
    "divisionname": "Tonk",
    "regionname": "Ajmer",
    "circlename": "Rajasthan",
    "Taluk": "Bundi",
    "Districtname": "Bundi",
    "statename": "RAJASTHAN"
  },
  {
    "pincode": "323802",
    "officename": "Dabeta B.O",
    "officeType": "B.O",
    "Deliverystatus": "Delivery",
    "divisionname": "Tonk",
    "regionname": "Ajmer",
    "circlename": "Rajasthan",
    "Taluk": "Bundi",
    "Districtname": "Bundi",
    "statename": "RAJASTHAN"
  },
  {
    "pincode": "323802",
    "officename": "Dei S.O",
    "officeType": "S.O",
    "Deliverystatus": "Delivery",
    "divisionname": "Tonk",
    "regionname": "Ajmer",
    "circlename": "Rajasthan",
    "Taluk": "Bundi",
    "Districtname": "Bundi",
    "statename": "RAJASTHAN"
  },
  {
    "pincode": "323802",
    "officename": "Dokun B.O",
    "officeType": "B.O",
    "Deliverystatus": "Delivery",
    "divisionname": "Tonk",
    "regionname": "Ajmer",
    "circlename": "Rajasthan",
    "Taluk": "Bundi",
    "Districtname": "Bundi",
    "statename": "RAJASTHAN"
  },
  {
    "pincode": "323802",
    "officename": "Dugari B.O",
    "officeType": "B.O",
    "Deliverystatus": "Delivery",
    "divisionname": "Tonk",
    "regionname": "Ajmer",
    "circlename": "Rajasthan",
    "Taluk": "Bundi",
    "Districtname": "Bundi",
    "statename": "RAJASTHAN"
  },
  {
    "pincode": "323802",
    "officename": "Guda Deo Ji B.O",
    "officeType": "B.O",
    "Deliverystatus": "Delivery",
    "divisionname": "Tonk",
    "regionname": "Ajmer",
    "circlename": "Rajasthan",
    "Taluk": "Bundi",
    "Districtname": "Bundi",
    "statename": "RAJASTHAN"
  },
  {
    "pincode": "323802",
    "officename": "Gudasadawartia B.O",
    "officeType": "B.O",
    "Deliverystatus": "Delivery",
    "divisionname": "Tonk",
    "regionname": "Ajmer",
    "circlename": "Rajasthan",
    "Taluk": "Bundi",
    "Districtname": "Bundi",
    "statename": "RAJASTHAN"
  },
  {
    "pincode": "323802",
    "officename": "Jarkhoda B.O",
    "officeType": "B.O",
    "Deliverystatus": "Delivery",
    "divisionname": "Tonk",
    "regionname": "Ajmer",
    "circlename": "Rajasthan",
    "Taluk": "Bundi",
    "Districtname": "Bundi",
    "statename": "RAJASTHAN"
  },
  {
    "pincode": "323802",
    "officename": "Morsan B.O",
    "officeType": "B.O",
    "Deliverystatus": "Delivery",
    "divisionname": "Tonk",
    "regionname": "Ajmer",
    "circlename": "Rajasthan",
    "Taluk": "Bundi",
    "Districtname": "Bundi",
    "statename": "RAJASTHAN"
  },
  {
    "pincode": "323802",
    "officename": "Sadera B.O",
    "officeType": "B.O",
    "Deliverystatus": "Delivery",
    "divisionname": "Tonk",
    "regionname": "Ajmer",
    "circlename": "Rajasthan",
    "Taluk": "Bundi",
    "Districtname": "Bundi",
    "statename": "RAJASTHAN"
  },
  {
    "pincode": "323802",
    "officename": "Sahan B.O",
    "officeType": "B.O",
    "Deliverystatus": "Delivery",
    "divisionname": "Tonk",
    "regionname": "Ajmer",
    "circlename": "Rajasthan",
    "Taluk": "Bundi",
    "Districtname": "Bundi",
    "statename": "RAJASTHAN"
  }
]
