[
  {
    "pincode": "323801",
    "officename": "Bachola B.O",
    "officeType": "B.O",
    "Deliverystatus": "Delivery",
    "divisionname": "Tonk",
    "regionname": "Ajmer",
    "circlename": "Rajasthan",
    "Taluk": "Bundi",
    "Districtname": "Bundi",
    "statename": "RAJASTHAN"
  },
  {
    "pincode": "323801",
    "officename": "Balapura B.O",
    "officeType": "B.O",
    "Deliverystatus": "Delivery",
    "divisionname": "Tonk",
    "regionname": "Ajmer",
    "circlename": "Rajasthan",
    "Taluk": "Bundi",
    "Districtname": "Bundi",
    "statename": "RAJASTHAN"
  },
  {
    "pincode": "323801",
    "officename": "Bamangaon B.O",
    "officeType": "B.O",
    "Deliverystatus": "Delivery",
    "divisionname": "Tonk",
    "regionname": "Ajmer",
    "circlename": "Rajasthan",
    "Taluk": "Bundi",
    "Districtname": "Bundi",
    "statename": "RAJASTHAN"
  },
  {
    "pincode": "323801",
    "officename": "Chainpuria B.O",
    "officeType": "B.O",
    "Deliverystatus": "Delivery",
    "divisionname": "Tonk",
    "regionname": "Ajmer",
    "circlename": "Rajasthan",
    "Taluk": "Bundi",
    "Districtname": "Bundi",
    "statename": "RAJASTHAN"
  },
  {
    "pincode": "323801",
    "officename": "Dhanugaon B.O",
    "officeType": "B.O",
    "Deliverystatus": "Delivery",
    "divisionname": "Tonk",
    "regionname": "Ajmer",
    "circlename": "Rajasthan",
    "Taluk": "Bundi",
    "Districtname": "Bundi",
    "statename": "RAJASTHAN"
  },
  {
    "pincode": "323801",
    "officename": "Gambhira B.O",
    "officeType": "B.O",
    "Deliverystatus": "Delivery",
    "divisionname": "Tonk",
    "regionname": "Ajmer",
    "circlename": "Rajasthan",
    "Taluk": "Bundi",
    "Districtname": "Bundi",
    "statename": "RAJASTHAN"
  },
  {
    "pincode": "323801",
    "officename": "Jajawar B.O",
    "officeType": "B.O",
    "Deliverystatus": "Delivery",
    "divisionname": "Tonk",
    "regionname": "Ajmer",
    "circlename": "Rajasthan",
    "Taluk": "Bundi",
    "Districtname": "Bundi",
    "statename": "RAJASTHAN"
  },
  {
    "pincode": "323801",
    "officename": "Khanpura B.O",
    "officeType": "B.O",
    "Deliverystatus": "Delivery",
    "divisionname": "Tonk",
    "regionname": "Ajmer",
    "circlename": "Rajasthan",
    "Taluk": "Bundi",
    "Districtname": "Bundi",
    "statename": "RAJASTHAN"
  },
  {
    "pincode": "323801",
    "officename": "Nainwan S.O",
    "officeType": "S.O",
    "Deliverystatus": "Delivery",
    "divisionname": "Tonk",
    "regionname": "Ajmer",
    "circlename": "Rajasthan",
    "Taluk": "Bundi",
    "Districtname": "Bundi",
    "statename": "RAJASTHAN"
  },
  {
    "pincode": "323801",
    "officename": "Phuleta B.O",
    "officeType": "B.O",
    "Deliverystatus": "Delivery",
    "divisionname": "Tonk",
    "regionname": "Ajmer",
    "circlename": "Rajasthan",
    "Taluk": "Bundi",
    "Districtname": "Bundi",
    "statename": "RAJASTHAN"
  },
  {
    "pincode": "323801",
    "officename": "Rajalawata B.O",
    "officeType": "B.O",
    "Deliverystatus": "Delivery",
    "divisionname": "Tonk",
    "regionname": "Ajmer",
    "circlename": "Rajasthan",
    "Taluk": "Bundi",
    "Districtname": "Bundi",
    "statename": "RAJASTHAN"
  },
  {
    "pincode": "323801",
    "officename": "Samidhi B.O",
    "officeType": "B.O",
    "Deliverystatus": "Delivery",
    "divisionname": "Tonk",
    "regionname": "Ajmer",
    "circlename": "Rajasthan",
    "Taluk": "Bundi",
    "Districtname": "Bundi",
    "statename": "RAJASTHAN"
  },
  {
    "pincode": "323801",
    "officename": "Sisola B.O",
    "officeType": "B.O",
    "Deliverystatus": "Delivery",
    "divisionname": "Tonk",
    "regionname": "Ajmer",
    "circlename": "Rajasthan",
    "Taluk": "Bundi",
    "Districtname": "Bundi",
    "statename": "RAJASTHAN"
  },
  {
    "pincode": "323801",
    "officename": "Suwania B.O",
    "officeType": "B.O",
    "Deliverystatus": "Delivery",
    "divisionname": "Tonk",
    "regionname": "Ajmer",
    "circlename": "Rajasthan",
    "Taluk": "Bundi",
    "Districtname": "Bundi",
    "statename": "RAJASTHAN"
  }
]
