[
  {
    "pincode": "324001",
    "officename": "Borabas B.O",
    "officeType": "B.O",
    "Deliverystatus": "Delivery",
    "divisionname": "Kota",
    "regionname": "Ajmer",
    "circlename": "Rajasthan",
    "Taluk": "Kota",
    "Districtname": "Kota",
    "statename": "RAJASTHAN"
  },
  {
    "pincode": "324001",
    "officename": "Borkheda B.O",
    "officeType": "B.O",
    "Deliverystatus": "Delivery",
    "divisionname": "Kota",
    "regionname": "Ajmer",
    "circlename": "Rajasthan",
    "Taluk": "Kota",
    "Districtname": "Kota",
    "statename": "RAJASTHAN"
  },
  {
    "pincode": "324001",
    "officename": "Dolya B.O",
    "officeType": "B.O",
    "Deliverystatus": "Delivery",
    "divisionname": "Kota",
    "regionname": "Ajmer",
    "circlename": "Rajasthan",
    "Taluk": "Kota",
    "Districtname": "Kota",
    "statename": "RAJASTHAN"
  },
  {
    "pincode": "324001",
    "officename": "Kota H.O",
    "officeType": "H.O",
    "Deliverystatus": "Delivery",
    "divisionname": "Kota",
    "regionname": "Ajmer",
    "circlename": "Rajasthan",
    "Taluk": "Kota",
    "Districtname": "Kota",
    "statename": "RAJASTHAN"
  },
  {
    "pincode": "324001",
    "officename": "Kota Kutchery S.O",
    "officeType": "S.O",
    "Deliverystatus": "Non-Delivery",
    "divisionname": "Kota",
    "regionname": "Ajmer",
    "circlename": "Rajasthan",
    "Taluk": "Kota",
    "Districtname": "Kota",
    "statename": "RAJASTHAN"
  },
  {
    "pincode": "324001",
    "officename": "Naya Nohra B.O",
    "officeType": "B.O",
    "Deliverystatus": "Delivery",
    "divisionname": "Kota",
    "regionname": "Ajmer",
    "circlename": "Rajasthan",
    "Taluk": "Kota",
    "Districtname": "Kota",
    "statename": "RAJASTHAN"
  },
  {
    "pincode": "324001",
    "officename": "Nayapura Kota S.O",
    "officeType": "S.O",
    "Deliverystatus": "Non-Delivery",
    "divisionname": "Kota",
    "regionname": "Ajmer",
    "circlename": "Rajasthan",
    "Taluk": "Kota",
    "Districtname": "Kota",
    "statename": "RAJASTHAN"
  },
  {
    "pincode": "324001",
    "officename": "Subhash Marg Kota S.O",
    "officeType": "S.O",
    "Deliverystatus": "Non-Delivery",
    "divisionname": "Kota",
    "regionname": "Ajmer",
    "circlename": "Rajasthan",
    "Taluk": "Kota",
    "Districtname": "Kota",
    "statename": "RAJASTHAN"
  }
]
