[
  {
    "pincode": "325001",
    "officename": "Aamli B.O",
    "officeType": "B.O",
    "Deliverystatus": "Delivery",
    "divisionname": "Kota",
    "regionname": "Ajmer",
    "circlename": "Rajasthan",
    "Taluk": "Kota",
    "Districtname": "Kota",
    "statename": "RAJASTHAN"
  },
  {
    "pincode": "325001",
    "officename": "Aralia Jagir B.O",
    "officeType": "B.O",
    "Deliverystatus": "Delivery",
    "divisionname": "Kota",
    "regionname": "Ajmer",
    "circlename": "Rajasthan",
    "Taluk": "Kota",
    "Districtname": "Kota",
    "statename": "RAJASTHAN"
  },
  {
    "pincode": "325001",
    "officename": "Arand Kheda B.O",
    "officeType": "B.O",
    "Deliverystatus": "Delivery",
    "divisionname": "Kota",
    "regionname": "Ajmer",
    "circlename": "Rajasthan",
    "Taluk": "Kota",
    "Districtname": "Kota",
    "statename": "RAJASTHAN"
  },
  {
    "pincode": "325001",
    "officename": "Baniani B.O",
    "officeType": "B.O",
    "Deliverystatus": "Delivery",
    "divisionname": "Kota",
    "regionname": "Ajmer",
    "circlename": "Rajasthan",
    "Taluk": "Kota",
    "Districtname": "Kota",
    "statename": "RAJASTHAN"
  },
  {
    "pincode": "325001",
    "officename": "Deoli B.O",
    "officeType": "B.O",
    "Deliverystatus": "Delivery",
    "divisionname": "Kota",
    "regionname": "Ajmer",
    "circlename": "Rajasthan",
    "Taluk": "Kota",
    "Districtname": "Kota",
    "statename": "RAJASTHAN"
  },
  {
    "pincode": "325001",
    "officename": "Dhakadkhedi B.O",
    "officeType": "B.O",
    "Deliverystatus": "Delivery",
    "divisionname": "Kota",
    "regionname": "Ajmer",
    "circlename": "Rajasthan",
    "Taluk": "Kota",
    "Districtname": "Kota",
    "statename": "RAJASTHAN"
  },
  {
    "pincode": "325001",
    "officename": "Dhoti B.O",
    "officeType": "B.O",
    "Deliverystatus": "Delivery",
    "divisionname": "Kota",
    "regionname": "Ajmer",
    "circlename": "Rajasthan",
    "Taluk": "Kota",
    "Districtname": "Kota",
    "statename": "RAJASTHAN"
  },
  {
    "pincode": "325001",
    "officename": "Gandiphali B.O",
    "officeType": "B.O",
    "Deliverystatus": "Delivery",
    "divisionname": "Kota",
    "regionname": "Ajmer",
    "circlename": "Rajasthan",
    "Taluk": "Kota",
    "Districtname": "Kota",
    "statename": "RAJASTHAN"
  },
  {
    "pincode": "325001",
    "officename": "Golana B.O",
    "officeType": "B.O",
    "Deliverystatus": "Delivery",
    "divisionname": "Kota",
    "regionname": "Ajmer",
    "circlename": "Rajasthan",
    "Taluk": "Kota",
    "Districtname": "Kota",
    "statename": "RAJASTHAN"
  },
  {
    "pincode": "325001",
    "officename": "Jakhora B.O",
    "officeType": "B.O",
    "Deliverystatus": "Delivery",
    "divisionname": "Kota",
    "regionname": "Ajmer",
    "circlename": "Rajasthan",
    "Taluk": "Kota",
    "Districtname": "Kota",
    "statename": "RAJASTHAN"
  },
  {
    "pincode": "325001",
    "officename": "Kaithun S.O",
    "officeType": "S.O",
    "Deliverystatus": "Delivery",
    "divisionname": "Kota",
    "regionname": "Ajmer",
    "circlename": "Rajasthan",
    "Taluk": "Kota",
    "Districtname": "Kota",
    "statename": "RAJASTHAN"
  },
  {
    "pincode": "325001",
    "officename": "Khajuri B.O",
    "officeType": "B.O",
    "Deliverystatus": "Delivery",
    "divisionname": "Kota",
    "regionname": "Ajmer",
    "circlename": "Rajasthan",
    "Taluk": "Kota",
    "Districtname": "Kota",
    "statename": "RAJASTHAN"
  },
  {
    "pincode": "325001",
    "officename": "Khajurna B.O. B.O",
    "officeType": "B.O",
    "Deliverystatus": "Delivery",
    "divisionname": "Kota",
    "regionname": "Ajmer",
    "circlename": "Rajasthan",
    "Taluk": "Kota",
    "Districtname": "Kota",
    "statename": "RAJASTHAN"
  },
  {
    "pincode": "325001",
    "officename": "Khandgaon B.O",
    "officeType": "B.O",
    "Deliverystatus": "Delivery",
    "divisionname": "Kota",
    "regionname": "Ajmer",
    "circlename": "Rajasthan",
    "Taluk": "Kota",
    "Districtname": "Kota",
    "statename": "RAJASTHAN"
  },
  {
    "pincode": "325001",
    "officename": "Kherdarasoolpur B.O",
    "officeType": "B.O",
    "Deliverystatus": "Delivery",
    "divisionname": "Kota",
    "regionname": "Ajmer",
    "circlename": "Rajasthan",
    "Taluk": "Kota",
    "Districtname": "Kota",
    "statename": "RAJASTHAN"
  },
  {
    "pincode": "325001",
    "officename": "Khurad B.O",
    "officeType": "B.O",
    "Deliverystatus": "Delivery",
    "divisionname": "Kota",
    "regionname": "Ajmer",
    "circlename": "Rajasthan",
    "Taluk": "Kota",
    "Districtname": "Kota",
    "statename": "RAJASTHAN"
  },
  {
    "pincode": "325001",
    "officename": "Mawasa B.O",
    "officeType": "B.O",
    "Deliverystatus": "Delivery",
    "divisionname": "Kota",
    "regionname": "Ajmer",
    "circlename": "Rajasthan",
    "Taluk": "Kota",
    "Districtname": "Kota",
    "statename": "RAJASTHAN"
  }
]
