[
  {
    "pincode": "325009",
    "officename": "Bagli B.O",
    "officeType": "B.O",
    "Deliverystatus": "Delivery",
    "divisionname": "Kota",
    "regionname": "Ajmer",
    "circlename": "Rajasthan",
    "Taluk": "Kota",
    "Districtname": "Kota",
    "statename": "RAJASTHAN"
  },
  {
    "pincode": "325009",
    "officename": "Balupa B.O",
    "officeType": "B.O",
    "Deliverystatus": "Delivery",
    "divisionname": "Kota",
    "regionname": "Ajmer",
    "circlename": "Rajasthan",
    "Taluk": "Kota",
    "Districtname": "Kota",
    "statename": "RAJASTHAN"
  },
  {
    "pincode": "325009",
    "officename": "Borda B.O",
    "officeType": "B.O",
    "Deliverystatus": "Delivery",
    "divisionname": "Kota",
    "regionname": "Ajmer",
    "circlename": "Rajasthan",
    "Taluk": "Kota",
    "Districtname": "Kota",
    "statename": "RAJASTHAN"
  },
  {
    "pincode": "325009",
    "officename": "Chhapol B.O",
    "officeType": "B.O",
    "Deliverystatus": "Delivery",
    "divisionname": "Kota",
    "regionname": "Ajmer",
    "circlename": "Rajasthan",
    "Taluk": "Kota",
    "Districtname": "Kota",
    "statename": "RAJASTHAN"
  },
  {
    "pincode": "325009",
    "officename": "Dhipari B.O",
    "officeType": "B.O",
    "Deliverystatus": "Delivery",
    "divisionname": "Kota",
    "regionname": "Ajmer",
    "circlename": "Rajasthan",
    "Taluk": "Kota",
    "Districtname": "Kota",
    "statename": "RAJASTHAN"
  },
  {
    "pincode": "325009",
    "officename": "Jatwada B.O",
    "officeType": "B.O",
    "Deliverystatus": "Delivery",
    "divisionname": "Kota",
    "regionname": "Ajmer",
    "circlename": "Rajasthan",
    "Taluk": "Kota",
    "Districtname": "Kota",
    "statename": "RAJASTHAN"
  },
  {
    "pincode": "325009",
    "officename": "Jorawarpura B.O",
    "officeType": "B.O",
    "Deliverystatus": "Delivery",
    "divisionname": "Kota",
    "regionname": "Ajmer",
    "circlename": "Rajasthan",
    "Taluk": "Kota",
    "Districtname": "Kota",
    "statename": "RAJASTHAN"
  },
  {
    "pincode": "325009",
    "officename": "Kakrawada B.O",
    "officeType": "B.O",
    "Deliverystatus": "Delivery",
    "divisionname": "Kota",
    "regionname": "Ajmer",
    "circlename": "Rajasthan",
    "Taluk": "Kota",
    "Districtname": "Kota",
    "statename": "RAJASTHAN"
  },
  {
    "pincode": "325009",
    "officename": "Khatoli S.O",
    "officeType": "S.O",
    "Deliverystatus": "Delivery",
    "divisionname": "Kota",
    "regionname": "Ajmer",
    "circlename": "Rajasthan",
    "Taluk": "Kota",
    "Districtname": "Kota",
    "statename": "RAJASTHAN"
  },
  {
    "pincode": "325009",
    "officename": "Miyana B.O",
    "officeType": "B.O",
    "Deliverystatus": "Delivery",
    "divisionname": "Kota",
    "regionname": "Ajmer",
    "circlename": "Rajasthan",
    "Taluk": "Kota",
    "Districtname": "Kota",
    "statename": "RAJASTHAN"
  },
  {
    "pincode": "325009",
    "officename": "Nimola B.O",
    "officeType": "B.O",
    "Deliverystatus": "Delivery",
    "divisionname": "Kota",
    "regionname": "Ajmer",
    "circlename": "Rajasthan",
    "Taluk": "Kota",
    "Districtname": "Kota",
    "statename": "RAJASTHAN"
  },
  {
    "pincode": "325009",
    "officename": "Talab B.O",
    "officeType": "B.O",
    "Deliverystatus": "Delivery",
    "divisionname": "Kota",
    "regionname": "Ajmer",
    "circlename": "Rajasthan",
    "Taluk": "Kota",
    "Districtname": "Kota",
    "statename": "RAJASTHAN"
  }
]
