[
  {
    "pincode": "325209",
    "officename": "Anta Gas Power Project Anta S.O",
    "officeType": "S.O",
    "Deliverystatus": "Delivery",
    "divisionname": "Kota",
    "regionname": "Ajmer",
    "circlename": "Rajasthan",
    "Taluk": "Kota",
    "Districtname": "Baran",
    "statename": "RAJASTHAN"
  },
  {
    "pincode": "325209",
    "officename": "Badwa B.O",
    "officeType": "B.O",
    "Deliverystatus": "Delivery",
    "divisionname": "Kota",
    "regionname": "Ajmer",
    "circlename": "Rajasthan",
    "Taluk": "Baran",
    "Districtname": "Baran",
    "statename": "RAJASTHAN"
  },
  {
    "pincode": "325209",
    "officename": "Bamolia Kalan B.O",
    "officeType": "B.O",
    "Deliverystatus": "Delivery",
    "divisionname": "Kota",
    "regionname": "Ajmer",
    "circlename": "Rajasthan",
    "Taluk": "Kota",
    "Districtname": "Baran",
    "statename": "RAJASTHAN"
  },
  {
    "pincode": "325209",
    "officename": "Jai Nagar B.O",
    "officeType": "B.O",
    "Deliverystatus": "Delivery",
    "divisionname": "Kota",
    "regionname": "Ajmer",
    "circlename": "Rajasthan",
    "Taluk": "Baran",
    "Districtname": "Baran",
    "statename": "RAJASTHAN"
  },
  {
    "pincode": "325209",
    "officename": "Kachri B.O",
    "officeType": "B.O",
    "Deliverystatus": "Delivery",
    "divisionname": "Kota",
    "regionname": "Ajmer",
    "circlename": "Rajasthan",
    "Taluk": "Baran",
    "Districtname": "Baran",
    "statename": "RAJASTHAN"
  },
  {
    "pincode": "325209",
    "officename": "Pachel Kalan B.O",
    "officeType": "B.O",
    "Deliverystatus": "Delivery",
    "divisionname": "Kota",
    "regionname": "Ajmer",
    "circlename": "Rajasthan",
    "Taluk": "Baran",
    "Districtname": "Baran",
    "statename": "RAJASTHAN"
  },
  {
    "pincode": "325209",
    "officename": "Sorkhand Kalan B.O",
    "officeType": "B.O",
    "Deliverystatus": "Delivery",
    "divisionname": "Kota",
    "regionname": "Ajmer",
    "circlename": "Rajasthan",
    "Taluk": "Baran",
    "Districtname": "Baran",
    "statename": "RAJASTHAN"
  },
  {
    "pincode": "325209",
    "officename": "Tam Khera B.O",
    "officeType": "B.O",
    "Deliverystatus": "Delivery",
    "divisionname": "Kota",
    "regionname": "Ajmer",
    "circlename": "Rajasthan",
    "Taluk": "Baran",
    "Districtname": "Baran",
    "statename": "RAJASTHAN"
  }
]
