[
  {
    "pincode": "325216",
    "officename": "Badipura B.O",
    "officeType": "B.O",
    "Deliverystatus": "Delivery",
    "divisionname": "Kota",
    "regionname": "Ajmer",
    "circlename": "Rajasthan",
    "Taluk": "Baran",
    "Districtname": "Baran",
    "statename": "RAJASTHAN"
  },
  {
    "pincode": "325216",
    "officename": "Bajrang Garh B.O",
    "officeType": "B.O",
    "Deliverystatus": "Delivery",
    "divisionname": "Kota",
    "regionname": "Ajmer",
    "circlename": "Rajasthan",
    "Taluk": "Baran",
    "Districtname": "Baran",
    "statename": "RAJASTHAN"
  },
  {
    "pincode": "325216",
    "officename": "Balda B.O",
    "officeType": "B.O",
    "Deliverystatus": "Delivery",
    "divisionname": "Kota",
    "regionname": "Ajmer",
    "circlename": "Rajasthan",
    "Taluk": "Baran",
    "Districtname": "Baran",
    "statename": "RAJASTHAN"
  },
  {
    "pincode": "325216",
    "officename": "Bansthuni B.O",
    "officeType": "B.O",
    "Deliverystatus": "Delivery",
    "divisionname": "Kota",
    "regionname": "Ajmer",
    "circlename": "Rajasthan",
    "Taluk": "Baran",
    "Districtname": "Baran",
    "statename": "RAJASTHAN"
  },
  {
    "pincode": "325216",
    "officename": "Baroni B.O",
    "officeType": "B.O",
    "Deliverystatus": "Delivery",
    "divisionname": "Kota",
    "regionname": "Ajmer",
    "circlename": "Rajasthan",
    "Taluk": "Baran",
    "Districtname": "Baran",
    "statename": "RAJASTHAN"
  },
  {
    "pincode": "325216",
    "officename": "Bhanwargarh B.O",
    "officeType": "B.O",
    "Deliverystatus": "Delivery",
    "divisionname": "Kota",
    "regionname": "Ajmer",
    "circlename": "Rajasthan",
    "Taluk": "Baran",
    "Districtname": "Baran",
    "statename": "RAJASTHAN"
  },
  {
    "pincode": "325216",
    "officename": "Chhatargang B.O",
    "officeType": "B.O",
    "Deliverystatus": "Delivery",
    "divisionname": "Kota",
    "regionname": "Ajmer",
    "circlename": "Rajasthan",
    "Taluk": "Baran",
    "Districtname": "Baran",
    "statename": "RAJASTHAN"
  },
  {
    "pincode": "325216",
    "officename": "Chhinod B.O",
    "officeType": "B.O",
    "Deliverystatus": "Delivery",
    "divisionname": "Kota",
    "regionname": "Ajmer",
    "circlename": "Rajasthan",
    "Taluk": "Baran",
    "Districtname": "Baran",
    "statename": "RAJASTHAN"
  },
  {
    "pincode": "325216",
    "officename": "Digodpar B.O",
    "officeType": "B.O",
    "Deliverystatus": "Delivery",
    "divisionname": "Kota",
    "regionname": "Ajmer",
    "circlename": "Rajasthan",
    "Taluk": "Baran",
    "Districtname": "Baran",
    "statename": "RAJASTHAN"
  },
  {
    "pincode": "325216",
    "officename": "Garda B.O",
    "officeType": "B.O",
    "Deliverystatus": "Delivery",
    "divisionname": "Kota",
    "regionname": "Ajmer",
    "circlename": "Rajasthan",
    "Taluk": "Baran",
    "Districtname": "Baran",
    "statename": "RAJASTHAN"
  },
  {
    "pincode": "325216",
    "officename": "Ghatti Colony B.O",
    "officeType": "B.O",
    "Deliverystatus": "Delivery",
    "divisionname": "Kota",
    "regionname": "Ajmer",
    "circlename": "Rajasthan",
    "Taluk": "Baran",
    "Districtname": "Baran",
    "statename": "RAJASTHAN"
  },
  {
    "pincode": "325216",
    "officename": "Kelwara B.O",
    "officeType": "B.O",
    "Deliverystatus": "Delivery",
    "divisionname": "Kota",
    "regionname": "Ajmer",
    "circlename": "Rajasthan",
    "Taluk": "Baran",
    "Districtname": "Baran",
    "statename": "RAJASTHAN"
  },
  {
    "pincode": "325216",
    "officename": "Khandela B.O",
    "officeType": "B.O",
    "Deliverystatus": "Delivery",
    "divisionname": "Kota",
    "regionname": "Ajmer",
    "circlename": "Rajasthan",
    "Taluk": "Baran",
    "Districtname": "Baran",
    "statename": "RAJASTHAN"
  },
  {
    "pincode": "325216",
    "officename": "Kherli B.O",
    "officeType": "B.O",
    "Deliverystatus": "Delivery",
    "divisionname": "Kota",
    "regionname": "Ajmer",
    "circlename": "Rajasthan",
    "Taluk": "Baran",
    "Districtname": "Baran",
    "statename": "RAJASTHAN"
  },
  {
    "pincode": "325216",
    "officename": "Kishan Ganj S.O (Baran)",
    "officeType": "S.O",
    "Deliverystatus": "Delivery",
    "divisionname": "Kota",
    "regionname": "Ajmer",
    "circlename": "Rajasthan",
    "Taluk": "Baran",
    "Districtname": "Baran",
    "statename": "RAJASTHAN"
  },
  {
    "pincode": "325216",
    "officename": "Missai B.O",
    "officeType": "B.O",
    "Deliverystatus": "Delivery",
    "divisionname": "Kota",
    "regionname": "Ajmer",
    "circlename": "Rajasthan",
    "Taluk": "Baran",
    "Districtname": "Baran",
    "statename": "RAJASTHAN"
  },
  {
    "pincode": "325216",
    "officename": "Nahar Garh B.O",
    "officeType": "B.O",
    "Deliverystatus": "Delivery",
    "divisionname": "Kota",
    "regionname": "Ajmer",
    "circlename": "Rajasthan",
    "Taluk": "Baran",
    "Districtname": "Baran",
    "statename": "RAJASTHAN"
  },
  {
    "pincode": "325216",
    "officename": "Paraniya B.O",
    "officeType": "B.O",
    "Deliverystatus": "Delivery",
    "divisionname": "Kota",
    "regionname": "Ajmer",
    "circlename": "Rajasthan",
    "Taluk": "Baran",
    "Districtname": "Baran",
    "statename": "RAJASTHAN"
  },
  {
    "pincode": "325216",
    "officename": "Sakrawada B.O",
    "officeType": "B.O",
    "Deliverystatus": "Delivery",
    "divisionname": "Kota",
    "regionname": "Ajmer",
    "circlename": "Rajasthan",
    "Taluk": "Baran",
    "Districtname": "Baran",
    "statename": "RAJASTHAN"
  }
]
