[
  {
    "pincode": "325223",
    "officename": "Atone S.O",
    "officeType": "S.O",
    "Deliverystatus": "Delivery",
    "divisionname": "Kota",
    "regionname": "Ajmer",
    "circlename": "Rajasthan",
    "Taluk": "Baran",
    "Districtname": "Baran",
    "statename": "RAJASTHAN"
  },
  {
    "pincode": "325223",
    "officename": "Badora B.O",
    "officeType": "B.O",
    "Deliverystatus": "Delivery",
    "divisionname": "Kota",
    "regionname": "Ajmer",
    "circlename": "Rajasthan",
    "Taluk": "Baran",
    "Districtname": "Baran",
    "statename": "RAJASTHAN"
  },
  {
    "pincode": "325223",
    "officename": "Bamori B.O",
    "officeType": "B.O",
    "Deliverystatus": "Delivery",
    "divisionname": "Kota",
    "regionname": "Ajmer",
    "circlename": "Rajasthan",
    "Taluk": "Baran",
    "Districtname": "Baran",
    "statename": "RAJASTHAN"
  },
  {
    "pincode": "325223",
    "officename": "Bhensara B.O",
    "officeType": "B.O",
    "Deliverystatus": "Delivery",
    "divisionname": "Kota",
    "regionname": "Ajmer",
    "circlename": "Rajasthan",
    "Taluk": "Baran",
    "Districtname": "Baran",
    "statename": "RAJASTHAN"
  },
  {
    "pincode": "325223",
    "officename": "Bichalas B.O",
    "officeType": "B.O",
    "Deliverystatus": "Delivery",
    "divisionname": "Kota",
    "regionname": "Ajmer",
    "circlename": "Rajasthan",
    "Taluk": "Baran",
    "Districtname": "Baran",
    "statename": "RAJASTHAN"
  },
  {
    "pincode": "325223",
    "officename": "Katawar B.O",
    "officeType": "B.O",
    "Deliverystatus": "Delivery",
    "divisionname": "Kota",
    "regionname": "Ajmer",
    "circlename": "Rajasthan",
    "Taluk": "Baran",
    "Districtname": "Baran",
    "statename": "RAJASTHAN"
  },
  {
    "pincode": "325223",
    "officename": "Richhanda B.O",
    "officeType": "B.O",
    "Deliverystatus": "Delivery",
    "divisionname": "Kota",
    "regionname": "Ajmer",
    "circlename": "Rajasthan",
    "Taluk": "Baran",
    "Districtname": "Baran",
    "statename": "RAJASTHAN"
  },
  {
    "pincode": "325223",
    "officename": "Sakatpur B.O",
    "officeType": "B.O",
    "Deliverystatus": "Delivery",
    "divisionname": "Kota",
    "regionname": "Ajmer",
    "circlename": "Rajasthan",
    "Taluk": "Baran",
    "Districtname": "Baran",
    "statename": "RAJASTHAN"
  },
  {
    "pincode": "325223",
    "officename": "Shergarh B.O",
    "officeType": "B.O",
    "Deliverystatus": "Delivery",
    "divisionname": "Kota",
    "regionname": "Ajmer",
    "circlename": "Rajasthan",
    "Taluk": "Baran",
    "Districtname": "Baran",
    "statename": "RAJASTHAN"
  }
]
