[
  {
    "pincode": "325218",
    "officename": "ATRU S.O",
    "officeType": "S.O",
    "Deliverystatus": "Delivery",
    "divisionname": "Kota",
    "regionname": "Ajmer",
    "circlename": "Rajasthan",
    "Taluk": "Baran",
    "Districtname": "Baran",
    "statename": "RAJASTHAN"
  },
  {
    "pincode": "325218",
    "officename": "Anatana B.O",
    "officeType": "B.O",
    "Deliverystatus": "Delivery",
    "divisionname": "Kota",
    "regionname": "Ajmer",
    "circlename": "Rajasthan",
    "Taluk": "Baran",
    "Districtname": "Baran",
    "statename": "RAJASTHAN"
  },
  {
    "pincode": "325218",
    "officename": "Ardan B.O",
    "officeType": "B.O",
    "Deliverystatus": "Delivery",
    "divisionname": "Kota",
    "regionname": "Ajmer",
    "circlename": "Rajasthan",
    "Taluk": "Baran",
    "Districtname": "Baran",
    "statename": "RAJASTHAN"
  },
  {
    "pincode": "325218",
    "officename": "Barlan B.O",
    "officeType": "B.O",
    "Deliverystatus": "Delivery",
    "divisionname": "Kota",
    "regionname": "Ajmer",
    "circlename": "Rajasthan",
    "Taluk": "Baran",
    "Districtname": "Baran",
    "statename": "RAJASTHAN"
  },
  {
    "pincode": "325218",
    "officename": "Chardana B.O",
    "officeType": "B.O",
    "Deliverystatus": "Delivery",
    "divisionname": "Kota",
    "regionname": "Ajmer",
    "circlename": "Rajasthan",
    "Taluk": "Baran",
    "Districtname": "Baran",
    "statename": "RAJASTHAN"
  },
  {
    "pincode": "325218",
    "officename": "Jalwara B.O",
    "officeType": "B.O",
    "Deliverystatus": "Delivery",
    "divisionname": "Kota",
    "regionname": "Ajmer",
    "circlename": "Rajasthan",
    "Taluk": "Baran",
    "Districtname": "Baran",
    "statename": "RAJASTHAN"
  },
  {
    "pincode": "325218",
    "officename": "Kachra B.O",
    "officeType": "B.O",
    "Deliverystatus": "Delivery",
    "divisionname": "Kota",
    "regionname": "Ajmer",
    "circlename": "Rajasthan",
    "Taluk": "Baran",
    "Districtname": "Baran",
    "statename": "RAJASTHAN"
  },
  {
    "pincode": "325218",
    "officename": "Khuri B.O",
    "officeType": "B.O",
    "Deliverystatus": "Delivery",
    "divisionname": "Kota",
    "regionname": "Ajmer",
    "circlename": "Rajasthan",
    "Taluk": "Baran",
    "Districtname": "Baran",
    "statename": "RAJASTHAN"
  },
  {
    "pincode": "325218",
    "officename": "Marma Chah B.O",
    "officeType": "B.O",
    "Deliverystatus": "Delivery",
    "divisionname": "Kota",
    "regionname": "Ajmer",
    "circlename": "Rajasthan",
    "Taluk": "Baran",
    "Districtname": "Baran",
    "statename": "RAJASTHAN"
  },
  {
    "pincode": "325218",
    "officename": "Merma Talab B.O",
    "officeType": "B.O",
    "Deliverystatus": "Delivery",
    "divisionname": "Kota",
    "regionname": "Ajmer",
    "circlename": "Rajasthan",
    "Taluk": "Baran",
    "Districtname": "Baran",
    "statename": "RAJASTHAN"
  },
  {
    "pincode": "325218",
    "officename": "Mundla B.O",
    "officeType": "B.O",
    "Deliverystatus": "Delivery",
    "divisionname": "Kota",
    "regionname": "Ajmer",
    "circlename": "Rajasthan",
    "Taluk": "Baran",
    "Districtname": "Baran",
    "statename": "RAJASTHAN"
  },
  {
    "pincode": "325218",
    "officename": "Patna B.O",
    "officeType": "B.O",
    "Deliverystatus": "Delivery",
    "divisionname": "Kota",
    "regionname": "Ajmer",
    "circlename": "Rajasthan",
    "Taluk": "Baran",
    "Districtname": "Baran",
    "statename": "RAJASTHAN"
  },
  {
    "pincode": "325218",
    "officename": "Piplod B.O",
    "officeType": "B.O",
    "Deliverystatus": "Delivery",
    "divisionname": "Kota",
    "regionname": "Ajmer",
    "circlename": "Rajasthan",
    "Taluk": "Baran",
    "Districtname": "Baran",
    "statename": "RAJASTHAN"
  }
]
