[
  {
    "pincode": "325221",
    "officename": "Ajnawar B.O",
    "officeType": "B.O",
    "Deliverystatus": "Delivery",
    "divisionname": "Kota",
    "regionname": "Ajmer",
    "circlename": "Rajasthan",
    "Taluk": "Baran",
    "Districtname": "Baran",
    "statename": "RAJASTHAN"
  },
  {
    "pincode": "325221",
    "officename": "Bamorighata B.O",
    "officeType": "B.O",
    "Deliverystatus": "Delivery",
    "divisionname": "Kota",
    "regionname": "Ajmer",
    "circlename": "Rajasthan",
    "Taluk": "Baran",
    "Districtname": "Baran",
    "statename": "RAJASTHAN"
  },
  {
    "pincode": "325221",
    "officename": "Banjari B.O",
    "officeType": "B.O",
    "Deliverystatus": "Delivery",
    "divisionname": "Kota",
    "regionname": "Ajmer",
    "circlename": "Rajasthan",
    "Taluk": "Baran",
    "Districtname": "Baran",
    "statename": "RAJASTHAN"
  },
  {
    "pincode": "325221",
    "officename": "Bhavpura B.O",
    "officeType": "B.O",
    "Deliverystatus": "Delivery",
    "divisionname": "Kota",
    "regionname": "Ajmer",
    "circlename": "Rajasthan",
    "Taluk": "Baran",
    "Districtname": "Baran",
    "statename": "RAJASTHAN"
  },
  {
    "pincode": "325221",
    "officename": "Bilendi B.O",
    "officeType": "B.O",
    "Deliverystatus": "Delivery",
    "divisionname": "Kota",
    "regionname": "Ajmer",
    "circlename": "Rajasthan",
    "Taluk": "Baran",
    "Districtname": "Baran",
    "statename": "RAJASTHAN"
  },
  {
    "pincode": "325221",
    "officename": "Chhipa Barod S.O",
    "officeType": "S.O",
    "Deliverystatus": "Delivery",
    "divisionname": "Kota",
    "regionname": "Ajmer",
    "circlename": "Rajasthan",
    "Taluk": "Kota",
    "Districtname": "Baran",
    "statename": "RAJASTHAN"
  },
  {
    "pincode": "325221",
    "officename": "Deori B.O",
    "officeType": "B.O",
    "Deliverystatus": "Delivery",
    "divisionname": "Kota",
    "regionname": "Ajmer",
    "circlename": "Rajasthan",
    "Taluk": "Baran",
    "Districtname": "Baran",
    "statename": "RAJASTHAN"
  },
  {
    "pincode": "325221",
    "officename": "Dholam B.O",
    "officeType": "B.O",
    "Deliverystatus": "Delivery",
    "divisionname": "Kota",
    "regionname": "Ajmer",
    "circlename": "Rajasthan",
    "Taluk": "Baran",
    "Districtname": "Baran",
    "statename": "RAJASTHAN"
  },
  {
    "pincode": "325221",
    "officename": "Digod Jagir B.O",
    "officeType": "B.O",
    "Deliverystatus": "Delivery",
    "divisionname": "Kota",
    "regionname": "Ajmer",
    "circlename": "Rajasthan",
    "Taluk": "Baran",
    "Districtname": "Baran",
    "statename": "RAJASTHAN"
  },
  {
    "pincode": "325221",
    "officename": "Digod Kalan B.O",
    "officeType": "B.O",
    "Deliverystatus": "Delivery",
    "divisionname": "Kota",
    "regionname": "Ajmer",
    "circlename": "Rajasthan",
    "Taluk": "Baran",
    "Districtname": "Baran",
    "statename": "RAJASTHAN"
  },
  {
    "pincode": "325221",
    "officename": "Gagchana B.O",
    "officeType": "B.O",
    "Deliverystatus": "Delivery",
    "divisionname": "Kota",
    "regionname": "Ajmer",
    "circlename": "Rajasthan",
    "Taluk": "Baran",
    "Districtname": "Baran",
    "statename": "RAJASTHAN"
  },
  {
    "pincode": "325221",
    "officename": "Gordhanpra B.O",
    "officeType": "B.O",
    "Deliverystatus": "Delivery",
    "divisionname": "Kota",
    "regionname": "Ajmer",
    "circlename": "Rajasthan",
    "Taluk": "Baran",
    "Districtname": "Baran",
    "statename": "RAJASTHAN"
  },
  {
    "pincode": "325221",
    "officename": "Harnawda Shaji ED B.O",
    "officeType": "B.O",
    "Deliverystatus": "Delivery",
    "divisionname": "Kota",
    "regionname": "Ajmer",
    "circlename": "Rajasthan",
    "Taluk": "Kota",
    "Districtname": "Baran",
    "statename": "RAJASTHAN"
  },
  {
    "pincode": "325221",
    "officename": "Jhinjhni B.O",
    "officeType": "B.O",
    "Deliverystatus": "Delivery",
    "divisionname": "Kota",
    "regionname": "Ajmer",
    "circlename": "Rajasthan",
    "Taluk": "Baran",
    "Districtname": "Baran",
    "statename": "RAJASTHAN"
  },
  {
    "pincode": "325221",
    "officename": "Kachnariya B.O",
    "officeType": "B.O",
    "Deliverystatus": "Delivery",
    "divisionname": "Kota",
    "regionname": "Ajmer",
    "circlename": "Rajasthan",
    "Taluk": "Baran",
    "Districtname": "Baran",
    "statename": "RAJASTHAN"
  },
  {
    "pincode": "325221",
    "officename": "Kalmodiya B.O",
    "officeType": "B.O",
    "Deliverystatus": "Delivery",
    "divisionname": "Kota",
    "regionname": "Ajmer",
    "circlename": "Rajasthan",
    "Taluk": "Baran",
    "Districtname": "Baran",
    "statename": "RAJASTHAN"
  },
  {
    "pincode": "325221",
    "officename": "Kalpajagir B.O",
    "officeType": "B.O",
    "Deliverystatus": "Delivery",
    "divisionname": "Kota",
    "regionname": "Ajmer",
    "circlename": "Rajasthan",
    "Taluk": "Baran",
    "Districtname": "Baran",
    "statename": "RAJASTHAN"
  },
  {
    "pincode": "325221",
    "officename": "Khajuria B.O",
    "officeType": "B.O",
    "Deliverystatus": "Delivery",
    "divisionname": "Kota",
    "regionname": "Ajmer",
    "circlename": "Rajasthan",
    "Taluk": "Baran",
    "Districtname": "Baran",
    "statename": "RAJASTHAN"
  },
  {
    "pincode": "325221",
    "officename": "Mohkampura B.O",
    "officeType": "B.O",
    "Deliverystatus": "Delivery",
    "divisionname": "Kota",
    "regionname": "Ajmer",
    "circlename": "Rajasthan",
    "Taluk": "Baran",
    "Districtname": "Baran",
    "statename": "RAJASTHAN"
  },
  {
    "pincode": "325221",
    "officename": "Rai B.O",
    "officeType": "B.O",
    "Deliverystatus": "Delivery",
    "divisionname": "Kota",
    "regionname": "Ajmer",
    "circlename": "Rajasthan",
    "Taluk": "Baran",
    "Districtname": "Baran",
    "statename": "RAJASTHAN"
  },
  {
    "pincode": "325221",
    "officename": "Sahjanpur B.O",
    "officeType": "B.O",
    "Deliverystatus": "Delivery",
    "divisionname": "Kota",
    "regionname": "Ajmer",
    "circlename": "Rajasthan",
    "Taluk": "Baran",
    "Districtname": "Baran",
    "statename": "RAJASTHAN"
  },
  {
    "pincode": "325221",
    "officename": "Sarthal B.O",
    "officeType": "B.O",
    "Deliverystatus": "Delivery",
    "divisionname": "Kota",
    "regionname": "Ajmer",
    "circlename": "Rajasthan",
    "Taluk": "Baran",
    "Districtname": "Baran",
    "statename": "RAJASTHAN"
  },
  {
    "pincode": "325221",
    "officename": "Sethkolu B.O",
    "officeType": "B.O",
    "Deliverystatus": "Delivery",
    "divisionname": "Kota",
    "regionname": "Ajmer",
    "circlename": "Rajasthan",
    "Taluk": "Baran",
    "Districtname": "Baran",
    "statename": "RAJASTHAN"
  }
]
