[
  {
    "pincode": "326033",
    "officename": "Aklera S.O",
    "officeType": "S.O",
    "Deliverystatus": "Delivery",
    "divisionname": "Kota",
    "regionname": "Ajmer",
    "circlename": "Rajasthan",
    "Taluk": "Jhalawar",
    "Districtname": "Jhalawar",
    "statename": "RAJASTHAN"
  },
  {
    "pincode": "326033",
    "officename": "Ametha B.O",
    "officeType": "B.O",
    "Deliverystatus": "Delivery",
    "divisionname": "Kota",
    "regionname": "Ajmer",
    "circlename": "Rajasthan",
    "Taluk": "Jhalawar",
    "Districtname": "Jhalawar",
    "statename": "RAJASTHAN"
  },
  {
    "pincode": "326033",
    "officename": "Badwad B.O",
    "officeType": "B.O",
    "Deliverystatus": "Delivery",
    "divisionname": "Kota",
    "regionname": "Ajmer",
    "circlename": "Rajasthan",
    "Taluk": "Jhalawar",
    "Districtname": "Jhalawar",
    "statename": "RAJASTHAN"
  },
  {
    "pincode": "326033",
    "officename": "Baira Garh B.O",
    "officeType": "B.O",
    "Deliverystatus": "Delivery",
    "divisionname": "Kota",
    "regionname": "Ajmer",
    "circlename": "Rajasthan",
    "Taluk": "Jhalawar",
    "Districtname": "Jhalawar",
    "statename": "RAJASTHAN"
  },
  {
    "pincode": "326033",
    "officename": "Churalia B.O",
    "officeType": "B.O",
    "Deliverystatus": "Delivery",
    "divisionname": "Kota",
    "regionname": "Ajmer",
    "circlename": "Rajasthan",
    "Taluk": "Jhalawar",
    "Districtname": "Jhalawar",
    "statename": "RAJASTHAN"
  },
  {
    "pincode": "326033",
    "officename": "Deori Kalan B.O",
    "officeType": "B.O",
    "Deliverystatus": "Delivery",
    "divisionname": "Kota",
    "regionname": "Ajmer",
    "circlename": "Rajasthan",
    "Taluk": "Jhalawar",
    "Districtname": "Jhalawar",
    "statename": "RAJASTHAN"
  },
  {
    "pincode": "326033",
    "officename": "Gehu Khedi B.O",
    "officeType": "B.O",
    "Deliverystatus": "Delivery",
    "divisionname": "Kota",
    "regionname": "Ajmer",
    "circlename": "Rajasthan",
    "Taluk": "Jhalawar",
    "Districtname": "Jhalawar",
    "statename": "RAJASTHAN"
  },
  {
    "pincode": "326033",
    "officename": "Kam Khera B.O",
    "officeType": "B.O",
    "Deliverystatus": "Delivery",
    "divisionname": "Kota",
    "regionname": "Ajmer",
    "circlename": "Rajasthan",
    "Taluk": "Jhalawar",
    "Districtname": "Jhalawar",
    "statename": "RAJASTHAN"
  },
  {
    "pincode": "326033",
    "officename": "Lasudia Shaha B.O",
    "officeType": "B.O",
    "Deliverystatus": "Delivery",
    "divisionname": "Kota",
    "regionname": "Ajmer",
    "circlename": "Rajasthan",
    "Taluk": "Jhalawar",
    "Districtname": "Jhalawar",
    "statename": "RAJASTHAN"
  },
  {
    "pincode": "326033",
    "officename": "Lhas B.O",
    "officeType": "B.O",
    "Deliverystatus": "Delivery",
    "divisionname": "Kota",
    "regionname": "Ajmer",
    "circlename": "Rajasthan",
    "Taluk": "Jhalawar",
    "Districtname": "Jhalawar",
    "statename": "RAJASTHAN"
  },
  {
    "pincode": "326033",
    "officename": "Maithun B.O",
    "officeType": "B.O",
    "Deliverystatus": "Delivery",
    "divisionname": "Kota",
    "regionname": "Ajmer",
    "circlename": "Rajasthan",
    "Taluk": "Jhalawar",
    "Districtname": "Jhalawar",
    "statename": "RAJASTHAN"
  },
  {
    "pincode": "326033",
    "officename": "Mishroli B.O",
    "officeType": "B.O",
    "Deliverystatus": "Delivery",
    "divisionname": "Kota",
    "regionname": "Ajmer",
    "circlename": "Rajasthan",
    "Taluk": "Jhalawar",
    "Districtname": "Jhalawar",
    "statename": "RAJASTHAN"
  },
  {
    "pincode": "326033",
    "officename": "Saredi B.O",
    "officeType": "B.O",
    "Deliverystatus": "Delivery",
    "divisionname": "Kota",
    "regionname": "Ajmer",
    "circlename": "Rajasthan",
    "Taluk": "Jhalawar",
    "Districtname": "Jhalawar",
    "statename": "RAJASTHAN"
  },
  {
    "pincode": "326033",
    "officename": "Thanawad B.O",
    "officeType": "B.O",
    "Deliverystatus": "Delivery",
    "divisionname": "Kota",
    "regionname": "Ajmer",
    "circlename": "Rajasthan",
    "Taluk": "Jhalawar",
    "Districtname": "Jhalawar",
    "statename": "RAJASTHAN"
  },
  {
    "pincode": "326033",
    "officename": "Thedol B.O",
    "officeType": "B.O",
    "Deliverystatus": "Delivery",
    "divisionname": "Kota",
    "regionname": "Ajmer",
    "circlename": "Rajasthan",
    "Taluk": "Jhalawar",
    "Districtname": "Jhalawar",
    "statename": "RAJASTHAN"
  },
  {
    "pincode": "326033",
    "officename": "Turkadia B.O",
    "officeType": "B.O",
    "Deliverystatus": "Delivery",
    "divisionname": "Kota",
    "regionname": "Ajmer",
    "circlename": "Rajasthan",
    "Taluk": "Jhalawar",
    "Districtname": "Jhalawar",
    "statename": "RAJASTHAN"
  }
]
