[
  {
    "pincode": "326516",
    "officename": "Gangdhar S.O",
    "officeType": "S.O",
    "Deliverystatus": "Delivery",
    "divisionname": "Kota",
    "regionname": "Ajmer",
    "circlename": "Rajasthan",
    "Taluk": "Jhalawar",
    "Districtname": "Jhalawar",
    "statename": "RAJASTHAN"
  },
  {
    "pincode": "326516",
    "officename": "Guradia Jhala B.O",
    "officeType": "B.O",
    "Deliverystatus": "Delivery",
    "divisionname": "Kota",
    "regionname": "Ajmer",
    "circlename": "Rajasthan",
    "Taluk": "Jhalawar",
    "Districtname": "Jhalawar",
    "statename": "RAJASTHAN"
  },
  {
    "pincode": "326516",
    "officename": "Kachnara B.O",
    "officeType": "B.O",
    "Deliverystatus": "Delivery",
    "divisionname": "Kota",
    "regionname": "Ajmer",
    "circlename": "Rajasthan",
    "Taluk": "Jhalawar",
    "Districtname": "Jhalawar",
    "statename": "RAJASTHAN"
  },
  {
    "pincode": "326516",
    "officename": "Kelu Kheri B.O",
    "officeType": "B.O",
    "Deliverystatus": "Delivery",
    "divisionname": "Kota",
    "regionname": "Ajmer",
    "circlename": "Rajasthan",
    "Taluk": "Jhalawar",
    "Districtname": "Jhalawar",
    "statename": "RAJASTHAN"
  },
  {
    "pincode": "326516",
    "officename": "Rajhana B.O",
    "officeType": "B.O",
    "Deliverystatus": "Delivery",
    "divisionname": "Kota",
    "regionname": "Ajmer",
    "circlename": "Rajasthan",
    "Taluk": "Jhalawar",
    "Districtname": "Jhalawar",
    "statename": "RAJASTHAN"
  },
  {
    "pincode": "326516",
    "officename": "Rampura B.O",
    "officeType": "B.O",
    "Deliverystatus": "Delivery",
    "divisionname": "Kota",
    "regionname": "Ajmer",
    "circlename": "Rajasthan",
    "Taluk": "Jhalawar",
    "Districtname": "Jhalawar",
    "statename": "RAJASTHAN"
  },
  {
    "pincode": "326516",
    "officename": "Sarwad B.O",
    "officeType": "B.O",
    "Deliverystatus": "Delivery",
    "divisionname": "Kota",
    "regionname": "Ajmer",
    "circlename": "Rajasthan",
    "Taluk": "Jhalawar",
    "Districtname": "Jhalawar",
    "statename": "RAJASTHAN"
  },
  {
    "pincode": "326516",
    "officename": "Sunari B.O",
    "officeType": "B.O",
    "Deliverystatus": "Delivery",
    "divisionname": "Kota",
    "regionname": "Ajmer",
    "circlename": "Rajasthan",
    "Taluk": "Jhalawar",
    "Districtname": "Jhalawar",
    "statename": "RAJASTHAN"
  }
]
