[
  {
    "pincode": "326502",
    "officename": "Anwali Kalan B.O",
    "officeType": "B.O",
    "Deliverystatus": "Delivery",
    "divisionname": "Kota",
    "regionname": "Ajmer",
    "circlename": "Rajasthan",
    "Taluk": "Jhalawar",
    "Districtname": "Jhalawar",
    "statename": "RAJASTHAN"
  },
  {
    "pincode": "326502",
    "officename": "Bhawanimandi S.O",
    "officeType": "S.O",
    "Deliverystatus": "Delivery",
    "divisionname": "Kota",
    "regionname": "Ajmer",
    "circlename": "Rajasthan",
    "Taluk": "Jhalawar",
    "Districtname": "Jhalawar",
    "statename": "RAJASTHAN"
  },
  {
    "pincode": "326502",
    "officename": "Ganeshpura B.O",
    "officeType": "B.O",
    "Deliverystatus": "Delivery",
    "divisionname": "Kota",
    "regionname": "Ajmer",
    "circlename": "Rajasthan",
    "Taluk": "Jhalawar",
    "Districtname": "Jhalawar",
    "statename": "RAJASTHAN"
  },
  {
    "pincode": "326502",
    "officename": "Ghatod B.O",
    "officeType": "B.O",
    "Deliverystatus": "Delivery",
    "divisionname": "Kota",
    "regionname": "Ajmer",
    "circlename": "Rajasthan",
    "Taluk": "Jhalawar",
    "Districtname": "Jhalawar",
    "statename": "RAJASTHAN"
  },
  {
    "pincode": "326502",
    "officename": "Guradia Mana B.O",
    "officeType": "B.O",
    "Deliverystatus": "Delivery",
    "divisionname": "Kota",
    "regionname": "Ajmer",
    "circlename": "Rajasthan",
    "Taluk": "Jhalawar",
    "Districtname": "Jhalawar",
    "statename": "RAJASTHAN"
  },
  {
    "pincode": "326502",
    "officename": "Kundi Kheda B.O",
    "officeType": "B.O",
    "Deliverystatus": "Delivery",
    "divisionname": "Kota",
    "regionname": "Ajmer",
    "circlename": "Rajasthan",
    "Taluk": "Jhalawar",
    "Districtname": "Jhalawar",
    "statename": "RAJASTHAN"
  },
  {
    "pincode": "326502",
    "officename": "Mogra B.O",
    "officeType": "B.O",
    "Deliverystatus": "Delivery",
    "divisionname": "Kota",
    "regionname": "Ajmer",
    "circlename": "Rajasthan",
    "Taluk": "Jhalawar",
    "Districtname": "Jhalawar",
    "statename": "RAJASTHAN"
  },
  {
    "pincode": "326502",
    "officename": "Narayan Kheda B.O",
    "officeType": "B.O",
    "Deliverystatus": "Delivery",
    "divisionname": "Kota",
    "regionname": "Ajmer",
    "circlename": "Rajasthan",
    "Taluk": "Jhalawar",
    "Districtname": "Jhalawar",
    "statename": "RAJASTHAN"
  },
  {
    "pincode": "326502",
    "officename": "Sulia B.O",
    "officeType": "B.O",
    "Deliverystatus": "Delivery",
    "divisionname": "Kota",
    "regionname": "Ajmer",
    "circlename": "Rajasthan",
    "Taluk": "Jhalawar",
    "Districtname": "Jhalawar",
    "statename": "RAJASTHAN"
  }
]
