[
  {
    "pincode": "326513",
    "officename": "Bolia Bujurg B.O",
    "officeType": "B.O",
    "Deliverystatus": "Delivery",
    "divisionname": "Kota",
    "regionname": "Ajmer",
    "circlename": "Rajasthan",
    "Taluk": "Jhalawar",
    "Districtname": "Jhalawar",
    "statename": "RAJASTHAN"
  },
  {
    "pincode": "326513",
    "officename": "Chachhlao B.O",
    "officeType": "B.O",
    "Deliverystatus": "Delivery",
    "divisionname": "Kota",
    "regionname": "Ajmer",
    "circlename": "Rajasthan",
    "Taluk": "Jhalawar",
    "Districtname": "Jhalawar",
    "statename": "RAJASTHAN"
  },
  {
    "pincode": "326513",
    "officename": "Dabla Kheenchi B.O",
    "officeType": "B.O",
    "Deliverystatus": "Delivery",
    "divisionname": "Kota",
    "regionname": "Ajmer",
    "circlename": "Rajasthan",
    "Taluk": "Jhalawar",
    "Districtname": "Jhalawar",
    "statename": "RAJASTHAN"
  },
  {
    "pincode": "326513",
    "officename": "Dola B.O",
    "officeType": "B.O",
    "Deliverystatus": "Delivery",
    "divisionname": "Kota",
    "regionname": "Ajmer",
    "circlename": "Rajasthan",
    "Taluk": "Jhalawar",
    "Districtname": "Jhalawar",
    "statename": "RAJASTHAN"
  },
  {
    "pincode": "326513",
    "officename": "Dubalia B.O",
    "officeType": "B.O",
    "Deliverystatus": "Delivery",
    "divisionname": "Kota",
    "regionname": "Ajmer",
    "circlename": "Rajasthan",
    "Taluk": "Jhalawar",
    "Districtname": "Jhalawar",
    "statename": "RAJASTHAN"
  },
  {
    "pincode": "326513",
    "officename": "Gadia B.O",
    "officeType": "B.O",
    "Deliverystatus": "Delivery",
    "divisionname": "Kota",
    "regionname": "Ajmer",
    "circlename": "Rajasthan",
    "Taluk": "Jhalawar",
    "Districtname": "Jhalawar",
    "statename": "RAJASTHAN"
  },
  {
    "pincode": "326513",
    "officename": "Hemda B.O",
    "officeType": "B.O",
    "Deliverystatus": "Delivery",
    "divisionname": "Kota",
    "regionname": "Ajmer",
    "circlename": "Rajasthan",
    "Taluk": "Jhalawar",
    "Districtname": "Jhalawar",
    "statename": "RAJASTHAN"
  },
  {
    "pincode": "326513",
    "officename": "Karodia B.O",
    "officeType": "B.O",
    "Deliverystatus": "Delivery",
    "divisionname": "Kota",
    "regionname": "Ajmer",
    "circlename": "Rajasthan",
    "Taluk": "Jhalawar",
    "Districtname": "Jhalawar",
    "statename": "RAJASTHAN"
  },
  {
    "pincode": "326513",
    "officename": "Mangispur B.O",
    "officeType": "B.O",
    "Deliverystatus": "Delivery",
    "divisionname": "Kota",
    "regionname": "Ajmer",
    "circlename": "Rajasthan",
    "Taluk": "Jhalawar",
    "Districtname": "Jhalawar",
    "statename": "RAJASTHAN"
  },
  {
    "pincode": "326513",
    "officename": "Osav B.O",
    "officeType": "B.O",
    "Deliverystatus": "Delivery",
    "divisionname": "Kota",
    "regionname": "Ajmer",
    "circlename": "Rajasthan",
    "Taluk": "Jhalawar",
    "Districtname": "Jhalawar",
    "statename": "RAJASTHAN"
  },
  {
    "pincode": "326513",
    "officename": "Salotia B.O",
    "officeType": "B.O",
    "Deliverystatus": "Delivery",
    "divisionname": "Kota",
    "regionname": "Ajmer",
    "circlename": "Rajasthan",
    "Taluk": "Jhalawar",
    "Districtname": "Jhalawar",
    "statename": "RAJASTHAN"
  },
  {
    "pincode": "326513",
    "officename": "Sangria B.O",
    "officeType": "B.O",
    "Deliverystatus": "Delivery",
    "divisionname": "Kota",
    "regionname": "Ajmer",
    "circlename": "Rajasthan",
    "Taluk": "Jhalawar",
    "Districtname": "Jhalawar",
    "statename": "RAJASTHAN"
  },
  {
    "pincode": "326513",
    "officename": "Semlia B.O",
    "officeType": "B.O",
    "Deliverystatus": "Delivery",
    "divisionname": "Kota",
    "regionname": "Ajmer",
    "circlename": "Rajasthan",
    "Taluk": "Jhalawar",
    "Districtname": "Jhalawar",
    "statename": "RAJASTHAN"
  },
  {
    "pincode": "326513",
    "officename": "Sirpoi B.O",
    "officeType": "B.O",
    "Deliverystatus": "Delivery",
    "divisionname": "Kota",
    "regionname": "Ajmer",
    "circlename": "Rajasthan",
    "Taluk": "Jhalawar",
    "Districtname": "Jhalawar",
    "statename": "RAJASTHAN"
  },
  {
    "pincode": "326513",
    "officename": "Sunel S.O",
    "officeType": "S.O",
    "Deliverystatus": "Delivery",
    "divisionname": "Kota",
    "regionname": "Ajmer",
    "circlename": "Rajasthan",
    "Taluk": "Jhalawar",
    "Districtname": "Jhalawar",
    "statename": "RAJASTHAN"
  },
  {
    "pincode": "326513",
    "officename": "Unhel B.O",
    "officeType": "B.O",
    "Deliverystatus": "Delivery",
    "divisionname": "Kota",
    "regionname": "Ajmer",
    "circlename": "Rajasthan",
    "Taluk": "Jhalawar",
    "Districtname": "Jhalawar",
    "statename": "RAJASTHAN"
  }
]
