[
  {
    "pincode": "326515",
    "officename": "Bardia Veer Ji B.O",
    "officeType": "B.O",
    "Deliverystatus": "Delivery",
    "divisionname": "Kota",
    "regionname": "Ajmer",
    "circlename": "Rajasthan",
    "Taluk": "Jhalawar",
    "Districtname": "Jhalawar",
    "statename": "RAJASTHAN"
  },
  {
    "pincode": "326515",
    "officename": "Berla B.O",
    "officeType": "B.O",
    "Deliverystatus": "Delivery",
    "divisionname": "Kota",
    "regionname": "Ajmer",
    "circlename": "Rajasthan",
    "Taluk": "Jhalawar",
    "Districtname": "Jhalawar",
    "statename": "RAJASTHAN"
  },
  {
    "pincode": "326515",
    "officename": "Chara B.O",
    "officeType": "B.O",
    "Deliverystatus": "Delivery",
    "divisionname": "Kota",
    "regionname": "Ajmer",
    "circlename": "Rajasthan",
    "Taluk": "Jhalawar",
    "Districtname": "Jhalawar",
    "statename": "RAJASTHAN"
  },
  {
    "pincode": "326515",
    "officename": "Chaumahla S.O",
    "officeType": "S.O",
    "Deliverystatus": "Delivery",
    "divisionname": "Kota",
    "regionname": "Ajmer",
    "circlename": "Rajasthan",
    "Taluk": "Jhalawar",
    "Districtname": "Jhalawar",
    "statename": "RAJASTHAN"
  },
  {
    "pincode": "326515",
    "officename": "Keetia B.O",
    "officeType": "B.O",
    "Deliverystatus": "Delivery",
    "divisionname": "Kota",
    "regionname": "Ajmer",
    "circlename": "Rajasthan",
    "Taluk": "Jhalawar",
    "Districtname": "Jhalawar",
    "statename": "RAJASTHAN"
  },
  {
    "pincode": "326515",
    "officename": "Kumthia B.O",
    "officeType": "B.O",
    "Deliverystatus": "Delivery",
    "divisionname": "Kota",
    "regionname": "Ajmer",
    "circlename": "Rajasthan",
    "Taluk": "Jhalawar",
    "Districtname": "Jhalawar",
    "statename": "RAJASTHAN"
  },
  {
    "pincode": "326515",
    "officename": "Kundla B.O",
    "officeType": "B.O",
    "Deliverystatus": "Delivery",
    "divisionname": "Kota",
    "regionname": "Ajmer",
    "circlename": "Rajasthan",
    "Taluk": "Jhalawar",
    "Districtname": "Jhalawar",
    "statename": "RAJASTHAN"
  },
  {
    "pincode": "326515",
    "officename": "Magsi B.O",
    "officeType": "B.O",
    "Deliverystatus": "Delivery",
    "divisionname": "Kota",
    "regionname": "Ajmer",
    "circlename": "Rajasthan",
    "Taluk": "Jhalawar",
    "Districtname": "Jhalawar",
    "statename": "RAJASTHAN"
  },
  {
    "pincode": "326515",
    "officename": "Parapeeli B.O",
    "officeType": "B.O",
    "Deliverystatus": "Delivery",
    "divisionname": "Kota",
    "regionname": "Ajmer",
    "circlename": "Rajasthan",
    "Taluk": "Jhalawar",
    "Districtname": "Jhalawar",
    "statename": "RAJASTHAN"
  },
  {
    "pincode": "326515",
    "officename": "Parlia B.O",
    "officeType": "B.O",
    "Deliverystatus": "Delivery",
    "divisionname": "Kota",
    "regionname": "Ajmer",
    "circlename": "Rajasthan",
    "Taluk": "Jhalawar",
    "Districtname": "Jhalawar",
    "statename": "RAJASTHAN"
  },
  {
    "pincode": "326515",
    "officename": "Ranaira B.O",
    "officeType": "B.O",
    "Deliverystatus": "Delivery",
    "divisionname": "Kota",
    "regionname": "Ajmer",
    "circlename": "Rajasthan",
    "Taluk": "Jhalawar",
    "Districtname": "Jhalawar",
    "statename": "RAJASTHAN"
  },
  {
    "pincode": "326515",
    "officename": "Rawangurari B.O",
    "officeType": "B.O",
    "Deliverystatus": "Delivery",
    "divisionname": "Kota",
    "regionname": "Ajmer",
    "circlename": "Rajasthan",
    "Taluk": "Jhalawar",
    "Districtname": "Jhalawar",
    "statename": "RAJASTHAN"
  },
  {
    "pincode": "326515",
    "officename": "Talawali B.O",
    "officeType": "B.O",
    "Deliverystatus": "Delivery",
    "divisionname": "Kota",
    "regionname": "Ajmer",
    "circlename": "Rajasthan",
    "Taluk": "Jhalawar",
    "Districtname": "Jhalawar",
    "statename": "RAJASTHAN"
  },
  {
    "pincode": "326515",
    "officename": "Unhel Nagdev B.O",
    "officeType": "B.O",
    "Deliverystatus": "Delivery",
    "divisionname": "Kota",
    "regionname": "Ajmer",
    "circlename": "Rajasthan",
    "Taluk": "Jhalawar",
    "Districtname": "Jhalawar",
    "statename": "RAJASTHAN"
  }
]
