[
  {
    "pincode": "326519",
    "officename": "Deoli Khurd B.O",
    "officeType": "B.O",
    "Deliverystatus": "Delivery",
    "divisionname": "Kota",
    "regionname": "Ajmer",
    "circlename": "Rajasthan",
    "Taluk": "Kota",
    "Districtname": "Kota",
    "statename": "RAJASTHAN"
  },
  {
    "pincode": "326519",
    "officename": "Julmi B.O",
    "officeType": "B.O",
    "Deliverystatus": "Delivery",
    "divisionname": "Kota",
    "regionname": "Ajmer",
    "circlename": "Rajasthan",
    "Taluk": "Kota",
    "Districtname": "Kota",
    "statename": "RAJASTHAN"
  },
  {
    "pincode": "326519",
    "officename": "Kudaila B.O",
    "officeType": "B.O",
    "Deliverystatus": "Delivery",
    "divisionname": "Kota",
    "regionname": "Ajmer",
    "circlename": "Rajasthan",
    "Taluk": "Kota",
    "Districtname": "Kota",
    "statename": "RAJASTHAN"
  },
  {
    "pincode": "326519",
    "officename": "Kumbhkot B.O",
    "officeType": "B.O",
    "Deliverystatus": "Delivery",
    "divisionname": "Kota",
    "regionname": "Ajmer",
    "circlename": "Rajasthan",
    "Taluk": "Kota",
    "Districtname": "Kota",
    "statename": "RAJASTHAN"
  },
  {
    "pincode": "326519",
    "officename": "Pipa Khedi B.O",
    "officeType": "B.O",
    "Deliverystatus": "Delivery",
    "divisionname": "Kota",
    "regionname": "Ajmer",
    "circlename": "Rajasthan",
    "Taluk": "Kota",
    "Districtname": "Kota",
    "statename": "RAJASTHAN"
  },
  {
    "pincode": "326519",
    "officename": "Ram Ganj Mandi S.O",
    "officeType": "S.O",
    "Deliverystatus": "Delivery",
    "divisionname": "Kota",
    "regionname": "Ajmer",
    "circlename": "Rajasthan",
    "Taluk": "Kota",
    "Districtname": "Kota",
    "statename": "RAJASTHAN"
  },
  {
    "pincode": "326519",
    "officename": "Satal Khedi B.O",
    "officeType": "B.O",
    "Deliverystatus": "Delivery",
    "divisionname": "Kota",
    "regionname": "Ajmer",
    "circlename": "Rajasthan",
    "Taluk": "Kota",
    "Districtname": "Kota",
    "statename": "RAJASTHAN"
  },
  {
    "pincode": "326519",
    "officename": "Undwa B.O",
    "officeType": "B.O",
    "Deliverystatus": "Delivery",
    "divisionname": "Kota",
    "regionname": "Ajmer",
    "circlename": "Rajasthan",
    "Taluk": "Kota",
    "Districtname": "Kota",
    "statename": "RAJASTHAN"
  }
]
