[
  {
    "pincode": "327034",
    "officename": "Ador B.O",
    "officeType": "B.O",
    "Deliverystatus": "Delivery",
    "divisionname": "Dungarpur",
    "regionname": "Ajmer",
    "circlename": "Rajasthan",
    "Taluk": "Banswara",
    "Districtname": "Banswara",
    "statename": "RAJASTHAN"
  },
  {
    "pincode": "327034",
    "officename": "Amja B.O",
    "officeType": "B.O",
    "Deliverystatus": "Delivery",
    "divisionname": "Dungarpur",
    "regionname": "Ajmer",
    "circlename": "Rajasthan",
    "Taluk": "Banswara",
    "Districtname": "Banswara",
    "statename": "RAJASTHAN"
  },
  {
    "pincode": "327034",
    "officename": "Bhatar B.O",
    "officeType": "B.O",
    "Deliverystatus": "Delivery",
    "divisionname": "Dungarpur",
    "regionname": "Ajmer",
    "circlename": "Rajasthan",
    "Taluk": "Banswara",
    "Districtname": "Banswara",
    "statename": "RAJASTHAN"
  },
  {
    "pincode": "327034",
    "officename": "Gopinath Ka Garha B.O",
    "officeType": "B.O",
    "Deliverystatus": "Delivery",
    "divisionname": "Dungarpur",
    "regionname": "Ajmer",
    "circlename": "Rajasthan",
    "Taluk": "Banswara",
    "Districtname": "Banswara",
    "statename": "RAJASTHAN"
  },
  {
    "pincode": "327034",
    "officename": "Jolana S.O",
    "officeType": "S.O",
    "Deliverystatus": "Delivery",
    "divisionname": "Dungarpur",
    "regionname": "Ajmer",
    "circlename": "Rajasthan",
    "Taluk": "Banswara",
    "Districtname": "Banswara",
    "statename": "RAJASTHAN"
  },
  {
    "pincode": "327034",
    "officename": "Madlada B.O",
    "officeType": "B.O",
    "Deliverystatus": "Delivery",
    "divisionname": "Dungarpur",
    "regionname": "Ajmer",
    "circlename": "Rajasthan",
    "Taluk": "Banswara",
    "Districtname": "Banswara",
    "statename": "RAJASTHAN"
  },
  {
    "pincode": "327034",
    "officename": "Nahali B.O",
    "officeType": "B.O",
    "Deliverystatus": "Delivery",
    "divisionname": "Dungarpur",
    "regionname": "Ajmer",
    "circlename": "Rajasthan",
    "Taluk": "Banswara",
    "Districtname": "Banswara",
    "statename": "RAJASTHAN"
  },
  {
    "pincode": "327034",
    "officename": "Naugama B.O",
    "officeType": "B.O",
    "Deliverystatus": "Delivery",
    "divisionname": "Dungarpur",
    "regionname": "Ajmer",
    "circlename": "Rajasthan",
    "Taluk": "Banswara",
    "Districtname": "Banswara",
    "statename": "RAJASTHAN"
  },
  {
    "pincode": "327034",
    "officename": "Odwara B.O",
    "officeType": "B.O",
    "Deliverystatus": "Delivery",
    "divisionname": "Dungarpur",
    "regionname": "Ajmer",
    "circlename": "Rajasthan",
    "Taluk": "Banswara",
    "Districtname": "Banswara",
    "statename": "RAJASTHAN"
  },
  {
    "pincode": "327034",
    "officename": "Panasi Chhti B.O",
    "officeType": "B.O",
    "Deliverystatus": "Delivery",
    "divisionname": "Dungarpur",
    "regionname": "Ajmer",
    "circlename": "Rajasthan",
    "Taluk": "",
    "Districtname": "Banswara",
    "statename": "RAJASTHAN"
  },
  {
    "pincode": "327034",
    "officename": "Paraheda B.O",
    "officeType": "B.O",
    "Deliverystatus": "Delivery",
    "divisionname": "Dungarpur",
    "regionname": "Ajmer",
    "circlename": "Rajasthan",
    "Taluk": "Banswara",
    "Districtname": "Banswara",
    "statename": "RAJASTHAN"
  },
  {
    "pincode": "327034",
    "officename": "Pindarama B.O",
    "officeType": "B.O",
    "Deliverystatus": "Delivery",
    "divisionname": "Dungarpur",
    "regionname": "Ajmer",
    "circlename": "Rajasthan",
    "Taluk": "Banswara",
    "Districtname": "Banswara",
    "statename": "RAJASTHAN"
  },
  {
    "pincode": "327034",
    "officename": "Raiyana B.O",
    "officeType": "B.O",
    "Deliverystatus": "Delivery",
    "divisionname": "Dungarpur",
    "regionname": "Ajmer",
    "circlename": "Rajasthan",
    "Taluk": "Banswara",
    "Districtname": "Banswara",
    "statename": "RAJASTHAN"
  },
  {
    "pincode": "327034",
    "officename": "Tamtiya Rathor B.O",
    "officeType": "B.O",
    "Deliverystatus": "Delivery",
    "divisionname": "Dungarpur",
    "regionname": "Ajmer",
    "circlename": "Rajasthan",
    "Taluk": "Banswara",
    "Districtname": "Banswara",
    "statename": "RAJASTHAN"
  }
]
