[
  {
    "pincode": "327027",
    "officename": "Borpi Khera B.O",
    "officeType": "B.O",
    "Deliverystatus": "Delivery",
    "divisionname": "Dungarpur",
    "regionname": "Ajmer",
    "circlename": "Rajasthan",
    "Taluk": "Banswara",
    "Districtname": "Banswara",
    "statename": "RAJASTHAN"
  },
  {
    "pincode": "327027",
    "officename": "Chhari B.O",
    "officeType": "B.O",
    "Deliverystatus": "Delivery",
    "divisionname": "Dungarpur",
    "regionname": "Ajmer",
    "circlename": "Rajasthan",
    "Taluk": "",
    "Districtname": "Banswara",
    "statename": "RAJASTHAN"
  },
  {
    "pincode": "327027",
    "officename": "Dagal B.O",
    "officeType": "B.O",
    "Deliverystatus": "Delivery",
    "divisionname": "Dungarpur",
    "regionname": "Ajmer",
    "circlename": "Rajasthan",
    "Taluk": "Banswara",
    "Districtname": "Banswara",
    "statename": "RAJASTHAN"
  },
  {
    "pincode": "327027",
    "officename": "Dungariya B.O",
    "officeType": "B.O",
    "Deliverystatus": "Delivery",
    "divisionname": "Dungarpur",
    "regionname": "Ajmer",
    "circlename": "Rajasthan",
    "Taluk": "Banswara",
    "Districtname": "Banswara",
    "statename": "RAJASTHAN"
  },
  {
    "pincode": "327027",
    "officename": "Dunglavani B.O",
    "officeType": "B.O",
    "Deliverystatus": "Delivery",
    "divisionname": "Dungarpur",
    "regionname": "Ajmer",
    "circlename": "Rajasthan",
    "Taluk": "Banswara",
    "Districtname": "Banswara",
    "statename": "RAJASTHAN"
  },
  {
    "pincode": "327027",
    "officename": "Dungra B.O",
    "officeType": "B.O",
    "Deliverystatus": "Delivery",
    "divisionname": "Dungarpur",
    "regionname": "Ajmer",
    "circlename": "Rajasthan",
    "Taluk": "Banswara",
    "Districtname": "Banswara",
    "statename": "RAJASTHAN"
  },
  {
    "pincode": "327027",
    "officename": "Ghantali B.O",
    "officeType": "B.O",
    "Deliverystatus": "Delivery",
    "divisionname": "Dungarpur",
    "regionname": "Ajmer",
    "circlename": "Rajasthan",
    "Taluk": "Banswara",
    "Districtname": "Banswara",
    "statename": "RAJASTHAN"
  },
  {
    "pincode": "327027",
    "officename": "Jethali B.O",
    "officeType": "B.O",
    "Deliverystatus": "Delivery",
    "divisionname": "Dungarpur",
    "regionname": "Ajmer",
    "circlename": "Rajasthan",
    "Taluk": "Banswara",
    "Districtname": "Banswara",
    "statename": "RAJASTHAN"
  },
  {
    "pincode": "327027",
    "officename": "Kanthao B.O",
    "officeType": "B.O",
    "Deliverystatus": "Delivery",
    "divisionname": "Dungarpur",
    "regionname": "Ajmer",
    "circlename": "Rajasthan",
    "Taluk": "Banswara",
    "Districtname": "Banswara",
    "statename": "RAJASTHAN"
  },
  {
    "pincode": "327027",
    "officename": "Khamera S.O",
    "officeType": "S.O",
    "Deliverystatus": "Delivery",
    "divisionname": "Dungarpur",
    "regionname": "Ajmer",
    "circlename": "Rajasthan",
    "Taluk": "Banswara",
    "Districtname": "Banswara",
    "statename": "RAJASTHAN"
  },
  {
    "pincode": "327027",
    "officename": "Kherwa B.O",
    "officeType": "B.O",
    "Deliverystatus": "Delivery",
    "divisionname": "Dungarpur",
    "regionname": "Ajmer",
    "circlename": "Rajasthan",
    "Taluk": "Banswara",
    "Districtname": "Banswara",
    "statename": "RAJASTHAN"
  },
  {
    "pincode": "327027",
    "officename": "Miyasa B.O",
    "officeType": "B.O",
    "Deliverystatus": "Delivery",
    "divisionname": "Dungarpur",
    "regionname": "Ajmer",
    "circlename": "Rajasthan",
    "Taluk": "Banswara",
    "Districtname": "Banswara",
    "statename": "RAJASTHAN"
  },
  {
    "pincode": "327027",
    "officename": "Mudsal B.O",
    "officeType": "B.O",
    "Deliverystatus": "Delivery",
    "divisionname": "Dungarpur",
    "regionname": "Ajmer",
    "circlename": "Rajasthan",
    "Taluk": "Banswara",
    "Districtname": "Banswara",
    "statename": "RAJASTHAN"
  },
  {
    "pincode": "327027",
    "officename": "Narwali B.O",
    "officeType": "B.O",
    "Deliverystatus": "Delivery",
    "divisionname": "Dungarpur",
    "regionname": "Ajmer",
    "circlename": "Rajasthan",
    "Taluk": "Banswara",
    "Districtname": "Banswara",
    "statename": "RAJASTHAN"
  },
  {
    "pincode": "327027",
    "officename": "Nayan B.O",
    "officeType": "B.O",
    "Deliverystatus": "Delivery",
    "divisionname": "Dungarpur",
    "regionname": "Ajmer",
    "circlename": "Rajasthan",
    "Taluk": "Banswara",
    "Districtname": "Banswara",
    "statename": "RAJASTHAN"
  },
  {
    "pincode": "327027",
    "officename": "Rupji Ka Kheda B.O",
    "officeType": "B.O",
    "Deliverystatus": "Delivery",
    "divisionname": "Dungarpur",
    "regionname": "Ajmer",
    "circlename": "Rajasthan",
    "Taluk": "Banswara",
    "Districtname": "Banswara",
    "statename": "RAJASTHAN"
  },
  {
    "pincode": "327027",
    "officename": "Sarodia B.O",
    "officeType": "B.O",
    "Deliverystatus": "Delivery",
    "divisionname": "Dungarpur",
    "regionname": "Ajmer",
    "circlename": "Rajasthan",
    "Taluk": "Banswara",
    "Districtname": "Banswara",
    "statename": "RAJASTHAN"
  },
  {
    "pincode": "327027",
    "officename": "Semaliya B.O",
    "officeType": "B.O",
    "Deliverystatus": "Delivery",
    "divisionname": "Dungarpur",
    "regionname": "Ajmer",
    "circlename": "Rajasthan",
    "Taluk": "Banswara",
    "Districtname": "Banswara",
    "statename": "RAJASTHAN"
  },
  {
    "pincode": "327027",
    "officename": "Sodalpur B.O",
    "officeType": "B.O",
    "Deliverystatus": "Delivery",
    "divisionname": "Dungarpur",
    "regionname": "Ajmer",
    "circlename": "Rajasthan",
    "Taluk": "Banswara",
    "Districtname": "Banswara",
    "statename": "RAJASTHAN"
  },
  {
    "pincode": "327027",
    "officename": "Sowaniya B.O",
    "officeType": "B.O",
    "Deliverystatus": "Delivery",
    "divisionname": "Dungarpur",
    "regionname": "Ajmer",
    "circlename": "Rajasthan",
    "Taluk": "Banswara",
    "Districtname": "Banswara",
    "statename": "RAJASTHAN"
  }
]
