[
  {
    "pincode": "327022",
    "officename": "Agarpura B.O",
    "officeType": "B.O",
    "Deliverystatus": "Delivery",
    "divisionname": "Dungarpur",
    "regionname": "Ajmer",
    "circlename": "Rajasthan",
    "Taluk": "Banswara",
    "Districtname": "Banswara",
    "statename": "RAJASTHAN"
  },
  {
    "pincode": "327022",
    "officename": "Asoda B.O",
    "officeType": "B.O",
    "Deliverystatus": "Delivery",
    "divisionname": "Dungarpur",
    "regionname": "Ajmer",
    "circlename": "Rajasthan",
    "Taluk": "Banswara",
    "Districtname": "Banswara",
    "statename": "RAJASTHAN"
  },
  {
    "pincode": "327022",
    "officename": "Berwa B.O",
    "officeType": "B.O",
    "Deliverystatus": "Delivery",
    "divisionname": "Dungarpur",
    "regionname": "Ajmer",
    "circlename": "Rajasthan",
    "Taluk": "Banswara",
    "Districtname": "Banswara",
    "statename": "RAJASTHAN"
  },
  {
    "pincode": "327022",
    "officename": "Bhagora B.O",
    "officeType": "B.O",
    "Deliverystatus": "Delivery",
    "divisionname": "Dungarpur",
    "regionname": "Ajmer",
    "circlename": "Rajasthan",
    "Taluk": "Banswara",
    "Districtname": "Banswara",
    "statename": "RAJASTHAN"
  },
  {
    "pincode": "327022",
    "officename": "Bori B.O",
    "officeType": "B.O",
    "Deliverystatus": "Delivery",
    "divisionname": "Dungarpur",
    "regionname": "Ajmer",
    "circlename": "Rajasthan",
    "Taluk": "",
    "Districtname": "Banswara",
    "statename": "RAJASTHAN"
  },
  {
    "pincode": "327022",
    "officename": "Chopasang B.O",
    "officeType": "B.O",
    "Deliverystatus": "Delivery",
    "divisionname": "Dungarpur",
    "regionname": "Ajmer",
    "circlename": "Rajasthan",
    "Taluk": "Banswara",
    "Districtname": "Banswara",
    "statename": "RAJASTHAN"
  },
  {
    "pincode": "327022",
    "officename": "Daduka B.O",
    "officeType": "B.O",
    "Deliverystatus": "Delivery",
    "divisionname": "Dungarpur",
    "regionname": "Ajmer",
    "circlename": "Rajasthan",
    "Taluk": "Banswara",
    "Districtname": "Banswara",
    "statename": "RAJASTHAN"
  },
  {
    "pincode": "327022",
    "officename": "Garhi S.O (Banswara)",
    "officeType": "S.O",
    "Deliverystatus": "Delivery",
    "divisionname": "Dungarpur",
    "regionname": "Ajmer",
    "circlename": "Rajasthan",
    "Taluk": "Banswara",
    "Districtname": "Banswara",
    "statename": "RAJASTHAN"
  },
  {
    "pincode": "327022",
    "officename": "Jharas B.O",
    "officeType": "B.O",
    "Deliverystatus": "Delivery",
    "divisionname": "Dungarpur",
    "regionname": "Ajmer",
    "circlename": "Rajasthan",
    "Taluk": "",
    "Districtname": "Banswara",
    "statename": "RAJASTHAN"
  },
  {
    "pincode": "327022",
    "officename": "Kharan Ka Parda B.O",
    "officeType": "B.O",
    "Deliverystatus": "Delivery",
    "divisionname": "Dungarpur",
    "regionname": "Ajmer",
    "circlename": "Rajasthan",
    "Taluk": "Banswara",
    "Districtname": "Banswara",
    "statename": "RAJASTHAN"
  },
  {
    "pincode": "327022",
    "officename": "Khodan B.O",
    "officeType": "B.O",
    "Deliverystatus": "Delivery",
    "divisionname": "Dungarpur",
    "regionname": "Ajmer",
    "circlename": "Rajasthan",
    "Taluk": "Banswara",
    "Districtname": "Banswara",
    "statename": "RAJASTHAN"
  },
  {
    "pincode": "327022",
    "officename": "Malana B.O",
    "officeType": "B.O",
    "Deliverystatus": "Delivery",
    "divisionname": "Dungarpur",
    "regionname": "Ajmer",
    "circlename": "Rajasthan",
    "Taluk": "Banswara",
    "Districtname": "Banswara",
    "statename": "RAJASTHAN"
  },
  {
    "pincode": "327022",
    "officename": "Matwala B.O",
    "officeType": "B.O",
    "Deliverystatus": "Delivery",
    "divisionname": "Dungarpur",
    "regionname": "Ajmer",
    "circlename": "Rajasthan",
    "Taluk": "Banswara",
    "Districtname": "Banswara",
    "statename": "RAJASTHAN"
  },
  {
    "pincode": "327022",
    "officename": "Mor B.O",
    "officeType": "B.O",
    "Deliverystatus": "Delivery",
    "divisionname": "Dungarpur",
    "regionname": "Ajmer",
    "circlename": "Rajasthan",
    "Taluk": "Banswara",
    "Districtname": "Banswara",
    "statename": "RAJASTHAN"
  },
  {
    "pincode": "327022",
    "officename": "Naya Goan B.O",
    "officeType": "B.O",
    "Deliverystatus": "Delivery",
    "divisionname": "Dungarpur",
    "regionname": "Ajmer",
    "circlename": "Rajasthan",
    "Taluk": "Banswara",
    "Districtname": "Banswara",
    "statename": "RAJASTHAN"
  },
  {
    "pincode": "327022",
    "officename": "Samagarha B.O",
    "officeType": "B.O",
    "Deliverystatus": "Delivery",
    "divisionname": "Dungarpur",
    "regionname": "Ajmer",
    "circlename": "Rajasthan",
    "Taluk": "Banswara",
    "Districtname": "Banswara",
    "statename": "RAJASTHAN"
  },
  {
    "pincode": "327022",
    "officename": "Umbada B.O",
    "officeType": "B.O",
    "Deliverystatus": "Delivery",
    "divisionname": "Dungarpur",
    "regionname": "Ajmer",
    "circlename": "Rajasthan",
    "Taluk": "Banswara",
    "Districtname": "Banswara",
    "statename": "RAJASTHAN"
  }
]
