[
  {
    "pincode": "327604",
    "officename": "Barodia S.O",
    "officeType": "S.O",
    "Deliverystatus": "Delivery",
    "divisionname": "Dungarpur",
    "regionname": "Ajmer",
    "circlename": "Rajasthan",
    "Taluk": "Banswara",
    "Districtname": "Banswara",
    "statename": "RAJASTHAN"
  },
  {
    "pincode": "327604",
    "officename": "Bodigama B.O",
    "officeType": "B.O",
    "Deliverystatus": "Delivery",
    "divisionname": "Dungarpur",
    "regionname": "Ajmer",
    "circlename": "Rajasthan",
    "Taluk": "Banswara",
    "Districtname": "Banswara",
    "statename": "RAJASTHAN"
  },
  {
    "pincode": "327604",
    "officename": "Budwa B.O",
    "officeType": "B.O",
    "Deliverystatus": "Delivery",
    "divisionname": "Dungarpur",
    "regionname": "Ajmer",
    "circlename": "Rajasthan",
    "Taluk": "Banswara",
    "Districtname": "Banswara",
    "statename": "RAJASTHAN"
  },
  {
    "pincode": "327604",
    "officename": "Chokhala B.O",
    "officeType": "B.O",
    "Deliverystatus": "Delivery",
    "divisionname": "Dungarpur",
    "regionname": "Ajmer",
    "circlename": "Rajasthan",
    "Taluk": "Banswara",
    "Districtname": "Banswara",
    "statename": "RAJASTHAN"
  },
  {
    "pincode": "327604",
    "officename": "Karji B.O",
    "officeType": "B.O",
    "Deliverystatus": "Delivery",
    "divisionname": "Dungarpur",
    "regionname": "Ajmer",
    "circlename": "Rajasthan",
    "Taluk": "Banswara",
    "Districtname": "Banswara",
    "statename": "RAJASTHAN"
  },
  {
    "pincode": "327604",
    "officename": "Limthan B.O",
    "officeType": "B.O",
    "Deliverystatus": "Delivery",
    "divisionname": "Dungarpur",
    "regionname": "Ajmer",
    "circlename": "Rajasthan",
    "Taluk": "Banswara",
    "Districtname": "Banswara",
    "statename": "RAJASTHAN"
  },
  {
    "pincode": "327604",
    "officename": "Pali Kalan B.O",
    "officeType": "B.O",
    "Deliverystatus": "Delivery",
    "divisionname": "Dungarpur",
    "regionname": "Ajmer",
    "circlename": "Rajasthan",
    "Taluk": "Banswara",
    "Districtname": "Banswara",
    "statename": "RAJASTHAN"
  },
  {
    "pincode": "327604",
    "officename": "Sagrod B.O",
    "officeType": "B.O",
    "Deliverystatus": "Delivery",
    "divisionname": "Dungarpur",
    "regionname": "Ajmer",
    "circlename": "Rajasthan",
    "Taluk": "Banswara",
    "Districtname": "Banswara",
    "statename": "RAJASTHAN"
  },
  {
    "pincode": "327604",
    "officename": "Saliya B.O",
    "officeType": "B.O",
    "Deliverystatus": "Delivery",
    "divisionname": "Dungarpur",
    "regionname": "Ajmer",
    "circlename": "Rajasthan",
    "Taluk": "Banswara",
    "Districtname": "Banswara",
    "statename": "RAJASTHAN"
  },
  {
    "pincode": "327604",
    "officename": "Samaria B.O",
    "officeType": "B.O",
    "Deliverystatus": "Delivery",
    "divisionname": "Dungarpur",
    "regionname": "Ajmer",
    "circlename": "Rajasthan",
    "Taluk": "Banswara",
    "Districtname": "Banswara",
    "statename": "RAJASTHAN"
  },
  {
    "pincode": "327604",
    "officename": "Surwania B.O",
    "officeType": "B.O",
    "Deliverystatus": "Delivery",
    "divisionname": "Dungarpur",
    "regionname": "Ajmer",
    "circlename": "Rajasthan",
    "Taluk": "Banswara",
    "Districtname": "Banswara",
    "statename": "RAJASTHAN"
  }
]
