[
  {
    "pincode": "328022",
    "officename": "Atarsuma B.O",
    "officeType": "B.O",
    "Deliverystatus": "Delivery",
    "divisionname": "Dholpur",
    "regionname": "Jaipur HQ",
    "circlename": "Rajasthan",
    "Taluk": "Baresei",
    "Districtname": "Dholpur",
    "statename": "RAJASTHAN"
  },
  {
    "pincode": "328022",
    "officename": "Bagthar B.O",
    "officeType": "B.O",
    "Deliverystatus": "Delivery",
    "divisionname": "Dholpur",
    "regionname": "Jaipur HQ",
    "circlename": "Rajasthan",
    "Taluk": "Baresei",
    "Districtname": "Dholpur",
    "statename": "RAJASTHAN"
  },
  {
    "pincode": "328022",
    "officename": "Barai B.O",
    "officeType": "B.O",
    "Deliverystatus": "Delivery",
    "divisionname": "Dholpur",
    "regionname": "Jaipur HQ",
    "circlename": "Rajasthan",
    "Taluk": "Baresei",
    "Districtname": "Dholpur",
    "statename": "RAJASTHAN"
  },
  {
    "pincode": "328022",
    "officename": "Baseri S.O",
    "officeType": "S.O",
    "Deliverystatus": "Delivery",
    "divisionname": "Dholpur",
    "regionname": "Jaipur HQ",
    "circlename": "Rajasthan",
    "Taluk": "Baseri",
    "Districtname": "Dholpur",
    "statename": "RAJASTHAN"
  },
  {
    "pincode": "328022",
    "officename": "Bharli B.O",
    "officeType": "B.O",
    "Deliverystatus": "Delivery",
    "divisionname": "Dholpur",
    "regionname": "Jaipur HQ",
    "circlename": "Rajasthan",
    "Taluk": "Baresei",
    "Districtname": "Dholpur",
    "statename": "RAJASTHAN"
  },
  {
    "pincode": "328022",
    "officename": "Daupura B.O",
    "officeType": "B.O",
    "Deliverystatus": "Delivery",
    "divisionname": "Dholpur",
    "regionname": "Jaipur HQ",
    "circlename": "Rajasthan",
    "Taluk": "Baresei",
    "Districtname": "Dholpur",
    "statename": "RAJASTHAN"
  },
  {
    "pincode": "328022",
    "officename": "Dhorr B.O",
    "officeType": "B.O",
    "Deliverystatus": "Delivery",
    "divisionname": "Dholpur",
    "regionname": "Jaipur HQ",
    "circlename": "Rajasthan",
    "Taluk": "Baresei",
    "Districtname": "Dholpur",
    "statename": "RAJASTHAN"
  },
  {
    "pincode": "328022",
    "officename": "Ekta B.O",
    "officeType": "B.O",
    "Deliverystatus": "Delivery",
    "divisionname": "Dholpur",
    "regionname": "Jaipur HQ",
    "circlename": "Rajasthan",
    "Taluk": "Baresei",
    "Districtname": "Dholpur",
    "statename": "RAJASTHAN"
  },
  {
    "pincode": "328022",
    "officename": "Harjupura B.O",
    "officeType": "B.O",
    "Deliverystatus": "Delivery",
    "divisionname": "Dholpur",
    "regionname": "Jaipur HQ",
    "circlename": "Rajasthan",
    "Taluk": "Baresei",
    "Districtname": "Dholpur",
    "statename": "RAJASTHAN"
  },
  {
    "pincode": "328022",
    "officename": "Jarga B.O",
    "officeType": "B.O",
    "Deliverystatus": "Delivery",
    "divisionname": "Dholpur",
    "regionname": "Jaipur HQ",
    "circlename": "Rajasthan",
    "Taluk": "Baresei",
    "Districtname": "Dholpur",
    "statename": "RAJASTHAN"
  },
  {
    "pincode": "328022",
    "officename": "Khidora B.O",
    "officeType": "B.O",
    "Deliverystatus": "Delivery",
    "divisionname": "Dholpur",
    "regionname": "Jaipur HQ",
    "circlename": "Rajasthan",
    "Taluk": "Baresei",
    "Districtname": "Dholpur",
    "statename": "RAJASTHAN"
  },
  {
    "pincode": "328022",
    "officename": "Khori Ibrahimpur B.O",
    "officeType": "B.O",
    "Deliverystatus": "Delivery",
    "divisionname": "Dholpur",
    "regionname": "Jaipur HQ",
    "circlename": "Rajasthan",
    "Taluk": "Baresei",
    "Districtname": "Dholpur",
    "statename": "RAJASTHAN"
  },
  {
    "pincode": "328022",
    "officename": "Mahu Gulawali B.O",
    "officeType": "B.O",
    "Deliverystatus": "Delivery",
    "divisionname": "Dholpur",
    "regionname": "Jaipur HQ",
    "circlename": "Rajasthan",
    "Taluk": "Baresei",
    "Districtname": "Dholpur",
    "statename": "RAJASTHAN"
  },
  {
    "pincode": "328022",
    "officename": "Mamodhan B.O",
    "officeType": "B.O",
    "Deliverystatus": "Delivery",
    "divisionname": "Dholpur",
    "regionname": "Jaipur HQ",
    "circlename": "Rajasthan",
    "Taluk": "Baresei",
    "Districtname": "Dholpur",
    "statename": "RAJASTHAN"
  },
  {
    "pincode": "328022",
    "officename": "Mudik B.O",
    "officeType": "B.O",
    "Deliverystatus": "Delivery",
    "divisionname": "Dholpur",
    "regionname": "Jaipur HQ",
    "circlename": "Rajasthan",
    "Taluk": "Baresei",
    "Districtname": "Dholpur",
    "statename": "RAJASTHAN"
  },
  {
    "pincode": "328022",
    "officename": "Nadanpur B.O",
    "officeType": "B.O",
    "Deliverystatus": "Delivery",
    "divisionname": "Dholpur",
    "regionname": "Jaipur HQ",
    "circlename": "Rajasthan",
    "Taluk": "Baresei",
    "Districtname": "Dholpur",
    "statename": "RAJASTHAN"
  },
  {
    "pincode": "328022",
    "officename": "Pipron B.O",
    "officeType": "B.O",
    "Deliverystatus": "Delivery",
    "divisionname": "Dholpur",
    "regionname": "Jaipur HQ",
    "circlename": "Rajasthan",
    "Taluk": "Baresei",
    "Districtname": "Dholpur",
    "statename": "RAJASTHAN"
  },
  {
    "pincode": "328022",
    "officename": "Poonthpura B.O",
    "officeType": "B.O",
    "Deliverystatus": "Delivery",
    "divisionname": "Dholpur",
    "regionname": "Jaipur HQ",
    "circlename": "Rajasthan",
    "Taluk": "Baresei",
    "Districtname": "Dholpur",
    "statename": "RAJASTHAN"
  },
  {
    "pincode": "328022",
    "officename": "Ratanpur B.O",
    "officeType": "B.O",
    "Deliverystatus": "Delivery",
    "divisionname": "Dholpur",
    "regionname": "Jaipur HQ",
    "circlename": "Rajasthan",
    "Taluk": "Baresei",
    "Districtname": "Dholpur",
    "statename": "RAJASTHAN"
  },
  {
    "pincode": "328022",
    "officename": "Salempur B.O",
    "officeType": "B.O",
    "Deliverystatus": "Delivery",
    "divisionname": "Dholpur",
    "regionname": "Jaipur HQ",
    "circlename": "Rajasthan",
    "Taluk": "Baresei",
    "Districtname": "Dholpur",
    "statename": "RAJASTHAN"
  },
  {
    "pincode": "328022",
    "officename": "Tajpur B.O",
    "officeType": "B.O",
    "Deliverystatus": "Delivery",
    "divisionname": "Dholpur",
    "regionname": "Jaipur HQ",
    "circlename": "Rajasthan",
    "Taluk": "Baresei",
    "Districtname": "Dholpur",
    "statename": "RAJASTHAN"
  }
]
