[
  {
    "pincode": "328030",
    "officename": "Basai Samanta B.O",
    "officeType": "B.O",
    "Deliverystatus": "Delivery",
    "divisionname": "Dholpur",
    "regionname": "Jaipur HQ",
    "circlename": "Rajasthan",
    "Taluk": "Dholpur",
    "Districtname": "Dholpur",
    "statename": "RAJASTHAN"
  },
  {
    "pincode": "328030",
    "officename": "Biloni B.O",
    "officeType": "B.O",
    "Deliverystatus": "Delivery",
    "divisionname": "Dholpur",
    "regionname": "Jaipur HQ",
    "circlename": "Rajasthan",
    "Taluk": "Dholpur",
    "Districtname": "Dholpur",
    "statename": "RAJASTHAN"
  },
  {
    "pincode": "328030",
    "officename": "Gari Chatola B.O",
    "officeType": "B.O",
    "Deliverystatus": "Delivery",
    "divisionname": "Dholpur",
    "regionname": "Jaipur HQ",
    "circlename": "Rajasthan",
    "Taluk": "Dholpur",
    "Districtname": "Dholpur",
    "statename": "RAJASTHAN"
  },
  {
    "pincode": "328030",
    "officename": "Kolua B.O",
    "officeType": "B.O",
    "Deliverystatus": "Delivery",
    "divisionname": "Dholpur",
    "regionname": "Jaipur HQ",
    "circlename": "Rajasthan",
    "Taluk": "Dholpur",
    "Districtname": "Dholpur",
    "statename": "RAJASTHAN"
  },
  {
    "pincode": "328030",
    "officename": "Maloni Khurd B.O",
    "officeType": "B.O",
    "Deliverystatus": "Delivery",
    "divisionname": "Dholpur",
    "regionname": "Jaipur HQ",
    "circlename": "Rajasthan",
    "Taluk": "Dholpur",
    "Districtname": "Dholpur",
    "statename": "RAJASTHAN"
  },
  {
    "pincode": "328030",
    "officename": "Manpur B.O",
    "officeType": "B.O",
    "Deliverystatus": "Delivery",
    "divisionname": "Dholpur",
    "regionname": "Jaipur HQ",
    "circlename": "Rajasthan",
    "Taluk": "Dholpur",
    "Districtname": "Dholpur",
    "statename": "RAJASTHAN"
  },
  {
    "pincode": "328030",
    "officename": "Panch Gaon S.O",
    "officeType": "S.O",
    "Deliverystatus": "Delivery",
    "divisionname": "Dholpur",
    "regionname": "Jaipur HQ",
    "circlename": "Rajasthan",
    "Taluk": "Dholpur",
    "Districtname": "Dholpur",
    "statename": "RAJASTHAN"
  },
  {
    "pincode": "328030",
    "officename": "Purani Chhawani B.O",
    "officeType": "B.O",
    "Deliverystatus": "Delivery",
    "divisionname": "Dholpur",
    "regionname": "Jaipur HQ",
    "circlename": "Rajasthan",
    "Taluk": "Dholpur",
    "Districtname": "Dholpur",
    "statename": "RAJASTHAN"
  },
  {
    "pincode": "328030",
    "officename": "Pureni B.O",
    "officeType": "B.O",
    "Deliverystatus": "Delivery",
    "divisionname": "Dholpur",
    "regionname": "Jaipur HQ",
    "circlename": "Rajasthan",
    "Taluk": "Dholpur",
    "Districtname": "Dholpur",
    "statename": "RAJASTHAN"
  },
  {
    "pincode": "328030",
    "officename": "Sarani Khera B.O",
    "officeType": "B.O",
    "Deliverystatus": "Delivery",
    "divisionname": "Dholpur",
    "regionname": "Jaipur HQ",
    "circlename": "Rajasthan",
    "Taluk": "Dholpur",
    "Districtname": "Dholpur",
    "statename": "RAJASTHAN"
  },
  {
    "pincode": "328030",
    "officename": "Tehri B.O",
    "officeType": "B.O",
    "Deliverystatus": "Delivery",
    "divisionname": "Dholpur",
    "regionname": "Jaipur HQ",
    "circlename": "Rajasthan",
    "Taluk": "Dholpur",
    "Districtname": "Dholpur",
    "statename": "RAJASTHAN"
  }
]
