[
  {
    "pincode": "328041",
    "officename": "Afjalpur B.O",
    "officeType": "B.O",
    "Deliverystatus": "Delivery",
    "divisionname": "Dholpur",
    "regionname": "Jaipur HQ",
    "circlename": "Rajasthan",
    "Taluk": "Bari",
    "Districtname": "Dholpur",
    "statename": "RAJASTHAN"
  },
  {
    "pincode": "328041",
    "officename": "Badretha B.O",
    "officeType": "B.O",
    "Deliverystatus": "Delivery",
    "divisionname": "Dholpur",
    "regionname": "Jaipur HQ",
    "circlename": "Rajasthan",
    "Taluk": "Bari",
    "Districtname": "Dholpur",
    "statename": "RAJASTHAN"
  },
  {
    "pincode": "328041",
    "officename": "Gadhi Sukkha B.O",
    "officeType": "B.O",
    "Deliverystatus": "Delivery",
    "divisionname": "Dholpur",
    "regionname": "Jaipur HQ",
    "circlename": "Rajasthan",
    "Taluk": "Bari",
    "Districtname": "Dholpur",
    "statename": "RAJASTHAN"
  },
  {
    "pincode": "328041",
    "officename": "Japawali B.O",
    "officeType": "B.O",
    "Deliverystatus": "Delivery",
    "divisionname": "Dholpur",
    "regionname": "Jaipur HQ",
    "circlename": "Rajasthan",
    "Taluk": "Bari",
    "Districtname": "Dholpur",
    "statename": "RAJASTHAN"
  },
  {
    "pincode": "328041",
    "officename": "Kanchanpur S.O (Dholpur)",
    "officeType": "S.O",
    "Deliverystatus": "Delivery",
    "divisionname": "Dholpur",
    "regionname": "Jaipur HQ",
    "circlename": "Rajasthan",
    "Taluk": "Bari",
    "Districtname": "Dholpur",
    "statename": "RAJASTHAN"
  },
  {
    "pincode": "328041",
    "officename": "Kurenda B.O",
    "officeType": "B.O",
    "Deliverystatus": "Delivery",
    "divisionname": "Dholpur",
    "regionname": "Jaipur HQ",
    "circlename": "Rajasthan",
    "Taluk": "Bari",
    "Districtname": "Dholpur",
    "statename": "RAJASTHAN"
  },
  {
    "pincode": "328041",
    "officename": "Lakhepura B.O",
    "officeType": "B.O",
    "Deliverystatus": "Delivery",
    "divisionname": "Dholpur",
    "regionname": "Jaipur HQ",
    "circlename": "Rajasthan",
    "Taluk": "Bari",
    "Districtname": "Dholpur",
    "statename": "RAJASTHAN"
  },
  {
    "pincode": "328041",
    "officename": "Mahua Kheda B.O",
    "officeType": "B.O",
    "Deliverystatus": "Delivery",
    "divisionname": "Dholpur",
    "regionname": "Jaipur HQ",
    "circlename": "Rajasthan",
    "Taluk": "Bari",
    "Districtname": "Dholpur",
    "statename": "RAJASTHAN"
  },
  {
    "pincode": "328041",
    "officename": "Marholi B.O",
    "officeType": "B.O",
    "Deliverystatus": "Delivery",
    "divisionname": "Dholpur",
    "regionname": "Jaipur HQ",
    "circlename": "Rajasthan",
    "Taluk": "Bari",
    "Districtname": "Dholpur",
    "statename": "RAJASTHAN"
  },
  {
    "pincode": "328041",
    "officename": "Nagala Bidhora B.O",
    "officeType": "B.O",
    "Deliverystatus": "Delivery",
    "divisionname": "Dholpur",
    "regionname": "Jaipur HQ",
    "circlename": "Rajasthan",
    "Taluk": "Bari",
    "Districtname": "Dholpur",
    "statename": "RAJASTHAN"
  },
  {
    "pincode": "328041",
    "officename": "Nagla Dulhe Khan B.O",
    "officeType": "B.O",
    "Deliverystatus": "Delivery",
    "divisionname": "Dholpur",
    "regionname": "Jaipur HQ",
    "circlename": "Rajasthan",
    "Taluk": "Bari",
    "Districtname": "Dholpur",
    "statename": "RAJASTHAN"
  },
  {
    "pincode": "328041",
    "officename": "Norha B.O",
    "officeType": "B.O",
    "Deliverystatus": "Delivery",
    "divisionname": "Dholpur",
    "regionname": "Jaipur HQ",
    "circlename": "Rajasthan",
    "Taluk": "Bari",
    "Districtname": "Dholpur",
    "statename": "RAJASTHAN"
  },
  {
    "pincode": "328041",
    "officename": "Sohan B.O",
    "officeType": "B.O",
    "Deliverystatus": "Delivery",
    "divisionname": "Dholpur",
    "regionname": "Jaipur HQ",
    "circlename": "Rajasthan",
    "Taluk": "Bari",
    "Districtname": "Dholpur",
    "statename": "RAJASTHAN"
  }
]
