[
  {
    "pincode": "328024",
    "officename": "Bagcholi Khar B.O",
    "officeType": "B.O",
    "Deliverystatus": "Delivery",
    "divisionname": "Dholpur",
    "regionname": "Jaipur HQ",
    "circlename": "Rajasthan",
    "Taluk": "Dholpur",
    "Districtname": "Dholpur",
    "statename": "RAJASTHAN"
  },
  {
    "pincode": "328024",
    "officename": "Baretha B.O",
    "officeType": "B.O",
    "Deliverystatus": "Delivery",
    "divisionname": "Dholpur",
    "regionname": "Jaipur HQ",
    "circlename": "Rajasthan",
    "Taluk": "Dholpur",
    "Districtname": "Dholpur",
    "statename": "RAJASTHAN"
  },
  {
    "pincode": "328024",
    "officename": "Bintipura B.O",
    "officeType": "B.O",
    "Deliverystatus": "Delivery",
    "divisionname": "Dholpur",
    "regionname": "Jaipur HQ",
    "circlename": "Rajasthan",
    "Taluk": "Dholpur",
    "Districtname": "Dholpur",
    "statename": "RAJASTHAN"
  },
  {
    "pincode": "328024",
    "officename": "Bothpura B.O",
    "officeType": "B.O",
    "Deliverystatus": "Delivery",
    "divisionname": "Dholpur",
    "regionname": "Jaipur HQ",
    "circlename": "Rajasthan",
    "Taluk": "Dholpur",
    "Districtname": "Dholpur",
    "statename": "RAJASTHAN"
  },
  {
    "pincode": "328024",
    "officename": "Dubati B.O",
    "officeType": "B.O",
    "Deliverystatus": "Delivery",
    "divisionname": "Dholpur",
    "regionname": "Jaipur HQ",
    "circlename": "Rajasthan",
    "Taluk": "Dholpur",
    "Districtname": "Dholpur",
    "statename": "RAJASTHAN"
  },
  {
    "pincode": "328024",
    "officename": "Hinota B.O",
    "officeType": "B.O",
    "Deliverystatus": "Delivery",
    "divisionname": "Dholpur",
    "regionname": "Jaipur HQ",
    "circlename": "Rajasthan",
    "Taluk": "Dholpur",
    "Districtname": "Dholpur",
    "statename": "RAJASTHAN"
  },
  {
    "pincode": "328024",
    "officename": "Jalalpur B.O",
    "officeType": "B.O",
    "Deliverystatus": "Delivery",
    "divisionname": "Dholpur",
    "regionname": "Jaipur HQ",
    "circlename": "Rajasthan",
    "Taluk": "Dholpur",
    "Districtname": "Dholpur",
    "statename": "RAJASTHAN"
  },
  {
    "pincode": "328024",
    "officename": "Jasupura B.O",
    "officeType": "B.O",
    "Deliverystatus": "Delivery",
    "divisionname": "Dholpur",
    "regionname": "Jaipur HQ",
    "circlename": "Rajasthan",
    "Taluk": "Dholpur",
    "Districtname": "Dholpur",
    "statename": "RAJASTHAN"
  },
  {
    "pincode": "328024",
    "officename": "Kherli B.O",
    "officeType": "B.O",
    "Deliverystatus": "Delivery",
    "divisionname": "Dholpur",
    "regionname": "Jaipur HQ",
    "circlename": "Rajasthan",
    "Taluk": "Dholpur",
    "Districtname": "Dholpur",
    "statename": "RAJASTHAN"
  },
  {
    "pincode": "328024",
    "officename": "Kotpura B.O",
    "officeType": "B.O",
    "Deliverystatus": "Delivery",
    "divisionname": "Dholpur",
    "regionname": "Jaipur HQ",
    "circlename": "Rajasthan",
    "Taluk": "Dholpur",
    "Districtname": "Dholpur",
    "statename": "RAJASTHAN"
  },
  {
    "pincode": "328024",
    "officename": "Mangrol B.O",
    "officeType": "B.O",
    "Deliverystatus": "Delivery",
    "divisionname": "Dholpur",
    "regionname": "Jaipur HQ",
    "circlename": "Rajasthan",
    "Taluk": "Dholpur",
    "Districtname": "Dholpur",
    "statename": "RAJASTHAN"
  },
  {
    "pincode": "328024",
    "officename": "Maniya S.O",
    "officeType": "S.O",
    "Deliverystatus": "Delivery",
    "divisionname": "Dholpur",
    "regionname": "Jaipur HQ",
    "circlename": "Rajasthan",
    "Taluk": "Dholpur",
    "Districtname": "Dholpur",
    "statename": "RAJASTHAN"
  },
  {
    "pincode": "328024",
    "officename": "Mauja Ka Nagla B.O",
    "officeType": "B.O",
    "Deliverystatus": "Delivery",
    "divisionname": "Dholpur",
    "regionname": "Jaipur HQ",
    "circlename": "Rajasthan",
    "Taluk": "Dholpur",
    "Districtname": "Dholpur",
    "statename": "RAJASTHAN"
  },
  {
    "pincode": "328024",
    "officename": "Sahapura B.O",
    "officeType": "B.O",
    "Deliverystatus": "Delivery",
    "divisionname": "Dholpur",
    "regionname": "Jaipur HQ",
    "circlename": "Rajasthan",
    "Taluk": "Dholpur",
    "Districtname": "Dholpur",
    "statename": "RAJASTHAN"
  },
  {
    "pincode": "328024",
    "officename": "Tanda B.O",
    "officeType": "B.O",
    "Deliverystatus": "Delivery",
    "divisionname": "Dholpur",
    "regionname": "Jaipur HQ",
    "circlename": "Rajasthan",
    "Taluk": "Dholpur",
    "Districtname": "Dholpur",
    "statename": "RAJASTHAN"
  },
  {
    "pincode": "328024",
    "officename": "Viparpur B.O",
    "officeType": "B.O",
    "Deliverystatus": "Delivery",
    "divisionname": "Dholpur",
    "regionname": "Jaipur HQ",
    "circlename": "Rajasthan",
    "Taluk": "Dholpur",
    "Districtname": "Dholpur",
    "statename": "RAJASTHAN"
  },
  {
    "pincode": "328024",
    "officename": "Virondha B.O",
    "officeType": "B.O",
    "Deliverystatus": "Delivery",
    "divisionname": "Dholpur",
    "regionname": "Jaipur HQ",
    "circlename": "Rajasthan",
    "Taluk": "Dholpur",
    "Districtname": "Dholpur",
    "statename": "RAJASTHAN"
  }
]
