[
  {
    "pincode": "331024",
    "officename": "Dhakas B.O",
    "officeType": "B.O",
    "Deliverystatus": "Delivery",
    "divisionname": "Sikar",
    "regionname": "Jodhpur",
    "circlename": "Rajasthan",
    "Taluk": "Fatehpur",
    "Districtname": "Sikar",
    "statename": "RAJASTHAN"
  },
  {
    "pincode": "331024",
    "officename": "Kayamsar B.O",
    "officeType": "B.O",
    "Deliverystatus": "Delivery",
    "divisionname": "Sikar",
    "regionname": "Jodhpur",
    "circlename": "Rajasthan",
    "Taluk": "Fatehpur Shekhawati",
    "Districtname": "Sikar",
    "statename": "RAJASTHAN"
  },
  {
    "pincode": "331024",
    "officename": "Khotiya B.O",
    "officeType": "B.O",
    "Deliverystatus": "Delivery",
    "divisionname": "Sikar",
    "regionname": "Jodhpur",
    "circlename": "Rajasthan",
    "Taluk": "Fatehpur",
    "Districtname": "Sikar",
    "statename": "RAJASTHAN"
  },
  {
    "pincode": "331024",
    "officename": "Neemakidhani B.O",
    "officeType": "B.O",
    "Deliverystatus": "Delivery",
    "divisionname": "Sikar",
    "regionname": "Jodhpur",
    "circlename": "Rajasthan",
    "Taluk": "Fatehpur",
    "Districtname": "Sikar",
    "statename": "RAJASTHAN"
  },
  {
    "pincode": "331024",
    "officename": "Nethwa B.O",
    "officeType": "B.O",
    "Deliverystatus": "Delivery",
    "divisionname": "Sikar",
    "regionname": "Jodhpur",
    "circlename": "Rajasthan",
    "Taluk": "Fatehpur",
    "Districtname": "Sikar",
    "statename": "RAJASTHAN"
  },
  {
    "pincode": "331024",
    "officename": "Ramgarh Bazar S.O",
    "officeType": "S.O",
    "Deliverystatus": "Non-Delivery",
    "divisionname": "Sikar",
    "regionname": "Jodhpur",
    "circlename": "Rajasthan",
    "Taluk": "Fatehpur",
    "Districtname": "Sikar",
    "statename": "RAJASTHAN"
  },
  {
    "pincode": "331024",
    "officename": "Ramgarh Shekhawati S.O",
    "officeType": "S.O",
    "Deliverystatus": "Delivery",
    "divisionname": "Sikar",
    "regionname": "Jodhpur",
    "circlename": "Rajasthan",
    "Taluk": "Fatehpur Shekhawati",
    "Districtname": "Sikar",
    "statename": "RAJASTHAN"
  },
  {
    "pincode": "331024",
    "officename": "Sahnusar B.O",
    "officeType": "B.O",
    "Deliverystatus": "Delivery",
    "divisionname": "Sikar",
    "regionname": "Jodhpur",
    "circlename": "Rajasthan",
    "Taluk": "Fatehpur",
    "Districtname": "Sikar",
    "statename": "RAJASTHAN"
  },
  {
    "pincode": "331024",
    "officename": "Takhalsar B.O",
    "officeType": "B.O",
    "Deliverystatus": "Delivery",
    "divisionname": "Sikar",
    "regionname": "Jodhpur",
    "circlename": "Rajasthan",
    "Taluk": "Fatehpur",
    "Districtname": "Sikar",
    "statename": "RAJASTHAN"
  },
  {
    "pincode": "331024",
    "officename": "Thedi B.O",
    "officeType": "B.O",
    "Deliverystatus": "Delivery",
    "divisionname": "Sikar",
    "regionname": "Jodhpur",
    "circlename": "Rajasthan",
    "Taluk": "Fatehpur",
    "Districtname": "Sikar",
    "statename": "RAJASTHAN"
  }
]
