[
  {
    "pincode": "331029",
    "officename": "Dudhwakha R.S. B.O",
    "officeType": "B.O",
    "Deliverystatus": "Delivery",
    "divisionname": "Churu",
    "regionname": "Jodhpur",
    "circlename": "Rajasthan",
    "Taluk": "Churu",
    "Districtname": "Churu",
    "statename": "RAJASTHAN"
  },
  {
    "pincode": "331029",
    "officename": "Dudhwakhara S.O",
    "officeType": "S.O",
    "Deliverystatus": "Delivery",
    "divisionname": "Churu",
    "regionname": "Jodhpur",
    "circlename": "Rajasthan",
    "Taluk": "Churu",
    "Districtname": "Churu",
    "statename": "RAJASTHAN"
  },
  {
    "pincode": "331029",
    "officename": "Hadyal Village B.O",
    "officeType": "B.O",
    "Deliverystatus": "Delivery",
    "divisionname": "Churu",
    "regionname": "Jodhpur",
    "circlename": "Rajasthan",
    "Taluk": "Churu",
    "Districtname": "Churu",
    "statename": "RAJASTHAN"
  },
  {
    "pincode": "331029",
    "officename": "Inderpura B.O",
    "officeType": "B.O",
    "Deliverystatus": "Delivery",
    "divisionname": "Churu",
    "regionname": "Jodhpur",
    "circlename": "Rajasthan",
    "Taluk": "Churu",
    "Districtname": "Churu",
    "statename": "RAJASTHAN"
  },
  {
    "pincode": "331029",
    "officename": "Ladria B.O",
    "officeType": "B.O",
    "Deliverystatus": "Delivery",
    "divisionname": "Churu",
    "regionname": "Jodhpur",
    "circlename": "Rajasthan",
    "Taluk": "Churu",
    "Districtname": "Churu",
    "statename": "RAJASTHAN"
  },
  {
    "pincode": "331029",
    "officename": "Lohsana Bara B.O",
    "officeType": "B.O",
    "Deliverystatus": "Delivery",
    "divisionname": "Churu",
    "regionname": "Jodhpur",
    "circlename": "Rajasthan",
    "Taluk": "Churu",
    "Districtname": "Churu",
    "statename": "RAJASTHAN"
  },
  {
    "pincode": "331029",
    "officename": "Lohsana Chhota B.O",
    "officeType": "B.O",
    "Deliverystatus": "Delivery",
    "divisionname": "Churu",
    "regionname": "Jodhpur",
    "circlename": "Rajasthan",
    "Taluk": "Churu",
    "Districtname": "Churu",
    "statename": "RAJASTHAN"
  },
  {
    "pincode": "331029",
    "officename": "Morthal B.O",
    "officeType": "B.O",
    "Deliverystatus": "Delivery",
    "divisionname": "Churu",
    "regionname": "Jodhpur",
    "circlename": "Rajasthan",
    "Taluk": "Sadulpur",
    "Districtname": "Churu",
    "statename": "RAJASTHAN"
  },
  {
    "pincode": "331029",
    "officename": "Rajpura B.O",
    "officeType": "B.O",
    "Deliverystatus": "Delivery",
    "divisionname": "Churu",
    "regionname": "Jodhpur",
    "circlename": "Rajasthan",
    "Taluk": "Taranagar",
    "Districtname": "Churu",
    "statename": "RAJASTHAN"
  },
  {
    "pincode": "331029",
    "officename": "Satyun B.O",
    "officeType": "B.O",
    "Deliverystatus": "Delivery",
    "divisionname": "Churu",
    "regionname": "Jodhpur",
    "circlename": "Rajasthan",
    "Taluk": "Taranagar",
    "Districtname": "Churu",
    "statename": "RAJASTHAN"
  },
  {
    "pincode": "331029",
    "officename": "Sirsala B.O",
    "officeType": "B.O",
    "Deliverystatus": "Delivery",
    "divisionname": "Churu",
    "regionname": "Jodhpur",
    "circlename": "Rajasthan",
    "Taluk": "Churu",
    "Districtname": "Churu",
    "statename": "RAJASTHAN"
  },
  {
    "pincode": "331029",
    "officename": "Sirsali B.O",
    "officeType": "B.O",
    "Deliverystatus": "Delivery",
    "divisionname": "Churu",
    "regionname": "Jodhpur",
    "circlename": "Rajasthan",
    "Taluk": "Churu",
    "Districtname": "Churu",
    "statename": "RAJASTHAN"
  }
]
