[
  {
    "pincode": "331305",
    "officename": "Bhamreed B.O",
    "officeType": "B.O",
    "Deliverystatus": "Delivery",
    "divisionname": "Churu",
    "regionname": "Jodhpur",
    "circlename": "Rajasthan",
    "Taluk": "Sadulpur",
    "Districtname": "Churu",
    "statename": "RAJASTHAN"
  },
  {
    "pincode": "331305",
    "officename": "Binjawas B.O",
    "officeType": "B.O",
    "Deliverystatus": "Delivery",
    "divisionname": "Churu",
    "regionname": "Jodhpur",
    "circlename": "Rajasthan",
    "Taluk": "Sadulpur",
    "Districtname": "Churu",
    "statename": "RAJASTHAN"
  },
  {
    "pincode": "331305",
    "officename": "Chand Gothi B.O",
    "officeType": "B.O",
    "Deliverystatus": "Delivery",
    "divisionname": "Churu",
    "regionname": "Jodhpur",
    "circlename": "Rajasthan",
    "Taluk": "Sadulpur",
    "Districtname": "Churu",
    "statename": "RAJASTHAN"
  },
  {
    "pincode": "331305",
    "officename": "Hamirwas S.O",
    "officeType": "S.O",
    "Deliverystatus": "Delivery",
    "divisionname": "Churu",
    "regionname": "Jodhpur",
    "circlename": "Rajasthan",
    "Taluk": "Sadulpur",
    "Districtname": "Churu",
    "statename": "RAJASTHAN"
  },
  {
    "pincode": "331305",
    "officename": "Harpalu Tal B.O",
    "officeType": "B.O",
    "Deliverystatus": "Delivery",
    "divisionname": "Churu",
    "regionname": "Jodhpur",
    "circlename": "Rajasthan",
    "Taluk": "Sadulpur",
    "Districtname": "Churu",
    "statename": "RAJASTHAN"
  },
  {
    "pincode": "331305",
    "officename": "Neema B.O",
    "officeType": "B.O",
    "Deliverystatus": "Delivery",
    "divisionname": "Churu",
    "regionname": "Jodhpur",
    "circlename": "Rajasthan",
    "Taluk": "Sadulpur",
    "Districtname": "Churu",
    "statename": "RAJASTHAN"
  },
  {
    "pincode": "331305",
    "officename": "Nuhand B.O",
    "officeType": "B.O",
    "Deliverystatus": "Delivery",
    "divisionname": "Churu",
    "regionname": "Jodhpur",
    "circlename": "Rajasthan",
    "Taluk": "Sadulpur",
    "Districtname": "Churu",
    "statename": "RAJASTHAN"
  },
  {
    "pincode": "331305",
    "officename": "Sardarpura B.O",
    "officeType": "B.O",
    "Deliverystatus": "Delivery",
    "divisionname": "Churu",
    "regionname": "Jodhpur",
    "circlename": "Rajasthan",
    "Taluk": "Sadulpur",
    "Districtname": "Churu",
    "statename": "RAJASTHAN"
  },
  {
    "pincode": "331305",
    "officename": "Thirpali Bari B.O",
    "officeType": "B.O",
    "Deliverystatus": "Delivery",
    "divisionname": "Churu",
    "regionname": "Jodhpur",
    "circlename": "Rajasthan",
    "Taluk": "Sadulpur",
    "Districtname": "Churu",
    "statename": "RAJASTHAN"
  }
]
