[
  {
    "pincode": "331302",
    "officename": "Bharang B.O",
    "officeType": "B.O",
    "Deliverystatus": "Delivery",
    "divisionname": "Churu",
    "regionname": "Jodhpur",
    "circlename": "Rajasthan",
    "Taluk": "Taranagar",
    "Districtname": "Churu",
    "statename": "RAJASTHAN"
  },
  {
    "pincode": "331302",
    "officename": "Dhirwas B.O",
    "officeType": "B.O",
    "Deliverystatus": "Delivery",
    "divisionname": "Churu",
    "regionname": "Jodhpur",
    "circlename": "Rajasthan",
    "Taluk": "Taranagar",
    "Districtname": "Churu",
    "statename": "RAJASTHAN"
  },
  {
    "pincode": "331302",
    "officename": "Meghsar B.O",
    "officeType": "B.O",
    "Deliverystatus": "Delivery",
    "divisionname": "Churu",
    "regionname": "Jodhpur",
    "circlename": "Rajasthan",
    "Taluk": "Taranagar",
    "Districtname": "Churu",
    "statename": "RAJASTHAN"
  },
  {
    "pincode": "331302",
    "officename": "Mehrasar Uppadhiyan B.O",
    "officeType": "B.O",
    "Deliverystatus": "Delivery",
    "divisionname": "Churu",
    "regionname": "Jodhpur",
    "circlename": "Rajasthan",
    "Taluk": "Taranagar",
    "Districtname": "Churu",
    "statename": "RAJASTHAN"
  },
  {
    "pincode": "331302",
    "officename": "Punsisar B.O",
    "officeType": "B.O",
    "Deliverystatus": "Delivery",
    "divisionname": "Churu",
    "regionname": "Jodhpur",
    "circlename": "Rajasthan",
    "Taluk": "Taranagar",
    "Districtname": "Churu",
    "statename": "RAJASTHAN"
  },
  {
    "pincode": "331302",
    "officename": "Raiyatunda B.O",
    "officeType": "B.O",
    "Deliverystatus": "Delivery",
    "divisionname": "Churu",
    "regionname": "Jodhpur",
    "circlename": "Rajasthan",
    "Taluk": "Taranagar",
    "Districtname": "Churu",
    "statename": "RAJASTHAN"
  },
  {
    "pincode": "331302",
    "officename": "Sahwa S.O",
    "officeType": "S.O",
    "Deliverystatus": "Delivery",
    "divisionname": "Churu",
    "regionname": "Jodhpur",
    "circlename": "Rajasthan",
    "Taluk": "Taranagar",
    "Districtname": "Churu",
    "statename": "RAJASTHAN"
  },
  {
    "pincode": "331302",
    "officename": "Somasisar B.O",
    "officeType": "B.O",
    "Deliverystatus": "Delivery",
    "divisionname": "Churu",
    "regionname": "Jodhpur",
    "circlename": "Rajasthan",
    "Taluk": "Taranagar",
    "Districtname": "Churu",
    "statename": "RAJASTHAN"
  }
]
