[
  {
    "pincode": "331518",
    "officename": "Badsar B.O",
    "officeType": "B.O",
    "Deliverystatus": "Delivery",
    "divisionname": "Churu",
    "regionname": "Jodhpur",
    "circlename": "Rajasthan",
    "Taluk": "Sujangarh",
    "Districtname": "Churu",
    "statename": "RAJASTHAN"
  },
  {
    "pincode": "331518",
    "officename": "Bagsara B.O",
    "officeType": "B.O",
    "Deliverystatus": "Delivery",
    "divisionname": "Churu",
    "regionname": "Jodhpur",
    "circlename": "Rajasthan",
    "Taluk": "Sujangarh",
    "Districtname": "Churu",
    "statename": "RAJASTHAN"
  },
  {
    "pincode": "331518",
    "officename": "Bhasina B.O",
    "officeType": "B.O",
    "Deliverystatus": "Delivery",
    "divisionname": "Churu",
    "regionname": "Jodhpur",
    "circlename": "Rajasthan",
    "Taluk": "Sujangarh",
    "Districtname": "Churu",
    "statename": "RAJASTHAN"
  },
  {
    "pincode": "331518",
    "officename": "Jeeli B.O",
    "officeType": "B.O",
    "Deliverystatus": "Delivery",
    "divisionname": "Churu",
    "regionname": "Jodhpur",
    "circlename": "Rajasthan",
    "Taluk": "Sujangarh",
    "Districtname": "Churu",
    "statename": "RAJASTHAN"
  },
  {
    "pincode": "331518",
    "officename": "Jogalsar B.O",
    "officeType": "B.O",
    "Deliverystatus": "Delivery",
    "divisionname": "Churu",
    "regionname": "Jodhpur",
    "circlename": "Rajasthan",
    "Taluk": "Sujangarh",
    "Districtname": "Churu",
    "statename": "RAJASTHAN"
  },
  {
    "pincode": "331518",
    "officename": "Kalyansar B.O",
    "officeType": "B.O",
    "Deliverystatus": "Delivery",
    "divisionname": "Churu",
    "regionname": "Jodhpur",
    "circlename": "Rajasthan",
    "Taluk": "Sujangarh",
    "Districtname": "Churu",
    "statename": "RAJASTHAN"
  },
  {
    "pincode": "331518",
    "officename": "Lalgarh S.O (Churu)",
    "officeType": "S.O",
    "Deliverystatus": "Delivery",
    "divisionname": "Churu",
    "regionname": "Jodhpur",
    "circlename": "Rajasthan",
    "Taluk": "Sujangarh",
    "Districtname": "Churu",
    "statename": "RAJASTHAN"
  },
  {
    "pincode": "331518",
    "officename": "Mundra B.O",
    "officeType": "B.O",
    "Deliverystatus": "Delivery",
    "divisionname": "Churu",
    "regionname": "Jodhpur",
    "circlename": "Rajasthan",
    "Taluk": "Sujangarh",
    "Districtname": "Churu",
    "statename": "RAJASTHAN"
  },
  {
    "pincode": "331518",
    "officename": "Parawa B.O",
    "officeType": "B.O",
    "Deliverystatus": "Delivery",
    "divisionname": "Churu",
    "regionname": "Jodhpur",
    "circlename": "Rajasthan",
    "Taluk": "Sujangarh",
    "Districtname": "Churu",
    "statename": "RAJASTHAN"
  },
  {
    "pincode": "331518",
    "officename": "Sarothia B.O",
    "officeType": "B.O",
    "Deliverystatus": "Delivery",
    "divisionname": "Churu",
    "regionname": "Jodhpur",
    "circlename": "Rajasthan",
    "Taluk": "Sujangarh",
    "Districtname": "Churu",
    "statename": "RAJASTHAN"
  }
]
