[
  {
    "pincode": "331802",
    "officename": "Abadsar B.O",
    "officeType": "B.O",
    "Deliverystatus": "Delivery",
    "divisionname": "Churu",
    "regionname": "Jodhpur",
    "circlename": "Rajasthan",
    "Taluk": "Ratangarh",
    "Districtname": "Churu",
    "statename": "RAJASTHAN"
  },
  {
    "pincode": "331802",
    "officename": "Alsar B.O",
    "officeType": "B.O",
    "Deliverystatus": "Delivery",
    "divisionname": "Churu",
    "regionname": "Jodhpur",
    "circlename": "Rajasthan",
    "Taluk": "Ratangarh",
    "Districtname": "Churu",
    "statename": "RAJASTHAN"
  },
  {
    "pincode": "331802",
    "officename": "Bandwa B.O",
    "officeType": "B.O",
    "Deliverystatus": "Delivery",
    "divisionname": "Churu",
    "regionname": "Jodhpur",
    "circlename": "Rajasthan",
    "Taluk": "Ratangarh",
    "Districtname": "Churu",
    "statename": "RAJASTHAN"
  },
  {
    "pincode": "331802",
    "officename": "Bharpalsar B.O",
    "officeType": "B.O",
    "Deliverystatus": "Delivery",
    "divisionname": "Churu",
    "regionname": "Jodhpur",
    "circlename": "Rajasthan",
    "Taluk": "Ratangarh",
    "Districtname": "Churu",
    "statename": "RAJASTHAN"
  },
  {
    "pincode": "331802",
    "officename": "Bhawandesar B.O",
    "officeType": "B.O",
    "Deliverystatus": "Delivery",
    "divisionname": "Churu",
    "regionname": "Jodhpur",
    "circlename": "Rajasthan",
    "Taluk": "Ratangarh",
    "Districtname": "Churu",
    "statename": "RAJASTHAN"
  },
  {
    "pincode": "331802",
    "officename": "Binadesar B.O",
    "officeType": "B.O",
    "Deliverystatus": "Delivery",
    "divisionname": "Churu",
    "regionname": "Jodhpur",
    "circlename": "Rajasthan",
    "Taluk": "Ratangarh",
    "Districtname": "Churu",
    "statename": "RAJASTHAN"
  },
  {
    "pincode": "331802",
    "officename": "Dhandheru Bhamuwan B.O",
    "officeType": "B.O",
    "Deliverystatus": "Delivery",
    "divisionname": "Churu",
    "regionname": "Jodhpur",
    "circlename": "Rajasthan",
    "Taluk": "Ratangarh",
    "Districtname": "Churu",
    "statename": "RAJASTHAN"
  },
  {
    "pincode": "331802",
    "officename": "Jegania B.O",
    "officeType": "B.O",
    "Deliverystatus": "Delivery",
    "divisionname": "Churu",
    "regionname": "Jodhpur",
    "circlename": "Rajasthan",
    "Taluk": "Ratangarh",
    "Districtname": "Churu",
    "statename": "RAJASTHAN"
  },
  {
    "pincode": "331802",
    "officename": "Jetasar B.O",
    "officeType": "B.O",
    "Deliverystatus": "Delivery",
    "divisionname": "Churu",
    "regionname": "Jodhpur",
    "circlename": "Rajasthan",
    "Taluk": "Ratangarh",
    "Districtname": "Churu",
    "statename": "RAJASTHAN"
  },
  {
    "pincode": "331802",
    "officename": "Joglia B.O",
    "officeType": "B.O",
    "Deliverystatus": "Delivery",
    "divisionname": "Churu",
    "regionname": "Jodhpur",
    "circlename": "Rajasthan",
    "Taluk": "Ratangarh",
    "Districtname": "Churu",
    "statename": "RAJASTHAN"
  },
  {
    "pincode": "331802",
    "officename": "Lachharsar B.O",
    "officeType": "B.O",
    "Deliverystatus": "Delivery",
    "divisionname": "Churu",
    "regionname": "Jodhpur",
    "circlename": "Rajasthan",
    "Taluk": "Ratangarh",
    "Districtname": "Churu",
    "statename": "RAJASTHAN"
  },
  {
    "pincode": "331802",
    "officename": "Loonasar B.O",
    "officeType": "B.O",
    "Deliverystatus": "Delivery",
    "divisionname": "Churu",
    "regionname": "Jodhpur",
    "circlename": "Rajasthan",
    "Taluk": "Ratangarh",
    "Districtname": "Churu",
    "statename": "RAJASTHAN"
  },
  {
    "pincode": "331802",
    "officename": "Parsneu B.O",
    "officeType": "B.O",
    "Deliverystatus": "Delivery",
    "divisionname": "Churu",
    "regionname": "Jodhpur",
    "circlename": "Rajasthan",
    "Taluk": "Ratangarh",
    "Districtname": "Churu",
    "statename": "RAJASTHAN"
  },
  {
    "pincode": "331802",
    "officename": "Rajaldesar Bazar S.O",
    "officeType": "S.O",
    "Deliverystatus": "Non-Delivery",
    "divisionname": "Churu",
    "regionname": "Jodhpur",
    "circlename": "Rajasthan",
    "Taluk": "Ratangarh",
    "Districtname": "Churu",
    "statename": "RAJASTHAN"
  },
  {
    "pincode": "331802",
    "officename": "Rajaldesar S.O",
    "officeType": "S.O",
    "Deliverystatus": "Delivery",
    "divisionname": "Churu",
    "regionname": "Jodhpur",
    "circlename": "Rajasthan",
    "Taluk": "Ratangarh",
    "Districtname": "Churu",
    "statename": "RAJASTHAN"
  },
  {
    "pincode": "331802",
    "officename": "Simsia B.O",
    "officeType": "B.O",
    "Deliverystatus": "Delivery",
    "divisionname": "Churu",
    "regionname": "Jodhpur",
    "circlename": "Rajasthan",
    "Taluk": "Ratangarh",
    "Districtname": "Churu",
    "statename": "RAJASTHAN"
  }
]
