[
  {
    "pincode": "332312",
    "officename": "Alkhpura Bogan B.O",
    "officeType": "B.O",
    "Deliverystatus": "Delivery",
    "divisionname": "Sikar",
    "regionname": "Jodhpur",
    "circlename": "Rajasthan",
    "Taluk": "Sikar",
    "Districtname": "Sikar",
    "statename": "RAJASTHAN"
  },
  {
    "pincode": "332312",
    "officename": "Bathot B.O",
    "officeType": "B.O",
    "Deliverystatus": "Delivery",
    "divisionname": "Sikar",
    "regionname": "Jodhpur",
    "circlename": "Rajasthan",
    "Taluk": "Sikar",
    "Districtname": "Sikar",
    "statename": "RAJASTHAN"
  },
  {
    "pincode": "332312",
    "officename": "Bhojasar B.O",
    "officeType": "B.O",
    "Deliverystatus": "Delivery",
    "divisionname": "Sikar",
    "regionname": "Jodhpur",
    "circlename": "Rajasthan",
    "Taluk": "Sikar",
    "Districtname": "Sikar",
    "statename": "RAJASTHAN"
  },
  {
    "pincode": "332312",
    "officename": "Garoda B.O",
    "officeType": "B.O",
    "Deliverystatus": "Delivery",
    "divisionname": "Sikar",
    "regionname": "Jodhpur",
    "circlename": "Rajasthan",
    "Taluk": "",
    "Districtname": "Sikar",
    "statename": "RAJASTHAN"
  },
  {
    "pincode": "332312",
    "officename": "Ghana B.O",
    "officeType": "B.O",
    "Deliverystatus": "Delivery",
    "divisionname": "Sikar",
    "regionname": "Jodhpur",
    "circlename": "Rajasthan",
    "Taluk": "Sikar",
    "Districtname": "Sikar",
    "statename": "RAJASTHAN"
  },
  {
    "pincode": "332312",
    "officename": "Hapas B.O",
    "officeType": "B.O",
    "Deliverystatus": "Delivery",
    "divisionname": "Sikar",
    "regionname": "Jodhpur",
    "circlename": "Rajasthan",
    "Taluk": "Sikar",
    "Districtname": "Sikar",
    "statename": "RAJASTHAN"
  },
  {
    "pincode": "332312",
    "officename": "Miran B.O",
    "officeType": "B.O",
    "Deliverystatus": "Delivery",
    "divisionname": "Sikar",
    "regionname": "Jodhpur",
    "circlename": "Rajasthan",
    "Taluk": "Sikar",
    "Districtname": "Sikar",
    "statename": "RAJASTHAN"
  },
  {
    "pincode": "332312",
    "officename": "Patoda S.O (Sikar)",
    "officeType": "S.O",
    "Deliverystatus": "Delivery",
    "divisionname": "Sikar",
    "regionname": "Jodhpur",
    "circlename": "Rajasthan",
    "Taluk": "Sikar",
    "Districtname": "Sikar",
    "statename": "RAJASTHAN"
  },
  {
    "pincode": "332312",
    "officename": "Sola B.O",
    "officeType": "B.O",
    "Deliverystatus": "Delivery",
    "divisionname": "Sikar",
    "regionname": "Jodhpur",
    "circlename": "Rajasthan",
    "Taluk": "Sikar",
    "Districtname": "Sikar",
    "statename": "RAJASTHAN"
  }
]
