[
  {
    "pincode": "332406",
    "officename": "Dudhwa B.O",
    "officeType": "B.O",
    "Deliverystatus": "Delivery",
    "divisionname": "Sikar",
    "regionname": "Jodhpur",
    "circlename": "Rajasthan",
    "Taluk": "Sikar",
    "Districtname": "Sikar",
    "statename": "RAJASTHAN"
  },
  {
    "pincode": "332406",
    "officename": "Jeenmata B.O",
    "officeType": "B.O",
    "Deliverystatus": "Delivery",
    "divisionname": "Sikar",
    "regionname": "Jodhpur",
    "circlename": "Rajasthan",
    "Taluk": "Sikar",
    "Districtname": "Sikar",
    "statename": "RAJASTHAN"
  },
  {
    "pincode": "332406",
    "officename": "Jeenwas B.O",
    "officeType": "B.O",
    "Deliverystatus": "Delivery",
    "divisionname": "Sikar",
    "regionname": "Jodhpur",
    "circlename": "Rajasthan",
    "Taluk": "Sikar",
    "Districtname": "Sikar",
    "statename": "RAJASTHAN"
  },
  {
    "pincode": "332406",
    "officename": "Kochhore S.O",
    "officeType": "S.O",
    "Deliverystatus": "Delivery",
    "divisionname": "Sikar",
    "regionname": "Jodhpur",
    "circlename": "Rajasthan",
    "Taluk": "Sikar",
    "Districtname": "Sikar",
    "statename": "RAJASTHAN"
  },
  {
    "pincode": "332406",
    "officename": "Mohanpura B.O",
    "officeType": "B.O",
    "Deliverystatus": "Delivery",
    "divisionname": "Sikar",
    "regionname": "Jodhpur",
    "circlename": "Rajasthan",
    "Taluk": "Sikar",
    "Districtname": "Sikar",
    "statename": "RAJASTHAN"
  },
  {
    "pincode": "332406",
    "officename": "Nimera B.O",
    "officeType": "B.O",
    "Deliverystatus": "Delivery",
    "divisionname": "Sikar",
    "regionname": "Jodhpur",
    "circlename": "Rajasthan",
    "Taluk": "Sikar",
    "Districtname": "Sikar",
    "statename": "RAJASTHAN"
  },
  {
    "pincode": "332406",
    "officename": "Ralwata B.O",
    "officeType": "B.O",
    "Deliverystatus": "Delivery",
    "divisionname": "Sikar",
    "regionname": "Jodhpur",
    "circlename": "Rajasthan",
    "Taluk": "Sikar",
    "Districtname": "Sikar",
    "statename": "RAJASTHAN"
  },
  {
    "pincode": "332406",
    "officename": "Reta B.O",
    "officeType": "B.O",
    "Deliverystatus": "Delivery",
    "divisionname": "Sikar",
    "regionname": "Jodhpur",
    "circlename": "Rajasthan",
    "Taluk": "Sikar",
    "Districtname": "Sikar",
    "statename": "RAJASTHAN"
  },
  {
    "pincode": "332406",
    "officename": "Roopgarh B.O",
    "officeType": "B.O",
    "Deliverystatus": "Delivery",
    "divisionname": "Sikar",
    "regionname": "Jodhpur",
    "circlename": "Rajasthan",
    "Taluk": "Sikar",
    "Districtname": "Sikar",
    "statename": "RAJASTHAN"
  }
]
