[
  {
    "pincode": "332601",
    "officename": "Bajiawas B.O",
    "officeType": "B.O",
    "Deliverystatus": "Delivery",
    "divisionname": "Sikar",
    "regionname": "Jodhpur",
    "circlename": "Rajasthan",
    "Taluk": "Srimadhopur",
    "Districtname": "Sikar",
    "statename": "RAJASTHAN"
  },
  {
    "pincode": "332601",
    "officename": "Banathala B.O",
    "officeType": "B.O",
    "Deliverystatus": "Delivery",
    "divisionname": "Sikar",
    "regionname": "Jodhpur",
    "circlename": "Rajasthan",
    "Taluk": "Srimadhopur",
    "Districtname": "Sikar",
    "statename": "RAJASTHAN"
  },
  {
    "pincode": "332601",
    "officename": "Baya S.O",
    "officeType": "S.O",
    "Deliverystatus": "Delivery",
    "divisionname": "Sikar",
    "regionname": "Jodhpur",
    "circlename": "Rajasthan",
    "Taluk": "Srimadhopur",
    "Districtname": "Sikar",
    "statename": "RAJASTHAN"
  },
  {
    "pincode": "332601",
    "officename": "Charanwas B.O",
    "officeType": "B.O",
    "Deliverystatus": "Delivery",
    "divisionname": "Sikar",
    "regionname": "Jodhpur",
    "circlename": "Rajasthan",
    "Taluk": "Danta Ramgarh",
    "Districtname": "Sikar",
    "statename": "RAJASTHAN"
  },
  {
    "pincode": "332601",
    "officename": "Dhingpur B.O",
    "officeType": "B.O",
    "Deliverystatus": "Delivery",
    "divisionname": "Sikar",
    "regionname": "Jodhpur",
    "circlename": "Rajasthan",
    "Taluk": "Srimadhopur",
    "Districtname": "Sikar",
    "statename": "RAJASTHAN"
  },
  {
    "pincode": "332601",
    "officename": "Jalund B.O",
    "officeType": "B.O",
    "Deliverystatus": "Delivery",
    "divisionname": "Sikar",
    "regionname": "Jodhpur",
    "circlename": "Rajasthan",
    "Taluk": "Srimadhopur",
    "Districtname": "Sikar",
    "statename": "RAJASTHAN"
  },
  {
    "pincode": "332601",
    "officename": "Kantia B.O",
    "officeType": "B.O",
    "Deliverystatus": "Delivery",
    "divisionname": "Sikar",
    "regionname": "Jodhpur",
    "circlename": "Rajasthan",
    "Taluk": "Srimadhopur",
    "Districtname": "Sikar",
    "statename": "RAJASTHAN"
  },
  {
    "pincode": "332601",
    "officename": "Khora B.O",
    "officeType": "B.O",
    "Deliverystatus": "Delivery",
    "divisionname": "Sikar",
    "regionname": "Jodhpur",
    "circlename": "Rajasthan",
    "Taluk": "Srimadhopur",
    "Districtname": "Sikar",
    "statename": "RAJASTHAN"
  },
  {
    "pincode": "332601",
    "officename": "Ladpur B.O",
    "officeType": "B.O",
    "Deliverystatus": "Delivery",
    "divisionname": "Sikar",
    "regionname": "Jodhpur",
    "circlename": "Rajasthan",
    "Taluk": "Srimadhopur",
    "Districtname": "Sikar",
    "statename": "RAJASTHAN"
  },
  {
    "pincode": "332601",
    "officename": "Likhma Ka Bas B.O",
    "officeType": "B.O",
    "Deliverystatus": "Delivery",
    "divisionname": "Sikar",
    "regionname": "Jodhpur",
    "circlename": "Rajasthan",
    "Taluk": "Srimadhopur",
    "Districtname": "Sikar",
    "statename": "RAJASTHAN"
  },
  {
    "pincode": "332601",
    "officename": "Mota Ki Dhani B.O",
    "officeType": "B.O",
    "Deliverystatus": "Delivery",
    "divisionname": "Sikar",
    "regionname": "Jodhpur",
    "circlename": "Rajasthan",
    "Taluk": "Srimadhopur",
    "Districtname": "Sikar",
    "statename": "RAJASTHAN"
  },
  {
    "pincode": "332601",
    "officename": "Rulana B.O",
    "officeType": "B.O",
    "Deliverystatus": "Delivery",
    "divisionname": "Sikar",
    "regionname": "Jodhpur",
    "circlename": "Rajasthan",
    "Taluk": "Srimadhopur",
    "Districtname": "Sikar",
    "statename": "RAJASTHAN"
  }
]
