[
  {
    "pincode": "332709",
    "officename": "Athbigha B.O",
    "officeType": "B.O",
    "Deliverystatus": "Delivery",
    "divisionname": "Sikar",
    "regionname": "Jodhpur",
    "circlename": "Rajasthan",
    "Taluk": "Nimkathana",
    "Districtname": "Sikar",
    "statename": "RAJASTHAN"
  },
  {
    "pincode": "332709",
    "officename": "Bamanwas B.O",
    "officeType": "B.O",
    "Deliverystatus": "Delivery",
    "divisionname": "Sikar",
    "regionname": "Jodhpur",
    "circlename": "Rajasthan",
    "Taluk": "Nimkathana",
    "Districtname": "Sikar",
    "statename": "RAJASTHAN"
  },
  {
    "pincode": "332709",
    "officename": "Barsinghpura B.O",
    "officeType": "B.O",
    "Deliverystatus": "Delivery",
    "divisionname": "Sikar",
    "regionname": "Jodhpur",
    "circlename": "Rajasthan",
    "Taluk": "Nimkathana",
    "Districtname": "Sikar",
    "statename": "RAJASTHAN"
  },
  {
    "pincode": "332709",
    "officename": "Bhojpur B.O",
    "officeType": "B.O",
    "Deliverystatus": "Delivery",
    "divisionname": "Sikar",
    "regionname": "Jodhpur",
    "circlename": "Rajasthan",
    "Taluk": "Nimkathana",
    "Districtname": "Sikar",
    "statename": "RAJASTHAN"
  },
  {
    "pincode": "332709",
    "officename": "Dayara B.O",
    "officeType": "B.O",
    "Deliverystatus": "Delivery",
    "divisionname": "Sikar",
    "regionname": "Jodhpur",
    "circlename": "Rajasthan",
    "Taluk": "Nimkathana",
    "Districtname": "Sikar",
    "statename": "RAJASTHAN"
  },
  {
    "pincode": "332709",
    "officename": "Dhani Guman Singh B.O",
    "officeType": "B.O",
    "Deliverystatus": "Delivery",
    "divisionname": "Sikar",
    "regionname": "Jodhpur",
    "circlename": "Rajasthan",
    "Taluk": "Nimkathana",
    "Districtname": "Sikar",
    "statename": "RAJASTHAN"
  },
  {
    "pincode": "332709",
    "officename": "Dudhwalonkabas B.O",
    "officeType": "B.O",
    "Deliverystatus": "Delivery",
    "divisionname": "Sikar",
    "regionname": "Jodhpur",
    "circlename": "Rajasthan",
    "Taluk": "Nimkathana",
    "Districtname": "Sikar",
    "statename": "RAJASTHAN"
  },
  {
    "pincode": "332709",
    "officename": "Gokulkabas B.O",
    "officeType": "B.O",
    "Deliverystatus": "Delivery",
    "divisionname": "Sikar",
    "regionname": "Jodhpur",
    "circlename": "Rajasthan",
    "Taluk": "Nimkathana",
    "Districtname": "Sikar",
    "statename": "RAJASTHAN"
  },
  {
    "pincode": "332709",
    "officename": "Hod B.O",
    "officeType": "B.O",
    "Deliverystatus": "Delivery",
    "divisionname": "Sikar",
    "regionname": "Jodhpur",
    "circlename": "Rajasthan",
    "Taluk": "Nimkathana",
    "Districtname": "Sikar",
    "statename": "RAJASTHAN"
  },
  {
    "pincode": "332709",
    "officename": "Kerpura B.O",
    "officeType": "B.O",
    "Deliverystatus": "Delivery",
    "divisionname": "Sikar",
    "regionname": "Jodhpur",
    "circlename": "Rajasthan",
    "Taluk": "Nimkathana",
    "Districtname": "Sikar",
    "statename": "RAJASTHAN"
  },
  {
    "pincode": "332709",
    "officename": "Khandela S.O",
    "officeType": "S.O",
    "Deliverystatus": "Delivery",
    "divisionname": "Sikar",
    "regionname": "Jodhpur",
    "circlename": "Rajasthan",
    "Taluk": "Sri Madhopur",
    "Districtname": "Sikar",
    "statename": "RAJASTHAN"
  },
  {
    "pincode": "332709",
    "officename": "Khatundra B.O",
    "officeType": "B.O",
    "Deliverystatus": "Delivery",
    "divisionname": "Sikar",
    "regionname": "Jodhpur",
    "circlename": "Rajasthan",
    "Taluk": "Nimkathana",
    "Districtname": "Sikar",
    "statename": "RAJASTHAN"
  },
  {
    "pincode": "332709",
    "officename": "Kotri B.O",
    "officeType": "B.O",
    "Deliverystatus": "Delivery",
    "divisionname": "Sikar",
    "regionname": "Jodhpur",
    "circlename": "Rajasthan",
    "Taluk": "Sri Madhopur",
    "Districtname": "Sikar",
    "statename": "RAJASTHAN"
  },
  {
    "pincode": "332709",
    "officename": "N.P.Khandela S.O",
    "officeType": "S.O",
    "Deliverystatus": "Non-Delivery",
    "divisionname": "Sikar",
    "regionname": "Jodhpur",
    "circlename": "Rajasthan",
    "Taluk": "Sri Madhopur",
    "Districtname": "Sikar",
    "statename": "RAJASTHAN"
  },
  {
    "pincode": "332709",
    "officename": "Paniharwas B.O",
    "officeType": "B.O",
    "Deliverystatus": "Delivery",
    "divisionname": "Sikar",
    "regionname": "Jodhpur",
    "circlename": "Rajasthan",
    "Taluk": "Nimkathana",
    "Districtname": "Sikar",
    "statename": "RAJASTHAN"
  },
  {
    "pincode": "332709",
    "officename": "Rampura B.O",
    "officeType": "B.O",
    "Deliverystatus": "Delivery",
    "divisionname": "Sikar",
    "regionname": "Jodhpur",
    "circlename": "Rajasthan",
    "Taluk": "Nimkathana",
    "Districtname": "Sikar",
    "statename": "RAJASTHAN"
  },
  {
    "pincode": "332709",
    "officename": "Royal B.O",
    "officeType": "B.O",
    "Deliverystatus": "Delivery",
    "divisionname": "Sikar",
    "regionname": "Jodhpur",
    "circlename": "Rajasthan",
    "Taluk": "Nimkathana",
    "Districtname": "Sikar",
    "statename": "RAJASTHAN"
  },
  {
    "pincode": "332709",
    "officename": "Saledipura B.O",
    "officeType": "B.O",
    "Deliverystatus": "Delivery",
    "divisionname": "Sikar",
    "regionname": "Jodhpur",
    "circlename": "Rajasthan",
    "Taluk": "Nimkathana",
    "Districtname": "Sikar",
    "statename": "RAJASTHAN"
  },
  {
    "pincode": "332709",
    "officename": "Tiwarikidhani B.O",
    "officeType": "B.O",
    "Deliverystatus": "Delivery",
    "divisionname": "Sikar",
    "regionname": "Jodhpur",
    "circlename": "Rajasthan",
    "Taluk": "Sri Madhopur",
    "Districtname": "Sikar",
    "statename": "RAJASTHAN"
  }
]
