[
  {
    "pincode": "333023",
    "officename": "Adarsh Nagar B.O",
    "officeType": "B.O",
    "Deliverystatus": "Delivery",
    "divisionname": "Jhunjhunu",
    "regionname": "Jodhpur",
    "circlename": "Rajasthan",
    "Taluk": "Jhunjhunu",
    "Districtname": "Jhujhunu",
    "statename": "RAJASTHAN"
  },
  {
    "pincode": "333023",
    "officename": "Alipur B.O",
    "officeType": "B.O",
    "Deliverystatus": "Delivery",
    "divisionname": "Jhunjhunu",
    "regionname": "Jodhpur",
    "circlename": "Rajasthan",
    "Taluk": "Chirawa",
    "Districtname": "Jhujhunu",
    "statename": "RAJASTHAN"
  },
  {
    "pincode": "333023",
    "officename": "Bagar S.O",
    "officeType": "S.O",
    "Deliverystatus": "Delivery",
    "divisionname": "Jhunjhunu",
    "regionname": "Jodhpur",
    "circlename": "Rajasthan",
    "Taluk": "Jhunjhunu",
    "Districtname": "Jhujhunu",
    "statename": "RAJASTHAN"
  },
  {
    "pincode": "333023",
    "officename": "Bakhatawarpura B.O",
    "officeType": "B.O",
    "Deliverystatus": "Delivery",
    "divisionname": "Jhunjhunu",
    "regionname": "Jodhpur",
    "circlename": "Rajasthan",
    "Taluk": "Jhunjhunu",
    "Districtname": "Jhujhunu",
    "statename": "RAJASTHAN"
  },
  {
    "pincode": "333023",
    "officename": "Budana B.O",
    "officeType": "B.O",
    "Deliverystatus": "Delivery",
    "divisionname": "Jhunjhunu",
    "regionname": "Jodhpur",
    "circlename": "Rajasthan",
    "Taluk": "Jhunjhunu",
    "Districtname": "Jhujhunu",
    "statename": "RAJASTHAN"
  },
  {
    "pincode": "333023",
    "officename": "Desusar B.O",
    "officeType": "B.O",
    "Deliverystatus": "Delivery",
    "divisionname": "Jhunjhunu",
    "regionname": "Jodhpur",
    "circlename": "Rajasthan",
    "Taluk": "Jhunjhunu",
    "Districtname": "Jhujhunu",
    "statename": "RAJASTHAN"
  },
  {
    "pincode": "333023",
    "officename": "Jaipahari B.O",
    "officeType": "B.O",
    "Deliverystatus": "Delivery",
    "divisionname": "Jhunjhunu",
    "regionname": "Jodhpur",
    "circlename": "Rajasthan",
    "Taluk": "Jhunjhunu",
    "Districtname": "Jhujhunu",
    "statename": "RAJASTHAN"
  },
  {
    "pincode": "333023",
    "officename": "Kasimpura B.O",
    "officeType": "B.O",
    "Deliverystatus": "Delivery",
    "divisionname": "Jhunjhunu",
    "regionname": "Jodhpur",
    "circlename": "Rajasthan",
    "Taluk": "Jhunjhunui",
    "Districtname": "Jhujhunu",
    "statename": "RAJASTHAN"
  },
  {
    "pincode": "333023",
    "officename": "Khudana B.O",
    "officeType": "B.O",
    "Deliverystatus": "Delivery",
    "divisionname": "Jhunjhunu",
    "regionname": "Jodhpur",
    "circlename": "Rajasthan",
    "Taluk": "Chirawa",
    "Districtname": "Jhujhunu",
    "statename": "RAJASTHAN"
  },
  {
    "pincode": "333023",
    "officename": "Lalpur B.O",
    "officeType": "B.O",
    "Deliverystatus": "Delivery",
    "divisionname": "Jhunjhunu",
    "regionname": "Jodhpur",
    "circlename": "Rajasthan",
    "Taluk": "Jhunjhunu",
    "Districtname": "Jhujhunu",
    "statename": "RAJASTHAN"
  },
  {
    "pincode": "333023",
    "officename": "Lamba B.O",
    "officeType": "B.O",
    "Deliverystatus": "Delivery",
    "divisionname": "Jhunjhunu",
    "regionname": "Jodhpur",
    "circlename": "Rajasthan",
    "Taluk": "Chirawa",
    "Districtname": "Jhujhunu",
    "statename": "RAJASTHAN"
  },
  {
    "pincode": "333023",
    "officename": "Narnod Maligaon B.O",
    "officeType": "B.O",
    "Deliverystatus": "Delivery",
    "divisionname": "Jhunjhunu",
    "regionname": "Jodhpur",
    "circlename": "Rajasthan",
    "Taluk": "Chirawa",
    "Districtname": "Jhujhunu",
    "statename": "RAJASTHAN"
  },
  {
    "pincode": "333023",
    "officename": "Pakori Dhani B.O",
    "officeType": "B.O",
    "Deliverystatus": "Delivery",
    "divisionname": "Jhunjhunu",
    "regionname": "Jodhpur",
    "circlename": "Rajasthan",
    "Taluk": "Chirawa",
    "Districtname": "Jhujhunu",
    "statename": "RAJASTHAN"
  }
]
