[
  {
    "pincode": "333029",
    "officename": "Agawana Khurd B.O",
    "officeType": "B.O",
    "Deliverystatus": "Delivery",
    "divisionname": "Jhunjhunu",
    "regionname": "Jodhpur",
    "circlename": "Rajasthan",
    "Taluk": "Surajgarh",
    "Districtname": "Jhujhunu",
    "statename": "RAJASTHAN"
  },
  {
    "pincode": "333029",
    "officename": "Bhawathari B.O",
    "officeType": "B.O",
    "Deliverystatus": "Delivery",
    "divisionname": "Jhunjhunu",
    "regionname": "Jodhpur",
    "circlename": "Rajasthan",
    "Taluk": "Surajgarh",
    "Districtname": "Jhujhunu",
    "statename": "RAJASTHAN"
  },
  {
    "pincode": "333029",
    "officename": "Kakoda B.O",
    "officeType": "B.O",
    "Deliverystatus": "Delivery",
    "divisionname": "Jhunjhunu",
    "regionname": "Jodhpur",
    "circlename": "Rajasthan",
    "Taluk": "Chirawa",
    "Districtname": "Jhujhunu",
    "statename": "RAJASTHAN"
  },
  {
    "pincode": "333029",
    "officename": "Kasani B.O",
    "officeType": "B.O",
    "Deliverystatus": "Delivery",
    "divisionname": "Jhunjhunu",
    "regionname": "Jodhpur",
    "circlename": "Rajasthan",
    "Taluk": "Chirawa",
    "Districtname": "Jhujhunu",
    "statename": "RAJASTHAN"
  },
  {
    "pincode": "333029",
    "officename": "Lotia B.O",
    "officeType": "B.O",
    "Deliverystatus": "Delivery",
    "divisionname": "Jhunjhunu",
    "regionname": "Jodhpur",
    "circlename": "Rajasthan",
    "Taluk": "Chirawa",
    "Districtname": "Jhujhunu",
    "statename": "RAJASTHAN"
  },
  {
    "pincode": "333029",
    "officename": "Pilod B.O",
    "officeType": "B.O",
    "Deliverystatus": "Delivery",
    "divisionname": "Jhunjhunu",
    "regionname": "Jodhpur",
    "circlename": "Rajasthan",
    "Taluk": "Chirawa",
    "Districtname": "Jhujhunu",
    "statename": "RAJASTHAN"
  },
  {
    "pincode": "333029",
    "officename": "Raghunathpura B.O",
    "officeType": "B.O",
    "Deliverystatus": "Delivery",
    "divisionname": "Jhunjhunu",
    "regionname": "Jodhpur",
    "circlename": "Rajasthan",
    "Taluk": "Chirawa",
    "Districtname": "Jhujhunu",
    "statename": "RAJASTHAN"
  },
  {
    "pincode": "333029",
    "officename": "Surajgarh Bazar S.O",
    "officeType": "S.O",
    "Deliverystatus": "Non-Delivery",
    "divisionname": "Jhunjhunu",
    "regionname": "Jodhpur",
    "circlename": "Rajasthan",
    "Taluk": "Chirawa",
    "Districtname": "Jhujhunu",
    "statename": "RAJASTHAN"
  },
  {
    "pincode": "333029",
    "officename": "Surajgarh S.O",
    "officeType": "S.O",
    "Deliverystatus": "Delivery",
    "divisionname": "Jhunjhunu",
    "regionname": "Jodhpur",
    "circlename": "Rajasthan",
    "Taluk": "Chirawa",
    "Districtname": "Jhujhunu",
    "statename": "RAJASTHAN"
  }
]
