[
  {
    "pincode": "333028",
    "officename": "Gowala B.O",
    "officeType": "B.O",
    "Deliverystatus": "Delivery",
    "divisionname": "Jhunjhunu",
    "regionname": "Jodhpur",
    "circlename": "Rajasthan",
    "Taluk": "Chirawa",
    "Districtname": "Jhujhunu",
    "statename": "RAJASTHAN"
  },
  {
    "pincode": "333028",
    "officename": "Keharpura B.O",
    "officeType": "B.O",
    "Deliverystatus": "Delivery",
    "divisionname": "Jhunjhunu",
    "regionname": "Jodhpur",
    "circlename": "Rajasthan",
    "Taluk": "Chirawa",
    "Districtname": "Jhujhunu",
    "statename": "RAJASTHAN"
  },
  {
    "pincode": "333028",
    "officename": "Kishorpura B.O",
    "officeType": "B.O",
    "Deliverystatus": "Delivery",
    "divisionname": "Jhunjhunu",
    "regionname": "Jodhpur",
    "circlename": "Rajasthan",
    "Taluk": "Chirawa",
    "Districtname": "Jhujhunu",
    "statename": "RAJASTHAN"
  },
  {
    "pincode": "333028",
    "officename": "Kithana B.O",
    "officeType": "B.O",
    "Deliverystatus": "Delivery",
    "divisionname": "Jhunjhunu",
    "regionname": "Jodhpur",
    "circlename": "Rajasthan",
    "Taluk": "Chirawa",
    "Districtname": "Jhujhunu",
    "statename": "RAJASTHAN"
  },
  {
    "pincode": "333028",
    "officename": "Kyamsar B.O",
    "officeType": "B.O",
    "Deliverystatus": "Delivery",
    "divisionname": "Jhunjhunu",
    "regionname": "Jodhpur",
    "circlename": "Rajasthan",
    "Taluk": "Chirawa",
    "Districtname": "Jhujhunu",
    "statename": "RAJASTHAN"
  },
  {
    "pincode": "333028",
    "officename": "Maharampur B.O",
    "officeType": "B.O",
    "Deliverystatus": "Delivery",
    "divisionname": "Jhunjhunu",
    "regionname": "Jodhpur",
    "circlename": "Rajasthan",
    "Taluk": "Chirawa",
    "Districtname": "Jhujhunu",
    "statename": "RAJASTHAN"
  },
  {
    "pincode": "333028",
    "officename": "Padampura B.O",
    "officeType": "B.O",
    "Deliverystatus": "Delivery",
    "divisionname": "Jhunjhunu",
    "regionname": "Jodhpur",
    "circlename": "Rajasthan",
    "Taluk": "Chirawa",
    "Districtname": "Jhujhunu",
    "statename": "RAJASTHAN"
  },
  {
    "pincode": "333028",
    "officename": "Solana B.O",
    "officeType": "B.O",
    "Deliverystatus": "Delivery",
    "divisionname": "Jhunjhunu",
    "regionname": "Jodhpur",
    "circlename": "Rajasthan",
    "Taluk": "Chirawa",
    "Districtname": "Jhujhunu",
    "statename": "RAJASTHAN"
  },
  {
    "pincode": "333028",
    "officename": "Sultana S.O",
    "officeType": "S.O",
    "Deliverystatus": "Delivery",
    "divisionname": "Jhunjhunu",
    "regionname": "Jodhpur",
    "circlename": "Rajasthan",
    "Taluk": "Chirawa",
    "Districtname": "Jhujhunu",
    "statename": "RAJASTHAN"
  },
  {
    "pincode": "333028",
    "officename": "Thincholi B.O",
    "officeType": "B.O",
    "Deliverystatus": "Delivery",
    "divisionname": "Jhunjhunu",
    "regionname": "Jodhpur",
    "circlename": "Rajasthan",
    "Taluk": "Chirawa",
    "Districtname": "Jhujhunu",
    "statename": "RAJASTHAN"
  }
]
