[
  {
    "pincode": "333515",
    "officename": "Bhaloth B.O",
    "officeType": "B.O",
    "Deliverystatus": "Delivery",
    "divisionname": "Jhunjhunu",
    "regionname": "Jodhpur",
    "circlename": "Rajasthan",
    "Taluk": "Buhana",
    "Districtname": "Jhujhunu",
    "statename": "RAJASTHAN"
  },
  {
    "pincode": "333515",
    "officename": "Bhirr B.O",
    "officeType": "B.O",
    "Deliverystatus": "Delivery",
    "divisionname": "Jhunjhunu",
    "regionname": "Jodhpur",
    "circlename": "Rajasthan",
    "Taluk": "Buhana",
    "Districtname": "Jhujhunu",
    "statename": "RAJASTHAN"
  },
  {
    "pincode": "333515",
    "officename": "Churina B.O",
    "officeType": "B.O",
    "Deliverystatus": "Delivery",
    "divisionname": "Jhunjhunu",
    "regionname": "Jodhpur",
    "circlename": "Rajasthan",
    "Taluk": "Buhana",
    "Districtname": "Jhujhunu",
    "statename": "RAJASTHAN"
  },
  {
    "pincode": "333515",
    "officename": "Deolawas B.O",
    "officeType": "B.O",
    "Deliverystatus": "Delivery",
    "divisionname": "Jhunjhunu",
    "regionname": "Jodhpur",
    "circlename": "Rajasthan",
    "Taluk": "Buhana",
    "Districtname": "Jhujhunu",
    "statename": "RAJASTHAN"
  },
  {
    "pincode": "333515",
    "officename": "Gunti B.O",
    "officeType": "B.O",
    "Deliverystatus": "Delivery",
    "divisionname": "Jhunjhunu",
    "regionname": "Jodhpur",
    "circlename": "Rajasthan",
    "Taluk": "Buhana",
    "Districtname": "Jhujhunu",
    "statename": "RAJASTHAN"
  },
  {
    "pincode": "333515",
    "officename": "Nihaloth B.O",
    "officeType": "B.O",
    "Deliverystatus": "Delivery",
    "divisionname": "Jhunjhunu",
    "regionname": "Jodhpur",
    "circlename": "Rajasthan",
    "Taluk": "Buhana",
    "Districtname": "Jhujhunu",
    "statename": "RAJASTHAN"
  },
  {
    "pincode": "333515",
    "officename": "Pacheri Badi S.O",
    "officeType": "S.O",
    "Deliverystatus": "Delivery",
    "divisionname": "Jhunjhunu",
    "regionname": "Jodhpur",
    "circlename": "Rajasthan",
    "Taluk": "Buhana",
    "Districtname": "Jhujhunu",
    "statename": "RAJASTHAN"
  },
  {
    "pincode": "333515",
    "officename": "Pacheri Chhoti B.O",
    "officeType": "B.O",
    "Deliverystatus": "Delivery",
    "divisionname": "Jhunjhunu",
    "regionname": "Jodhpur",
    "circlename": "Rajasthan",
    "Taluk": "Buhana",
    "Districtname": "Jhujhunu",
    "statename": "RAJASTHAN"
  },
  {
    "pincode": "333515",
    "officename": "Panthroli B.O",
    "officeType": "B.O",
    "Deliverystatus": "Delivery",
    "divisionname": "Jhunjhunu",
    "regionname": "Jodhpur",
    "circlename": "Rajasthan",
    "Taluk": "Buhana",
    "Districtname": "Jhujhunu",
    "statename": "RAJASTHAN"
  },
  {
    "pincode": "333515",
    "officename": "Raipur Ahiran B.O",
    "officeType": "B.O",
    "Deliverystatus": "Delivery",
    "divisionname": "Jhunjhunu",
    "regionname": "Jodhpur",
    "circlename": "Rajasthan",
    "Taluk": "Buhana",
    "Districtname": "Jhujhunu",
    "statename": "RAJASTHAN"
  },
  {
    "pincode": "333515",
    "officename": "Santore B.O",
    "officeType": "B.O",
    "Deliverystatus": "Delivery",
    "divisionname": "Jhunjhunu",
    "regionname": "Jodhpur",
    "circlename": "Rajasthan",
    "Taluk": "Buhana",
    "Districtname": "Jhujhunu",
    "statename": "RAJASTHAN"
  },
  {
    "pincode": "333515",
    "officename": "Sohali B.O",
    "officeType": "B.O",
    "Deliverystatus": "Delivery",
    "divisionname": "Jhunjhunu",
    "regionname": "Jodhpur",
    "circlename": "Rajasthan",
    "Taluk": "Buhana",
    "Districtname": "Jhujhunu",
    "statename": "RAJASTHAN"
  }
]
