[
  {
    "pincode": "333704",
    "officename": "Bahadurwas B.O",
    "officeType": "B.O",
    "Deliverystatus": "Delivery",
    "divisionname": "Jhunjhunu",
    "regionname": "Jodhpur",
    "circlename": "Rajasthan",
    "Taluk": "Jhunjhunun",
    "Districtname": "Jhujhunu",
    "statename": "RAJASTHAN"
  },
  {
    "pincode": "333704",
    "officename": "Bajisar B.O",
    "officeType": "B.O",
    "Deliverystatus": "Delivery",
    "divisionname": "Jhunjhunu",
    "regionname": "Jodhpur",
    "circlename": "Rajasthan",
    "Taluk": "Jhunjhunu",
    "Districtname": "Jhujhunu",
    "statename": "RAJASTHAN"
  },
  {
    "pincode": "333704",
    "officename": "Chanderapura B.O",
    "officeType": "B.O",
    "Deliverystatus": "Delivery",
    "divisionname": "Jhunjhunu",
    "regionname": "Jodhpur",
    "circlename": "Rajasthan",
    "Taluk": "Jhunjhunu",
    "Districtname": "Jhujhunu",
    "statename": "RAJASTHAN"
  },
  {
    "pincode": "333704",
    "officename": "Hanumanpura B.O",
    "officeType": "B.O",
    "Deliverystatus": "Delivery",
    "divisionname": "Jhunjhunu",
    "regionname": "Jodhpur",
    "circlename": "Rajasthan",
    "Taluk": "Jhunjhunu",
    "Districtname": "Jhujhunu",
    "statename": "RAJASTHAN"
  },
  {
    "pincode": "333704",
    "officename": "Khalasi B.O",
    "officeType": "B.O",
    "Deliverystatus": "Delivery",
    "divisionname": "Jhunjhunu",
    "regionname": "Jodhpur",
    "circlename": "Rajasthan",
    "Taluk": "Jhunjhunu",
    "Districtname": "Jhujhunu",
    "statename": "RAJASTHAN"
  },
  {
    "pincode": "333704",
    "officename": "Kuharu B.O",
    "officeType": "B.O",
    "Deliverystatus": "Delivery",
    "divisionname": "Jhunjhunu",
    "regionname": "Jodhpur",
    "circlename": "Rajasthan",
    "Taluk": "Jhunjhunu",
    "Districtname": "Jhujhunu",
    "statename": "RAJASTHAN"
  },
  {
    "pincode": "333704",
    "officename": "Lumawas B.O",
    "officeType": "B.O",
    "Deliverystatus": "Delivery",
    "divisionname": "Jhunjhunu",
    "regionname": "Jodhpur",
    "circlename": "Rajasthan",
    "Taluk": "Jhunjhunu",
    "Districtname": "Jhujhunu",
    "statename": "RAJASTHAN"
  },
  {
    "pincode": "333704",
    "officename": "Maharadasi B.O",
    "officeType": "B.O",
    "Deliverystatus": "Delivery",
    "divisionname": "Jhunjhunu",
    "regionname": "Jodhpur",
    "circlename": "Rajasthan",
    "Taluk": "Jhunjhunu",
    "Districtname": "Jhujhunu",
    "statename": "RAJASTHAN"
  },
  {
    "pincode": "333704",
    "officename": "Mandawa Bazar S.O",
    "officeType": "S.O",
    "Deliverystatus": "Non-Delivery",
    "divisionname": "Jhunjhunu",
    "regionname": "Jodhpur",
    "circlename": "Rajasthan",
    "Taluk": "Jhunjhunun",
    "Districtname": "Jhujhunu",
    "statename": "RAJASTHAN"
  },
  {
    "pincode": "333704",
    "officename": "Mandawa S.O",
    "officeType": "S.O",
    "Deliverystatus": "Delivery",
    "divisionname": "Jhunjhunu",
    "regionname": "Jodhpur",
    "circlename": "Rajasthan",
    "Taluk": "Jhunjhunu",
    "Districtname": "Jhujhunu",
    "statename": "RAJASTHAN"
  },
  {
    "pincode": "333704",
    "officename": "Mojas B.O",
    "officeType": "B.O",
    "Deliverystatus": "Delivery",
    "divisionname": "Jhunjhunu",
    "regionname": "Jodhpur",
    "circlename": "Rajasthan",
    "Taluk": "Jhunjhunu",
    "Districtname": "Jhujhunu",
    "statename": "RAJASTHAN"
  },
  {
    "pincode": "333704",
    "officename": "Sigra B.O",
    "officeType": "B.O",
    "Deliverystatus": "Delivery",
    "divisionname": "Jhunjhunu",
    "regionname": "Jodhpur",
    "circlename": "Rajasthan",
    "Taluk": "Jhunjhunun",
    "Districtname": "Jhujhunu",
    "statename": "RAJASTHAN"
  },
  {
    "pincode": "333704",
    "officename": "Toliasar B.O",
    "officeType": "B.O",
    "Deliverystatus": "Delivery",
    "divisionname": "Jhunjhunu",
    "regionname": "Jodhpur",
    "circlename": "Rajasthan",
    "Taluk": "Jhunjhunun",
    "Districtname": "Jhujhunu",
    "statename": "RAJASTHAN"
  },
  {
    "pincode": "333704",
    "officename": "Wahidpura B.O",
    "officeType": "B.O",
    "Deliverystatus": "Delivery",
    "divisionname": "Jhunjhunu",
    "regionname": "Jodhpur",
    "circlename": "Rajasthan",
    "Taluk": "Jhunjhunun",
    "Districtname": "Jhujhunu",
    "statename": "RAJASTHAN"
  }
]
