[
  {
    "pincode": "334023",
    "officename": "17 K.Y.D. B.O",
    "officeType": "B.O",
    "Deliverystatus": "Delivery",
    "divisionname": "Bikaner",
    "regionname": "Jodhpur",
    "circlename": "Rajasthan",
    "Taluk": "Bikaner",
    "Districtname": "Bikaner",
    "statename": "RAJASTHAN"
  },
  {
    "pincode": "334023",
    "officename": "2 K.L.D. B.O",
    "officeType": "B.O",
    "Deliverystatus": "Delivery",
    "divisionname": "Bikaner",
    "regionname": "Jodhpur",
    "circlename": "Rajasthan",
    "Taluk": "Bikaner",
    "Districtname": "Bikaner",
    "statename": "RAJASTHAN"
  },
  {
    "pincode": "334023",
    "officename": "61 Head B.O",
    "officeType": "B.O",
    "Deliverystatus": "Delivery",
    "divisionname": "Bikaner",
    "regionname": "Jodhpur",
    "circlename": "Rajasthan",
    "Taluk": "Khajuwala",
    "Districtname": "Bikaner",
    "statename": "RAJASTHAN"
  },
  {
    "pincode": "334023",
    "officename": "Chak 8 Kyd B.O",
    "officeType": "B.O",
    "Deliverystatus": "Delivery",
    "divisionname": "Bikaner",
    "regionname": "Jodhpur",
    "circlename": "Rajasthan",
    "Taluk": "Bikaner",
    "Districtname": "Bikaner",
    "statename": "RAJASTHAN"
  },
  {
    "pincode": "334023",
    "officename": "Dantaur B.O",
    "officeType": "B.O",
    "Deliverystatus": "Delivery",
    "divisionname": "Bikaner",
    "regionname": "Jodhpur",
    "circlename": "Rajasthan",
    "Taluk": "Bikaner",
    "Districtname": "Bikaner",
    "statename": "RAJASTHAN"
  },
  {
    "pincode": "334023",
    "officename": "Delitalai B.O",
    "officeType": "B.O",
    "Deliverystatus": "Delivery",
    "divisionname": "Bikaner",
    "regionname": "Jodhpur",
    "circlename": "Rajasthan",
    "Taluk": "Khajuwala",
    "Districtname": "Bikaner",
    "statename": "RAJASTHAN"
  },
  {
    "pincode": "334023",
    "officename": "Karamwala B.O",
    "officeType": "B.O",
    "Deliverystatus": "Delivery",
    "divisionname": "Bikaner",
    "regionname": "Jodhpur",
    "circlename": "Rajasthan",
    "Taluk": "Bikaner",
    "Districtname": "Bikaner",
    "statename": "RAJASTHAN"
  },
  {
    "pincode": "334023",
    "officename": "Karnisar Bhatiyan B.O",
    "officeType": "B.O",
    "Deliverystatus": "Delivery",
    "divisionname": "Bikaner",
    "regionname": "Jodhpur",
    "circlename": "Rajasthan",
    "Taluk": "Bikaner",
    "Districtname": "Bikaner",
    "statename": "RAJASTHAN"
  },
  {
    "pincode": "334023",
    "officename": "Khajuwala S.O",
    "officeType": "S.O",
    "Deliverystatus": "Delivery",
    "divisionname": "Bikaner",
    "regionname": "Jodhpur",
    "circlename": "Rajasthan",
    "Taluk": "Khajuwala",
    "Districtname": "Bikaner",
    "statename": "RAJASTHAN"
  },
  {
    "pincode": "334023",
    "officename": "Poogal B.O",
    "officeType": "B.O",
    "Deliverystatus": "Delivery",
    "divisionname": "Bikaner",
    "regionname": "Jodhpur",
    "circlename": "Rajasthan",
    "Taluk": "Bikaner",
    "Districtname": "Bikaner",
    "statename": "RAJASTHAN"
  },
  {
    "pincode": "334023",
    "officename": "Siyasar Panchkosa B.O",
    "officeType": "B.O",
    "Deliverystatus": "Delivery",
    "divisionname": "Bikaner",
    "regionname": "Jodhpur",
    "circlename": "Rajasthan",
    "Taluk": "Bikaner",
    "Districtname": "Bikaner",
    "statename": "RAJASTHAN"
  },
  {
    "pincode": "334023",
    "officename": "Siyasarchogan B.O",
    "officeType": "B.O",
    "Deliverystatus": "Delivery",
    "divisionname": "Bikaner",
    "regionname": "Jodhpur",
    "circlename": "Rajasthan",
    "Taluk": "Bikaner",
    "Districtname": "Bikaner",
    "statename": "RAJASTHAN"
  }
]
