[
  {
    "pincode": "334021",
    "officename": "Chhatararh S.O",
    "officeType": "S.O",
    "Deliverystatus": "Delivery",
    "divisionname": "Bikaner",
    "regionname": "Jodhpur",
    "circlename": "Rajasthan",
    "Taluk": "Chhatargarh",
    "Districtname": "Bikaner",
    "statename": "RAJASTHAN"
  },
  {
    "pincode": "334021",
    "officename": "Dandi B.O",
    "officeType": "B.O",
    "Deliverystatus": "Delivery",
    "divisionname": "Bikaner",
    "regionname": "Jodhpur",
    "circlename": "Rajasthan",
    "Taluk": "Chhatargarh",
    "Districtname": "Bikaner",
    "statename": "RAJASTHAN"
  },
  {
    "pincode": "334021",
    "officename": "Kharbara B.O",
    "officeType": "B.O",
    "Deliverystatus": "Delivery",
    "divisionname": "Bikaner",
    "regionname": "Jodhpur",
    "circlename": "Rajasthan",
    "Taluk": "Bikaner",
    "Districtname": "Bikaner",
    "statename": "RAJASTHAN"
  },
  {
    "pincode": "334021",
    "officename": "Loonkhan B.O",
    "officeType": "B.O",
    "Deliverystatus": "Delivery",
    "divisionname": "Bikaner",
    "regionname": "Jodhpur",
    "circlename": "Rajasthan",
    "Taluk": "Chhatargarh",
    "Districtname": "Bikaner",
    "statename": "RAJASTHAN"
  },
  {
    "pincode": "334021",
    "officename": "Mahadevwali B.O",
    "officeType": "B.O",
    "Deliverystatus": "Delivery",
    "divisionname": "Bikaner",
    "regionname": "Jodhpur",
    "circlename": "Rajasthan",
    "Taluk": "Bikaner",
    "Districtname": "Bikaner",
    "statename": "RAJASTHAN"
  },
  {
    "pincode": "334021",
    "officename": "Motigarh B.O",
    "officeType": "B.O",
    "Deliverystatus": "Delivery",
    "divisionname": "Bikaner",
    "regionname": "Jodhpur",
    "circlename": "Rajasthan",
    "Taluk": "Bikaner",
    "Districtname": "Bikaner",
    "statename": "RAJASTHAN"
  },
  {
    "pincode": "334021",
    "officename": "Raner B.O",
    "officeType": "B.O",
    "Deliverystatus": "Delivery",
    "divisionname": "Bikaner",
    "regionname": "Jodhpur",
    "circlename": "Rajasthan",
    "Taluk": "Bikaner",
    "Districtname": "Bikaner",
    "statename": "RAJASTHAN"
  },
  {
    "pincode": "334021",
    "officename": "Satasar B.O",
    "officeType": "B.O",
    "Deliverystatus": "Delivery",
    "divisionname": "Bikaner",
    "regionname": "Jodhpur",
    "circlename": "Rajasthan",
    "Taluk": "Bikaner",
    "Districtname": "Bikaner",
    "statename": "RAJASTHAN"
  },
  {
    "pincode": "334021",
    "officename": "Takhatpura B.O",
    "officeType": "B.O",
    "Deliverystatus": "Delivery",
    "divisionname": "Bikaner",
    "regionname": "Jodhpur",
    "circlename": "Rajasthan",
    "Taluk": "Bikaner",
    "Districtname": "Bikaner",
    "statename": "RAJASTHAN"
  }
]
