[
  {
    "pincode": "334305",
    "officename": "Bagadsar B.O",
    "officeType": "B.O",
    "Deliverystatus": "Delivery",
    "divisionname": "Bikaner",
    "regionname": "Jodhpur",
    "circlename": "Rajasthan",
    "Taluk": "Bikaner",
    "Districtname": "Bikaner",
    "statename": "RAJASTHAN"
  },
  {
    "pincode": "334305",
    "officename": "Bajju S.O",
    "officeType": "S.O",
    "Deliverystatus": "Delivery",
    "divisionname": "Bikaner",
    "regionname": "Jodhpur",
    "circlename": "Rajasthan",
    "Taluk": "Bikaner",
    "Districtname": "Bikaner",
    "statename": "RAJASTHAN"
  },
  {
    "pincode": "334305",
    "officename": "Barsalpur B.O",
    "officeType": "B.O",
    "Deliverystatus": "Delivery",
    "divisionname": "Bikaner",
    "regionname": "Jodhpur",
    "circlename": "Rajasthan",
    "Taluk": "Bikaner",
    "Districtname": "Bikaner",
    "statename": "RAJASTHAN"
  },
  {
    "pincode": "334305",
    "officename": "Bhaluri B.O",
    "officeType": "B.O",
    "Deliverystatus": "Delivery",
    "divisionname": "Bikaner",
    "regionname": "Jodhpur",
    "circlename": "Rajasthan",
    "Taluk": "Bikaner",
    "Districtname": "Bikaner",
    "statename": "RAJASTHAN"
  },
  {
    "pincode": "334305",
    "officename": "Bijeri B.O",
    "officeType": "B.O",
    "Deliverystatus": "Delivery",
    "divisionname": "Bikaner",
    "regionname": "Jodhpur",
    "circlename": "Rajasthan",
    "Taluk": "Bikaner",
    "Districtname": "Bikaner",
    "statename": "RAJASTHAN"
  },
  {
    "pincode": "334305",
    "officename": "Bikampur B.O",
    "officeType": "B.O",
    "Deliverystatus": "Delivery",
    "divisionname": "Bikaner",
    "regionname": "Jodhpur",
    "circlename": "Rajasthan",
    "Taluk": "Bikaner",
    "Districtname": "Bikaner",
    "statename": "RAJASTHAN"
  },
  {
    "pincode": "334305",
    "officename": "Godoo B.O",
    "officeType": "B.O",
    "Deliverystatus": "Delivery",
    "divisionname": "Bikaner",
    "regionname": "Jodhpur",
    "circlename": "Rajasthan",
    "Taluk": "Bikaner",
    "Districtname": "Bikaner",
    "statename": "RAJASTHAN"
  },
  {
    "pincode": "334305",
    "officename": "Gogariyawala B.O",
    "officeType": "B.O",
    "Deliverystatus": "Delivery",
    "divisionname": "Bikaner",
    "regionname": "Jodhpur",
    "circlename": "Rajasthan",
    "Taluk": "Bikaner",
    "Districtname": "Bikaner",
    "statename": "RAJASTHAN"
  },
  {
    "pincode": "334305",
    "officename": "Mankasar B.O",
    "officeType": "B.O",
    "Deliverystatus": "Delivery",
    "divisionname": "Bikaner",
    "regionname": "Jodhpur",
    "circlename": "Rajasthan",
    "Taluk": "Bikaner",
    "Districtname": "Bikaner",
    "statename": "RAJASTHAN"
  },
  {
    "pincode": "334305",
    "officename": "Mithriya B.O",
    "officeType": "B.O",
    "Deliverystatus": "Delivery",
    "divisionname": "Bikaner",
    "regionname": "Jodhpur",
    "circlename": "Rajasthan",
    "Taluk": "Bikaner",
    "Districtname": "Bikaner",
    "statename": "RAJASTHAN"
  },
  {
    "pincode": "334305",
    "officename": "Phulasar Khurd B.O",
    "officeType": "B.O",
    "Deliverystatus": "Delivery",
    "divisionname": "Bikaner",
    "regionname": "Jodhpur",
    "circlename": "Rajasthan",
    "Taluk": "Kolayat",
    "Districtname": "Bikaner",
    "statename": "RAJASTHAN"
  },
  {
    "pincode": "334305",
    "officename": "Ranjeetpura B.O",
    "officeType": "B.O",
    "Deliverystatus": "Delivery",
    "divisionname": "Bikaner",
    "regionname": "Jodhpur",
    "circlename": "Rajasthan",
    "Taluk": "Bikaner",
    "Districtname": "Bikaner",
    "statename": "RAJASTHAN"
  }
]
