[
  {
    "pincode": "334802",
    "officename": "Ankhisar B.O",
    "officeType": "B.O",
    "Deliverystatus": "Delivery",
    "divisionname": "Bikaner",
    "regionname": "Jodhpur",
    "circlename": "Rajasthan",
    "Taluk": "Bikaner",
    "Districtname": "Bikaner",
    "statename": "RAJASTHAN"
  },
  {
    "pincode": "334802",
    "officename": "Berasar B.O",
    "officeType": "B.O",
    "Deliverystatus": "Delivery",
    "divisionname": "Bikaner",
    "regionname": "Jodhpur",
    "circlename": "Rajasthan",
    "Taluk": "Bikaner",
    "Districtname": "Bikaner",
    "statename": "RAJASTHAN"
  },
  {
    "pincode": "334802",
    "officename": "Dhoopaliya B.O",
    "officeType": "B.O",
    "Deliverystatus": "Delivery",
    "divisionname": "Bikaner",
    "regionname": "Jodhpur",
    "circlename": "Rajasthan",
    "Taluk": "Bikaner",
    "Districtname": "Bikaner",
    "statename": "RAJASTHAN"
  },
  {
    "pincode": "334802",
    "officename": "Gajsukhdesar B.O",
    "officeType": "B.O",
    "Deliverystatus": "Delivery",
    "divisionname": "Bikaner",
    "regionname": "Jodhpur",
    "circlename": "Rajasthan",
    "Taluk": "Bikaner",
    "Districtname": "Bikaner",
    "statename": "RAJASTHAN"
  },
  {
    "pincode": "334802",
    "officename": "Gondusar B.O",
    "officeType": "B.O",
    "Deliverystatus": "Delivery",
    "divisionname": "Bikaner",
    "regionname": "Jodhpur",
    "circlename": "Rajasthan",
    "Taluk": "Bikaner",
    "Districtname": "Bikaner",
    "statename": "RAJASTHAN"
  },
  {
    "pincode": "334802",
    "officename": "Himatsar S.O",
    "officeType": "S.O",
    "Deliverystatus": "Delivery",
    "divisionname": "Bikaner",
    "regionname": "Jodhpur",
    "circlename": "Rajasthan",
    "Taluk": "Bikaner",
    "Districtname": "Bikaner",
    "statename": "RAJASTHAN"
  },
  {
    "pincode": "334802",
    "officename": "Jasrasar B.O",
    "officeType": "B.O",
    "Deliverystatus": "Delivery",
    "divisionname": "Bikaner",
    "regionname": "Jodhpur",
    "circlename": "Rajasthan",
    "Taluk": "Bikaner",
    "Districtname": "Bikaner",
    "statename": "RAJASTHAN"
  },
  {
    "pincode": "334802",
    "officename": "Jesalsar B.O",
    "officeType": "B.O",
    "Deliverystatus": "Delivery",
    "divisionname": "Bikaner",
    "regionname": "Jodhpur",
    "circlename": "Rajasthan",
    "Taluk": "Bikaner",
    "Districtname": "Bikaner",
    "statename": "RAJASTHAN"
  },
  {
    "pincode": "334802",
    "officename": "Jhadeli B.O",
    "officeType": "B.O",
    "Deliverystatus": "Delivery",
    "divisionname": "Bikaner",
    "regionname": "Jodhpur",
    "circlename": "Rajasthan",
    "Taluk": "Bikaner",
    "Districtname": "Bikaner",
    "statename": "RAJASTHAN"
  },
  {
    "pincode": "334802",
    "officename": "Kakra B.O",
    "officeType": "B.O",
    "Deliverystatus": "Delivery",
    "divisionname": "Bikaner",
    "regionname": "Jodhpur",
    "circlename": "Rajasthan",
    "Taluk": "Bikaner",
    "Districtname": "Bikaner",
    "statename": "RAJASTHAN"
  },
  {
    "pincode": "334802",
    "officename": "Lalamdesar Bara B.O",
    "officeType": "B.O",
    "Deliverystatus": "Delivery",
    "divisionname": "Bikaner",
    "regionname": "Jodhpur",
    "circlename": "Rajasthan",
    "Taluk": "Bikaner",
    "Districtname": "Bikaner",
    "statename": "RAJASTHAN"
  },
  {
    "pincode": "334802",
    "officename": "Mainsar B.O",
    "officeType": "B.O",
    "Deliverystatus": "Delivery",
    "divisionname": "Bikaner",
    "regionname": "Jodhpur",
    "circlename": "Rajasthan",
    "Taluk": "Bikaner",
    "Districtname": "Bikaner",
    "statename": "RAJASTHAN"
  },
  {
    "pincode": "334802",
    "officename": "Mansoori B.O",
    "officeType": "B.O",
    "Deliverystatus": "Delivery",
    "divisionname": "Bikaner",
    "regionname": "Jodhpur",
    "circlename": "Rajasthan",
    "Taluk": "Bikaner",
    "Districtname": "Bikaner",
    "statename": "RAJASTHAN"
  },
  {
    "pincode": "334802",
    "officename": "Moondar B.O",
    "officeType": "B.O",
    "Deliverystatus": "Delivery",
    "divisionname": "Bikaner",
    "regionname": "Jodhpur",
    "circlename": "Rajasthan",
    "Taluk": "Bikaner",
    "Districtname": "Bikaner",
    "statename": "RAJASTHAN"
  },
  {
    "pincode": "334802",
    "officename": "Sadhasar B.O",
    "officeType": "B.O",
    "Deliverystatus": "Delivery",
    "divisionname": "Bikaner",
    "regionname": "Jodhpur",
    "circlename": "Rajasthan",
    "Taluk": "Bikaner",
    "Districtname": "Bikaner",
    "statename": "RAJASTHAN"
  },
  {
    "pincode": "334802",
    "officename": "Seeniwala B.O",
    "officeType": "B.O",
    "Deliverystatus": "Delivery",
    "divisionname": "Bikaner",
    "regionname": "Jodhpur",
    "circlename": "Rajasthan",
    "Taluk": "Bikaner",
    "Districtname": "Bikaner",
    "statename": "RAJASTHAN"
  },
  {
    "pincode": "334802",
    "officename": "Thawariya B.O",
    "officeType": "B.O",
    "Deliverystatus": "Delivery",
    "divisionname": "Bikaner",
    "regionname": "Jodhpur",
    "circlename": "Rajasthan",
    "Taluk": "Bikaner",
    "Districtname": "Bikaner",
    "statename": "RAJASTHAN"
  },
  {
    "pincode": "334802",
    "officename": "Udsar B.O",
    "officeType": "B.O",
    "Deliverystatus": "Delivery",
    "divisionname": "Bikaner",
    "regionname": "Jodhpur",
    "circlename": "Rajasthan",
    "Taluk": "Bikaner",
    "Districtname": "Bikaner",
    "statename": "RAJASTHAN"
  },
  {
    "pincode": "334802",
    "officename": "Utmamdesar B.O",
    "officeType": "B.O",
    "Deliverystatus": "Delivery",
    "divisionname": "Bikaner",
    "regionname": "Jodhpur",
    "circlename": "Rajasthan",
    "Taluk": "Bikaner",
    "Districtname": "Bikaner",
    "statename": "RAJASTHAN"
  }
]
