[
  {
    "pincode": "334801",
    "officename": "Bhamatsar B.O",
    "officeType": "B.O",
    "Deliverystatus": "Delivery",
    "divisionname": "Bikaner",
    "regionname": "Jodhpur",
    "circlename": "Rajasthan",
    "Taluk": "Bikaner",
    "Districtname": "Bikaner",
    "statename": "RAJASTHAN"
  },
  {
    "pincode": "334801",
    "officename": "Deshnoke S.O",
    "officeType": "S.O",
    "Deliverystatus": "Delivery",
    "divisionname": "Bikaner",
    "regionname": "Jodhpur",
    "circlename": "Rajasthan",
    "Taluk": "Nokha",
    "Districtname": "Bikaner",
    "statename": "RAJASTHAN"
  },
  {
    "pincode": "334801",
    "officename": "Ghatoo B.O",
    "officeType": "B.O",
    "Deliverystatus": "Delivery",
    "divisionname": "Bikaner",
    "regionname": "Jodhpur",
    "circlename": "Rajasthan",
    "Taluk": "Bikaner",
    "Districtname": "Bikaner",
    "statename": "RAJASTHAN"
  },
  {
    "pincode": "334801",
    "officename": "Morkhana Athuna B.O",
    "officeType": "B.O",
    "Deliverystatus": "Delivery",
    "divisionname": "Bikaner",
    "regionname": "Jodhpur",
    "circlename": "Rajasthan",
    "Taluk": "Bikaner",
    "Districtname": "Bikaner",
    "statename": "RAJASTHAN"
  },
  {
    "pincode": "334801",
    "officename": "Parwa B.O",
    "officeType": "B.O",
    "Deliverystatus": "Delivery",
    "divisionname": "Bikaner",
    "regionname": "Jodhpur",
    "circlename": "Rajasthan",
    "Taluk": "Bikaner",
    "Districtname": "Bikaner",
    "statename": "RAJASTHAN"
  },
  {
    "pincode": "334801",
    "officename": "Rasisar B.O",
    "officeType": "B.O",
    "Deliverystatus": "Delivery",
    "divisionname": "Bikaner",
    "regionname": "Jodhpur",
    "circlename": "Rajasthan",
    "Taluk": "Bikaner",
    "Districtname": "Bikaner",
    "statename": "RAJASTHAN"
  },
  {
    "pincode": "334801",
    "officename": "Sinjguru B.O",
    "officeType": "B.O",
    "Deliverystatus": "Delivery",
    "divisionname": "Bikaner",
    "regionname": "Jodhpur",
    "circlename": "Rajasthan",
    "Taluk": "Bikaner",
    "Districtname": "Bikaner",
    "statename": "RAJASTHAN"
  },
  {
    "pincode": "334801",
    "officename": "Surpura B.O",
    "officeType": "B.O",
    "Deliverystatus": "Delivery",
    "divisionname": "Bikaner",
    "regionname": "Jodhpur",
    "circlename": "Rajasthan",
    "Taluk": "Bikaner",
    "Districtname": "Bikaner",
    "statename": "RAJASTHAN"
  }
]
