[
  {
    "pincode": "335021",
    "officename": "39 Ps B.O",
    "officeType": "B.O",
    "Deliverystatus": "Delivery",
    "divisionname": "Sriganganagar",
    "regionname": "Jodhpur",
    "circlename": "Rajasthan",
    "Taluk": "Raisinghnagar",
    "Districtname": "Ganganagar",
    "statename": "RAJASTHAN"
  },
  {
    "pincode": "335021",
    "officename": "41 Ps B.O",
    "officeType": "B.O",
    "Deliverystatus": "Delivery",
    "divisionname": "Sriganganagar",
    "regionname": "Jodhpur",
    "circlename": "Rajasthan",
    "Taluk": "Raisinghnagar",
    "Districtname": "Ganganagar",
    "statename": "RAJASTHAN"
  },
  {
    "pincode": "335021",
    "officename": "Bishanpura S.O",
    "officeType": "S.O",
    "Deliverystatus": "Delivery",
    "divisionname": "Sriganganagar",
    "regionname": "Jodhpur",
    "circlename": "Rajasthan",
    "Taluk": "Raisinghnagar",
    "Districtname": "Ganganagar",
    "statename": "RAJASTHAN"
  },
  {
    "pincode": "335021",
    "officename": "Chak 75 NP B.O",
    "officeType": "B.O",
    "Deliverystatus": "Delivery",
    "divisionname": "Sriganganagar",
    "regionname": "Jodhpur",
    "circlename": "Rajasthan",
    "Taluk": "Raisinghnagar",
    "Districtname": "Ganganagar",
    "statename": "RAJASTHAN"
  },
  {
    "pincode": "335021",
    "officename": "Khatan B.O",
    "officeType": "B.O",
    "Deliverystatus": "Delivery",
    "divisionname": "Sriganganagar",
    "regionname": "Jodhpur",
    "circlename": "Rajasthan",
    "Taluk": "Raisinghnagar",
    "Districtname": "Ganganagar",
    "statename": "RAJASTHAN"
  },
  {
    "pincode": "335021",
    "officename": "Lakhahakam B.O",
    "officeType": "B.O",
    "Deliverystatus": "Delivery",
    "divisionname": "Sriganganagar",
    "regionname": "Jodhpur",
    "circlename": "Rajasthan",
    "Taluk": "Raisinghnagar",
    "Districtname": "Ganganagar",
    "statename": "RAJASTHAN"
  },
  {
    "pincode": "335021",
    "officename": "Sameja(15 PTD) B.O",
    "officeType": "B.O",
    "Deliverystatus": "Delivery",
    "divisionname": "Sriganganagar",
    "regionname": "Jodhpur",
    "circlename": "Rajasthan",
    "Taluk": "Raisinghnagar",
    "Districtname": "Ganganagar",
    "statename": "RAJASTHAN"
  },
  {
    "pincode": "335021",
    "officename": "Sanwatsar B.O",
    "officeType": "B.O",
    "Deliverystatus": "Delivery",
    "divisionname": "Sriganganagar",
    "regionname": "Jodhpur",
    "circlename": "Rajasthan",
    "Taluk": "Raisinghnagar",
    "Districtname": "Ganganagar",
    "statename": "RAJASTHAN"
  }
]
