[
  {
    "pincode": "335001",
    "officename": "12z B.O",
    "officeType": "B.O",
    "Deliverystatus": "Delivery",
    "divisionname": "Sriganganagar",
    "regionname": "Jodhpur",
    "circlename": "Rajasthan",
    "Taluk": "",
    "Districtname": "Ganganagar",
    "statename": "RAJASTHAN"
  },
  {
    "pincode": "335001",
    "officename": "15 Z B.O",
    "officeType": "B.O",
    "Deliverystatus": "Non-Delivery",
    "divisionname": "Sriganganagar",
    "regionname": "Jodhpur",
    "circlename": "Rajasthan",
    "Taluk": "Sriganganagar",
    "Districtname": "Ganganagar",
    "statename": "RAJASTHAN"
  },
  {
    "pincode": "335001",
    "officename": "3 Y B.O",
    "officeType": "B.O",
    "Deliverystatus": "Non-Delivery",
    "divisionname": "Sriganganagar",
    "regionname": "Jodhpur",
    "circlename": "Rajasthan",
    "Taluk": "Sriganganagar",
    "Districtname": "Ganganagar",
    "statename": "RAJASTHAN"
  },
  {
    "pincode": "335001",
    "officename": "Block Area S.O",
    "officeType": "S.O",
    "Deliverystatus": "Non-Delivery",
    "divisionname": "Sriganganagar",
    "regionname": "Jodhpur",
    "circlename": "Rajasthan",
    "Taluk": "Srigangangar",
    "Districtname": "Ganganagar",
    "statename": "RAJASTHAN"
  },
  {
    "pincode": "335001",
    "officename": "Block Area Sriganganagar B.O",
    "officeType": "B.O",
    "Deliverystatus": "Delivery",
    "divisionname": "Sriganganagar",
    "regionname": "Jodhpur",
    "circlename": "Rajasthan",
    "Taluk": "Block Area Sriganganagar",
    "Districtname": "Ganganagar",
    "statename": "RAJASTHAN"
  },
  {
    "pincode": "335001",
    "officename": "Chak 20 GG B.O",
    "officeType": "B.O",
    "Deliverystatus": "Non-Delivery",
    "divisionname": "Sriganganagar",
    "regionname": "Jodhpur",
    "circlename": "Rajasthan",
    "Taluk": "Sriganganagar",
    "Districtname": "Ganganagar",
    "statename": "RAJASTHAN"
  },
  {
    "pincode": "335001",
    "officename": "Chak 5 E Chhoti B.O",
    "officeType": "B.O",
    "Deliverystatus": "Non-Delivery",
    "divisionname": "Sriganganagar",
    "regionname": "Jodhpur",
    "circlename": "Rajasthan",
    "Taluk": "Sriganganagar",
    "Districtname": "Ganganagar",
    "statename": "RAJASTHAN"
  },
  {
    "pincode": "335001",
    "officename": "Chak 5 Ll B.O",
    "officeType": "B.O",
    "Deliverystatus": "Non-Delivery",
    "divisionname": "Sriganganagar",
    "regionname": "Jodhpur",
    "circlename": "Rajasthan",
    "Taluk": "Sriganganagar",
    "Districtname": "Ganganagar",
    "statename": "RAJASTHAN"
  },
  {
    "pincode": "335001",
    "officename": "Chakbhagsar B.O",
    "officeType": "B.O",
    "Deliverystatus": "Delivery",
    "divisionname": "Sriganganagar",
    "regionname": "Jodhpur",
    "circlename": "Rajasthan",
    "Taluk": "Anupgarh",
    "Districtname": "Ganganagar",
    "statename": "RAJASTHAN"
  },
  {
    "pincode": "335001",
    "officename": "Fathui B.O",
    "officeType": "B.O",
    "Deliverystatus": "Non-Delivery",
    "divisionname": "Sriganganagar",
    "regionname": "Jodhpur",
    "circlename": "Rajasthan",
    "Taluk": "Sriganganagar",
    "Districtname": "Ganganagar",
    "statename": "RAJASTHAN"
  },
  {
    "pincode": "335001",
    "officename": "Goushala Road S.O",
    "officeType": "S.O",
    "Deliverystatus": "Non-Delivery",
    "divisionname": "Sriganganagar",
    "regionname": "Jodhpur",
    "circlename": "Rajasthan",
    "Taluk": "Sriganganagar",
    "Districtname": "Ganganagar",
    "statename": "RAJASTHAN"
  },
  {
    "pincode": "335001",
    "officename": "Kalian B.O",
    "officeType": "B.O",
    "Deliverystatus": "Non-Delivery",
    "divisionname": "Sriganganagar",
    "regionname": "Jodhpur",
    "circlename": "Rajasthan",
    "Taluk": "Sriganganagar",
    "Districtname": "Ganganagar",
    "statename": "RAJASTHAN"
  },
  {
    "pincode": "335001",
    "officename": "Khatlabana B.O",
    "officeType": "B.O",
    "Deliverystatus": "Non-Delivery",
    "divisionname": "Sriganganagar",
    "regionname": "Jodhpur",
    "circlename": "Rajasthan",
    "Taluk": "Sriganganagar",
    "Districtname": "Ganganagar",
    "statename": "RAJASTHAN"
  },
  {
    "pincode": "335001",
    "officename": "Maderan B.O",
    "officeType": "B.O",
    "Deliverystatus": "Non-Delivery",
    "divisionname": "Sriganganagar",
    "regionname": "Jodhpur",
    "circlename": "Rajasthan",
    "Taluk": "Sriganganagar",
    "Districtname": "Ganganagar",
    "statename": "RAJASTHAN"
  },
  {
    "pincode": "335001",
    "officename": "Mandi Sriganganagar S.O",
    "officeType": "S.O",
    "Deliverystatus": "Non-Delivery",
    "divisionname": "Sriganganagar",
    "regionname": "Jodhpur",
    "circlename": "Rajasthan",
    "Taluk": "Sriganganagar",
    "Districtname": "Ganganagar",
    "statename": "RAJASTHAN"
  },
  {
    "pincode": "335001",
    "officename": "Mohanpura B.O",
    "officeType": "B.O",
    "Deliverystatus": "Non-Delivery",
    "divisionname": "Sriganganagar",
    "regionname": "Jodhpur",
    "circlename": "Rajasthan",
    "Taluk": "Sriganganagar",
    "Districtname": "Ganganagar",
    "statename": "RAJASTHAN"
  },
  {
    "pincode": "335001",
    "officename": "Mukarjee Nagar S.O",
    "officeType": "S.O",
    "Deliverystatus": "Non-Delivery",
    "divisionname": "Sriganganagar",
    "regionname": "Jodhpur",
    "circlename": "Rajasthan",
    "Taluk": "Srigangangar",
    "Districtname": "Ganganagar",
    "statename": "RAJASTHAN"
  },
  {
    "pincode": "335001",
    "officename": "Purani Abadi S.O",
    "officeType": "S.O",
    "Deliverystatus": "Non-Delivery",
    "divisionname": "Sriganganagar",
    "regionname": "Jodhpur",
    "circlename": "Rajasthan",
    "Taluk": "Sriganganagar",
    "Districtname": "Ganganagar",
    "statename": "RAJASTHAN"
  },
  {
    "pincode": "335001",
    "officename": "Rohiranwali Rathan B.O",
    "officeType": "B.O",
    "Deliverystatus": "Non-Delivery",
    "divisionname": "Sriganganagar",
    "regionname": "Jodhpur",
    "circlename": "Rajasthan",
    "Taluk": "Sriganganagar",
    "Districtname": "Ganganagar",
    "statename": "RAJASTHAN"
  },
  {
    "pincode": "335001",
    "officename": "Rohirawali Suthran B.O",
    "officeType": "B.O",
    "Deliverystatus": "Non-Delivery",
    "divisionname": "Sriganganagar",
    "regionname": "Jodhpur",
    "circlename": "Rajasthan",
    "Taluk": "Sriganganagar",
    "Districtname": "Ganganagar",
    "statename": "RAJASTHAN"
  },
  {
    "pincode": "335001",
    "officename": "Sadhuwali B.O",
    "officeType": "B.O",
    "Deliverystatus": "Non-Delivery",
    "divisionname": "Sriganganagar",
    "regionname": "Jodhpur",
    "circlename": "Rajasthan",
    "Taluk": "Sriganganagar",
    "Districtname": "Ganganagar",
    "statename": "RAJASTHAN"
  },
  {
    "pincode": "335001",
    "officename": "Sahuwala B.O",
    "officeType": "B.O",
    "Deliverystatus": "Non-Delivery",
    "divisionname": "Sriganganagar",
    "regionname": "Jodhpur",
    "circlename": "Rajasthan",
    "Taluk": "Sriganganagar",
    "Districtname": "Ganganagar",
    "statename": "RAJASTHAN"
  },
  {
    "pincode": "335001",
    "officename": "Sriganganagar H.O",
    "officeType": "H.O",
    "Deliverystatus": "Delivery",
    "divisionname": "Sriganganagar",
    "regionname": "Jodhpur",
    "circlename": "Rajasthan",
    "Taluk": "Sriganganagar",
    "Districtname": "Ganganagar",
    "statename": "RAJASTHAN"
  },
  {
    "pincode": "335001",
    "officename": "Sriganganagar Rs S.O",
    "officeType": "S.O",
    "Deliverystatus": "Non-Delivery",
    "divisionname": "Sriganganagar",
    "regionname": "Jodhpur",
    "circlename": "Rajasthan",
    "Taluk": "Sriganganagar",
    "Districtname": "Ganganagar",
    "statename": "RAJASTHAN"
  }
]
