[
  {
    "pincode": "335002",
    "officename": "Chak 13 Lnp B.O",
    "officeType": "B.O",
    "Deliverystatus": "Delivery",
    "divisionname": "Sriganganagar",
    "regionname": "Jodhpur",
    "circlename": "Rajasthan",
    "Taluk": "Sriganganagar",
    "Districtname": "Ganganagar",
    "statename": "RAJASTHAN"
  },
  {
    "pincode": "335002",
    "officename": "Chak 2ll B.O",
    "officeType": "B.O",
    "Deliverystatus": "Delivery",
    "divisionname": "Sriganganagar",
    "regionname": "Jodhpur",
    "circlename": "Rajasthan",
    "Taluk": "Sriganganagar",
    "Districtname": "Ganganagar",
    "statename": "RAJASTHAN"
  },
  {
    "pincode": "335002",
    "officename": "Dharmsinghwala B.O",
    "officeType": "B.O",
    "Deliverystatus": "Delivery",
    "divisionname": "Sriganganagar",
    "regionname": "Jodhpur",
    "circlename": "Rajasthan",
    "Taluk": "Sadulsahar",
    "Districtname": "Ganganagar",
    "statename": "RAJASTHAN"
  },
  {
    "pincode": "335002",
    "officename": "Govindpura B.O",
    "officeType": "B.O",
    "Deliverystatus": "Delivery",
    "divisionname": "Sriganganagar",
    "regionname": "Jodhpur",
    "circlename": "Rajasthan",
    "Taluk": "Sriganganagar",
    "Districtname": "Ganganagar",
    "statename": "RAJASTHAN"
  },
  {
    "pincode": "335002",
    "officename": "Khayaliwala B.O",
    "officeType": "B.O",
    "Deliverystatus": "Delivery",
    "divisionname": "Sriganganagar",
    "regionname": "Jodhpur",
    "circlename": "Rajasthan",
    "Taluk": "Sriganganagar",
    "Districtname": "Ganganagar",
    "statename": "RAJASTHAN"
  },
  {
    "pincode": "335002",
    "officename": "Kundlawala B.O",
    "officeType": "B.O",
    "Deliverystatus": "Delivery",
    "divisionname": "Sriganganagar",
    "regionname": "Jodhpur",
    "circlename": "Rajasthan",
    "Taluk": "Sriganganagar",
    "Districtname": "Ganganagar",
    "statename": "RAJASTHAN"
  },
  {
    "pincode": "335002",
    "officename": "Mahiyanwali B.O",
    "officeType": "B.O",
    "Deliverystatus": "Delivery",
    "divisionname": "Sriganganagar",
    "regionname": "Jodhpur",
    "circlename": "Rajasthan",
    "Taluk": "Sriganganagar",
    "Districtname": "Ganganagar",
    "statename": "RAJASTHAN"
  },
  {
    "pincode": "335002",
    "officename": "Natewala B.O",
    "officeType": "B.O",
    "Deliverystatus": "Delivery",
    "divisionname": "Sriganganagar",
    "regionname": "Jodhpur",
    "circlename": "Rajasthan",
    "Taluk": "Sriganganagar",
    "Districtname": "Ganganagar",
    "statename": "RAJASTHAN"
  },
  {
    "pincode": "335002",
    "officename": "Nathwala B.O",
    "officeType": "B.O",
    "Deliverystatus": "Delivery",
    "divisionname": "Sriganganagar",
    "regionname": "Jodhpur",
    "circlename": "Rajasthan",
    "Taluk": "Sriganganagar",
    "Districtname": "Ganganagar",
    "statename": "RAJASTHAN"
  },
  {
    "pincode": "335002",
    "officename": "Sihaganwali B.O",
    "officeType": "B.O",
    "Deliverystatus": "Delivery",
    "divisionname": "Sriganganagar",
    "regionname": "Jodhpur",
    "circlename": "Rajasthan",
    "Taluk": "Sriganganagar",
    "Districtname": "Ganganagar",
    "statename": "RAJASTHAN"
  },
  {
    "pincode": "335002",
    "officename": "Udyog Vihar S.O",
    "officeType": "S.O",
    "Deliverystatus": "Delivery",
    "divisionname": "Sriganganagar",
    "regionname": "Jodhpur",
    "circlename": "Rajasthan",
    "Taluk": "Sriganganagar",
    "Districtname": "Ganganagar",
    "statename": "RAJASTHAN"
  }
]
