[
  {
    "pincode": "335063",
    "officename": "Amarpura Jalukhat B.O",
    "officeType": "B.O",
    "Deliverystatus": "Delivery",
    "divisionname": "Sriganganagar",
    "regionname": "Jodhpur",
    "circlename": "Rajasthan",
    "Taluk": "Sangaria",
    "Districtname": "Hanumangarh",
    "statename": "RAJASTHAN"
  },
  {
    "pincode": "335063",
    "officename": "Bashir B.O",
    "officeType": "B.O",
    "Deliverystatus": "Delivery",
    "divisionname": "Sriganganagar",
    "regionname": "Jodhpur",
    "circlename": "Rajasthan",
    "Taluk": "Sangari",
    "Districtname": "Hanumangarh",
    "statename": "RAJASTHAN"
  },
  {
    "pincode": "335063",
    "officename": "Bhagatpura B.O",
    "officeType": "B.O",
    "Deliverystatus": "Delivery",
    "divisionname": "Sriganganagar",
    "regionname": "Jodhpur",
    "circlename": "Rajasthan",
    "Taluk": "Snagaria",
    "Districtname": "Hanumangarh",
    "statename": "RAJASTHAN"
  },
  {
    "pincode": "335063",
    "officename": "Bhakranwali B.O",
    "officeType": "B.O",
    "Deliverystatus": "Delivery",
    "divisionname": "Sriganganagar",
    "regionname": "Jodhpur",
    "circlename": "Rajasthan",
    "Taluk": "Sangari",
    "Districtname": "Hanumangarh",
    "statename": "RAJASTHAN"
  },
  {
    "pincode": "335063",
    "officename": "Bolanwali B.O",
    "officeType": "B.O",
    "Deliverystatus": "Delivery",
    "divisionname": "Sriganganagar",
    "regionname": "Jodhpur",
    "circlename": "Rajasthan",
    "Taluk": "Sangaria",
    "Districtname": "Hanumangarh",
    "statename": "RAJASTHAN"
  },
  {
    "pincode": "335063",
    "officename": "Deengarh B.O",
    "officeType": "B.O",
    "Deliverystatus": "Delivery",
    "divisionname": "Sriganganagar",
    "regionname": "Jodhpur",
    "circlename": "Rajasthan",
    "Taluk": "Sangaria",
    "Districtname": "Hanumangarh",
    "statename": "RAJASTHAN"
  },
  {
    "pincode": "335063",
    "officename": "Dhaba B.O",
    "officeType": "B.O",
    "Deliverystatus": "Delivery",
    "divisionname": "Sriganganagar",
    "regionname": "Jodhpur",
    "circlename": "Rajasthan",
    "Taluk": "Sangaria",
    "Districtname": "Hanumangarh",
    "statename": "RAJASTHAN"
  },
  {
    "pincode": "335063",
    "officename": "Gilwala B.O",
    "officeType": "B.O",
    "Deliverystatus": "Delivery",
    "divisionname": "Sriganganagar",
    "regionname": "Jodhpur",
    "circlename": "Rajasthan",
    "Taluk": "Sangaria",
    "Districtname": "Hanumangarh",
    "statename": "RAJASTHAN"
  },
  {
    "pincode": "335063",
    "officename": "Gudia B.O",
    "officeType": "B.O",
    "Deliverystatus": "Delivery",
    "divisionname": "Sriganganagar",
    "regionname": "Jodhpur",
    "circlename": "Rajasthan",
    "Taluk": "Sangaria",
    "Districtname": "Hanumangarh",
    "statename": "RAJASTHAN"
  },
  {
    "pincode": "335063",
    "officename": "Haripura B.O",
    "officeType": "B.O",
    "Deliverystatus": "Delivery",
    "divisionname": "Sriganganagar",
    "regionname": "Jodhpur",
    "circlename": "Rajasthan",
    "Taluk": "Sangaria",
    "Districtname": "Hanumangarh",
    "statename": "RAJASTHAN"
  },
  {
    "pincode": "335063",
    "officename": "Jandwali Sikhan B.O",
    "officeType": "B.O",
    "Deliverystatus": "Delivery",
    "divisionname": "Sriganganagar",
    "regionname": "Jodhpur",
    "circlename": "Rajasthan",
    "Taluk": "Sangaria",
    "Districtname": "Hanumangarh",
    "statename": "RAJASTHAN"
  },
  {
    "pincode": "335063",
    "officename": "Kharakhera B.O",
    "officeType": "B.O",
    "Deliverystatus": "Delivery",
    "divisionname": "Sriganganagar",
    "regionname": "Jodhpur",
    "circlename": "Rajasthan",
    "Taluk": "Sangaria",
    "Districtname": "Hanumangarh",
    "statename": "RAJASTHAN"
  },
  {
    "pincode": "335063",
    "officename": "Kikarawali B.O",
    "officeType": "B.O",
    "Deliverystatus": "Delivery",
    "divisionname": "Sriganganagar",
    "regionname": "Jodhpur",
    "circlename": "Rajasthan",
    "Taluk": "Sangaria",
    "Districtname": "Hanumangarh",
    "statename": "RAJASTHAN"
  },
  {
    "pincode": "335063",
    "officename": "Kulchander B.O",
    "officeType": "B.O",
    "Deliverystatus": "Delivery",
    "divisionname": "Sriganganagar",
    "regionname": "Jodhpur",
    "circlename": "Rajasthan",
    "Taluk": "Sangaria",
    "Districtname": "Hanumangarh",
    "statename": "RAJASTHAN"
  },
  {
    "pincode": "335063",
    "officename": "Morjand Sikhan B.O",
    "officeType": "B.O",
    "Deliverystatus": "Delivery",
    "divisionname": "Sriganganagar",
    "regionname": "Jodhpur",
    "circlename": "Rajasthan",
    "Taluk": "Sangaria",
    "Districtname": "Hanumangarh",
    "statename": "RAJASTHAN"
  },
  {
    "pincode": "335063",
    "officename": "Naiwala B.O",
    "officeType": "B.O",
    "Deliverystatus": "Delivery",
    "divisionname": "Sriganganagar",
    "regionname": "Jodhpur",
    "circlename": "Rajasthan",
    "Taluk": "Sangaria",
    "Districtname": "Hanumangarh",
    "statename": "RAJASTHAN"
  },
  {
    "pincode": "335063",
    "officename": "Nathwana B.O",
    "officeType": "B.O",
    "Deliverystatus": "Delivery",
    "divisionname": "Sriganganagar",
    "regionname": "Jodhpur",
    "circlename": "Rajasthan",
    "Taluk": "Sangaria",
    "Districtname": "Hanumangarh",
    "statename": "RAJASTHAN"
  },
  {
    "pincode": "335063",
    "officename": "Nukera B.O",
    "officeType": "B.O",
    "Deliverystatus": "Delivery",
    "divisionname": "Sriganganagar",
    "regionname": "Jodhpur",
    "circlename": "Rajasthan",
    "Taluk": "Sangaria",
    "Districtname": "Hanumangarh",
    "statename": "RAJASTHAN"
  },
  {
    "pincode": "335063",
    "officename": "Rampura Mala B.O",
    "officeType": "B.O",
    "Deliverystatus": "Delivery",
    "divisionname": "Sriganganagar",
    "regionname": "Jodhpur",
    "circlename": "Rajasthan",
    "Taluk": "Sangaria",
    "Districtname": "Hanumangarh",
    "statename": "RAJASTHAN"
  },
  {
    "pincode": "335063",
    "officename": "Ratanpura B.O",
    "officeType": "B.O",
    "Deliverystatus": "Delivery",
    "divisionname": "Sriganganagar",
    "regionname": "Jodhpur",
    "circlename": "Rajasthan",
    "Taluk": "Sangaria",
    "Districtname": "Hanumangarh",
    "statename": "RAJASTHAN"
  },
  {
    "pincode": "335063",
    "officename": "Sabuana B.O",
    "officeType": "B.O",
    "Deliverystatus": "Delivery",
    "divisionname": "Sriganganagar",
    "regionname": "Jodhpur",
    "circlename": "Rajasthan",
    "Taluk": "Sangaria",
    "Districtname": "Hanumangarh",
    "statename": "RAJASTHAN"
  },
  {
    "pincode": "335063",
    "officename": "Saliwala B.O",
    "officeType": "B.O",
    "Deliverystatus": "Delivery",
    "divisionname": "Sriganganagar",
    "regionname": "Jodhpur",
    "circlename": "Rajasthan",
    "Taluk": "Sangaria",
    "Districtname": "Hanumangarh",
    "statename": "RAJASTHAN"
  },
  {
    "pincode": "335063",
    "officename": "Sangaria Rs S.O",
    "officeType": "S.O",
    "Deliverystatus": "Non-Delivery",
    "divisionname": "Sriganganagar",
    "regionname": "Jodhpur",
    "circlename": "Rajasthan",
    "Taluk": "Sangaria",
    "Districtname": "Hanumangarh",
    "statename": "RAJASTHAN"
  },
  {
    "pincode": "335063",
    "officename": "Sangaria S.O (Hanumangarh)",
    "officeType": "S.O",
    "Deliverystatus": "Delivery",
    "divisionname": "Sriganganagar",
    "regionname": "Jodhpur",
    "circlename": "Rajasthan",
    "Taluk": "Sangaria",
    "Districtname": "Hanumangarh",
    "statename": "RAJASTHAN"
  },
  {
    "pincode": "335063",
    "officename": "Santpura B.O",
    "officeType": "B.O",
    "Deliverystatus": "Delivery",
    "divisionname": "Sriganganagar",
    "regionname": "Jodhpur",
    "circlename": "Rajasthan",
    "Taluk": "Sangaria",
    "Districtname": "Hanumangarh",
    "statename": "RAJASTHAN"
  },
  {
    "pincode": "335063",
    "officename": "Shahpini B.O",
    "officeType": "B.O",
    "Deliverystatus": "Delivery",
    "divisionname": "Sriganganagar",
    "regionname": "Jodhpur",
    "circlename": "Rajasthan",
    "Taluk": "Snagaria",
    "Districtname": "Hanumangarh",
    "statename": "RAJASTHAN"
  },
  {
    "pincode": "335063",
    "officename": "Vidyapeeth B.O",
    "officeType": "B.O",
    "Deliverystatus": "Delivery",
    "divisionname": "Sriganganagar",
    "regionname": "Jodhpur",
    "circlename": "Rajasthan",
    "Taluk": "Snagaria",
    "Districtname": "Hanumangarh",
    "statename": "RAJASTHAN"
  }
]
