[
  {
    "pincode": "335041",
    "officename": "23bb B.O",
    "officeType": "B.O",
    "Deliverystatus": "Delivery",
    "divisionname": "Sriganganagar",
    "regionname": "Jodhpur",
    "circlename": "Rajasthan",
    "Taluk": "Padampur",
    "Districtname": "Ganganagar",
    "statename": "RAJASTHAN"
  },
  {
    "pincode": "335041",
    "officename": "29bb B.O",
    "officeType": "B.O",
    "Deliverystatus": "Delivery",
    "divisionname": "Sriganganagar",
    "regionname": "Jodhpur",
    "circlename": "Rajasthan",
    "Taluk": "Padampur",
    "Districtname": "Ganganagar",
    "statename": "RAJASTHAN"
  },
  {
    "pincode": "335041",
    "officename": "2rb B.O",
    "officeType": "B.O",
    "Deliverystatus": "Delivery",
    "divisionname": "Sriganganagar",
    "regionname": "Jodhpur",
    "circlename": "Rajasthan",
    "Taluk": "Padampur",
    "Districtname": "Ganganagar",
    "statename": "RAJASTHAN"
  },
  {
    "pincode": "335041",
    "officename": "4nn B.O",
    "officeType": "B.O",
    "Deliverystatus": "Delivery",
    "divisionname": "Sriganganagar",
    "regionname": "Jodhpur",
    "circlename": "Rajasthan",
    "Taluk": "Padampur",
    "Districtname": "Ganganagar",
    "statename": "RAJASTHAN"
  },
  {
    "pincode": "335041",
    "officename": "5eeea B.O",
    "officeType": "B.O",
    "Deliverystatus": "Delivery",
    "divisionname": "Sriganganagar",
    "regionname": "Jodhpur",
    "circlename": "Rajasthan",
    "Taluk": "Padampur",
    "Districtname": "Ganganagar",
    "statename": "RAJASTHAN"
  },
  {
    "pincode": "335041",
    "officename": "5nn B.O",
    "officeType": "B.O",
    "Deliverystatus": "Delivery",
    "divisionname": "Sriganganagar",
    "regionname": "Jodhpur",
    "circlename": "Rajasthan",
    "Taluk": "Padampur",
    "Districtname": "Ganganagar",
    "statename": "RAJASTHAN"
  },
  {
    "pincode": "335041",
    "officename": "6cc B.O",
    "officeType": "B.O",
    "Deliverystatus": "Delivery",
    "divisionname": "Sriganganagar",
    "regionname": "Jodhpur",
    "circlename": "Rajasthan",
    "Taluk": "Padampur",
    "Districtname": "Ganganagar",
    "statename": "RAJASTHAN"
  },
  {
    "pincode": "335041",
    "officename": "8nn B.O",
    "officeType": "B.O",
    "Deliverystatus": "Delivery",
    "divisionname": "Sriganganagar",
    "regionname": "Jodhpur",
    "circlename": "Rajasthan",
    "Taluk": "Padampur",
    "Districtname": "Ganganagar",
    "statename": "RAJASTHAN"
  },
  {
    "pincode": "335041",
    "officename": "Binjbaila B.O",
    "officeType": "B.O",
    "Deliverystatus": "Delivery",
    "divisionname": "Sriganganagar",
    "regionname": "Jodhpur",
    "circlename": "Rajasthan",
    "Taluk": "Padampur",
    "Districtname": "Ganganagar",
    "statename": "RAJASTHAN"
  },
  {
    "pincode": "335041",
    "officename": "Delwan B.O",
    "officeType": "B.O",
    "Deliverystatus": "Delivery",
    "divisionname": "Sriganganagar",
    "regionname": "Jodhpur",
    "circlename": "Rajasthan",
    "Taluk": "Padampur",
    "Districtname": "Ganganagar",
    "statename": "RAJASTHAN"
  },
  {
    "pincode": "335041",
    "officename": "Fakirwali B.O",
    "officeType": "B.O",
    "Deliverystatus": "Delivery",
    "divisionname": "Sriganganagar",
    "regionname": "Jodhpur",
    "circlename": "Rajasthan",
    "Taluk": "Padampur",
    "Districtname": "Ganganagar",
    "statename": "RAJASTHAN"
  },
  {
    "pincode": "335041",
    "officename": "Ghamoorwali B.O",
    "officeType": "B.O",
    "Deliverystatus": "Delivery",
    "divisionname": "Sriganganagar",
    "regionname": "Jodhpur",
    "circlename": "Rajasthan",
    "Taluk": "Padampur",
    "Districtname": "Ganganagar",
    "statename": "RAJASTHAN"
  },
  {
    "pincode": "335041",
    "officename": "Jalloki B.O",
    "officeType": "B.O",
    "Deliverystatus": "Delivery",
    "divisionname": "Sriganganagar",
    "regionname": "Jodhpur",
    "circlename": "Rajasthan",
    "Taluk": "Padampur",
    "Districtname": "Ganganagar",
    "statename": "RAJASTHAN"
  },
  {
    "pincode": "335041",
    "officename": "Jorkian B.O",
    "officeType": "B.O",
    "Deliverystatus": "Delivery",
    "divisionname": "Sriganganagar",
    "regionname": "Jodhpur",
    "circlename": "Rajasthan",
    "Taluk": "Padampur",
    "Districtname": "Ganganagar",
    "statename": "RAJASTHAN"
  },
  {
    "pincode": "335041",
    "officename": "Padampur S.O",
    "officeType": "S.O",
    "Deliverystatus": "Delivery",
    "divisionname": "Sriganganagar",
    "regionname": "Jodhpur",
    "circlename": "Rajasthan",
    "Taluk": "Padampur",
    "Districtname": "Ganganagar",
    "statename": "RAJASTHAN"
  },
  {
    "pincode": "335041",
    "officename": "Sanwatsar B.O",
    "officeType": "B.O",
    "Deliverystatus": "Delivery",
    "divisionname": "Sriganganagar",
    "regionname": "Jodhpur",
    "circlename": "Rajasthan",
    "Taluk": "Padampur",
    "Districtname": "Ganganagar",
    "statename": "RAJASTHAN"
  }
]
