[
  {
    "pincode": "335511",
    "officename": "Biran B.O",
    "officeType": "B.O",
    "Deliverystatus": "Delivery",
    "divisionname": "Sriganganagar",
    "regionname": "Jodhpur",
    "circlename": "Rajasthan",
    "Taluk": "Bhadra",
    "Districtname": "Hanumangarh",
    "statename": "RAJASTHAN"
  },
  {
    "pincode": "335511",
    "officename": "Channibari S.O",
    "officeType": "S.O",
    "Deliverystatus": "Delivery",
    "divisionname": "Sriganganagar",
    "regionname": "Jodhpur",
    "circlename": "Rajasthan",
    "Taluk": "Nohar",
    "Districtname": "Hanumangarh",
    "statename": "RAJASTHAN"
  },
  {
    "pincode": "335511",
    "officename": "Garhichhani B.O",
    "officeType": "B.O",
    "Deliverystatus": "Delivery",
    "divisionname": "Sriganganagar",
    "regionname": "Jodhpur",
    "circlename": "Rajasthan",
    "Taluk": "Bhadra",
    "Districtname": "Hanumangarh",
    "statename": "RAJASTHAN"
  },
  {
    "pincode": "335511",
    "officename": "Jhansal B.O",
    "officeType": "B.O",
    "Deliverystatus": "Delivery",
    "divisionname": "Sriganganagar",
    "regionname": "Jodhpur",
    "circlename": "Rajasthan",
    "Taluk": "Bhadra",
    "Districtname": "Hanumangarh",
    "statename": "RAJASTHAN"
  },
  {
    "pincode": "335511",
    "officename": "Mahrana B.O",
    "officeType": "B.O",
    "Deliverystatus": "Delivery",
    "divisionname": "Sriganganagar",
    "regionname": "Jodhpur",
    "circlename": "Rajasthan",
    "Taluk": "Bhadra",
    "Districtname": "Hanumangarh",
    "statename": "RAJASTHAN"
  },
  {
    "pincode": "335511",
    "officename": "Malkhera B.O",
    "officeType": "B.O",
    "Deliverystatus": "Delivery",
    "divisionname": "Sriganganagar",
    "regionname": "Jodhpur",
    "circlename": "Rajasthan",
    "Taluk": "Bhadra",
    "Districtname": "Hanumangarh",
    "statename": "RAJASTHAN"
  },
  {
    "pincode": "335511",
    "officename": "Ninan B.O",
    "officeType": "B.O",
    "Deliverystatus": "Delivery",
    "divisionname": "Sriganganagar",
    "regionname": "Jodhpur",
    "circlename": "Rajasthan",
    "Taluk": "Bhadra",
    "Districtname": "Hanumangarh",
    "statename": "RAJASTHAN"
  },
  {
    "pincode": "335511",
    "officename": "Ramgadhia B.O",
    "officeType": "B.O",
    "Deliverystatus": "Delivery",
    "divisionname": "Sriganganagar",
    "regionname": "Jodhpur",
    "circlename": "Rajasthan",
    "Taluk": "Bhadra",
    "Districtname": "Hanumangarh",
    "statename": "RAJASTHAN"
  },
  {
    "pincode": "335511",
    "officename": "Sahuwala B.O",
    "officeType": "B.O",
    "Deliverystatus": "Delivery",
    "divisionname": "Sriganganagar",
    "regionname": "Jodhpur",
    "circlename": "Rajasthan",
    "Taluk": "Bhadra",
    "Districtname": "Hanumangarh",
    "statename": "RAJASTHAN"
  },
  {
    "pincode": "335511",
    "officename": "Sherpura B.O",
    "officeType": "B.O",
    "Deliverystatus": "Delivery",
    "divisionname": "Sriganganagar",
    "regionname": "Jodhpur",
    "circlename": "Rajasthan",
    "Taluk": "Bhadra",
    "Districtname": "Hanumangarh",
    "statename": "RAJASTHAN"
  }
]
