[
  {
    "pincode": "335503",
    "officename": "Asan B.O",
    "officeType": "B.O",
    "Deliverystatus": "Delivery",
    "divisionname": "Sriganganagar",
    "regionname": "Jodhpur",
    "circlename": "Rajasthan",
    "Taluk": "Bhadra",
    "Districtname": "Hanumangarh",
    "statename": "RAJASTHAN"
  },
  {
    "pincode": "335503",
    "officename": "Bhirani B.O",
    "officeType": "B.O",
    "Deliverystatus": "Delivery",
    "divisionname": "Sriganganagar",
    "regionname": "Jodhpur",
    "circlename": "Rajasthan",
    "Taluk": "Bhadra",
    "Districtname": "Hanumangarh",
    "statename": "RAJASTHAN"
  },
  {
    "pincode": "335503",
    "officename": "Dabri S.O",
    "officeType": "S.O",
    "Deliverystatus": "Delivery",
    "divisionname": "Sriganganagar",
    "regionname": "Jodhpur",
    "circlename": "Rajasthan",
    "Taluk": "Bhadra",
    "Districtname": "Hanumangarh",
    "statename": "RAJASTHAN"
  },
  {
    "pincode": "335503",
    "officename": "Gadhra B.O",
    "officeType": "B.O",
    "Deliverystatus": "Delivery",
    "divisionname": "Sriganganagar",
    "regionname": "Jodhpur",
    "circlename": "Rajasthan",
    "Taluk": "Bhadra",
    "Districtname": "Hanumangarh",
    "statename": "RAJASTHAN"
  },
  {
    "pincode": "335503",
    "officename": "Jogiwala B.O",
    "officeType": "B.O",
    "Deliverystatus": "Delivery",
    "divisionname": "Sriganganagar",
    "regionname": "Jodhpur",
    "circlename": "Rajasthan",
    "Taluk": "Bhadra",
    "Districtname": "Hanumangarh",
    "statename": "RAJASTHAN"
  },
  {
    "pincode": "335503",
    "officename": "Sagra B.O",
    "officeType": "B.O",
    "Deliverystatus": "Delivery",
    "divisionname": "Sriganganagar",
    "regionname": "Jodhpur",
    "circlename": "Rajasthan",
    "Taluk": "Bhadra",
    "Districtname": "Hanumangarh",
    "statename": "RAJASTHAN"
  },
  {
    "pincode": "335503",
    "officename": "Sherda B.O",
    "officeType": "B.O",
    "Deliverystatus": "Delivery",
    "divisionname": "Sriganganagar",
    "regionname": "Jodhpur",
    "circlename": "Rajasthan",
    "Taluk": "",
    "Districtname": "Hanumangarh",
    "statename": "RAJASTHAN"
  },
  {
    "pincode": "335503",
    "officename": "Shivdanpura B.O",
    "officeType": "B.O",
    "Deliverystatus": "Delivery",
    "divisionname": "Sriganganagar",
    "regionname": "Jodhpur",
    "circlename": "Rajasthan",
    "Taluk": "Bhadra",
    "Districtname": "Hanumangarh",
    "statename": "RAJASTHAN"
  },
  {
    "pincode": "335503",
    "officename": "Suratpura B.O",
    "officeType": "B.O",
    "Deliverystatus": "Delivery",
    "divisionname": "Sriganganagar",
    "regionname": "Jodhpur",
    "circlename": "Rajasthan",
    "Taluk": "Bhadra",
    "Districtname": "Hanumangarh",
    "statename": "RAJASTHAN"
  }
]
