[
  {
    "pincode": "335512",
    "officename": "Civil Line Hanumangarh3 S.O",
    "officeType": "S.O",
    "Deliverystatus": "Non-Delivery",
    "divisionname": "Sriganganagar",
    "regionname": "Jodhpur",
    "circlename": "Rajasthan",
    "Taluk": "Hanumangarh",
    "Districtname": "Hanumangarh",
    "statename": "RAJASTHAN"
  },
  {
    "pincode": "335512",
    "officename": "Hanumangarh Jn. Court S.O",
    "officeType": "S.O",
    "Deliverystatus": "Non-Delivery",
    "divisionname": "Sriganganagar",
    "regionname": "Jodhpur",
    "circlename": "Rajasthan",
    "Taluk": "Hanumangarh",
    "Districtname": "Hanumangarh",
    "statename": "RAJASTHAN"
  },
  {
    "pincode": "335512",
    "officename": "Hanumangarh Jn. H.O",
    "officeType": "H.O",
    "Deliverystatus": "Delivery",
    "divisionname": "Sriganganagar",
    "regionname": "Jodhpur",
    "circlename": "Rajasthan",
    "Taluk": "Hanumangarh Jn.",
    "Districtname": "Hanumangarh",
    "statename": "RAJASTHAN"
  },
  {
    "pincode": "335512",
    "officename": "Jandwali B.O",
    "officeType": "B.O",
    "Deliverystatus": "Non-Delivery",
    "divisionname": "Sriganganagar",
    "regionname": "Jodhpur",
    "circlename": "Rajasthan",
    "Taluk": "Hanumangarh",
    "Districtname": "Hanumangarh",
    "statename": "RAJASTHAN"
  },
  {
    "pincode": "335512",
    "officename": "Jawalasinghwala B.O",
    "officeType": "B.O",
    "Deliverystatus": "Non-Delivery",
    "divisionname": "Sriganganagar",
    "regionname": "Jodhpur",
    "circlename": "Rajasthan",
    "Taluk": "Hanumangarh",
    "Districtname": "Hanumangarh",
    "statename": "RAJASTHAN"
  },
  {
    "pincode": "335512",
    "officename": "Jorkia B.O",
    "officeType": "B.O",
    "Deliverystatus": "Non-Delivery",
    "divisionname": "Sriganganagar",
    "regionname": "Jodhpur",
    "circlename": "Rajasthan",
    "Taluk": "Hanumangarh",
    "Districtname": "Hanumangarh",
    "statename": "RAJASTHAN"
  },
  {
    "pincode": "335512",
    "officename": "Makkasar B.O",
    "officeType": "B.O",
    "Deliverystatus": "Non-Delivery",
    "divisionname": "Sriganganagar",
    "regionname": "Jodhpur",
    "circlename": "Rajasthan",
    "Taluk": "Hanumangrh",
    "Districtname": "Hanumangarh",
    "statename": "RAJASTHAN"
  },
  {
    "pincode": "335512",
    "officename": "Nawan B.O",
    "officeType": "B.O",
    "Deliverystatus": "Non-Delivery",
    "divisionname": "Sriganganagar",
    "regionname": "Jodhpur",
    "circlename": "Rajasthan",
    "Taluk": "Hanumangarh",
    "Districtname": "Hanumangarh",
    "statename": "RAJASTHAN"
  },
  {
    "pincode": "335512",
    "officename": "Pakka Saharana B.O",
    "officeType": "B.O",
    "Deliverystatus": "Non-Delivery",
    "divisionname": "Sriganganagar",
    "regionname": "Jodhpur",
    "circlename": "Rajasthan",
    "Taluk": "Hanumangarh",
    "Districtname": "Hanumangarh",
    "statename": "RAJASTHAN"
  },
  {
    "pincode": "335512",
    "officename": "Rorawali B.O",
    "officeType": "B.O",
    "Deliverystatus": "Non-Delivery",
    "divisionname": "Sriganganagar",
    "regionname": "Jodhpur",
    "circlename": "Rajasthan",
    "Taluk": "Hanumangarh",
    "Districtname": "Hanumangarh",
    "statename": "RAJASTHAN"
  },
  {
    "pincode": "335512",
    "officename": "Satipura B.O",
    "officeType": "B.O",
    "Deliverystatus": "Non-Delivery",
    "divisionname": "Sriganganagar",
    "regionname": "Jodhpur",
    "circlename": "Rajasthan",
    "Taluk": "Hanumangrh",
    "Districtname": "Hanumangarh",
    "statename": "RAJASTHAN"
  }
]
