[
  {
    "pincode": "335804",
    "officename": "8 Spd B.O",
    "officeType": "B.O",
    "Deliverystatus": "Delivery",
    "divisionname": "Sriganganagar",
    "regionname": "Jodhpur",
    "circlename": "Rajasthan",
    "Taluk": "Suratgarh",
    "Districtname": "Ganganagar",
    "statename": "RAJASTHAN"
  },
  {
    "pincode": "335804",
    "officename": "Badopal B.O",
    "officeType": "B.O",
    "Deliverystatus": "Delivery",
    "divisionname": "Sriganganagar",
    "regionname": "Jodhpur",
    "circlename": "Rajasthan",
    "Taluk": "Suratgarh",
    "Districtname": "Ganganagar",
    "statename": "RAJASTHAN"
  },
  {
    "pincode": "335804",
    "officename": "Bhagwansar B.O",
    "officeType": "B.O",
    "Deliverystatus": "Delivery",
    "divisionname": "Sriganganagar",
    "regionname": "Jodhpur",
    "circlename": "Rajasthan",
    "Taluk": "Suratgarh",
    "Districtname": "Ganganagar",
    "statename": "RAJASTHAN"
  },
  {
    "pincode": "335804",
    "officename": "Birdhwal R.S.(Suratgarh) B.O",
    "officeType": "B.O",
    "Deliverystatus": "Delivery",
    "divisionname": "Sriganganagar",
    "regionname": "Jodhpur",
    "circlename": "Rajasthan",
    "Taluk": "Suratgarh",
    "Districtname": "Ganganagar",
    "statename": "RAJASTHAN"
  },
  {
    "pincode": "335804",
    "officename": "Birdwal Head B.O",
    "officeType": "B.O",
    "Deliverystatus": "Delivery",
    "divisionname": "Sriganganagar",
    "regionname": "Jodhpur",
    "circlename": "Rajasthan",
    "Taluk": "Suratgarh",
    "Districtname": "Ganganagar",
    "statename": "RAJASTHAN"
  },
  {
    "pincode": "335804",
    "officename": "Deidaspura B.O",
    "officeType": "B.O",
    "Deliverystatus": "Delivery",
    "divisionname": "Sriganganagar",
    "regionname": "Jodhpur",
    "circlename": "Rajasthan",
    "Taluk": "Suratgarh",
    "Districtname": "Ganganagar",
    "statename": "RAJASTHAN"
  },
  {
    "pincode": "335804",
    "officename": "Farm Colony Suratgarh B.O",
    "officeType": "B.O",
    "Deliverystatus": "Delivery",
    "divisionname": "Sriganganagar",
    "regionname": "Jodhpur",
    "circlename": "Rajasthan",
    "Taluk": "Suratgarh",
    "Districtname": "Ganganagar",
    "statename": "RAJASTHAN"
  },
  {
    "pincode": "335804",
    "officename": "Ghamandia B.O",
    "officeType": "B.O",
    "Deliverystatus": "Delivery",
    "divisionname": "Sriganganagar",
    "regionname": "Jodhpur",
    "circlename": "Rajasthan",
    "Taluk": "Suratgarh",
    "Districtname": "Ganganagar",
    "statename": "RAJASTHAN"
  },
  {
    "pincode": "335804",
    "officename": "Govindsar B.O",
    "officeType": "B.O",
    "Deliverystatus": "Delivery",
    "divisionname": "Sriganganagar",
    "regionname": "Jodhpur",
    "circlename": "Rajasthan",
    "Taluk": "Suratgarh",
    "Districtname": "Ganganagar",
    "statename": "RAJASTHAN"
  },
  {
    "pincode": "335804",
    "officename": "Hindor B.O",
    "officeType": "B.O",
    "Deliverystatus": "Delivery",
    "divisionname": "Sriganganagar",
    "regionname": "Jodhpur",
    "circlename": "Rajasthan",
    "Taluk": "Suratgarh",
    "Districtname": "Ganganagar",
    "statename": "RAJASTHAN"
  },
  {
    "pincode": "335804",
    "officename": "Mahaksar B.O",
    "officeType": "B.O",
    "Deliverystatus": "Delivery",
    "divisionname": "Sriganganagar",
    "regionname": "Jodhpur",
    "circlename": "Rajasthan",
    "Taluk": "",
    "Districtname": "Ganganagar",
    "statename": "RAJASTHAN"
  },
  {
    "pincode": "335804",
    "officename": "Maler B.O",
    "officeType": "B.O",
    "Deliverystatus": "Delivery",
    "divisionname": "Sriganganagar",
    "regionname": "Jodhpur",
    "circlename": "Rajasthan",
    "Taluk": "Suratgarh",
    "Districtname": "Ganganagar",
    "statename": "RAJASTHAN"
  },
  {
    "pincode": "335804",
    "officename": "Manaktheri B.O",
    "officeType": "B.O",
    "Deliverystatus": "Delivery",
    "divisionname": "Sriganganagar",
    "regionname": "Jodhpur",
    "circlename": "Rajasthan",
    "Taluk": "Suratgarh",
    "Districtname": "Ganganagar",
    "statename": "RAJASTHAN"
  },
  {
    "pincode": "335804",
    "officename": "Mokalsar B.O",
    "officeType": "B.O",
    "Deliverystatus": "Delivery",
    "divisionname": "Sriganganagar",
    "regionname": "Jodhpur",
    "circlename": "Rajasthan",
    "Taluk": "Suratgarh",
    "Districtname": "Ganganagar",
    "statename": "RAJASTHAN"
  },
  {
    "pincode": "335804",
    "officename": "Narwana B.O",
    "officeType": "B.O",
    "Deliverystatus": "Delivery",
    "divisionname": "Sriganganagar",
    "regionname": "Jodhpur",
    "circlename": "Rajasthan",
    "Taluk": "Suratgarh",
    "Districtname": "Ganganagar",
    "statename": "RAJASTHAN"
  },
  {
    "pincode": "335804",
    "officename": "Padampura B.O",
    "officeType": "B.O",
    "Deliverystatus": "Delivery",
    "divisionname": "Sriganganagar",
    "regionname": "Jodhpur",
    "circlename": "Rajasthan",
    "Taluk": "Suratgarh",
    "Districtname": "Ganganagar",
    "statename": "RAJASTHAN"
  },
  {
    "pincode": "335804",
    "officename": "Rajiasar B.O",
    "officeType": "B.O",
    "Deliverystatus": "Delivery",
    "divisionname": "Sriganganagar",
    "regionname": "Jodhpur",
    "circlename": "Rajasthan",
    "Taluk": "Suratgarh",
    "Districtname": "Ganganagar",
    "statename": "RAJASTHAN"
  },
  {
    "pincode": "335804",
    "officename": "Rajpura Pipran B.O",
    "officeType": "B.O",
    "Deliverystatus": "Delivery",
    "divisionname": "Sriganganagar",
    "regionname": "Jodhpur",
    "circlename": "Rajasthan",
    "Taluk": "Suratgarh",
    "Districtname": "Ganganagar",
    "statename": "RAJASTHAN"
  },
  {
    "pincode": "335804",
    "officename": "Rampura B.O",
    "officeType": "B.O",
    "Deliverystatus": "Delivery",
    "divisionname": "Sriganganagar",
    "regionname": "Jodhpur",
    "circlename": "Rajasthan",
    "Taluk": "Suratgarh",
    "Districtname": "Ganganagar",
    "statename": "RAJASTHAN"
  },
  {
    "pincode": "335804",
    "officename": "Rampura Neola B.O",
    "officeType": "B.O",
    "Deliverystatus": "Delivery",
    "divisionname": "Sriganganagar",
    "regionname": "Jodhpur",
    "circlename": "Rajasthan",
    "Taluk": "Suratgarh",
    "Districtname": "Ganganagar",
    "statename": "RAJASTHAN"
  },
  {
    "pincode": "335804",
    "officename": "Ramsara Jakhran B.O",
    "officeType": "B.O",
    "Deliverystatus": "Delivery",
    "divisionname": "Sriganganagar",
    "regionname": "Jodhpur",
    "circlename": "Rajasthan",
    "Taluk": "Suratgarh",
    "Districtname": "Ganganagar",
    "statename": "RAJASTHAN"
  },
  {
    "pincode": "335804",
    "officename": "Rayanwali B.O",
    "officeType": "B.O",
    "Deliverystatus": "Delivery",
    "divisionname": "Sriganganagar",
    "regionname": "Jodhpur",
    "circlename": "Rajasthan",
    "Taluk": "Suratgarh",
    "Districtname": "Ganganagar",
    "statename": "RAJASTHAN"
  },
  {
    "pincode": "335804",
    "officename": "Sardarpura Bika B.O",
    "officeType": "B.O",
    "Deliverystatus": "Delivery",
    "divisionname": "Sriganganagar",
    "regionname": "Jodhpur",
    "circlename": "Rajasthan",
    "Taluk": "Suratgarh",
    "Districtname": "Ganganagar",
    "statename": "RAJASTHAN"
  },
  {
    "pincode": "335804",
    "officename": "Somasar B.O",
    "officeType": "B.O",
    "Deliverystatus": "Delivery",
    "divisionname": "Sriganganagar",
    "regionname": "Jodhpur",
    "circlename": "Rajasthan",
    "Taluk": "Suratgarh",
    "Districtname": "Ganganagar",
    "statename": "RAJASTHAN"
  },
  {
    "pincode": "335804",
    "officename": "Suratgarh City S.O",
    "officeType": "S.O",
    "Deliverystatus": "Non-Delivery",
    "divisionname": "Sriganganagar",
    "regionname": "Jodhpur",
    "circlename": "Rajasthan",
    "Taluk": "Suratgarh",
    "Districtname": "Ganganagar",
    "statename": "RAJASTHAN"
  },
  {
    "pincode": "335804",
    "officename": "Suratgarh S.O",
    "officeType": "S.O",
    "Deliverystatus": "Delivery",
    "divisionname": "Sriganganagar",
    "regionname": "Jodhpur",
    "circlename": "Rajasthan",
    "Taluk": "Suratgarh",
    "Districtname": "Ganganagar",
    "statename": "RAJASTHAN"
  },
  {
    "pincode": "335804",
    "officename": "Thethar B.O",
    "officeType": "B.O",
    "Deliverystatus": "Delivery",
    "divisionname": "Sriganganagar",
    "regionname": "Jodhpur",
    "circlename": "Rajasthan",
    "Taluk": "Suratgarh",
    "Districtname": "Ganganagar",
    "statename": "RAJASTHAN"
  },
  {
    "pincode": "335804",
    "officename": "Thukrana B.O",
    "officeType": "B.O",
    "Deliverystatus": "Delivery",
    "divisionname": "Sriganganagar",
    "regionname": "Jodhpur",
    "circlename": "Rajasthan",
    "Taluk": "Suratgarh",
    "Districtname": "Ganganagar",
    "statename": "RAJASTHAN"
  }
]
