[
  {
    "pincode": "335803",
    "officename": "Ahmedpura B.O",
    "officeType": "B.O",
    "Deliverystatus": "Delivery",
    "divisionname": "Sriganganagar",
    "regionname": "Jodhpur",
    "circlename": "Rajasthan",
    "Taluk": "Pilibangan",
    "Districtname": "Hanumangarh",
    "statename": "RAJASTHAN"
  },
  {
    "pincode": "335803",
    "officename": "Amarpura Rathan B.O",
    "officeType": "B.O",
    "Deliverystatus": "Delivery",
    "divisionname": "Sriganganagar",
    "regionname": "Jodhpur",
    "circlename": "Rajasthan",
    "Taluk": "Pilibangan",
    "Districtname": "Hanumangarh",
    "statename": "RAJASTHAN"
  },
  {
    "pincode": "335803",
    "officename": "Chak 34 Stg B.O",
    "officeType": "B.O",
    "Deliverystatus": "Delivery",
    "divisionname": "Sriganganagar",
    "regionname": "Jodhpur",
    "circlename": "Rajasthan",
    "Taluk": "Pilibangan",
    "Districtname": "Hanumangarh",
    "statename": "RAJASTHAN"
  },
  {
    "pincode": "335803",
    "officename": "Chohilanwali B.O",
    "officeType": "B.O",
    "Deliverystatus": "Delivery",
    "divisionname": "Sriganganagar",
    "regionname": "Jodhpur",
    "circlename": "Rajasthan",
    "Taluk": "Pilibangan",
    "Districtname": "Hanumangarh",
    "statename": "RAJASTHAN"
  },
  {
    "pincode": "335803",
    "officename": "Dhaba B.O",
    "officeType": "B.O",
    "Deliverystatus": "Delivery",
    "divisionname": "Sriganganagar",
    "regionname": "Jodhpur",
    "circlename": "Rajasthan",
    "Taluk": "Pilibangan",
    "Districtname": "Hanumangarh",
    "statename": "RAJASTHAN"
  },
  {
    "pincode": "335803",
    "officename": "Dulmana B.O",
    "officeType": "B.O",
    "Deliverystatus": "Delivery",
    "divisionname": "Sriganganagar",
    "regionname": "Jodhpur",
    "circlename": "Rajasthan",
    "Taluk": "Pilibangan",
    "Districtname": "Hanumangarh",
    "statename": "RAJASTHAN"
  },
  {
    "pincode": "335803",
    "officename": "Jakharanwali B.O",
    "officeType": "B.O",
    "Deliverystatus": "Delivery",
    "divisionname": "Sriganganagar",
    "regionname": "Jodhpur",
    "circlename": "Rajasthan",
    "Taluk": "",
    "Districtname": "Hanumangarh",
    "statename": "RAJASTHAN"
  },
  {
    "pincode": "335803",
    "officename": "Kalibanga B.O",
    "officeType": "B.O",
    "Deliverystatus": "Delivery",
    "divisionname": "Sriganganagar",
    "regionname": "Jodhpur",
    "circlename": "Rajasthan",
    "Taluk": "Pilibangan",
    "Districtname": "Hanumangarh",
    "statename": "RAJASTHAN"
  },
  {
    "pincode": "335803",
    "officename": "Lakhasar B.O",
    "officeType": "B.O",
    "Deliverystatus": "Delivery",
    "divisionname": "Sriganganagar",
    "regionname": "Jodhpur",
    "circlename": "Rajasthan",
    "Taluk": "Pilibangan",
    "Districtname": "Hanumangarh",
    "statename": "RAJASTHAN"
  },
  {
    "pincode": "335803",
    "officename": "Likhmisar B.O",
    "officeType": "B.O",
    "Deliverystatus": "Delivery",
    "divisionname": "Sriganganagar",
    "regionname": "Jodhpur",
    "circlename": "Rajasthan",
    "Taluk": "Pilibangan",
    "Districtname": "Hanumangarh",
    "statename": "RAJASTHAN"
  },
  {
    "pincode": "335803",
    "officename": "Longwala B.O",
    "officeType": "B.O",
    "Deliverystatus": "Delivery",
    "divisionname": "Sriganganagar",
    "regionname": "Jodhpur",
    "circlename": "Rajasthan",
    "Taluk": "Pilibangan",
    "Districtname": "Hanumangarh",
    "statename": "RAJASTHAN"
  },
  {
    "pincode": "335803",
    "officename": "Panditanwali B.O",
    "officeType": "B.O",
    "Deliverystatus": "Delivery",
    "divisionname": "Sriganganagar",
    "regionname": "Jodhpur",
    "circlename": "Rajasthan",
    "Taluk": "Pilibangan",
    "Districtname": "Hanumangarh",
    "statename": "RAJASTHAN"
  },
  {
    "pincode": "335803",
    "officename": "Pilibanga Village B.O",
    "officeType": "B.O",
    "Deliverystatus": "Delivery",
    "divisionname": "Sriganganagar",
    "regionname": "Jodhpur",
    "circlename": "Rajasthan",
    "Taluk": "Pilibangan",
    "Districtname": "Hanumangarh",
    "statename": "RAJASTHAN"
  },
  {
    "pincode": "335803",
    "officename": "Pilibangan S.O",
    "officeType": "S.O",
    "Deliverystatus": "Delivery",
    "divisionname": "Sriganganagar",
    "regionname": "Jodhpur",
    "circlename": "Rajasthan",
    "Taluk": "Pilibangan",
    "Districtname": "Hanumangarh",
    "statename": "RAJASTHAN"
  },
  {
    "pincode": "335803",
    "officename": "Prempura B.O",
    "officeType": "B.O",
    "Deliverystatus": "Delivery",
    "divisionname": "Sriganganagar",
    "regionname": "Jodhpur",
    "circlename": "Rajasthan",
    "Taluk": "Pilibangan",
    "Districtname": "Hanumangarh",
    "statename": "RAJASTHAN"
  },
  {
    "pincode": "335803",
    "officename": "Salochanwala B.O",
    "officeType": "B.O",
    "Deliverystatus": "Delivery",
    "divisionname": "Sriganganagar",
    "regionname": "Jodhpur",
    "circlename": "Rajasthan",
    "Taluk": "Pilibangan",
    "Districtname": "Hanumangarh",
    "statename": "RAJASTHAN"
  },
  {
    "pincode": "335803",
    "officename": "Sanger B.O",
    "officeType": "B.O",
    "Deliverystatus": "Delivery",
    "divisionname": "Sriganganagar",
    "regionname": "Jodhpur",
    "circlename": "Rajasthan",
    "Taluk": "Pilibangan",
    "Districtname": "Hanumangarh",
    "statename": "RAJASTHAN"
  }
]
