[
  {
    "pincode": "341023",
    "officename": "Barnel B.O",
    "officeType": "B.O",
    "Deliverystatus": "Delivery",
    "divisionname": "Nagaur",
    "regionname": "Jodhpur",
    "circlename": "Rajasthan",
    "Taluk": "Jael",
    "Districtname": "Nagaur",
    "statename": "RAJASTHAN"
  },
  {
    "pincode": "341023",
    "officename": "Chhajoli B.O",
    "officeType": "B.O",
    "Deliverystatus": "Delivery",
    "divisionname": "Nagaur",
    "regionname": "Jodhpur",
    "circlename": "Rajasthan",
    "Taluk": "Jael",
    "Districtname": "Nagaur",
    "statename": "RAJASTHAN"
  },
  {
    "pincode": "341023",
    "officename": "Dugastau B.O",
    "officeType": "B.O",
    "Deliverystatus": "Delivery",
    "divisionname": "Nagaur",
    "regionname": "Jodhpur",
    "circlename": "Rajasthan",
    "Taluk": "Jael",
    "Districtname": "Nagaur",
    "statename": "RAJASTHAN"
  },
  {
    "pincode": "341023",
    "officename": "Dugoli B.O",
    "officeType": "B.O",
    "Deliverystatus": "Delivery",
    "divisionname": "Nagaur",
    "regionname": "Jodhpur",
    "circlename": "Rajasthan",
    "Taluk": "Jael",
    "Districtname": "Nagaur",
    "statename": "RAJASTHAN"
  },
  {
    "pincode": "341023",
    "officename": "Gudha Jodhan B.O",
    "officeType": "B.O",
    "Deliverystatus": "Delivery",
    "divisionname": "Nagaur",
    "regionname": "Jodhpur",
    "circlename": "Rajasthan",
    "Taluk": "Jael",
    "Districtname": "Nagaur",
    "statename": "RAJASTHAN"
  },
  {
    "pincode": "341023",
    "officename": "Gugaryali B.O",
    "officeType": "B.O",
    "Deliverystatus": "Delivery",
    "divisionname": "Nagaur",
    "regionname": "Jodhpur",
    "circlename": "Rajasthan",
    "Taluk": "Jael",
    "Districtname": "Nagaur",
    "statename": "RAJASTHAN"
  },
  {
    "pincode": "341023",
    "officename": "Jael S.O",
    "officeType": "S.O",
    "Deliverystatus": "Delivery",
    "divisionname": "Nagaur",
    "regionname": "Jodhpur",
    "circlename": "Rajasthan",
    "Taluk": "Jael",
    "Districtname": "Nagaur",
    "statename": "RAJASTHAN"
  },
  {
    "pincode": "341023",
    "officename": "Jochina B.O",
    "officeType": "B.O",
    "Deliverystatus": "Delivery",
    "divisionname": "Nagaur",
    "regionname": "Jodhpur",
    "circlename": "Rajasthan",
    "Taluk": "Jael",
    "Districtname": "Nagaur",
    "statename": "RAJASTHAN"
  },
  {
    "pincode": "341023",
    "officename": "Kathoti B.O",
    "officeType": "B.O",
    "Deliverystatus": "Delivery",
    "divisionname": "Nagaur",
    "regionname": "Jodhpur",
    "circlename": "Rajasthan",
    "Taluk": "Jael",
    "Districtname": "Nagaur",
    "statename": "RAJASTHAN"
  },
  {
    "pincode": "341023",
    "officename": "Khinyala B.O",
    "officeType": "B.O",
    "Deliverystatus": "Delivery",
    "divisionname": "Nagaur",
    "regionname": "Jodhpur",
    "circlename": "Rajasthan",
    "Taluk": "Jael",
    "Districtname": "Nagaur",
    "statename": "RAJASTHAN"
  },
  {
    "pincode": "341023",
    "officename": "Rajod B.O",
    "officeType": "B.O",
    "Deliverystatus": "Delivery",
    "divisionname": "Nagaur",
    "regionname": "Jodhpur",
    "circlename": "Rajasthan",
    "Taluk": "Jael",
    "Districtname": "Nagaur",
    "statename": "RAJASTHAN"
  },
  {
    "pincode": "341023",
    "officename": "Rotoo B.O",
    "officeType": "B.O",
    "Deliverystatus": "Delivery",
    "divisionname": "Nagaur",
    "regionname": "Jodhpur",
    "circlename": "Rajasthan",
    "Taluk": "Jael",
    "Districtname": "Nagaur",
    "statename": "RAJASTHAN"
  },
  {
    "pincode": "341023",
    "officename": "Silanwad B.O",
    "officeType": "B.O",
    "Deliverystatus": "Delivery",
    "divisionname": "Nagaur",
    "regionname": "Jodhpur",
    "circlename": "Rajasthan",
    "Taluk": "Jael",
    "Districtname": "Nagaur",
    "statename": "RAJASTHAN"
  }
]
