[
  {
    "pincode": "341303",
    "officename": "Ajawa B.O",
    "officeType": "B.O",
    "Deliverystatus": "Delivery",
    "divisionname": "Nagaur",
    "regionname": "Jodhpur",
    "circlename": "Rajasthan",
    "Taluk": "Didwana",
    "Districtname": "Nagaur",
    "statename": "RAJASTHAN"
  },
  {
    "pincode": "341303",
    "officename": "Ambapa B.O",
    "officeType": "B.O",
    "Deliverystatus": "Delivery",
    "divisionname": "Nagaur",
    "regionname": "Jodhpur",
    "circlename": "Rajasthan",
    "Taluk": "Didwana",
    "Districtname": "Nagaur",
    "statename": "RAJASTHAN"
  },
  {
    "pincode": "341303",
    "officename": "Barangana B.O",
    "officeType": "B.O",
    "Deliverystatus": "Delivery",
    "divisionname": "Nagaur",
    "regionname": "Jodhpur",
    "circlename": "Rajasthan",
    "Taluk": "Didwana",
    "Districtname": "Nagaur",
    "statename": "RAJASTHAN"
  },
  {
    "pincode": "341303",
    "officename": "Barichhapri B.O",
    "officeType": "B.O",
    "Deliverystatus": "Delivery",
    "divisionname": "Nagaur",
    "regionname": "Jodhpur",
    "circlename": "Rajasthan",
    "Taluk": "Didwana",
    "Districtname": "Nagaur",
    "statename": "RAJASTHAN"
  },
  {
    "pincode": "341303",
    "officename": "Chhapara B.O",
    "officeType": "B.O",
    "Deliverystatus": "Delivery",
    "divisionname": "Nagaur",
    "regionname": "Jodhpur",
    "circlename": "Rajasthan",
    "Taluk": "Didwana",
    "Districtname": "Nagaur",
    "statename": "RAJASTHAN"
  },
  {
    "pincode": "341303",
    "officename": "Chholukhan B.O",
    "officeType": "B.O",
    "Deliverystatus": "Delivery",
    "divisionname": "Nagaur",
    "regionname": "Jodhpur",
    "circlename": "Rajasthan",
    "Taluk": "Didwana",
    "Districtname": "Nagaur",
    "statename": "RAJASTHAN"
  },
  {
    "pincode": "341303",
    "officename": "Chhotichhapri B.O",
    "officeType": "B.O",
    "Deliverystatus": "Delivery",
    "divisionname": "Nagaur",
    "regionname": "Jodhpur",
    "circlename": "Rajasthan",
    "Taluk": "Didwana",
    "Districtname": "Nagaur",
    "statename": "RAJASTHAN"
  },
  {
    "pincode": "341303",
    "officename": "D.M.Didwana S.O",
    "officeType": "S.O",
    "Deliverystatus": "Non-Delivery",
    "divisionname": "Nagaur",
    "regionname": "Jodhpur",
    "circlename": "Rajasthan",
    "Taluk": "Didwana",
    "Districtname": "Nagaur",
    "statename": "RAJASTHAN"
  },
  {
    "pincode": "341303",
    "officename": "Daulatpura B.O",
    "officeType": "B.O",
    "Deliverystatus": "Delivery",
    "divisionname": "Nagaur",
    "regionname": "Jodhpur",
    "circlename": "Rajasthan",
    "Taluk": "Didwana",
    "Districtname": "Nagaur",
    "statename": "RAJASTHAN"
  },
  {
    "pincode": "341303",
    "officename": "Dayalpura B.O",
    "officeType": "B.O",
    "Deliverystatus": "Delivery",
    "divisionname": "Nagaur",
    "regionname": "Jodhpur",
    "circlename": "Rajasthan",
    "Taluk": "Didwana",
    "Districtname": "Nagaur",
    "statename": "RAJASTHAN"
  },
  {
    "pincode": "341303",
    "officename": "Dhyawa B.O",
    "officeType": "B.O",
    "Deliverystatus": "Delivery",
    "divisionname": "Nagaur",
    "regionname": "Jodhpur",
    "circlename": "Rajasthan",
    "Taluk": "Didwana",
    "Districtname": "Nagaur",
    "statename": "RAJASTHAN"
  },
  {
    "pincode": "341303",
    "officename": "Didwana H.O",
    "officeType": "H.O",
    "Deliverystatus": "Delivery",
    "divisionname": "Nagaur",
    "regionname": "Jodhpur",
    "circlename": "Rajasthan",
    "Taluk": "Didwana",
    "Districtname": "Nagaur",
    "statename": "RAJASTHAN"
  },
  {
    "pincode": "341303",
    "officename": "Firwasi B.O",
    "officeType": "B.O",
    "Deliverystatus": "Delivery",
    "divisionname": "Nagaur",
    "regionname": "Jodhpur",
    "circlename": "Rajasthan",
    "Taluk": "Didwana",
    "Districtname": "Nagaur",
    "statename": "RAJASTHAN"
  },
  {
    "pincode": "341303",
    "officename": "Girroda Mitha B.O",
    "officeType": "B.O",
    "Deliverystatus": "Delivery",
    "divisionname": "Nagaur",
    "regionname": "Jodhpur",
    "circlename": "Rajasthan",
    "Taluk": "Didwana",
    "Districtname": "Nagaur",
    "statename": "RAJASTHAN"
  },
  {
    "pincode": "341303",
    "officename": "Kalwani B.O",
    "officeType": "B.O",
    "Deliverystatus": "Delivery",
    "divisionname": "Nagaur",
    "regionname": "Jodhpur",
    "circlename": "Rajasthan",
    "Taluk": "Didwana",
    "Districtname": "Nagaur",
    "statename": "RAJASTHAN"
  },
  {
    "pincode": "341303",
    "officename": "Khatiyabasani B.O",
    "officeType": "B.O",
    "Deliverystatus": "Delivery",
    "divisionname": "Nagaur",
    "regionname": "Jodhpur",
    "circlename": "Rajasthan",
    "Taluk": "Didwana",
    "Districtname": "Nagaur",
    "statename": "RAJASTHAN"
  },
  {
    "pincode": "341303",
    "officename": "Khinwaj B.O",
    "officeType": "B.O",
    "Deliverystatus": "Delivery",
    "divisionname": "Nagaur",
    "regionname": "Jodhpur",
    "circlename": "Rajasthan",
    "Taluk": "Didwana",
    "Districtname": "Nagaur",
    "statename": "RAJASTHAN"
  },
  {
    "pincode": "341303",
    "officename": "Lachhari B.O",
    "officeType": "B.O",
    "Deliverystatus": "Delivery",
    "divisionname": "Nagaur",
    "regionname": "Jodhpur",
    "circlename": "Rajasthan",
    "Taluk": "Didwana",
    "Districtname": "Nagaur",
    "statename": "RAJASTHAN"
  },
  {
    "pincode": "341303",
    "officename": "Lalsari B.O",
    "officeType": "B.O",
    "Deliverystatus": "Delivery",
    "divisionname": "Nagaur",
    "regionname": "Jodhpur",
    "circlename": "Rajasthan",
    "Taluk": "Didwana",
    "Districtname": "Nagaur",
    "statename": "RAJASTHAN"
  },
  {
    "pincode": "341303",
    "officename": "Marwarbalia B.O",
    "officeType": "B.O",
    "Deliverystatus": "Delivery",
    "divisionname": "Nagaur",
    "regionname": "Jodhpur",
    "circlename": "Rajasthan",
    "Taluk": "Didwana",
    "Districtname": "Nagaur",
    "statename": "RAJASTHAN"
  },
  {
    "pincode": "341303",
    "officename": "Mawa B.O",
    "officeType": "B.O",
    "Deliverystatus": "Delivery",
    "divisionname": "Nagaur",
    "regionname": "Jodhpur",
    "circlename": "Rajasthan",
    "Taluk": "Didwana",
    "Districtname": "Nagaur",
    "statename": "RAJASTHAN"
  },
  {
    "pincode": "341303",
    "officename": "Mithri B.O",
    "officeType": "B.O",
    "Deliverystatus": "Delivery",
    "divisionname": "Nagaur",
    "regionname": "Jodhpur",
    "circlename": "Rajasthan",
    "Taluk": "Didwana",
    "Districtname": "Nagaur",
    "statename": "RAJASTHAN"
  },
  {
    "pincode": "341303",
    "officename": "Nimbikhurd B.O",
    "officeType": "B.O",
    "Deliverystatus": "Delivery",
    "divisionname": "Nagaur",
    "regionname": "Jodhpur",
    "circlename": "Rajasthan",
    "Taluk": "Didwana",
    "Districtname": "Nagaur",
    "statename": "RAJASTHAN"
  },
  {
    "pincode": "341303",
    "officename": "Phogari B.O",
    "officeType": "B.O",
    "Deliverystatus": "Delivery",
    "divisionname": "Nagaur",
    "regionname": "Jodhpur",
    "circlename": "Rajasthan",
    "Taluk": "Didwana",
    "Districtname": "Nagaur",
    "statename": "RAJASTHAN"
  },
  {
    "pincode": "341303",
    "officename": "Raidhana B.O",
    "officeType": "B.O",
    "Deliverystatus": "Delivery",
    "divisionname": "Nagaur",
    "regionname": "Jodhpur",
    "circlename": "Rajasthan",
    "Taluk": "Didwana",
    "Districtname": "Nagaur",
    "statename": "RAJASTHAN"
  },
  {
    "pincode": "341303",
    "officename": "Ramsabas B.O",
    "officeType": "B.O",
    "Deliverystatus": "Delivery",
    "divisionname": "Nagaur",
    "regionname": "Jodhpur",
    "circlename": "Rajasthan",
    "Taluk": "Didwana",
    "Districtname": "Nagaur",
    "statename": "RAJASTHAN"
  },
  {
    "pincode": "341303",
    "officename": "Reengan B.O",
    "officeType": "B.O",
    "Deliverystatus": "Delivery",
    "divisionname": "Nagaur",
    "regionname": "Jodhpur",
    "circlename": "Rajasthan",
    "Taluk": "Didwana",
    "Districtname": "Nagaur",
    "statename": "RAJASTHAN"
  },
  {
    "pincode": "341303",
    "officename": "Sanwarad B.O",
    "officeType": "B.O",
    "Deliverystatus": "Delivery",
    "divisionname": "Nagaur",
    "regionname": "Jodhpur",
    "circlename": "Rajasthan",
    "Taluk": "Didwana",
    "Districtname": "Nagaur",
    "statename": "RAJASTHAN"
  },
  {
    "pincode": "341303",
    "officename": "Sardi B.O",
    "officeType": "B.O",
    "Deliverystatus": "Delivery",
    "divisionname": "Nagaur",
    "regionname": "Jodhpur",
    "circlename": "Rajasthan",
    "Taluk": "Didwana",
    "Districtname": "Nagaur",
    "statename": "RAJASTHAN"
  },
  {
    "pincode": "341303",
    "officename": "Sewa B.O",
    "officeType": "B.O",
    "Deliverystatus": "Delivery",
    "divisionname": "Nagaur",
    "regionname": "Jodhpur",
    "circlename": "Rajasthan",
    "Taluk": "Didwana",
    "Districtname": "Nagaur",
    "statename": "RAJASTHAN"
  },
  {
    "pincode": "341303",
    "officename": "Singhana B.O",
    "officeType": "B.O",
    "Deliverystatus": "Delivery",
    "divisionname": "Nagaur",
    "regionname": "Jodhpur",
    "circlename": "Rajasthan",
    "Taluk": "Didwana",
    "Districtname": "Nagaur",
    "statename": "RAJASTHAN"
  },
  {
    "pincode": "341303",
    "officename": "Singrawatkallan B.O",
    "officeType": "B.O",
    "Deliverystatus": "Delivery",
    "divisionname": "Nagaur",
    "regionname": "Jodhpur",
    "circlename": "Rajasthan",
    "Taluk": "Didwana",
    "Districtname": "Nagaur",
    "statename": "RAJASTHAN"
  },
  {
    "pincode": "341303",
    "officename": "Station Road Didwana S.O",
    "officeType": "S.O",
    "Deliverystatus": "Non-Delivery",
    "divisionname": "Nagaur",
    "regionname": "Jodhpur",
    "circlename": "Rajasthan",
    "Taluk": "Didwana",
    "Districtname": "Nagaur",
    "statename": "RAJASTHAN"
  },
  {
    "pincode": "341303",
    "officename": "Supaka B.O",
    "officeType": "B.O",
    "Deliverystatus": "Delivery",
    "divisionname": "Nagaur",
    "regionname": "Jodhpur",
    "circlename": "Rajasthan",
    "Taluk": "Didwana",
    "Districtname": "Nagaur",
    "statename": "RAJASTHAN"
  }
]
