[
  {
    "pincode": "341505",
    "officename": "Barwala B.O",
    "officeType": "B.O",
    "Deliverystatus": "Delivery",
    "divisionname": "Nagaur",
    "regionname": "Jodhpur",
    "circlename": "Rajasthan",
    "Taluk": "Parbatsar",
    "Districtname": "Nagaur",
    "statename": "RAJASTHAN"
  },
  {
    "pincode": "341505",
    "officename": "Barwali B.O",
    "officeType": "B.O",
    "Deliverystatus": "Delivery",
    "divisionname": "Nagaur",
    "regionname": "Jodhpur",
    "circlename": "Rajasthan",
    "Taluk": "Parbatsar",
    "Districtname": "Nagaur",
    "statename": "RAJASTHAN"
  },
  {
    "pincode": "341505",
    "officename": "Bharnai B.O",
    "officeType": "B.O",
    "Deliverystatus": "Delivery",
    "divisionname": "Nagaur",
    "regionname": "Jodhpur",
    "circlename": "Rajasthan",
    "Taluk": "Parbatsar",
    "Districtname": "Nagaur",
    "statename": "RAJASTHAN"
  },
  {
    "pincode": "341505",
    "officename": "Bursu B.O",
    "officeType": "B.O",
    "Deliverystatus": "Delivery",
    "divisionname": "Nagaur",
    "regionname": "Jodhpur",
    "circlename": "Rajasthan",
    "Taluk": "",
    "Districtname": "Nagaur",
    "statename": "RAJASTHAN"
  },
  {
    "pincode": "341505",
    "officename": "Dildhani B.O",
    "officeType": "B.O",
    "Deliverystatus": "Delivery",
    "divisionname": "Nagaur",
    "regionname": "Jodhpur",
    "circlename": "Rajasthan",
    "Taluk": "Parbatsar",
    "Districtname": "Nagaur",
    "statename": "RAJASTHAN"
  },
  {
    "pincode": "341505",
    "officename": "Gunawati B.O",
    "officeType": "B.O",
    "Deliverystatus": "Delivery",
    "divisionname": "Nagaur",
    "regionname": "Jodhpur",
    "circlename": "Rajasthan",
    "Taluk": "Parbatsar",
    "Districtname": "Nagaur",
    "statename": "RAJASTHAN"
  },
  {
    "pincode": "341505",
    "officename": "Jusari B.O",
    "officeType": "B.O",
    "Deliverystatus": "Delivery",
    "divisionname": "Nagaur",
    "regionname": "Jodhpur",
    "circlename": "Rajasthan",
    "Taluk": "Parbatsar",
    "Districtname": "Nagaur",
    "statename": "RAJASTHAN"
  },
  {
    "pincode": "341505",
    "officename": "Kukrod B.O",
    "officeType": "B.O",
    "Deliverystatus": "Delivery",
    "divisionname": "Nagaur",
    "regionname": "Jodhpur",
    "circlename": "Rajasthan",
    "Taluk": "Parbatsar",
    "Districtname": "Nagaur",
    "statename": "RAJASTHAN"
  },
  {
    "pincode": "341505",
    "officename": "Makrana H.O",
    "officeType": "H.O",
    "Deliverystatus": "Non-Delivery",
    "divisionname": "Nagaur",
    "regionname": "Jodhpur",
    "circlename": "Rajasthan",
    "Taluk": "MAKRANA",
    "Districtname": "Nagaur",
    "statename": "RAJASTHAN"
  },
  {
    "pincode": "341505",
    "officename": "Makrana Rs S.O",
    "officeType": "S.O",
    "Deliverystatus": "Delivery",
    "divisionname": "Nagaur",
    "regionname": "Jodhpur",
    "circlename": "Rajasthan",
    "Taluk": "Parbatsar",
    "Districtname": "Nagaur",
    "statename": "RAJASTHAN"
  },
  {
    "pincode": "341505",
    "officename": "Makrana S.B. S.O",
    "officeType": "S.O",
    "Deliverystatus": "Non-Delivery",
    "divisionname": "Nagaur",
    "regionname": "Jodhpur",
    "circlename": "Rajasthan",
    "Taluk": "Parbatsar",
    "Districtname": "Nagaur",
    "statename": "RAJASTHAN"
  },
  {
    "pincode": "341505",
    "officename": "Manglana B.O",
    "officeType": "B.O",
    "Deliverystatus": "Delivery",
    "divisionname": "Nagaur",
    "regionname": "Jodhpur",
    "circlename": "Rajasthan",
    "Taluk": "Parbatsar",
    "Districtname": "Nagaur",
    "statename": "RAJASTHAN"
  }
]
