[
  {
    "pincode": "341511",
    "officename": "Chhapri B.O",
    "officeType": "B.O",
    "Deliverystatus": "Delivery",
    "divisionname": "Nagaur",
    "regionname": "Jodhpur",
    "circlename": "Rajasthan",
    "Taluk": "Merta",
    "Districtname": "Nagaur",
    "statename": "RAJASTHAN"
  },
  {
    "pincode": "341511",
    "officename": "Datani B.O",
    "officeType": "B.O",
    "Deliverystatus": "Delivery",
    "divisionname": "Nagaur",
    "regionname": "Jodhpur",
    "circlename": "Rajasthan",
    "Taluk": "Merta",
    "Districtname": "Nagaur",
    "statename": "RAJASTHAN"
  },
  {
    "pincode": "341511",
    "officename": "Dhadhwara B.O",
    "officeType": "B.O",
    "Deliverystatus": "Delivery",
    "divisionname": "Nagaur",
    "regionname": "Jodhpur",
    "circlename": "Rajasthan",
    "Taluk": "Merta",
    "Districtname": "Nagaur",
    "statename": "RAJASTHAN"
  },
  {
    "pincode": "341511",
    "officename": "Dhawa B.O",
    "officeType": "B.O",
    "Deliverystatus": "Delivery",
    "divisionname": "Nagaur",
    "regionname": "Jodhpur",
    "circlename": "Rajasthan",
    "Taluk": "Merta",
    "Districtname": "Nagaur",
    "statename": "RAJASTHAN"
  },
  {
    "pincode": "341511",
    "officename": "Jaroda B.O",
    "officeType": "B.O",
    "Deliverystatus": "Delivery",
    "divisionname": "Nagaur",
    "regionname": "Jodhpur",
    "circlename": "Rajasthan",
    "Taluk": "Merta",
    "Districtname": "Nagaur",
    "statename": "RAJASTHAN"
  },
  {
    "pincode": "341511",
    "officename": "Jogimagara B.O",
    "officeType": "B.O",
    "Deliverystatus": "Delivery",
    "divisionname": "Nagaur",
    "regionname": "Jodhpur",
    "circlename": "Rajasthan",
    "Taluk": "Merta",
    "Districtname": "Nagaur",
    "statename": "RAJASTHAN"
  },
  {
    "pincode": "341511",
    "officename": "Kheduli B.O",
    "officeType": "B.O",
    "Deliverystatus": "Delivery",
    "divisionname": "Nagaur",
    "regionname": "Jodhpur",
    "circlename": "Rajasthan",
    "Taluk": "Merta",
    "Districtname": "Nagaur",
    "statename": "RAJASTHAN"
  },
  {
    "pincode": "341511",
    "officename": "Kupras B.O",
    "officeType": "B.O",
    "Deliverystatus": "Delivery",
    "divisionname": "Nagaur",
    "regionname": "Jodhpur",
    "circlename": "Rajasthan",
    "Taluk": "Merta",
    "Districtname": "Nagaur",
    "statename": "RAJASTHAN"
  },
  {
    "pincode": "341511",
    "officename": "Merta Road S.O",
    "officeType": "S.O",
    "Deliverystatus": "Delivery",
    "divisionname": "Nagaur",
    "regionname": "Jodhpur",
    "circlename": "Rajasthan",
    "Taluk": "Merta",
    "Districtname": "Nagaur",
    "statename": "RAJASTHAN"
  },
  {
    "pincode": "341511",
    "officename": "Oladan B.O",
    "officeType": "B.O",
    "Deliverystatus": "Delivery",
    "divisionname": "Nagaur",
    "regionname": "Jodhpur",
    "circlename": "Rajasthan",
    "Taluk": "Merta",
    "Districtname": "Nagaur",
    "statename": "RAJASTHAN"
  }
]
