[
  {
    "pincode": "341501",
    "officename": "Badu S.O (Nagaur)",
    "officeType": "S.O",
    "Deliverystatus": "Delivery",
    "divisionname": "Nagaur",
    "regionname": "Jodhpur",
    "circlename": "Rajasthan",
    "Taluk": "Degana",
    "Districtname": "Nagaur",
    "statename": "RAJASTHAN"
  },
  {
    "pincode": "341501",
    "officename": "Bhadawa B.O",
    "officeType": "B.O",
    "Deliverystatus": "Delivery",
    "divisionname": "Nagaur",
    "regionname": "Jodhpur",
    "circlename": "Rajasthan",
    "Taluk": "Degana",
    "Districtname": "Nagaur",
    "statename": "RAJASTHAN"
  },
  {
    "pincode": "341501",
    "officename": "Gular B.O",
    "officeType": "B.O",
    "Deliverystatus": "Delivery",
    "divisionname": "Nagaur",
    "regionname": "Jodhpur",
    "circlename": "Rajasthan",
    "Taluk": "Degana",
    "Districtname": "Nagaur",
    "statename": "RAJASTHAN"
  },
  {
    "pincode": "341501",
    "officename": "Harnawa B.O",
    "officeType": "B.O",
    "Deliverystatus": "Delivery",
    "divisionname": "Nagaur",
    "regionname": "Jodhpur",
    "circlename": "Rajasthan",
    "Taluk": "Degana",
    "Districtname": "Nagaur",
    "statename": "RAJASTHAN"
  },
  {
    "pincode": "341501",
    "officename": "Janjila B.O",
    "officeType": "B.O",
    "Deliverystatus": "Delivery",
    "divisionname": "Nagaur",
    "regionname": "Jodhpur",
    "circlename": "Rajasthan",
    "Taluk": "Degana",
    "Districtname": "Nagaur",
    "statename": "RAJASTHAN"
  },
  {
    "pincode": "341501",
    "officename": "Lalana Khurd B.O",
    "officeType": "B.O",
    "Deliverystatus": "Delivery",
    "divisionname": "Nagaur",
    "regionname": "Jodhpur",
    "circlename": "Rajasthan",
    "Taluk": "Degana",
    "Districtname": "Nagaur",
    "statename": "RAJASTHAN"
  },
  {
    "pincode": "341501",
    "officename": "Nimbri B.O",
    "officeType": "B.O",
    "Deliverystatus": "Delivery",
    "divisionname": "Nagaur",
    "regionname": "Jodhpur",
    "circlename": "Rajasthan",
    "Taluk": "Degana",
    "Districtname": "Nagaur",
    "statename": "RAJASTHAN"
  },
  {
    "pincode": "341501",
    "officename": "Sirsu B.O",
    "officeType": "B.O",
    "Deliverystatus": "Delivery",
    "divisionname": "Nagaur",
    "regionname": "Jodhpur",
    "circlename": "Rajasthan",
    "Taluk": "Degana",
    "Districtname": "Nagaur",
    "statename": "RAJASTHAN"
  }
]
