[
  {
    "pincode": "342024",
    "officename": "Beru B.O",
    "officeType": "B.O",
    "Deliverystatus": "Delivery",
    "divisionname": "Jodhpur",
    "regionname": "Jodhpur",
    "circlename": "Rajasthan",
    "Taluk": "",
    "Districtname": "Jodhpur",
    "statename": "RAJASTHAN"
  },
  {
    "pincode": "342024",
    "officename": "Chawanda B.O",
    "officeType": "B.O",
    "Deliverystatus": "Delivery",
    "divisionname": "Jodhpur",
    "regionname": "Jodhpur",
    "circlename": "Rajasthan",
    "Taluk": "",
    "Districtname": "Jodhpur",
    "statename": "RAJASTHAN"
  },
  {
    "pincode": "342024",
    "officename": "Ghantiyala B.O",
    "officeType": "B.O",
    "Deliverystatus": "Delivery",
    "divisionname": "Jodhpur",
    "regionname": "Jodhpur",
    "circlename": "Rajasthan",
    "Taluk": "",
    "Districtname": "Jodhpur",
    "statename": "RAJASTHAN"
  },
  {
    "pincode": "342024",
    "officename": "Kali Beri B.O",
    "officeType": "B.O",
    "Deliverystatus": "Delivery",
    "divisionname": "Jodhpur",
    "regionname": "Jodhpur",
    "circlename": "Rajasthan",
    "Taluk": "Jodhpur",
    "Districtname": "Jodhpur",
    "statename": "RAJASTHAN"
  },
  {
    "pincode": "342024",
    "officename": "Keru B.O",
    "officeType": "B.O",
    "Deliverystatus": "Delivery",
    "divisionname": "Jodhpur",
    "regionname": "Jodhpur",
    "circlename": "Rajasthan",
    "Taluk": "",
    "Districtname": "Jodhpur",
    "statename": "RAJASTHAN"
  },
  {
    "pincode": "342024",
    "officename": "Malunga B.O",
    "officeType": "B.O",
    "Deliverystatus": "Delivery",
    "divisionname": "Jodhpur",
    "regionname": "Jodhpur",
    "circlename": "Rajasthan",
    "Taluk": "",
    "Districtname": "Jodhpur",
    "statename": "RAJASTHAN"
  },
  {
    "pincode": "342024",
    "officename": "Popawas B.O",
    "officeType": "B.O",
    "Deliverystatus": "Delivery",
    "divisionname": "Jodhpur",
    "regionname": "Jodhpur",
    "circlename": "Rajasthan",
    "Taluk": "",
    "Districtname": "Jodhpur",
    "statename": "RAJASTHAN"
  },
  {
    "pincode": "342024",
    "officename": "Salori B.O",
    "officeType": "B.O",
    "Deliverystatus": "Delivery",
    "divisionname": "Jodhpur",
    "regionname": "Jodhpur",
    "circlename": "Rajasthan",
    "Taluk": "",
    "Districtname": "Jodhpur",
    "statename": "RAJASTHAN"
  },
  {
    "pincode": "342024",
    "officename": "Soorsagar S.O",
    "officeType": "S.O",
    "Deliverystatus": "Delivery",
    "divisionname": "Jodhpur",
    "regionname": "Jodhpur",
    "circlename": "Rajasthan",
    "Taluk": "Jodhpur",
    "Districtname": "Jodhpur",
    "statename": "RAJASTHAN"
  }
]
