[
  {
    "pincode": "342025",
    "officename": "Asarlai B.O",
    "officeType": "B.O",
    "Deliverystatus": "Delivery",
    "divisionname": "Jodhpur",
    "regionname": "Jodhpur",
    "circlename": "Rajasthan",
    "Taluk": "Setrawa",
    "Districtname": "Jodhpur",
    "statename": "RAJASTHAN"
  },
  {
    "pincode": "342025",
    "officename": "Bhaloo Kallan B.O",
    "officeType": "B.O",
    "Deliverystatus": "Delivery",
    "divisionname": "Jodhpur",
    "regionname": "Jodhpur",
    "circlename": "Rajasthan",
    "Taluk": "Setrawa",
    "Districtname": "Jodhpur",
    "statename": "RAJASTHAN"
  },
  {
    "pincode": "342025",
    "officename": "Bhalu Rajwan B.O",
    "officeType": "B.O",
    "Deliverystatus": "Delivery",
    "divisionname": "Jodhpur",
    "regionname": "Jodhpur",
    "circlename": "Rajasthan",
    "Taluk": "Setrawa",
    "Districtname": "Jodhpur",
    "statename": "RAJASTHAN"
  },
  {
    "pincode": "342025",
    "officename": "Chordiyan B.O",
    "officeType": "B.O",
    "Deliverystatus": "Delivery",
    "divisionname": "Jodhpur",
    "regionname": "Jodhpur",
    "circlename": "Rajasthan",
    "Taluk": "Setrawa",
    "Districtname": "Jodhpur",
    "statename": "RAJASTHAN"
  },
  {
    "pincode": "342025",
    "officename": "Deda B.O",
    "officeType": "B.O",
    "Deliverystatus": "Delivery",
    "divisionname": "Jodhpur",
    "regionname": "Jodhpur",
    "circlename": "Rajasthan",
    "Taluk": "Setrawa",
    "Districtname": "Jodhpur",
    "statename": "RAJASTHAN"
  },
  {
    "pincode": "342025",
    "officename": "Deda Hapan B.O",
    "officeType": "B.O",
    "Deliverystatus": "Delivery",
    "divisionname": "Jodhpur",
    "regionname": "Jodhpur",
    "circlename": "Rajasthan",
    "Taluk": "Setrawa",
    "Districtname": "Jodhpur",
    "statename": "RAJASTHAN"
  },
  {
    "pincode": "342025",
    "officename": "Dewatu B.O",
    "officeType": "B.O",
    "Deliverystatus": "Delivery",
    "divisionname": "Jodhpur",
    "regionname": "Jodhpur",
    "circlename": "Rajasthan",
    "Taluk": "Setrawa",
    "Districtname": "Jodhpur",
    "statename": "RAJASTHAN"
  },
  {
    "pincode": "342025",
    "officename": "Ketu Hema B.O",
    "officeType": "B.O",
    "Deliverystatus": "Delivery",
    "divisionname": "Jodhpur",
    "regionname": "Jodhpur",
    "circlename": "Rajasthan",
    "Taluk": "Setrawa",
    "Districtname": "Jodhpur",
    "statename": "RAJASTHAN"
  },
  {
    "pincode": "342025",
    "officename": "Ketu Kallan B.O",
    "officeType": "B.O",
    "Deliverystatus": "Delivery",
    "divisionname": "Jodhpur",
    "regionname": "Jodhpur",
    "circlename": "Rajasthan",
    "Taluk": "Setrawa",
    "Districtname": "Jodhpur",
    "statename": "RAJASTHAN"
  },
  {
    "pincode": "342025",
    "officename": "Khiny Asariya B.O",
    "officeType": "B.O",
    "Deliverystatus": "Delivery",
    "divisionname": "Jodhpur",
    "regionname": "Jodhpur",
    "circlename": "Rajasthan",
    "Taluk": "Setrawa",
    "Districtname": "Jodhpur",
    "statename": "RAJASTHAN"
  },
  {
    "pincode": "342025",
    "officename": "Lawaran B.O",
    "officeType": "B.O",
    "Deliverystatus": "Delivery",
    "divisionname": "Jodhpur",
    "regionname": "Jodhpur",
    "circlename": "Rajasthan",
    "Taluk": "Setrawa",
    "Districtname": "Jodhpur",
    "statename": "RAJASTHAN"
  },
  {
    "pincode": "342025",
    "officename": "Setrawa S.O",
    "officeType": "S.O",
    "Deliverystatus": "Delivery",
    "divisionname": "Jodhpur",
    "regionname": "Jodhpur",
    "circlename": "Rajasthan",
    "Taluk": "Jodhpur",
    "Districtname": "Jodhpur",
    "statename": "RAJASTHAN"
  },
  {
    "pincode": "342025",
    "officename": "Shekhala B.O",
    "officeType": "B.O",
    "Deliverystatus": "Delivery",
    "divisionname": "Jodhpur",
    "regionname": "Jodhpur",
    "circlename": "Rajasthan",
    "Taluk": "Setrawa",
    "Districtname": "Jodhpur",
    "statename": "RAJASTHAN"
  },
  {
    "pincode": "342025",
    "officename": "Solankiya Tala B.O",
    "officeType": "B.O",
    "Deliverystatus": "Delivery",
    "divisionname": "Jodhpur",
    "regionname": "Jodhpur",
    "circlename": "Rajasthan",
    "Taluk": "Setrawa",
    "Districtname": "Jodhpur",
    "statename": "RAJASTHAN"
  }
]
