[
  {
    "pincode": "342001",
    "officename": "Agolai B.O",
    "officeType": "B.O",
    "Deliverystatus": "Delivery",
    "divisionname": "Jodhpur",
    "regionname": "Jodhpur",
    "circlename": "Rajasthan",
    "Taluk": "Jodhpur",
    "Districtname": "Jodhpur",
    "statename": "RAJASTHAN"
  },
  {
    "pincode": "342001",
    "officename": "Bambore Darjiyan B.O",
    "officeType": "B.O",
    "Deliverystatus": "Delivery",
    "divisionname": "Jodhpur",
    "regionname": "Jodhpur",
    "circlename": "Rajasthan",
    "Taluk": "Jodhpur",
    "Districtname": "Jodhpur",
    "statename": "RAJASTHAN"
  },
  {
    "pincode": "342001",
    "officename": "Barli B.O",
    "officeType": "B.O",
    "Deliverystatus": "Delivery",
    "divisionname": "Jodhpur",
    "regionname": "Jodhpur",
    "circlename": "Rajasthan",
    "Taluk": "Jodhpur",
    "Districtname": "Jodhpur",
    "statename": "RAJASTHAN"
  },
  {
    "pincode": "342001",
    "officename": "Bavarli B.O",
    "officeType": "B.O",
    "Deliverystatus": "Delivery",
    "divisionname": "Jodhpur",
    "regionname": "Jodhpur",
    "circlename": "Rajasthan",
    "Taluk": "Jodhpur",
    "Districtname": "Jodhpur",
    "statename": "RAJASTHAN"
  },
  {
    "pincode": "342001",
    "officename": "Chokhan B.O",
    "officeType": "B.O",
    "Deliverystatus": "Delivery",
    "divisionname": "Jodhpur",
    "regionname": "Jodhpur",
    "circlename": "Rajasthan",
    "Taluk": "Jodhpur",
    "Districtname": "Jodhpur",
    "statename": "RAJASTHAN"
  },
  {
    "pincode": "342001",
    "officename": "Dhandhaniya B.O",
    "officeType": "B.O",
    "Deliverystatus": "Delivery",
    "divisionname": "Jodhpur",
    "regionname": "Jodhpur",
    "circlename": "Rajasthan",
    "Taluk": "Jodhpur",
    "Districtname": "Jodhpur",
    "statename": "RAJASTHAN"
  },
  {
    "pincode": "342001",
    "officename": "Dhandhaniya Bhayalan B.O",
    "officeType": "B.O",
    "Deliverystatus": "Delivery",
    "divisionname": "Jodhpur",
    "regionname": "Jodhpur",
    "circlename": "Rajasthan",
    "Taluk": "Jodhpur",
    "Districtname": "Jodhpur",
    "statename": "RAJASTHAN"
  },
  {
    "pincode": "342001",
    "officename": "Jodhpur Bhagat Ki Kothi S.O",
    "officeType": "S.O",
    "Deliverystatus": "Non-Delivery",
    "divisionname": "Jodhpur",
    "regionname": "Jodhpur",
    "circlename": "Rajasthan",
    "Taluk": "Jodhpur",
    "Districtname": "Jodhpur",
    "statename": "RAJASTHAN"
  },
  {
    "pincode": "342001",
    "officename": "Jodhpur City S.O",
    "officeType": "S.O",
    "Deliverystatus": "Non-Delivery",
    "divisionname": "Jodhpur",
    "regionname": "Jodhpur",
    "circlename": "Rajasthan",
    "Taluk": "Jodhpur",
    "Districtname": "Jodhpur",
    "statename": "RAJASTHAN"
  },
  {
    "pincode": "342001",
    "officename": "Jodhpur Cloth Market S.O",
    "officeType": "S.O",
    "Deliverystatus": "Non-Delivery",
    "divisionname": "Jodhpur",
    "regionname": "Jodhpur",
    "circlename": "Rajasthan",
    "Taluk": "Jodhpur",
    "Districtname": "Jodhpur",
    "statename": "RAJASTHAN"
  },
  {
    "pincode": "342001",
    "officename": "Jodhpur Girdikot S.O",
    "officeType": "S.O",
    "Deliverystatus": "Non-Delivery",
    "divisionname": "Jodhpur",
    "regionname": "Jodhpur",
    "circlename": "Rajasthan",
    "Taluk": "Jodhpur",
    "Districtname": "Jodhpur",
    "statename": "RAJASTHAN"
  },
  {
    "pincode": "342001",
    "officename": "Jodhpur H.O",
    "officeType": "H.O",
    "Deliverystatus": "Delivery",
    "divisionname": "Jodhpur",
    "regionname": "Jodhpur",
    "circlename": "Rajasthan",
    "Taluk": "Jodhpur",
    "Districtname": "Jodhpur",
    "statename": "RAJASTHAN"
  },
  {
    "pincode": "342001",
    "officename": "Jodhpur University Campus S.O",
    "officeType": "S.O",
    "Deliverystatus": "Non-Delivery",
    "divisionname": "Jodhpur",
    "regionname": "Jodhpur",
    "circlename": "Rajasthan",
    "Taluk": "Jodhpur",
    "Districtname": "Jodhpur",
    "statename": "RAJASTHAN"
  },
  {
    "pincode": "342001",
    "officename": "Joliyali B.O",
    "officeType": "B.O",
    "Deliverystatus": "Delivery",
    "divisionname": "Jodhpur",
    "regionname": "Jodhpur",
    "circlename": "Rajasthan",
    "Taluk": "Jodhpur",
    "Districtname": "Jodhpur",
    "statename": "RAJASTHAN"
  },
  {
    "pincode": "342001",
    "officename": "Kabutaron Ka Chowk S.O",
    "officeType": "S.O",
    "Deliverystatus": "Non-Delivery",
    "divisionname": "Jodhpur",
    "regionname": "Jodhpur",
    "circlename": "Rajasthan",
    "Taluk": "Jodhpur",
    "Districtname": "Jodhpur",
    "statename": "RAJASTHAN"
  },
  {
    "pincode": "342001",
    "officename": "Lodi Daijran B.O",
    "officeType": "B.O",
    "Deliverystatus": "Delivery",
    "divisionname": "Jodhpur",
    "regionname": "Jodhpur",
    "circlename": "Rajasthan",
    "Taluk": "Jodhpur",
    "Districtname": "Jodhpur",
    "statename": "RAJASTHAN"
  },
  {
    "pincode": "342001",
    "officename": "Railway Office S.O",
    "officeType": "S.O",
    "Deliverystatus": "Non-Delivery",
    "divisionname": "Jodhpur",
    "regionname": "Jodhpur",
    "circlename": "Rajasthan",
    "Taluk": "Jodhpur",
    "Districtname": "Jodhpur",
    "statename": "RAJASTHAN"
  },
  {
    "pincode": "342001",
    "officename": "Siwanchi Gate S.O",
    "officeType": "S.O",
    "Deliverystatus": "Non-Delivery",
    "divisionname": "Jodhpur",
    "regionname": "Jodhpur",
    "circlename": "Rajasthan",
    "Taluk": "Jodhpur",
    "Districtname": "Jodhpur",
    "statename": "RAJASTHAN"
  },
  {
    "pincode": "342001",
    "officename": "Surani B.O",
    "officeType": "B.O",
    "Deliverystatus": "Delivery",
    "divisionname": "Jodhpur",
    "regionname": "Jodhpur",
    "circlename": "Rajasthan",
    "Taluk": "Jodhpur",
    "Districtname": "Jodhpur",
    "statename": "RAJASTHAN"
  }
]
