[
  {
    "pincode": "342309",
    "officename": "Barnau B.O",
    "officeType": "B.O",
    "Deliverystatus": "Delivery",
    "divisionname": "Jodhpur",
    "regionname": "Jodhpur",
    "circlename": "Rajasthan",
    "Taluk": "Peelwa",
    "Districtname": "Jodhpur",
    "statename": "RAJASTHAN"
  },
  {
    "pincode": "342309",
    "officename": "Bher B.O",
    "officeType": "B.O",
    "Deliverystatus": "Delivery",
    "divisionname": "Jodhpur",
    "regionname": "Jodhpur",
    "circlename": "Rajasthan",
    "Taluk": "Peelwa",
    "Districtname": "Jodhpur",
    "statename": "RAJASTHAN"
  },
  {
    "pincode": "342309",
    "officename": "Bhojakore B.O",
    "officeType": "B.O",
    "Deliverystatus": "Delivery",
    "divisionname": "Jodhpur",
    "regionname": "Jodhpur",
    "circlename": "Rajasthan",
    "Taluk": "Peelwa",
    "Districtname": "Jodhpur",
    "statename": "RAJASTHAN"
  },
  {
    "pincode": "342309",
    "officename": "Dayakore B.O",
    "officeType": "B.O",
    "Deliverystatus": "Delivery",
    "divisionname": "Jodhpur",
    "regionname": "Jodhpur",
    "circlename": "Rajasthan",
    "Taluk": "Peelwa",
    "Districtname": "Jodhpur",
    "statename": "RAJASTHAN"
  },
  {
    "pincode": "342309",
    "officename": "Gilakore B.O",
    "officeType": "B.O",
    "Deliverystatus": "Delivery",
    "divisionname": "Jodhpur",
    "regionname": "Jodhpur",
    "circlename": "Rajasthan",
    "Taluk": "Peelwa",
    "Districtname": "Jodhpur",
    "statename": "RAJASTHAN"
  },
  {
    "pincode": "342309",
    "officename": "Lorta Achalawatan B.O",
    "officeType": "B.O",
    "Deliverystatus": "Delivery",
    "divisionname": "Jodhpur",
    "regionname": "Jodhpur",
    "circlename": "Rajasthan",
    "Taluk": "Peelwa",
    "Districtname": "Jodhpur",
    "statename": "RAJASTHAN"
  },
  {
    "pincode": "342309",
    "officename": "Nathrau B.O",
    "officeType": "B.O",
    "Deliverystatus": "Delivery",
    "divisionname": "Jodhpur",
    "regionname": "Jodhpur",
    "circlename": "Rajasthan",
    "Taluk": "Peelwa",
    "Districtname": "Jodhpur",
    "statename": "RAJASTHAN"
  },
  {
    "pincode": "342309",
    "officename": "Peelwa S.O",
    "officeType": "S.O",
    "Deliverystatus": "Delivery",
    "divisionname": "Jodhpur",
    "regionname": "Jodhpur",
    "circlename": "Rajasthan",
    "Taluk": "Jodhpur",
    "Districtname": "Jodhpur",
    "statename": "RAJASTHAN"
  }
]
