[
  {
    "pincode": "342801",
    "officename": "Bhacharna B.O",
    "officeType": "B.O",
    "Deliverystatus": "Delivery",
    "divisionname": "Jodhpur",
    "regionname": "Jodhpur",
    "circlename": "Rajasthan",
    "Taluk": "Dunara",
    "Districtname": "Jodhpur",
    "statename": "RAJASTHAN"
  },
  {
    "pincode": "342801",
    "officename": "Dunara S.O",
    "officeType": "S.O",
    "Deliverystatus": "Delivery",
    "divisionname": "Jodhpur",
    "regionname": "Jodhpur",
    "circlename": "Rajasthan",
    "Taluk": "Jodhpur",
    "Districtname": "Jodhpur",
    "statename": "RAJASTHAN"
  },
  {
    "pincode": "342801",
    "officename": "Feench B.O",
    "officeType": "B.O",
    "Deliverystatus": "Delivery",
    "divisionname": "Jodhpur",
    "regionname": "Jodhpur",
    "circlename": "Rajasthan",
    "Taluk": "Dunara",
    "Districtname": "Jodhpur",
    "statename": "RAJASTHAN"
  },
  {
    "pincode": "342801",
    "officename": "Piparli B.O",
    "officeType": "B.O",
    "Deliverystatus": "Delivery",
    "divisionname": "Jodhpur",
    "regionname": "Jodhpur",
    "circlename": "Rajasthan",
    "Taluk": "Dunara",
    "Districtname": "Jodhpur",
    "statename": "RAJASTHAN"
  },
  {
    "pincode": "342801",
    "officename": "Rohicha Kallan B.O",
    "officeType": "B.O",
    "Deliverystatus": "Delivery",
    "divisionname": "Jodhpur",
    "regionname": "Jodhpur",
    "circlename": "Rajasthan",
    "Taluk": "Dunara",
    "Districtname": "Jodhpur",
    "statename": "RAJASTHAN"
  },
  {
    "pincode": "342801",
    "officename": "Rohicha Khurd B.O",
    "officeType": "B.O",
    "Deliverystatus": "Delivery",
    "divisionname": "Jodhpur",
    "regionname": "Jodhpur",
    "circlename": "Rajasthan",
    "Taluk": "Dunara",
    "Districtname": "Jodhpur",
    "statename": "RAJASTHAN"
  },
  {
    "pincode": "342801",
    "officename": "Sar B.O",
    "officeType": "B.O",
    "Deliverystatus": "Delivery",
    "divisionname": "Jodhpur",
    "regionname": "Jodhpur",
    "circlename": "Rajasthan",
    "Taluk": "Dunara",
    "Districtname": "Jodhpur",
    "statename": "RAJASTHAN"
  },
  {
    "pincode": "342801",
    "officename": "Sarecha B.O",
    "officeType": "B.O",
    "Deliverystatus": "Delivery",
    "divisionname": "Jodhpur",
    "regionname": "Jodhpur",
    "circlename": "Rajasthan",
    "Taluk": "Dunara",
    "Districtname": "Jodhpur",
    "statename": "RAJASTHAN"
  }
]
