[
  {
    "pincode": "343041",
    "officename": "Achalpur B.O",
    "officeType": "B.O",
    "Deliverystatus": "Delivery",
    "divisionname": "Sirohi",
    "regionname": "Jodhpur",
    "circlename": "Rajasthan",
    "Taluk": "",
    "Districtname": "Jalor",
    "statename": "RAJASTHAN"
  },
  {
    "pincode": "343041",
    "officename": "Akoli B.O",
    "officeType": "B.O",
    "Deliverystatus": "Delivery",
    "divisionname": "Sirohi",
    "regionname": "Jodhpur",
    "circlename": "Rajasthan",
    "Taluk": "",
    "Districtname": "Jalor",
    "statename": "RAJASTHAN"
  },
  {
    "pincode": "343041",
    "officename": "Arnay B.O",
    "officeType": "B.O",
    "Deliverystatus": "Delivery",
    "divisionname": "Sirohi",
    "regionname": "Jodhpur",
    "circlename": "Rajasthan",
    "Taluk": "",
    "Districtname": "Jalor",
    "statename": "RAJASTHAN"
  },
  {
    "pincode": "343041",
    "officename": "Balera B.O",
    "officeType": "B.O",
    "Deliverystatus": "Delivery",
    "divisionname": "Sirohi",
    "regionname": "Jodhpur",
    "circlename": "Rajasthan",
    "Taluk": "",
    "Districtname": "Jalor",
    "statename": "RAJASTHAN"
  },
  {
    "pincode": "343041",
    "officename": "Bawarla B.O",
    "officeType": "B.O",
    "Deliverystatus": "Delivery",
    "divisionname": "Sirohi",
    "regionname": "Jodhpur",
    "circlename": "Rajasthan",
    "Taluk": "",
    "Districtname": "Jalor",
    "statename": "RAJASTHAN"
  },
  {
    "pincode": "343041",
    "officename": "Bhadruna B.O",
    "officeType": "B.O",
    "Deliverystatus": "Delivery",
    "divisionname": "Sirohi",
    "regionname": "Jodhpur",
    "circlename": "Rajasthan",
    "Taluk": "",
    "Districtname": "Jalor",
    "statename": "RAJASTHAN"
  },
  {
    "pincode": "343041",
    "officename": "Bhadwal B.O",
    "officeType": "B.O",
    "Deliverystatus": "Delivery",
    "divisionname": "Sirohi",
    "regionname": "Jodhpur",
    "circlename": "Rajasthan",
    "Taluk": "",
    "Districtname": "Jalor",
    "statename": "RAJASTHAN"
  },
  {
    "pincode": "343041",
    "officename": "Bhawatra B.O",
    "officeType": "B.O",
    "Deliverystatus": "Delivery",
    "divisionname": "Sirohi",
    "regionname": "Jodhpur",
    "circlename": "Rajasthan",
    "Taluk": "",
    "Districtname": "Jalor",
    "statename": "RAJASTHAN"
  },
  {
    "pincode": "343041",
    "officename": "Bichhawadi B.O",
    "officeType": "B.O",
    "Deliverystatus": "Delivery",
    "divisionname": "Sirohi",
    "regionname": "Jodhpur",
    "circlename": "Rajasthan",
    "Taluk": "",
    "Districtname": "Jalor",
    "statename": "RAJASTHAN"
  },
  {
    "pincode": "343041",
    "officename": "Birol B.O",
    "officeType": "B.O",
    "Deliverystatus": "Delivery",
    "divisionname": "Sirohi",
    "regionname": "Jodhpur",
    "circlename": "Rajasthan",
    "Taluk": "",
    "Districtname": "Jalor",
    "statename": "RAJASTHAN"
  },
  {
    "pincode": "343041",
    "officename": "Chitalwana B.O",
    "officeType": "B.O",
    "Deliverystatus": "Delivery",
    "divisionname": "Sirohi",
    "regionname": "Jodhpur",
    "circlename": "Rajasthan",
    "Taluk": "",
    "Districtname": "Jalor",
    "statename": "RAJASTHAN"
  },
  {
    "pincode": "343041",
    "officename": "Chora B.O",
    "officeType": "B.O",
    "Deliverystatus": "Delivery",
    "divisionname": "Sirohi",
    "regionname": "Jodhpur",
    "circlename": "Rajasthan",
    "Taluk": "",
    "Districtname": "Jalor",
    "statename": "RAJASTHAN"
  },
  {
    "pincode": "343041",
    "officename": "Dabal B.O",
    "officeType": "B.O",
    "Deliverystatus": "Delivery",
    "divisionname": "Sirohi",
    "regionname": "Jodhpur",
    "circlename": "Rajasthan",
    "Taluk": "",
    "Districtname": "Jalor",
    "statename": "RAJASTHAN"
  },
  {
    "pincode": "343041",
    "officename": "Dhamana B.O",
    "officeType": "B.O",
    "Deliverystatus": "Delivery",
    "divisionname": "Sirohi",
    "regionname": "Jodhpur",
    "circlename": "Rajasthan",
    "Taluk": "",
    "Districtname": "Jalor",
    "statename": "RAJASTHAN"
  },
  {
    "pincode": "343041",
    "officename": "Dungri B.O",
    "officeType": "B.O",
    "Deliverystatus": "Delivery",
    "divisionname": "Sirohi",
    "regionname": "Jodhpur",
    "circlename": "Rajasthan",
    "Taluk": "",
    "Districtname": "Jalor",
    "statename": "RAJASTHAN"
  },
  {
    "pincode": "343041",
    "officename": "Duthwa B.O",
    "officeType": "B.O",
    "Deliverystatus": "Delivery",
    "divisionname": "Sirohi",
    "regionname": "Jodhpur",
    "circlename": "Rajasthan",
    "Taluk": "",
    "Districtname": "Jalor",
    "statename": "RAJASTHAN"
  },
  {
    "pincode": "343041",
    "officename": "Golasan B.O",
    "officeType": "B.O",
    "Deliverystatus": "Delivery",
    "divisionname": "Sirohi",
    "regionname": "Jodhpur",
    "circlename": "Rajasthan",
    "Taluk": "",
    "Districtname": "Jalor",
    "statename": "RAJASTHAN"
  },
  {
    "pincode": "343041",
    "officename": "Hadetar B.O",
    "officeType": "B.O",
    "Deliverystatus": "Delivery",
    "divisionname": "Sirohi",
    "regionname": "Jodhpur",
    "circlename": "Rajasthan",
    "Taluk": "",
    "Districtname": "Jalor",
    "statename": "RAJASTHAN"
  },
  {
    "pincode": "343041",
    "officename": "Hariyali B.O",
    "officeType": "B.O",
    "Deliverystatus": "Delivery",
    "divisionname": "Sirohi",
    "regionname": "Jodhpur",
    "circlename": "Rajasthan",
    "Taluk": "",
    "Districtname": "Jalor",
    "statename": "RAJASTHAN"
  },
  {
    "pincode": "343041",
    "officename": "Hotigaon B.O",
    "officeType": "B.O",
    "Deliverystatus": "Delivery",
    "divisionname": "Sirohi",
    "regionname": "Jodhpur",
    "circlename": "Rajasthan",
    "Taluk": "",
    "Districtname": "Jalor",
    "statename": "RAJASTHAN"
  },
  {
    "pincode": "343041",
    "officename": "Jakhal B.O",
    "officeType": "B.O",
    "Deliverystatus": "Delivery",
    "divisionname": "Sirohi",
    "regionname": "Jodhpur",
    "circlename": "Rajasthan",
    "Taluk": "",
    "Districtname": "Jalor",
    "statename": "RAJASTHAN"
  },
  {
    "pincode": "343041",
    "officename": "Karola B.O",
    "officeType": "B.O",
    "Deliverystatus": "Delivery",
    "divisionname": "Sirohi",
    "regionname": "Jodhpur",
    "circlename": "Rajasthan",
    "Taluk": "",
    "Districtname": "Jalor",
    "statename": "RAJASTHAN"
  },
  {
    "pincode": "343041",
    "officename": "Keriya B.O",
    "officeType": "B.O",
    "Deliverystatus": "Delivery",
    "divisionname": "Sirohi",
    "regionname": "Jodhpur",
    "circlename": "Rajasthan",
    "Taluk": "",
    "Districtname": "Jalor",
    "statename": "RAJASTHAN"
  },
  {
    "pincode": "343041",
    "officename": "Khara B.O",
    "officeType": "B.O",
    "Deliverystatus": "Delivery",
    "divisionname": "Sirohi",
    "regionname": "Jodhpur",
    "circlename": "Rajasthan",
    "Taluk": "",
    "Districtname": "Jalor",
    "statename": "RAJASTHAN"
  },
  {
    "pincode": "343041",
    "officename": "Luniyasar B.O",
    "officeType": "B.O",
    "Deliverystatus": "Delivery",
    "divisionname": "Sirohi",
    "regionname": "Jodhpur",
    "circlename": "Rajasthan",
    "Taluk": "",
    "Districtname": "Jalor",
    "statename": "RAJASTHAN"
  },
  {
    "pincode": "343041",
    "officename": "Nenol B.O",
    "officeType": "B.O",
    "Deliverystatus": "Delivery",
    "divisionname": "Sirohi",
    "regionname": "Jodhpur",
    "circlename": "Rajasthan",
    "Taluk": "Sanchore",
    "Districtname": "Jalor",
    "statename": "RAJASTHAN"
  },
  {
    "pincode": "343041",
    "officename": "Panchala B.O",
    "officeType": "B.O",
    "Deliverystatus": "Delivery",
    "divisionname": "Sirohi",
    "regionname": "Jodhpur",
    "circlename": "Rajasthan",
    "Taluk": "",
    "Districtname": "Jalor",
    "statename": "RAJASTHAN"
  },
  {
    "pincode": "343041",
    "officename": "Parawa B.O",
    "officeType": "B.O",
    "Deliverystatus": "Delivery",
    "divisionname": "Sirohi",
    "regionname": "Jodhpur",
    "circlename": "Rajasthan",
    "Taluk": "",
    "Districtname": "Jalor",
    "statename": "RAJASTHAN"
  },
  {
    "pincode": "343041",
    "officename": "Pur B.O",
    "officeType": "B.O",
    "Deliverystatus": "Delivery",
    "divisionname": "Sirohi",
    "regionname": "Jodhpur",
    "circlename": "Rajasthan",
    "Taluk": "",
    "Districtname": "Jalor",
    "statename": "RAJASTHAN"
  },
  {
    "pincode": "343041",
    "officename": "Ranodar B.O",
    "officeType": "B.O",
    "Deliverystatus": "Delivery",
    "divisionname": "Sirohi",
    "regionname": "Jodhpur",
    "circlename": "Rajasthan",
    "Taluk": "",
    "Districtname": "Jalor",
    "statename": "RAJASTHAN"
  },
  {
    "pincode": "343041",
    "officename": "Sanchore S.O",
    "officeType": "S.O",
    "Deliverystatus": "Delivery",
    "divisionname": "Sirohi",
    "regionname": "Jodhpur",
    "circlename": "Rajasthan",
    "Taluk": "Sanchore",
    "Districtname": "Jalor",
    "statename": "RAJASTHAN"
  },
  {
    "pincode": "343041",
    "officename": "Sarwana B.O",
    "officeType": "B.O",
    "Deliverystatus": "Delivery",
    "divisionname": "Sirohi",
    "regionname": "Jodhpur",
    "circlename": "Rajasthan",
    "Taluk": "",
    "Districtname": "Jalor",
    "statename": "RAJASTHAN"
  },
  {
    "pincode": "343041",
    "officename": "Sewara B.O",
    "officeType": "B.O",
    "Deliverystatus": "Delivery",
    "divisionname": "Sirohi",
    "regionname": "Jodhpur",
    "circlename": "Rajasthan",
    "Taluk": "",
    "Districtname": "Jalor",
    "statename": "RAJASTHAN"
  },
  {
    "pincode": "343041",
    "officename": "Surawa B.O",
    "officeType": "B.O",
    "Deliverystatus": "Delivery",
    "divisionname": "Sirohi",
    "regionname": "Jodhpur",
    "circlename": "Rajasthan",
    "Taluk": "",
    "Districtname": "Jalor",
    "statename": "RAJASTHAN"
  },
  {
    "pincode": "343041",
    "officename": "Veerawa B.O",
    "officeType": "B.O",
    "Deliverystatus": "Delivery",
    "divisionname": "Sirohi",
    "regionname": "Jodhpur",
    "circlename": "Rajasthan",
    "Taluk": "Sanchore",
    "Districtname": "Jalor",
    "statename": "RAJASTHAN"
  }
]
