[
  {
    "pincode": "343001",
    "officename": "Alasan B.O",
    "officeType": "B.O",
    "Deliverystatus": "Delivery",
    "divisionname": "Sirohi",
    "regionname": "Jodhpur",
    "circlename": "Rajasthan",
    "Taluk": "",
    "Districtname": "Jalor",
    "statename": "RAJASTHAN"
  },
  {
    "pincode": "343001",
    "officename": "Bhagli Sindhlan B.O",
    "officeType": "B.O",
    "Deliverystatus": "Delivery",
    "divisionname": "Sirohi",
    "regionname": "Jodhpur",
    "circlename": "Rajasthan",
    "Taluk": "",
    "Districtname": "Jalor",
    "statename": "RAJASTHAN"
  },
  {
    "pincode": "343001",
    "officename": "Chawarcha B.O",
    "officeType": "B.O",
    "Deliverystatus": "Delivery",
    "divisionname": "Sirohi",
    "regionname": "Jodhpur",
    "circlename": "Rajasthan",
    "Taluk": "",
    "Districtname": "Jalor",
    "statename": "RAJASTHAN"
  },
  {
    "pincode": "343001",
    "officename": "Harji B.O",
    "officeType": "B.O",
    "Deliverystatus": "Delivery",
    "divisionname": "Sirohi",
    "regionname": "Jodhpur",
    "circlename": "Rajasthan",
    "Taluk": "",
    "Districtname": "Jalor",
    "statename": "RAJASTHAN"
  },
  {
    "pincode": "343001",
    "officename": "Jalore Coll. S.O",
    "officeType": "S.O",
    "Deliverystatus": "Non-Delivery",
    "divisionname": "Sirohi",
    "regionname": "Jodhpur",
    "circlename": "Rajasthan",
    "Taluk": "Jalor",
    "Districtname": "Jalor",
    "statename": "RAJASTHAN"
  },
  {
    "pincode": "343001",
    "officename": "Jalore H.O",
    "officeType": "H.O",
    "Deliverystatus": "Delivery",
    "divisionname": "Sirohi",
    "regionname": "Jodhpur",
    "circlename": "Rajasthan",
    "Taluk": "Jalore",
    "Districtname": "Jalor",
    "statename": "RAJASTHAN"
  },
  {
    "pincode": "343001",
    "officename": "Jalore V.D.C. S.O",
    "officeType": "S.O",
    "Deliverystatus": "Non-Delivery",
    "divisionname": "Sirohi",
    "regionname": "Jodhpur",
    "circlename": "Rajasthan",
    "Taluk": "Jalor",
    "Districtname": "Jalor",
    "statename": "RAJASTHAN"
  },
  {
    "pincode": "343001",
    "officename": "Keshwana B.O",
    "officeType": "B.O",
    "Deliverystatus": "Delivery",
    "divisionname": "Sirohi",
    "regionname": "Jodhpur",
    "circlename": "Rajasthan",
    "Taluk": "",
    "Districtname": "Jalor",
    "statename": "RAJASTHAN"
  },
  {
    "pincode": "343001",
    "officename": "Leta B.O",
    "officeType": "B.O",
    "Deliverystatus": "Delivery",
    "divisionname": "Sirohi",
    "regionname": "Jodhpur",
    "circlename": "Rajasthan",
    "Taluk": "",
    "Districtname": "Jalor",
    "statename": "RAJASTHAN"
  },
  {
    "pincode": "343001",
    "officename": "Meda Uparla B.O",
    "officeType": "B.O",
    "Deliverystatus": "Delivery",
    "divisionname": "Sirohi",
    "regionname": "Jodhpur",
    "circlename": "Rajasthan",
    "Taluk": "",
    "Districtname": "Jalor",
    "statename": "RAJASTHAN"
  },
  {
    "pincode": "343001",
    "officename": "Rewatra B.O",
    "officeType": "B.O",
    "Deliverystatus": "Delivery",
    "divisionname": "Sirohi",
    "regionname": "Jodhpur",
    "circlename": "Rajasthan",
    "Taluk": "",
    "Districtname": "Jalor",
    "statename": "RAJASTHAN"
  },
  {
    "pincode": "343001",
    "officename": "Safada B.O",
    "officeType": "B.O",
    "Deliverystatus": "Delivery",
    "divisionname": "Sirohi",
    "regionname": "Jodhpur",
    "circlename": "Rajasthan",
    "Taluk": "",
    "Districtname": "Jalor",
    "statename": "RAJASTHAN"
  },
  {
    "pincode": "343001",
    "officename": "Samtipura B.O",
    "officeType": "B.O",
    "Deliverystatus": "Delivery",
    "divisionname": "Sirohi",
    "regionname": "Jodhpur",
    "circlename": "Rajasthan",
    "Taluk": "",
    "Districtname": "Jalor",
    "statename": "RAJASTHAN"
  },
  {
    "pincode": "343001",
    "officename": "Sankarna B.O",
    "officeType": "B.O",
    "Deliverystatus": "Delivery",
    "divisionname": "Sirohi",
    "regionname": "Jodhpur",
    "circlename": "Rajasthan",
    "Taluk": "",
    "Districtname": "Jalor",
    "statename": "RAJASTHAN"
  },
  {
    "pincode": "343001",
    "officename": "Thawla B.O",
    "officeType": "B.O",
    "Deliverystatus": "Delivery",
    "divisionname": "Sirohi",
    "regionname": "Jodhpur",
    "circlename": "Rajasthan",
    "Taluk": "",
    "Districtname": "Jalor",
    "statename": "RAJASTHAN"
  },
  {
    "pincode": "343001",
    "officename": "Unn B.O",
    "officeType": "B.O",
    "Deliverystatus": "Delivery",
    "divisionname": "Sirohi",
    "regionname": "Jodhpur",
    "circlename": "Rajasthan",
    "Taluk": "",
    "Districtname": "Jalor",
    "statename": "RAJASTHAN"
  },
  {
    "pincode": "343001",
    "officename": "Veerana B.O",
    "officeType": "B.O",
    "Deliverystatus": "Delivery",
    "divisionname": "Sirohi",
    "regionname": "Jodhpur",
    "circlename": "Rajasthan",
    "Taluk": "",
    "Districtname": "Jalor",
    "statename": "RAJASTHAN"
  }
]
