[
  {
    "pincode": "343025",
    "officename": "Akoli B.O",
    "officeType": "B.O",
    "Deliverystatus": "Delivery",
    "divisionname": "Sirohi",
    "regionname": "Jodhpur",
    "circlename": "Rajasthan",
    "Taluk": "Sanchore",
    "Districtname": "Jalor",
    "statename": "RAJASTHAN"
  },
  {
    "pincode": "343025",
    "officename": "Bagra S.O",
    "officeType": "S.O",
    "Deliverystatus": "Delivery",
    "divisionname": "Sirohi",
    "regionname": "Jodhpur",
    "circlename": "Rajasthan",
    "Taluk": "Jalore",
    "Districtname": "Jalor",
    "statename": "RAJASTHAN"
  },
  {
    "pincode": "343025",
    "officename": "Bakra B.O",
    "officeType": "B.O",
    "Deliverystatus": "Delivery",
    "divisionname": "Sirohi",
    "regionname": "Jodhpur",
    "circlename": "Rajasthan",
    "Taluk": "",
    "Districtname": "Jalor",
    "statename": "RAJASTHAN"
  },
  {
    "pincode": "343025",
    "officename": "Bakra Road B.O",
    "officeType": "B.O",
    "Deliverystatus": "Delivery",
    "divisionname": "Sirohi",
    "regionname": "Jodhpur",
    "circlename": "Rajasthan",
    "Taluk": "",
    "Districtname": "Jalor",
    "statename": "RAJASTHAN"
  },
  {
    "pincode": "343025",
    "officename": "Berath B.O",
    "officeType": "B.O",
    "Deliverystatus": "Delivery",
    "divisionname": "Sirohi",
    "regionname": "Jodhpur",
    "circlename": "Rajasthan",
    "Taluk": "",
    "Districtname": "Jalor",
    "statename": "RAJASTHAN"
  },
  {
    "pincode": "343025",
    "officename": "Bibalsar B.O",
    "officeType": "B.O",
    "Deliverystatus": "Delivery",
    "divisionname": "Sirohi",
    "regionname": "Jodhpur",
    "circlename": "Rajasthan",
    "Taluk": "",
    "Districtname": "Jalor",
    "statename": "RAJASTHAN"
  },
  {
    "pincode": "343025",
    "officename": "Chura B.O",
    "officeType": "B.O",
    "Deliverystatus": "Delivery",
    "divisionname": "Sirohi",
    "regionname": "Jodhpur",
    "circlename": "Rajasthan",
    "Taluk": "",
    "Districtname": "Jalor",
    "statename": "RAJASTHAN"
  },
  {
    "pincode": "343025",
    "officename": "Dakatra B.O",
    "officeType": "B.O",
    "Deliverystatus": "Delivery",
    "divisionname": "Sirohi",
    "regionname": "Jodhpur",
    "circlename": "Rajasthan",
    "Taluk": "",
    "Districtname": "Jalor",
    "statename": "RAJASTHAN"
  },
  {
    "pincode": "343025",
    "officename": "Degaon B.O",
    "officeType": "B.O",
    "Deliverystatus": "Delivery",
    "divisionname": "Sirohi",
    "regionname": "Jodhpur",
    "circlename": "Rajasthan",
    "Taluk": "",
    "Districtname": "Jalor",
    "statename": "RAJASTHAN"
  },
  {
    "pincode": "343025",
    "officename": "Doodsi B.O",
    "officeType": "B.O",
    "Deliverystatus": "Delivery",
    "divisionname": "Sirohi",
    "regionname": "Jodhpur",
    "circlename": "Rajasthan",
    "Taluk": "",
    "Districtname": "Jalor",
    "statename": "RAJASTHAN"
  },
  {
    "pincode": "343025",
    "officename": "Madgaon B.O",
    "officeType": "B.O",
    "Deliverystatus": "Delivery",
    "divisionname": "Sirohi",
    "regionname": "Jodhpur",
    "circlename": "Rajasthan",
    "Taluk": "Jalor",
    "Districtname": "Jalor",
    "statename": "RAJASTHAN"
  },
  {
    "pincode": "343025",
    "officename": "Narnawas B.O",
    "officeType": "B.O",
    "Deliverystatus": "Delivery",
    "divisionname": "Sirohi",
    "regionname": "Jodhpur",
    "circlename": "Rajasthan",
    "Taluk": "",
    "Districtname": "Jalor",
    "statename": "RAJASTHAN"
  },
  {
    "pincode": "343025",
    "officename": "Noon B.O",
    "officeType": "B.O",
    "Deliverystatus": "Delivery",
    "divisionname": "Sirohi",
    "regionname": "Jodhpur",
    "circlename": "Rajasthan",
    "Taluk": "",
    "Districtname": "Jalor",
    "statename": "RAJASTHAN"
  },
  {
    "pincode": "343025",
    "officename": "Santhu B.O",
    "officeType": "B.O",
    "Deliverystatus": "Delivery",
    "divisionname": "Sirohi",
    "regionname": "Jodhpur",
    "circlename": "Rajasthan",
    "Taluk": "",
    "Districtname": "Jalor",
    "statename": "RAJASTHAN"
  },
  {
    "pincode": "343025",
    "officename": "Sarat B.O",
    "officeType": "B.O",
    "Deliverystatus": "Delivery",
    "divisionname": "Sirohi",
    "regionname": "Jodhpur",
    "circlename": "Rajasthan",
    "Taluk": "",
    "Districtname": "Jalor",
    "statename": "RAJASTHAN"
  }
]
