[
  {
    "pincode": "343032",
    "officename": "Bagoda S.O",
    "officeType": "S.O",
    "Deliverystatus": "Delivery",
    "divisionname": "Sirohi",
    "regionname": "Jodhpur",
    "circlename": "Rajasthan",
    "Taluk": "Jalore",
    "Districtname": "Jalor",
    "statename": "RAJASTHAN"
  },
  {
    "pincode": "343032",
    "officename": "Chenpura B.O",
    "officeType": "B.O",
    "Deliverystatus": "Delivery",
    "divisionname": "Sirohi",
    "regionname": "Jodhpur",
    "circlename": "Rajasthan",
    "Taluk": "",
    "Districtname": "Jalor",
    "statename": "RAJASTHAN"
  },
  {
    "pincode": "343032",
    "officename": "Dadal B.O",
    "officeType": "B.O",
    "Deliverystatus": "Delivery",
    "divisionname": "Sirohi",
    "regionname": "Jodhpur",
    "circlename": "Rajasthan",
    "Taluk": "",
    "Districtname": "Jalor",
    "statename": "RAJASTHAN"
  },
  {
    "pincode": "343032",
    "officename": "Detakalan B.O",
    "officeType": "B.O",
    "Deliverystatus": "Delivery",
    "divisionname": "Sirohi",
    "regionname": "Jodhpur",
    "circlename": "Rajasthan",
    "Taluk": "",
    "Districtname": "Jalor",
    "statename": "RAJASTHAN"
  },
  {
    "pincode": "343032",
    "officename": "Jaisawas B.O",
    "officeType": "B.O",
    "Deliverystatus": "Delivery",
    "divisionname": "Sirohi",
    "regionname": "Jodhpur",
    "circlename": "Rajasthan",
    "Taluk": "",
    "Districtname": "Jalor",
    "statename": "RAJASTHAN"
  },
  {
    "pincode": "343032",
    "officename": "Koridhawecha B.O",
    "officeType": "B.O",
    "Deliverystatus": "Delivery",
    "divisionname": "Sirohi",
    "regionname": "Jodhpur",
    "circlename": "Rajasthan",
    "Taluk": "",
    "Districtname": "Jalor",
    "statename": "RAJASTHAN"
  },
  {
    "pincode": "343032",
    "officename": "Morseem B.O",
    "officeType": "B.O",
    "Deliverystatus": "Delivery",
    "divisionname": "Sirohi",
    "regionname": "Jodhpur",
    "circlename": "Rajasthan",
    "Taluk": "",
    "Districtname": "Jalor",
    "statename": "RAJASTHAN"
  },
  {
    "pincode": "343032",
    "officename": "Nandia B.O",
    "officeType": "B.O",
    "Deliverystatus": "Delivery",
    "divisionname": "Sirohi",
    "regionname": "Jodhpur",
    "circlename": "Rajasthan",
    "Taluk": "",
    "Districtname": "Jalor",
    "statename": "RAJASTHAN"
  },
  {
    "pincode": "343032",
    "officename": "Rangala B.O",
    "officeType": "B.O",
    "Deliverystatus": "Delivery",
    "divisionname": "Sirohi",
    "regionname": "Jodhpur",
    "circlename": "Rajasthan",
    "Taluk": "",
    "Districtname": "Jalor",
    "statename": "RAJASTHAN"
  },
  {
    "pincode": "343032",
    "officename": "Raota B.O",
    "officeType": "B.O",
    "Deliverystatus": "Delivery",
    "divisionname": "Sirohi",
    "regionname": "Jodhpur",
    "circlename": "Rajasthan",
    "Taluk": "Bagora",
    "Districtname": "Jalor",
    "statename": "RAJASTHAN"
  },
  {
    "pincode": "343032",
    "officename": "Surana B.O",
    "officeType": "B.O",
    "Deliverystatus": "Delivery",
    "divisionname": "Sirohi",
    "regionname": "Jodhpur",
    "circlename": "Rajasthan",
    "Taluk": "",
    "Districtname": "Jalor",
    "statename": "RAJASTHAN"
  },
  {
    "pincode": "343032",
    "officename": "Tiloda B.O",
    "officeType": "B.O",
    "Deliverystatus": "Delivery",
    "divisionname": "Sirohi",
    "regionname": "Jodhpur",
    "circlename": "Rajasthan",
    "Taluk": "",
    "Districtname": "Jalor",
    "statename": "RAJASTHAN"
  }
]
