[
  {
    "pincode": "343042",
    "officename": "Anwloj B.O",
    "officeType": "B.O",
    "Deliverystatus": "Delivery",
    "divisionname": "Sirohi",
    "regionname": "Jodhpur",
    "circlename": "Rajasthan",
    "Taluk": "",
    "Districtname": "Jalor",
    "statename": "RAJASTHAN"
  },
  {
    "pincode": "343042",
    "officename": "Balwara B.O",
    "officeType": "B.O",
    "Deliverystatus": "Delivery",
    "divisionname": "Sirohi",
    "regionname": "Jodhpur",
    "circlename": "Rajasthan",
    "Taluk": "",
    "Districtname": "Jalor",
    "statename": "RAJASTHAN"
  },
  {
    "pincode": "343042",
    "officename": "Bhawrani B.O",
    "officeType": "B.O",
    "Deliverystatus": "Delivery",
    "divisionname": "Sirohi",
    "regionname": "Jodhpur",
    "circlename": "Rajasthan",
    "Taluk": "",
    "Districtname": "Jalor",
    "statename": "RAJASTHAN"
  },
  {
    "pincode": "343042",
    "officename": "Bishangarh B.O",
    "officeType": "B.O",
    "Deliverystatus": "Delivery",
    "divisionname": "Sirohi",
    "regionname": "Jodhpur",
    "circlename": "Rajasthan",
    "Taluk": "",
    "Districtname": "Jalor",
    "statename": "RAJASTHAN"
  },
  {
    "pincode": "343042",
    "officename": "Debawas B.O",
    "officeType": "B.O",
    "Deliverystatus": "Delivery",
    "divisionname": "Sirohi",
    "regionname": "Jodhpur",
    "circlename": "Rajasthan",
    "Taluk": "",
    "Districtname": "Jalor",
    "statename": "RAJASTHAN"
  },
  {
    "pincode": "343042",
    "officename": "Mandwala S.O",
    "officeType": "S.O",
    "Deliverystatus": "Delivery",
    "divisionname": "Sirohi",
    "regionname": "Jodhpur",
    "circlename": "Rajasthan",
    "Taluk": "Jalor",
    "Districtname": "Jalor",
    "statename": "RAJASTHAN"
  },
  {
    "pincode": "343042",
    "officename": "Odwara B.O",
    "officeType": "B.O",
    "Deliverystatus": "Delivery",
    "divisionname": "Sirohi",
    "regionname": "Jodhpur",
    "circlename": "Rajasthan",
    "Taluk": "",
    "Districtname": "Jalor",
    "statename": "RAJASTHAN"
  },
  {
    "pincode": "343042",
    "officename": "Raithal B.O",
    "officeType": "B.O",
    "Deliverystatus": "Delivery",
    "divisionname": "Sirohi",
    "regionname": "Jodhpur",
    "circlename": "Rajasthan",
    "Taluk": "",
    "Districtname": "Jalor",
    "statename": "RAJASTHAN"
  },
  {
    "pincode": "343042",
    "officename": "Sarana B.O",
    "officeType": "B.O",
    "Deliverystatus": "Delivery",
    "divisionname": "Sirohi",
    "regionname": "Jodhpur",
    "circlename": "Rajasthan",
    "Taluk": "",
    "Districtname": "Jalor",
    "statename": "RAJASTHAN"
  },
  {
    "pincode": "343042",
    "officename": "Tikhi B.O",
    "officeType": "B.O",
    "Deliverystatus": "Delivery",
    "divisionname": "Sirohi",
    "regionname": "Jodhpur",
    "circlename": "Rajasthan",
    "Taluk": "",
    "Districtname": "Jalor",
    "statename": "RAJASTHAN"
  }
]
