[
  {
    "pincode": "344011",
    "officename": "Adarsh Basti B.O",
    "officeType": "B.O",
    "Deliverystatus": "Delivery",
    "divisionname": "Barmer",
    "regionname": "Jodhpur",
    "circlename": "Rajasthan",
    "Taluk": "Bishala",
    "Districtname": "Barmer",
    "statename": "RAJASTHAN"
  },
  {
    "pincode": "344011",
    "officename": "Asadi B.O",
    "officeType": "B.O",
    "Deliverystatus": "Delivery",
    "divisionname": "Barmer",
    "regionname": "Jodhpur",
    "circlename": "Rajasthan",
    "Taluk": "Bishala",
    "Districtname": "Barmer",
    "statename": "RAJASTHAN"
  },
  {
    "pincode": "344011",
    "officename": "Balewa B.O",
    "officeType": "B.O",
    "Deliverystatus": "Delivery",
    "divisionname": "Barmer",
    "regionname": "Jodhpur",
    "circlename": "Rajasthan",
    "Taluk": "Bishala",
    "Districtname": "Barmer",
    "statename": "RAJASTHAN"
  },
  {
    "pincode": "344011",
    "officename": "Bandhada B.O",
    "officeType": "B.O",
    "Deliverystatus": "Delivery",
    "divisionname": "Barmer",
    "regionname": "Jodhpur",
    "circlename": "Rajasthan",
    "Taluk": "Bishala",
    "Districtname": "Barmer",
    "statename": "RAJASTHAN"
  },
  {
    "pincode": "344011",
    "officename": "Bhadresh B.O",
    "officeType": "B.O",
    "Deliverystatus": "Delivery",
    "divisionname": "Barmer",
    "regionname": "Jodhpur",
    "circlename": "Rajasthan",
    "Taluk": "Bishala",
    "Districtname": "Barmer",
    "statename": "RAJASTHAN"
  },
  {
    "pincode": "344011",
    "officename": "Bishala Agore B.O",
    "officeType": "B.O",
    "Deliverystatus": "Delivery",
    "divisionname": "Barmer",
    "regionname": "Jodhpur",
    "circlename": "Rajasthan",
    "Taluk": "Bishala",
    "Districtname": "Barmer",
    "statename": "RAJASTHAN"
  },
  {
    "pincode": "344011",
    "officename": "Bishala S.O",
    "officeType": "S.O",
    "Deliverystatus": "Delivery",
    "divisionname": "Barmer",
    "regionname": "Jodhpur",
    "circlename": "Rajasthan",
    "Taluk": "Bishala",
    "Districtname": "Barmer",
    "statename": "RAJASTHAN"
  },
  {
    "pincode": "344011",
    "officename": "Chetrodi B.O",
    "officeType": "B.O",
    "Deliverystatus": "Delivery",
    "divisionname": "Barmer",
    "regionname": "Jodhpur",
    "circlename": "Rajasthan",
    "Taluk": "Bishala",
    "Districtname": "Barmer",
    "statename": "RAJASTHAN"
  },
  {
    "pincode": "344011",
    "officename": "Chuli B.O",
    "officeType": "B.O",
    "Deliverystatus": "Delivery",
    "divisionname": "Barmer",
    "regionname": "Jodhpur",
    "circlename": "Rajasthan",
    "Taluk": "Bishala",
    "Districtname": "Barmer",
    "statename": "RAJASTHAN"
  },
  {
    "pincode": "344011",
    "officename": "Dabar B.O",
    "officeType": "B.O",
    "Deliverystatus": "Delivery",
    "divisionname": "Barmer",
    "regionname": "Jodhpur",
    "circlename": "Rajasthan",
    "Taluk": "Bishala",
    "Districtname": "Barmer",
    "statename": "RAJASTHAN"
  },
  {
    "pincode": "344011",
    "officename": "Fogera B.O",
    "officeType": "B.O",
    "Deliverystatus": "Delivery",
    "divisionname": "Barmer",
    "regionname": "Jodhpur",
    "circlename": "Rajasthan",
    "Taluk": "Bishala",
    "Districtname": "Barmer",
    "statename": "RAJASTHAN"
  },
  {
    "pincode": "344011",
    "officename": "Girab B.O",
    "officeType": "B.O",
    "Deliverystatus": "Delivery",
    "divisionname": "Barmer",
    "regionname": "Jodhpur",
    "circlename": "Rajasthan",
    "Taluk": "Bishala",
    "Districtname": "Barmer",
    "statename": "RAJASTHAN"
  },
  {
    "pincode": "344011",
    "officename": "Harsani B.O",
    "officeType": "B.O",
    "Deliverystatus": "Delivery",
    "divisionname": "Barmer",
    "regionname": "Jodhpur",
    "circlename": "Rajasthan",
    "Taluk": "Bishala",
    "Districtname": "Barmer",
    "statename": "RAJASTHAN"
  },
  {
    "pincode": "344011",
    "officename": "Lunukhurd B.O",
    "officeType": "B.O",
    "Deliverystatus": "Delivery",
    "divisionname": "Barmer",
    "regionname": "Jodhpur",
    "circlename": "Rajasthan",
    "Taluk": "Bishala",
    "Districtname": "Barmer",
    "statename": "RAJASTHAN"
  },
  {
    "pincode": "344011",
    "officename": "Malwa B.O",
    "officeType": "B.O",
    "Deliverystatus": "Delivery",
    "divisionname": "Barmer",
    "regionname": "Jodhpur",
    "circlename": "Rajasthan",
    "Taluk": "Bishala",
    "Districtname": "Barmer",
    "statename": "RAJASTHAN"
  },
  {
    "pincode": "344011",
    "officename": "Nand B.O",
    "officeType": "B.O",
    "Deliverystatus": "Delivery",
    "divisionname": "Barmer",
    "regionname": "Jodhpur",
    "circlename": "Rajasthan",
    "Taluk": "Bishala",
    "Districtname": "Barmer",
    "statename": "RAJASTHAN"
  },
  {
    "pincode": "344011",
    "officename": "Sura B.O",
    "officeType": "B.O",
    "Deliverystatus": "Delivery",
    "divisionname": "Barmer",
    "regionname": "Jodhpur",
    "circlename": "Rajasthan",
    "Taluk": "Bishala",
    "Districtname": "Barmer",
    "statename": "RAJASTHAN"
  },
  {
    "pincode": "344011",
    "officename": "Unroad B.O",
    "officeType": "B.O",
    "Deliverystatus": "Delivery",
    "divisionname": "Barmer",
    "regionname": "Jodhpur",
    "circlename": "Rajasthan",
    "Taluk": "Bishala",
    "Districtname": "Barmer",
    "statename": "RAJASTHAN"
  }
]
