[
  {
    "pincode": "344037",
    "officename": "Gida B.O",
    "officeType": "B.O",
    "Deliverystatus": "Delivery",
    "divisionname": "Barmer",
    "regionname": "Jodhpur",
    "circlename": "Rajasthan",
    "Taluk": "Swau Padamsingh",
    "Districtname": "Barmer",
    "statename": "RAJASTHAN"
  },
  {
    "pincode": "344037",
    "officename": "Hire Ki Dhani B.O",
    "officeType": "B.O",
    "Deliverystatus": "Delivery",
    "divisionname": "Barmer",
    "regionname": "Jodhpur",
    "circlename": "Rajasthan",
    "Taluk": "Swau Padamsingh",
    "Districtname": "Barmer",
    "statename": "RAJASTHAN"
  },
  {
    "pincode": "344037",
    "officename": "Jajwa B.O",
    "officeType": "B.O",
    "Deliverystatus": "Delivery",
    "divisionname": "Barmer",
    "regionname": "Jodhpur",
    "circlename": "Rajasthan",
    "Taluk": "Swau Padamsingh",
    "Districtname": "Barmer",
    "statename": "RAJASTHAN"
  },
  {
    "pincode": "344037",
    "officename": "Jakhada B.O",
    "officeType": "B.O",
    "Deliverystatus": "Delivery",
    "divisionname": "Barmer",
    "regionname": "Jodhpur",
    "circlename": "Rajasthan",
    "Taluk": "Swau Padamsingh",
    "Districtname": "Barmer",
    "statename": "RAJASTHAN"
  },
  {
    "pincode": "344037",
    "officename": "Keshumbla Bhatian B.O",
    "officeType": "B.O",
    "Deliverystatus": "Delivery",
    "divisionname": "Barmer",
    "regionname": "Jodhpur",
    "circlename": "Rajasthan",
    "Taluk": "Swau Padamsingh",
    "Districtname": "Barmer",
    "statename": "RAJASTHAN"
  },
  {
    "pincode": "344037",
    "officename": "Khimpsar B.O",
    "officeType": "B.O",
    "Deliverystatus": "Delivery",
    "divisionname": "Barmer",
    "regionname": "Jodhpur",
    "circlename": "Rajasthan",
    "Taluk": "Swaupadamsingh",
    "Districtname": "Barmer",
    "statename": "RAJASTHAN"
  },
  {
    "pincode": "344037",
    "officename": "Lapundara Tarli B.O",
    "officeType": "B.O",
    "Deliverystatus": "Delivery",
    "divisionname": "Barmer",
    "regionname": "Jodhpur",
    "circlename": "Rajasthan",
    "Taluk": "Swau Padamsingh",
    "Districtname": "Barmer",
    "statename": "RAJASTHAN"
  },
  {
    "pincode": "344037",
    "officename": "Manpura Kharda B.O",
    "officeType": "B.O",
    "Deliverystatus": "Delivery",
    "divisionname": "Barmer",
    "regionname": "Jodhpur",
    "circlename": "Rajasthan",
    "Taluk": "Swau Padamsingh",
    "Districtname": "Barmer",
    "statename": "RAJASTHAN"
  },
  {
    "pincode": "344037",
    "officename": "Punion Ka Tala B.O",
    "officeType": "B.O",
    "Deliverystatus": "Delivery",
    "divisionname": "Barmer",
    "regionname": "Jodhpur",
    "circlename": "Rajasthan",
    "Taluk": "Swau Padamsingh",
    "Districtname": "Barmer",
    "statename": "RAJASTHAN"
  },
  {
    "pincode": "344037",
    "officename": "Shahar B.O",
    "officeType": "B.O",
    "Deliverystatus": "Delivery",
    "divisionname": "Barmer",
    "regionname": "Jodhpur",
    "circlename": "Rajasthan",
    "Taluk": "Swau Padamsingh",
    "Districtname": "Barmer",
    "statename": "RAJASTHAN"
  },
  {
    "pincode": "344037",
    "officename": "Shohda B.O",
    "officeType": "B.O",
    "Deliverystatus": "Delivery",
    "divisionname": "Barmer",
    "regionname": "Jodhpur",
    "circlename": "Rajasthan",
    "Taluk": "Swau Padamsingh",
    "Districtname": "Barmer",
    "statename": "RAJASTHAN"
  },
  {
    "pincode": "344037",
    "officename": "Swau Moolraj B.O",
    "officeType": "B.O",
    "Deliverystatus": "Delivery",
    "divisionname": "Barmer",
    "regionname": "Jodhpur",
    "circlename": "Rajasthan",
    "Taluk": "Swau Padamsingh",
    "Districtname": "Barmer",
    "statename": "RAJASTHAN"
  },
  {
    "pincode": "344037",
    "officename": "Swau Padamsingh S.O",
    "officeType": "S.O",
    "Deliverystatus": "Delivery",
    "divisionname": "Barmer",
    "regionname": "Jodhpur",
    "circlename": "Rajasthan",
    "Taluk": "Swau Padamsingh",
    "Districtname": "Barmer",
    "statename": "RAJASTHAN"
  }
]
