[
  {
    "pincode": "344502",
    "officename": "Abhey Ka Par B.O",
    "officeType": "B.O",
    "Deliverystatus": "Delivery",
    "divisionname": "Barmer",
    "regionname": "Jodhpur",
    "circlename": "Rajasthan",
    "Taluk": "Ramsar",
    "Districtname": "Barmer",
    "statename": "RAJASTHAN"
  },
  {
    "pincode": "344502",
    "officename": "Babuguleria B.O",
    "officeType": "B.O",
    "Deliverystatus": "Delivery",
    "divisionname": "Barmer",
    "regionname": "Jodhpur",
    "circlename": "Rajasthan",
    "Taluk": "Ramsar",
    "Districtname": "Barmer",
    "statename": "RAJASTHAN"
  },
  {
    "pincode": "344502",
    "officename": "Bhachbhar B.O",
    "officeType": "B.O",
    "Deliverystatus": "Delivery",
    "divisionname": "Barmer",
    "regionname": "Jodhpur",
    "circlename": "Rajasthan",
    "Taluk": "Ramsar",
    "Districtname": "Barmer",
    "statename": "RAJASTHAN"
  },
  {
    "pincode": "344502",
    "officename": "Bhilon Ka Par B.O",
    "officeType": "B.O",
    "Deliverystatus": "Delivery",
    "divisionname": "Barmer",
    "regionname": "Jodhpur",
    "circlename": "Rajasthan",
    "Taluk": "Ramsar",
    "Districtname": "Barmer",
    "statename": "RAJASTHAN"
  },
  {
    "pincode": "344502",
    "officename": "Bukar B.O",
    "officeType": "B.O",
    "Deliverystatus": "Delivery",
    "divisionname": "Barmer",
    "regionname": "Jodhpur",
    "circlename": "Rajasthan",
    "Taluk": "Ramsar",
    "Districtname": "Barmer",
    "statename": "RAJASTHAN"
  },
  {
    "pincode": "344502",
    "officename": "Chadi B.O",
    "officeType": "B.O",
    "Deliverystatus": "Delivery",
    "divisionname": "Barmer",
    "regionname": "Jodhpur",
    "circlename": "Rajasthan",
    "Taluk": "Ramsar",
    "Districtname": "Barmer",
    "statename": "RAJASTHAN"
  },
  {
    "pincode": "344502",
    "officename": "Detani B.O",
    "officeType": "B.O",
    "Deliverystatus": "Delivery",
    "divisionname": "Barmer",
    "regionname": "Jodhpur",
    "circlename": "Rajasthan",
    "Taluk": "Ramsar",
    "Districtname": "Barmer",
    "statename": "RAJASTHAN"
  },
  {
    "pincode": "344502",
    "officename": "Gagaria B.O",
    "officeType": "B.O",
    "Deliverystatus": "Delivery",
    "divisionname": "Barmer",
    "regionname": "Jodhpur",
    "circlename": "Rajasthan",
    "Taluk": "Ramsar",
    "Districtname": "Barmer",
    "statename": "RAJASTHAN"
  },
  {
    "pincode": "344502",
    "officename": "Gardia B.O",
    "officeType": "B.O",
    "Deliverystatus": "Delivery",
    "divisionname": "Barmer",
    "regionname": "Jodhpur",
    "circlename": "Rajasthan",
    "Taluk": "Ramsar",
    "Districtname": "Barmer",
    "statename": "RAJASTHAN"
  },
  {
    "pincode": "344502",
    "officename": "Kachhabe Ki Dhani B.O",
    "officeType": "B.O",
    "Deliverystatus": "Delivery",
    "divisionname": "Barmer",
    "regionname": "Jodhpur",
    "circlename": "Rajasthan",
    "Taluk": "Ramsar",
    "Districtname": "Barmer",
    "statename": "RAJASTHAN"
  },
  {
    "pincode": "344502",
    "officename": "Kantal Ka Par B.O",
    "officeType": "B.O",
    "Deliverystatus": "Delivery",
    "divisionname": "Barmer",
    "regionname": "Jodhpur",
    "circlename": "Rajasthan",
    "Taluk": "Ramsar",
    "Districtname": "Barmer",
    "statename": "RAJASTHAN"
  },
  {
    "pincode": "344502",
    "officename": "Kharchi B.O",
    "officeType": "B.O",
    "Deliverystatus": "Delivery",
    "divisionname": "Barmer",
    "regionname": "Jodhpur",
    "circlename": "Rajasthan",
    "Taluk": "Ramsar",
    "Districtname": "Barmer",
    "statename": "RAJASTHAN"
  },
  {
    "pincode": "344502",
    "officename": "Kharia Kallan B.O",
    "officeType": "B.O",
    "Deliverystatus": "Delivery",
    "divisionname": "Barmer",
    "regionname": "Jodhpur",
    "circlename": "Rajasthan",
    "Taluk": "Ramsar",
    "Districtname": "Barmer",
    "statename": "RAJASTHAN"
  },
  {
    "pincode": "344502",
    "officename": "Pandhi Ka Par B.O",
    "officeType": "B.O",
    "Deliverystatus": "Delivery",
    "divisionname": "Barmer",
    "regionname": "Jodhpur",
    "circlename": "Rajasthan",
    "Taluk": "Ramsar",
    "Districtname": "Barmer",
    "statename": "RAJASTHAN"
  },
  {
    "pincode": "344502",
    "officename": "Ramsar S.O (Barmer)",
    "officeType": "S.O",
    "Deliverystatus": "Delivery",
    "divisionname": "Barmer",
    "regionname": "Jodhpur",
    "circlename": "Rajasthan",
    "Taluk": "Ramsar",
    "Districtname": "Barmer",
    "statename": "RAJASTHAN"
  },
  {
    "pincode": "344502",
    "officename": "Ranasar B.O",
    "officeType": "B.O",
    "Deliverystatus": "Delivery",
    "divisionname": "Barmer",
    "regionname": "Jodhpur",
    "circlename": "Rajasthan",
    "Taluk": "Ramsar",
    "Districtname": "Barmer",
    "statename": "RAJASTHAN"
  },
  {
    "pincode": "344502",
    "officename": "Sajan Ka Par B.O",
    "officeType": "B.O",
    "Deliverystatus": "Delivery",
    "divisionname": "Barmer",
    "regionname": "Jodhpur",
    "circlename": "Rajasthan",
    "Taluk": "Ramsar",
    "Districtname": "Barmer",
    "statename": "RAJASTHAN"
  },
  {
    "pincode": "344502",
    "officename": "Setrau B.O",
    "officeType": "B.O",
    "Deliverystatus": "Delivery",
    "divisionname": "Barmer",
    "regionname": "Jodhpur",
    "circlename": "Rajasthan",
    "Taluk": "Ramsar",
    "Districtname": "Barmer",
    "statename": "RAJASTHAN"
  },
  {
    "pincode": "344502",
    "officename": "Tamliyar B.O",
    "officeType": "B.O",
    "Deliverystatus": "Delivery",
    "divisionname": "Barmer",
    "regionname": "Jodhpur",
    "circlename": "Rajasthan",
    "Taluk": "Ramsar",
    "Districtname": "Barmer",
    "statename": "RAJASTHAN"
  }
]
