[
  {
    "pincode": "344703",
    "officename": "Borwa B.O",
    "officeType": "B.O",
    "Deliverystatus": "Delivery",
    "divisionname": "Barmer",
    "regionname": "Jodhpur",
    "circlename": "Rajasthan",
    "Taluk": "Rawatsar",
    "Districtname": "Barmer",
    "statename": "RAJASTHAN"
  },
  {
    "pincode": "344703",
    "officename": "Chawa B.O",
    "officeType": "B.O",
    "Deliverystatus": "Delivery",
    "divisionname": "Barmer",
    "regionname": "Jodhpur",
    "circlename": "Rajasthan",
    "Taluk": "Rawatsar",
    "Districtname": "Barmer",
    "statename": "RAJASTHAN"
  },
  {
    "pincode": "344703",
    "officename": "Kharantia Khurd B.O",
    "officeType": "B.O",
    "Deliverystatus": "Delivery",
    "divisionname": "Barmer",
    "regionname": "Jodhpur",
    "circlename": "Rajasthan",
    "Taluk": "Rawatsar",
    "Districtname": "Barmer",
    "statename": "RAJASTHAN"
  },
  {
    "pincode": "344703",
    "officename": "Punion Ki Basti B.O",
    "officeType": "B.O",
    "Deliverystatus": "Delivery",
    "divisionname": "Barmer",
    "regionname": "Jodhpur",
    "circlename": "Rajasthan",
    "Taluk": "Rawatsar",
    "Districtname": "Barmer",
    "statename": "RAJASTHAN"
  },
  {
    "pincode": "344703",
    "officename": "Ramsar Ka Kua B.O",
    "officeType": "B.O",
    "Deliverystatus": "Delivery",
    "divisionname": "Barmer",
    "regionname": "Jodhpur",
    "circlename": "Rajasthan",
    "Taluk": "Rawatsar",
    "Districtname": "Barmer",
    "statename": "RAJASTHAN"
  },
  {
    "pincode": "344703",
    "officename": "Rawatsar S.O (Barmer)",
    "officeType": "S.O",
    "Deliverystatus": "Delivery",
    "divisionname": "Barmer",
    "regionname": "Jodhpur",
    "circlename": "Rajasthan",
    "Taluk": "Rawatsar",
    "Districtname": "Barmer",
    "statename": "RAJASTHAN"
  },
  {
    "pincode": "344703",
    "officename": "Sanjata B.O",
    "officeType": "B.O",
    "Deliverystatus": "Delivery",
    "divisionname": "Barmer",
    "regionname": "Jodhpur",
    "circlename": "Rajasthan",
    "Taluk": "Rawatsar",
    "Districtname": "Barmer",
    "statename": "RAJASTHAN"
  },
  {
    "pincode": "344703",
    "officename": "Sarli B.O",
    "officeType": "B.O",
    "Deliverystatus": "Delivery",
    "divisionname": "Barmer",
    "regionname": "Jodhpur",
    "circlename": "Rajasthan",
    "Taluk": "Rawatsar",
    "Districtname": "Barmer",
    "statename": "RAJASTHAN"
  },
  {
    "pincode": "344703",
    "officename": "Sarnu B.O",
    "officeType": "B.O",
    "Deliverystatus": "Delivery",
    "divisionname": "Barmer",
    "regionname": "Jodhpur",
    "circlename": "Rajasthan",
    "Taluk": "Rawatsar",
    "Districtname": "Barmer",
    "statename": "RAJASTHAN"
  },
  {
    "pincode": "344703",
    "officename": "Sewaniyala B.O",
    "officeType": "B.O",
    "Deliverystatus": "Delivery",
    "divisionname": "Barmer",
    "regionname": "Jodhpur",
    "circlename": "Rajasthan",
    "Taluk": "Rawatsar",
    "Districtname": "Barmer",
    "statename": "RAJASTHAN"
  },
  {
    "pincode": "344703",
    "officename": "Taku Beri B.O",
    "officeType": "B.O",
    "Deliverystatus": "Delivery",
    "divisionname": "Barmer",
    "regionname": "Jodhpur",
    "circlename": "Rajasthan",
    "Taluk": "Rawatsar",
    "Districtname": "Barmer",
    "statename": "RAJASTHAN"
  }
]
