[
  {
    "pincode": "344708",
    "officename": "Bachhrau B.O",
    "officeType": "B.O",
    "Deliverystatus": "Delivery",
    "divisionname": "Barmer",
    "regionname": "Jodhpur",
    "circlename": "Rajasthan",
    "Taluk": "Dhorimana",
    "Districtname": "Barmer",
    "statename": "RAJASTHAN"
  },
  {
    "pincode": "344708",
    "officename": "Booth Jetmal B.O",
    "officeType": "B.O",
    "Deliverystatus": "Delivery",
    "divisionname": "Barmer",
    "regionname": "Jodhpur",
    "circlename": "Rajasthan",
    "Taluk": "Sanawara",
    "Districtname": "Barmer",
    "statename": "RAJASTHAN"
  },
  {
    "pincode": "344708",
    "officename": "Dudhiya Kallan B.O",
    "officeType": "B.O",
    "Deliverystatus": "Delivery",
    "divisionname": "Barmer",
    "regionname": "Jodhpur",
    "circlename": "Rajasthan",
    "Taluk": "Sanawara",
    "Districtname": "Barmer",
    "statename": "RAJASTHAN"
  },
  {
    "pincode": "344708",
    "officename": "Hathitala B.O",
    "officeType": "B.O",
    "Deliverystatus": "Delivery",
    "divisionname": "Barmer",
    "regionname": "Jodhpur",
    "circlename": "Rajasthan",
    "Taluk": "Sanawara",
    "Districtname": "Barmer",
    "statename": "RAJASTHAN"
  },
  {
    "pincode": "344708",
    "officename": "Ishrol B.O",
    "officeType": "B.O",
    "Deliverystatus": "Delivery",
    "divisionname": "Barmer",
    "regionname": "Jodhpur",
    "circlename": "Rajasthan",
    "Taluk": "Sanawara",
    "Districtname": "Barmer",
    "statename": "RAJASTHAN"
  },
  {
    "pincode": "344708",
    "officename": "Jakhdon Ki Dhani B.O",
    "officeType": "B.O",
    "Deliverystatus": "Delivery",
    "divisionname": "Barmer",
    "regionname": "Jodhpur",
    "circlename": "Rajasthan",
    "Taluk": "Sanawara",
    "Districtname": "Barmer",
    "statename": "RAJASTHAN"
  },
  {
    "pincode": "344708",
    "officename": "Leelsar B.O",
    "officeType": "B.O",
    "Deliverystatus": "Delivery",
    "divisionname": "Barmer",
    "regionname": "Jodhpur",
    "circlename": "Rajasthan",
    "Taluk": "Sanawara",
    "Districtname": "Barmer",
    "statename": "RAJASTHAN"
  },
  {
    "pincode": "344708",
    "officename": "Mehlu B.O",
    "officeType": "B.O",
    "Deliverystatus": "Delivery",
    "divisionname": "Barmer",
    "regionname": "Jodhpur",
    "circlename": "Rajasthan",
    "Taluk": "Sanawara",
    "Districtname": "Barmer",
    "statename": "RAJASTHAN"
  },
  {
    "pincode": "344708",
    "officename": "Ramdeoria B.O",
    "officeType": "B.O",
    "Deliverystatus": "Delivery",
    "divisionname": "Barmer",
    "regionname": "Jodhpur",
    "circlename": "Rajasthan",
    "Taluk": "Sanawara",
    "Districtname": "Barmer",
    "statename": "RAJASTHAN"
  },
  {
    "pincode": "344708",
    "officename": "Sanawara S.O",
    "officeType": "S.O",
    "Deliverystatus": "Delivery",
    "divisionname": "Barmer",
    "regionname": "Jodhpur",
    "circlename": "Rajasthan",
    "Taluk": "Sanawara",
    "Districtname": "Barmer",
    "statename": "RAJASTHAN"
  },
  {
    "pincode": "344708",
    "officename": "Sodiyar B.O",
    "officeType": "B.O",
    "Deliverystatus": "Delivery",
    "divisionname": "Barmer",
    "regionname": "Jodhpur",
    "circlename": "Rajasthan",
    "Taluk": "Sanawara",
    "Districtname": "Barmer",
    "statename": "RAJASTHAN"
  }
]
