[
  {
    "pincode": "345027",
    "officename": "Baiya B.O",
    "officeType": "B.O",
    "Deliverystatus": "Delivery",
    "divisionname": "Jodhpur",
    "regionname": "Jodhpur",
    "circlename": "Rajasthan",
    "Taluk": "",
    "Districtname": "Jaisalmer",
    "statename": "RAJASTHAN"
  },
  {
    "pincode": "345027",
    "officename": "Bhadli B.O",
    "officeType": "B.O",
    "Deliverystatus": "Delivery",
    "divisionname": "Jodhpur",
    "regionname": "Jodhpur",
    "circlename": "Rajasthan",
    "Taluk": "",
    "Districtname": "Jaisalmer",
    "statename": "RAJASTHAN"
  },
  {
    "pincode": "345027",
    "officename": "Devikot B.O",
    "officeType": "B.O",
    "Deliverystatus": "Delivery",
    "divisionname": "Jodhpur",
    "regionname": "Jodhpur",
    "circlename": "Rajasthan",
    "Taluk": "",
    "Districtname": "Jaisalmer",
    "statename": "RAJASTHAN"
  },
  {
    "pincode": "345027",
    "officename": "Fatehgarh S.O",
    "officeType": "S.O",
    "Deliverystatus": "Delivery",
    "divisionname": "Jodhpur",
    "regionname": "Jodhpur",
    "circlename": "Rajasthan",
    "Taluk": "",
    "Districtname": "Jaisalmer",
    "statename": "RAJASTHAN"
  },
  {
    "pincode": "345027",
    "officename": "Jhinjhinyali B.O",
    "officeType": "B.O",
    "Deliverystatus": "Delivery",
    "divisionname": "Jodhpur",
    "regionname": "Jodhpur",
    "circlename": "Rajasthan",
    "Taluk": "",
    "Districtname": "Jaisalmer",
    "statename": "RAJASTHAN"
  },
  {
    "pincode": "345027",
    "officename": "Kapuriya B.O",
    "officeType": "B.O",
    "Deliverystatus": "Delivery",
    "divisionname": "Jodhpur",
    "regionname": "Jodhpur",
    "circlename": "Rajasthan",
    "Taluk": "",
    "Districtname": "Jaisalmer",
    "statename": "RAJASTHAN"
  },
  {
    "pincode": "345027",
    "officename": "Koda B.O",
    "officeType": "B.O",
    "Deliverystatus": "Delivery",
    "divisionname": "Jodhpur",
    "regionname": "Jodhpur",
    "circlename": "Rajasthan",
    "Taluk": "",
    "Districtname": "Jaisalmer",
    "statename": "RAJASTHAN"
  },
  {
    "pincode": "345027",
    "officename": "Kunda B.O",
    "officeType": "B.O",
    "Deliverystatus": "Delivery",
    "divisionname": "Jodhpur",
    "regionname": "Jodhpur",
    "circlename": "Rajasthan",
    "Taluk": "",
    "Districtname": "Jaisalmer",
    "statename": "RAJASTHAN"
  },
  {
    "pincode": "345027",
    "officename": "Lakha B.O",
    "officeType": "B.O",
    "Deliverystatus": "Delivery",
    "divisionname": "Jodhpur",
    "regionname": "Jodhpur",
    "circlename": "Rajasthan",
    "Taluk": "",
    "Districtname": "Jaisalmer",
    "statename": "RAJASTHAN"
  },
  {
    "pincode": "345027",
    "officename": "Modha B.O",
    "officeType": "B.O",
    "Deliverystatus": "Delivery",
    "divisionname": "Jodhpur",
    "regionname": "Jodhpur",
    "circlename": "Rajasthan",
    "Taluk": "Fatehgarh",
    "Districtname": "Jaisalmer",
    "statename": "RAJASTHAN"
  },
  {
    "pincode": "345027",
    "officename": "Rama B.O",
    "officeType": "B.O",
    "Deliverystatus": "Delivery",
    "divisionname": "Jodhpur",
    "regionname": "Jodhpur",
    "circlename": "Rajasthan",
    "Taluk": "",
    "Districtname": "Jaisalmer",
    "statename": "RAJASTHAN"
  },
  {
    "pincode": "345027",
    "officename": "Randha B.O",
    "officeType": "B.O",
    "Deliverystatus": "Delivery",
    "divisionname": "Jodhpur",
    "regionname": "Jodhpur",
    "circlename": "Rajasthan",
    "Taluk": "",
    "Districtname": "Jaisalmer",
    "statename": "RAJASTHAN"
  },
  {
    "pincode": "345027",
    "officename": "Rewari B.O",
    "officeType": "B.O",
    "Deliverystatus": "Delivery",
    "divisionname": "Jodhpur",
    "regionname": "Jodhpur",
    "circlename": "Rajasthan",
    "Taluk": "",
    "Districtname": "Jaisalmer",
    "statename": "RAJASTHAN"
  },
  {
    "pincode": "345027",
    "officename": "Sangad B.O",
    "officeType": "B.O",
    "Deliverystatus": "Delivery",
    "divisionname": "Jodhpur",
    "regionname": "Jodhpur",
    "circlename": "Rajasthan",
    "Taluk": "Jaisalmer",
    "Districtname": "Jaisalmer",
    "statename": "RAJASTHAN"
  },
  {
    "pincode": "345027",
    "officename": "Seerhar B.O",
    "officeType": "B.O",
    "Deliverystatus": "Delivery",
    "divisionname": "Jodhpur",
    "regionname": "Jodhpur",
    "circlename": "Rajasthan",
    "Taluk": "",
    "Districtname": "Jaisalmer",
    "statename": "RAJASTHAN"
  },
  {
    "pincode": "345027",
    "officename": "Tejmalta B.O",
    "officeType": "B.O",
    "Deliverystatus": "Delivery",
    "divisionname": "Jodhpur",
    "regionname": "Jodhpur",
    "circlename": "Rajasthan",
    "Taluk": "",
    "Districtname": "Jaisalmer",
    "statename": "RAJASTHAN"
  },
  {
    "pincode": "345027",
    "officename": "Tejrawa B.O",
    "officeType": "B.O",
    "Deliverystatus": "Delivery",
    "divisionname": "Jodhpur",
    "regionname": "Jodhpur",
    "circlename": "Rajasthan",
    "Taluk": "",
    "Districtname": "Jaisalmer",
    "statename": "RAJASTHAN"
  }
]
