[
  {
    "pincode": "345025",
    "officename": "Bandhewa B.O",
    "officeType": "B.O",
    "Deliverystatus": "Delivery",
    "divisionname": "Jodhpur",
    "regionname": "Jodhpur",
    "circlename": "Rajasthan",
    "Taluk": "",
    "Districtname": "Jaisalmer",
    "statename": "RAJASTHAN"
  },
  {
    "pincode": "345025",
    "officename": "Bhikodai B.O",
    "officeType": "B.O",
    "Deliverystatus": "Delivery",
    "divisionname": "Jodhpur",
    "regionname": "Jodhpur",
    "circlename": "Rajasthan",
    "Taluk": "",
    "Districtname": "Jaisalmer",
    "statename": "RAJASTHAN"
  },
  {
    "pincode": "345025",
    "officename": "Dantal B.O",
    "officeType": "B.O",
    "Deliverystatus": "Delivery",
    "divisionname": "Jodhpur",
    "regionname": "Jodhpur",
    "circlename": "Rajasthan",
    "Taluk": "",
    "Districtname": "Jaisalmer",
    "statename": "RAJASTHAN"
  },
  {
    "pincode": "345025",
    "officename": "Padampura B.O",
    "officeType": "B.O",
    "Deliverystatus": "Delivery",
    "divisionname": "Jodhpur",
    "regionname": "Jodhpur",
    "circlename": "Rajasthan",
    "Taluk": "Jaisalmer",
    "Districtname": "Jaisalmer",
    "statename": "RAJASTHAN"
  },
  {
    "pincode": "345025",
    "officename": "Phalsund S.O",
    "officeType": "S.O",
    "Deliverystatus": "Delivery",
    "divisionname": "Jodhpur",
    "regionname": "Jodhpur",
    "circlename": "Rajasthan",
    "Taluk": "Jaisalmer",
    "Districtname": "Jaisalmer",
    "statename": "RAJASTHAN"
  },
  {
    "pincode": "345025",
    "officename": "Phulasar B.O",
    "officeType": "B.O",
    "Deliverystatus": "Delivery",
    "divisionname": "Jodhpur",
    "regionname": "Jodhpur",
    "circlename": "Rajasthan",
    "Taluk": "",
    "Districtname": "Jaisalmer",
    "statename": "RAJASTHAN"
  },
  {
    "pincode": "345025",
    "officename": "Rajmathai B.O",
    "officeType": "B.O",
    "Deliverystatus": "Delivery",
    "divisionname": "Jodhpur",
    "regionname": "Jodhpur",
    "circlename": "Rajasthan",
    "Taluk": "",
    "Districtname": "Jaisalmer",
    "statename": "RAJASTHAN"
  },
  {
    "pincode": "345025",
    "officename": "Sohanpura B.O",
    "officeType": "B.O",
    "Deliverystatus": "Delivery",
    "divisionname": "Jodhpur",
    "regionname": "Jodhpur",
    "circlename": "Rajasthan",
    "Taluk": "Jaisalmer",
    "Districtname": "Jaisalmer",
    "statename": "RAJASTHAN"
  },
  {
    "pincode": "345025",
    "officename": "Swami Ki Dhani B.O",
    "officeType": "B.O",
    "Deliverystatus": "Delivery",
    "divisionname": "Jodhpur",
    "regionname": "Jodhpur",
    "circlename": "Rajasthan",
    "Taluk": "",
    "Districtname": "Jaisalmer",
    "statename": "RAJASTHAN"
  }
]
