[
  {
    "pincode": "360003",
    "officename": "Anandpar Navagam B.O",
    "officeType": "B.O",
    "Deliverystatus": "Delivery",
    "divisionname": "Rajkot",
    "regionname": "Rajkot",
    "circlename": "Gujarat",
    "Taluk": "Rajkot",
    "Districtname": "Rajkot",
    "statename": "GUJARAT"
  },
  {
    "pincode": "360003",
    "officename": "Anandpar(Morbi) B.O",
    "officeType": "B.O",
    "Deliverystatus": "Delivery",
    "divisionname": "Rajkot",
    "regionname": "Rajkot",
    "circlename": "Gujarat",
    "Taluk": "Rajkot",
    "Districtname": "Rajkot",
    "statename": "GUJARAT"
  },
  {
    "pincode": "360003",
    "officename": "Bedi(Rajkot) B.O",
    "officeType": "B.O",
    "Deliverystatus": "Delivery",
    "divisionname": "Rajkot",
    "regionname": "Rajkot",
    "circlename": "Gujarat",
    "Taluk": "Rajkot",
    "Districtname": "Rajkot",
    "statename": "GUJARAT"
  },
  {
    "pincode": "360003",
    "officename": "Gauridad B.O",
    "officeType": "B.O",
    "Deliverystatus": "Delivery",
    "divisionname": "Rajkot",
    "regionname": "Rajkot",
    "circlename": "Gujarat",
    "Taluk": "Rajkot",
    "Districtname": "Rajkot",
    "statename": "GUJARAT"
  },
  {
    "pincode": "360003",
    "officename": "Jaliya(Dhrol) B.O",
    "officeType": "B.O",
    "Deliverystatus": "Delivery",
    "divisionname": "Rajkot",
    "regionname": "Rajkot",
    "circlename": "Gujarat",
    "Taluk": "Rajkot",
    "Districtname": "Rajkot",
    "statename": "GUJARAT"
  },
  {
    "pincode": "360003",
    "officename": "Kagadadi B.O",
    "officeType": "B.O",
    "Deliverystatus": "Delivery",
    "divisionname": "Rajkot",
    "regionname": "Rajkot",
    "circlename": "Gujarat",
    "Taluk": "Rajkot",
    "Districtname": "Rajkot",
    "statename": "GUJARAT"
  },
  {
    "pincode": "360003",
    "officename": "Khorana B.O",
    "officeType": "B.O",
    "Deliverystatus": "Delivery",
    "divisionname": "Rajkot",
    "regionname": "Rajkot",
    "circlename": "Gujarat",
    "Taluk": "Rajkot",
    "Districtname": "Rajkot",
    "statename": "GUJARAT"
  },
  {
    "pincode": "360003",
    "officename": "Kotda Nayani B.O",
    "officeType": "B.O",
    "Deliverystatus": "Delivery",
    "divisionname": "Rajkot",
    "regionname": "Rajkot",
    "circlename": "Gujarat",
    "Taluk": "Rajkot",
    "Districtname": "Rajkot",
    "statename": "GUJARAT"
  },
  {
    "pincode": "360003",
    "officename": "Maliyasan B.O",
    "officeType": "B.O",
    "Deliverystatus": "Delivery",
    "divisionname": "Rajkot",
    "regionname": "Rajkot",
    "circlename": "Gujarat",
    "Taluk": "Rajkot",
    "Districtname": "Rajkot",
    "statename": "GUJARAT"
  },
  {
    "pincode": "360003",
    "officename": "Pipaliya(A) B.O",
    "officeType": "B.O",
    "Deliverystatus": "Delivery",
    "divisionname": "Rajkot",
    "regionname": "Rajkot",
    "circlename": "Gujarat",
    "Taluk": "Rajkot",
    "Districtname": "Rajkot",
    "statename": "GUJARAT"
  },
  {
    "pincode": "360003",
    "officename": "Rajkot Aji Ind Estate S.O",
    "officeType": "S.O",
    "Deliverystatus": "Non-Delivery",
    "divisionname": "Rajkot",
    "regionname": "Rajkot",
    "circlename": "Gujarat",
    "Taluk": "Rajkot",
    "Districtname": "Rajkot",
    "statename": "GUJARAT"
  },
  {
    "pincode": "360003",
    "officename": "Rajkot Bedipara S.O",
    "officeType": "S.O",
    "Deliverystatus": "Delivery",
    "divisionname": "Rajkot",
    "regionname": "Rajkot",
    "circlename": "Gujarat",
    "Taluk": "Rajkot",
    "Districtname": "Rajkot",
    "statename": "GUJARAT"
  },
  {
    "pincode": "360003",
    "officename": "Rajkot Marketing Yard S.O",
    "officeType": "S.O",
    "Deliverystatus": "Non-Delivery",
    "divisionname": "Rajkot",
    "regionname": "Rajkot",
    "circlename": "Gujarat",
    "Taluk": "Rajkot",
    "Districtname": "Rajkot",
    "statename": "GUJARAT"
  },
  {
    "pincode": "360003",
    "officename": "Sanosara B.O",
    "officeType": "B.O",
    "Deliverystatus": "Delivery",
    "divisionname": "Rajkot",
    "regionname": "Rajkot",
    "circlename": "Gujarat",
    "Taluk": "Rajkot",
    "Districtname": "Rajkot",
    "statename": "GUJARAT"
  }
]
