[
  {
    "pincode": "360002",
    "officename": "Kherdi B.O",
    "officeType": "B.O",
    "Deliverystatus": "Delivery",
    "divisionname": "Rajkot",
    "regionname": "Rajkot",
    "circlename": "Gujarat",
    "Taluk": "Rajkot",
    "Districtname": "Rajkot",
    "statename": "GUJARAT"
  },
  {
    "pincode": "360002",
    "officename": "Mahika B.O",
    "officeType": "B.O",
    "Deliverystatus": "Delivery",
    "divisionname": "Rajkot",
    "regionname": "Rajkot",
    "circlename": "Gujarat",
    "Taluk": "Rajkot",
    "Districtname": "Rajkot",
    "statename": "GUJARAT"
  },
  {
    "pincode": "360002",
    "officename": "Rajkot Bhaktinagar S.O",
    "officeType": "S.O",
    "Deliverystatus": "Delivery",
    "divisionname": "Rajkot",
    "regionname": "Rajkot",
    "circlename": "Gujarat",
    "Taluk": "Rajkot",
    "Districtname": "Rajkot",
    "statename": "GUJARAT"
  },
  {
    "pincode": "360002",
    "officename": "Rajkot Manahar Plot S.O",
    "officeType": "S.O",
    "Deliverystatus": "Non-Delivery",
    "divisionname": "Rajkot",
    "regionname": "Rajkot",
    "circlename": "Gujarat",
    "Taluk": "Rajkot",
    "Districtname": "Rajkot",
    "statename": "GUJARAT"
  },
  {
    "pincode": "360002",
    "officename": "Rajkot Millpara S.O",
    "officeType": "S.O",
    "Deliverystatus": "Non-Delivery",
    "divisionname": "Rajkot",
    "regionname": "Rajkot",
    "circlename": "Gujarat",
    "Taluk": "Rajkot",
    "Districtname": "Rajkot",
    "statename": "GUJARAT"
  },
  {
    "pincode": "360002",
    "officename": "Rajkot Sorathiawadi S.O",
    "officeType": "S.O",
    "Deliverystatus": "Non-Delivery",
    "divisionname": "Rajkot",
    "regionname": "Rajkot",
    "circlename": "Gujarat",
    "Taluk": "Rajkot",
    "Districtname": "Rajkot",
    "statename": "GUJARAT"
  },
  {
    "pincode": "360002",
    "officename": "Rajkot Udyognagar S.O",
    "officeType": "S.O",
    "Deliverystatus": "Non-Delivery",
    "divisionname": "Rajkot",
    "regionname": "Rajkot",
    "circlename": "Gujarat",
    "Taluk": "Rajkot",
    "Districtname": "Rajkot",
    "statename": "GUJARAT"
  },
  {
    "pincode": "360002",
    "officename": "Rajkot Vivekanandnagar S.O",
    "officeType": "S.O",
    "Deliverystatus": "Non-Delivery",
    "divisionname": "Rajkot",
    "regionname": "Rajkot",
    "circlename": "Gujarat",
    "Taluk": "Rajkot",
    "Districtname": "Rajkot",
    "statename": "GUJARAT"
  }
]
