[
  {
    "pincode": "360110",
    "officename": "Adbalka B.O",
    "officeType": "B.O",
    "Deliverystatus": "Delivery",
    "divisionname": "Rajkot",
    "regionname": "Rajkot",
    "circlename": "Gujarat",
    "Taluk": "Paddhari",
    "Districtname": "Rajkot",
    "statename": "GUJARAT"
  },
  {
    "pincode": "360110",
    "officename": "Dungarka B.O",
    "officeType": "B.O",
    "Deliverystatus": "Delivery",
    "divisionname": "Rajkot",
    "regionname": "Rajkot",
    "circlename": "Gujarat",
    "Taluk": "Paddhari",
    "Districtname": "Rajkot",
    "statename": "GUJARAT"
  },
  {
    "pincode": "360110",
    "officename": "Hadmatiya B.O",
    "officeType": "B.O",
    "Deliverystatus": "Delivery",
    "divisionname": "Rajkot",
    "regionname": "Rajkot",
    "circlename": "Gujarat",
    "Taluk": "Dhrol",
    "Districtname": "Rajkot",
    "statename": "GUJARAT"
  },
  {
    "pincode": "360110",
    "officename": "Ishwariya B.O",
    "officeType": "B.O",
    "Deliverystatus": "Delivery",
    "divisionname": "Rajkot",
    "regionname": "Rajkot",
    "circlename": "Gujarat",
    "Taluk": "Paddhari",
    "Districtname": "Rajkot",
    "statename": "GUJARAT"
  },
  {
    "pincode": "360110",
    "officename": "Khajurdi B.O",
    "officeType": "B.O",
    "Deliverystatus": "Delivery",
    "divisionname": "Rajkot",
    "regionname": "Rajkot",
    "circlename": "Gujarat",
    "Taluk": "Dhrol",
    "Districtname": "Rajkot",
    "statename": "GUJARAT"
  },
  {
    "pincode": "360110",
    "officename": "Khakhdabela B.O",
    "officeType": "B.O",
    "Deliverystatus": "Delivery",
    "divisionname": "Rajkot",
    "regionname": "Rajkot",
    "circlename": "Gujarat",
    "Taluk": "Dhrol",
    "Districtname": "Rajkot",
    "statename": "GUJARAT"
  },
  {
    "pincode": "360110",
    "officename": "Khambhala B.O",
    "officeType": "B.O",
    "Deliverystatus": "Delivery",
    "divisionname": "Rajkot",
    "regionname": "Rajkot",
    "circlename": "Gujarat",
    "Taluk": "Paddhari",
    "Districtname": "Rajkot",
    "statename": "GUJARAT"
  },
  {
    "pincode": "360110",
    "officename": "Khamta B.O",
    "officeType": "B.O",
    "Deliverystatus": "Delivery",
    "divisionname": "Rajkot",
    "regionname": "Rajkot",
    "circlename": "Gujarat",
    "Taluk": "Paddhari",
    "Districtname": "Rajkot",
    "statename": "GUJARAT"
  },
  {
    "pincode": "360110",
    "officename": "Khandheri B.O",
    "officeType": "B.O",
    "Deliverystatus": "Delivery",
    "divisionname": "Rajkot",
    "regionname": "Rajkot",
    "circlename": "Gujarat",
    "Taluk": "Paddhari",
    "Districtname": "Rajkot",
    "statename": "GUJARAT"
  },
  {
    "pincode": "360110",
    "officename": "Khodapipar B.O",
    "officeType": "B.O",
    "Deliverystatus": "Delivery",
    "divisionname": "Rajkot",
    "regionname": "Rajkot",
    "circlename": "Gujarat",
    "Taluk": "Paddhari",
    "Districtname": "Rajkot",
    "statename": "GUJARAT"
  },
  {
    "pincode": "360110",
    "officename": "Makajimeghpar B.O",
    "officeType": "B.O",
    "Deliverystatus": "Delivery",
    "divisionname": "Rajkot",
    "regionname": "Rajkot",
    "circlename": "Gujarat",
    "Taluk": "Kalavad",
    "Districtname": "Jamnagar",
    "statename": "GUJARAT"
  },
  {
    "pincode": "360110",
    "officename": "Motakhijadia B.O",
    "officeType": "B.O",
    "Deliverystatus": "Delivery",
    "divisionname": "Rajkot",
    "regionname": "Rajkot",
    "circlename": "Gujarat",
    "Taluk": "Paddhari",
    "Districtname": "Rajkot",
    "statename": "GUJARAT"
  },
  {
    "pincode": "360110",
    "officename": "Motichanol B.O",
    "officeType": "B.O",
    "Deliverystatus": "Delivery",
    "divisionname": "Rajkot",
    "regionname": "Rajkot",
    "circlename": "Gujarat",
    "Taluk": "Paddhari",
    "Districtname": "Rajkot",
    "statename": "GUJARAT"
  },
  {
    "pincode": "360110",
    "officename": "Nana Khijadia B.O",
    "officeType": "B.O",
    "Deliverystatus": "Delivery",
    "divisionname": "Rajkot",
    "regionname": "Rajkot",
    "circlename": "Gujarat",
    "Taluk": "Paddhari",
    "Districtname": "Rajkot",
    "statename": "GUJARAT"
  },
  {
    "pincode": "360110",
    "officename": "Paddhari S.O",
    "officeType": "S.O",
    "Deliverystatus": "Delivery",
    "divisionname": "Rajkot",
    "regionname": "Rajkot",
    "circlename": "Gujarat",
    "Taluk": "Paddhari",
    "Districtname": "Rajkot",
    "statename": "GUJARAT"
  },
  {
    "pincode": "360110",
    "officename": "Rampar Mota B.O",
    "officeType": "B.O",
    "Deliverystatus": "Delivery",
    "divisionname": "Rajkot",
    "regionname": "Rajkot",
    "circlename": "Gujarat",
    "Taluk": "Paddhari",
    "Districtname": "Rajkot",
    "statename": "GUJARAT"
  },
  {
    "pincode": "360110",
    "officename": "Rampar Pati B.O",
    "officeType": "B.O",
    "Deliverystatus": "Delivery",
    "divisionname": "Rajkot",
    "regionname": "Rajkot",
    "circlename": "Gujarat",
    "Taluk": "Paddhari",
    "Districtname": "Rajkot",
    "statename": "GUJARAT"
  },
  {
    "pincode": "360110",
    "officename": "Rupavati B.O",
    "officeType": "B.O",
    "Deliverystatus": "Delivery",
    "divisionname": "Rajkot",
    "regionname": "Rajkot",
    "circlename": "Gujarat",
    "Taluk": "Paddhari",
    "Districtname": "Rajkot",
    "statename": "GUJARAT"
  },
  {
    "pincode": "360110",
    "officename": "Sal Pipalia B.O",
    "officeType": "B.O",
    "Deliverystatus": "Delivery",
    "divisionname": "Rajkot",
    "regionname": "Rajkot",
    "circlename": "Gujarat",
    "Taluk": "Lodhika",
    "Districtname": "Rajkot",
    "statename": "GUJARAT"
  },
  {
    "pincode": "360110",
    "officename": "Sarapdad B.O",
    "officeType": "B.O",
    "Deliverystatus": "Delivery",
    "divisionname": "Rajkot",
    "regionname": "Rajkot",
    "circlename": "Gujarat",
    "Taluk": "Paddhari",
    "Districtname": "Rajkot",
    "statename": "GUJARAT"
  },
  {
    "pincode": "360110",
    "officename": "Suvag B.O",
    "officeType": "B.O",
    "Deliverystatus": "Delivery",
    "divisionname": "Rajkot",
    "regionname": "Rajkot",
    "circlename": "Gujarat",
    "Taluk": "Dhrol",
    "Districtname": "Rajkot",
    "statename": "GUJARAT"
  },
  {
    "pincode": "360110",
    "officename": "Targhari B.O",
    "officeType": "B.O",
    "Deliverystatus": "Delivery",
    "divisionname": "Rajkot",
    "regionname": "Rajkot",
    "circlename": "Gujarat",
    "Taluk": "Paddhari",
    "Districtname": "Rajkot",
    "statename": "GUJARAT"
  },
  {
    "pincode": "360110",
    "officename": "Thoriyali B.O",
    "officeType": "B.O",
    "Deliverystatus": "Delivery",
    "divisionname": "Rajkot",
    "regionname": "Rajkot",
    "circlename": "Gujarat",
    "Taluk": "Paddhari",
    "Districtname": "Rajkot",
    "statename": "GUJARAT"
  },
  {
    "pincode": "360110",
    "officename": "Ukarda B.O",
    "officeType": "B.O",
    "Deliverystatus": "Delivery",
    "divisionname": "Rajkot",
    "regionname": "Rajkot",
    "circlename": "Gujarat",
    "Taluk": "Paddhari",
    "Districtname": "Rajkot",
    "statename": "GUJARAT"
  },
  {
    "pincode": "360110",
    "officename": "Visaman B.O",
    "officeType": "B.O",
    "Deliverystatus": "Delivery",
    "divisionname": "Rajkot",
    "regionname": "Rajkot",
    "circlename": "Gujarat",
    "Taluk": "Dhrol",
    "Districtname": "Rajkot",
    "statename": "GUJARAT"
  },
  {
    "pincode": "360110",
    "officename": "Zilariya B.O",
    "officeType": "B.O",
    "Deliverystatus": "Delivery",
    "divisionname": "Rajkot",
    "regionname": "Rajkot",
    "circlename": "Gujarat",
    "Taluk": "Paddhari",
    "Districtname": "Rajkot",
    "statename": "GUJARAT"
  }
]
