[
  {
    "pincode": "360360",
    "officename": "Akala B.O",
    "officeType": "B.O",
    "Deliverystatus": "Delivery",
    "divisionname": "Gondal",
    "regionname": "Rajkot",
    "circlename": "Gujarat",
    "Taluk": "Jetpur",
    "Districtname": "Rajkot",
    "statename": "GUJARAT"
  },
  {
    "pincode": "360360",
    "officename": "Bava Pipaliya B.O",
    "officeType": "B.O",
    "Deliverystatus": "Delivery",
    "divisionname": "Gondal",
    "regionname": "Rajkot",
    "circlename": "Gujarat",
    "Taluk": "Jetpur",
    "Districtname": "Rajkot",
    "statename": "GUJARAT"
  },
  {
    "pincode": "360360",
    "officename": "Dedarva B.O",
    "officeType": "B.O",
    "Deliverystatus": "Delivery",
    "divisionname": "Gondal",
    "regionname": "Rajkot",
    "circlename": "Gujarat",
    "Taluk": "Jetpur",
    "Districtname": "Rajkot",
    "statename": "GUJARAT"
  },
  {
    "pincode": "360360",
    "officename": "Jetalsar Gam B.O",
    "officeType": "B.O",
    "Deliverystatus": "Delivery",
    "divisionname": "Gondal",
    "regionname": "Rajkot",
    "circlename": "Gujarat",
    "Taluk": "Jetpur",
    "Districtname": "Rajkot",
    "statename": "GUJARAT"
  },
  {
    "pincode": "360360",
    "officename": "Jetalsar Jn. S.O",
    "officeType": "S.O",
    "Deliverystatus": "Delivery",
    "divisionname": "Gondal",
    "regionname": "Rajkot",
    "circlename": "Gujarat",
    "Taluk": "Jetpur",
    "Districtname": "Rajkot",
    "statename": "GUJARAT"
  },
  {
    "pincode": "360360",
    "officename": "Juni Sankli B.O",
    "officeType": "B.O",
    "Deliverystatus": "Delivery",
    "divisionname": "Gondal",
    "regionname": "Rajkot",
    "circlename": "Gujarat",
    "Taluk": "Jetpur",
    "Districtname": "Rajkot",
    "statename": "GUJARAT"
  },
  {
    "pincode": "360360",
    "officename": "Moti Parabadi B.O",
    "officeType": "B.O",
    "Deliverystatus": "Delivery",
    "divisionname": "Gondal",
    "regionname": "Rajkot",
    "circlename": "Gujarat",
    "Taluk": "Dhoraji",
    "Districtname": "Rajkot",
    "statename": "GUJARAT"
  },
  {
    "pincode": "360360",
    "officename": "Nani Parabadi B.O",
    "officeType": "B.O",
    "Deliverystatus": "Delivery",
    "divisionname": "Gondal",
    "regionname": "Rajkot",
    "circlename": "Gujarat",
    "Taluk": "Dhoraji",
    "Districtname": "Rajkot",
    "statename": "GUJARAT"
  },
  {
    "pincode": "360360",
    "officename": "Pipalva B.O",
    "officeType": "B.O",
    "Deliverystatus": "Delivery",
    "divisionname": "Gondal",
    "regionname": "Rajkot",
    "circlename": "Gujarat",
    "Taluk": "Jetpur",
    "Districtname": "Rajkot",
    "statename": "GUJARAT"
  },
  {
    "pincode": "360360",
    "officename": "Rupavati B.O",
    "officeType": "B.O",
    "Deliverystatus": "Delivery",
    "divisionname": "Gondal",
    "regionname": "Rajkot",
    "circlename": "Gujarat",
    "Taluk": "Jetpur",
    "Districtname": "Rajkot",
    "statename": "GUJARAT"
  },
  {
    "pincode": "360360",
    "officename": "Timbdi Arab B.O",
    "officeType": "B.O",
    "Deliverystatus": "Delivery",
    "divisionname": "Gondal",
    "regionname": "Rajkot",
    "circlename": "Gujarat",
    "Taluk": "Jetpur",
    "Districtname": "Rajkot",
    "statename": "GUJARAT"
  },
  {
    "pincode": "360360",
    "officename": "Torania B.O",
    "officeType": "B.O",
    "Deliverystatus": "Delivery",
    "divisionname": "Gondal",
    "regionname": "Rajkot",
    "circlename": "Gujarat",
    "Taluk": "Dhoraji",
    "Districtname": "Rajkot",
    "statename": "GUJARAT"
  }
]
