[
  {
    "pincode": "360330",
    "officename": "Bandhiya B.O",
    "officeType": "B.O",
    "Deliverystatus": "Delivery",
    "divisionname": "Gondal",
    "regionname": "Rajkot",
    "circlename": "Gujarat",
    "Taluk": "Gondal",
    "Districtname": "Rajkot",
    "statename": "GUJARAT"
  },
  {
    "pincode": "360330",
    "officename": "Bandra B.O",
    "officeType": "B.O",
    "Deliverystatus": "Delivery",
    "divisionname": "Gondal",
    "regionname": "Rajkot",
    "circlename": "Gujarat",
    "Taluk": "Gondal",
    "Districtname": "Rajkot",
    "statename": "GUJARAT"
  },
  {
    "pincode": "360330",
    "officename": "Devchadi B.O",
    "officeType": "B.O",
    "Deliverystatus": "Delivery",
    "divisionname": "Gondal",
    "regionname": "Rajkot",
    "circlename": "Gujarat",
    "Taluk": "Gondal",
    "Districtname": "Rajkot",
    "statename": "GUJARAT"
  },
  {
    "pincode": "360330",
    "officename": "Kamar Kotda B.O",
    "officeType": "B.O",
    "Deliverystatus": "Delivery",
    "divisionname": "Gondal",
    "regionname": "Rajkot",
    "circlename": "Gujarat",
    "Taluk": "Gondal",
    "Districtname": "Rajkot",
    "statename": "GUJARAT"
  },
  {
    "pincode": "360330",
    "officename": "Mandan Kundla B.O",
    "officeType": "B.O",
    "Deliverystatus": "Delivery",
    "divisionname": "Gondal",
    "regionname": "Rajkot",
    "circlename": "Gujarat",
    "Taluk": "Gondal",
    "Districtname": "Rajkot",
    "statename": "GUJARAT"
  },
  {
    "pincode": "360330",
    "officename": "Moviya S.O",
    "officeType": "S.O",
    "Deliverystatus": "Delivery",
    "divisionname": "Gondal",
    "regionname": "Rajkot",
    "circlename": "Gujarat",
    "Taluk": "Gondal",
    "Districtname": "Rajkot",
    "statename": "GUJARAT"
  },
  {
    "pincode": "360330",
    "officename": "Satapar B.O",
    "officeType": "B.O",
    "Deliverystatus": "Delivery",
    "divisionname": "Gondal",
    "regionname": "Rajkot",
    "circlename": "Gujarat",
    "Taluk": "Kotda",
    "Districtname": "Rajkot",
    "statename": "GUJARAT"
  },
  {
    "pincode": "360330",
    "officename": "Shishak B.O",
    "officeType": "B.O",
    "Deliverystatus": "Delivery",
    "divisionname": "Gondal",
    "regionname": "Rajkot",
    "circlename": "Gujarat",
    "Taluk": "Kotda",
    "Districtname": "Rajkot",
    "statename": "GUJARAT"
  },
  {
    "pincode": "360330",
    "officename": "Shrinathgadh B.O",
    "officeType": "B.O",
    "Deliverystatus": "Delivery",
    "divisionname": "Gondal",
    "regionname": "Rajkot",
    "circlename": "Gujarat",
    "Taluk": "Gondal",
    "Districtname": "Rajkot",
    "statename": "GUJARAT"
  }
]
