[
  {
    "pincode": "360490",
    "officename": "Amrapar B.O",
    "officeType": "B.O",
    "Deliverystatus": "Delivery",
    "divisionname": "Gondal",
    "regionname": "Rajkot",
    "circlename": "Gujarat",
    "Taluk": "Upleta",
    "Districtname": "Rajkot",
    "statename": "GUJARAT"
  },
  {
    "pincode": "360490",
    "officename": "Bhankh B.O",
    "officeType": "B.O",
    "Deliverystatus": "Delivery",
    "divisionname": "Gondal",
    "regionname": "Rajkot",
    "circlename": "Gujarat",
    "Taluk": "Upleta",
    "Districtname": "Rajkot",
    "statename": "GUJARAT"
  },
  {
    "pincode": "360490",
    "officename": "Bhimora B.O",
    "officeType": "B.O",
    "Deliverystatus": "Delivery",
    "divisionname": "Gondal",
    "regionname": "Rajkot",
    "circlename": "Gujarat",
    "Taluk": "Upleta",
    "Districtname": "Rajkot",
    "statename": "GUJARAT"
  },
  {
    "pincode": "360490",
    "officename": "Ganod B.O",
    "officeType": "B.O",
    "Deliverystatus": "Delivery",
    "divisionname": "Gondal",
    "regionname": "Rajkot",
    "circlename": "Gujarat",
    "Taluk": "Upleta",
    "Districtname": "Rajkot",
    "statename": "GUJARAT"
  },
  {
    "pincode": "360490",
    "officename": "Ishra B.O",
    "officeType": "B.O",
    "Deliverystatus": "Delivery",
    "divisionname": "Gondal",
    "regionname": "Rajkot",
    "circlename": "Gujarat",
    "Taluk": "Upleta",
    "Districtname": "Rajkot",
    "statename": "GUJARAT"
  },
  {
    "pincode": "360490",
    "officename": "Kalariya B.O",
    "officeType": "B.O",
    "Deliverystatus": "Delivery",
    "divisionname": "Gondal",
    "regionname": "Rajkot",
    "circlename": "Gujarat",
    "Taluk": "Upleta",
    "Districtname": "Rajkot",
    "statename": "GUJARAT"
  },
  {
    "pincode": "360490",
    "officename": "Khakhijaliya B.O",
    "officeType": "B.O",
    "Deliverystatus": "Delivery",
    "divisionname": "Gondal",
    "regionname": "Rajkot",
    "circlename": "Gujarat",
    "Taluk": "Upleta",
    "Districtname": "Rajkot",
    "statename": "GUJARAT"
  },
  {
    "pincode": "360490",
    "officename": "Lath B.O",
    "officeType": "B.O",
    "Deliverystatus": "Delivery",
    "divisionname": "Gondal",
    "regionname": "Rajkot",
    "circlename": "Gujarat",
    "Taluk": "Upleta",
    "Districtname": "Rajkot",
    "statename": "GUJARAT"
  },
  {
    "pincode": "360490",
    "officename": "Malanka B.O",
    "officeType": "B.O",
    "Deliverystatus": "Delivery",
    "divisionname": "Gondal",
    "regionname": "Rajkot",
    "circlename": "Gujarat",
    "Taluk": "Kutiyana",
    "Districtname": "Porbandar",
    "statename": "GUJARAT"
  },
  {
    "pincode": "360490",
    "officename": "Mervadar B.O",
    "officeType": "B.O",
    "Deliverystatus": "Delivery",
    "divisionname": "Gondal",
    "regionname": "Rajkot",
    "circlename": "Gujarat",
    "Taluk": "Upleta",
    "Districtname": "Rajkot",
    "statename": "GUJARAT"
  },
  {
    "pincode": "360490",
    "officename": "Mojira B.O",
    "officeType": "B.O",
    "Deliverystatus": "Delivery",
    "divisionname": "Gondal",
    "regionname": "Rajkot",
    "circlename": "Gujarat",
    "Taluk": "Upleta",
    "Districtname": "Rajkot",
    "statename": "GUJARAT"
  },
  {
    "pincode": "360490",
    "officename": "Nagvadar B.O",
    "officeType": "B.O",
    "Deliverystatus": "Delivery",
    "divisionname": "Gondal",
    "regionname": "Rajkot",
    "circlename": "Gujarat",
    "Taluk": "Upleta",
    "Districtname": "Rajkot",
    "statename": "GUJARAT"
  },
  {
    "pincode": "360490",
    "officename": "Nilakha B.O",
    "officeType": "B.O",
    "Deliverystatus": "Delivery",
    "divisionname": "Gondal",
    "regionname": "Rajkot",
    "circlename": "Gujarat",
    "Taluk": "Upleta",
    "Districtname": "Rajkot",
    "statename": "GUJARAT"
  },
  {
    "pincode": "360490",
    "officename": "Paradva B.O",
    "officeType": "B.O",
    "Deliverystatus": "Delivery",
    "divisionname": "Gondal",
    "regionname": "Rajkot",
    "circlename": "Gujarat",
    "Taluk": "Jamjodhpur",
    "Districtname": "Jamnagar",
    "statename": "GUJARAT"
  },
  {
    "pincode": "360490",
    "officename": "Pransla B.O",
    "officeType": "B.O",
    "Deliverystatus": "Delivery",
    "divisionname": "Gondal",
    "regionname": "Rajkot",
    "circlename": "Gujarat",
    "Taluk": "Upleta",
    "Districtname": "Rajkot",
    "statename": "GUJARAT"
  },
  {
    "pincode": "360490",
    "officename": "Samadhiyala B.O",
    "officeType": "B.O",
    "Deliverystatus": "Delivery",
    "divisionname": "Gondal",
    "regionname": "Rajkot",
    "circlename": "Gujarat",
    "Taluk": "Upleta",
    "Districtname": "Rajkot",
    "statename": "GUJARAT"
  },
  {
    "pincode": "360490",
    "officename": "Talagana B.O",
    "officeType": "B.O",
    "Deliverystatus": "Delivery",
    "divisionname": "Gondal",
    "regionname": "Rajkot",
    "circlename": "Gujarat",
    "Taluk": "Upleta",
    "Districtname": "Rajkot",
    "statename": "GUJARAT"
  },
  {
    "pincode": "360490",
    "officename": "Tanasva B.O",
    "officeType": "B.O",
    "Deliverystatus": "Delivery",
    "divisionname": "Gondal",
    "regionname": "Rajkot",
    "circlename": "Gujarat",
    "Taluk": "Upleta",
    "Districtname": "Rajkot",
    "statename": "GUJARAT"
  },
  {
    "pincode": "360490",
    "officename": "Upleta Lati Plot S.O",
    "officeType": "S.O",
    "Deliverystatus": "Delivery",
    "divisionname": "Gondal",
    "regionname": "Rajkot",
    "circlename": "Gujarat",
    "Taluk": "Upleta",
    "Districtname": "Rajkot",
    "statename": "GUJARAT"
  },
  {
    "pincode": "360490",
    "officename": "Upleta ND T.S.O",
    "officeType": "S.O",
    "Deliverystatus": "Non-Delivery",
    "divisionname": "Gondal",
    "regionname": "Rajkot",
    "circlename": "Gujarat",
    "Taluk": "Upleta",
    "Districtname": "Rajkot",
    "statename": "GUJARAT"
  },
  {
    "pincode": "360490",
    "officename": "Vadala B.O",
    "officeType": "B.O",
    "Deliverystatus": "Delivery",
    "divisionname": "Gondal",
    "regionname": "Rajkot",
    "circlename": "Gujarat",
    "Taluk": "Upleta",
    "Districtname": "Rajkot",
    "statename": "GUJARAT"
  },
  {
    "pincode": "360490",
    "officename": "Vadasada B.O",
    "officeType": "B.O",
    "Deliverystatus": "Delivery",
    "divisionname": "Gondal",
    "regionname": "Rajkot",
    "circlename": "Gujarat",
    "Taluk": "Manavadar",
    "Districtname": "Junagadh",
    "statename": "GUJARAT"
  },
  {
    "pincode": "360490",
    "officename": "Varjang Jalia B.O",
    "officeType": "B.O",
    "Deliverystatus": "Delivery",
    "divisionname": "Gondal",
    "regionname": "Rajkot",
    "circlename": "Gujarat",
    "Taluk": "Upleta",
    "Districtname": "Rajkot",
    "statename": "GUJARAT"
  }
]
