[
  {
    "pincode": "360410",
    "officename": "Bhader B.O",
    "officeType": "B.O",
    "Deliverystatus": "Delivery",
    "divisionname": "Gondal",
    "regionname": "Rajkot",
    "circlename": "Gujarat",
    "Taluk": "Dhoraji",
    "Districtname": "Rajkot",
    "statename": "GUJARAT"
  },
  {
    "pincode": "360410",
    "officename": "Bhola B.O",
    "officeType": "B.O",
    "Deliverystatus": "Delivery",
    "divisionname": "Gondal",
    "regionname": "Rajkot",
    "circlename": "Gujarat",
    "Taluk": "Dhoraji",
    "Districtname": "Rajkot",
    "statename": "GUJARAT"
  },
  {
    "pincode": "360410",
    "officename": "Bhukhi B.O",
    "officeType": "B.O",
    "Deliverystatus": "Delivery",
    "divisionname": "Gondal",
    "regionname": "Rajkot",
    "circlename": "Gujarat",
    "Taluk": "Dhoraji",
    "Districtname": "Rajkot",
    "statename": "GUJARAT"
  },
  {
    "pincode": "360410",
    "officename": "Chhadvavadar B.O",
    "officeType": "B.O",
    "Deliverystatus": "Delivery",
    "divisionname": "Gondal",
    "regionname": "Rajkot",
    "circlename": "Gujarat",
    "Taluk": "Dhoraji",
    "Districtname": "Rajkot",
    "statename": "GUJARAT"
  },
  {
    "pincode": "360410",
    "officename": "Chhatrasa B.O",
    "officeType": "B.O",
    "Deliverystatus": "Delivery",
    "divisionname": "Gondal",
    "regionname": "Rajkot",
    "circlename": "Gujarat",
    "Taluk": "Dhoraji",
    "Districtname": "Rajkot",
    "statename": "GUJARAT"
  },
  {
    "pincode": "360410",
    "officename": "Chikhaliya B.O",
    "officeType": "B.O",
    "Deliverystatus": "Delivery",
    "divisionname": "Gondal",
    "regionname": "Rajkot",
    "circlename": "Gujarat",
    "Taluk": "Upleta",
    "Districtname": "Rajkot",
    "statename": "GUJARAT"
  },
  {
    "pincode": "360410",
    "officename": "Dhoraji D.G. ND T.S.O",
    "officeType": "S.O",
    "Deliverystatus": "Non-Delivery",
    "divisionname": "Gondal",
    "regionname": "Rajkot",
    "circlename": "Gujarat",
    "Taluk": "Dhoraji",
    "Districtname": "Rajkot",
    "statename": "GUJARAT"
  },
  {
    "pincode": "360410",
    "officename": "Dhoraji G.P. ND.T.S.O",
    "officeType": "S.O",
    "Deliverystatus": "Non-Delivery",
    "divisionname": "Gondal",
    "regionname": "Rajkot",
    "circlename": "Gujarat",
    "Taluk": "Dhoraji",
    "Districtname": "Rajkot",
    "statename": "GUJARAT"
  },
  {
    "pincode": "360410",
    "officename": "Dhoraji S.O",
    "officeType": "S.O",
    "Deliverystatus": "Delivery",
    "divisionname": "Gondal",
    "regionname": "Rajkot",
    "circlename": "Gujarat",
    "Taluk": "Dhoraji",
    "Districtname": "Rajkot",
    "statename": "GUJARAT"
  },
  {
    "pincode": "360410",
    "officename": "Dhoraji S.R. ND.T.S.O",
    "officeType": "S.O",
    "Deliverystatus": "Non-Delivery",
    "divisionname": "Gondal",
    "regionname": "Rajkot",
    "circlename": "Gujarat",
    "Taluk": "Dhoraji",
    "Districtname": "Rajkot",
    "statename": "GUJARAT"
  },
  {
    "pincode": "360410",
    "officename": "Dudhivadar B.O",
    "officeType": "B.O",
    "Deliverystatus": "Delivery",
    "divisionname": "Gondal",
    "regionname": "Rajkot",
    "circlename": "Gujarat",
    "Taluk": "Jamkandorna",
    "Districtname": "Rajkot",
    "statename": "GUJARAT"
  },
  {
    "pincode": "360410",
    "officename": "Jamnavad B.O",
    "officeType": "B.O",
    "Deliverystatus": "Delivery",
    "divisionname": "Gondal",
    "regionname": "Rajkot",
    "circlename": "Gujarat",
    "Taluk": "Dhoraji",
    "Districtname": "Rajkot",
    "statename": "GUJARAT"
  },
  {
    "pincode": "360410",
    "officename": "Kalana B.O",
    "officeType": "B.O",
    "Deliverystatus": "Delivery",
    "divisionname": "Gondal",
    "regionname": "Rajkot",
    "circlename": "Gujarat",
    "Taluk": "Dhoraji",
    "Districtname": "Rajkot",
    "statename": "GUJARAT"
  },
  {
    "pincode": "360410",
    "officename": "Nagalkhada B.O",
    "officeType": "B.O",
    "Deliverystatus": "Delivery",
    "divisionname": "Gondal",
    "regionname": "Rajkot",
    "circlename": "Gujarat",
    "Taluk": "Dhoraji",
    "Districtname": "Rajkot",
    "statename": "GUJARAT"
  },
  {
    "pincode": "360410",
    "officename": "Pipaliya B.O",
    "officeType": "B.O",
    "Deliverystatus": "Delivery",
    "divisionname": "Gondal",
    "regionname": "Rajkot",
    "circlename": "Gujarat",
    "Taluk": "Dhoraji",
    "Districtname": "Rajkot",
    "statename": "GUJARAT"
  },
  {
    "pincode": "360410",
    "officename": "Raidi B.O",
    "officeType": "B.O",
    "Deliverystatus": "Delivery",
    "divisionname": "Gondal",
    "regionname": "Rajkot",
    "circlename": "Gujarat",
    "Taluk": "Jamkandorna",
    "Districtname": "Rajkot",
    "statename": "GUJARAT"
  },
  {
    "pincode": "360410",
    "officename": "Roghel B.O",
    "officeType": "B.O",
    "Deliverystatus": "Delivery",
    "divisionname": "Gondal",
    "regionname": "Rajkot",
    "circlename": "Gujarat",
    "Taluk": "Jamkandorna",
    "Districtname": "Rajkot",
    "statename": "GUJARAT"
  },
  {
    "pincode": "360410",
    "officename": "Vadodar B.O",
    "officeType": "B.O",
    "Deliverystatus": "Delivery",
    "divisionname": "Gondal",
    "regionname": "Rajkot",
    "circlename": "Gujarat",
    "Taluk": "Dhoraji",
    "Districtname": "Rajkot",
    "statename": "GUJARAT"
  }
]
