[
  {
    "pincode": "360570",
    "officename": "Amar B.O",
    "officeType": "B.O",
    "Deliverystatus": "Delivery",
    "divisionname": "Porbandar",
    "regionname": "Rajkot",
    "circlename": "Gujarat",
    "Taluk": "Kutiyana",
    "Districtname": "Porbandar",
    "statename": "GUJARAT"
  },
  {
    "pincode": "360570",
    "officename": "Aniyari B.O",
    "officeType": "B.O",
    "Deliverystatus": "Delivery",
    "divisionname": "Porbandar",
    "regionname": "Rajkot",
    "circlename": "Gujarat",
    "Taluk": "Ranavav",
    "Districtname": "Porbandar",
    "statename": "GUJARAT"
  },
  {
    "pincode": "360570",
    "officename": "Bapodar B.O",
    "officeType": "B.O",
    "Deliverystatus": "Delivery",
    "divisionname": "Porbandar",
    "regionname": "Rajkot",
    "circlename": "Gujarat",
    "Taluk": "Ranavav",
    "Districtname": "Porbandar",
    "statename": "GUJARAT"
  },
  {
    "pincode": "360570",
    "officename": "Bhoddar B.O",
    "officeType": "B.O",
    "Deliverystatus": "Delivery",
    "divisionname": "Porbandar",
    "regionname": "Rajkot",
    "circlename": "Gujarat",
    "Taluk": "Ranavav",
    "Districtname": "Porbandar",
    "statename": "GUJARAT"
  },
  {
    "pincode": "360570",
    "officename": "Jamboo B.O",
    "officeType": "B.O",
    "Deliverystatus": "Delivery",
    "divisionname": "Porbandar",
    "regionname": "Rajkot",
    "circlename": "Gujarat",
    "Taluk": "Ranavav",
    "Districtname": "Porbandar",
    "statename": "GUJARAT"
  },
  {
    "pincode": "360570",
    "officename": "Mokal B.O",
    "officeType": "B.O",
    "Deliverystatus": "Delivery",
    "divisionname": "Porbandar",
    "regionname": "Rajkot",
    "circlename": "Gujarat",
    "Taluk": "Ranavav",
    "Districtname": "Porbandar",
    "statename": "GUJARAT"
  },
  {
    "pincode": "360570",
    "officename": "Ranabordi B.O",
    "officeType": "B.O",
    "Deliverystatus": "Delivery",
    "divisionname": "Porbandar",
    "regionname": "Rajkot",
    "circlename": "Gujarat",
    "Taluk": "Ranavav",
    "Districtname": "Porbandar",
    "statename": "GUJARAT"
  },
  {
    "pincode": "360570",
    "officename": "Ranakandorana S.O",
    "officeType": "S.O",
    "Deliverystatus": "Delivery",
    "divisionname": "Porbandar",
    "regionname": "Rajkot",
    "circlename": "Gujarat",
    "Taluk": "Porbandar",
    "Districtname": "Porbandar",
    "statename": "GUJARAT"
  },
  {
    "pincode": "360570",
    "officename": "Ranakhirasara B.O",
    "officeType": "B.O",
    "Deliverystatus": "Delivery",
    "divisionname": "Porbandar",
    "regionname": "Rajkot",
    "circlename": "Gujarat",
    "Taluk": "Ranavav",
    "Districtname": "Porbandar",
    "statename": "GUJARAT"
  },
  {
    "pincode": "360570",
    "officename": "Thoyana B.O",
    "officeType": "B.O",
    "Deliverystatus": "Delivery",
    "divisionname": "Porbandar",
    "regionname": "Rajkot",
    "circlename": "Gujarat",
    "Taluk": "Ranavav",
    "Districtname": "Porbandar",
    "statename": "GUJARAT"
  },
  {
    "pincode": "360570",
    "officename": "Vadvalarana B.O",
    "officeType": "B.O",
    "Deliverystatus": "Delivery",
    "divisionname": "Porbandar",
    "regionname": "Rajkot",
    "circlename": "Gujarat",
    "Taluk": "Ranavav",
    "Districtname": "Porbandar",
    "statename": "GUJARAT"
  },
  {
    "pincode": "360570",
    "officename": "Valotra B.O",
    "officeType": "B.O",
    "Deliverystatus": "Delivery",
    "divisionname": "Porbandar",
    "regionname": "Rajkot",
    "circlename": "Gujarat",
    "Taluk": "Ranavav",
    "Districtname": "Porbandar",
    "statename": "GUJARAT"
  }
]
