[
  {
    "pincode": "360520",
    "officename": "Bhojabedi B.O",
    "officeType": "B.O",
    "Deliverystatus": "Delivery",
    "divisionname": "Jamnagar",
    "regionname": "Rajkot",
    "circlename": "Gujarat",
    "Taluk": "Jamjodhpur",
    "Districtname": "Jamnagar",
    "statename": "GUJARAT"
  },
  {
    "pincode": "360520",
    "officename": "Chirodasang B.O",
    "officeType": "B.O",
    "Deliverystatus": "Delivery",
    "divisionname": "Jamnagar",
    "regionname": "Rajkot",
    "circlename": "Gujarat",
    "Taluk": "Jamjodhpur",
    "Districtname": "Jamnagar",
    "statename": "GUJARAT"
  },
  {
    "pincode": "360520",
    "officename": "Dhrafa S.O",
    "officeType": "S.O",
    "Deliverystatus": "Delivery",
    "divisionname": "Jamnagar",
    "regionname": "Rajkot",
    "circlename": "Gujarat",
    "Taluk": "Jamjodhpur",
    "Districtname": "Jamnagar",
    "statename": "GUJARAT"
  },
  {
    "pincode": "360520",
    "officename": "Gorakhadi B.O",
    "officeType": "B.O",
    "Deliverystatus": "Delivery",
    "divisionname": "Jamnagar",
    "regionname": "Rajkot",
    "circlename": "Gujarat",
    "Taluk": "Jamjodhpur",
    "Districtname": "Jamnagar",
    "statename": "GUJARAT"
  },
  {
    "pincode": "360520",
    "officename": "Jasapar B.O",
    "officeType": "B.O",
    "Deliverystatus": "Delivery",
    "divisionname": "Jamnagar",
    "regionname": "Rajkot",
    "circlename": "Gujarat",
    "Taluk": "Jamjodhpur",
    "Districtname": "Jamnagar",
    "statename": "GUJARAT"
  },
  {
    "pincode": "360520",
    "officename": "Nandana B.O",
    "officeType": "B.O",
    "Deliverystatus": "Delivery",
    "divisionname": "Jamnagar",
    "regionname": "Rajkot",
    "circlename": "Gujarat",
    "Taluk": "Jamjodhpur",
    "Districtname": "Jamnagar",
    "statename": "GUJARAT"
  },
  {
    "pincode": "360520",
    "officename": "Sadodar B.O",
    "officeType": "B.O",
    "Deliverystatus": "Delivery",
    "divisionname": "Jamnagar",
    "regionname": "Rajkot",
    "circlename": "Gujarat",
    "Taluk": "Jamjodhpur",
    "Districtname": "Jamnagar",
    "statename": "GUJARAT"
  },
  {
    "pincode": "360520",
    "officename": "Samana B.O",
    "officeType": "B.O",
    "Deliverystatus": "Delivery",
    "divisionname": "Jamnagar",
    "regionname": "Rajkot",
    "circlename": "Gujarat",
    "Taluk": "Jamjodhpur",
    "Districtname": "Jamnagar",
    "statename": "GUJARAT"
  },
  {
    "pincode": "360520",
    "officename": "Vadala Sethna B.O",
    "officeType": "B.O",
    "Deliverystatus": "Delivery",
    "divisionname": "Jamnagar",
    "regionname": "Rajkot",
    "circlename": "Gujarat",
    "Taluk": "Jamjodhpur",
    "Districtname": "Jamnagar",
    "statename": "GUJARAT"
  }
]
