[
  {
    "pincode": "360590",
    "officename": "Advana B.O",
    "officeType": "B.O",
    "Deliverystatus": "Delivery",
    "divisionname": "Porbandar",
    "regionname": "Rajkot",
    "circlename": "Gujarat",
    "Taluk": "Porbandar",
    "Districtname": "Porbandar",
    "statename": "GUJARAT"
  },
  {
    "pincode": "360590",
    "officename": "Bagvadar S.O",
    "officeType": "S.O",
    "Deliverystatus": "Delivery",
    "divisionname": "Porbandar",
    "regionname": "Rajkot",
    "circlename": "Gujarat",
    "Taluk": "Porbandar",
    "Districtname": "Porbandar",
    "statename": "GUJARAT"
  },
  {
    "pincode": "360590",
    "officename": "Bharvada B.O",
    "officeType": "B.O",
    "Deliverystatus": "Delivery",
    "divisionname": "Porbandar",
    "regionname": "Rajkot",
    "circlename": "Gujarat",
    "Taluk": "Porbandar",
    "Districtname": "Porbandar",
    "statename": "GUJARAT"
  },
  {
    "pincode": "360590",
    "officename": "Bhetakadi B.O",
    "officeType": "B.O",
    "Deliverystatus": "Delivery",
    "divisionname": "Porbandar",
    "regionname": "Rajkot",
    "circlename": "Gujarat",
    "Taluk": "Porbandar",
    "Districtname": "Porbandar",
    "statename": "GUJARAT"
  },
  {
    "pincode": "360590",
    "officename": "Fatana B.O",
    "officeType": "B.O",
    "Deliverystatus": "Delivery",
    "divisionname": "Porbandar",
    "regionname": "Rajkot",
    "circlename": "Gujarat",
    "Taluk": "Porbandar",
    "Districtname": "Porbandar",
    "statename": "GUJARAT"
  },
  {
    "pincode": "360590",
    "officename": "Gadu B.O",
    "officeType": "B.O",
    "Deliverystatus": "Delivery",
    "divisionname": "Porbandar",
    "regionname": "Rajkot",
    "circlename": "Gujarat",
    "Taluk": "Bhanvad",
    "Districtname": "Jamnagar",
    "statename": "GUJARAT"
  },
  {
    "pincode": "360590",
    "officename": "Hathla B.O",
    "officeType": "B.O",
    "Deliverystatus": "Delivery",
    "divisionname": "Porbandar",
    "regionname": "Rajkot",
    "circlename": "Gujarat",
    "Taluk": "Bhanvad",
    "Districtname": "Jamnagar",
    "statename": "GUJARAT"
  },
  {
    "pincode": "360590",
    "officename": "Khambhodar B.O",
    "officeType": "B.O",
    "Deliverystatus": "Delivery",
    "divisionname": "Porbandar",
    "regionname": "Rajkot",
    "circlename": "Gujarat",
    "Taluk": "Porbandar",
    "Districtname": "Porbandar",
    "statename": "GUJARAT"
  },
  {
    "pincode": "360590",
    "officename": "Kindarkheda B.O",
    "officeType": "B.O",
    "Deliverystatus": "Delivery",
    "divisionname": "Porbandar",
    "regionname": "Rajkot",
    "circlename": "Gujarat",
    "Taluk": "Porbandar",
    "Districtname": "Porbandar",
    "statename": "GUJARAT"
  },
  {
    "pincode": "360590",
    "officename": "Majivana B.O",
    "officeType": "B.O",
    "Deliverystatus": "Delivery",
    "divisionname": "Porbandar",
    "regionname": "Rajkot",
    "circlename": "Gujarat",
    "Taluk": "Porbandar",
    "Districtname": "Porbandar",
    "statename": "GUJARAT"
  },
  {
    "pincode": "360590",
    "officename": "Modhvada B.O",
    "officeType": "B.O",
    "Deliverystatus": "Delivery",
    "divisionname": "Porbandar",
    "regionname": "Rajkot",
    "circlename": "Gujarat",
    "Taluk": "Porbaandar",
    "Districtname": "Porbandar",
    "statename": "GUJARAT"
  },
  {
    "pincode": "360590",
    "officename": "Morana B.O",
    "officeType": "B.O",
    "Deliverystatus": "Delivery",
    "divisionname": "Porbandar",
    "regionname": "Rajkot",
    "circlename": "Gujarat",
    "Taluk": "Porbandar",
    "Districtname": "Porbandar",
    "statename": "GUJARAT"
  },
  {
    "pincode": "360590",
    "officename": "Rozda B.O",
    "officeType": "B.O",
    "Deliverystatus": "Delivery",
    "divisionname": "Porbandar",
    "regionname": "Rajkot",
    "circlename": "Gujarat",
    "Taluk": "Bhanvad",
    "Districtname": "Jamnagar",
    "statename": "GUJARAT"
  },
  {
    "pincode": "360590",
    "officename": "Shingda B.O",
    "officeType": "B.O",
    "Deliverystatus": "Delivery",
    "divisionname": "Porbandar",
    "regionname": "Rajkot",
    "circlename": "Gujarat",
    "Taluk": "Porbandar",
    "Districtname": "Porbandar",
    "statename": "GUJARAT"
  },
  {
    "pincode": "360590",
    "officename": "Sisli B.O",
    "officeType": "B.O",
    "Deliverystatus": "Delivery",
    "divisionname": "Porbandar",
    "regionname": "Rajkot",
    "circlename": "Gujarat",
    "Taluk": "Porbandar",
    "Districtname": "Porbandar",
    "statename": "GUJARAT"
  },
  {
    "pincode": "360590",
    "officename": "Sodhana B.O",
    "officeType": "B.O",
    "Deliverystatus": "Delivery",
    "divisionname": "Porbandar",
    "regionname": "Rajkot",
    "circlename": "Gujarat",
    "Taluk": "Porbandar",
    "Districtname": "Porbandar",
    "statename": "GUJARAT"
  },
  {
    "pincode": "360590",
    "officename": "Vadala Rana B.O",
    "officeType": "B.O",
    "Deliverystatus": "Delivery",
    "divisionname": "Porbandar",
    "regionname": "Rajkot",
    "circlename": "Gujarat",
    "Taluk": "Porbandar",
    "Districtname": "Porbandar",
    "statename": "GUJARAT"
  }
]
