[
  {
    "pincode": "360540",
    "officename": "Bamangam B.O",
    "officeType": "B.O",
    "Deliverystatus": "Delivery",
    "divisionname": "Jamnagar",
    "regionname": "Rajkot",
    "circlename": "Gujarat",
    "Taluk": "Kalavad",
    "Districtname": "Jamnagar",
    "statename": "GUJARAT"
  },
  {
    "pincode": "360540",
    "officename": "Bhagat Khijadia B.O",
    "officeType": "B.O",
    "Deliverystatus": "Delivery",
    "divisionname": "Jamnagar",
    "regionname": "Rajkot",
    "circlename": "Gujarat",
    "Taluk": "Kalavad",
    "Districtname": "Jamnagar",
    "statename": "GUJARAT"
  },
  {
    "pincode": "360540",
    "officename": "Bhavabhi Khijadia B.O",
    "officeType": "B.O",
    "Deliverystatus": "Delivery",
    "divisionname": "Jamnagar",
    "regionname": "Rajkot",
    "circlename": "Gujarat",
    "Taluk": "Kalavad",
    "Districtname": "Jamnagar",
    "statename": "GUJARAT"
  },
  {
    "pincode": "360540",
    "officename": "Deri B.O",
    "officeType": "B.O",
    "Deliverystatus": "Delivery",
    "divisionname": "Jamnagar",
    "regionname": "Rajkot",
    "circlename": "Gujarat",
    "Taluk": "Kalavad",
    "Districtname": "Jamnagar",
    "statename": "GUJARAT"
  },
  {
    "pincode": "360540",
    "officename": "Kalmeghda B.O",
    "officeType": "B.O",
    "Deliverystatus": "Delivery",
    "divisionname": "Jamnagar",
    "regionname": "Rajkot",
    "circlename": "Gujarat",
    "Taluk": "Kalavad",
    "Districtname": "Jamnagar",
    "statename": "GUJARAT"
  },
  {
    "pincode": "360540",
    "officename": "Kharedi S.O",
    "officeType": "S.O",
    "Deliverystatus": "Delivery",
    "divisionname": "Jamnagar",
    "regionname": "Rajkot",
    "circlename": "Gujarat",
    "Taluk": "Okhamandal",
    "Districtname": "Jamnagar",
    "statename": "GUJARAT"
  },
  {
    "pincode": "360540",
    "officename": "Makhakarod B.O",
    "officeType": "B.O",
    "Deliverystatus": "Delivery",
    "divisionname": "Jamnagar",
    "regionname": "Rajkot",
    "circlename": "Gujarat",
    "Taluk": "Kalavad",
    "Districtname": "Jamnagar",
    "statename": "GUJARAT"
  },
  {
    "pincode": "360540",
    "officename": "Moridad B.O",
    "officeType": "B.O",
    "Deliverystatus": "Delivery",
    "divisionname": "Jamnagar",
    "regionname": "Rajkot",
    "circlename": "Gujarat",
    "Taluk": "Kalavad",
    "Districtname": "Jamnagar",
    "statename": "GUJARAT"
  },
  {
    "pincode": "360540",
    "officename": "Nana Vadala B.O",
    "officeType": "B.O",
    "Deliverystatus": "Delivery",
    "divisionname": "Jamnagar",
    "regionname": "Rajkot",
    "circlename": "Gujarat",
    "Taluk": "Kalavad",
    "Districtname": "Jamnagar",
    "statename": "GUJARAT"
  },
  {
    "pincode": "360540",
    "officename": "Pipar B.O",
    "officeType": "B.O",
    "Deliverystatus": "Delivery",
    "divisionname": "Jamnagar",
    "regionname": "Rajkot",
    "circlename": "Gujarat",
    "Taluk": "Kalavad",
    "Districtname": "Jamnagar",
    "statename": "GUJARAT"
  }
]
