[
  {
    "pincode": "360579",
    "officename": "Bakharla B.O",
    "officeType": "B.O",
    "Deliverystatus": "Delivery",
    "divisionname": "Porbandar",
    "regionname": "Rajkot",
    "circlename": "Gujarat",
    "Taluk": "Porbandar",
    "Districtname": "Porbandar",
    "statename": "GUJARAT"
  },
  {
    "pincode": "360579",
    "officename": "Bhavpara B.O",
    "officeType": "B.O",
    "Deliverystatus": "Delivery",
    "divisionname": "Porbandar",
    "regionname": "Rajkot",
    "circlename": "Gujarat",
    "Taluk": "Porbandar",
    "Districtname": "Porbandar",
    "statename": "GUJARAT"
  },
  {
    "pincode": "360579",
    "officename": "Bokhira S.O",
    "officeType": "S.O",
    "Deliverystatus": "Delivery",
    "divisionname": "Porbandar",
    "regionname": "Rajkot",
    "circlename": "Gujarat",
    "Taluk": "",
    "Districtname": "Porbandar",
    "statename": "GUJARAT"
  },
  {
    "pincode": "360579",
    "officename": "Degam B.O",
    "officeType": "B.O",
    "Deliverystatus": "Delivery",
    "divisionname": "Porbandar",
    "regionname": "Rajkot",
    "circlename": "Gujarat",
    "Taluk": "Porbandar",
    "Districtname": "Porbandar",
    "statename": "GUJARAT"
  },
  {
    "pincode": "360579",
    "officename": "Khapat B.O",
    "officeType": "B.O",
    "Deliverystatus": "Delivery",
    "divisionname": "Porbandar",
    "regionname": "Rajkot",
    "circlename": "Gujarat",
    "Taluk": "",
    "Districtname": "Porbandar",
    "statename": "GUJARAT"
  },
  {
    "pincode": "360579",
    "officename": "Khistri B.O",
    "officeType": "B.O",
    "Deliverystatus": "Delivery",
    "divisionname": "Porbandar",
    "regionname": "Rajkot",
    "circlename": "Gujarat",
    "Taluk": "Porbandar",
    "Districtname": "Porbandar",
    "statename": "GUJARAT"
  },
  {
    "pincode": "360579",
    "officename": "Kuchhdi B.O",
    "officeType": "B.O",
    "Deliverystatus": "Delivery",
    "divisionname": "Porbandar",
    "regionname": "Rajkot",
    "circlename": "Gujarat",
    "Taluk": "Porbandar",
    "Districtname": "Porbandar",
    "statename": "GUJARAT"
  },
  {
    "pincode": "360579",
    "officename": "Miyani B.O",
    "officeType": "B.O",
    "Deliverystatus": "Delivery",
    "divisionname": "Porbandar",
    "regionname": "Rajkot",
    "circlename": "Gujarat",
    "Taluk": "Porbandar",
    "Districtname": "Porbandar",
    "statename": "GUJARAT"
  },
  {
    "pincode": "360579",
    "officename": "Nagka B.O",
    "officeType": "B.O",
    "Deliverystatus": "Delivery",
    "divisionname": "Porbandar",
    "regionname": "Rajkot",
    "circlename": "Gujarat",
    "Taluk": "Porbandar",
    "Districtname": "Porbandar",
    "statename": "GUJARAT"
  },
  {
    "pincode": "360579",
    "officename": "Pandavadar B.O",
    "officeType": "B.O",
    "Deliverystatus": "Delivery",
    "divisionname": "Porbandar",
    "regionname": "Rajkot",
    "circlename": "Gujarat",
    "Taluk": "Porbandar",
    "Districtname": "Porbandar",
    "statename": "GUJARAT"
  },
  {
    "pincode": "360579",
    "officename": "Ratdi B.O",
    "officeType": "B.O",
    "Deliverystatus": "Delivery",
    "divisionname": "Porbandar",
    "regionname": "Rajkot",
    "circlename": "Gujarat",
    "Taluk": "Porbandar",
    "Districtname": "Porbandar",
    "statename": "GUJARAT"
  },
  {
    "pincode": "360579",
    "officename": "Tukda Miyani B.O",
    "officeType": "B.O",
    "Deliverystatus": "Delivery",
    "divisionname": "Porbandar",
    "regionname": "Rajkot",
    "circlename": "Gujarat",
    "Taluk": "Porbandar",
    "Districtname": "Porbandar",
    "statename": "GUJARAT"
  },
  {
    "pincode": "360579",
    "officename": "Visavada B.O",
    "officeType": "B.O",
    "Deliverystatus": "Delivery",
    "divisionname": "Porbandar",
    "regionname": "Rajkot",
    "circlename": "Gujarat",
    "Taluk": "Porbandar",
    "Districtname": "Porbandar",
    "statename": "GUJARAT"
  }
]
