[
  {
    "pincode": "361012",
    "officename": "Changa B.O",
    "officeType": "B.O",
    "Deliverystatus": "Delivery",
    "divisionname": "Jamnagar",
    "regionname": "Rajkot",
    "circlename": "Gujarat",
    "Taluk": "Jamnagar",
    "Districtname": "Jamnagar",
    "statename": "GUJARAT"
  },
  {
    "pincode": "361012",
    "officename": "Chela S.O",
    "officeType": "S.O",
    "Deliverystatus": "Delivery",
    "divisionname": "Jamnagar",
    "regionname": "Rajkot",
    "circlename": "Gujarat",
    "Taluk": "Jamnagar",
    "Districtname": "Jamnagar",
    "statename": "GUJARAT"
  },
  {
    "pincode": "361012",
    "officename": "Dadia B.O",
    "officeType": "B.O",
    "Deliverystatus": "Delivery",
    "divisionname": "Jamnagar",
    "regionname": "Rajkot",
    "circlename": "Gujarat",
    "Taluk": "Jamnagar",
    "Districtname": "Jamnagar",
    "statename": "GUJARAT"
  },
  {
    "pincode": "361012",
    "officename": "Harshadpur B.O",
    "officeType": "B.O",
    "Deliverystatus": "Delivery",
    "divisionname": "Jamnagar",
    "regionname": "Rajkot",
    "circlename": "Gujarat",
    "Taluk": "Jamnagar",
    "Districtname": "Jamnagar",
    "statename": "GUJARAT"
  },
  {
    "pincode": "361012",
    "officename": "Khadkhambhalia B.O",
    "officeType": "B.O",
    "Deliverystatus": "Delivery",
    "divisionname": "Jamnagar",
    "regionname": "Rajkot",
    "circlename": "Gujarat",
    "Taluk": "Jamnagar",
    "Districtname": "Jamnagar",
    "statename": "GUJARAT"
  },
  {
    "pincode": "361012",
    "officename": "Khojaberaja B.O",
    "officeType": "B.O",
    "Deliverystatus": "Delivery",
    "divisionname": "Jamnagar",
    "regionname": "Rajkot",
    "circlename": "Gujarat",
    "Taluk": "Jamnagar",
    "Districtname": "Jamnagar",
    "statename": "GUJARAT"
  },
  {
    "pincode": "361012",
    "officename": "Lavadia B.O",
    "officeType": "B.O",
    "Deliverystatus": "Delivery",
    "divisionname": "Jamnagar",
    "regionname": "Rajkot",
    "circlename": "Gujarat",
    "Taluk": "Jamnagar",
    "Districtname": "Jamnagar",
    "statename": "GUJARAT"
  },
  {
    "pincode": "361012",
    "officename": "Motibhalsan B.O",
    "officeType": "B.O",
    "Deliverystatus": "Delivery",
    "divisionname": "Jamnagar",
    "regionname": "Rajkot",
    "circlename": "Gujarat",
    "Taluk": "Jamnagar",
    "Districtname": "Jamnagar",
    "statename": "GUJARAT"
  },
  {
    "pincode": "361012",
    "officename": "Naranpur B.O",
    "officeType": "B.O",
    "Deliverystatus": "Delivery",
    "divisionname": "Jamnagar",
    "regionname": "Rajkot",
    "circlename": "Gujarat",
    "Taluk": "Jamnagar",
    "Districtname": "Jamnagar",
    "statename": "GUJARAT"
  },
  {
    "pincode": "361012",
    "officename": "Pipartoda B.O",
    "officeType": "B.O",
    "Deliverystatus": "Delivery",
    "divisionname": "Jamnagar",
    "regionname": "Rajkot",
    "circlename": "Gujarat",
    "Taluk": "Jamnagar",
    "Districtname": "Jamnagar",
    "statename": "GUJARAT"
  },
  {
    "pincode": "361012",
    "officename": "Vadpanchasara B.O",
    "officeType": "B.O",
    "Deliverystatus": "Delivery",
    "divisionname": "Jamnagar",
    "regionname": "Rajkot",
    "circlename": "Gujarat",
    "Taluk": "Jamnagar",
    "Districtname": "Jamnagar",
    "statename": "GUJARAT"
  },
  {
    "pincode": "361012",
    "officename": "Veraval Moti B.O",
    "officeType": "B.O",
    "Deliverystatus": "Delivery",
    "divisionname": "Jamnagar",
    "regionname": "Rajkot",
    "circlename": "Gujarat",
    "Taluk": "Jamnagar",
    "Districtname": "Jamnagar",
    "statename": "GUJARAT"
  }
]
