[
  {
    "pincode": "361001",
    "officename": "Grain Market S.O (Jamnagar)",
    "officeType": "S.O",
    "Deliverystatus": "Non-Delivery",
    "divisionname": "Jamnagar",
    "regionname": "Rajkot",
    "circlename": "Gujarat",
    "Taluk": "Kalavad",
    "Districtname": "Jamnagar",
    "statename": "GUJARAT"
  },
  {
    "pincode": "361001",
    "officename": "Jamnagar H.O",
    "officeType": "H.O",
    "Deliverystatus": "Delivery",
    "divisionname": "Jamnagar",
    "regionname": "Rajkot",
    "circlename": "Gujarat",
    "Taluk": "Kalavad",
    "Districtname": "Jamnagar",
    "statename": "GUJARAT"
  },
  {
    "pincode": "361001",
    "officename": "Khambhalia Gate S.O",
    "officeType": "S.O",
    "Deliverystatus": "Non-Delivery",
    "divisionname": "Jamnagar",
    "regionname": "Rajkot",
    "circlename": "Gujarat",
    "Taluk": "Kalavad",
    "Districtname": "Jamnagar",
    "statename": "GUJARAT"
  },
  {
    "pincode": "361001",
    "officename": "Lal Bunglow S.O",
    "officeType": "S.O",
    "Deliverystatus": "Non-Delivery",
    "divisionname": "Jamnagar",
    "regionname": "Rajkot",
    "circlename": "Gujarat",
    "Taluk": "Kalavad",
    "Districtname": "Jamnagar",
    "statename": "GUJARAT"
  },
  {
    "pincode": "361001",
    "officename": "Mandvi Chowk S.O",
    "officeType": "S.O",
    "Deliverystatus": "Non-Delivery",
    "divisionname": "Jamnagar",
    "regionname": "Rajkot",
    "circlename": "Gujarat",
    "Taluk": "Kalavad",
    "Districtname": "Jamnagar",
    "statename": "GUJARAT"
  },
  {
    "pincode": "361001",
    "officename": "New Super Market S.O",
    "officeType": "S.O",
    "Deliverystatus": "Non-Delivery",
    "divisionname": "Jamnagar",
    "regionname": "Rajkot",
    "circlename": "Gujarat",
    "Taluk": "Kalavad",
    "Districtname": "Jamnagar",
    "statename": "GUJARAT"
  },
  {
    "pincode": "361001",
    "officename": "Pancheshwar Tower Chowk S.O",
    "officeType": "S.O",
    "Deliverystatus": "Non-Delivery",
    "divisionname": "Jamnagar",
    "regionname": "Rajkot",
    "circlename": "Gujarat",
    "Taluk": "Kalavad",
    "Districtname": "Jamnagar",
    "statename": "GUJARAT"
  },
  {
    "pincode": "361001",
    "officename": "Station Road S.O (Jamnagar)",
    "officeType": "S.O",
    "Deliverystatus": "Non-Delivery",
    "divisionname": "Jamnagar",
    "regionname": "Rajkot",
    "circlename": "Gujarat",
    "Taluk": "Kalavad",
    "Districtname": "Jamnagar",
    "statename": "GUJARAT"
  }
]
