[
  {
    "pincode": "361220",
    "officename": "Bhensdad B.O",
    "officeType": "B.O",
    "Deliverystatus": "Delivery",
    "divisionname": "Jamnagar",
    "regionname": "Rajkot",
    "circlename": "Gujarat",
    "Taluk": "Dhrol",
    "Districtname": "Jamnagar",
    "statename": "GUJARAT"
  },
  {
    "pincode": "361220",
    "officename": "Bodka B.O",
    "officeType": "B.O",
    "Deliverystatus": "Delivery",
    "divisionname": "Jamnagar",
    "regionname": "Rajkot",
    "circlename": "Gujarat",
    "Taluk": "Dhrol",
    "Districtname": "Jamnagar",
    "statename": "GUJARAT"
  },
  {
    "pincode": "361220",
    "officename": "Gajedi B.O",
    "officeType": "B.O",
    "Deliverystatus": "Delivery",
    "divisionname": "Jamnagar",
    "regionname": "Rajkot",
    "circlename": "Gujarat",
    "Taluk": "Dhrol",
    "Districtname": "Jamnagar",
    "statename": "GUJARAT"
  },
  {
    "pincode": "361220",
    "officename": "Jasapar B.O",
    "officeType": "B.O",
    "Deliverystatus": "Delivery",
    "divisionname": "Jamnagar",
    "regionname": "Rajkot",
    "circlename": "Gujarat",
    "Taluk": "Dhrol",
    "Districtname": "Jamnagar",
    "statename": "GUJARAT"
  },
  {
    "pincode": "361220",
    "officename": "Jiragadh B.O",
    "officeType": "B.O",
    "Deliverystatus": "Delivery",
    "divisionname": "Jamnagar",
    "regionname": "Rajkot",
    "circlename": "Gujarat",
    "Taluk": "Dhrol",
    "Districtname": "Jamnagar",
    "statename": "GUJARAT"
  },
  {
    "pincode": "361220",
    "officename": "Koyli B.O",
    "officeType": "B.O",
    "Deliverystatus": "Delivery",
    "divisionname": "Jamnagar",
    "regionname": "Rajkot",
    "circlename": "Gujarat",
    "Taluk": "Dhrol",
    "Districtname": "Jamnagar",
    "statename": "GUJARAT"
  },
  {
    "pincode": "361220",
    "officename": "Latipur S.O",
    "officeType": "S.O",
    "Deliverystatus": "Delivery",
    "divisionname": "Jamnagar",
    "regionname": "Rajkot",
    "circlename": "Gujarat",
    "Taluk": "Khambhalia",
    "Districtname": "Jamnagar",
    "statename": "GUJARAT"
  },
  {
    "pincode": "361220",
    "officename": "Meghpur B.O",
    "officeType": "B.O",
    "Deliverystatus": "Delivery",
    "divisionname": "Jamnagar",
    "regionname": "Rajkot",
    "circlename": "Gujarat",
    "Taluk": "Dhrol",
    "Districtname": "Jamnagar",
    "statename": "GUJARAT"
  },
  {
    "pincode": "361220",
    "officename": "Pithad B.O",
    "officeType": "B.O",
    "Deliverystatus": "Delivery",
    "divisionname": "Jamnagar",
    "regionname": "Rajkot",
    "circlename": "Gujarat",
    "Taluk": "Dhrol",
    "Districtname": "Jamnagar",
    "statename": "GUJARAT"
  }
]
