[
  {
    "pincode": "362020",
    "officename": "Barvala Galath B.O",
    "officeType": "B.O",
    "Deliverystatus": "Delivery",
    "divisionname": "Junagadh",
    "regionname": "Rajkot",
    "circlename": "Gujarat",
    "Taluk": "",
    "Districtname": "Junagadh",
    "statename": "GUJARAT"
  },
  {
    "pincode": "362020",
    "officename": "Bhesan S.O",
    "officeType": "S.O",
    "Deliverystatus": "Delivery",
    "divisionname": "Junagadh",
    "regionname": "Rajkot",
    "circlename": "Gujarat",
    "Taluk": "Bhesan",
    "Districtname": "Junagadh",
    "statename": "GUJARAT"
  },
  {
    "pincode": "362020",
    "officename": "Chanaka B.O",
    "officeType": "B.O",
    "Deliverystatus": "Delivery",
    "divisionname": "Junagadh",
    "regionname": "Rajkot",
    "circlename": "Gujarat",
    "Taluk": "",
    "Districtname": "Junagadh",
    "statename": "GUJARAT"
  },
  {
    "pincode": "362020",
    "officename": "Chuda B.O",
    "officeType": "B.O",
    "Deliverystatus": "Delivery",
    "divisionname": "Junagadh",
    "regionname": "Rajkot",
    "circlename": "Gujarat",
    "Taluk": "",
    "Districtname": "Junagadh",
    "statename": "GUJARAT"
  },
  {
    "pincode": "362020",
    "officename": "Dharigundali Juni B.O",
    "officeType": "B.O",
    "Deliverystatus": "Delivery",
    "divisionname": "Junagadh",
    "regionname": "Rajkot",
    "circlename": "Gujarat",
    "Taluk": "",
    "Districtname": "Junagadh",
    "statename": "GUJARAT"
  },
  {
    "pincode": "362020",
    "officename": "Dholva B.O",
    "officeType": "B.O",
    "Deliverystatus": "Delivery",
    "divisionname": "Junagadh",
    "regionname": "Rajkot",
    "circlename": "Gujarat",
    "Taluk": "",
    "Districtname": "Junagadh",
    "statename": "GUJARAT"
  },
  {
    "pincode": "362020",
    "officename": "Galath B.O",
    "officeType": "B.O",
    "Deliverystatus": "Delivery",
    "divisionname": "Junagadh",
    "regionname": "Rajkot",
    "circlename": "Gujarat",
    "Taluk": "",
    "Districtname": "Junagadh",
    "statename": "GUJARAT"
  },
  {
    "pincode": "362020",
    "officename": "Hadmatiya Khajuri B.O",
    "officeType": "B.O",
    "Deliverystatus": "Delivery",
    "divisionname": "Junagadh",
    "regionname": "Rajkot",
    "circlename": "Gujarat",
    "Taluk": "",
    "Districtname": "Junagadh",
    "statename": "GUJARAT"
  },
  {
    "pincode": "362020",
    "officename": "Kotda Mota B.O",
    "officeType": "B.O",
    "Deliverystatus": "Delivery",
    "divisionname": "Junagadh",
    "regionname": "Rajkot",
    "circlename": "Gujarat",
    "Taluk": "",
    "Districtname": "Junagadh",
    "statename": "GUJARAT"
  },
  {
    "pincode": "362020",
    "officename": "Morvada B.O",
    "officeType": "B.O",
    "Deliverystatus": "Delivery",
    "divisionname": "Junagadh",
    "regionname": "Rajkot",
    "circlename": "Gujarat",
    "Taluk": "",
    "Districtname": "Junagadh",
    "statename": "GUJARAT"
  },
  {
    "pincode": "362020",
    "officename": "Parabvavdi B.O",
    "officeType": "B.O",
    "Deliverystatus": "Delivery",
    "divisionname": "Junagadh",
    "regionname": "Rajkot",
    "circlename": "Gujarat",
    "Taluk": "",
    "Districtname": "Junagadh",
    "statename": "GUJARAT"
  },
  {
    "pincode": "362020",
    "officename": "Rafalia B.O",
    "officeType": "B.O",
    "Deliverystatus": "Delivery",
    "divisionname": "Junagadh",
    "regionname": "Rajkot",
    "circlename": "Gujarat",
    "Taluk": "",
    "Districtname": "Junagadh",
    "statename": "GUJARAT"
  },
  {
    "pincode": "362020",
    "officename": "Sardarpur B.O",
    "officeType": "B.O",
    "Deliverystatus": "Delivery",
    "divisionname": "Junagadh",
    "regionname": "Rajkot",
    "circlename": "Gujarat",
    "Taluk": "",
    "Districtname": "Junagadh",
    "statename": "GUJARAT"
  },
  {
    "pincode": "362020",
    "officename": "Shobha Vadla B.O",
    "officeType": "B.O",
    "Deliverystatus": "Delivery",
    "divisionname": "Junagadh",
    "regionname": "Rajkot",
    "circlename": "Gujarat",
    "Taluk": "",
    "Districtname": "Junagadh",
    "statename": "GUJARAT"
  },
  {
    "pincode": "362020",
    "officename": "Umrali B.O",
    "officeType": "B.O",
    "Deliverystatus": "Delivery",
    "divisionname": "Junagadh",
    "regionname": "Rajkot",
    "circlename": "Gujarat",
    "Taluk": "",
    "Districtname": "Junagadh",
    "statename": "GUJARAT"
  },
  {
    "pincode": "362020",
    "officename": "Vichhavad B.O",
    "officeType": "B.O",
    "Deliverystatus": "Delivery",
    "divisionname": "Junagadh",
    "regionname": "Rajkot",
    "circlename": "Gujarat",
    "Taluk": "",
    "Districtname": "Junagadh",
    "statename": "GUJARAT"
  }
]
