[
  {
    "pincode": "362130",
    "officename": "Butdi B.O",
    "officeType": "B.O",
    "Deliverystatus": "Delivery",
    "divisionname": "Junagadh",
    "regionname": "Rajkot",
    "circlename": "Gujarat",
    "Taluk": "",
    "Districtname": "Junagadh",
    "statename": "GUJARAT"
  },
  {
    "pincode": "362130",
    "officename": "Dhebar B.O",
    "officeType": "B.O",
    "Deliverystatus": "Delivery",
    "divisionname": "Junagadh",
    "regionname": "Rajkot",
    "circlename": "Gujarat",
    "Taluk": "",
    "Districtname": "Junagadh",
    "statename": "GUJARAT"
  },
  {
    "pincode": "362130",
    "officename": "Ghodasan B.O",
    "officeType": "B.O",
    "Deliverystatus": "Delivery",
    "divisionname": "Junagadh",
    "regionname": "Rajkot",
    "circlename": "Gujarat",
    "Taluk": "",
    "Districtname": "Junagadh",
    "statename": "GUJARAT"
  },
  {
    "pincode": "362130",
    "officename": "Jambuda B.O",
    "officeType": "B.O",
    "Deliverystatus": "Delivery",
    "divisionname": "Junagadh",
    "regionname": "Rajkot",
    "circlename": "Gujarat",
    "Taluk": "",
    "Districtname": "Junagadh",
    "statename": "GUJARAT"
  },
  {
    "pincode": "362130",
    "officename": "Jetalvad B.O",
    "officeType": "B.O",
    "Deliverystatus": "Delivery",
    "divisionname": "Junagadh",
    "regionname": "Rajkot",
    "circlename": "Gujarat",
    "Taluk": "",
    "Districtname": "Junagadh",
    "statename": "GUJARAT"
  },
  {
    "pincode": "362130",
    "officename": "Kalavad Gir B.O",
    "officeType": "B.O",
    "Deliverystatus": "Delivery",
    "divisionname": "Junagadh",
    "regionname": "Rajkot",
    "circlename": "Gujarat",
    "Taluk": "",
    "Districtname": "Junagadh",
    "statename": "GUJARAT"
  },
  {
    "pincode": "362130",
    "officename": "Kalsari B.O",
    "officeType": "B.O",
    "Deliverystatus": "Delivery",
    "divisionname": "Junagadh",
    "regionname": "Rajkot",
    "circlename": "Gujarat",
    "Taluk": "",
    "Districtname": "Junagadh",
    "statename": "GUJARAT"
  },
  {
    "pincode": "362130",
    "officename": "Khambha Gir B.O",
    "officeType": "B.O",
    "Deliverystatus": "Delivery",
    "divisionname": "Junagadh",
    "regionname": "Rajkot",
    "circlename": "Gujarat",
    "Taluk": "",
    "Districtname": "Junagadh",
    "statename": "GUJARAT"
  },
  {
    "pincode": "362130",
    "officename": "Leriya B.O",
    "officeType": "B.O",
    "Deliverystatus": "Delivery",
    "divisionname": "Junagadh",
    "regionname": "Rajkot",
    "circlename": "Gujarat",
    "Taluk": "",
    "Districtname": "Junagadh",
    "statename": "GUJARAT"
  },
  {
    "pincode": "362130",
    "officename": "Motimonpari B.O",
    "officeType": "B.O",
    "Deliverystatus": "Delivery",
    "divisionname": "Junagadh",
    "regionname": "Rajkot",
    "circlename": "Gujarat",
    "Taluk": "",
    "Districtname": "Junagadh",
    "statename": "GUJARAT"
  },
  {
    "pincode": "362130",
    "officename": "Prempara B.O",
    "officeType": "B.O",
    "Deliverystatus": "Delivery",
    "divisionname": "Junagadh",
    "regionname": "Rajkot",
    "circlename": "Gujarat",
    "Taluk": "",
    "Districtname": "Junagadh",
    "statename": "GUJARAT"
  },
  {
    "pincode": "362130",
    "officename": "Ravni Kuba B.O",
    "officeType": "B.O",
    "Deliverystatus": "Delivery",
    "divisionname": "Junagadh",
    "regionname": "Rajkot",
    "circlename": "Gujarat",
    "Taluk": "",
    "Districtname": "Junagadh",
    "statename": "GUJARAT"
  },
  {
    "pincode": "362130",
    "officename": "Vekariya B.O",
    "officeType": "B.O",
    "Deliverystatus": "Delivery",
    "divisionname": "Junagadh",
    "regionname": "Rajkot",
    "circlename": "Gujarat",
    "Taluk": "",
    "Districtname": "Junagadh",
    "statename": "GUJARAT"
  },
  {
    "pincode": "362130",
    "officename": "Visavadar S.O",
    "officeType": "S.O",
    "Deliverystatus": "Delivery",
    "divisionname": "Junagadh",
    "regionname": "Rajkot",
    "circlename": "Gujarat",
    "Taluk": "",
    "Districtname": "Junagadh",
    "statename": "GUJARAT"
  }
]
