[
  {
    "pincode": "362150",
    "officename": "Akala B.O",
    "officeType": "B.O",
    "Deliverystatus": "Delivery",
    "divisionname": "Junagadh",
    "regionname": "Rajkot",
    "circlename": "Gujarat",
    "Taluk": "",
    "Districtname": "Junagadh",
    "statename": "GUJARAT"
  },
  {
    "pincode": "362150",
    "officename": "Amblash B.O",
    "officeType": "B.O",
    "Deliverystatus": "Delivery",
    "divisionname": "Junagadh",
    "regionname": "Rajkot",
    "circlename": "Gujarat",
    "Taluk": "",
    "Districtname": "Junagadh",
    "statename": "GUJARAT"
  },
  {
    "pincode": "362150",
    "officename": "Bakula Dhanej B.O",
    "officeType": "B.O",
    "Deliverystatus": "Delivery",
    "divisionname": "Junagadh",
    "regionname": "Rajkot",
    "circlename": "Gujarat",
    "Taluk": "",
    "Districtname": "Junagadh",
    "statename": "GUJARAT"
  },
  {
    "pincode": "362150",
    "officename": "Borvav B.O",
    "officeType": "B.O",
    "Deliverystatus": "Delivery",
    "divisionname": "Junagadh",
    "regionname": "Rajkot",
    "circlename": "Gujarat",
    "Taluk": "",
    "Districtname": "Junagadh",
    "statename": "GUJARAT"
  },
  {
    "pincode": "362150",
    "officename": "Chitravad B.O",
    "officeType": "B.O",
    "Deliverystatus": "Delivery",
    "divisionname": "Junagadh",
    "regionname": "Rajkot",
    "circlename": "Gujarat",
    "Taluk": "",
    "Districtname": "Junagadh",
    "statename": "GUJARAT"
  },
  {
    "pincode": "362150",
    "officename": "Dhava B.O",
    "officeType": "B.O",
    "Deliverystatus": "Delivery",
    "divisionname": "Junagadh",
    "regionname": "Rajkot",
    "circlename": "Gujarat",
    "Taluk": "",
    "Districtname": "Junagadh",
    "statename": "GUJARAT"
  },
  {
    "pincode": "362150",
    "officename": "Dhramanva B.O",
    "officeType": "B.O",
    "Deliverystatus": "Delivery",
    "divisionname": "Junagadh",
    "regionname": "Rajkot",
    "circlename": "Gujarat",
    "Taluk": "",
    "Districtname": "Junagadh",
    "statename": "GUJARAT"
  },
  {
    "pincode": "362150",
    "officename": "Gabha B.O",
    "officeType": "B.O",
    "Deliverystatus": "Delivery",
    "divisionname": "Junagadh",
    "regionname": "Rajkot",
    "circlename": "Gujarat",
    "Taluk": "",
    "Districtname": "Junagadh",
    "statename": "GUJARAT"
  },
  {
    "pincode": "362150",
    "officename": "Ghunsiya B.O",
    "officeType": "B.O",
    "Deliverystatus": "Delivery",
    "divisionname": "Junagadh",
    "regionname": "Rajkot",
    "circlename": "Gujarat",
    "Taluk": "",
    "Districtname": "Junagadh",
    "statename": "GUJARAT"
  },
  {
    "pincode": "362150",
    "officename": "Gundran B.O",
    "officeType": "B.O",
    "Deliverystatus": "Delivery",
    "divisionname": "Junagadh",
    "regionname": "Rajkot",
    "circlename": "Gujarat",
    "Taluk": "",
    "Districtname": "Junagadh",
    "statename": "GUJARAT"
  },
  {
    "pincode": "362150",
    "officename": "Haripur B.O",
    "officeType": "B.O",
    "Deliverystatus": "Delivery",
    "divisionname": "Junagadh",
    "regionname": "Rajkot",
    "circlename": "Gujarat",
    "Taluk": "",
    "Districtname": "Junagadh",
    "statename": "GUJARAT"
  },
  {
    "pincode": "362150",
    "officename": "Jepur B.O",
    "officeType": "B.O",
    "Deliverystatus": "Delivery",
    "divisionname": "Junagadh",
    "regionname": "Rajkot",
    "circlename": "Gujarat",
    "Taluk": "",
    "Districtname": "Junagadh",
    "statename": "GUJARAT"
  },
  {
    "pincode": "362150",
    "officename": "Khandheri B.O",
    "officeType": "B.O",
    "Deliverystatus": "Delivery",
    "divisionname": "Junagadh",
    "regionname": "Rajkot",
    "circlename": "Gujarat",
    "Taluk": "",
    "Districtname": "Junagadh",
    "statename": "GUJARAT"
  },
  {
    "pincode": "362150",
    "officename": "Kodidra B.O",
    "officeType": "B.O",
    "Deliverystatus": "Delivery",
    "divisionname": "Junagadh",
    "regionname": "Rajkot",
    "circlename": "Gujarat",
    "Taluk": "",
    "Districtname": "Junagadh",
    "statename": "GUJARAT"
  },
  {
    "pincode": "362150",
    "officename": "Lumbha B.O",
    "officeType": "B.O",
    "Deliverystatus": "Delivery",
    "divisionname": "Junagadh",
    "regionname": "Rajkot",
    "circlename": "Gujarat",
    "Taluk": "",
    "Districtname": "Junagadh",
    "statename": "GUJARAT"
  },
  {
    "pincode": "362150",
    "officename": "Madhupur Jambur B.O",
    "officeType": "B.O",
    "Deliverystatus": "Delivery",
    "divisionname": "Junagadh",
    "regionname": "Rajkot",
    "circlename": "Gujarat",
    "Taluk": "",
    "Districtname": "Junagadh",
    "statename": "GUJARAT"
  },
  {
    "pincode": "362150",
    "officename": "Maljinjva B.O",
    "officeType": "B.O",
    "Deliverystatus": "Delivery",
    "divisionname": "Junagadh",
    "regionname": "Rajkot",
    "circlename": "Gujarat",
    "Taluk": "",
    "Districtname": "Junagadh",
    "statename": "GUJARAT"
  },
  {
    "pincode": "362150",
    "officename": "Sangodra B.O",
    "officeType": "B.O",
    "Deliverystatus": "Delivery",
    "divisionname": "Junagadh",
    "regionname": "Rajkot",
    "circlename": "Gujarat",
    "Taluk": "",
    "Districtname": "Junagadh",
    "statename": "GUJARAT"
  },
  {
    "pincode": "362150",
    "officename": "Semarvav B.O",
    "officeType": "B.O",
    "Deliverystatus": "Delivery",
    "divisionname": "Junagadh",
    "regionname": "Rajkot",
    "circlename": "Gujarat",
    "Taluk": "",
    "Districtname": "Junagadh",
    "statename": "GUJARAT"
  },
  {
    "pincode": "362150",
    "officename": "Talala S.O",
    "officeType": "S.O",
    "Deliverystatus": "Delivery",
    "divisionname": "Junagadh",
    "regionname": "Rajkot",
    "circlename": "Gujarat",
    "Taluk": "Talala",
    "Districtname": "Junagadh",
    "statename": "GUJARAT"
  },
  {
    "pincode": "362150",
    "officename": "Ukadiya B.O",
    "officeType": "B.O",
    "Deliverystatus": "Delivery",
    "divisionname": "Junagadh",
    "regionname": "Rajkot",
    "circlename": "Gujarat",
    "Taluk": "",
    "Districtname": "Junagadh",
    "statename": "GUJARAT"
  },
  {
    "pincode": "362150",
    "officename": "Virpur B.O",
    "officeType": "B.O",
    "Deliverystatus": "Delivery",
    "divisionname": "Junagadh",
    "regionname": "Rajkot",
    "circlename": "Gujarat",
    "Taluk": "",
    "Districtname": "Junagadh",
    "statename": "GUJARAT"
  }
]
