[
  {
    "pincode": "362220",
    "officename": "Akhodad So B.O",
    "officeType": "B.O",
    "Deliverystatus": "Delivery",
    "divisionname": "Junagadh",
    "regionname": "Rajkot",
    "circlename": "Gujarat",
    "Taluk": "Keshod",
    "Districtname": "Junagadh",
    "statename": "GUJARAT"
  },
  {
    "pincode": "362220",
    "officename": "Balagam B.O",
    "officeType": "B.O",
    "Deliverystatus": "Delivery",
    "divisionname": "Junagadh",
    "regionname": "Rajkot",
    "circlename": "Gujarat",
    "Taluk": "Keshod",
    "Districtname": "Junagadh",
    "statename": "GUJARAT"
  },
  {
    "pincode": "362220",
    "officename": "Bhatsimroli B.O",
    "officeType": "B.O",
    "Deliverystatus": "Delivery",
    "divisionname": "Junagadh",
    "regionname": "Rajkot",
    "circlename": "Gujarat",
    "Taluk": "Keshod",
    "Districtname": "Junagadh",
    "statename": "GUJARAT"
  },
  {
    "pincode": "362220",
    "officename": "Chandigadh B.O",
    "officeType": "B.O",
    "Deliverystatus": "Delivery",
    "divisionname": "Junagadh",
    "regionname": "Rajkot",
    "circlename": "Gujarat",
    "Taluk": "Keshod",
    "Districtname": "Junagadh",
    "statename": "GUJARAT"
  },
  {
    "pincode": "362220",
    "officename": "Char B.O",
    "officeType": "B.O",
    "Deliverystatus": "Delivery",
    "divisionname": "Junagadh",
    "regionname": "Rajkot",
    "circlename": "Gujarat",
    "Taluk": "Keshod",
    "Districtname": "Junagadh",
    "statename": "GUJARAT"
  },
  {
    "pincode": "362220",
    "officename": "Divrana B.O",
    "officeType": "B.O",
    "Deliverystatus": "Delivery",
    "divisionname": "Junagadh",
    "regionname": "Rajkot",
    "circlename": "Gujarat",
    "Taluk": "",
    "Districtname": "Junagadh",
    "statename": "GUJARAT"
  },
  {
    "pincode": "362220",
    "officename": "Fulrama B.O",
    "officeType": "B.O",
    "Deliverystatus": "Delivery",
    "divisionname": "Junagadh",
    "regionname": "Rajkot",
    "circlename": "Gujarat",
    "Taluk": "",
    "Districtname": "Junagadh",
    "statename": "GUJARAT"
  },
  {
    "pincode": "362220",
    "officename": "Keshod Aerodrome S.O",
    "officeType": "S.O",
    "Deliverystatus": "Non-Delivery",
    "divisionname": "Junagadh",
    "regionname": "Rajkot",
    "circlename": "Gujarat",
    "Taluk": "Keshod",
    "Districtname": "Junagadh",
    "statename": "GUJARAT"
  },
  {
    "pincode": "362220",
    "officename": "Keshod S.O",
    "officeType": "S.O",
    "Deliverystatus": "Delivery",
    "divisionname": "Junagadh",
    "regionname": "Rajkot",
    "circlename": "Gujarat",
    "Taluk": "Keshod",
    "Districtname": "Junagadh",
    "statename": "GUJARAT"
  },
  {
    "pincode": "362220",
    "officename": "Khamidana B.O",
    "officeType": "B.O",
    "Deliverystatus": "Delivery",
    "divisionname": "Junagadh",
    "regionname": "Rajkot",
    "circlename": "Gujarat",
    "Taluk": "Keshod",
    "Districtname": "Junagadh",
    "statename": "GUJARAT"
  },
  {
    "pincode": "362220",
    "officename": "Khirsara Ghed B.O",
    "officeType": "B.O",
    "Deliverystatus": "Delivery",
    "divisionname": "Junagadh",
    "regionname": "Rajkot",
    "circlename": "Gujarat",
    "Taluk": "Keshod",
    "Districtname": "Junagadh",
    "statename": "GUJARAT"
  },
  {
    "pincode": "362220",
    "officename": "Motighansari B.O",
    "officeType": "B.O",
    "Deliverystatus": "Delivery",
    "divisionname": "Junagadh",
    "regionname": "Rajkot",
    "circlename": "Gujarat",
    "Taluk": "Keshod",
    "Districtname": "Junagadh",
    "statename": "GUJARAT"
  },
  {
    "pincode": "362220",
    "officename": "Movana B.O",
    "officeType": "B.O",
    "Deliverystatus": "Delivery",
    "divisionname": "Junagadh",
    "regionname": "Rajkot",
    "circlename": "Gujarat",
    "Taluk": "Keshod",
    "Districtname": "Junagadh",
    "statename": "GUJARAT"
  },
  {
    "pincode": "362220",
    "officename": "Nanighansari B.O",
    "officeType": "B.O",
    "Deliverystatus": "Delivery",
    "divisionname": "Junagadh",
    "regionname": "Rajkot",
    "circlename": "Gujarat",
    "Taluk": "Keshod",
    "Districtname": "Junagadh",
    "statename": "GUJARAT"
  },
  {
    "pincode": "362220",
    "officename": "Nunarda B.O",
    "officeType": "B.O",
    "Deliverystatus": "Delivery",
    "divisionname": "Junagadh",
    "regionname": "Rajkot",
    "circlename": "Gujarat",
    "Taluk": "Keshod",
    "Districtname": "Junagadh",
    "statename": "GUJARAT"
  },
  {
    "pincode": "362220",
    "officename": "Osa B.O",
    "officeType": "B.O",
    "Deliverystatus": "Delivery",
    "divisionname": "Junagadh",
    "regionname": "Rajkot",
    "circlename": "Gujarat",
    "Taluk": "",
    "Districtname": "Junagadh",
    "statename": "GUJARAT"
  },
  {
    "pincode": "362220",
    "officename": "Padodar B.O",
    "officeType": "B.O",
    "Deliverystatus": "Delivery",
    "divisionname": "Junagadh",
    "regionname": "Rajkot",
    "circlename": "Gujarat",
    "Taluk": "Keshod",
    "Districtname": "Junagadh",
    "statename": "GUJARAT"
  },
  {
    "pincode": "362220",
    "officename": "Panchala B.O",
    "officeType": "B.O",
    "Deliverystatus": "Delivery",
    "divisionname": "Junagadh",
    "regionname": "Rajkot",
    "circlename": "Gujarat",
    "Taluk": "Keshod",
    "Districtname": "Junagadh",
    "statename": "GUJARAT"
  },
  {
    "pincode": "362220",
    "officename": "Pipli B.O",
    "officeType": "B.O",
    "Deliverystatus": "Delivery",
    "divisionname": "Junagadh",
    "regionname": "Rajkot",
    "circlename": "Gujarat",
    "Taluk": "Keshod",
    "Districtname": "Junagadh",
    "statename": "GUJARAT"
  },
  {
    "pincode": "362220",
    "officename": "Sandha B.O",
    "officeType": "B.O",
    "Deliverystatus": "Delivery",
    "divisionname": "Junagadh",
    "regionname": "Rajkot",
    "circlename": "Gujarat",
    "Taluk": "",
    "Districtname": "Junagadh",
    "statename": "GUJARAT"
  },
  {
    "pincode": "362220",
    "officename": "Simrolibava B.O",
    "officeType": "B.O",
    "Deliverystatus": "Delivery",
    "divisionname": "Junagadh",
    "regionname": "Rajkot",
    "circlename": "Gujarat",
    "Taluk": "Keshod",
    "Districtname": "Junagadh",
    "statename": "GUJARAT"
  }
]
