[
  {
    "pincode": "362263",
    "officename": "Anandpur B.O",
    "officeType": "B.O",
    "Deliverystatus": "Delivery",
    "divisionname": "Junagadh",
    "regionname": "Rajkot",
    "circlename": "Gujarat",
    "Taluk": "",
    "Districtname": "Junagadh",
    "statename": "GUJARAT"
  },
  {
    "pincode": "362263",
    "officename": "Bagdu S.O",
    "officeType": "S.O",
    "Deliverystatus": "Delivery",
    "divisionname": "Junagadh",
    "regionname": "Rajkot",
    "circlename": "Gujarat",
    "Taluk": "Junagadh",
    "Districtname": "Junagadh",
    "statename": "GUJARAT"
  },
  {
    "pincode": "362263",
    "officename": "Dungarpur B.O",
    "officeType": "B.O",
    "Deliverystatus": "Delivery",
    "divisionname": "Junagadh",
    "regionname": "Rajkot",
    "circlename": "Gujarat",
    "Taluk": "",
    "Districtname": "Junagadh",
    "statename": "GUJARAT"
  },
  {
    "pincode": "362263",
    "officename": "Gundala B.O",
    "officeType": "B.O",
    "Deliverystatus": "Delivery",
    "divisionname": "Junagadh",
    "regionname": "Rajkot",
    "circlename": "Gujarat",
    "Taluk": "",
    "Districtname": "Junagadh",
    "statename": "GUJARAT"
  },
  {
    "pincode": "362263",
    "officename": "Jamka B.O",
    "officeType": "B.O",
    "Deliverystatus": "Delivery",
    "divisionname": "Junagadh",
    "regionname": "Rajkot",
    "circlename": "Gujarat",
    "Taluk": "",
    "Districtname": "Junagadh",
    "statename": "GUJARAT"
  },
  {
    "pincode": "362263",
    "officename": "Khadia B.O",
    "officeType": "B.O",
    "Deliverystatus": "Delivery",
    "divisionname": "Junagadh",
    "regionname": "Rajkot",
    "circlename": "Gujarat",
    "Taluk": "",
    "Districtname": "Junagadh",
    "statename": "GUJARAT"
  },
  {
    "pincode": "362263",
    "officename": "Nagalpur B.O",
    "officeType": "B.O",
    "Deliverystatus": "Delivery",
    "divisionname": "Junagadh",
    "regionname": "Rajkot",
    "circlename": "Gujarat",
    "Taluk": "",
    "Districtname": "Junagadh",
    "statename": "GUJARAT"
  },
  {
    "pincode": "362263",
    "officename": "Sakhdavadar B.O",
    "officeType": "B.O",
    "Deliverystatus": "Delivery",
    "divisionname": "Junagadh",
    "regionname": "Rajkot",
    "circlename": "Gujarat",
    "Taluk": "",
    "Districtname": "Junagadh",
    "statename": "GUJARAT"
  },
  {
    "pincode": "362263",
    "officename": "Toraniya B.O",
    "officeType": "B.O",
    "Deliverystatus": "Delivery",
    "divisionname": "Junagadh",
    "regionname": "Rajkot",
    "circlename": "Gujarat",
    "Taluk": "",
    "Districtname": "Junagadh",
    "statename": "GUJARAT"
  }
]
