[
  {
    "pincode": "362650",
    "officename": "Chauta B.O",
    "officeType": "B.O",
    "Deliverystatus": "Delivery",
    "divisionname": "Porbandar",
    "regionname": "Rajkot",
    "circlename": "Gujarat",
    "Taluk": "Kutiyana",
    "Districtname": "Porbandar",
    "statename": "GUJARAT"
  },
  {
    "pincode": "362650",
    "officename": "Chhatrava B.O",
    "officeType": "B.O",
    "Deliverystatus": "Delivery",
    "divisionname": "Porbandar",
    "regionname": "Rajkot",
    "circlename": "Gujarat",
    "Taluk": "Kutiyana",
    "Districtname": "Porbandar",
    "statename": "GUJARAT"
  },
  {
    "pincode": "362650",
    "officename": "Chikhlodra B.O",
    "officeType": "B.O",
    "Deliverystatus": "Delivery",
    "divisionname": "Porbandar",
    "regionname": "Rajkot",
    "circlename": "Gujarat",
    "Taluk": "Manavadar",
    "Districtname": "Junagadh",
    "statename": "GUJARAT"
  },
  {
    "pincode": "362650",
    "officename": "Devda B.O",
    "officeType": "B.O",
    "Deliverystatus": "Delivery",
    "divisionname": "Porbandar",
    "regionname": "Rajkot",
    "circlename": "Gujarat",
    "Taluk": "Kutiyana",
    "Districtname": "Porbandar",
    "statename": "GUJARAT"
  },
  {
    "pincode": "362650",
    "officename": "Gokran B.O",
    "officeType": "B.O",
    "Deliverystatus": "Delivery",
    "divisionname": "Porbandar",
    "regionname": "Rajkot",
    "circlename": "Gujarat",
    "Taluk": "Kutiyana",
    "Districtname": "Porbandar",
    "statename": "GUJARAT"
  },
  {
    "pincode": "362650",
    "officename": "Ishwaria B.O",
    "officeType": "B.O",
    "Deliverystatus": "Delivery",
    "divisionname": "Porbandar",
    "regionname": "Rajkot",
    "circlename": "Gujarat",
    "Taluk": "Kutiyana",
    "Districtname": "Porbandar",
    "statename": "GUJARAT"
  },
  {
    "pincode": "362650",
    "officename": "Khageshri B.O",
    "officeType": "B.O",
    "Deliverystatus": "Delivery",
    "divisionname": "Porbandar",
    "regionname": "Rajkot",
    "circlename": "Gujarat",
    "Taluk": "Kutiyana",
    "Districtname": "Porbandar",
    "statename": "GUJARAT"
  },
  {
    "pincode": "362650",
    "officename": "Kotda B.O",
    "officeType": "B.O",
    "Deliverystatus": "Delivery",
    "divisionname": "Porbandar",
    "regionname": "Rajkot",
    "circlename": "Gujarat",
    "Taluk": "Kutiyana",
    "Districtname": "Porbandar",
    "statename": "GUJARAT"
  },
  {
    "pincode": "362650",
    "officename": "Kutiyana Bazar S.O",
    "officeType": "S.O",
    "Deliverystatus": "Non-Delivery",
    "divisionname": "Porbandar",
    "regionname": "Rajkot",
    "circlename": "Gujarat",
    "Taluk": "Kutiyana",
    "Districtname": "Porbandar",
    "statename": "GUJARAT"
  },
  {
    "pincode": "362650",
    "officename": "Kutiyana S.O",
    "officeType": "S.O",
    "Deliverystatus": "Delivery",
    "divisionname": "Porbandar",
    "regionname": "Rajkot",
    "circlename": "Gujarat",
    "Taluk": "Porbandar",
    "Districtname": "Porbandar",
    "statename": "GUJARAT"
  },
  {
    "pincode": "362650",
    "officename": "Mahobatpara B.O",
    "officeType": "B.O",
    "Deliverystatus": "Delivery",
    "divisionname": "Porbandar",
    "regionname": "Rajkot",
    "circlename": "Gujarat",
    "Taluk": "Kutiyana",
    "Districtname": "Porbandar",
    "statename": "GUJARAT"
  },
  {
    "pincode": "362650",
    "officename": "Mal B.O",
    "officeType": "B.O",
    "Deliverystatus": "Delivery",
    "divisionname": "Porbandar",
    "regionname": "Rajkot",
    "circlename": "Gujarat",
    "Taluk": "Kutiyana",
    "Districtname": "Porbandar",
    "statename": "GUJARAT"
  },
  {
    "pincode": "362650",
    "officename": "Mandva B.O",
    "officeType": "B.O",
    "Deliverystatus": "Delivery",
    "divisionname": "Porbandar",
    "regionname": "Rajkot",
    "circlename": "Gujarat",
    "Taluk": "Kutiyana",
    "Districtname": "Porbandar",
    "statename": "GUJARAT"
  },
  {
    "pincode": "362650",
    "officename": "Moddar B.O",
    "officeType": "B.O",
    "Deliverystatus": "Delivery",
    "divisionname": "Porbandar",
    "regionname": "Rajkot",
    "circlename": "Gujarat",
    "Taluk": "Kutiyana",
    "Districtname": "Porbandar",
    "statename": "GUJARAT"
  },
  {
    "pincode": "362650",
    "officename": "Paswali B.O",
    "officeType": "B.O",
    "Deliverystatus": "Delivery",
    "divisionname": "Porbandar",
    "regionname": "Rajkot",
    "circlename": "Gujarat",
    "Taluk": "Kutiyana",
    "Districtname": "Porbandar",
    "statename": "GUJARAT"
  },
  {
    "pincode": "362650",
    "officename": "Segras B.O",
    "officeType": "B.O",
    "Deliverystatus": "Delivery",
    "divisionname": "Porbandar",
    "regionname": "Rajkot",
    "circlename": "Gujarat",
    "Taluk": "Kutiyana",
    "Districtname": "Porbandar",
    "statename": "GUJARAT"
  }
]
