[
  {
    "pincode": "362630",
    "officename": "Buri B.O",
    "officeType": "B.O",
    "Deliverystatus": "Delivery",
    "divisionname": "Porbandar",
    "regionname": "Rajkot",
    "circlename": "Gujarat",
    "Taluk": "Manavadar",
    "Districtname": "Junagadh",
    "statename": "GUJARAT"
  },
  {
    "pincode": "362630",
    "officename": "Galvav B.O",
    "officeType": "B.O",
    "Deliverystatus": "Delivery",
    "divisionname": "Porbandar",
    "regionname": "Rajkot",
    "circlename": "Gujarat",
    "Taluk": "Manavadar",
    "Districtname": "Junagadh",
    "statename": "GUJARAT"
  },
  {
    "pincode": "362630",
    "officename": "Jambuda B.O",
    "officeType": "B.O",
    "Deliverystatus": "Delivery",
    "divisionname": "Porbandar",
    "regionname": "Rajkot",
    "circlename": "Gujarat",
    "Taluk": "Manavadar",
    "Districtname": "Junagadh",
    "statename": "GUJARAT"
  },
  {
    "pincode": "362630",
    "officename": "Kotharia B.O",
    "officeType": "B.O",
    "Deliverystatus": "Delivery",
    "divisionname": "Porbandar",
    "regionname": "Rajkot",
    "circlename": "Gujarat",
    "Taluk": "Manavadar",
    "Districtname": "Junagadh",
    "statename": "GUJARAT"
  },
  {
    "pincode": "362630",
    "officename": "Kothdi B.O",
    "officeType": "B.O",
    "Deliverystatus": "Delivery",
    "divisionname": "Porbandar",
    "regionname": "Rajkot",
    "circlename": "Gujarat",
    "Taluk": "Manavadar",
    "Districtname": "Junagadh",
    "statename": "GUJARAT"
  },
  {
    "pincode": "362630",
    "officename": "Koylana Ghed B.O",
    "officeType": "B.O",
    "Deliverystatus": "Delivery",
    "divisionname": "Porbandar",
    "regionname": "Rajkot",
    "circlename": "Gujarat",
    "Taluk": "Manavadar",
    "Districtname": "Junagadh",
    "statename": "GUJARAT"
  },
  {
    "pincode": "362630",
    "officename": "Manavadar S.O",
    "officeType": "S.O",
    "Deliverystatus": "Delivery",
    "divisionname": "Porbandar",
    "regionname": "Rajkot",
    "circlename": "Gujarat",
    "Taluk": "Manavadar",
    "Districtname": "Junagadh",
    "statename": "GUJARAT"
  },
  {
    "pincode": "362630",
    "officename": "Nandarkha B.O",
    "officeType": "B.O",
    "Deliverystatus": "Delivery",
    "divisionname": "Porbandar",
    "regionname": "Rajkot",
    "circlename": "Gujarat",
    "Taluk": "Manavadar",
    "Districtname": "Junagadh",
    "statename": "GUJARAT"
  },
  {
    "pincode": "362630",
    "officename": "Sanosara B.O",
    "officeType": "B.O",
    "Deliverystatus": "Delivery",
    "divisionname": "Porbandar",
    "regionname": "Rajkot",
    "circlename": "Gujarat",
    "Taluk": "Manavadar",
    "Districtname": "Junagadh",
    "statename": "GUJARAT"
  },
  {
    "pincode": "362630",
    "officename": "Sultanabad B.O",
    "officeType": "B.O",
    "Deliverystatus": "Delivery",
    "divisionname": "Porbandar",
    "regionname": "Rajkot",
    "circlename": "Gujarat",
    "Taluk": "Manavadar",
    "Districtname": "Junagadh",
    "statename": "GUJARAT"
  },
  {
    "pincode": "362630",
    "officename": "Tikar B.O",
    "officeType": "B.O",
    "Deliverystatus": "Delivery",
    "divisionname": "Porbandar",
    "regionname": "Rajkot",
    "circlename": "Gujarat",
    "Taluk": "Vanthli",
    "Districtname": "Junagadh",
    "statename": "GUJARAT"
  },
  {
    "pincode": "362630",
    "officename": "Velva B.O",
    "officeType": "B.O",
    "Deliverystatus": "Delivery",
    "divisionname": "Porbandar",
    "regionname": "Rajkot",
    "circlename": "Gujarat",
    "Taluk": "Manavadar",
    "Districtname": "Junagadh",
    "statename": "GUJARAT"
  }
]
