[
  {
    "pincode": "363330",
    "officename": "Ajitgadh B.O",
    "officeType": "B.O",
    "Deliverystatus": "Delivery",
    "divisionname": "Surendranagar",
    "regionname": "Rajkot",
    "circlename": "Gujarat",
    "Taluk": "Halvad",
    "Districtname": "Surendra Nagar",
    "statename": "GUJARAT"
  },
  {
    "pincode": "363330",
    "officename": "Charadva B.O",
    "officeType": "B.O",
    "Deliverystatus": "Delivery",
    "divisionname": "Surendranagar",
    "regionname": "Rajkot",
    "circlename": "Gujarat",
    "Taluk": "Halvad",
    "Districtname": "Surendra Nagar",
    "statename": "GUJARAT"
  },
  {
    "pincode": "363330",
    "officename": "Devaliya B.O",
    "officeType": "B.O",
    "Deliverystatus": "Delivery",
    "divisionname": "Surendranagar",
    "regionname": "Rajkot",
    "circlename": "Gujarat",
    "Taluk": "Halvad",
    "Districtname": "Surendra Nagar",
    "statename": "GUJARAT"
  },
  {
    "pincode": "363330",
    "officename": "Dhavana B.O",
    "officeType": "B.O",
    "Deliverystatus": "Delivery",
    "divisionname": "Surendranagar",
    "regionname": "Rajkot",
    "circlename": "Gujarat",
    "Taluk": "Halvad",
    "Districtname": "Surendra Nagar",
    "statename": "GUJARAT"
  },
  {
    "pincode": "363330",
    "officename": "Enjar B.O",
    "officeType": "B.O",
    "Deliverystatus": "Delivery",
    "divisionname": "Surendranagar",
    "regionname": "Rajkot",
    "circlename": "Gujarat",
    "Taluk": "Halvad",
    "Districtname": "Surendra Nagar",
    "statename": "GUJARAT"
  },
  {
    "pincode": "363330",
    "officename": "Ghanshyampur B.O",
    "officeType": "B.O",
    "Deliverystatus": "Delivery",
    "divisionname": "Surendranagar",
    "regionname": "Rajkot",
    "circlename": "Gujarat",
    "Taluk": "Halvad",
    "Districtname": "Surendra Nagar",
    "statename": "GUJARAT"
  },
  {
    "pincode": "363330",
    "officename": "Halvad S.O",
    "officeType": "S.O",
    "Deliverystatus": "Delivery",
    "divisionname": "Surendranagar",
    "regionname": "Rajkot",
    "circlename": "Gujarat",
    "Taluk": "Halvad",
    "Districtname": "Surendra Nagar",
    "statename": "GUJARAT"
  },
  {
    "pincode": "363330",
    "officename": "Kadiyana B.O",
    "officeType": "B.O",
    "Deliverystatus": "Delivery",
    "divisionname": "Surendranagar",
    "regionname": "Rajkot",
    "circlename": "Gujarat",
    "Taluk": "Halvad",
    "Districtname": "Surendra Nagar",
    "statename": "GUJARAT"
  },
  {
    "pincode": "363330",
    "officename": "Kavadiya B.O",
    "officeType": "B.O",
    "Deliverystatus": "Delivery",
    "divisionname": "Surendranagar",
    "regionname": "Rajkot",
    "circlename": "Gujarat",
    "Taluk": "Halvad",
    "Districtname": "Surendra Nagar",
    "statename": "GUJARAT"
  },
  {
    "pincode": "363330",
    "officename": "Koparani B.O",
    "officeType": "B.O",
    "Deliverystatus": "Delivery",
    "divisionname": "Surendranagar",
    "regionname": "Rajkot",
    "circlename": "Gujarat",
    "Taluk": "Halvad",
    "Districtname": "Surendra Nagar",
    "statename": "GUJARAT"
  },
  {
    "pincode": "363330",
    "officename": "Koyba B.O",
    "officeType": "B.O",
    "Deliverystatus": "Delivery",
    "divisionname": "Surendranagar",
    "regionname": "Rajkot",
    "circlename": "Gujarat",
    "Taluk": "Halvad",
    "Districtname": "Surendra Nagar",
    "statename": "GUJARAT"
  },
  {
    "pincode": "363330",
    "officename": "Malaniyad B.O",
    "officeType": "B.O",
    "Deliverystatus": "Delivery",
    "divisionname": "Surendranagar",
    "regionname": "Rajkot",
    "circlename": "Gujarat",
    "Taluk": "Halvad",
    "Districtname": "Surendra Nagar",
    "statename": "GUJARAT"
  },
  {
    "pincode": "363330",
    "officename": "Mathak B.O",
    "officeType": "B.O",
    "Deliverystatus": "Delivery",
    "divisionname": "Surendranagar",
    "regionname": "Rajkot",
    "circlename": "Gujarat",
    "Taluk": "Halvad",
    "Districtname": "Surendra Nagar",
    "statename": "GUJARAT"
  },
  {
    "pincode": "363330",
    "officename": "Merupar B.O",
    "officeType": "B.O",
    "Deliverystatus": "Delivery",
    "divisionname": "Surendranagar",
    "regionname": "Rajkot",
    "circlename": "Gujarat",
    "Taluk": "Halvad",
    "Districtname": "Surendra Nagar",
    "statename": "GUJARAT"
  },
  {
    "pincode": "363330",
    "officename": "Navaghanshyamgadh B.O",
    "officeType": "B.O",
    "Deliverystatus": "Delivery",
    "divisionname": "Surendranagar",
    "regionname": "Rajkot",
    "circlename": "Gujarat",
    "Taluk": "Halvad",
    "Districtname": "Surendra Nagar",
    "statename": "GUJARAT"
  },
  {
    "pincode": "363330",
    "officename": "Ranakpur B.O",
    "officeType": "B.O",
    "Deliverystatus": "Delivery",
    "divisionname": "Surendranagar",
    "regionname": "Rajkot",
    "circlename": "Gujarat",
    "Taluk": "Halvad",
    "Districtname": "Surendra Nagar",
    "statename": "GUJARAT"
  },
  {
    "pincode": "363330",
    "officename": "Ranmalpur B.O",
    "officeType": "B.O",
    "Deliverystatus": "Delivery",
    "divisionname": "Surendranagar",
    "regionname": "Rajkot",
    "circlename": "Gujarat",
    "Taluk": "Halvad",
    "Districtname": "Surendra Nagar",
    "statename": "GUJARAT"
  },
  {
    "pincode": "363330",
    "officename": "Ratabhe B.O",
    "officeType": "B.O",
    "Deliverystatus": "Delivery",
    "divisionname": "Surendranagar",
    "regionname": "Rajkot",
    "circlename": "Gujarat",
    "Taluk": "Halvad",
    "Districtname": "Surendra Nagar",
    "statename": "GUJARAT"
  },
  {
    "pincode": "363330",
    "officename": "Sapakda B.O",
    "officeType": "B.O",
    "Deliverystatus": "Delivery",
    "divisionname": "Surendranagar",
    "regionname": "Rajkot",
    "circlename": "Gujarat",
    "Taluk": "Halvad",
    "Districtname": "Surendra Nagar",
    "statename": "GUJARAT"
  },
  {
    "pincode": "363330",
    "officename": "Sundari B.O",
    "officeType": "B.O",
    "Deliverystatus": "Delivery",
    "divisionname": "Surendranagar",
    "regionname": "Rajkot",
    "circlename": "Gujarat",
    "Taluk": "Halvad",
    "Districtname": "Surendra Nagar",
    "statename": "GUJARAT"
  },
  {
    "pincode": "363330",
    "officename": "Tikar (Ran) B.O",
    "officeType": "B.O",
    "Deliverystatus": "Delivery",
    "divisionname": "Surendranagar",
    "regionname": "Rajkot",
    "circlename": "Gujarat",
    "Taluk": "Halvad",
    "Districtname": "Surendra Nagar",
    "statename": "GUJARAT"
  },
  {
    "pincode": "363330",
    "officename": "Vegadvav B.O",
    "officeType": "B.O",
    "Deliverystatus": "Delivery",
    "divisionname": "Surendranagar",
    "regionname": "Rajkot",
    "circlename": "Gujarat",
    "Taluk": "Halvad",
    "Districtname": "Surendra Nagar",
    "statename": "GUJARAT"
  }
]
