[
  {
    "pincode": "363530",
    "officename": "Chorvira B.O",
    "officeType": "B.O",
    "Deliverystatus": "Delivery",
    "divisionname": "Surendranagar",
    "regionname": "Rajkot",
    "circlename": "Gujarat",
    "Taluk": "Chotila",
    "Districtname": "Surendra Nagar",
    "statename": "GUJARAT"
  },
  {
    "pincode": "363530",
    "officename": "Mandlasar B.O",
    "officeType": "B.O",
    "Deliverystatus": "Delivery",
    "divisionname": "Surendranagar",
    "regionname": "Rajkot",
    "circlename": "Gujarat",
    "Taluk": "Chotila",
    "Districtname": "Surendra Nagar",
    "statename": "GUJARAT"
  },
  {
    "pincode": "363530",
    "officename": "Morthala B.O",
    "officeType": "B.O",
    "Deliverystatus": "Delivery",
    "divisionname": "Surendranagar",
    "regionname": "Rajkot",
    "circlename": "Gujarat",
    "Taluk": "Chotila",
    "Districtname": "Surendra Nagar",
    "statename": "GUJARAT"
  },
  {
    "pincode": "363530",
    "officename": "Ranipat B.O",
    "officeType": "B.O",
    "Deliverystatus": "Delivery",
    "divisionname": "Surendranagar",
    "regionname": "Rajkot",
    "circlename": "Gujarat",
    "Taluk": "Chotila",
    "Districtname": "Surendra Nagar",
    "statename": "GUJARAT"
  },
  {
    "pincode": "363530",
    "officename": "Songadh B.O",
    "officeType": "B.O",
    "Deliverystatus": "Delivery",
    "divisionname": "Surendranagar",
    "regionname": "Rajkot",
    "circlename": "Gujarat",
    "Taluk": "Chotila",
    "Districtname": "Surendra Nagar",
    "statename": "GUJARAT"
  },
  {
    "pincode": "363530",
    "officename": "Tarnetar B.O",
    "officeType": "B.O",
    "Deliverystatus": "Delivery",
    "divisionname": "Surendranagar",
    "regionname": "Rajkot",
    "circlename": "Gujarat",
    "Taluk": "Chotila",
    "Districtname": "Surendra Nagar",
    "statename": "GUJARAT"
  },
  {
    "pincode": "363530",
    "officename": "Thangadh S.O",
    "officeType": "S.O",
    "Deliverystatus": "Delivery",
    "divisionname": "Surendranagar",
    "regionname": "Rajkot",
    "circlename": "Gujarat",
    "Taluk": "Chotila",
    "Districtname": "Surendra Nagar",
    "statename": "GUJARAT"
  },
  {
    "pincode": "363530",
    "officename": "Vagadiya B.O",
    "officeType": "B.O",
    "Deliverystatus": "Delivery",
    "divisionname": "Surendranagar",
    "regionname": "Rajkot",
    "circlename": "Gujarat",
    "Taluk": "Chotila",
    "Districtname": "Surendra Nagar",
    "statename": "GUJARAT"
  },
  {
    "pincode": "363530",
    "officename": "Vijaliya B.O",
    "officeType": "B.O",
    "Deliverystatus": "Delivery",
    "divisionname": "Surendranagar",
    "regionname": "Rajkot",
    "circlename": "Gujarat",
    "Taluk": "Chotila",
    "Districtname": "Surendra Nagar",
    "statename": "GUJARAT"
  }
]
