[
  {
    "pincode": "363650",
    "officename": "Bangavadi B.O",
    "officeType": "B.O",
    "Deliverystatus": "Delivery",
    "divisionname": "Rajkot",
    "regionname": "Rajkot",
    "circlename": "Gujarat",
    "Taluk": "Tankara",
    "Districtname": "Rajkot",
    "statename": "GUJARAT"
  },
  {
    "pincode": "363650",
    "officename": "Bedi( Tankara) B.O",
    "officeType": "B.O",
    "Deliverystatus": "Delivery",
    "divisionname": "Rajkot",
    "regionname": "Rajkot",
    "circlename": "Gujarat",
    "Taluk": "Tankara",
    "Districtname": "Rajkot",
    "statename": "GUJARAT"
  },
  {
    "pincode": "363650",
    "officename": "Harbatiyali B.O",
    "officeType": "B.O",
    "Deliverystatus": "Delivery",
    "divisionname": "Rajkot",
    "regionname": "Rajkot",
    "circlename": "Gujarat",
    "Taluk": "Tankara",
    "Districtname": "Rajkot",
    "statename": "GUJARAT"
  },
  {
    "pincode": "363650",
    "officename": "Hirapar B.O",
    "officeType": "B.O",
    "Deliverystatus": "Delivery",
    "divisionname": "Rajkot",
    "regionname": "Rajkot",
    "circlename": "Gujarat",
    "Taluk": "Tankara",
    "Districtname": "Rajkot",
    "statename": "GUJARAT"
  },
  {
    "pincode": "363650",
    "officename": "Jabalpur B.O",
    "officeType": "B.O",
    "Deliverystatus": "Delivery",
    "divisionname": "Rajkot",
    "regionname": "Rajkot",
    "circlename": "Gujarat",
    "Taluk": "Tankara",
    "Districtname": "Rajkot",
    "statename": "GUJARAT"
  },
  {
    "pincode": "363650",
    "officename": "Jivapar B.O",
    "officeType": "B.O",
    "Deliverystatus": "Delivery",
    "divisionname": "Rajkot",
    "regionname": "Rajkot",
    "circlename": "Gujarat",
    "Taluk": "Tankara",
    "Districtname": "Rajkot",
    "statename": "GUJARAT"
  },
  {
    "pincode": "363650",
    "officename": "Kotharia(Tankara) B.O",
    "officeType": "B.O",
    "Deliverystatus": "Delivery",
    "divisionname": "Rajkot",
    "regionname": "Rajkot",
    "circlename": "Gujarat",
    "Taluk": "Tankara",
    "Districtname": "Rajkot",
    "statename": "GUJARAT"
  },
  {
    "pincode": "363650",
    "officename": "Meghpar Zala B.O",
    "officeType": "B.O",
    "Deliverystatus": "Delivery",
    "divisionname": "Rajkot",
    "regionname": "Rajkot",
    "circlename": "Gujarat",
    "Taluk": "Tankara",
    "Districtname": "Rajkot",
    "statename": "GUJARAT"
  },
  {
    "pincode": "363650",
    "officename": "Mitana B.O",
    "officeType": "B.O",
    "Deliverystatus": "Delivery",
    "divisionname": "Rajkot",
    "regionname": "Rajkot",
    "circlename": "Gujarat",
    "Taluk": "Tankara",
    "Districtname": "Rajkot",
    "statename": "GUJARAT"
  },
  {
    "pincode": "363650",
    "officename": "Mota Khijadia B.O",
    "officeType": "B.O",
    "Deliverystatus": "Delivery",
    "divisionname": "Rajkot",
    "regionname": "Rajkot",
    "circlename": "Gujarat",
    "Taluk": "Tankara",
    "Districtname": "Rajkot",
    "statename": "GUJARAT"
  },
  {
    "pincode": "363650",
    "officename": "Neknam B.O",
    "officeType": "B.O",
    "Deliverystatus": "Delivery",
    "divisionname": "Rajkot",
    "regionname": "Rajkot",
    "circlename": "Gujarat",
    "Taluk": "Tankara",
    "Districtname": "Rajkot",
    "statename": "GUJARAT"
  },
  {
    "pincode": "363650",
    "officename": "Otala B.O",
    "officeType": "B.O",
    "Deliverystatus": "Delivery",
    "divisionname": "Rajkot",
    "regionname": "Rajkot",
    "circlename": "Gujarat",
    "Taluk": "Tankara",
    "Districtname": "Rajkot",
    "statename": "GUJARAT"
  },
  {
    "pincode": "363650",
    "officename": "Rohishala B.O",
    "officeType": "B.O",
    "Deliverystatus": "Delivery",
    "divisionname": "Rajkot",
    "regionname": "Rajkot",
    "circlename": "Gujarat",
    "Taluk": "Tankara",
    "Districtname": "Rajkot",
    "statename": "GUJARAT"
  },
  {
    "pincode": "363650",
    "officename": "Savadi B.O",
    "officeType": "B.O",
    "Deliverystatus": "Delivery",
    "divisionname": "Rajkot",
    "regionname": "Rajkot",
    "circlename": "Gujarat",
    "Taluk": "Tankara",
    "Districtname": "Rajkot",
    "statename": "GUJARAT"
  },
  {
    "pincode": "363650",
    "officename": "Tankara S.O",
    "officeType": "S.O",
    "Deliverystatus": "Delivery",
    "divisionname": "Rajkot",
    "regionname": "Rajkot",
    "circlename": "Gujarat",
    "Taluk": "Tankara",
    "Districtname": "Rajkot",
    "statename": "GUJARAT"
  },
  {
    "pincode": "363650",
    "officename": "Vachhakapar B.O",
    "officeType": "B.O",
    "Deliverystatus": "Delivery",
    "divisionname": "Rajkot",
    "regionname": "Rajkot",
    "circlename": "Gujarat",
    "Taluk": "Tankara",
    "Districtname": "Rajkot",
    "statename": "GUJARAT"
  },
  {
    "pincode": "363650",
    "officename": "Virvav B.O",
    "officeType": "B.O",
    "Deliverystatus": "Delivery",
    "divisionname": "Rajkot",
    "regionname": "Rajkot",
    "circlename": "Gujarat",
    "Taluk": "Tankara",
    "Districtname": "Rajkot",
    "statename": "GUJARAT"
  }
]
