[
  {
    "pincode": "363641",
    "officename": "Bagathala B.O",
    "officeType": "B.O",
    "Deliverystatus": "Delivery",
    "divisionname": "Rajkot",
    "regionname": "Rajkot",
    "circlename": "Gujarat",
    "Taluk": "Morbi",
    "Districtname": "Rajkot",
    "statename": "GUJARAT"
  },
  {
    "pincode": "363641",
    "officename": "Barvala B.O",
    "officeType": "B.O",
    "Deliverystatus": "Delivery",
    "divisionname": "Rajkot",
    "regionname": "Rajkot",
    "circlename": "Gujarat",
    "Taluk": "Morbi",
    "Districtname": "Rajkot",
    "statename": "GUJARAT"
  },
  {
    "pincode": "363641",
    "officename": "Biliya B.O",
    "officeType": "B.O",
    "Deliverystatus": "Delivery",
    "divisionname": "Rajkot",
    "regionname": "Rajkot",
    "circlename": "Gujarat",
    "Taluk": "Morbi",
    "Districtname": "Rajkot",
    "statename": "GUJARAT"
  },
  {
    "pincode": "363641",
    "officename": "Chachapar B.O",
    "officeType": "B.O",
    "Deliverystatus": "Delivery",
    "divisionname": "Rajkot",
    "regionname": "Rajkot",
    "circlename": "Gujarat",
    "Taluk": "Morbi",
    "Districtname": "Rajkot",
    "statename": "GUJARAT"
  },
  {
    "pincode": "363641",
    "officename": "Ghunda (S) B.O",
    "officeType": "B.O",
    "Deliverystatus": "Delivery",
    "divisionname": "Rajkot",
    "regionname": "Rajkot",
    "circlename": "Gujarat",
    "Taluk": "Morbi",
    "Districtname": "Rajkot",
    "statename": "GUJARAT"
  },
  {
    "pincode": "363641",
    "officename": "Ghunda Khanpar B.O",
    "officeType": "B.O",
    "Deliverystatus": "Delivery",
    "divisionname": "Rajkot",
    "regionname": "Rajkot",
    "circlename": "Gujarat",
    "Taluk": "Tankara",
    "Districtname": "Rajkot",
    "statename": "GUJARAT"
  },
  {
    "pincode": "363641",
    "officename": "Ghuntu B.O",
    "officeType": "B.O",
    "Deliverystatus": "Delivery",
    "divisionname": "Rajkot",
    "regionname": "Rajkot",
    "circlename": "Gujarat",
    "Taluk": "Morbi",
    "Districtname": "Rajkot",
    "statename": "GUJARAT"
  },
  {
    "pincode": "363641",
    "officename": "Hadmatiya B.O",
    "officeType": "B.O",
    "Deliverystatus": "Delivery",
    "divisionname": "Rajkot",
    "regionname": "Rajkot",
    "circlename": "Gujarat",
    "Taluk": "Tankara",
    "Districtname": "Rajkot",
    "statename": "GUJARAT"
  },
  {
    "pincode": "363641",
    "officename": "Khakhrala B.O",
    "officeType": "B.O",
    "Deliverystatus": "Delivery",
    "divisionname": "Rajkot",
    "regionname": "Rajkot",
    "circlename": "Gujarat",
    "Taluk": "Morbi",
    "Districtname": "Rajkot",
    "statename": "GUJARAT"
  },
  {
    "pincode": "363641",
    "officename": "Khanpar B.O",
    "officeType": "B.O",
    "Deliverystatus": "Delivery",
    "divisionname": "Rajkot",
    "regionname": "Rajkot",
    "circlename": "Gujarat",
    "Taluk": "Morbi",
    "Districtname": "Rajkot",
    "statename": "GUJARAT"
  },
  {
    "pincode": "363641",
    "officename": "Kherda B.O",
    "officeType": "B.O",
    "Deliverystatus": "Delivery",
    "divisionname": "Rajkot",
    "regionname": "Rajkot",
    "circlename": "Gujarat",
    "Taluk": "Morbi",
    "Districtname": "Rajkot",
    "statename": "GUJARAT"
  },
  {
    "pincode": "363641",
    "officename": "Khevaliya B.O",
    "officeType": "B.O",
    "Deliverystatus": "Delivery",
    "divisionname": "Rajkot",
    "regionname": "Rajkot",
    "circlename": "Gujarat",
    "Taluk": "Morbi",
    "Districtname": "Rajkot",
    "statename": "GUJARAT"
  },
  {
    "pincode": "363641",
    "officename": "Lajai B.O",
    "officeType": "B.O",
    "Deliverystatus": "Delivery",
    "divisionname": "Rajkot",
    "regionname": "Rajkot",
    "circlename": "Gujarat",
    "Taluk": "Taankaraa",
    "Districtname": "Rajkot",
    "statename": "GUJARAT"
  },
  {
    "pincode": "363641",
    "officename": "Lilapar B.O",
    "officeType": "B.O",
    "Deliverystatus": "Delivery",
    "divisionname": "Rajkot",
    "regionname": "Rajkot",
    "circlename": "Gujarat",
    "Taluk": "Morbi",
    "Districtname": "Rajkot",
    "statename": "GUJARAT"
  },
  {
    "pincode": "363641",
    "officename": "Manekwada B.O",
    "officeType": "B.O",
    "Deliverystatus": "Delivery",
    "divisionname": "Rajkot",
    "regionname": "Rajkot",
    "circlename": "Gujarat",
    "Taluk": "Morbi",
    "Districtname": "Rajkot",
    "statename": "GUJARAT"
  },
  {
    "pincode": "363641",
    "officename": "Morbi GIDC S.O",
    "officeType": "S.O",
    "Deliverystatus": "Non-Delivery",
    "divisionname": "Rajkot",
    "regionname": "Rajkot",
    "circlename": "Gujarat",
    "Taluk": "Morvi",
    "Districtname": "Rajkot",
    "statename": "GUJARAT"
  },
  {
    "pincode": "363641",
    "officename": "Morbi MDG S.O",
    "officeType": "S.O",
    "Deliverystatus": "Delivery",
    "divisionname": "Rajkot",
    "regionname": "Rajkot",
    "circlename": "Gujarat",
    "Taluk": "Morbi",
    "Districtname": "Rajkot",
    "statename": "GUJARAT"
  },
  {
    "pincode": "363641",
    "officename": "Morbi Nani Bazar S.O",
    "officeType": "S.O",
    "Deliverystatus": "Non-Delivery",
    "divisionname": "Rajkot",
    "regionname": "Rajkot",
    "circlename": "Gujarat",
    "Taluk": "Morvi",
    "Districtname": "Rajkot",
    "statename": "GUJARAT"
  },
  {
    "pincode": "363641",
    "officename": "Morbi Shakti Plot S.O",
    "officeType": "S.O",
    "Deliverystatus": "Non-Delivery",
    "divisionname": "Rajkot",
    "regionname": "Rajkot",
    "circlename": "Gujarat",
    "Taluk": "Morvi",
    "Districtname": "Rajkot",
    "statename": "GUJARAT"
  },
  {
    "pincode": "363641",
    "officename": "Nani Vavdi B.O",
    "officeType": "B.O",
    "Deliverystatus": "Delivery",
    "divisionname": "Rajkot",
    "regionname": "Rajkot",
    "circlename": "Gujarat",
    "Taluk": "Morbi",
    "Districtname": "Rajkot",
    "statename": "GUJARAT"
  },
  {
    "pincode": "363641",
    "officename": "Nasitpar B.O",
    "officeType": "B.O",
    "Deliverystatus": "Delivery",
    "divisionname": "Rajkot",
    "regionname": "Rajkot",
    "circlename": "Gujarat",
    "Taluk": "Tankara",
    "Districtname": "Rajkot",
    "statename": "GUJARAT"
  },
  {
    "pincode": "363641",
    "officename": "Nesda (K) B.O",
    "officeType": "B.O",
    "Deliverystatus": "Delivery",
    "divisionname": "Rajkot",
    "regionname": "Rajkot",
    "circlename": "Gujarat",
    "Taluk": "Tankara",
    "Districtname": "Rajkot",
    "statename": "GUJARAT"
  },
  {
    "pincode": "363641",
    "officename": "Nichimandal B.O",
    "officeType": "B.O",
    "Deliverystatus": "Delivery",
    "divisionname": "Rajkot",
    "regionname": "Rajkot",
    "circlename": "Gujarat",
    "Taluk": "Morbi",
    "Districtname": "Rajkot",
    "statename": "GUJARAT"
  },
  {
    "pincode": "363641",
    "officename": "Panchasar B.O",
    "officeType": "B.O",
    "Deliverystatus": "Delivery",
    "divisionname": "Rajkot",
    "regionname": "Rajkot",
    "circlename": "Gujarat",
    "Taluk": "Morbi",
    "Districtname": "Rajkot",
    "statename": "GUJARAT"
  },
  {
    "pincode": "363641",
    "officename": "Rajpar B.O",
    "officeType": "B.O",
    "Deliverystatus": "Delivery",
    "divisionname": "Rajkot",
    "regionname": "Rajkot",
    "circlename": "Gujarat",
    "Taluk": "Morbi",
    "Districtname": "Rajkot",
    "statename": "GUJARAT"
  },
  {
    "pincode": "363641",
    "officename": "Rangpar (Bela) B.O",
    "officeType": "B.O",
    "Deliverystatus": "Delivery",
    "divisionname": "Rajkot",
    "regionname": "Rajkot",
    "circlename": "Gujarat",
    "Taluk": "Morvi",
    "Districtname": "Rajkot",
    "statename": "GUJARAT"
  },
  {
    "pincode": "363641",
    "officename": "Rangpar B.O",
    "officeType": "B.O",
    "Deliverystatus": "Delivery",
    "divisionname": "Rajkot",
    "regionname": "Rajkot",
    "circlename": "Gujarat",
    "Taluk": "Morbi",
    "Districtname": "Rajkot",
    "statename": "GUJARAT"
  },
  {
    "pincode": "363641",
    "officename": "Sajanpar B.O",
    "officeType": "B.O",
    "Deliverystatus": "Delivery",
    "divisionname": "Rajkot",
    "regionname": "Rajkot",
    "circlename": "Gujarat",
    "Taluk": "Tankara",
    "Districtname": "Rajkot",
    "statename": "GUJARAT"
  },
  {
    "pincode": "363641",
    "officename": "Shakat Sanala B.O",
    "officeType": "B.O",
    "Deliverystatus": "Delivery",
    "divisionname": "Rajkot",
    "regionname": "Rajkot",
    "circlename": "Gujarat",
    "Taluk": "Morbi",
    "Districtname": "Rajkot",
    "statename": "GUJARAT"
  },
  {
    "pincode": "363641",
    "officename": "Shri Sardanagar B.O",
    "officeType": "B.O",
    "Deliverystatus": "Delivery",
    "divisionname": "Rajkot",
    "regionname": "Rajkot",
    "circlename": "Gujarat",
    "Taluk": "Morvi",
    "Districtname": "Rajkot",
    "statename": "GUJARAT"
  },
  {
    "pincode": "363641",
    "officename": "Thorala B.O",
    "officeType": "B.O",
    "Deliverystatus": "Delivery",
    "divisionname": "Rajkot",
    "regionname": "Rajkot",
    "circlename": "Gujarat",
    "Taluk": "Morbi",
    "Districtname": "Rajkot",
    "statename": "GUJARAT"
  },
  {
    "pincode": "363641",
    "officename": "Unchi Mandal B.O",
    "officeType": "B.O",
    "Deliverystatus": "Delivery",
    "divisionname": "Rajkot",
    "regionname": "Rajkot",
    "circlename": "Gujarat",
    "Taluk": "Morbi",
    "Districtname": "Rajkot",
    "statename": "GUJARAT"
  },
  {
    "pincode": "363641",
    "officename": "Vankada B.O",
    "officeType": "B.O",
    "Deliverystatus": "Delivery",
    "divisionname": "Rajkot",
    "regionname": "Rajkot",
    "circlename": "Gujarat",
    "Taluk": "Morvi",
    "Districtname": "Rajkot",
    "statename": "GUJARAT"
  },
  {
    "pincode": "363641",
    "officename": "Virpar (M) B.O",
    "officeType": "B.O",
    "Deliverystatus": "Delivery",
    "divisionname": "Rajkot",
    "regionname": "Rajkot",
    "circlename": "Gujarat",
    "Taluk": "Morbi",
    "Districtname": "Rajkot",
    "statename": "GUJARAT"
  },
  {
    "pincode": "363641",
    "officename": "Zinkiyali B.O",
    "officeType": "B.O",
    "Deliverystatus": "Delivery",
    "divisionname": "Rajkot",
    "regionname": "Rajkot",
    "circlename": "Gujarat",
    "Taluk": "Morbi",
    "Districtname": "Rajkot",
    "statename": "GUJARAT"
  }
]
