[
  {
    "pincode": "363621",
    "officename": "Amarpara Wankaner S.O",
    "officeType": "S.O",
    "Deliverystatus": "Non-Delivery",
    "divisionname": "Rajkot",
    "regionname": "Rajkot",
    "circlename": "Gujarat",
    "Taluk": "Wankaner",
    "Districtname": "Rajkot",
    "statename": "GUJARAT"
  },
  {
    "pincode": "363621",
    "officename": "Arnitimba B.O",
    "officeType": "B.O",
    "Deliverystatus": "Delivery",
    "divisionname": "Rajkot",
    "regionname": "Rajkot",
    "circlename": "Gujarat",
    "Taluk": "Wankaner",
    "Districtname": "Rajkot",
    "statename": "GUJARAT"
  },
  {
    "pincode": "363621",
    "officename": "Bhalgam B.O",
    "officeType": "B.O",
    "Deliverystatus": "Delivery",
    "divisionname": "Rajkot",
    "regionname": "Rajkot",
    "circlename": "Gujarat",
    "Taluk": "Wankaner",
    "Districtname": "Rajkot",
    "statename": "GUJARAT"
  },
  {
    "pincode": "363621",
    "officename": "Bherda B.O",
    "officeType": "B.O",
    "Deliverystatus": "Delivery",
    "divisionname": "Rajkot",
    "regionname": "Rajkot",
    "circlename": "Gujarat",
    "Taluk": "Wankaner",
    "Districtname": "Rajkot",
    "statename": "GUJARAT"
  },
  {
    "pincode": "363621",
    "officename": "Bhimguda B.O",
    "officeType": "B.O",
    "Deliverystatus": "Delivery",
    "divisionname": "Rajkot",
    "regionname": "Rajkot",
    "circlename": "Gujarat",
    "Taluk": "Wankaner",
    "Districtname": "Rajkot",
    "statename": "GUJARAT"
  },
  {
    "pincode": "363621",
    "officename": "Chandrapur B.O",
    "officeType": "B.O",
    "Deliverystatus": "Delivery",
    "divisionname": "Rajkot",
    "regionname": "Rajkot",
    "circlename": "Gujarat",
    "Taluk": "Wankaner",
    "Districtname": "Rajkot",
    "statename": "GUJARAT"
  },
  {
    "pincode": "363621",
    "officename": "Daldi B.O",
    "officeType": "B.O",
    "Deliverystatus": "Delivery",
    "divisionname": "Rajkot",
    "regionname": "Rajkot",
    "circlename": "Gujarat",
    "Taluk": "Wankaner",
    "Districtname": "Rajkot",
    "statename": "GUJARAT"
  },
  {
    "pincode": "363621",
    "officename": "Dhuva B.O",
    "officeType": "B.O",
    "Deliverystatus": "Delivery",
    "divisionname": "Rajkot",
    "regionname": "Rajkot",
    "circlename": "Gujarat",
    "Taluk": "Wankaner",
    "Districtname": "Rajkot",
    "statename": "GUJARAT"
  },
  {
    "pincode": "363621",
    "officename": "Gariya B.O",
    "officeType": "B.O",
    "Deliverystatus": "Delivery",
    "divisionname": "Rajkot",
    "regionname": "Rajkot",
    "circlename": "Gujarat",
    "Taluk": "Wankaner",
    "Districtname": "Rajkot",
    "statename": "GUJARAT"
  },
  {
    "pincode": "363621",
    "officename": "Ghiyavad B.O",
    "officeType": "B.O",
    "Deliverystatus": "Delivery",
    "divisionname": "Rajkot",
    "regionname": "Rajkot",
    "circlename": "Gujarat",
    "Taluk": "Wankaner",
    "Districtname": "Rajkot",
    "statename": "GUJARAT"
  },
  {
    "pincode": "363621",
    "officename": "Jalida B.O",
    "officeType": "B.O",
    "Deliverystatus": "Delivery",
    "divisionname": "Rajkot",
    "regionname": "Rajkot",
    "circlename": "Gujarat",
    "Taluk": "Wankaner",
    "Districtname": "Rajkot",
    "statename": "GUJARAT"
  },
  {
    "pincode": "363621",
    "officename": "Kankot B.O",
    "officeType": "B.O",
    "Deliverystatus": "Delivery",
    "divisionname": "Rajkot",
    "regionname": "Rajkot",
    "circlename": "Gujarat",
    "Taluk": "Wankaner",
    "Districtname": "Rajkot",
    "statename": "GUJARAT"
  },
  {
    "pincode": "363621",
    "officename": "Kerala B.O",
    "officeType": "B.O",
    "Deliverystatus": "Delivery",
    "divisionname": "Rajkot",
    "regionname": "Rajkot",
    "circlename": "Gujarat",
    "Taluk": "Wankaner",
    "Districtname": "Rajkot",
    "statename": "GUJARAT"
  },
  {
    "pincode": "363621",
    "officename": "Kherva B.O",
    "officeType": "B.O",
    "Deliverystatus": "Delivery",
    "divisionname": "Rajkot",
    "regionname": "Rajkot",
    "circlename": "Gujarat",
    "Taluk": "Wankaner",
    "Districtname": "Rajkot",
    "statename": "GUJARAT"
  },
  {
    "pincode": "363621",
    "officename": "Khijadia B.O",
    "officeType": "B.O",
    "Deliverystatus": "Delivery",
    "divisionname": "Rajkot",
    "regionname": "Rajkot",
    "circlename": "Gujarat",
    "Taluk": "Wankaner",
    "Districtname": "Rajkot",
    "statename": "GUJARAT"
  },
  {
    "pincode": "363621",
    "officename": "Kotharia B.O",
    "officeType": "B.O",
    "Deliverystatus": "Delivery",
    "divisionname": "Rajkot",
    "regionname": "Rajkot",
    "circlename": "Gujarat",
    "Taluk": "Wankaner",
    "Districtname": "Rajkot",
    "statename": "GUJARAT"
  },
  {
    "pincode": "363621",
    "officename": "Kothi B.O",
    "officeType": "B.O",
    "Deliverystatus": "Delivery",
    "divisionname": "Rajkot",
    "regionname": "Rajkot",
    "circlename": "Gujarat",
    "Taluk": "Wankaner",
    "Districtname": "Rajkot",
    "statename": "GUJARAT"
  },
  {
    "pincode": "363621",
    "officename": "Lunsar B.O",
    "officeType": "B.O",
    "Deliverystatus": "Delivery",
    "divisionname": "Rajkot",
    "regionname": "Rajkot",
    "circlename": "Gujarat",
    "Taluk": "Wankaner",
    "Districtname": "Rajkot",
    "statename": "GUJARAT"
  },
  {
    "pincode": "363621",
    "officename": "Lunsariya B.O",
    "officeType": "B.O",
    "Deliverystatus": "Delivery",
    "divisionname": "Rajkot",
    "regionname": "Rajkot",
    "circlename": "Gujarat",
    "Taluk": "Wankaner",
    "Districtname": "Rajkot",
    "statename": "GUJARAT"
  },
  {
    "pincode": "363621",
    "officename": "Mahika B.O",
    "officeType": "B.O",
    "Deliverystatus": "Delivery",
    "divisionname": "Rajkot",
    "regionname": "Rajkot",
    "circlename": "Gujarat",
    "Taluk": "Wankaner",
    "Districtname": "Rajkot",
    "statename": "GUJARAT"
  },
  {
    "pincode": "363621",
    "officename": "Matel B.O",
    "officeType": "B.O",
    "Deliverystatus": "Delivery",
    "divisionname": "Rajkot",
    "regionname": "Rajkot",
    "circlename": "Gujarat",
    "Taluk": "Wankaner",
    "Districtname": "Rajkot",
    "statename": "GUJARAT"
  },
  {
    "pincode": "363621",
    "officename": "Mesariya B.O",
    "officeType": "B.O",
    "Deliverystatus": "Delivery",
    "divisionname": "Rajkot",
    "regionname": "Rajkot",
    "circlename": "Gujarat",
    "Taluk": "Wankaner",
    "Districtname": "Rajkot",
    "statename": "GUJARAT"
  },
  {
    "pincode": "363621",
    "officename": "Paddhara B.O",
    "officeType": "B.O",
    "Deliverystatus": "Delivery",
    "divisionname": "Rajkot",
    "regionname": "Rajkot",
    "circlename": "Gujarat",
    "Taluk": "Wankaner",
    "Districtname": "Rajkot",
    "statename": "GUJARAT"
  },
  {
    "pincode": "363621",
    "officename": "Panchasia B.O",
    "officeType": "B.O",
    "Deliverystatus": "Delivery",
    "divisionname": "Rajkot",
    "regionname": "Rajkot",
    "circlename": "Gujarat",
    "Taluk": "Wankaner",
    "Districtname": "Rajkot",
    "statename": "GUJARAT"
  },
  {
    "pincode": "363621",
    "officename": "Panchdwarka B.O",
    "officeType": "B.O",
    "Deliverystatus": "Delivery",
    "divisionname": "Rajkot",
    "regionname": "Rajkot",
    "circlename": "Gujarat",
    "Taluk": "Wankaner",
    "Districtname": "Rajkot",
    "statename": "GUJARAT"
  },
  {
    "pincode": "363621",
    "officename": "Pipaliya Raj B.O",
    "officeType": "B.O",
    "Deliverystatus": "Delivery",
    "divisionname": "Rajkot",
    "regionname": "Rajkot",
    "circlename": "Gujarat",
    "Taluk": "Wankaner",
    "Districtname": "Rajkot",
    "statename": "GUJARAT"
  },
  {
    "pincode": "363621",
    "officename": "Rajavadala B.O",
    "officeType": "B.O",
    "Deliverystatus": "Delivery",
    "divisionname": "Rajkot",
    "regionname": "Rajkot",
    "circlename": "Gujarat",
    "Taluk": "Wankaner",
    "Districtname": "Rajkot",
    "statename": "GUJARAT"
  },
  {
    "pincode": "363621",
    "officename": "Ranekpar B.O",
    "officeType": "B.O",
    "Deliverystatus": "Delivery",
    "divisionname": "Rajkot",
    "regionname": "Rajkot",
    "circlename": "Gujarat",
    "Taluk": "Wankaner",
    "Districtname": "Rajkot",
    "statename": "GUJARAT"
  },
  {
    "pincode": "363621",
    "officename": "Ratidevdi B.O",
    "officeType": "B.O",
    "Deliverystatus": "Delivery",
    "divisionname": "Rajkot",
    "regionname": "Rajkot",
    "circlename": "Gujarat",
    "Taluk": "Wankaner",
    "Districtname": "Rajkot",
    "statename": "GUJARAT"
  },
  {
    "pincode": "363621",
    "officename": "Samadhiyala B.O",
    "officeType": "B.O",
    "Deliverystatus": "Delivery",
    "divisionname": "Rajkot",
    "regionname": "Rajkot",
    "circlename": "Gujarat",
    "Taluk": "Wankaner",
    "Districtname": "Rajkot",
    "statename": "GUJARAT"
  },
  {
    "pincode": "363621",
    "officename": "Sardharka B.O",
    "officeType": "B.O",
    "Deliverystatus": "Delivery",
    "divisionname": "Rajkot",
    "regionname": "Rajkot",
    "circlename": "Gujarat",
    "Taluk": "Wankaner",
    "Districtname": "Rajkot",
    "statename": "GUJARAT"
  },
  {
    "pincode": "363621",
    "officename": "Sindhavadar B.O",
    "officeType": "B.O",
    "Deliverystatus": "Delivery",
    "divisionname": "Rajkot",
    "regionname": "Rajkot",
    "circlename": "Gujarat",
    "Taluk": "Wankaner",
    "Districtname": "Rajkot",
    "statename": "GUJARAT"
  },
  {
    "pincode": "363621",
    "officename": "Tarakiya B.O",
    "officeType": "B.O",
    "Deliverystatus": "Delivery",
    "divisionname": "Rajkot",
    "regionname": "Rajkot",
    "circlename": "Gujarat",
    "Taluk": "Wankaner",
    "Districtname": "Rajkot",
    "statename": "GUJARAT"
  },
  {
    "pincode": "363621",
    "officename": "Tithva B.O",
    "officeType": "B.O",
    "Deliverystatus": "Delivery",
    "divisionname": "Rajkot",
    "regionname": "Rajkot",
    "circlename": "Gujarat",
    "Taluk": "Wankaner",
    "Districtname": "Rajkot",
    "statename": "GUJARAT"
  },
  {
    "pincode": "363621",
    "officename": "Vaghasiya B.O",
    "officeType": "B.O",
    "Deliverystatus": "Delivery",
    "divisionname": "Rajkot",
    "regionname": "Rajkot",
    "circlename": "Gujarat",
    "Taluk": "Wankaner",
    "Districtname": "Rajkot",
    "statename": "GUJARAT"
  },
  {
    "pincode": "363621",
    "officename": "Valasan B.O",
    "officeType": "B.O",
    "Deliverystatus": "Delivery",
    "divisionname": "Rajkot",
    "regionname": "Rajkot",
    "circlename": "Gujarat",
    "Taluk": "Wankaner",
    "Districtname": "Rajkot",
    "statename": "GUJARAT"
  },
  {
    "pincode": "363621",
    "officename": "Vardusar B.O",
    "officeType": "B.O",
    "Deliverystatus": "Delivery",
    "divisionname": "Rajkot",
    "regionname": "Rajkot",
    "circlename": "Gujarat",
    "Taluk": "Wankaner",
    "Districtname": "Rajkot",
    "statename": "GUJARAT"
  },
  {
    "pincode": "363621",
    "officename": "Wankaner S.O",
    "officeType": "S.O",
    "Deliverystatus": "Delivery",
    "divisionname": "Rajkot",
    "regionname": "Rajkot",
    "circlename": "Gujarat",
    "Taluk": "Wankaner",
    "Districtname": "Rajkot",
    "statename": "GUJARAT"
  }
]
