[
  {
    "pincode": "364001",
    "officename": "Bhavnagar Collectorate S.O",
    "officeType": "S.O",
    "Deliverystatus": "Non-Delivery",
    "divisionname": "Bhavnagar",
    "regionname": "Rajkot",
    "circlename": "Gujarat",
    "Taluk": "Bhavnagar",
    "Districtname": "Bhavnagar",
    "statename": "GUJARAT"
  },
  {
    "pincode": "364001",
    "officename": "Bhavnagar Gogha Circle S.O",
    "officeType": "S.O",
    "Deliverystatus": "Non-Delivery",
    "divisionname": "Bhavnagar",
    "regionname": "Rajkot",
    "circlename": "Gujarat",
    "Taluk": "Bhavnagar",
    "Districtname": "Bhavnagar",
    "statename": "GUJARAT"
  },
  {
    "pincode": "364001",
    "officename": "Bhavnagar H.O",
    "officeType": "H.O",
    "Deliverystatus": "Delivery",
    "divisionname": "Bhavnagar",
    "regionname": "Rajkot",
    "circlename": "Gujarat",
    "Taluk": "Bhavnagar",
    "Districtname": "Bhavnagar",
    "statename": "GUJARAT"
  },
  {
    "pincode": "364001",
    "officename": "Bhavnagar K Nagar S.O",
    "officeType": "S.O",
    "Deliverystatus": "Non-Delivery",
    "divisionname": "Bhavnagar",
    "regionname": "Rajkot",
    "circlename": "Gujarat",
    "Taluk": "Bhavnagar",
    "Districtname": "Bhavnagar",
    "statename": "GUJARAT"
  },
  {
    "pincode": "364001",
    "officename": "Bhavnagar Khargate S.O",
    "officeType": "S.O",
    "Deliverystatus": "Non-Delivery",
    "divisionname": "Bhavnagar",
    "regionname": "Rajkot",
    "circlename": "Gujarat",
    "Taluk": "Bhavnagar",
    "Districtname": "Bhavnagar",
    "statename": "GUJARAT"
  },
  {
    "pincode": "364001",
    "officename": "Bhavnagar M K Road S.O",
    "officeType": "S.O",
    "Deliverystatus": "Non-Delivery",
    "divisionname": "Bhavnagar",
    "regionname": "Rajkot",
    "circlename": "Gujarat",
    "Taluk": "Bhavnagar",
    "Districtname": "Bhavnagar",
    "statename": "GUJARAT"
  },
  {
    "pincode": "364001",
    "officename": "Bhavnagar Nirmalnagar S.O",
    "officeType": "S.O",
    "Deliverystatus": "Non-Delivery",
    "divisionname": "Bhavnagar",
    "regionname": "Rajkot",
    "circlename": "Gujarat",
    "Taluk": "Bhavnagar",
    "Districtname": "Bhavnagar",
    "statename": "GUJARAT"
  },
  {
    "pincode": "364001",
    "officename": "Bhavnagar Shivaji Circle Area S.O",
    "officeType": "S.O",
    "Deliverystatus": "Non-Delivery",
    "divisionname": "Bhavnagar",
    "regionname": "Rajkot",
    "circlename": "Gujarat",
    "Taluk": "Bhavnagar",
    "Districtname": "Bhavnagar",
    "statename": "GUJARAT"
  },
  {
    "pincode": "364001",
    "officename": "Bhavnagar Vora Bazar S.O",
    "officeType": "S.O",
    "Deliverystatus": "Non-Delivery",
    "divisionname": "Bhavnagar",
    "regionname": "Rajkot",
    "circlename": "Gujarat",
    "Taluk": "Bhavnagar",
    "Districtname": "Bhavnagar",
    "statename": "GUJARAT"
  },
  {
    "pincode": "364001",
    "officename": "Bhavnagar Wadva S.O",
    "officeType": "S.O",
    "Deliverystatus": "Non-Delivery",
    "divisionname": "Bhavnagar",
    "regionname": "Rajkot",
    "circlename": "Gujarat",
    "Taluk": "Bhavnagar",
    "Districtname": "Bhavnagar",
    "statename": "GUJARAT"
  }
]
