[
  {
    "pincode": "364120",
    "officename": "Bhankhal B.O",
    "officeType": "B.O",
    "Deliverystatus": "Delivery",
    "divisionname": "Bhavnagar",
    "regionname": "Rajkot",
    "circlename": "Gujarat",
    "Taluk": "Gogha",
    "Districtname": "Bhavnagar",
    "statename": "GUJARAT"
  },
  {
    "pincode": "364120",
    "officename": "Bharoli B.O",
    "officeType": "B.O",
    "Deliverystatus": "Delivery",
    "divisionname": "Bhavnagar",
    "regionname": "Rajkot",
    "circlename": "Gujarat",
    "Taluk": "Gogha",
    "Districtname": "Bhavnagar",
    "statename": "GUJARAT"
  },
  {
    "pincode": "364120",
    "officename": "Jaspara B.O",
    "officeType": "B.O",
    "Deliverystatus": "Delivery",
    "divisionname": "Bhavnagar",
    "regionname": "Rajkot",
    "circlename": "Gujarat",
    "Taluk": "Talaja",
    "Districtname": "Bhavnagar",
    "statename": "GUJARAT"
  },
  {
    "pincode": "364120",
    "officename": "Khadarpar B.O",
    "officeType": "B.O",
    "Deliverystatus": "Delivery",
    "divisionname": "Bhavnagar",
    "regionname": "Rajkot",
    "circlename": "Gujarat",
    "Taluk": "Talaja",
    "Districtname": "Bhavnagar",
    "statename": "GUJARAT"
  },
  {
    "pincode": "364120",
    "officename": "Kukad B.O",
    "officeType": "B.O",
    "Deliverystatus": "Delivery",
    "divisionname": "Bhavnagar",
    "regionname": "Rajkot",
    "circlename": "Gujarat",
    "Taluk": "Gogha",
    "Districtname": "Bhavnagar",
    "statename": "GUJARAT"
  },
  {
    "pincode": "364120",
    "officename": "Navagam B.O",
    "officeType": "B.O",
    "Deliverystatus": "Delivery",
    "divisionname": "Bhavnagar",
    "regionname": "Rajkot",
    "circlename": "Gujarat",
    "Taluk": "Gogha",
    "Districtname": "Bhavnagar",
    "statename": "GUJARAT"
  },
  {
    "pincode": "364120",
    "officename": "Rajpara No. 2 B.O",
    "officeType": "B.O",
    "Deliverystatus": "Delivery",
    "divisionname": "Bhavnagar",
    "regionname": "Rajkot",
    "circlename": "Gujarat",
    "Taluk": "Talaja",
    "Districtname": "Bhavnagar",
    "statename": "GUJARAT"
  },
  {
    "pincode": "364120",
    "officename": "Sakhdasar No.2 B.O",
    "officeType": "B.O",
    "Deliverystatus": "Delivery",
    "divisionname": "Bhavnagar",
    "regionname": "Rajkot",
    "circlename": "Gujarat",
    "Taluk": "Talaja",
    "Districtname": "Bhavnagar",
    "statename": "GUJARAT"
  },
  {
    "pincode": "364120",
    "officename": "Tansa S.O",
    "officeType": "S.O",
    "Deliverystatus": "Delivery",
    "divisionname": "Bhavnagar",
    "regionname": "Rajkot",
    "circlename": "Gujarat",
    "Taluk": "Gogha",
    "Districtname": "Bhavnagar",
    "statename": "GUJARAT"
  },
  {
    "pincode": "364120",
    "officename": "Vavdi B.O",
    "officeType": "B.O",
    "Deliverystatus": "Delivery",
    "divisionname": "Bhavnagar",
    "regionname": "Rajkot",
    "circlename": "Gujarat",
    "Taluk": "Gogha",
    "Districtname": "Bhavnagar",
    "statename": "GUJARAT"
  }
]
