[
  {
    "pincode": "364230",
    "officename": "Bhutiya B.O",
    "officeType": "B.O",
    "Deliverystatus": "Delivery",
    "divisionname": "Bhavnagar",
    "regionname": "Rajkot",
    "circlename": "Gujarat",
    "Taluk": "Sihor",
    "Districtname": "Bhavnagar",
    "statename": "GUJARAT"
  },
  {
    "pincode": "364230",
    "officename": "Dhankankunda B.O",
    "officeType": "B.O",
    "Deliverystatus": "Delivery",
    "divisionname": "Bhavnagar",
    "regionname": "Rajkot",
    "circlename": "Gujarat",
    "Taluk": "Sihor",
    "Districtname": "Bhavnagar",
    "statename": "GUJARAT"
  },
  {
    "pincode": "364230",
    "officename": "Hadmatiya B.O",
    "officeType": "B.O",
    "Deliverystatus": "Delivery",
    "divisionname": "Bhavnagar",
    "regionname": "Rajkot",
    "circlename": "Gujarat",
    "Taluk": "Sihor",
    "Districtname": "Bhavnagar",
    "statename": "GUJARAT"
  },
  {
    "pincode": "364230",
    "officename": "Ishwariya B.O",
    "officeType": "B.O",
    "Deliverystatus": "Delivery",
    "divisionname": "Bhavnagar",
    "regionname": "Rajkot",
    "circlename": "Gujarat",
    "Taluk": "Sihor",
    "Districtname": "Bhavnagar",
    "statename": "GUJARAT"
  },
  {
    "pincode": "364230",
    "officename": "Nonghanvadar B.O",
    "officeType": "B.O",
    "Deliverystatus": "Delivery",
    "divisionname": "Bhavnagar",
    "regionname": "Rajkot",
    "circlename": "Gujarat",
    "Taluk": "Palitana",
    "Districtname": "Bhavnagar",
    "statename": "GUJARAT"
  },
  {
    "pincode": "364230",
    "officename": "Padapan B.O",
    "officeType": "B.O",
    "Deliverystatus": "Delivery",
    "divisionname": "Bhavnagar",
    "regionname": "Rajkot",
    "circlename": "Gujarat",
    "Taluk": "Sihor",
    "Districtname": "Bhavnagar",
    "statename": "GUJARAT"
  },
  {
    "pincode": "364230",
    "officename": "Pipardi B.O",
    "officeType": "B.O",
    "Deliverystatus": "Delivery",
    "divisionname": "Bhavnagar",
    "regionname": "Rajkot",
    "circlename": "Gujarat",
    "Taluk": "Sihor",
    "Districtname": "Bhavnagar",
    "statename": "GUJARAT"
  },
  {
    "pincode": "364230",
    "officename": "Ranghola B.O",
    "officeType": "B.O",
    "Deliverystatus": "Delivery",
    "divisionname": "Bhavnagar",
    "regionname": "Rajkot",
    "circlename": "Gujarat",
    "Taluk": "Umrala",
    "Districtname": "Bhavnagar",
    "statename": "GUJARAT"
  },
  {
    "pincode": "364230",
    "officename": "Reva B.O",
    "officeType": "B.O",
    "Deliverystatus": "Delivery",
    "divisionname": "Bhavnagar",
    "regionname": "Rajkot",
    "circlename": "Gujarat",
    "Taluk": "Sihor",
    "Districtname": "Bhavnagar",
    "statename": "GUJARAT"
  },
  {
    "pincode": "364230",
    "officename": "Samadhiyala  ( Mulani) B.O",
    "officeType": "B.O",
    "Deliverystatus": "Delivery",
    "divisionname": "Bhavnagar",
    "regionname": "Rajkot",
    "circlename": "Gujarat",
    "Taluk": "Palitana",
    "Districtname": "Bhavnagar",
    "statename": "GUJARAT"
  },
  {
    "pincode": "364230",
    "officename": "Sanosara S.O",
    "officeType": "S.O",
    "Deliverystatus": "Delivery",
    "divisionname": "Bhavnagar",
    "regionname": "Rajkot",
    "circlename": "Gujarat",
    "Taluk": "Sihor",
    "Districtname": "Bhavnagar",
    "statename": "GUJARAT"
  },
  {
    "pincode": "364230",
    "officename": "Vavdi B.O",
    "officeType": "B.O",
    "Deliverystatus": "Delivery",
    "divisionname": "Bhavnagar",
    "regionname": "Rajkot",
    "circlename": "Gujarat",
    "Taluk": "Sihor",
    "Districtname": "Bhavnagar",
    "statename": "GUJARAT"
  }
]
