[
  {
    "pincode": "364290",
    "officename": "Belampur B.O",
    "officeType": "B.O",
    "Deliverystatus": "Delivery",
    "divisionname": "Bhavnagar",
    "regionname": "Rajkot",
    "circlename": "Gujarat",
    "Taluk": "Mahuva",
    "Districtname": "Bhavnagar",
    "statename": "GUJARAT"
  },
  {
    "pincode": "364290",
    "officename": "Bhadra B.O",
    "officeType": "B.O",
    "Deliverystatus": "Delivery",
    "divisionname": "Bhavnagar",
    "regionname": "Rajkot",
    "circlename": "Gujarat",
    "Taluk": "Mahuva",
    "Districtname": "Bhavnagar",
    "statename": "GUJARAT"
  },
  {
    "pincode": "364290",
    "officename": "Dudheri B.O",
    "officeType": "B.O",
    "Deliverystatus": "Delivery",
    "divisionname": "Bhavnagar",
    "regionname": "Rajkot",
    "circlename": "Gujarat",
    "Taluk": "Mahuva",
    "Districtname": "Bhavnagar",
    "statename": "GUJARAT"
  },
  {
    "pincode": "364290",
    "officename": "Dundas B.O",
    "officeType": "B.O",
    "Deliverystatus": "Delivery",
    "divisionname": "Bhavnagar",
    "regionname": "Rajkot",
    "circlename": "Gujarat",
    "Taluk": "Mahuva",
    "Districtname": "Bhavnagar",
    "statename": "GUJARAT"
  },
  {
    "pincode": "364290",
    "officename": "Gundarni B.O",
    "officeType": "B.O",
    "Deliverystatus": "Delivery",
    "divisionname": "Bhavnagar",
    "regionname": "Rajkot",
    "circlename": "Gujarat",
    "Taluk": "Mahuva",
    "Districtname": "Bhavnagar",
    "statename": "GUJARAT"
  },
  {
    "pincode": "364290",
    "officename": "Katpar B.O",
    "officeType": "B.O",
    "Deliverystatus": "Delivery",
    "divisionname": "Bhavnagar",
    "regionname": "Rajkot",
    "circlename": "Gujarat",
    "Taluk": "Mahuva",
    "Districtname": "Bhavnagar",
    "statename": "GUJARAT"
  },
  {
    "pincode": "364290",
    "officename": "Khared B.O",
    "officeType": "B.O",
    "Deliverystatus": "Delivery",
    "divisionname": "Bhavnagar",
    "regionname": "Rajkot",
    "circlename": "Gujarat",
    "Taluk": "Mahuva",
    "Districtname": "Bhavnagar",
    "statename": "GUJARAT"
  },
  {
    "pincode": "364290",
    "officename": "Konjli B.O",
    "officeType": "B.O",
    "Deliverystatus": "Delivery",
    "divisionname": "Bhavnagar",
    "regionname": "Rajkot",
    "circlename": "Gujarat",
    "Taluk": "Mahuva",
    "Districtname": "Bhavnagar",
    "statename": "GUJARAT"
  },
  {
    "pincode": "364290",
    "officename": "Kumbhan B.O",
    "officeType": "B.O",
    "Deliverystatus": "Delivery",
    "divisionname": "Bhavnagar",
    "regionname": "Rajkot",
    "circlename": "Gujarat",
    "Taluk": "Mahuva",
    "Districtname": "Bhavnagar",
    "statename": "GUJARAT"
  },
  {
    "pincode": "364290",
    "officename": "Lusdi B.O",
    "officeType": "B.O",
    "Deliverystatus": "Delivery",
    "divisionname": "Bhavnagar",
    "regionname": "Rajkot",
    "circlename": "Gujarat",
    "Taluk": "Mahuva",
    "Districtname": "Bhavnagar",
    "statename": "GUJARAT"
  },
  {
    "pincode": "364290",
    "officename": "Madhiya B.O",
    "officeType": "B.O",
    "Deliverystatus": "Delivery",
    "divisionname": "Bhavnagar",
    "regionname": "Rajkot",
    "circlename": "Gujarat",
    "Taluk": "Mahuva",
    "Districtname": "Bhavnagar",
    "statename": "GUJARAT"
  },
  {
    "pincode": "364290",
    "officename": "Mahuva Bazar S.O",
    "officeType": "S.O",
    "Deliverystatus": "Non-Delivery",
    "divisionname": "Bhavnagar",
    "regionname": "Rajkot",
    "circlename": "Gujarat",
    "Taluk": "Mahuva",
    "Districtname": "Bhavnagar",
    "statename": "GUJARAT"
  },
  {
    "pincode": "364290",
    "officename": "Mahuva Gandhibaug S.O",
    "officeType": "S.O",
    "Deliverystatus": "Non-Delivery",
    "divisionname": "Bhavnagar",
    "regionname": "Rajkot",
    "circlename": "Gujarat",
    "Taluk": "Mahuva",
    "Districtname": "Bhavnagar",
    "statename": "GUJARAT"
  },
  {
    "pincode": "364290",
    "officename": "Mahuva S.O (Bhavnagar)",
    "officeType": "S.O",
    "Deliverystatus": "Delivery",
    "divisionname": "Bhavnagar",
    "regionname": "Rajkot",
    "circlename": "Gujarat",
    "Taluk": "Mahuva",
    "Districtname": "Bhavnagar",
    "statename": "GUJARAT"
  },
  {
    "pincode": "364290",
    "officename": "Mota Zadra B.O",
    "officeType": "B.O",
    "Deliverystatus": "Delivery",
    "divisionname": "Bhavnagar",
    "regionname": "Rajkot",
    "circlename": "Gujarat",
    "Taluk": "Mahuva",
    "Districtname": "Bhavnagar",
    "statename": "GUJARAT"
  },
  {
    "pincode": "364290",
    "officename": "Naip B.O",
    "officeType": "B.O",
    "Deliverystatus": "Delivery",
    "divisionname": "Bhavnagar",
    "regionname": "Rajkot",
    "circlename": "Gujarat",
    "Taluk": "Mahuva",
    "Districtname": "Bhavnagar",
    "statename": "GUJARAT"
  },
  {
    "pincode": "364290",
    "officename": "Nana Jadra B.O",
    "officeType": "B.O",
    "Deliverystatus": "Delivery",
    "divisionname": "Bhavnagar",
    "regionname": "Rajkot",
    "circlename": "Gujarat",
    "Taluk": "Mahuva",
    "Districtname": "Bhavnagar",
    "statename": "GUJARAT"
  },
  {
    "pincode": "364290",
    "officename": "Nesvad B.O",
    "officeType": "B.O",
    "Deliverystatus": "Delivery",
    "divisionname": "Bhavnagar",
    "regionname": "Rajkot",
    "circlename": "Gujarat",
    "Taluk": "Mahuva",
    "Districtname": "Bhavnagar",
    "statename": "GUJARAT"
  },
  {
    "pincode": "364290",
    "officename": "Rajavadar B.O",
    "officeType": "B.O",
    "Deliverystatus": "Delivery",
    "divisionname": "Bhavnagar",
    "regionname": "Rajkot",
    "circlename": "Gujarat",
    "Taluk": "Mahuva",
    "Districtname": "Bhavnagar",
    "statename": "GUJARAT"
  },
  {
    "pincode": "364290",
    "officename": "Ratol B.O",
    "officeType": "B.O",
    "Deliverystatus": "Delivery",
    "divisionname": "Bhavnagar",
    "regionname": "Rajkot",
    "circlename": "Gujarat",
    "Taluk": "Mahuva",
    "Districtname": "Bhavnagar",
    "statename": "GUJARAT"
  },
  {
    "pincode": "364290",
    "officename": "Sathra B.O",
    "officeType": "B.O",
    "Deliverystatus": "Delivery",
    "divisionname": "Bhavnagar",
    "regionname": "Rajkot",
    "circlename": "Gujarat",
    "Taluk": "Mahuva",
    "Districtname": "Bhavnagar",
    "statename": "GUJARAT"
  },
  {
    "pincode": "364290",
    "officename": "Talgajarda B.O",
    "officeType": "B.O",
    "Deliverystatus": "Delivery",
    "divisionname": "Bhavnagar",
    "regionname": "Rajkot",
    "circlename": "Gujarat",
    "Taluk": "Mahuva",
    "Districtname": "Bhavnagar",
    "statename": "GUJARAT"
  },
  {
    "pincode": "364290",
    "officename": "Tared B.O",
    "officeType": "B.O",
    "Deliverystatus": "Delivery",
    "divisionname": "Bhavnagar",
    "regionname": "Rajkot",
    "circlename": "Gujarat",
    "Taluk": "Mahuva",
    "Districtname": "Bhavnagar",
    "statename": "GUJARAT"
  },
  {
    "pincode": "364290",
    "officename": "Vaghnagar B.O",
    "officeType": "B.O",
    "Deliverystatus": "Delivery",
    "divisionname": "Bhavnagar",
    "regionname": "Rajkot",
    "circlename": "Gujarat",
    "Taluk": "Mahuva",
    "Districtname": "Bhavnagar",
    "statename": "GUJARAT"
  }
]
