[
  {
    "pincode": "364490",
    "officename": "Bildi B.O",
    "officeType": "B.O",
    "Deliverystatus": "Delivery",
    "divisionname": "Gondal",
    "regionname": "Rajkot",
    "circlename": "Gujarat",
    "Taluk": "Gondal",
    "Districtname": "Rajkot",
    "statename": "GUJARAT"
  },
  {
    "pincode": "364490",
    "officename": "Dodiyala B.O",
    "officeType": "B.O",
    "Deliverystatus": "Delivery",
    "divisionname": "Gondal",
    "regionname": "Rajkot",
    "circlename": "Gujarat",
    "Taluk": "Jasdan",
    "Districtname": "Rajkot",
    "statename": "GUJARAT"
  },
  {
    "pincode": "364490",
    "officename": "Juna Pipaliya B.O",
    "officeType": "B.O",
    "Deliverystatus": "Delivery",
    "divisionname": "Gondal",
    "regionname": "Rajkot",
    "circlename": "Gujarat",
    "Taluk": "Jasdan",
    "Districtname": "Rajkot",
    "statename": "GUJARAT"
  },
  {
    "pincode": "364490",
    "officename": "Meghpar B.O",
    "officeType": "B.O",
    "Deliverystatus": "Delivery",
    "divisionname": "Gondal",
    "regionname": "Rajkot",
    "circlename": "Gujarat",
    "Taluk": "Jasdan",
    "Districtname": "Rajkot",
    "statename": "GUJARAT"
  },
  {
    "pincode": "364490",
    "officename": "Ravna B.O",
    "officeType": "B.O",
    "Deliverystatus": "Delivery",
    "divisionname": "Gondal",
    "regionname": "Rajkot",
    "circlename": "Gujarat",
    "Taluk": "Gondal",
    "Districtname": "Rajkot",
    "statename": "GUJARAT"
  },
  {
    "pincode": "364490",
    "officename": "Sanathali B.O",
    "officeType": "B.O",
    "Deliverystatus": "Delivery",
    "divisionname": "Gondal",
    "regionname": "Rajkot",
    "circlename": "Gujarat",
    "Taluk": "Jasdan",
    "Districtname": "Rajkot",
    "statename": "GUJARAT"
  },
  {
    "pincode": "364490",
    "officename": "Vasavad S.O",
    "officeType": "S.O",
    "Deliverystatus": "Delivery",
    "divisionname": "Gondal",
    "regionname": "Rajkot",
    "circlename": "Gujarat",
    "Taluk": "Gondal",
    "Districtname": "Rajkot",
    "statename": "GUJARAT"
  },
  {
    "pincode": "364490",
    "officename": "Zundala B.O",
    "officeType": "B.O",
    "Deliverystatus": "Delivery",
    "divisionname": "Gondal",
    "regionname": "Rajkot",
    "circlename": "Gujarat",
    "Taluk": "Jasdan",
    "Districtname": "Rajkot",
    "statename": "GUJARAT"
  }
]
