[
  {
    "pincode": "364525",
    "officename": "Bhmodra-mota B.O",
    "officeType": "B.O",
    "Deliverystatus": "Delivery",
    "divisionname": "Amreli",
    "regionname": "Rajkot",
    "circlename": "Gujarat",
    "Taluk": "Amreli",
    "Districtname": "Amreli",
    "statename": "GUJARAT"
  },
  {
    "pincode": "364525",
    "officename": "Fifad B.O",
    "officeType": "B.O",
    "Deliverystatus": "Delivery",
    "divisionname": "Amreli",
    "regionname": "Rajkot",
    "circlename": "Gujarat",
    "Taluk": "Amreli",
    "Districtname": "Amreli",
    "statename": "GUJARAT"
  },
  {
    "pincode": "364525",
    "officename": "Ghoba B.O",
    "officeType": "B.O",
    "Deliverystatus": "Delivery",
    "divisionname": "Amreli",
    "regionname": "Rajkot",
    "circlename": "Gujarat",
    "Taluk": "Amreli",
    "Districtname": "Amreli",
    "statename": "GUJARAT"
  },
  {
    "pincode": "364525",
    "officename": "Hipavadli B.O",
    "officeType": "B.O",
    "Deliverystatus": "Delivery",
    "divisionname": "Amreli",
    "regionname": "Rajkot",
    "circlename": "Gujarat",
    "Taluk": "Amreli",
    "Districtname": "Amreli",
    "statename": "GUJARAT"
  },
  {
    "pincode": "364525",
    "officename": "Katrodi B.O",
    "officeType": "B.O",
    "Deliverystatus": "Delivery",
    "divisionname": "Amreli",
    "regionname": "Rajkot",
    "circlename": "Gujarat",
    "Taluk": "Amreli",
    "Districtname": "Amreli",
    "statename": "GUJARAT"
  },
  {
    "pincode": "364525",
    "officename": "Khalpar B.O",
    "officeType": "B.O",
    "Deliverystatus": "Delivery",
    "divisionname": "Amreli",
    "regionname": "Rajkot",
    "circlename": "Gujarat",
    "Taluk": "Amreli",
    "Districtname": "Amreli",
    "statename": "GUJARAT"
  },
  {
    "pincode": "364525",
    "officename": "Mekda B.O",
    "officeType": "B.O",
    "Deliverystatus": "Delivery",
    "divisionname": "Amreli",
    "regionname": "Rajkot",
    "circlename": "Gujarat",
    "Taluk": "Amreli",
    "Districtname": "Amreli",
    "statename": "GUJARAT"
  },
  {
    "pincode": "364525",
    "officename": "Piparadi B.O",
    "officeType": "B.O",
    "Deliverystatus": "Delivery",
    "divisionname": "Amreli",
    "regionname": "Rajkot",
    "circlename": "Gujarat",
    "Taluk": "Amreli",
    "Districtname": "Amreli",
    "statename": "GUJARAT"
  },
  {
    "pincode": "364525",
    "officename": "Shelana B.O",
    "officeType": "B.O",
    "Deliverystatus": "Delivery",
    "divisionname": "Amreli",
    "regionname": "Rajkot",
    "circlename": "Gujarat",
    "Taluk": "Amreli",
    "Districtname": "Amreli",
    "statename": "GUJARAT"
  },
  {
    "pincode": "364525",
    "officename": "Thavi B.O",
    "officeType": "B.O",
    "Deliverystatus": "Delivery",
    "divisionname": "Amreli",
    "regionname": "Rajkot",
    "circlename": "Gujarat",
    "Taluk": "Amreli",
    "Districtname": "Amreli",
    "statename": "GUJARAT"
  },
  {
    "pincode": "364525",
    "officename": "Vanda S.O",
    "officeType": "S.O",
    "Deliverystatus": "Delivery",
    "divisionname": "Amreli",
    "regionname": "Rajkot",
    "circlename": "Gujarat",
    "Taluk": "Savarkundla",
    "Districtname": "Amreli",
    "statename": "GUJARAT"
  },
  {
    "pincode": "364525",
    "officename": "Vanshiyali B.O",
    "officeType": "B.O",
    "Deliverystatus": "Delivery",
    "divisionname": "Amreli",
    "regionname": "Rajkot",
    "circlename": "Gujarat",
    "Taluk": "Amreli",
    "Districtname": "Amreli",
    "statename": "GUJARAT"
  },
  {
    "pincode": "364525",
    "officename": "Virdi B.O",
    "officeType": "B.O",
    "Deliverystatus": "Delivery",
    "divisionname": "Amreli",
    "regionname": "Rajkot",
    "circlename": "Gujarat",
    "Taluk": "Amreli",
    "Districtname": "Amreli",
    "statename": "GUJARAT"
  }
]
