[
  {
    "pincode": "364710",
    "officename": "Bambhan B.O",
    "officeType": "B.O",
    "Deliverystatus": "Delivery",
    "divisionname": "Bhavnagar",
    "regionname": "Rajkot",
    "circlename": "Gujarat",
    "Taluk": "Botad",
    "Districtname": "Bhavnagar",
    "statename": "GUJARAT"
  },
  {
    "pincode": "364710",
    "officename": "Bhadravadi B.O",
    "officeType": "B.O",
    "Deliverystatus": "Delivery",
    "divisionname": "Bhavnagar",
    "regionname": "Rajkot",
    "circlename": "Gujarat",
    "Taluk": "Botad",
    "Districtname": "Bhavnagar",
    "statename": "GUJARAT"
  },
  {
    "pincode": "364710",
    "officename": "Bhimdad B.O",
    "officeType": "B.O",
    "Deliverystatus": "Delivery",
    "divisionname": "Bhavnagar",
    "regionname": "Rajkot",
    "circlename": "Gujarat",
    "Taluk": "Botad",
    "Districtname": "Bhavnagar",
    "statename": "GUJARAT"
  },
  {
    "pincode": "364710",
    "officename": "Botad S.O",
    "officeType": "S.O",
    "Deliverystatus": "Delivery",
    "divisionname": "Bhavnagar",
    "regionname": "Rajkot",
    "circlename": "Gujarat",
    "Taluk": "Botad",
    "Districtname": "Bhavnagar",
    "statename": "GUJARAT"
  },
  {
    "pincode": "364710",
    "officename": "Botad Statoin Road S.O",
    "officeType": "S.O",
    "Deliverystatus": "Non-Delivery",
    "divisionname": "Bhavnagar",
    "regionname": "Rajkot",
    "circlename": "Gujarat",
    "Taluk": "Botad",
    "Districtname": "Bhavnagar",
    "statename": "GUJARAT"
  },
  {
    "pincode": "364710",
    "officename": "Botad Town S.O",
    "officeType": "S.O",
    "Deliverystatus": "Non-Delivery",
    "divisionname": "Bhavnagar",
    "regionname": "Rajkot",
    "circlename": "Gujarat",
    "Taluk": "Botad",
    "Districtname": "Bhavnagar",
    "statename": "GUJARAT"
  },
  {
    "pincode": "364710",
    "officename": "Dhakania B.O",
    "officeType": "B.O",
    "Deliverystatus": "Delivery",
    "divisionname": "Bhavnagar",
    "regionname": "Rajkot",
    "circlename": "Gujarat",
    "Taluk": "Botad",
    "Districtname": "Bhavnagar",
    "statename": "GUJARAT"
  },
  {
    "pincode": "364710",
    "officename": "Haddad B.O",
    "officeType": "B.O",
    "Deliverystatus": "Delivery",
    "divisionname": "Bhavnagar",
    "regionname": "Rajkot",
    "circlename": "Gujarat",
    "Taluk": "Botad",
    "Districtname": "Bhavnagar",
    "statename": "GUJARAT"
  },
  {
    "pincode": "364710",
    "officename": "Kariyani B.O",
    "officeType": "B.O",
    "Deliverystatus": "Delivery",
    "divisionname": "Bhavnagar",
    "regionname": "Rajkot",
    "circlename": "Gujarat",
    "Taluk": "Botad",
    "Districtname": "Bhavnagar",
    "statename": "GUJARAT"
  },
  {
    "pincode": "364710",
    "officename": "Lathidad B.O",
    "officeType": "B.O",
    "Deliverystatus": "Delivery",
    "divisionname": "Bhavnagar",
    "regionname": "Rajkot",
    "circlename": "Gujarat",
    "Taluk": "Botad",
    "Districtname": "Bhavnagar",
    "statename": "GUJARAT"
  },
  {
    "pincode": "364710",
    "officename": "Nagalpar B.O",
    "officeType": "B.O",
    "Deliverystatus": "Delivery",
    "divisionname": "Bhavnagar",
    "regionname": "Rajkot",
    "circlename": "Gujarat",
    "Taluk": "Botad",
    "Districtname": "Bhavnagar",
    "statename": "GUJARAT"
  },
  {
    "pincode": "364710",
    "officename": "Rangpur B.O",
    "officeType": "B.O",
    "Deliverystatus": "Delivery",
    "divisionname": "Bhavnagar",
    "regionname": "Rajkot",
    "circlename": "Gujarat",
    "Taluk": "Botad",
    "Districtname": "Bhavnagar",
    "statename": "GUJARAT"
  },
  {
    "pincode": "364710",
    "officename": "Salaiya B.O",
    "officeType": "B.O",
    "Deliverystatus": "Delivery",
    "divisionname": "Bhavnagar",
    "regionname": "Rajkot",
    "circlename": "Gujarat",
    "Taluk": "Botad",
    "Districtname": "Bhavnagar",
    "statename": "GUJARAT"
  },
  {
    "pincode": "364710",
    "officename": "Samadhiyala No. 1 B.O",
    "officeType": "B.O",
    "Deliverystatus": "Delivery",
    "divisionname": "Bhavnagar",
    "regionname": "Rajkot",
    "circlename": "Gujarat",
    "Taluk": "Botad",
    "Districtname": "Bhavnagar",
    "statename": "GUJARAT"
  },
  {
    "pincode": "364710",
    "officename": "Samadhiyala No. 2 B.O",
    "officeType": "B.O",
    "Deliverystatus": "Delivery",
    "divisionname": "Bhavnagar",
    "regionname": "Rajkot",
    "circlename": "Gujarat",
    "Taluk": "Botad",
    "Districtname": "Bhavnagar",
    "statename": "GUJARAT"
  },
  {
    "pincode": "364710",
    "officename": "Sangvadar B.O",
    "officeType": "B.O",
    "Deliverystatus": "Delivery",
    "divisionname": "Bhavnagar",
    "regionname": "Rajkot",
    "circlename": "Gujarat",
    "Taluk": "Botad",
    "Districtname": "Bhavnagar",
    "statename": "GUJARAT"
  },
  {
    "pincode": "364710",
    "officename": "Sherthali B.O",
    "officeType": "B.O",
    "Deliverystatus": "Delivery",
    "divisionname": "Bhavnagar",
    "regionname": "Rajkot",
    "circlename": "Gujarat",
    "Taluk": "Botad",
    "Districtname": "Bhavnagar",
    "statename": "GUJARAT"
  },
  {
    "pincode": "364710",
    "officename": "Tajpar B.O",
    "officeType": "B.O",
    "Deliverystatus": "Delivery",
    "divisionname": "Bhavnagar",
    "regionname": "Rajkot",
    "circlename": "Gujarat",
    "Taluk": "Bhavnagar",
    "Districtname": "Bhavnagar",
    "statename": "GUJARAT"
  },
  {
    "pincode": "364710",
    "officename": "Targhara B.O",
    "officeType": "B.O",
    "Deliverystatus": "Delivery",
    "divisionname": "Bhavnagar",
    "regionname": "Rajkot",
    "circlename": "Gujarat",
    "Taluk": "Botad",
    "Districtname": "Bhavnagar",
    "statename": "GUJARAT"
  },
  {
    "pincode": "364710",
    "officename": "Turkha B.O",
    "officeType": "B.O",
    "Deliverystatus": "Delivery",
    "divisionname": "Bhavnagar",
    "regionname": "Rajkot",
    "circlename": "Gujarat",
    "Taluk": "Botad",
    "Districtname": "Bhavnagar",
    "statename": "GUJARAT"
  },
  {
    "pincode": "364710",
    "officename": "Zamrala B.O",
    "officeType": "B.O",
    "Deliverystatus": "Delivery",
    "divisionname": "Bhavnagar",
    "regionname": "Rajkot",
    "circlename": "Gujarat",
    "Taluk": "Botad",
    "Districtname": "Bhavnagar",
    "statename": "GUJARAT"
  }
]
