[
  {
    "pincode": "365450",
    "officename": "Amarpur B.O",
    "officeType": "B.O",
    "Deliverystatus": "Delivery",
    "divisionname": "Amreli",
    "regionname": "Rajkot",
    "circlename": "Gujarat",
    "Taluk": "",
    "Districtname": "Amreli",
    "statename": "GUJARAT"
  },
  {
    "pincode": "365450",
    "officename": "Anida B.O",
    "officeType": "B.O",
    "Deliverystatus": "Delivery",
    "divisionname": "Amreli",
    "regionname": "Rajkot",
    "circlename": "Gujarat",
    "Taluk": "Amreli",
    "Districtname": "Amreli",
    "statename": "GUJARAT"
  },
  {
    "pincode": "365450",
    "officename": "Barvala-bavishi B.O",
    "officeType": "B.O",
    "Deliverystatus": "Delivery",
    "divisionname": "Amreli",
    "regionname": "Rajkot",
    "circlename": "Gujarat",
    "Taluk": "Amreli",
    "Districtname": "Amreli",
    "statename": "GUJARAT"
  },
  {
    "pincode": "365450",
    "officename": "Bhayavadar B.O",
    "officeType": "B.O",
    "Deliverystatus": "Delivery",
    "divisionname": "Amreli",
    "regionname": "Rajkot",
    "circlename": "Gujarat",
    "Taluk": "Amreli",
    "Districtname": "Amreli",
    "statename": "GUJARAT"
  },
  {
    "pincode": "365450",
    "officename": "Kunkavav S.O",
    "officeType": "S.O",
    "Deliverystatus": "Delivery",
    "divisionname": "Amreli",
    "regionname": "Rajkot",
    "circlename": "Gujarat",
    "Taluk": "Kunkvav-vadia",
    "Districtname": "Amreli",
    "statename": "GUJARAT"
  },
  {
    "pincode": "365450",
    "officename": "Mota-ujla B.O",
    "officeType": "B.O",
    "Deliverystatus": "Delivery",
    "divisionname": "Amreli",
    "regionname": "Rajkot",
    "circlename": "Gujarat",
    "Taluk": "Amreli",
    "Districtname": "Amreli",
    "statename": "GUJARAT"
  },
  {
    "pincode": "365450",
    "officename": "Nani-kunkavav B.O",
    "officeType": "B.O",
    "Deliverystatus": "Delivery",
    "divisionname": "Amreli",
    "regionname": "Rajkot",
    "circlename": "Gujarat",
    "Taluk": "Amreli",
    "Districtname": "Amreli",
    "statename": "GUJARAT"
  },
  {
    "pincode": "365450",
    "officename": "Sanala B.O",
    "officeType": "B.O",
    "Deliverystatus": "Delivery",
    "divisionname": "Amreli",
    "regionname": "Rajkot",
    "circlename": "Gujarat",
    "Taluk": "Amreli",
    "Districtname": "Amreli",
    "statename": "GUJARAT"
  },
  {
    "pincode": "365450",
    "officename": "Sanali B.O",
    "officeType": "B.O",
    "Deliverystatus": "Delivery",
    "divisionname": "Amreli",
    "regionname": "Rajkot",
    "circlename": "Gujarat",
    "Taluk": "Amreli",
    "Districtname": "Amreli",
    "statename": "GUJARAT"
  },
  {
    "pincode": "365450",
    "officename": "Vavdi-road B.O",
    "officeType": "B.O",
    "Deliverystatus": "Delivery",
    "divisionname": "Amreli",
    "regionname": "Rajkot",
    "circlename": "Gujarat",
    "Taluk": "Amreli",
    "Districtname": "Amreli",
    "statename": "GUJARAT"
  }
]
