[
  {
    "pincode": "365535",
    "officename": "Amba B.O",
    "officeType": "B.O",
    "Deliverystatus": "Delivery",
    "divisionname": "Amreli",
    "regionname": "Rajkot",
    "circlename": "Gujarat",
    "Taluk": "Amreli",
    "Districtname": "Amreli",
    "statename": "GUJARAT"
  },
  {
    "pincode": "365535",
    "officename": "Bhesvadi B.O",
    "officeType": "B.O",
    "Deliverystatus": "Delivery",
    "divisionname": "Amreli",
    "regionname": "Rajkot",
    "circlename": "Gujarat",
    "Taluk": "Amreli",
    "Districtname": "Amreli",
    "statename": "GUJARAT"
  },
  {
    "pincode": "365535",
    "officename": "Hathigadh B.O",
    "officeType": "B.O",
    "Deliverystatus": "Delivery",
    "divisionname": "Amreli",
    "regionname": "Rajkot",
    "circlename": "Gujarat",
    "Taluk": "Amreli",
    "Districtname": "Amreli",
    "statename": "GUJARAT"
  },
  {
    "pincode": "365535",
    "officename": "Jatroda B.O",
    "officeType": "B.O",
    "Deliverystatus": "Delivery",
    "divisionname": "Amreli",
    "regionname": "Rajkot",
    "circlename": "Gujarat",
    "Taluk": "Amreli",
    "Districtname": "Amreli",
    "statename": "GUJARAT"
  },
  {
    "pincode": "365535",
    "officename": "Liliya S.O",
    "officeType": "S.O",
    "Deliverystatus": "Delivery",
    "divisionname": "Amreli",
    "regionname": "Rajkot",
    "circlename": "Gujarat",
    "Taluk": "Liliya",
    "Districtname": "Amreli",
    "statename": "GUJARAT"
  },
  {
    "pincode": "365535",
    "officename": "Mota-kankot B.O",
    "officeType": "B.O",
    "Deliverystatus": "Delivery",
    "divisionname": "Amreli",
    "regionname": "Rajkot",
    "circlename": "Gujarat",
    "Taluk": "Amreli",
    "Districtname": "Amreli",
    "statename": "GUJARAT"
  },
  {
    "pincode": "365535",
    "officename": "Nanaliliya B.O",
    "officeType": "B.O",
    "Deliverystatus": "Delivery",
    "divisionname": "Amreli",
    "regionname": "Rajkot",
    "circlename": "Gujarat",
    "Taluk": "Amreli",
    "Districtname": "Amreli",
    "statename": "GUJARAT"
  },
  {
    "pincode": "365535",
    "officename": "Sajnatimba B.O",
    "officeType": "B.O",
    "Deliverystatus": "Delivery",
    "divisionname": "Amreli",
    "regionname": "Rajkot",
    "circlename": "Gujarat",
    "Taluk": "Amreli",
    "Districtname": "Amreli",
    "statename": "GUJARAT"
  },
  {
    "pincode": "365535",
    "officename": "Saladi B.O",
    "officeType": "B.O",
    "Deliverystatus": "Delivery",
    "divisionname": "Amreli",
    "regionname": "Rajkot",
    "circlename": "Gujarat",
    "Taluk": "Amreli",
    "Districtname": "Amreli",
    "statename": "GUJARAT"
  },
  {
    "pincode": "365535",
    "officename": "Sanaliya B.O",
    "officeType": "B.O",
    "Deliverystatus": "Delivery",
    "divisionname": "Amreli",
    "regionname": "Rajkot",
    "circlename": "Gujarat",
    "Taluk": "Amreli",
    "Districtname": "Amreli",
    "statename": "GUJARAT"
  }
]
