[
  {
    "pincode": "365650",
    "officename": "Bhad B.O",
    "officeType": "B.O",
    "Deliverystatus": "Delivery",
    "divisionname": "Amreli",
    "regionname": "Rajkot",
    "circlename": "Gujarat",
    "Taluk": "Amreli",
    "Districtname": "Amreli",
    "statename": "GUJARAT"
  },
  {
    "pincode": "365650",
    "officename": "Bhavrdi B.O",
    "officeType": "B.O",
    "Deliverystatus": "Delivery",
    "divisionname": "Amreli",
    "regionname": "Rajkot",
    "circlename": "Gujarat",
    "Taluk": "Amreli",
    "Districtname": "Amreli",
    "statename": "GUJARAT"
  },
  {
    "pincode": "365650",
    "officename": "Borala B.O",
    "officeType": "B.O",
    "Deliverystatus": "Delivery",
    "divisionname": "Amreli",
    "regionname": "Rajkot",
    "circlename": "Gujarat",
    "Taluk": "Amreli",
    "Districtname": "Amreli",
    "statename": "GUJARAT"
  },
  {
    "pincode": "365650",
    "officename": "Gidardi B.O",
    "officeType": "B.O",
    "Deliverystatus": "Delivery",
    "divisionname": "Amreli",
    "regionname": "Rajkot",
    "circlename": "Gujarat",
    "Taluk": "Amreli",
    "Districtname": "Amreli",
    "statename": "GUJARAT"
  },
  {
    "pincode": "365650",
    "officename": "Khadadhar B.O",
    "officeType": "B.O",
    "Deliverystatus": "Delivery",
    "divisionname": "Amreli",
    "regionname": "Rajkot",
    "circlename": "Gujarat",
    "Taluk": "Amreli",
    "Districtname": "Amreli",
    "statename": "GUJARAT"
  },
  {
    "pincode": "365650",
    "officename": "Khambha S.O",
    "officeType": "S.O",
    "Deliverystatus": "Delivery",
    "divisionname": "Amreli",
    "regionname": "Rajkot",
    "circlename": "Gujarat",
    "Taluk": "Khambha",
    "Districtname": "Amreli",
    "statename": "GUJARAT"
  },
  {
    "pincode": "365650",
    "officename": "Pipalva B.O",
    "officeType": "B.O",
    "Deliverystatus": "Delivery",
    "divisionname": "Amreli",
    "regionname": "Rajkot",
    "circlename": "Gujarat",
    "Taluk": "Amreli",
    "Districtname": "Amreli",
    "statename": "GUJARAT"
  },
  {
    "pincode": "365650",
    "officename": "Tatania B.O",
    "officeType": "B.O",
    "Deliverystatus": "Delivery",
    "divisionname": "Amreli",
    "regionname": "Rajkot",
    "circlename": "Gujarat",
    "Taluk": "Amreli",
    "Districtname": "Amreli",
    "statename": "GUJARAT"
  },
  {
    "pincode": "365650",
    "officename": "Umaraia B.O",
    "officeType": "B.O",
    "Deliverystatus": "Delivery",
    "divisionname": "Amreli",
    "regionname": "Rajkot",
    "circlename": "Gujarat",
    "Taluk": "Amreli",
    "Districtname": "Amreli",
    "statename": "GUJARAT"
  }
]
