[
  {
    "pincode": "365635",
    "officename": "Anida B.O",
    "officeType": "B.O",
    "Deliverystatus": "Delivery",
    "divisionname": "Amreli",
    "regionname": "Rajkot",
    "circlename": "Gujarat",
    "Taluk": "Amreli",
    "Districtname": "Amreli",
    "statename": "GUJARAT"
  },
  {
    "pincode": "365635",
    "officename": "Ingorala Bhad B.O",
    "officeType": "B.O",
    "Deliverystatus": "Delivery",
    "divisionname": "Amreli",
    "regionname": "Rajkot",
    "circlename": "Gujarat",
    "Taluk": "Amreli",
    "Districtname": "Amreli",
    "statename": "GUJARAT"
  },
  {
    "pincode": "365635",
    "officename": "Jikiyali B.O",
    "officeType": "B.O",
    "Deliverystatus": "Delivery",
    "divisionname": "Amreli",
    "regionname": "Rajkot",
    "circlename": "Gujarat",
    "Taluk": "Amreli",
    "Districtname": "Amreli",
    "statename": "GUJARAT"
  },
  {
    "pincode": "365635",
    "officename": "Lakhapadar B.O",
    "officeType": "B.O",
    "Deliverystatus": "Delivery",
    "divisionname": "Amreli",
    "regionname": "Rajkot",
    "circlename": "Gujarat",
    "Taluk": "Amreli",
    "Districtname": "Amreli",
    "statename": "GUJARAT"
  },
  {
    "pincode": "365635",
    "officename": "Motasamdhiyala S.O",
    "officeType": "S.O",
    "Deliverystatus": "Delivery",
    "divisionname": "Amreli",
    "regionname": "Rajkot",
    "circlename": "Gujarat",
    "Taluk": "Khambha",
    "Districtname": "Amreli",
    "statename": "GUJARAT"
  },
  {
    "pincode": "365635",
    "officename": "Nagadhra B.O",
    "officeType": "B.O",
    "Deliverystatus": "Delivery",
    "divisionname": "Amreli",
    "regionname": "Rajkot",
    "circlename": "Gujarat",
    "Taluk": "Amreli",
    "Districtname": "Amreli",
    "statename": "GUJARAT"
  },
  {
    "pincode": "365635",
    "officename": "Nani-dhari B.O",
    "officeType": "B.O",
    "Deliverystatus": "Delivery",
    "divisionname": "Amreli",
    "regionname": "Rajkot",
    "circlename": "Gujarat",
    "Taluk": "Amreli",
    "Districtname": "Amreli",
    "statename": "GUJARAT"
  },
  {
    "pincode": "365635",
    "officename": "Rughnathpur B.O",
    "officeType": "B.O",
    "Deliverystatus": "Delivery",
    "divisionname": "Amreli",
    "regionname": "Rajkot",
    "circlename": "Gujarat",
    "Taluk": "Amreli",
    "Districtname": "Amreli",
    "statename": "GUJARAT"
  },
  {
    "pincode": "365635",
    "officename": "Vankiya B.O",
    "officeType": "B.O",
    "Deliverystatus": "Delivery",
    "divisionname": "Amreli",
    "regionname": "Rajkot",
    "circlename": "Gujarat",
    "Taluk": "Amreli",
    "Districtname": "Amreli",
    "statename": "GUJARAT"
  }
]
