[
  {
    "pincode": "370001",
    "officename": "Bhagadia B.O",
    "officeType": "B.O",
    "Deliverystatus": "Delivery",
    "divisionname": "Kutch",
    "regionname": "Rajkot",
    "circlename": "Gujarat",
    "Taluk": "Bhuj",
    "Districtname": "Kachchh",
    "statename": "GUJARAT"
  },
  {
    "pincode": "370001",
    "officename": "Bhuj Darbargadh Chowk S.O",
    "officeType": "S.O",
    "Deliverystatus": "Non-Delivery",
    "divisionname": "Kutch",
    "regionname": "Rajkot",
    "circlename": "Gujarat",
    "Taluk": "Bhuj",
    "Districtname": "Kachchh",
    "statename": "GUJARAT"
  },
  {
    "pincode": "370001",
    "officename": "Bhuj Din Dayal Nagar S.O",
    "officeType": "S.O",
    "Deliverystatus": "Non-Delivery",
    "divisionname": "Kutch",
    "regionname": "Rajkot",
    "circlename": "Gujarat",
    "Taluk": "Bhuj",
    "Districtname": "Kachchh",
    "statename": "GUJARAT"
  },
  {
    "pincode": "370001",
    "officename": "Bhuj H.O",
    "officeType": "H.O",
    "Deliverystatus": "Delivery",
    "divisionname": "Kutch",
    "regionname": "Rajkot",
    "circlename": "Gujarat",
    "Taluk": "Bhuj",
    "Districtname": "Kachchh",
    "statename": "GUJARAT"
  },
  {
    "pincode": "370001",
    "officename": "Bhuj Ravalwadi S.O",
    "officeType": "S.O",
    "Deliverystatus": "Non-Delivery",
    "divisionname": "Kutch",
    "regionname": "Rajkot",
    "circlename": "Gujarat",
    "Taluk": "Bhuj",
    "Districtname": "Kachchh",
    "statename": "GUJARAT"
  },
  {
    "pincode": "370001",
    "officename": "Bibar B.O",
    "officeType": "B.O",
    "Deliverystatus": "Delivery",
    "divisionname": "Kutch",
    "regionname": "Rajkot",
    "circlename": "Gujarat",
    "Taluk": "Nakhatrana",
    "Districtname": "Kachchh",
    "statename": "GUJARAT"
  },
  {
    "pincode": "370001",
    "officename": "Dhori B.O",
    "officeType": "B.O",
    "Deliverystatus": "Delivery",
    "divisionname": "Kutch",
    "regionname": "Rajkot",
    "circlename": "Gujarat",
    "Taluk": "Bhuj",
    "Districtname": "Kachchh",
    "statename": "GUJARAT"
  },
  {
    "pincode": "370001",
    "officename": "Dhrang B.O",
    "officeType": "B.O",
    "Deliverystatus": "Delivery",
    "divisionname": "Kutch",
    "regionname": "Rajkot",
    "circlename": "Gujarat",
    "Taluk": "Bhuj",
    "Districtname": "Kachchh",
    "statename": "GUJARAT"
  },
  {
    "pincode": "370001",
    "officename": "Habay B.O",
    "officeType": "B.O",
    "Deliverystatus": "Delivery",
    "divisionname": "Kutch",
    "regionname": "Rajkot",
    "circlename": "Gujarat",
    "Taluk": "Bhuj",
    "Districtname": "Kachchh",
    "statename": "GUJARAT"
  },
  {
    "pincode": "370001",
    "officename": "Kotay B.O",
    "officeType": "B.O",
    "Deliverystatus": "Delivery",
    "divisionname": "Kutch",
    "regionname": "Rajkot",
    "circlename": "Gujarat",
    "Taluk": "Bhuj",
    "Districtname": "Kachchh",
    "statename": "GUJARAT"
  },
  {
    "pincode": "370001",
    "officename": "Kunariya B.O",
    "officeType": "B.O",
    "Deliverystatus": "Delivery",
    "divisionname": "Kutch",
    "regionname": "Rajkot",
    "circlename": "Gujarat",
    "Taluk": "Bhuj",
    "Districtname": "Kachchh",
    "statename": "GUJARAT"
  },
  {
    "pincode": "370001",
    "officename": "Lodai B.O",
    "officeType": "B.O",
    "Deliverystatus": "Delivery",
    "divisionname": "Kutch",
    "regionname": "Rajkot",
    "circlename": "Gujarat",
    "Taluk": "Bhuj",
    "Districtname": "Kachchh",
    "statename": "GUJARAT"
  },
  {
    "pincode": "370001",
    "officename": "Loria B.O",
    "officeType": "B.O",
    "Deliverystatus": "Delivery",
    "divisionname": "Kutch",
    "regionname": "Rajkot",
    "circlename": "Gujarat",
    "Taluk": "Bhuj",
    "Districtname": "Kachchh",
    "statename": "GUJARAT"
  },
  {
    "pincode": "370001",
    "officename": "Mirzapar B.O",
    "officeType": "B.O",
    "Deliverystatus": "Delivery",
    "divisionname": "Kutch",
    "regionname": "Rajkot",
    "circlename": "Gujarat",
    "Taluk": "Bhuj",
    "Districtname": "Kachchh",
    "statename": "GUJARAT"
  },
  {
    "pincode": "370001",
    "officename": "Nagor B.O",
    "officeType": "B.O",
    "Deliverystatus": "Delivery",
    "divisionname": "Kutch",
    "regionname": "Rajkot",
    "circlename": "Gujarat",
    "Taluk": "Bhuj",
    "Districtname": "Kachchh",
    "statename": "GUJARAT"
  },
  {
    "pincode": "370001",
    "officename": "Nirona B.O",
    "officeType": "B.O",
    "Deliverystatus": "Delivery",
    "divisionname": "Kutch",
    "regionname": "Rajkot",
    "circlename": "Gujarat",
    "Taluk": "Nakhatrana",
    "Districtname": "Kachchh",
    "statename": "GUJARAT"
  },
  {
    "pincode": "370001",
    "officename": "Sumrasar (S) B.O",
    "officeType": "B.O",
    "Deliverystatus": "Delivery",
    "divisionname": "Kutch",
    "regionname": "Rajkot",
    "circlename": "Gujarat",
    "Taluk": "Bhuj",
    "Districtname": "Kachchh",
    "statename": "GUJARAT"
  },
  {
    "pincode": "370001",
    "officename": "Vang B.O",
    "officeType": "B.O",
    "Deliverystatus": "Delivery",
    "divisionname": "Kutch",
    "regionname": "Rajkot",
    "circlename": "Gujarat",
    "Taluk": "Nakhatrana",
    "Districtname": "Kachchh",
    "statename": "GUJARAT"
  },
  {
    "pincode": "370001",
    "officename": "Zinkdi B.O",
    "officeType": "B.O",
    "Deliverystatus": "Delivery",
    "divisionname": "Kutch",
    "regionname": "Rajkot",
    "circlename": "Gujarat",
    "Taluk": "Bhuj",
    "Districtname": "Kachchh",
    "statename": "GUJARAT"
  },
  {
    "pincode": "370001",
    "officename": "Zura B.O",
    "officeType": "B.O",
    "Deliverystatus": "Delivery",
    "divisionname": "Kutch",
    "regionname": "Rajkot",
    "circlename": "Gujarat",
    "Taluk": "Bhuj",
    "Districtname": "Kachchh",
    "statename": "GUJARAT"
  }
]
