[
  {
    "pincode": "370165",
    "officename": "Anandpar B.O",
    "officeType": "B.O",
    "Deliverystatus": "Delivery",
    "divisionname": "Kutch",
    "regionname": "Rajkot",
    "circlename": "Gujarat",
    "Taluk": "Rahpar",
    "Districtname": "Kachchh",
    "statename": "GUJARAT"
  },
  {
    "pincode": "370165",
    "officename": "Badargadh B.O",
    "officeType": "B.O",
    "Deliverystatus": "Delivery",
    "divisionname": "Kutch",
    "regionname": "Rajkot",
    "circlename": "Gujarat",
    "Taluk": "Rahpar",
    "Districtname": "Kachchh",
    "statename": "GUJARAT"
  },
  {
    "pincode": "370165",
    "officename": "Balasar B.O",
    "officeType": "B.O",
    "Deliverystatus": "Delivery",
    "divisionname": "Kutch",
    "regionname": "Rajkot",
    "circlename": "Gujarat",
    "Taluk": "Rahpar",
    "Districtname": "Kachchh",
    "statename": "GUJARAT"
  },
  {
    "pincode": "370165",
    "officename": "Bela B.O",
    "officeType": "B.O",
    "Deliverystatus": "Delivery",
    "divisionname": "Kutch",
    "regionname": "Rajkot",
    "circlename": "Gujarat",
    "Taluk": "Rahpar",
    "Districtname": "Kachchh",
    "statename": "GUJARAT"
  },
  {
    "pincode": "370165",
    "officename": "Dabhunda B.O",
    "officeType": "B.O",
    "Deliverystatus": "Delivery",
    "divisionname": "Kutch",
    "regionname": "Rajkot",
    "circlename": "Gujarat",
    "Taluk": "Rahpar",
    "Districtname": "Kachchh",
    "statename": "GUJARAT"
  },
  {
    "pincode": "370165",
    "officename": "Davri B.O",
    "officeType": "B.O",
    "Deliverystatus": "Delivery",
    "divisionname": "Kutch",
    "regionname": "Rajkot",
    "circlename": "Gujarat",
    "Taluk": "Rahpar",
    "Districtname": "Kachchh",
    "statename": "GUJARAT"
  },
  {
    "pincode": "370165",
    "officename": "Deshalpar (V) B.O",
    "officeType": "B.O",
    "Deliverystatus": "Delivery",
    "divisionname": "Kutch",
    "regionname": "Rajkot",
    "circlename": "Gujarat",
    "Taluk": "Rapar",
    "Districtname": "Kachchh",
    "statename": "GUJARAT"
  },
  {
    "pincode": "370165",
    "officename": "Dholavira B.O",
    "officeType": "B.O",
    "Deliverystatus": "Delivery",
    "divisionname": "Kutch",
    "regionname": "Rajkot",
    "circlename": "Gujarat",
    "Taluk": "Bhachau",
    "Districtname": "Kachchh",
    "statename": "GUJARAT"
  },
  {
    "pincode": "370165",
    "officename": "Gadhda (Khadir) B.O",
    "officeType": "B.O",
    "Deliverystatus": "Delivery",
    "divisionname": "Kutch",
    "regionname": "Rajkot",
    "circlename": "Gujarat",
    "Taluk": "Bhachau",
    "Districtname": "Kachchh",
    "statename": "GUJARAT"
  },
  {
    "pincode": "370165",
    "officename": "Ganeshpar B.O",
    "officeType": "B.O",
    "Deliverystatus": "Delivery",
    "divisionname": "Kutch",
    "regionname": "Rajkot",
    "circlename": "Gujarat",
    "Taluk": "Bhachau",
    "Districtname": "Kachchh",
    "statename": "GUJARAT"
  },
  {
    "pincode": "370165",
    "officename": "Gedi B.O",
    "officeType": "B.O",
    "Deliverystatus": "Delivery",
    "divisionname": "Kutch",
    "regionname": "Rajkot",
    "circlename": "Gujarat",
    "Taluk": "Rahpar",
    "Districtname": "Kachchh",
    "statename": "GUJARAT"
  },
  {
    "pincode": "370165",
    "officename": "Janan B.O",
    "officeType": "B.O",
    "Deliverystatus": "Delivery",
    "divisionname": "Kutch",
    "regionname": "Rajkot",
    "circlename": "Gujarat",
    "Taluk": "Bhachau",
    "Districtname": "Kachchh",
    "statename": "GUJARAT"
  },
  {
    "pincode": "370165",
    "officename": "Jatavada B.O",
    "officeType": "B.O",
    "Deliverystatus": "Delivery",
    "divisionname": "Kutch",
    "regionname": "Rajkot",
    "circlename": "Gujarat",
    "Taluk": "Rahpar",
    "Districtname": "Kachchh",
    "statename": "GUJARAT"
  },
  {
    "pincode": "370165",
    "officename": "Jesda B.O",
    "officeType": "B.O",
    "Deliverystatus": "Delivery",
    "divisionname": "Kutch",
    "regionname": "Rajkot",
    "circlename": "Gujarat",
    "Taluk": "Rahpar",
    "Districtname": "Kachchh",
    "statename": "GUJARAT"
  },
  {
    "pincode": "370165",
    "officename": "Kalyanpar B.O",
    "officeType": "B.O",
    "Deliverystatus": "Delivery",
    "divisionname": "Kutch",
    "regionname": "Rajkot",
    "circlename": "Gujarat",
    "Taluk": "Rahpar",
    "Districtname": "Kachchh",
    "statename": "GUJARAT"
  },
  {
    "pincode": "370165",
    "officename": "Kalyanpar Gadhda B.O",
    "officeType": "B.O",
    "Deliverystatus": "Delivery",
    "divisionname": "Kutch",
    "regionname": "Rajkot",
    "circlename": "Gujarat",
    "Taluk": "Bhachau",
    "Districtname": "Kachchh",
    "statename": "GUJARAT"
  },
  {
    "pincode": "370165",
    "officename": "Khengarpar B.O",
    "officeType": "B.O",
    "Deliverystatus": "Delivery",
    "divisionname": "Kutch",
    "regionname": "Rajkot",
    "circlename": "Gujarat",
    "Taluk": "Rahpar",
    "Districtname": "Kachchh",
    "statename": "GUJARAT"
  },
  {
    "pincode": "370165",
    "officename": "Kherai B.O",
    "officeType": "B.O",
    "Deliverystatus": "Delivery",
    "divisionname": "Kutch",
    "regionname": "Rajkot",
    "circlename": "Gujarat",
    "Taluk": "Rahpar",
    "Districtname": "Kachchh",
    "statename": "GUJARAT"
  },
  {
    "pincode": "370165",
    "officename": "Lodrani B.O",
    "officeType": "B.O",
    "Deliverystatus": "Delivery",
    "divisionname": "Kutch",
    "regionname": "Rajkot",
    "circlename": "Gujarat",
    "Taluk": "Rahpar",
    "Districtname": "Kachchh",
    "statename": "GUJARAT"
  },
  {
    "pincode": "370165",
    "officename": "Mauvana B.O",
    "officeType": "B.O",
    "Deliverystatus": "Delivery",
    "divisionname": "Kutch",
    "regionname": "Rajkot",
    "circlename": "Gujarat",
    "Taluk": "Rahpar",
    "Districtname": "Kachchh",
    "statename": "GUJARAT"
  },
  {
    "pincode": "370165",
    "officename": "Nandasar B.O",
    "officeType": "B.O",
    "Deliverystatus": "Delivery",
    "divisionname": "Kutch",
    "regionname": "Rajkot",
    "circlename": "Gujarat",
    "Taluk": "Rahpar",
    "Districtname": "Kachchh",
    "statename": "GUJARAT"
  },
  {
    "pincode": "370165",
    "officename": "Nilpar B.O",
    "officeType": "B.O",
    "Deliverystatus": "Delivery",
    "divisionname": "Kutch",
    "regionname": "Rajkot",
    "circlename": "Gujarat",
    "Taluk": "Rahpar",
    "Districtname": "Kachchh",
    "statename": "GUJARAT"
  },
  {
    "pincode": "370165",
    "officename": "Rahpar S.O",
    "officeType": "S.O",
    "Deliverystatus": "Delivery",
    "divisionname": "Kutch",
    "regionname": "Rajkot",
    "circlename": "Gujarat",
    "Taluk": "Rahpar",
    "Districtname": "Kachchh",
    "statename": "GUJARAT"
  },
  {
    "pincode": "370165",
    "officename": "Ramvav B.O",
    "officeType": "B.O",
    "Deliverystatus": "Delivery",
    "divisionname": "Kutch",
    "regionname": "Rajkot",
    "circlename": "Gujarat",
    "Taluk": "Rahpar",
    "Districtname": "Kachchh",
    "statename": "GUJARAT"
  },
  {
    "pincode": "370165",
    "officename": "Rav B.O",
    "officeType": "B.O",
    "Deliverystatus": "Delivery",
    "divisionname": "Kutch",
    "regionname": "Rajkot",
    "circlename": "Gujarat",
    "Taluk": "Rapar",
    "Districtname": "Kachchh",
    "statename": "GUJARAT"
  },
  {
    "pincode": "370165",
    "officename": "Sai B.O",
    "officeType": "B.O",
    "Deliverystatus": "Delivery",
    "divisionname": "Kutch",
    "regionname": "Rajkot",
    "circlename": "Gujarat",
    "Taluk": "Rahpar",
    "Districtname": "Kachchh",
    "statename": "GUJARAT"
  },
  {
    "pincode": "370165",
    "officename": "Selari B.O",
    "officeType": "B.O",
    "Deliverystatus": "Delivery",
    "divisionname": "Kutch",
    "regionname": "Rajkot",
    "circlename": "Gujarat",
    "Taluk": "Rahpar",
    "Districtname": "Kachchh",
    "statename": "GUJARAT"
  },
  {
    "pincode": "370165",
    "officename": "Suvai B.O",
    "officeType": "B.O",
    "Deliverystatus": "Delivery",
    "divisionname": "Kutch",
    "regionname": "Rajkot",
    "circlename": "Gujarat",
    "Taluk": "Rahpar",
    "Districtname": "Kachchh",
    "statename": "GUJARAT"
  },
  {
    "pincode": "370165",
    "officename": "Tindalva B.O",
    "officeType": "B.O",
    "Deliverystatus": "Delivery",
    "divisionname": "Kutch",
    "regionname": "Rajkot",
    "circlename": "Gujarat",
    "Taluk": "Rahpar",
    "Districtname": "Kachchh",
    "statename": "GUJARAT"
  },
  {
    "pincode": "370165",
    "officename": "Trambau B.O",
    "officeType": "B.O",
    "Deliverystatus": "Delivery",
    "divisionname": "Kutch",
    "regionname": "Rajkot",
    "circlename": "Gujarat",
    "Taluk": "Rahpar",
    "Districtname": "Kachchh",
    "statename": "GUJARAT"
  },
  {
    "pincode": "370165",
    "officename": "Umrapar B.O",
    "officeType": "B.O",
    "Deliverystatus": "Delivery",
    "divisionname": "Kutch",
    "regionname": "Rajkot",
    "circlename": "Gujarat",
    "Taluk": "Rapar",
    "Districtname": "Kachchh",
    "statename": "GUJARAT"
  },
  {
    "pincode": "370165",
    "officename": "Vanoi B.O",
    "officeType": "B.O",
    "Deliverystatus": "Delivery",
    "divisionname": "Kutch",
    "regionname": "Rajkot",
    "circlename": "Gujarat",
    "Taluk": "Rahpar",
    "Districtname": "Kachchh",
    "statename": "GUJARAT"
  },
  {
    "pincode": "370165",
    "officename": "Vijayapar B.O",
    "officeType": "B.O",
    "Deliverystatus": "Delivery",
    "divisionname": "Kutch",
    "regionname": "Rajkot",
    "circlename": "Gujarat",
    "Taluk": "Rahpar",
    "Districtname": "Kachchh",
    "statename": "GUJARAT"
  }
]
