[
  {
    "pincode": "370145",
    "officename": "Badalpar B.O",
    "officeType": "B.O",
    "Deliverystatus": "Delivery",
    "divisionname": "Kutch",
    "regionname": "Rajkot",
    "circlename": "Gujarat",
    "Taluk": "Rahpar",
    "Districtname": "Kachchh",
    "statename": "GUJARAT"
  },
  {
    "pincode": "370145",
    "officename": "Chitrod B.O",
    "officeType": "B.O",
    "Deliverystatus": "Delivery",
    "divisionname": "Kutch",
    "regionname": "Rajkot",
    "circlename": "Gujarat",
    "Taluk": "Rahpar",
    "Districtname": "Kachchh",
    "statename": "GUJARAT"
  },
  {
    "pincode": "370145",
    "officename": "Gagodar B.O",
    "officeType": "B.O",
    "Deliverystatus": "Delivery",
    "divisionname": "Kutch",
    "regionname": "Rajkot",
    "circlename": "Gujarat",
    "Taluk": "Rahpar",
    "Districtname": "Kachchh",
    "statename": "GUJARAT"
  },
  {
    "pincode": "370145",
    "officename": "Khodasar B.O",
    "officeType": "B.O",
    "Deliverystatus": "Delivery",
    "divisionname": "Kutch",
    "regionname": "Rajkot",
    "circlename": "Gujarat",
    "Taluk": "Bhachau",
    "Districtname": "Kachchh",
    "statename": "GUJARAT"
  },
  {
    "pincode": "370145",
    "officename": "Kidiyanagar B.O",
    "officeType": "B.O",
    "Deliverystatus": "Delivery",
    "divisionname": "Kutch",
    "regionname": "Rajkot",
    "circlename": "Gujarat",
    "Taluk": "Rahpar",
    "Districtname": "Kachchh",
    "statename": "GUJARAT"
  },
  {
    "pincode": "370145",
    "officename": "Kumbharia B.O",
    "officeType": "B.O",
    "Deliverystatus": "Delivery",
    "divisionname": "Kutch",
    "regionname": "Rajkot",
    "circlename": "Gujarat",
    "Taluk": "Rahpar",
    "Districtname": "Kachchh",
    "statename": "GUJARAT"
  },
  {
    "pincode": "370145",
    "officename": "Lakadia S.O",
    "officeType": "S.O",
    "Deliverystatus": "Delivery",
    "divisionname": "Kutch",
    "regionname": "Rajkot",
    "circlename": "Gujarat",
    "Taluk": "Bhachau",
    "Districtname": "Kachchh",
    "statename": "GUJARAT"
  },
  {
    "pincode": "370145",
    "officename": "Manaba B.O",
    "officeType": "B.O",
    "Deliverystatus": "Delivery",
    "divisionname": "Kutch",
    "regionname": "Rajkot",
    "circlename": "Gujarat",
    "Taluk": "Rahpar",
    "Districtname": "Kachchh",
    "statename": "GUJARAT"
  },
  {
    "pincode": "370145",
    "officename": "Sany B.O",
    "officeType": "B.O",
    "Deliverystatus": "Delivery",
    "divisionname": "Kutch",
    "regionname": "Rajkot",
    "circlename": "Gujarat",
    "Taluk": "Rahpar",
    "Districtname": "Kachchh",
    "statename": "GUJARAT"
  },
  {
    "pincode": "370145",
    "officename": "Shivlakha B.O",
    "officeType": "B.O",
    "Deliverystatus": "Delivery",
    "divisionname": "Kutch",
    "regionname": "Rajkot",
    "circlename": "Gujarat",
    "Taluk": "Bhachau",
    "Districtname": "Kachchh",
    "statename": "GUJARAT"
  },
  {
    "pincode": "370145",
    "officename": "Thoriyari B.O",
    "officeType": "B.O",
    "Deliverystatus": "Delivery",
    "divisionname": "Kutch",
    "regionname": "Rajkot",
    "circlename": "Gujarat",
    "Taluk": "Rahpar",
    "Districtname": "Kachchh",
    "statename": "GUJARAT"
  },
  {
    "pincode": "370145",
    "officename": "Vallabhapar (K) B.O",
    "officeType": "B.O",
    "Deliverystatus": "Delivery",
    "divisionname": "Kutch",
    "regionname": "Rajkot",
    "circlename": "Gujarat",
    "Taluk": "Bhachau",
    "Districtname": "Kachchh",
    "statename": "GUJARAT"
  }
]
