[
  {
    "pincode": "370490",
    "officename": "Dumara S.O",
    "officeType": "S.O",
    "Deliverystatus": "Delivery",
    "divisionname": "Kutch",
    "regionname": "Rajkot",
    "circlename": "Gujarat",
    "Taluk": "Abdasa",
    "Districtname": "Kachchh",
    "statename": "GUJARAT"
  },
  {
    "pincode": "370490",
    "officename": "Khirsara (Vinjhan) B.O",
    "officeType": "B.O",
    "Deliverystatus": "Delivery",
    "divisionname": "Kutch",
    "regionname": "Rajkot",
    "circlename": "Gujarat",
    "Taluk": "Abdasa",
    "Districtname": "Kachchh",
    "statename": "GUJARAT"
  },
  {
    "pincode": "370490",
    "officename": "Lathedi B.O",
    "officeType": "B.O",
    "Deliverystatus": "Delivery",
    "divisionname": "Kutch",
    "regionname": "Rajkot",
    "circlename": "Gujarat",
    "Taluk": "Abdasa",
    "Districtname": "Kachchh",
    "statename": "GUJARAT"
  },
  {
    "pincode": "370490",
    "officename": "Manjal ( R ) B.O",
    "officeType": "B.O",
    "Deliverystatus": "Delivery",
    "divisionname": "Kutch",
    "regionname": "Rajkot",
    "circlename": "Gujarat",
    "Taluk": "Abdasa",
    "Districtname": "Kachchh",
    "statename": "GUJARAT"
  },
  {
    "pincode": "370490",
    "officename": "Raydhanjar B.O",
    "officeType": "B.O",
    "Deliverystatus": "Delivery",
    "divisionname": "Kutch",
    "regionname": "Rajkot",
    "circlename": "Gujarat",
    "Taluk": "Abdasa",
    "Districtname": "Kachchh",
    "statename": "GUJARAT"
  },
  {
    "pincode": "370490",
    "officename": "Sandhan B.O",
    "officeType": "B.O",
    "Deliverystatus": "Delivery",
    "divisionname": "Kutch",
    "regionname": "Rajkot",
    "circlename": "Gujarat",
    "Taluk": "Abdasa",
    "Districtname": "Kachchh",
    "statename": "GUJARAT"
  },
  {
    "pincode": "370490",
    "officename": "Suthri B.O",
    "officeType": "B.O",
    "Deliverystatus": "Delivery",
    "divisionname": "Kutch",
    "regionname": "Rajkot",
    "circlename": "Gujarat",
    "Taluk": "Abdasa",
    "Districtname": "Kachchh",
    "statename": "GUJARAT"
  },
  {
    "pincode": "370490",
    "officename": "Varadia B.O",
    "officeType": "B.O",
    "Deliverystatus": "Delivery",
    "divisionname": "Kutch",
    "regionname": "Rajkot",
    "circlename": "Gujarat",
    "Taluk": "Abdasa",
    "Districtname": "Kachchh",
    "statename": "GUJARAT"
  },
  {
    "pincode": "370490",
    "officename": "Varandi Moti B.O",
    "officeType": "B.O",
    "Deliverystatus": "Delivery",
    "divisionname": "Kutch",
    "regionname": "Rajkot",
    "circlename": "Gujarat",
    "Taluk": "Abdasa",
    "Districtname": "Kachchh",
    "statename": "GUJARAT"
  },
  {
    "pincode": "370490",
    "officename": "Vinjhan B.O",
    "officeType": "B.O",
    "Deliverystatus": "Delivery",
    "divisionname": "Kutch",
    "regionname": "Rajkot",
    "circlename": "Gujarat",
    "Taluk": "Abdasa",
    "Districtname": "Kachchh",
    "statename": "GUJARAT"
  }
]
