[
  {
    "pincode": "370485",
    "officename": "Asambia Mota B.O",
    "officeType": "B.O",
    "Deliverystatus": "Delivery",
    "divisionname": "Kutch",
    "regionname": "Rajkot",
    "circlename": "Gujarat",
    "Taluk": "Mandvi",
    "Districtname": "Kachchh",
    "statename": "GUJARAT"
  },
  {
    "pincode": "370485",
    "officename": "Dahisara S.O (Kachchh)",
    "officeType": "S.O",
    "Deliverystatus": "Delivery",
    "divisionname": "Kutch",
    "regionname": "Rajkot",
    "circlename": "Gujarat",
    "Taluk": "Bhuj",
    "Districtname": "Kachchh",
    "statename": "GUJARAT"
  },
  {
    "pincode": "370485",
    "officename": "Dhunai B.O",
    "officeType": "B.O",
    "Deliverystatus": "Delivery",
    "divisionname": "Kutch",
    "regionname": "Rajkot",
    "circlename": "Gujarat",
    "Taluk": "Mandvi",
    "Districtname": "Kachchh",
    "statename": "GUJARAT"
  },
  {
    "pincode": "370485",
    "officename": "Godpar B.O",
    "officeType": "B.O",
    "Deliverystatus": "Delivery",
    "divisionname": "Kutch",
    "regionname": "Rajkot",
    "circlename": "Gujarat",
    "Taluk": "Bhuj",
    "Districtname": "Kachchh",
    "statename": "GUJARAT"
  },
  {
    "pincode": "370485",
    "officename": "Goniasar B.O",
    "officeType": "B.O",
    "Deliverystatus": "Delivery",
    "divisionname": "Kutch",
    "regionname": "Rajkot",
    "circlename": "Gujarat",
    "Taluk": "Mandvi",
    "Districtname": "Kachchh",
    "statename": "GUJARAT"
  },
  {
    "pincode": "370485",
    "officename": "Kojachora B.O",
    "officeType": "B.O",
    "Deliverystatus": "Delivery",
    "divisionname": "Kutch",
    "regionname": "Rajkot",
    "circlename": "Gujarat",
    "Taluk": "Mandvi",
    "Districtname": "Kachchh",
    "statename": "GUJARAT"
  },
  {
    "pincode": "370485",
    "officename": "Nana Asambia B.O",
    "officeType": "B.O",
    "Deliverystatus": "Delivery",
    "divisionname": "Kutch",
    "regionname": "Rajkot",
    "circlename": "Gujarat",
    "Taluk": "Mandvi",
    "Districtname": "Kachchh",
    "statename": "GUJARAT"
  },
  {
    "pincode": "370485",
    "officename": "Pundi B.O",
    "officeType": "B.O",
    "Deliverystatus": "Delivery",
    "divisionname": "Kutch",
    "regionname": "Rajkot",
    "circlename": "Gujarat",
    "Taluk": "Mandvi",
    "Districtname": "Kachchh",
    "statename": "GUJARAT"
  },
  {
    "pincode": "370485",
    "officename": "Sarli B.O",
    "officeType": "B.O",
    "Deliverystatus": "Delivery",
    "divisionname": "Kutch",
    "regionname": "Rajkot",
    "circlename": "Gujarat",
    "Taluk": "Bhuj",
    "Districtname": "Kachchh",
    "statename": "GUJARAT"
  },
  {
    "pincode": "370485",
    "officename": "Vandh B.O",
    "officeType": "B.O",
    "Deliverystatus": "Delivery",
    "divisionname": "Kutch",
    "regionname": "Rajkot",
    "circlename": "Gujarat",
    "Taluk": "Mandvi",
    "Districtname": "Kachchh",
    "statename": "GUJARAT"
  }
]
