[
  {
    "pincode": "380001",
    "officename": "Ahmedabad G.P.O.",
    "officeType": "H.O",
    "Deliverystatus": "Delivery",
    "divisionname": "Ahmedabad GPO",
    "regionname": "Ahmedabad HQ",
    "circlename": "Gujarat",
    "Taluk": "Ahmadabad City",
    "Districtname": "Ahmedabad",
    "statename": "GUJARAT"
  },
  {
    "pincode": "380001",
    "officename": "Dariapur S.O (Ahmedabad)",
    "officeType": "S.O",
    "Deliverystatus": "Non-Delivery",
    "divisionname": "Ahmedabad City",
    "regionname": "Ahmedabad HQ",
    "circlename": "Gujarat",
    "Taluk": "Ahmadabad City",
    "Districtname": "Ahmedabad",
    "statename": "GUJARAT"
  },
  {
    "pincode": "380001",
    "officename": "District Court S.O (Ahmedabad)",
    "officeType": "S.O",
    "Deliverystatus": "Non-Delivery",
    "divisionname": "Ahmedabad City",
    "regionname": "Ahmedabad HQ",
    "circlename": "Gujarat",
    "Taluk": "Ahmadabad City",
    "Districtname": "Ahmedabad",
    "statename": "GUJARAT"
  },
  {
    "pincode": "380001",
    "officename": "Gandhi Road S.O (Ahmedabad)",
    "officeType": "S.O",
    "Deliverystatus": "Non-Delivery",
    "divisionname": "Ahmedabad City",
    "regionname": "Ahmedabad HQ",
    "circlename": "Gujarat",
    "Taluk": "Ahmadabad City",
    "Districtname": "Ahmedabad",
    "statename": "GUJARAT"
  },
  {
    "pincode": "380001",
    "officename": "Gheekanta Road S.O",
    "officeType": "S.O",
    "Deliverystatus": "Non-Delivery",
    "divisionname": "Ahmedabad City",
    "regionname": "Ahmedabad HQ",
    "circlename": "Gujarat",
    "Taluk": "Ahmadabad City",
    "Districtname": "Ahmedabad",
    "statename": "GUJARAT"
  },
  {
    "pincode": "380001",
    "officename": "Jamalpur S.O (Ahmedabad)",
    "officeType": "S.O",
    "Deliverystatus": "Non-Delivery",
    "divisionname": "Ahmedabad City",
    "regionname": "Ahmedabad HQ",
    "circlename": "Gujarat",
    "Taluk": "Ahmadabad City",
    "Districtname": "Ahmedabad",
    "statename": "GUJARAT"
  },
  {
    "pincode": "380001",
    "officename": "Kalupur Chakla S.O",
    "officeType": "S.O",
    "Deliverystatus": "Non-Delivery",
    "divisionname": "Ahmedabad City",
    "regionname": "Ahmedabad HQ",
    "circlename": "Gujarat",
    "Taluk": "Ahmadabad City",
    "Districtname": "Ahmedabad",
    "statename": "GUJARAT"
  },
  {
    "pincode": "380001",
    "officename": "Khadia S.O",
    "officeType": "S.O",
    "Deliverystatus": "Non-Delivery",
    "divisionname": "Ahmedabad City",
    "regionname": "Ahmedabad HQ",
    "circlename": "Gujarat",
    "Taluk": "Ahmadabad City",
    "Districtname": "Ahmedabad",
    "statename": "GUJARAT"
  },
  {
    "pincode": "380001",
    "officename": "Khanpur S.O (Ahmedabad)",
    "officeType": "S.O",
    "Deliverystatus": "Non-Delivery",
    "divisionname": "Ahmedabad City",
    "regionname": "Ahmedabad HQ",
    "circlename": "Gujarat",
    "Taluk": "Ahmadabad City",
    "Districtname": "Ahmedabad",
    "statename": "GUJARAT"
  },
  {
    "pincode": "380001",
    "officename": "Lal Darwaja S.O",
    "officeType": "S.O",
    "Deliverystatus": "Non-Delivery",
    "divisionname": "Ahmedabad City",
    "regionname": "Ahmedabad HQ",
    "circlename": "Gujarat",
    "Taluk": "Ahmadabad City",
    "Districtname": "Ahmedabad",
    "statename": "GUJARAT"
  },
  {
    "pincode": "380001",
    "officename": "Manek Chowk S.O",
    "officeType": "S.O",
    "Deliverystatus": "Non-Delivery",
    "divisionname": "Ahmedabad City",
    "regionname": "Ahmedabad HQ",
    "circlename": "Gujarat",
    "Taluk": "Ahmadabad City",
    "Districtname": "Ahmedabad",
    "statename": "GUJARAT"
  },
  {
    "pincode": "380001",
    "officename": "Municipal Corporation S.O",
    "officeType": "S.O",
    "Deliverystatus": "Non-Delivery",
    "divisionname": "Ahmedabad City",
    "regionname": "Ahmedabad HQ",
    "circlename": "Gujarat",
    "Taluk": "Ahmadabad City",
    "Districtname": "Ahmedabad",
    "statename": "GUJARAT"
  },
  {
    "pincode": "380001",
    "officename": "Raikhad S.O",
    "officeType": "S.O",
    "Deliverystatus": "Non-Delivery",
    "divisionname": "Ahmedabad City",
    "regionname": "Ahmedabad HQ",
    "circlename": "Gujarat",
    "Taluk": "Ahmadabad City",
    "Districtname": "Ahmedabad",
    "statename": "GUJARAT"
  },
  {
    "pincode": "380001",
    "officename": "Raipur S.O (Ahmedabad)",
    "officeType": "S.O",
    "Deliverystatus": "Non-Delivery",
    "divisionname": "Ahmedabad City",
    "regionname": "Ahmedabad HQ",
    "circlename": "Gujarat",
    "Taluk": "Ahmadabad City",
    "Districtname": "Ahmedabad",
    "statename": "GUJARAT"
  }
]
