[
  {
    "pincode": "382225",
    "officename": "Ambaliara B.O",
    "officeType": "B.O",
    "Deliverystatus": "Delivery",
    "divisionname": "Gandhinagar",
    "regionname": "Ahmedabad HQ",
    "circlename": "Gujarat",
    "Taluk": "Dholka",
    "Districtname": "Ahmedabad",
    "statename": "GUJARAT"
  },
  {
    "pincode": "382225",
    "officename": "Ambareli B.O",
    "officeType": "B.O",
    "Deliverystatus": "Delivery",
    "divisionname": "Gandhinagar",
    "regionname": "Ahmedabad HQ",
    "circlename": "Gujarat",
    "Taluk": "Dholka",
    "Districtname": "Ahmedabad",
    "statename": "GUJARAT"
  },
  {
    "pincode": "382225",
    "officename": "Dadusar B.O",
    "officeType": "B.O",
    "Deliverystatus": "Delivery",
    "divisionname": "Gandhinagar",
    "regionname": "Ahmedabad HQ",
    "circlename": "Gujarat",
    "Taluk": "Dholka",
    "Districtname": "Ahmedabad",
    "statename": "GUJARAT"
  },
  {
    "pincode": "382225",
    "officename": "Dholka H.O",
    "officeType": "H.O",
    "Deliverystatus": "Delivery",
    "divisionname": "Gandhinagar",
    "regionname": "Ahmedabad HQ",
    "circlename": "Gujarat",
    "Taluk": "Dholka",
    "Districtname": "Ahmedabad",
    "statename": "GUJARAT"
  },
  {
    "pincode": "382225",
    "officename": "Jalalpur Vajifa B.O",
    "officeType": "B.O",
    "Deliverystatus": "Delivery",
    "divisionname": "Gandhinagar",
    "regionname": "Ahmedabad HQ",
    "circlename": "Gujarat",
    "Taluk": "Dholka",
    "Districtname": "Ahmedabad",
    "statename": "GUJARAT"
  },
  {
    "pincode": "382225",
    "officename": "Kelia  Vasna B.O",
    "officeType": "B.O",
    "Deliverystatus": "Delivery",
    "divisionname": "Gandhinagar",
    "regionname": "Ahmedabad HQ",
    "circlename": "Gujarat",
    "Taluk": "Dholka",
    "Districtname": "Ahmedabad",
    "statename": "GUJARAT"
  },
  {
    "pincode": "382225",
    "officename": "Kharakuva Dholka S.O",
    "officeType": "S.O",
    "Deliverystatus": "Non-Delivery",
    "divisionname": "Gandhinagar",
    "regionname": "Ahmedabad HQ",
    "circlename": "Gujarat",
    "Taluk": "Dholka",
    "Districtname": "Ahmedabad",
    "statename": "GUJARAT"
  },
  {
    "pincode": "382225",
    "officename": "Nesda B.O",
    "officeType": "B.O",
    "Deliverystatus": "Delivery",
    "divisionname": "Gandhinagar",
    "regionname": "Ahmedabad HQ",
    "circlename": "Gujarat",
    "Taluk": "Dholka",
    "Districtname": "Ahmedabad",
    "statename": "GUJARAT"
  },
  {
    "pincode": "382225",
    "officename": "Rampur B.O",
    "officeType": "B.O",
    "Deliverystatus": "Delivery",
    "divisionname": "Gandhinagar",
    "regionname": "Ahmedabad HQ",
    "circlename": "Gujarat",
    "Taluk": "Dholka",
    "Districtname": "Ahmedabad",
    "statename": "GUJARAT"
  },
  {
    "pincode": "382225",
    "officename": "Ranoda B.O",
    "officeType": "B.O",
    "Deliverystatus": "Delivery",
    "divisionname": "Gandhinagar",
    "regionname": "Ahmedabad HQ",
    "circlename": "Gujarat",
    "Taluk": "Dholka",
    "Districtname": "Ahmedabad",
    "statename": "GUJARAT"
  },
  {
    "pincode": "382225",
    "officename": "Sahij B.O",
    "officeType": "B.O",
    "Deliverystatus": "Delivery",
    "divisionname": "Gandhinagar",
    "regionname": "Ahmedabad HQ",
    "circlename": "Gujarat",
    "Taluk": "Dholka",
    "Districtname": "Ahmedabad",
    "statename": "GUJARAT"
  },
  {
    "pincode": "382225",
    "officename": "Saiwada B.O",
    "officeType": "B.O",
    "Deliverystatus": "Delivery",
    "divisionname": "Gandhinagar",
    "regionname": "Ahmedabad HQ",
    "circlename": "Gujarat",
    "Taluk": "Dholka",
    "Districtname": "Ahmedabad",
    "statename": "GUJARAT"
  },
  {
    "pincode": "382225",
    "officename": "Sarandi B.O",
    "officeType": "B.O",
    "Deliverystatus": "Delivery",
    "divisionname": "Gandhinagar",
    "regionname": "Ahmedabad HQ",
    "circlename": "Gujarat",
    "Taluk": "Dholka",
    "Districtname": "Ahmedabad",
    "statename": "GUJARAT"
  },
  {
    "pincode": "382225",
    "officename": "Sathal B.O",
    "officeType": "B.O",
    "Deliverystatus": "Delivery",
    "divisionname": "Gandhinagar",
    "regionname": "Ahmedabad HQ",
    "circlename": "Gujarat",
    "Taluk": "Dholka",
    "Districtname": "Ahmedabad",
    "statename": "GUJARAT"
  },
  {
    "pincode": "382225",
    "officename": "Sherpura B.O",
    "officeType": "B.O",
    "Deliverystatus": "Delivery",
    "divisionname": "Gandhinagar",
    "regionname": "Ahmedabad HQ",
    "circlename": "Gujarat",
    "Taluk": "Dholka",
    "Districtname": "Ahmedabad",
    "statename": "GUJARAT"
  },
  {
    "pincode": "382225",
    "officename": "Sindharej B.O",
    "officeType": "B.O",
    "Deliverystatus": "Delivery",
    "divisionname": "Gandhinagar",
    "regionname": "Ahmedabad HQ",
    "circlename": "Gujarat",
    "Taluk": "Dholka",
    "Districtname": "Ahmedabad",
    "statename": "GUJARAT"
  },
  {
    "pincode": "382225",
    "officename": "Transad B.O",
    "officeType": "B.O",
    "Deliverystatus": "Delivery",
    "divisionname": "Gandhinagar",
    "regionname": "Ahmedabad HQ",
    "circlename": "Gujarat",
    "Taluk": "Dholka",
    "Districtname": "Ahmedabad",
    "statename": "GUJARAT"
  },
  {
    "pincode": "382225",
    "officename": "Valdhera B.O",
    "officeType": "B.O",
    "Deliverystatus": "Delivery",
    "divisionname": "Gandhinagar",
    "regionname": "Ahmedabad HQ",
    "circlename": "Gujarat",
    "Taluk": "Dholka",
    "Districtname": "Ahmedabad",
    "statename": "GUJARAT"
  },
  {
    "pincode": "382225",
    "officename": "Vautha B.O",
    "officeType": "B.O",
    "Deliverystatus": "Delivery",
    "divisionname": "Gandhinagar",
    "regionname": "Ahmedabad HQ",
    "circlename": "Gujarat",
    "Taluk": "Dholka",
    "Districtname": "Ahmedabad",
    "statename": "GUJARAT"
  }
]
