[
  {
    "pincode": "382308",
    "officename": "Bahiyal S.O",
    "officeType": "S.O",
    "Deliverystatus": "Delivery",
    "divisionname": "Gandhinagar",
    "regionname": "Ahmedabad HQ",
    "circlename": "Gujarat",
    "Taluk": "Dehgam",
    "Districtname": "Gandhi Nagar",
    "statename": "GUJARAT"
  },
  {
    "pincode": "382308",
    "officename": "Baria B.O",
    "officeType": "B.O",
    "Deliverystatus": "Delivery",
    "divisionname": "Gandhinagar",
    "regionname": "Ahmedabad HQ",
    "circlename": "Gujarat",
    "Taluk": "Dehgam",
    "Districtname": "Gandhi Nagar",
    "statename": "GUJARAT"
  },
  {
    "pincode": "382308",
    "officename": "Chiskari B.O",
    "officeType": "B.O",
    "Deliverystatus": "Delivery",
    "divisionname": "Gandhinagar",
    "regionname": "Ahmedabad HQ",
    "circlename": "Gujarat",
    "Taluk": "Dehgam",
    "Districtname": "Gandhi Nagar",
    "statename": "GUJARAT"
  },
  {
    "pincode": "382308",
    "officename": "Devkaran Na Muvada B.O",
    "officeType": "B.O",
    "Deliverystatus": "Delivery",
    "divisionname": "Gandhinagar",
    "regionname": "Ahmedabad HQ",
    "circlename": "Gujarat",
    "Taluk": "Dehgam",
    "Districtname": "Gandhi Nagar",
    "statename": "GUJARAT"
  },
  {
    "pincode": "382308",
    "officename": "Ghamij B.O",
    "officeType": "B.O",
    "Deliverystatus": "Delivery",
    "divisionname": "Gandhinagar",
    "regionname": "Ahmedabad HQ",
    "circlename": "Gujarat",
    "Taluk": "Dehgam",
    "Districtname": "Gandhi Nagar",
    "statename": "GUJARAT"
  },
  {
    "pincode": "382308",
    "officename": "Hathijan B.O",
    "officeType": "B.O",
    "Deliverystatus": "Delivery",
    "divisionname": "Gandhinagar",
    "regionname": "Ahmedabad HQ",
    "circlename": "Gujarat",
    "Taluk": "Dehgam",
    "Districtname": "Gandhi Nagar",
    "statename": "GUJARAT"
  },
  {
    "pincode": "382308",
    "officename": "Hilol B.O",
    "officeType": "B.O",
    "Deliverystatus": "Delivery",
    "divisionname": "Gandhinagar",
    "regionname": "Ahmedabad HQ",
    "circlename": "Gujarat",
    "Taluk": "Dehgam",
    "Districtname": "Gandhi Nagar",
    "statename": "GUJARAT"
  },
  {
    "pincode": "382308",
    "officename": "Isanpur-dodia B.O",
    "officeType": "B.O",
    "Deliverystatus": "Delivery",
    "divisionname": "Gandhinagar",
    "regionname": "Ahmedabad HQ",
    "circlename": "Gujarat",
    "Taluk": "Dehgam",
    "Districtname": "Gandhi Nagar",
    "statename": "GUJARAT"
  },
  {
    "pincode": "382308",
    "officename": "Kanipur B.O",
    "officeType": "B.O",
    "Deliverystatus": "Delivery",
    "divisionname": "Gandhinagar",
    "regionname": "Ahmedabad HQ",
    "circlename": "Gujarat",
    "Taluk": "Dehgam",
    "Districtname": "Gandhi Nagar",
    "statename": "GUJARAT"
  },
  {
    "pincode": "382308",
    "officename": "Motipura B.O",
    "officeType": "B.O",
    "Deliverystatus": "Delivery",
    "divisionname": "Gandhinagar",
    "regionname": "Ahmedabad HQ",
    "circlename": "Gujarat",
    "Taluk": "Dehgam",
    "Districtname": "Gandhi Nagar",
    "statename": "GUJARAT"
  },
  {
    "pincode": "382308",
    "officename": "Palundra B.O",
    "officeType": "B.O",
    "Deliverystatus": "Delivery",
    "divisionname": "Gandhinagar",
    "regionname": "Ahmedabad HQ",
    "circlename": "Gujarat",
    "Taluk": "Dehgam",
    "Districtname": "Gandhi Nagar",
    "statename": "GUJARAT"
  },
  {
    "pincode": "382308",
    "officename": "Siawada B.O",
    "officeType": "B.O",
    "Deliverystatus": "Delivery",
    "divisionname": "Gandhinagar",
    "regionname": "Ahmedabad HQ",
    "circlename": "Gujarat",
    "Taluk": "Dehgam",
    "Districtname": "Gandhi Nagar",
    "statename": "GUJARAT"
  },
  {
    "pincode": "382308",
    "officename": "Vasna  Sogthi B.O",
    "officeType": "B.O",
    "Deliverystatus": "Delivery",
    "divisionname": "Gandhinagar",
    "regionname": "Ahmedabad HQ",
    "circlename": "Gujarat",
    "Taluk": "Dehgam",
    "Districtname": "Gandhi Nagar",
    "statename": "GUJARAT"
  }
]
