[
  {
    "pincode": "382330",
    "officename": "Bilasia B.O",
    "officeType": "B.O",
    "Deliverystatus": "Delivery",
    "divisionname": "Ahmedabad City",
    "regionname": "Ahmedabad HQ",
    "circlename": "Gujarat",
    "Taluk": "Daskroi",
    "Districtname": "Ahmedabad",
    "statename": "GUJARAT"
  },
  {
    "pincode": "382330",
    "officename": "Limbadia B.O",
    "officeType": "B.O",
    "Deliverystatus": "Delivery",
    "divisionname": "Ahmedabad City",
    "regionname": "Ahmedabad HQ",
    "circlename": "Gujarat",
    "Taluk": "Ahmadabad City",
    "Districtname": "Ahmedabad",
    "statename": "GUJARAT"
  },
  {
    "pincode": "382330",
    "officename": "Medra B.O",
    "officeType": "B.O",
    "Deliverystatus": "Delivery",
    "divisionname": "Ahmedabad City",
    "regionname": "Ahmedabad HQ",
    "circlename": "Gujarat",
    "Taluk": "Ahmadabad City",
    "Districtname": "Ahmedabad",
    "statename": "GUJARAT"
  },
  {
    "pincode": "382330",
    "officename": "Nana Chiloda B.O",
    "officeType": "B.O",
    "Deliverystatus": "Delivery",
    "divisionname": "Ahmedabad City",
    "regionname": "Ahmedabad HQ",
    "circlename": "Gujarat",
    "Taluk": "Ahmadabad City",
    "Districtname": "Ahmedabad",
    "statename": "GUJARAT"
  },
  {
    "pincode": "382330",
    "officename": "Naroda I E S.O",
    "officeType": "S.O",
    "Deliverystatus": "Delivery",
    "divisionname": "Ahmedabad City",
    "regionname": "Ahmedabad HQ",
    "circlename": "Gujarat",
    "Taluk": "Ahmedabad",
    "Districtname": "Ahmedabad",
    "statename": "GUJARAT"
  },
  {
    "pincode": "382330",
    "officename": "Naroda S A S.O",
    "officeType": "S.O",
    "Deliverystatus": "Non-Delivery",
    "divisionname": "Ahmedabad City",
    "regionname": "Ahmedabad HQ",
    "circlename": "Gujarat",
    "Taluk": "Ahmadabad City",
    "Districtname": "Ahmedabad",
    "statename": "GUJARAT"
  },
  {
    "pincode": "382330",
    "officename": "Naroda S.O",
    "officeType": "S.O",
    "Deliverystatus": "Non-Delivery",
    "divisionname": "Ahmedabad City",
    "regionname": "Ahmedabad HQ",
    "circlename": "Gujarat",
    "Taluk": "Ahmadabad City",
    "Districtname": "Ahmedabad",
    "statename": "GUJARAT"
  },
  {
    "pincode": "382330",
    "officename": "Pardhol B.O",
    "officeType": "B.O",
    "Deliverystatus": "Delivery",
    "divisionname": "Ahmedabad City",
    "regionname": "Ahmedabad HQ",
    "circlename": "Gujarat",
    "Taluk": "Daskroi",
    "Districtname": "Ahmedabad",
    "statename": "GUJARAT"
  },
  {
    "pincode": "382330",
    "officename": "Vehlal B.O",
    "officeType": "B.O",
    "Deliverystatus": "Delivery",
    "divisionname": "Ahmedabad City",
    "regionname": "Ahmedabad HQ",
    "circlename": "Gujarat",
    "Taluk": "Ahmedabad",
    "Districtname": "Ahmedabad",
    "statename": "GUJARAT"
  }
]
