[
  {
    "pincode": "382425",
    "officename": "Bareja S.O (Ahmedabad)",
    "officeType": "S.O",
    "Deliverystatus": "Delivery",
    "divisionname": "Ahmedabad City",
    "regionname": "Ahmedabad HQ",
    "circlename": "Gujarat",
    "Taluk": "Dasroi",
    "Districtname": "Ahmedabad",
    "statename": "GUJARAT"
  },
  {
    "pincode": "382425",
    "officename": "Girmatha B.O",
    "officeType": "B.O",
    "Deliverystatus": "Delivery",
    "divisionname": "Ahmedabad City",
    "regionname": "Ahmedabad HQ",
    "circlename": "Gujarat",
    "Taluk": "Dascroi",
    "Districtname": "Ahmedabad",
    "statename": "GUJARAT"
  },
  {
    "pincode": "382425",
    "officename": "Mahijada B.O",
    "officeType": "B.O",
    "Deliverystatus": "Delivery",
    "divisionname": "Ahmedabad City",
    "regionname": "Ahmedabad HQ",
    "circlename": "Gujarat",
    "Taluk": "Dascroi",
    "Districtname": "Ahmedabad",
    "statename": "GUJARAT"
  },
  {
    "pincode": "382425",
    "officename": "Miroli B.O",
    "officeType": "B.O",
    "Deliverystatus": "Delivery",
    "divisionname": "Ahmedabad City",
    "regionname": "Ahmedabad HQ",
    "circlename": "Gujarat",
    "Taluk": "Dascroi",
    "Districtname": "Ahmedabad",
    "statename": "GUJARAT"
  },
  {
    "pincode": "382425",
    "officename": "Muktipur B.O",
    "officeType": "B.O",
    "Deliverystatus": "Delivery",
    "divisionname": "Ahmedabad City",
    "regionname": "Ahmedabad HQ",
    "circlename": "Gujarat",
    "Taluk": "Daskroi",
    "Districtname": "Ahmedabad",
    "statename": "GUJARAT"
  },
  {
    "pincode": "382425",
    "officename": "Paldi Kankaj B.O",
    "officeType": "B.O",
    "Deliverystatus": "Delivery",
    "divisionname": "Ahmedabad City",
    "regionname": "Ahmedabad HQ",
    "circlename": "Gujarat",
    "Taluk": "Dascroi",
    "Districtname": "Ahmedabad",
    "statename": "GUJARAT"
  },
  {
    "pincode": "382425",
    "officename": "Pirana B.O",
    "officeType": "B.O",
    "Deliverystatus": "Delivery",
    "divisionname": "Ahmedabad City",
    "regionname": "Ahmedabad HQ",
    "circlename": "Gujarat",
    "Taluk": "Daskroi",
    "Districtname": "Ahmedabad",
    "statename": "GUJARAT"
  },
  {
    "pincode": "382425",
    "officename": "Timba B.O",
    "officeType": "B.O",
    "Deliverystatus": "Delivery",
    "divisionname": "Ahmedabad City",
    "regionname": "Ahmedabad HQ",
    "circlename": "Gujarat",
    "Taluk": "Dascroi",
    "Districtname": "Ahmedabad",
    "statename": "GUJARAT"
  },
  {
    "pincode": "382425",
    "officename": "Vasai B.O",
    "officeType": "B.O",
    "Deliverystatus": "Delivery",
    "divisionname": "Ahmedabad City",
    "regionname": "Ahmedabad HQ",
    "circlename": "Gujarat",
    "Taluk": "Daskroi",
    "Districtname": "Ahmedabad",
    "statename": "GUJARAT"
  }
]
