[
  {
    "pincode": "382430",
    "officename": "Bakrol B.O",
    "officeType": "B.O",
    "Deliverystatus": "Delivery",
    "divisionname": "Ahmedabad City",
    "regionname": "Ahmedabad HQ",
    "circlename": "Gujarat",
    "Taluk": "Dascroi",
    "Districtname": "Ahmedabad",
    "statename": "GUJARAT"
  },
  {
    "pincode": "382430",
    "officename": "Bhuvaldi B.O",
    "officeType": "B.O",
    "Deliverystatus": "Delivery",
    "divisionname": "Ahmedabad City",
    "regionname": "Ahmedabad HQ",
    "circlename": "Gujarat",
    "Taluk": "Dascroi",
    "Districtname": "Ahmedabad",
    "statename": "GUJARAT"
  },
  {
    "pincode": "382430",
    "officename": "Kanbha B.O",
    "officeType": "B.O",
    "Deliverystatus": "Delivery",
    "divisionname": "Ahmedabad City",
    "regionname": "Ahmedabad HQ",
    "circlename": "Gujarat",
    "Taluk": "Daskroi",
    "Districtname": "Ahmedabad",
    "statename": "GUJARAT"
  },
  {
    "pincode": "382430",
    "officename": "Kathwada B.O",
    "officeType": "B.O",
    "Deliverystatus": "Delivery",
    "divisionname": "Ahmedabad City",
    "regionname": "Ahmedabad HQ",
    "circlename": "Gujarat",
    "Taluk": "Daskroi",
    "Districtname": "Ahmedabad",
    "statename": "GUJARAT"
  },
  {
    "pincode": "382430",
    "officename": "Kathwada Maize Product S.O",
    "officeType": "S.O",
    "Deliverystatus": "Delivery",
    "divisionname": "Ahmedabad City",
    "regionname": "Ahmedabad HQ",
    "circlename": "Gujarat",
    "Taluk": "Ahmadabad City",
    "Districtname": "Ahmedabad",
    "statename": "GUJARAT"
  },
  {
    "pincode": "382430",
    "officename": "Kubadthal B.O",
    "officeType": "B.O",
    "Deliverystatus": "Delivery",
    "divisionname": "Ahmedabad City",
    "regionname": "Ahmedabad HQ",
    "circlename": "Gujarat",
    "Taluk": "Daskroi",
    "Districtname": "Ahmedabad",
    "statename": "GUJARAT"
  },
  {
    "pincode": "382430",
    "officename": "Kujad B.O",
    "officeType": "B.O",
    "Deliverystatus": "Delivery",
    "divisionname": "Ahmedabad City",
    "regionname": "Ahmedabad HQ",
    "circlename": "Gujarat",
    "Taluk": "Daskroi",
    "Districtname": "Ahmedabad",
    "statename": "GUJARAT"
  },
  {
    "pincode": "382430",
    "officename": "Pasunj B.O",
    "officeType": "B.O",
    "Deliverystatus": "Delivery",
    "divisionname": "Ahmedabad City",
    "regionname": "Ahmedabad HQ",
    "circlename": "Gujarat",
    "Taluk": "Daskroi",
    "Districtname": "Ahmedabad",
    "statename": "GUJARAT"
  },
  {
    "pincode": "382430",
    "officename": "Zanu B.O",
    "officeType": "B.O",
    "Deliverystatus": "Delivery",
    "divisionname": "Ahmedabad City",
    "regionname": "Ahmedabad HQ",
    "circlename": "Gujarat",
    "Taluk": "Daskroi",
    "Districtname": "Ahmedabad",
    "statename": "GUJARAT"
  }
]
