[
  {
    "pincode": "382455",
    "officename": "Bavaliary B.O",
    "officeType": "B.O",
    "Deliverystatus": "Delivery",
    "divisionname": "Gandhinagar",
    "regionname": "Ahmedabad HQ",
    "circlename": "Gujarat",
    "Taluk": "Dhandhuka",
    "Districtname": "Ahmedabad",
    "statename": "GUJARAT"
  },
  {
    "pincode": "382455",
    "officename": "Bhangadh B.O",
    "officeType": "B.O",
    "Deliverystatus": "Delivery",
    "divisionname": "Gandhinagar",
    "regionname": "Ahmedabad HQ",
    "circlename": "Gujarat",
    "Taluk": "Dhandhuka",
    "Districtname": "Ahmedabad",
    "statename": "GUJARAT"
  },
  {
    "pincode": "382455",
    "officename": "Dholera S.O",
    "officeType": "S.O",
    "Deliverystatus": "Delivery",
    "divisionname": "Gandhinagar",
    "regionname": "Ahmedabad HQ",
    "circlename": "Gujarat",
    "Taluk": "Dhandhuka",
    "Districtname": "Ahmedabad",
    "statename": "GUJARAT"
  },
  {
    "pincode": "382455",
    "officename": "Hebatpur B.O",
    "officeType": "B.O",
    "Deliverystatus": "Delivery",
    "divisionname": "Gandhinagar",
    "regionname": "Ahmedabad HQ",
    "circlename": "Gujarat",
    "Taluk": "Barwala",
    "Districtname": "Ahmedabad",
    "statename": "GUJARAT"
  },
  {
    "pincode": "382455",
    "officename": "Khun B.O",
    "officeType": "B.O",
    "Deliverystatus": "Delivery",
    "divisionname": "Gandhinagar",
    "regionname": "Ahmedabad HQ",
    "circlename": "Gujarat",
    "Taluk": "Dhandhuka",
    "Districtname": "Ahmedabad",
    "statename": "GUJARAT"
  },
  {
    "pincode": "382455",
    "officename": "Mingalpur B.O",
    "officeType": "B.O",
    "Deliverystatus": "Delivery",
    "divisionname": "Gandhinagar",
    "regionname": "Ahmedabad HQ",
    "circlename": "Gujarat",
    "Taluk": "Dhandhuka",
    "Districtname": "Ahmedabad",
    "statename": "GUJARAT"
  },
  {
    "pincode": "382455",
    "officename": "Panchhi B.O",
    "officeType": "B.O",
    "Deliverystatus": "Delivery",
    "divisionname": "Gandhinagar",
    "regionname": "Ahmedabad HQ",
    "circlename": "Gujarat",
    "Taluk": "Dhandhuka",
    "Districtname": "Ahmedabad",
    "statename": "GUJARAT"
  },
  {
    "pincode": "382455",
    "officename": "Sandhida B.O",
    "officeType": "B.O",
    "Deliverystatus": "Delivery",
    "divisionname": "Gandhinagar",
    "regionname": "Ahmedabad HQ",
    "circlename": "Gujarat",
    "Taluk": "Dhandhuka",
    "Districtname": "Ahmedabad",
    "statename": "GUJARAT"
  }
]
