[
  {
    "pincode": "382463",
    "officename": "Ambli B.O",
    "officeType": "B.O",
    "Deliverystatus": "Delivery",
    "divisionname": "Gandhinagar",
    "regionname": "Ahmedabad HQ",
    "circlename": "Gujarat",
    "Taluk": "Dhandhuka",
    "Districtname": "Ahmedabad",
    "statename": "GUJARAT"
  },
  {
    "pincode": "382463",
    "officename": "Bhadiad S.O",
    "officeType": "S.O",
    "Deliverystatus": "Delivery",
    "divisionname": "Gandhinagar",
    "regionname": "Ahmedabad HQ",
    "circlename": "Gujarat",
    "Taluk": "Dhandhuka",
    "Districtname": "Ahmedabad",
    "statename": "GUJARAT"
  },
  {
    "pincode": "382463",
    "officename": "Gogla B.O",
    "officeType": "B.O",
    "Deliverystatus": "Delivery",
    "divisionname": "Gandhinagar",
    "regionname": "Ahmedabad HQ",
    "circlename": "Gujarat",
    "Taluk": "Dhandhuka",
    "Districtname": "Ahmedabad",
    "statename": "GUJARAT"
  },
  {
    "pincode": "382463",
    "officename": "Gorasu B.O",
    "officeType": "B.O",
    "Deliverystatus": "Delivery",
    "divisionname": "Gandhinagar",
    "regionname": "Ahmedabad HQ",
    "circlename": "Gujarat",
    "Taluk": "Dhandhuka",
    "Districtname": "Ahmedabad",
    "statename": "GUJARAT"
  },
  {
    "pincode": "382463",
    "officename": "Kadipur B.O",
    "officeType": "B.O",
    "Deliverystatus": "Delivery",
    "divisionname": "Gandhinagar",
    "regionname": "Ahmedabad HQ",
    "circlename": "Gujarat",
    "Taluk": "Dhandhuka",
    "Districtname": "Ahmedabad",
    "statename": "GUJARAT"
  },
  {
    "pincode": "382463",
    "officename": "Otaria B.O",
    "officeType": "B.O",
    "Deliverystatus": "Delivery",
    "divisionname": "Gandhinagar",
    "regionname": "Ahmedabad HQ",
    "circlename": "Gujarat",
    "Taluk": "Dhandhuka",
    "Districtname": "Ahmedabad",
    "statename": "GUJARAT"
  },
  {
    "pincode": "382463",
    "officename": "Otaria Sarvodaya Ashram B.O",
    "officeType": "B.O",
    "Deliverystatus": "Delivery",
    "divisionname": "Gandhinagar",
    "regionname": "Ahmedabad HQ",
    "circlename": "Gujarat",
    "Taluk": "Dhandhuka",
    "Districtname": "Ahmedabad",
    "statename": "GUJARAT"
  },
  {
    "pincode": "382463",
    "officename": "Sangasar B.O",
    "officeType": "B.O",
    "Deliverystatus": "Delivery",
    "divisionname": "Gandhinagar",
    "regionname": "Ahmedabad HQ",
    "circlename": "Gujarat",
    "Taluk": "Barwala",
    "Districtname": "Ahmedabad",
    "statename": "GUJARAT"
  },
  {
    "pincode": "382463",
    "officename": "Sodhi B.O",
    "officeType": "B.O",
    "Deliverystatus": "Delivery",
    "divisionname": "Gandhinagar",
    "regionname": "Ahmedabad HQ",
    "circlename": "Gujarat",
    "Taluk": "Barwala",
    "Districtname": "Ahmedabad",
    "statename": "GUJARAT"
  },
  {
    "pincode": "382463",
    "officename": "Valinda B.O",
    "officeType": "B.O",
    "Deliverystatus": "Delivery",
    "divisionname": "Gandhinagar",
    "regionname": "Ahmedabad HQ",
    "circlename": "Gujarat",
    "Taluk": "Dhandhuka",
    "Districtname": "Ahmedabad",
    "statename": "GUJARAT"
  }
]
