[
  {
    "pincode": "382433",
    "officename": "Bhavda B.O",
    "officeType": "B.O",
    "Deliverystatus": "Delivery",
    "divisionname": "Ahmedabad City",
    "regionname": "Ahmedabad HQ",
    "circlename": "Gujarat",
    "Taluk": "Dascroi",
    "Districtname": "Ahmedabad",
    "statename": "GUJARAT"
  },
  {
    "pincode": "382433",
    "officename": "Chamla B.O",
    "officeType": "B.O",
    "Deliverystatus": "Delivery",
    "divisionname": "Ahmedabad City",
    "regionname": "Ahmedabad HQ",
    "circlename": "Gujarat",
    "Taluk": "Dehgam",
    "Districtname": "Gandhi Nagar",
    "statename": "GUJARAT"
  },
  {
    "pincode": "382433",
    "officename": "Chandial B.O",
    "officeType": "B.O",
    "Deliverystatus": "Delivery",
    "divisionname": "Ahmedabad City",
    "regionname": "Ahmedabad HQ",
    "circlename": "Gujarat",
    "Taluk": "Dascroi",
    "Districtname": "Ahmedabad",
    "statename": "GUJARAT"
  },
  {
    "pincode": "382433",
    "officename": "Chaulaj B.O",
    "officeType": "B.O",
    "Deliverystatus": "Delivery",
    "divisionname": "Ahmedabad City",
    "regionname": "Ahmedabad HQ",
    "circlename": "Gujarat",
    "Taluk": "Daskroi",
    "Districtname": "Ahmedabad",
    "statename": "GUJARAT"
  },
  {
    "pincode": "382433",
    "officename": "Kaniyel B.O",
    "officeType": "B.O",
    "Deliverystatus": "Delivery",
    "divisionname": "Ahmedabad City",
    "regionname": "Ahmedabad HQ",
    "circlename": "Gujarat",
    "Taluk": "Daskroi",
    "Districtname": "Ahmedabad",
    "statename": "GUJARAT"
  },
  {
    "pincode": "382433",
    "officename": "Kuha S.O",
    "officeType": "S.O",
    "Deliverystatus": "Delivery",
    "divisionname": "Ahmedabad City",
    "regionname": "Ahmedabad HQ",
    "circlename": "Gujarat",
    "Taluk": "Dascroi",
    "Districtname": "Ahmedabad",
    "statename": "GUJARAT"
  },
  {
    "pincode": "382433",
    "officename": "Ranodra B.O",
    "officeType": "B.O",
    "Deliverystatus": "Delivery",
    "divisionname": "Ahmedabad City",
    "regionname": "Ahmedabad HQ",
    "circlename": "Gujarat",
    "Taluk": "Daskroi",
    "Districtname": "Ahmedabad",
    "statename": "GUJARAT"
  },
  {
    "pincode": "382433",
    "officename": "Undrel B.O",
    "officeType": "B.O",
    "Deliverystatus": "Delivery",
    "divisionname": "Ahmedabad City",
    "regionname": "Ahmedabad HQ",
    "circlename": "Gujarat",
    "Taluk": "Daskroi",
    "Districtname": "Ahmedabad",
    "statename": "GUJARAT"
  },
  {
    "pincode": "382433",
    "officename": "Vadod B.O",
    "officeType": "B.O",
    "Deliverystatus": "Delivery",
    "divisionname": "Ahmedabad City",
    "regionname": "Ahmedabad HQ",
    "circlename": "Gujarat",
    "Taluk": "Daskroi",
    "Districtname": "Ahmedabad",
    "statename": "GUJARAT"
  }
]
