[
  {
    "pincode": "382721",
    "officename": "Aluva B.O",
    "officeType": "B.O",
    "Deliverystatus": "Delivery",
    "divisionname": "Gandhinagar",
    "regionname": "Ahmedabad HQ",
    "circlename": "Gujarat",
    "Taluk": "Kalol",
    "Districtname": "Gandhi Nagar",
    "statename": "GUJARAT"
  },
  {
    "pincode": "382721",
    "officename": "Ambika Society Kalol B.O",
    "officeType": "B.O",
    "Deliverystatus": "Delivery",
    "divisionname": "Gandhinagar",
    "regionname": "Ahmedabad HQ",
    "circlename": "Gujarat",
    "Taluk": "Kalol",
    "Districtname": "Gandhi Nagar",
    "statename": "GUJARAT"
  },
  {
    "pincode": "382721",
    "officename": "Amrapur Gram Bharti B.O",
    "officeType": "B.O",
    "Deliverystatus": "Delivery",
    "divisionname": "Gandhinagar",
    "regionname": "Ahmedabad HQ",
    "circlename": "Gujarat",
    "Taluk": "Mansa",
    "Districtname": "Gandhi Nagar",
    "statename": "GUJARAT"
  },
  {
    "pincode": "382721",
    "officename": "Balva B.O",
    "officeType": "B.O",
    "Deliverystatus": "Delivery",
    "divisionname": "Gandhinagar",
    "regionname": "Ahmedabad HQ",
    "circlename": "Gujarat",
    "Taluk": "Kalol",
    "Districtname": "Gandhi Nagar",
    "statename": "GUJARAT"
  },
  {
    "pincode": "382721",
    "officename": "Bhoyan  Moti B.O",
    "officeType": "B.O",
    "Deliverystatus": "Delivery",
    "divisionname": "Gandhinagar",
    "regionname": "Ahmedabad HQ",
    "circlename": "Gujarat",
    "Taluk": "Kalol",
    "Districtname": "Gandhi Nagar",
    "statename": "GUJARAT"
  },
  {
    "pincode": "382721",
    "officename": "Borisana B.O",
    "officeType": "B.O",
    "Deliverystatus": "Delivery",
    "divisionname": "Gandhinagar",
    "regionname": "Ahmedabad HQ",
    "circlename": "Gujarat",
    "Taluk": "Kalol",
    "Districtname": "Gandhi Nagar",
    "statename": "GUJARAT"
  },
  {
    "pincode": "382721",
    "officename": "Hajipur B.O",
    "officeType": "B.O",
    "Deliverystatus": "Delivery",
    "divisionname": "Gandhinagar",
    "regionname": "Ahmedabad HQ",
    "circlename": "Gujarat",
    "Taluk": "Kalol",
    "Districtname": "Gandhi Nagar",
    "statename": "GUJARAT"
  },
  {
    "pincode": "382721",
    "officename": "Isand B.O",
    "officeType": "B.O",
    "Deliverystatus": "Delivery",
    "divisionname": "Gandhinagar",
    "regionname": "Ahmedabad HQ",
    "circlename": "Gujarat",
    "Taluk": "Kalol",
    "Districtname": "Gandhi Nagar",
    "statename": "GUJARAT"
  },
  {
    "pincode": "382721",
    "officename": "Jaspur B.O",
    "officeType": "B.O",
    "Deliverystatus": "Delivery",
    "divisionname": "Gandhinagar",
    "regionname": "Ahmedabad HQ",
    "circlename": "Gujarat",
    "Taluk": "Kalol",
    "Districtname": "Gandhi Nagar",
    "statename": "GUJARAT"
  },
  {
    "pincode": "382721",
    "officename": "Jethlaj B.O",
    "officeType": "B.O",
    "Deliverystatus": "Delivery",
    "divisionname": "Gandhinagar",
    "regionname": "Ahmedabad HQ",
    "circlename": "Gujarat",
    "Taluk": "Kalol",
    "Districtname": "Gandhi Nagar",
    "statename": "GUJARAT"
  },
  {
    "pincode": "382721",
    "officename": "Kalol Desaivada S.O",
    "officeType": "S.O",
    "Deliverystatus": "Non-Delivery",
    "divisionname": "Gandhinagar",
    "regionname": "Ahmedabad HQ",
    "circlename": "Gujarat",
    "Taluk": "Kalol",
    "Districtname": "Gandhi Nagar",
    "statename": "GUJARAT"
  },
  {
    "pincode": "382721",
    "officename": "Kalol Gandhi Road S.O",
    "officeType": "S.O",
    "Deliverystatus": "Non-Delivery",
    "divisionname": "Gandhinagar",
    "regionname": "Ahmedabad HQ",
    "circlename": "Gujarat",
    "Taluk": "Kalol",
    "Districtname": "Gandhi Nagar",
    "statename": "GUJARAT"
  },
  {
    "pincode": "382721",
    "officename": "Kalol H.O",
    "officeType": "H.O",
    "Deliverystatus": "Delivery",
    "divisionname": "Gandhinagar",
    "regionname": "Ahmedabad HQ",
    "circlename": "Gujarat",
    "Taluk": "Kalol",
    "Districtname": "Gandhi Nagar",
    "statename": "GUJARAT"
  },
  {
    "pincode": "382721",
    "officename": "Kalol Society Area S.O",
    "officeType": "S.O",
    "Deliverystatus": "Non-Delivery",
    "divisionname": "Gandhinagar",
    "regionname": "Ahmedabad HQ",
    "circlename": "Gujarat",
    "Taluk": "Kalol",
    "Districtname": "Gandhi Nagar",
    "statename": "GUJARAT"
  },
  {
    "pincode": "382721",
    "officename": "Khatraj I E B.O",
    "officeType": "B.O",
    "Deliverystatus": "Delivery",
    "divisionname": "Gandhinagar",
    "regionname": "Ahmedabad HQ",
    "circlename": "Gujarat",
    "Taluk": "Kalol",
    "Districtname": "Gandhi Nagar",
    "statename": "GUJARAT"
  },
  {
    "pincode": "382721",
    "officename": "Limbodra B.O",
    "officeType": "B.O",
    "Deliverystatus": "Delivery",
    "divisionname": "Gandhinagar",
    "regionname": "Ahmedabad HQ",
    "circlename": "Gujarat",
    "Taluk": "Kalol",
    "Districtname": "Gandhi Nagar",
    "statename": "GUJARAT"
  },
  {
    "pincode": "382721",
    "officename": "Mubarakpura B.O",
    "officeType": "B.O",
    "Deliverystatus": "Delivery",
    "divisionname": "Gandhinagar",
    "regionname": "Ahmedabad HQ",
    "circlename": "Gujarat",
    "Taluk": "Kalol",
    "Districtname": "Gandhi Nagar",
    "statename": "GUJARAT"
  },
  {
    "pincode": "382721",
    "officename": "Palsana B.O",
    "officeType": "B.O",
    "Deliverystatus": "Delivery",
    "divisionname": "Gandhinagar",
    "regionname": "Ahmedabad HQ",
    "circlename": "Gujarat",
    "Taluk": "Kalol",
    "Districtname": "Gandhi Nagar",
    "statename": "GUJARAT"
  },
  {
    "pincode": "382721",
    "officename": "Piyaj B.O",
    "officeType": "B.O",
    "Deliverystatus": "Delivery",
    "divisionname": "Gandhinagar",
    "regionname": "Ahmedabad HQ",
    "circlename": "Gujarat",
    "Taluk": "Kalol",
    "Districtname": "Gandhi Nagar",
    "statename": "GUJARAT"
  },
  {
    "pincode": "382721",
    "officename": "Ramnagar B.O",
    "officeType": "B.O",
    "Deliverystatus": "Delivery",
    "divisionname": "Gandhinagar",
    "regionname": "Ahmedabad HQ",
    "circlename": "Gujarat",
    "Taluk": "Kalol",
    "Districtname": "Gandhi Nagar",
    "statename": "GUJARAT"
  },
  {
    "pincode": "382721",
    "officename": "Saij B.O",
    "officeType": "B.O",
    "Deliverystatus": "Delivery",
    "divisionname": "Gandhinagar",
    "regionname": "Ahmedabad HQ",
    "circlename": "Gujarat",
    "Taluk": "Kalol",
    "Districtname": "Gandhi Nagar",
    "statename": "GUJARAT"
  },
  {
    "pincode": "382721",
    "officename": "Santej B.O",
    "officeType": "B.O",
    "Deliverystatus": "Delivery",
    "divisionname": "Gandhinagar",
    "regionname": "Ahmedabad HQ",
    "circlename": "Gujarat",
    "Taluk": "Kalol",
    "Districtname": "Gandhi Nagar",
    "statename": "GUJARAT"
  },
  {
    "pincode": "382721",
    "officename": "Serisa B.O",
    "officeType": "B.O",
    "Deliverystatus": "Delivery",
    "divisionname": "Gandhinagar",
    "regionname": "Ahmedabad HQ",
    "circlename": "Gujarat",
    "Taluk": "Kalol",
    "Districtname": "Gandhi Nagar",
    "statename": "GUJARAT"
  },
  {
    "pincode": "382721",
    "officename": "Vadsar Air Force B.O",
    "officeType": "B.O",
    "Deliverystatus": "Delivery",
    "divisionname": "Gandhinagar",
    "regionname": "Ahmedabad HQ",
    "circlename": "Gujarat",
    "Taluk": "Kalol",
    "Districtname": "Gandhi Nagar",
    "statename": "GUJARAT"
  },
  {
    "pincode": "382721",
    "officename": "Vadsar B.O",
    "officeType": "B.O",
    "Deliverystatus": "Delivery",
    "divisionname": "Gandhinagar",
    "regionname": "Ahmedabad HQ",
    "circlename": "Gujarat",
    "Taluk": "Kalol",
    "Districtname": "Gandhi Nagar",
    "statename": "GUJARAT"
  }
]
