[
  {
    "pincode": "382775",
    "officename": "Adalsar B.O",
    "officeType": "B.O",
    "Deliverystatus": "Delivery",
    "divisionname": "Surendranagar",
    "regionname": "Rajkot",
    "circlename": "Gujarat",
    "Taluk": "Lakhtar",
    "Districtname": "Surendra Nagar",
    "statename": "GUJARAT"
  },
  {
    "pincode": "382775",
    "officename": "Bhadena B.O",
    "officeType": "B.O",
    "Deliverystatus": "Delivery",
    "divisionname": "Surendranagar",
    "regionname": "Rajkot",
    "circlename": "Gujarat",
    "Taluk": "Lakhtar",
    "Districtname": "Surendra Nagar",
    "statename": "GUJARAT"
  },
  {
    "pincode": "382775",
    "officename": "Bhadvana B.O",
    "officeType": "B.O",
    "Deliverystatus": "Delivery",
    "divisionname": "Surendranagar",
    "regionname": "Rajkot",
    "circlename": "Gujarat",
    "Taluk": "Lakhtar",
    "Districtname": "Surendra Nagar",
    "statename": "GUJARAT"
  },
  {
    "pincode": "382775",
    "officename": "Dervala B.O",
    "officeType": "B.O",
    "Deliverystatus": "Delivery",
    "divisionname": "Surendranagar",
    "regionname": "Rajkot",
    "circlename": "Gujarat",
    "Taluk": "Lakhtar",
    "Districtname": "Surendra Nagar",
    "statename": "GUJARAT"
  },
  {
    "pincode": "382775",
    "officename": "Devaliya B.O",
    "officeType": "B.O",
    "Deliverystatus": "Delivery",
    "divisionname": "Surendranagar",
    "regionname": "Rajkot",
    "circlename": "Gujarat",
    "Taluk": "Lakhtar",
    "Districtname": "Surendra Nagar",
    "statename": "GUJARAT"
  },
  {
    "pincode": "382775",
    "officename": "Kadu B.O",
    "officeType": "B.O",
    "Deliverystatus": "Delivery",
    "divisionname": "Surendranagar",
    "regionname": "Rajkot",
    "circlename": "Gujarat",
    "Taluk": "Lakhtar",
    "Districtname": "Surendra Nagar",
    "statename": "GUJARAT"
  },
  {
    "pincode": "382775",
    "officename": "Kalam B.O",
    "officeType": "B.O",
    "Deliverystatus": "Delivery",
    "divisionname": "Surendranagar",
    "regionname": "Rajkot",
    "circlename": "Gujarat",
    "Taluk": "Lakhtar",
    "Districtname": "Surendra Nagar",
    "statename": "GUJARAT"
  },
  {
    "pincode": "382775",
    "officename": "Lakhtar S.O",
    "officeType": "S.O",
    "Deliverystatus": "Delivery",
    "divisionname": "Surendranagar",
    "regionname": "Rajkot",
    "circlename": "Gujarat",
    "Taluk": "Lakhtar",
    "Districtname": "Surendra Nagar",
    "statename": "GUJARAT"
  },
  {
    "pincode": "382775",
    "officename": "Lilapur B.O",
    "officeType": "B.O",
    "Deliverystatus": "Delivery",
    "divisionname": "Surendranagar",
    "regionname": "Rajkot",
    "circlename": "Gujarat",
    "Taluk": "Lakhtar",
    "Districtname": "Surendra Nagar",
    "statename": "GUJARAT"
  },
  {
    "pincode": "382775",
    "officename": "Nanikathechi B.O",
    "officeType": "B.O",
    "Deliverystatus": "Delivery",
    "divisionname": "Surendranagar",
    "regionname": "Rajkot",
    "circlename": "Gujarat",
    "Taluk": "Lakhtar",
    "Districtname": "Surendra Nagar",
    "statename": "GUJARAT"
  },
  {
    "pincode": "382775",
    "officename": "Sadad B.O",
    "officeType": "B.O",
    "Deliverystatus": "Delivery",
    "divisionname": "Surendranagar",
    "regionname": "Rajkot",
    "circlename": "Gujarat",
    "Taluk": "Lakhtar",
    "Districtname": "Surendra Nagar",
    "statename": "GUJARAT"
  },
  {
    "pincode": "382775",
    "officename": "Sakar B.O",
    "officeType": "B.O",
    "Deliverystatus": "Delivery",
    "divisionname": "Surendranagar",
    "regionname": "Rajkot",
    "circlename": "Gujarat",
    "Taluk": "Lakhtar",
    "Districtname": "Surendra Nagar",
    "statename": "GUJARAT"
  },
  {
    "pincode": "382775",
    "officename": "Savlana B.O",
    "officeType": "B.O",
    "Deliverystatus": "Delivery",
    "divisionname": "Surendranagar",
    "regionname": "Rajkot",
    "circlename": "Gujarat",
    "Taluk": "Lakhtar",
    "Districtname": "Surendra Nagar",
    "statename": "GUJARAT"
  },
  {
    "pincode": "382775",
    "officename": "Tarmaniya B.O",
    "officeType": "B.O",
    "Deliverystatus": "Delivery",
    "divisionname": "Surendranagar",
    "regionname": "Rajkot",
    "circlename": "Gujarat",
    "Taluk": "Lakhtar",
    "Districtname": "Surendra Nagar",
    "statename": "GUJARAT"
  },
  {
    "pincode": "382775",
    "officename": "Zamar B.O",
    "officeType": "B.O",
    "Deliverystatus": "Delivery",
    "divisionname": "Surendranagar",
    "regionname": "Rajkot",
    "circlename": "Gujarat",
    "Taluk": "Lakhtar",
    "Districtname": "Surendra Nagar",
    "statename": "GUJARAT"
  }
]
