[
  {
    "pincode": "382705",
    "officename": "Bhatasan B.O",
    "officeType": "B.O",
    "Deliverystatus": "Delivery",
    "divisionname": "Mahesana",
    "regionname": "Ahmedabad HQ",
    "circlename": "Gujarat",
    "Taluk": "Kadi",
    "Districtname": "Mahesana",
    "statename": "GUJARAT"
  },
  {
    "pincode": "382705",
    "officename": "Dangarwa S.O",
    "officeType": "S.O",
    "Deliverystatus": "Delivery",
    "divisionname": "Mahesana",
    "regionname": "Ahmedabad HQ",
    "circlename": "Gujarat",
    "Taluk": "Mahesana",
    "Districtname": "Mahesana",
    "statename": "GUJARAT"
  },
  {
    "pincode": "382705",
    "officename": "Ganeshpura B.O",
    "officeType": "B.O",
    "Deliverystatus": "Delivery",
    "divisionname": "Mahesana",
    "regionname": "Ahmedabad HQ",
    "circlename": "Gujarat",
    "Taluk": "Kadi",
    "Districtname": "Mahesana",
    "statename": "GUJARAT"
  },
  {
    "pincode": "382705",
    "officename": "Ghumasan B.O",
    "officeType": "B.O",
    "Deliverystatus": "Delivery",
    "divisionname": "Mahesana",
    "regionname": "Ahmedabad HQ",
    "circlename": "Gujarat",
    "Taluk": "Kadi",
    "Districtname": "Mahesana",
    "statename": "GUJARAT"
  },
  {
    "pincode": "382705",
    "officename": "Jhulasan B.O",
    "officeType": "B.O",
    "Deliverystatus": "Delivery",
    "divisionname": "Mahesana",
    "regionname": "Ahmedabad HQ",
    "circlename": "Gujarat",
    "Taluk": "Kadi",
    "Districtname": "Mahesana",
    "statename": "GUJARAT"
  },
  {
    "pincode": "382705",
    "officename": "Juni Sedhavi B.O",
    "officeType": "B.O",
    "Deliverystatus": "Delivery",
    "divisionname": "Mahesana",
    "regionname": "Ahmedabad HQ",
    "circlename": "Gujarat",
    "Taluk": "Mahesana",
    "Districtname": "Mahesana",
    "statename": "GUJARAT"
  },
  {
    "pincode": "382705",
    "officename": "Kaiyal B.O",
    "officeType": "B.O",
    "Deliverystatus": "Delivery",
    "divisionname": "Mahesana",
    "regionname": "Ahmedabad HQ",
    "circlename": "Gujarat",
    "Taluk": "Kadi",
    "Districtname": "Mahesana",
    "statename": "GUJARAT"
  },
  {
    "pincode": "382705",
    "officename": "Karjisan B.O",
    "officeType": "B.O",
    "Deliverystatus": "Delivery",
    "divisionname": "Mahesana",
    "regionname": "Ahmedabad HQ",
    "circlename": "Gujarat",
    "Taluk": "Kadi",
    "Districtname": "Mahesana",
    "statename": "GUJARAT"
  },
  {
    "pincode": "382705",
    "officename": "Mathasul B.O",
    "officeType": "B.O",
    "Deliverystatus": "Delivery",
    "divisionname": "Mahesana",
    "regionname": "Ahmedabad HQ",
    "circlename": "Gujarat",
    "Taluk": "Kadi",
    "Districtname": "Mahesana",
    "statename": "GUJARAT"
  },
  {
    "pincode": "382705",
    "officename": "Nandasan B.O",
    "officeType": "B.O",
    "Deliverystatus": "Delivery",
    "divisionname": "Mahesana",
    "regionname": "Ahmedabad HQ",
    "circlename": "Gujarat",
    "Taluk": "Kadi",
    "Districtname": "Mahesana",
    "statename": "GUJARAT"
  },
  {
    "pincode": "382705",
    "officename": "Vadasma B.O",
    "officeType": "B.O",
    "Deliverystatus": "Delivery",
    "divisionname": "Mahesana",
    "regionname": "Ahmedabad HQ",
    "circlename": "Gujarat",
    "Taluk": "Mahesana",
    "Districtname": "Mahesana",
    "statename": "GUJARAT"
  },
  {
    "pincode": "382705",
    "officename": "Vadu B.O",
    "officeType": "B.O",
    "Deliverystatus": "Delivery",
    "divisionname": "Mahesana",
    "regionname": "Ahmedabad HQ",
    "circlename": "Gujarat",
    "Taluk": "Kadi",
    "Districtname": "Mahesana",
    "statename": "GUJARAT"
  }
]
