[
  {
    "pincode": "382745",
    "officename": "Akhiyana B.O",
    "officeType": "B.O",
    "Deliverystatus": "Delivery",
    "divisionname": "Surendranagar",
    "regionname": "Rajkot",
    "circlename": "Gujarat",
    "Taluk": "Dasda",
    "Districtname": "Surendra Nagar",
    "statename": "GUJARAT"
  },
  {
    "pincode": "382745",
    "officename": "Bajana S.O",
    "officeType": "S.O",
    "Deliverystatus": "Delivery",
    "divisionname": "Surendranagar",
    "regionname": "Rajkot",
    "circlename": "Gujarat",
    "Taluk": "Dasada",
    "Districtname": "Surendra Nagar",
    "statename": "GUJARAT"
  },
  {
    "pincode": "382745",
    "officename": "Degam B.O",
    "officeType": "B.O",
    "Deliverystatus": "Delivery",
    "divisionname": "Surendranagar",
    "regionname": "Rajkot",
    "circlename": "Gujarat",
    "Taluk": "Dasada",
    "Districtname": "Surendra Nagar",
    "statename": "GUJARAT"
  },
  {
    "pincode": "382745",
    "officename": "Gediya B.O",
    "officeType": "B.O",
    "Deliverystatus": "Delivery",
    "divisionname": "Surendranagar",
    "regionname": "Rajkot",
    "circlename": "Gujarat",
    "Taluk": "Dasada",
    "Districtname": "Surendra Nagar",
    "statename": "GUJARAT"
  },
  {
    "pincode": "382745",
    "officename": "Kacholiya B.O",
    "officeType": "B.O",
    "Deliverystatus": "Delivery",
    "divisionname": "Surendranagar",
    "regionname": "Rajkot",
    "circlename": "Gujarat",
    "Taluk": "Dasada",
    "Districtname": "Surendra Nagar",
    "statename": "GUJARAT"
  },
  {
    "pincode": "382745",
    "officename": "Kherva(Jat) B.O",
    "officeType": "B.O",
    "Deliverystatus": "Delivery",
    "divisionname": "Surendranagar",
    "regionname": "Rajkot",
    "circlename": "Gujarat",
    "Taluk": "Dasada",
    "Districtname": "Surendra Nagar",
    "statename": "GUJARAT"
  },
  {
    "pincode": "382745",
    "officename": "Malvan(Jat) B.O",
    "officeType": "B.O",
    "Deliverystatus": "Delivery",
    "divisionname": "Surendranagar",
    "regionname": "Rajkot",
    "circlename": "Gujarat",
    "Taluk": "Dasada",
    "Districtname": "Surendra Nagar",
    "statename": "GUJARAT"
  },
  {
    "pincode": "382745",
    "officename": "Nagadka(Jat) B.O",
    "officeType": "B.O",
    "Deliverystatus": "Delivery",
    "divisionname": "Surendranagar",
    "regionname": "Rajkot",
    "circlename": "Gujarat",
    "Taluk": "Dasada",
    "Districtname": "Surendra Nagar",
    "statename": "GUJARAT"
  },
  {
    "pincode": "382745",
    "officename": "Nana Goraiya B.O",
    "officeType": "B.O",
    "Deliverystatus": "Delivery",
    "divisionname": "Surendranagar",
    "regionname": "Rajkot",
    "circlename": "Gujarat",
    "Taluk": "Dasada",
    "Districtname": "Surendra Nagar",
    "statename": "GUJARAT"
  },
  {
    "pincode": "382745",
    "officename": "Nava Savlas B.O",
    "officeType": "B.O",
    "Deliverystatus": "Delivery",
    "divisionname": "Surendranagar",
    "regionname": "Rajkot",
    "circlename": "Gujarat",
    "Taluk": "Dasada",
    "Districtname": "Surendra Nagar",
    "statename": "GUJARAT"
  },
  {
    "pincode": "382745",
    "officename": "Pipali B.O",
    "officeType": "B.O",
    "Deliverystatus": "Delivery",
    "divisionname": "Surendranagar",
    "regionname": "Rajkot",
    "circlename": "Gujarat",
    "Taluk": "Dasada",
    "Districtname": "Surendra Nagar",
    "statename": "GUJARAT"
  },
  {
    "pincode": "382745",
    "officename": "Sedla B.O",
    "officeType": "B.O",
    "Deliverystatus": "Delivery",
    "divisionname": "Surendranagar",
    "regionname": "Rajkot",
    "circlename": "Gujarat",
    "Taluk": "Dasada",
    "Districtname": "Surendra Nagar",
    "statename": "GUJARAT"
  },
  {
    "pincode": "382745",
    "officename": "Sokhda B.O",
    "officeType": "B.O",
    "Deliverystatus": "Delivery",
    "divisionname": "Surendranagar",
    "regionname": "Rajkot",
    "circlename": "Gujarat",
    "Taluk": "Dasada",
    "Districtname": "Surendra Nagar",
    "statename": "GUJARAT"
  }
]
