[
  {
    "pincode": "382715",
    "officename": "Adundra B.O",
    "officeType": "B.O",
    "Deliverystatus": "Delivery",
    "divisionname": "Mahesana",
    "regionname": "Ahmedabad HQ",
    "circlename": "Gujarat",
    "Taluk": "Kadi",
    "Districtname": "Mahesana",
    "statename": "GUJARAT"
  },
  {
    "pincode": "382715",
    "officename": "Balasar B.O",
    "officeType": "B.O",
    "Deliverystatus": "Delivery",
    "divisionname": "Mahesana",
    "regionname": "Ahmedabad HQ",
    "circlename": "Gujarat",
    "Taluk": "Kadi",
    "Districtname": "Mahesana",
    "statename": "GUJARAT"
  },
  {
    "pincode": "382715",
    "officename": "Budasan B.O",
    "officeType": "B.O",
    "Deliverystatus": "Delivery",
    "divisionname": "Mahesana",
    "regionname": "Ahmedabad HQ",
    "circlename": "Gujarat",
    "Taluk": "Kadi",
    "Districtname": "Mahesana",
    "statename": "GUJARAT"
  },
  {
    "pincode": "382715",
    "officename": "Deusana B.O",
    "officeType": "B.O",
    "Deliverystatus": "Delivery",
    "divisionname": "Mahesana",
    "regionname": "Ahmedabad HQ",
    "circlename": "Gujarat",
    "Taluk": "Kadi",
    "Districtname": "Mahesana",
    "statename": "GUJARAT"
  },
  {
    "pincode": "382715",
    "officename": "Indrad B.O",
    "officeType": "B.O",
    "Deliverystatus": "Delivery",
    "divisionname": "Mahesana",
    "regionname": "Ahmedabad HQ",
    "circlename": "Gujarat",
    "Taluk": "Kadi",
    "Districtname": "Mahesana",
    "statename": "GUJARAT"
  },
  {
    "pincode": "382715",
    "officename": "Jasalpur B.O",
    "officeType": "B.O",
    "Deliverystatus": "Delivery",
    "divisionname": "Mahesana",
    "regionname": "Ahmedabad HQ",
    "circlename": "Gujarat",
    "Taluk": "Kadi",
    "Districtname": "Mahesana",
    "statename": "GUJARAT"
  },
  {
    "pincode": "382715",
    "officename": "Kadi Mkt Yard S.O",
    "officeType": "S.O",
    "Deliverystatus": "Non-Delivery",
    "divisionname": "Mahesana",
    "regionname": "Ahmedabad HQ",
    "circlename": "Gujarat",
    "Taluk": "Kadi",
    "Districtname": "Mahesana",
    "statename": "GUJARAT"
  },
  {
    "pincode": "382715",
    "officename": "Kadi S.O",
    "officeType": "S.O",
    "Deliverystatus": "Delivery",
    "divisionname": "Mahesana",
    "regionname": "Ahmedabad HQ",
    "circlename": "Gujarat",
    "Taluk": "Kadi",
    "Districtname": "Mahesana",
    "statename": "GUJARAT"
  },
  {
    "pincode": "382715",
    "officename": "Karannagar B.O",
    "officeType": "B.O",
    "Deliverystatus": "Delivery",
    "divisionname": "Mahesana",
    "regionname": "Ahmedabad HQ",
    "circlename": "Gujarat",
    "Taluk": "Kadi",
    "Districtname": "Mahesana",
    "statename": "GUJARAT"
  },
  {
    "pincode": "382715",
    "officename": "Kaswa B.O",
    "officeType": "B.O",
    "Deliverystatus": "Delivery",
    "divisionname": "Mahesana",
    "regionname": "Ahmedabad HQ",
    "circlename": "Gujarat",
    "Taluk": "Kadi",
    "Districtname": "Mahesana",
    "statename": "GUJARAT"
  },
  {
    "pincode": "382715",
    "officename": "Kundal B.O",
    "officeType": "B.O",
    "Deliverystatus": "Delivery",
    "divisionname": "Mahesana",
    "regionname": "Ahmedabad HQ",
    "circlename": "Gujarat",
    "Taluk": "Kadi",
    "Districtname": "Mahesana",
    "statename": "GUJARAT"
  },
  {
    "pincode": "382715",
    "officename": "Lunasan B.O",
    "officeType": "B.O",
    "Deliverystatus": "Delivery",
    "divisionname": "Mahesana",
    "regionname": "Ahmedabad HQ",
    "circlename": "Gujarat",
    "Taluk": "Kadi",
    "Districtname": "Mahesana",
    "statename": "GUJARAT"
  },
  {
    "pincode": "382715",
    "officename": "Nagrasan B.O",
    "officeType": "B.O",
    "Deliverystatus": "Delivery",
    "divisionname": "Mahesana",
    "regionname": "Ahmedabad HQ",
    "circlename": "Gujarat",
    "Taluk": "Kadi",
    "Districtname": "Mahesana",
    "statename": "GUJARAT"
  },
  {
    "pincode": "382715",
    "officename": "Nani Kadi B.O",
    "officeType": "B.O",
    "Deliverystatus": "Delivery",
    "divisionname": "Mahesana",
    "regionname": "Ahmedabad HQ",
    "circlename": "Gujarat",
    "Taluk": "Kadi",
    "Districtname": "Mahesana",
    "statename": "GUJARAT"
  },
  {
    "pincode": "382715",
    "officename": "Rajpur B.O",
    "officeType": "B.O",
    "Deliverystatus": "Delivery",
    "divisionname": "Mahesana",
    "regionname": "Ahmedabad HQ",
    "circlename": "Gujarat",
    "Taluk": "Kadi",
    "Districtname": "Mahesana",
    "statename": "GUJARAT"
  },
  {
    "pincode": "382715",
    "officename": "Sadra B.O",
    "officeType": "B.O",
    "Deliverystatus": "Delivery",
    "divisionname": "Mahesana",
    "regionname": "Ahmedabad HQ",
    "circlename": "Gujarat",
    "Taluk": "Kadi",
    "Districtname": "Mahesana",
    "statename": "GUJARAT"
  },
  {
    "pincode": "382715",
    "officename": "Sarsav B.O",
    "officeType": "B.O",
    "Deliverystatus": "Delivery",
    "divisionname": "Mahesana",
    "regionname": "Ahmedabad HQ",
    "circlename": "Gujarat",
    "Taluk": "Kadi",
    "Districtname": "Mahesana",
    "statename": "GUJARAT"
  },
  {
    "pincode": "382715",
    "officename": "Sujatpura B.O",
    "officeType": "B.O",
    "Deliverystatus": "Delivery",
    "divisionname": "Mahesana",
    "regionname": "Ahmedabad HQ",
    "circlename": "Gujarat",
    "Taluk": "Kadi",
    "Districtname": "Mahesana",
    "statename": "GUJARAT"
  },
  {
    "pincode": "382715",
    "officename": "Suraj B.O",
    "officeType": "B.O",
    "Deliverystatus": "Delivery",
    "divisionname": "Mahesana",
    "regionname": "Ahmedabad HQ",
    "circlename": "Gujarat",
    "Taluk": "Kadi",
    "Districtname": "Mahesana",
    "statename": "GUJARAT"
  },
  {
    "pincode": "382715",
    "officename": "Untva B.O",
    "officeType": "B.O",
    "Deliverystatus": "Delivery",
    "divisionname": "Mahesana",
    "regionname": "Ahmedabad HQ",
    "circlename": "Gujarat",
    "Taluk": "Kadi",
    "Districtname": "Mahesana",
    "statename": "GUJARAT"
  },
  {
    "pincode": "382715",
    "officename": "Vidaj B.O",
    "officeType": "B.O",
    "Deliverystatus": "Delivery",
    "divisionname": "Mahesana",
    "regionname": "Ahmedabad HQ",
    "circlename": "Gujarat",
    "Taluk": "Kadi",
    "Districtname": "Mahesana",
    "statename": "GUJARAT"
  },
  {
    "pincode": "382715",
    "officename": "Visatpur B.O",
    "officeType": "B.O",
    "Deliverystatus": "Delivery",
    "divisionname": "Mahesana",
    "regionname": "Ahmedabad HQ",
    "circlename": "Gujarat",
    "Taluk": "Kadi",
    "Districtname": "Mahesana",
    "statename": "GUJARAT"
  }
]
