[
  {
    "pincode": "382870",
    "officename": "Aglod B.O",
    "officeType": "B.O",
    "Deliverystatus": "Delivery",
    "divisionname": "Mahesana",
    "regionname": "Ahmedabad HQ",
    "circlename": "Gujarat",
    "Taluk": "Vijapur",
    "Districtname": "Mahesana",
    "statename": "GUJARAT"
  },
  {
    "pincode": "382870",
    "officename": "Bhavsor B.O",
    "officeType": "B.O",
    "Deliverystatus": "Delivery",
    "divisionname": "Mahesana",
    "regionname": "Ahmedabad HQ",
    "circlename": "Gujarat",
    "Taluk": "Vijapur",
    "Districtname": "Mahesana",
    "statename": "GUJARAT"
  },
  {
    "pincode": "382870",
    "officename": "Bilia B.O",
    "officeType": "B.O",
    "Deliverystatus": "Delivery",
    "divisionname": "Mahesana",
    "regionname": "Ahmedabad HQ",
    "circlename": "Gujarat",
    "Taluk": "Vijapur",
    "Districtname": "Mahesana",
    "statename": "GUJARAT"
  },
  {
    "pincode": "382870",
    "officename": "Devpura B.O",
    "officeType": "B.O",
    "Deliverystatus": "Delivery",
    "divisionname": "Mahesana",
    "regionname": "Ahmedabad HQ",
    "circlename": "Gujarat",
    "Taluk": "Vijapur",
    "Districtname": "Mahesana",
    "statename": "GUJARAT"
  },
  {
    "pincode": "382870",
    "officename": "Falu B.O",
    "officeType": "B.O",
    "Deliverystatus": "Delivery",
    "divisionname": "Mahesana",
    "regionname": "Ahmedabad HQ",
    "circlename": "Gujarat",
    "Taluk": "Vijapur",
    "Districtname": "Mahesana",
    "statename": "GUJARAT"
  },
  {
    "pincode": "382870",
    "officename": "Ghantu Dhanpura B.O",
    "officeType": "B.O",
    "Deliverystatus": "Delivery",
    "divisionname": "Mahesana",
    "regionname": "Ahmedabad HQ",
    "circlename": "Gujarat",
    "Taluk": "Vijapur",
    "Districtname": "Mahesana",
    "statename": "GUJARAT"
  },
  {
    "pincode": "382870",
    "officename": "Hirpura B.O",
    "officeType": "B.O",
    "Deliverystatus": "Delivery",
    "divisionname": "Mahesana",
    "regionname": "Ahmedabad HQ",
    "circlename": "Gujarat",
    "Taluk": "Vijapur",
    "Districtname": "Mahesana",
    "statename": "GUJARAT"
  },
  {
    "pincode": "382870",
    "officename": "Jepur B.O",
    "officeType": "B.O",
    "Deliverystatus": "Delivery",
    "divisionname": "Mahesana",
    "regionname": "Ahmedabad HQ",
    "circlename": "Gujarat",
    "Taluk": "Vijapur",
    "Districtname": "Mahesana",
    "statename": "GUJARAT"
  },
  {
    "pincode": "382870",
    "officename": "Kot B.O",
    "officeType": "B.O",
    "Deliverystatus": "Delivery",
    "divisionname": "Mahesana",
    "regionname": "Ahmedabad HQ",
    "circlename": "Gujarat",
    "Taluk": "Vijapur",
    "Districtname": "Mahesana",
    "statename": "GUJARAT"
  },
  {
    "pincode": "382870",
    "officename": "Navasangpur B.O",
    "officeType": "B.O",
    "Deliverystatus": "Delivery",
    "divisionname": "Mahesana",
    "regionname": "Ahmedabad HQ",
    "circlename": "Gujarat",
    "Taluk": "Vijapur",
    "Districtname": "Mahesana",
    "statename": "GUJARAT"
  },
  {
    "pincode": "382870",
    "officename": "Pedhamali B.O",
    "officeType": "B.O",
    "Deliverystatus": "Delivery",
    "divisionname": "Mahesana",
    "regionname": "Ahmedabad HQ",
    "circlename": "Gujarat",
    "Taluk": "Vijapur",
    "Districtname": "Mahesana",
    "statename": "GUJARAT"
  },
  {
    "pincode": "382870",
    "officename": "Rampur (Kot) B.O",
    "officeType": "B.O",
    "Deliverystatus": "Delivery",
    "divisionname": "Mahesana",
    "regionname": "Ahmedabad HQ",
    "circlename": "Gujarat",
    "Taluk": "Visnagar",
    "Districtname": "Mahesana",
    "statename": "GUJARAT"
  },
  {
    "pincode": "382870",
    "officename": "Ranasan B.O",
    "officeType": "B.O",
    "Deliverystatus": "Delivery",
    "divisionname": "Mahesana",
    "regionname": "Ahmedabad HQ",
    "circlename": "Gujarat",
    "Taluk": "Vijapur",
    "Districtname": "Mahesana",
    "statename": "GUJARAT"
  },
  {
    "pincode": "382870",
    "officename": "Ransipur B.O",
    "officeType": "B.O",
    "Deliverystatus": "Delivery",
    "divisionname": "Mahesana",
    "regionname": "Ahmedabad HQ",
    "circlename": "Gujarat",
    "Taluk": "Vijapur",
    "Districtname": "Mahesana",
    "statename": "GUJARAT"
  },
  {
    "pincode": "382870",
    "officename": "Vijapur Bazar S.O",
    "officeType": "S.O",
    "Deliverystatus": "Non-Delivery",
    "divisionname": "Mahesana",
    "regionname": "Ahmedabad HQ",
    "circlename": "Gujarat",
    "Taluk": "Vijapur",
    "Districtname": "Mahesana",
    "statename": "GUJARAT"
  },
  {
    "pincode": "382870",
    "officename": "Vijapur S.O",
    "officeType": "S.O",
    "Deliverystatus": "Delivery",
    "divisionname": "Mahesana",
    "regionname": "Ahmedabad HQ",
    "circlename": "Gujarat",
    "Taluk": "Vijapur",
    "Districtname": "Mahesana",
    "statename": "GUJARAT"
  }
]
