[
  {
    "pincode": "382810",
    "officename": "Ajol B.O",
    "officeType": "B.O",
    "Deliverystatus": "Delivery",
    "divisionname": "Gandhinagar",
    "regionname": "Ahmedabad HQ",
    "circlename": "Gujarat",
    "Taluk": "Mansa",
    "Districtname": "Gandhi Nagar",
    "statename": "GUJARAT"
  },
  {
    "pincode": "382810",
    "officename": "Bilodra B.O",
    "officeType": "B.O",
    "Deliverystatus": "Delivery",
    "divisionname": "Gandhinagar",
    "regionname": "Ahmedabad HQ",
    "circlename": "Gujarat",
    "Taluk": "Mansa",
    "Districtname": "Gandhi Nagar",
    "statename": "GUJARAT"
  },
  {
    "pincode": "382810",
    "officename": "Chadasana B.O",
    "officeType": "B.O",
    "Deliverystatus": "Delivery",
    "divisionname": "Gandhinagar",
    "regionname": "Ahmedabad HQ",
    "circlename": "Gujarat",
    "Taluk": "Mansa",
    "Districtname": "Gandhi Nagar",
    "statename": "GUJARAT"
  },
  {
    "pincode": "382810",
    "officename": "Charada S.O",
    "officeType": "S.O",
    "Deliverystatus": "Delivery",
    "divisionname": "Gandhinagar",
    "regionname": "Ahmedabad HQ",
    "circlename": "Gujarat",
    "Taluk": "Mansa",
    "Districtname": "Gandhi Nagar",
    "statename": "GUJARAT"
  },
  {
    "pincode": "382810",
    "officename": "Delvada B.O",
    "officeType": "B.O",
    "Deliverystatus": "Delivery",
    "divisionname": "Gandhinagar",
    "regionname": "Ahmedabad HQ",
    "circlename": "Gujarat",
    "Taluk": "Mansa",
    "Districtname": "Gandhi Nagar",
    "statename": "GUJARAT"
  },
  {
    "pincode": "382810",
    "officename": "Padusma B.O",
    "officeType": "B.O",
    "Deliverystatus": "Delivery",
    "divisionname": "Gandhinagar",
    "regionname": "Ahmedabad HQ",
    "circlename": "Gujarat",
    "Taluk": "Mansa",
    "Districtname": "Gandhi Nagar",
    "statename": "GUJARAT"
  },
  {
    "pincode": "382810",
    "officename": "Samau B.O",
    "officeType": "B.O",
    "Deliverystatus": "Delivery",
    "divisionname": "Gandhinagar",
    "regionname": "Ahmedabad HQ",
    "circlename": "Gujarat",
    "Taluk": "Mansa",
    "Districtname": "Gandhi Nagar",
    "statename": "GUJARAT"
  },
  {
    "pincode": "382810",
    "officename": "Solaiya B.O",
    "officeType": "B.O",
    "Deliverystatus": "Delivery",
    "divisionname": "Gandhinagar",
    "regionname": "Ahmedabad HQ",
    "circlename": "Gujarat",
    "Taluk": "Mansa",
    "Districtname": "Gandhi Nagar",
    "statename": "GUJARAT"
  },
  {
    "pincode": "382810",
    "officename": "Vihar B.O",
    "officeType": "B.O",
    "Deliverystatus": "Delivery",
    "divisionname": "Gandhinagar",
    "regionname": "Ahmedabad HQ",
    "circlename": "Gujarat",
    "Taluk": "Mansa",
    "Districtname": "Gandhi Nagar",
    "statename": "GUJARAT"
  }
]
