[
  {
    "pincode": "382845",
    "officename": "Ambod B.O",
    "officeType": "B.O",
    "Deliverystatus": "Delivery",
    "divisionname": "Gandhinagar",
    "regionname": "Ahmedabad HQ",
    "circlename": "Gujarat",
    "Taluk": "Mansa",
    "Districtname": "Gandhi Nagar",
    "statename": "GUJARAT"
  },
  {
    "pincode": "382845",
    "officename": "Badpura B.O",
    "officeType": "B.O",
    "Deliverystatus": "Delivery",
    "divisionname": "Gandhinagar",
    "regionname": "Ahmedabad HQ",
    "circlename": "Gujarat",
    "Taluk": "Mansa",
    "Districtname": "Gandhi Nagar",
    "statename": "GUJARAT"
  },
  {
    "pincode": "382845",
    "officename": "Bapupura B.O",
    "officeType": "B.O",
    "Deliverystatus": "Delivery",
    "divisionname": "Gandhinagar",
    "regionname": "Ahmedabad HQ",
    "circlename": "Gujarat",
    "Taluk": "Mansa",
    "Districtname": "Gandhi Nagar",
    "statename": "GUJARAT"
  },
  {
    "pincode": "382845",
    "officename": "Boru B.O",
    "officeType": "B.O",
    "Deliverystatus": "Delivery",
    "divisionname": "Gandhinagar",
    "regionname": "Ahmedabad HQ",
    "circlename": "Gujarat",
    "Taluk": "Mansa",
    "Districtname": "Gandhi Nagar",
    "statename": "GUJARAT"
  },
  {
    "pincode": "382845",
    "officename": "Dholakuva B.O",
    "officeType": "B.O",
    "Deliverystatus": "Delivery",
    "divisionname": "Gandhinagar",
    "regionname": "Ahmedabad HQ",
    "circlename": "Gujarat",
    "Taluk": "Mansa",
    "Districtname": "Gandhi Nagar",
    "statename": "GUJARAT"
  },
  {
    "pincode": "382845",
    "officename": "Fatepura B.O",
    "officeType": "B.O",
    "Deliverystatus": "Delivery",
    "divisionname": "Gandhinagar",
    "regionname": "Ahmedabad HQ",
    "circlename": "Gujarat",
    "Taluk": "Mansa",
    "Districtname": "Gandhi Nagar",
    "statename": "GUJARAT"
  },
  {
    "pincode": "382845",
    "officename": "Indrapura B.O",
    "officeType": "B.O",
    "Deliverystatus": "Delivery",
    "divisionname": "Gandhinagar",
    "regionname": "Ahmedabad HQ",
    "circlename": "Gujarat",
    "Taluk": "Mansa",
    "Districtname": "Gandhi Nagar",
    "statename": "GUJARAT"
  },
  {
    "pincode": "382845",
    "officename": "Itadar B.O",
    "officeType": "B.O",
    "Deliverystatus": "Delivery",
    "divisionname": "Gandhinagar",
    "regionname": "Ahmedabad HQ",
    "circlename": "Gujarat",
    "Taluk": "Mansa",
    "Districtname": "Gandhi Nagar",
    "statename": "GUJARAT"
  },
  {
    "pincode": "382845",
    "officename": "Kharana B.O",
    "officeType": "B.O",
    "Deliverystatus": "Delivery",
    "divisionname": "Gandhinagar",
    "regionname": "Ahmedabad HQ",
    "circlename": "Gujarat",
    "Taluk": "Mansa",
    "Districtname": "Gandhi Nagar",
    "statename": "GUJARAT"
  },
  {
    "pincode": "382845",
    "officename": "Manekpura B.O",
    "officeType": "B.O",
    "Deliverystatus": "Delivery",
    "divisionname": "Gandhinagar",
    "regionname": "Ahmedabad HQ",
    "circlename": "Gujarat",
    "Taluk": "Mansa",
    "Districtname": "Gandhi Nagar",
    "statename": "GUJARAT"
  },
  {
    "pincode": "382845",
    "officename": "Mansa Bazar S.O",
    "officeType": "S.O",
    "Deliverystatus": "Non-Delivery",
    "divisionname": "Gandhinagar",
    "regionname": "Ahmedabad HQ",
    "circlename": "Gujarat",
    "Taluk": "Mansa",
    "Districtname": "Gandhi Nagar",
    "statename": "GUJARAT"
  },
  {
    "pincode": "382845",
    "officename": "Mansa S.O (Gandhi Nagar)",
    "officeType": "S.O",
    "Deliverystatus": "Delivery",
    "divisionname": "Gandhinagar",
    "regionname": "Ahmedabad HQ",
    "circlename": "Gujarat",
    "Taluk": "Mansa",
    "Districtname": "Gandhi Nagar",
    "statename": "GUJARAT"
  },
  {
    "pincode": "382845",
    "officename": "Parbatpura B.O",
    "officeType": "B.O",
    "Deliverystatus": "Delivery",
    "divisionname": "Gandhinagar",
    "regionname": "Ahmedabad HQ",
    "circlename": "Gujarat",
    "Taluk": "Mansa",
    "Districtname": "Gandhi Nagar",
    "statename": "GUJARAT"
  },
  {
    "pincode": "382845",
    "officename": "Parsa B.O",
    "officeType": "B.O",
    "Deliverystatus": "Delivery",
    "divisionname": "Gandhinagar",
    "regionname": "Ahmedabad HQ",
    "circlename": "Gujarat",
    "Taluk": "Mansa",
    "Districtname": "Gandhi Nagar",
    "statename": "GUJARAT"
  },
  {
    "pincode": "382845",
    "officename": "Pratapnagar B.O",
    "officeType": "B.O",
    "Deliverystatus": "Delivery",
    "divisionname": "Gandhinagar",
    "regionname": "Ahmedabad HQ",
    "circlename": "Gujarat",
    "Taluk": "Mansa",
    "Districtname": "Gandhi Nagar",
    "statename": "GUJARAT"
  },
  {
    "pincode": "382845",
    "officename": "Vagosana B.O",
    "officeType": "B.O",
    "Deliverystatus": "Delivery",
    "divisionname": "Gandhinagar",
    "regionname": "Ahmedabad HQ",
    "circlename": "Gujarat",
    "Taluk": "Mansa",
    "Districtname": "Gandhi Nagar",
    "statename": "GUJARAT"
  }
]
