[
  {
    "pincode": "383246",
    "officename": "Ambabar B.O",
    "officeType": "B.O",
    "Deliverystatus": "Delivery",
    "divisionname": "Sabarkantha",
    "regionname": "Ahmedabad HQ",
    "circlename": "Gujarat",
    "Taluk": "Bhiloda",
    "Districtname": "Sabarkantha",
    "statename": "GUJARAT"
  },
  {
    "pincode": "383246",
    "officename": "Bhanmer B.O",
    "officeType": "B.O",
    "Deliverystatus": "Delivery",
    "divisionname": "Sabarkantha",
    "regionname": "Ahmedabad HQ",
    "circlename": "Gujarat",
    "Taluk": "Bhiloda",
    "Districtname": "Sabarkantha",
    "statename": "GUJARAT"
  },
  {
    "pincode": "383246",
    "officename": "Budheli B.O",
    "officeType": "B.O",
    "Deliverystatus": "Delivery",
    "divisionname": "Sabarkantha",
    "regionname": "Ahmedabad HQ",
    "circlename": "Gujarat",
    "Taluk": "Bhiloda",
    "Districtname": "Sabarkantha",
    "statename": "GUJARAT"
  },
  {
    "pincode": "383246",
    "officename": "Budhrasan B.O",
    "officeType": "B.O",
    "Deliverystatus": "Delivery",
    "divisionname": "Sabarkantha",
    "regionname": "Ahmedabad HQ",
    "circlename": "Gujarat",
    "Taluk": "Bhiloda",
    "Districtname": "Sabarkantha",
    "statename": "GUJARAT"
  },
  {
    "pincode": "383246",
    "officename": "Chamthan B.O",
    "officeType": "B.O",
    "Deliverystatus": "Delivery",
    "divisionname": "Sabarkantha",
    "regionname": "Ahmedabad HQ",
    "circlename": "Gujarat",
    "Taluk": "Vijaynagar",
    "Districtname": "Sabarkantha",
    "statename": "GUJARAT"
  },
  {
    "pincode": "383246",
    "officename": "Chitrodi B.O",
    "officeType": "B.O",
    "Deliverystatus": "Delivery",
    "divisionname": "Sabarkantha",
    "regionname": "Ahmedabad HQ",
    "circlename": "Gujarat",
    "Taluk": "Vijaynagar",
    "Districtname": "Sabarkantha",
    "statename": "GUJARAT"
  },
  {
    "pincode": "383246",
    "officename": "Chorimala B.O",
    "officeType": "B.O",
    "Deliverystatus": "Delivery",
    "divisionname": "Sabarkantha",
    "regionname": "Ahmedabad HQ",
    "circlename": "Gujarat",
    "Taluk": "Bhiloda",
    "Districtname": "Sabarkantha",
    "statename": "GUJARAT"
  },
  {
    "pincode": "383246",
    "officename": "Dhansor B.O",
    "officeType": "B.O",
    "Deliverystatus": "Delivery",
    "divisionname": "Sabarkantha",
    "regionname": "Ahmedabad HQ",
    "circlename": "Gujarat",
    "Taluk": "Bhiloda",
    "Districtname": "Sabarkantha",
    "statename": "GUJARAT"
  },
  {
    "pincode": "383246",
    "officename": "Itavadi B.O",
    "officeType": "B.O",
    "Deliverystatus": "Delivery",
    "divisionname": "Sabarkantha",
    "regionname": "Ahmedabad HQ",
    "circlename": "Gujarat",
    "Taluk": "Vijaynagar",
    "Districtname": "Sabarkantha",
    "statename": "GUJARAT"
  },
  {
    "pincode": "383246",
    "officename": "Jayla B.O",
    "officeType": "B.O",
    "Deliverystatus": "Delivery",
    "divisionname": "Sabarkantha",
    "regionname": "Ahmedabad HQ",
    "circlename": "Gujarat",
    "Taluk": "Bhiloda",
    "Districtname": "Sabarkantha",
    "statename": "GUJARAT"
  },
  {
    "pincode": "383246",
    "officename": "Jinjudi B.O",
    "officeType": "B.O",
    "Deliverystatus": "Delivery",
    "divisionname": "Sabarkantha",
    "regionname": "Ahmedabad HQ",
    "circlename": "Gujarat",
    "Taluk": "Bhiloda",
    "Districtname": "Sabarkantha",
    "statename": "GUJARAT"
  },
  {
    "pincode": "383246",
    "officename": "Kanadar B.O",
    "officeType": "B.O",
    "Deliverystatus": "Delivery",
    "divisionname": "Sabarkantha",
    "regionname": "Ahmedabad HQ",
    "circlename": "Gujarat",
    "Taluk": "Vijaynagar",
    "Districtname": "Sabarkantha",
    "statename": "GUJARAT"
  },
  {
    "pincode": "383246",
    "officename": "Kundol Pal B.O",
    "officeType": "B.O",
    "Deliverystatus": "Delivery",
    "divisionname": "Sabarkantha",
    "regionname": "Ahmedabad HQ",
    "circlename": "Gujarat",
    "Taluk": "Bhiloda",
    "Districtname": "Sabarkantha",
    "statename": "GUJARAT"
  },
  {
    "pincode": "383246",
    "officename": "Masota B.O",
    "officeType": "B.O",
    "Deliverystatus": "Delivery",
    "divisionname": "Sabarkantha",
    "regionname": "Ahmedabad HQ",
    "circlename": "Gujarat",
    "Taluk": "Vijaynagar",
    "Districtname": "Sabarkantha",
    "statename": "GUJARAT"
  },
  {
    "pincode": "383246",
    "officename": "Raisingpur B.O",
    "officeType": "B.O",
    "Deliverystatus": "Delivery",
    "divisionname": "Sabarkantha",
    "regionname": "Ahmedabad HQ",
    "circlename": "Gujarat",
    "Taluk": "Bhiloda",
    "Districtname": "Sabarkantha",
    "statename": "GUJARAT"
  },
  {
    "pincode": "383246",
    "officename": "Rampuri B.O",
    "officeType": "B.O",
    "Deliverystatus": "Delivery",
    "divisionname": "Sabarkantha",
    "regionname": "Ahmedabad HQ",
    "circlename": "Gujarat",
    "Taluk": "Bhiloda",
    "Districtname": "Sabarkantha",
    "statename": "GUJARAT"
  },
  {
    "pincode": "383246",
    "officename": "Takatuka S.O",
    "officeType": "S.O",
    "Deliverystatus": "Delivery",
    "divisionname": "Sabarkantha",
    "regionname": "Ahmedabad HQ",
    "circlename": "Gujarat",
    "Taluk": "Bhiloda",
    "Districtname": "Sabarkantha",
    "statename": "GUJARAT"
  },
  {
    "pincode": "383246",
    "officename": "Torda B.O",
    "officeType": "B.O",
    "Deliverystatus": "Delivery",
    "divisionname": "Sabarkantha",
    "regionname": "Ahmedabad HQ",
    "circlename": "Gujarat",
    "Taluk": "Bhiloda",
    "Districtname": "Sabarkantha",
    "statename": "GUJARAT"
  },
  {
    "pincode": "383246",
    "officename": "Ubsal B.O",
    "officeType": "B.O",
    "Deliverystatus": "Delivery",
    "divisionname": "Sabarkantha",
    "regionname": "Ahmedabad HQ",
    "circlename": "Gujarat",
    "Taluk": "Bhiloda",
    "Districtname": "Sabarkantha",
    "statename": "GUJARAT"
  },
  {
    "pincode": "383246",
    "officename": "Virpur B.O",
    "officeType": "B.O",
    "Deliverystatus": "Delivery",
    "divisionname": "Sabarkantha",
    "regionname": "Ahmedabad HQ",
    "circlename": "Gujarat",
    "Taluk": "Bhiloda",
    "Districtname": "Sabarkantha",
    "statename": "GUJARAT"
  }
]
