[
  {
    "pincode": "383220",
    "officename": "Dedhrota B.O",
    "officeType": "B.O",
    "Deliverystatus": "Delivery",
    "divisionname": "Sabarkantha",
    "regionname": "Ahmedabad HQ",
    "circlename": "Gujarat",
    "Taluk": "Himatnagar",
    "Districtname": "Sabarkantha",
    "statename": "GUJARAT"
  },
  {
    "pincode": "383220",
    "officename": "Derol B.O",
    "officeType": "B.O",
    "Deliverystatus": "Delivery",
    "divisionname": "Sabarkantha",
    "regionname": "Ahmedabad HQ",
    "circlename": "Gujarat",
    "Taluk": "Himatnagar",
    "Districtname": "Sabarkantha",
    "statename": "GUJARAT"
  },
  {
    "pincode": "383220",
    "officename": "Ilol S.O",
    "officeType": "S.O",
    "Deliverystatus": "Delivery",
    "divisionname": "Sabarkantha",
    "regionname": "Ahmedabad HQ",
    "circlename": "Gujarat",
    "Taluk": "Himatnagar",
    "Districtname": "Sabarkantha",
    "statename": "GUJARAT"
  },
  {
    "pincode": "383220",
    "officename": "Kadoli B.O",
    "officeType": "B.O",
    "Deliverystatus": "Delivery",
    "divisionname": "Sabarkantha",
    "regionname": "Ahmedabad HQ",
    "circlename": "Gujarat",
    "Taluk": "Himatnagar",
    "Districtname": "Sabarkantha",
    "statename": "GUJARAT"
  },
  {
    "pincode": "383220",
    "officename": "Kanai B.O",
    "officeType": "B.O",
    "Deliverystatus": "Delivery",
    "divisionname": "Sabarkantha",
    "regionname": "Ahmedabad HQ",
    "circlename": "Gujarat",
    "Taluk": "Himatnagar",
    "Districtname": "Sabarkantha",
    "statename": "GUJARAT"
  },
  {
    "pincode": "383220",
    "officename": "Kanda B.O",
    "officeType": "B.O",
    "Deliverystatus": "Delivery",
    "divisionname": "Sabarkantha",
    "regionname": "Ahmedabad HQ",
    "circlename": "Gujarat",
    "Taluk": "Himatnagar",
    "Districtname": "Sabarkantha",
    "statename": "GUJARAT"
  },
  {
    "pincode": "383220",
    "officename": "Khedavada B.O",
    "officeType": "B.O",
    "Deliverystatus": "Delivery",
    "divisionname": "Sabarkantha",
    "regionname": "Ahmedabad HQ",
    "circlename": "Gujarat",
    "Taluk": "Himatnagar",
    "Districtname": "Sabarkantha",
    "statename": "GUJARAT"
  },
  {
    "pincode": "383220",
    "officename": "Navanagar B.O",
    "officeType": "B.O",
    "Deliverystatus": "Delivery",
    "divisionname": "Sabarkantha",
    "regionname": "Ahmedabad HQ",
    "circlename": "Gujarat",
    "Taluk": "Himatnagar",
    "Districtname": "Sabarkantha",
    "statename": "GUJARAT"
  }
]
