[
  {
    "pincode": "383251",
    "officename": "Ansol B.O",
    "officeType": "B.O",
    "Deliverystatus": "Delivery",
    "divisionname": "Sabarkantha",
    "regionname": "Ahmedabad HQ",
    "circlename": "Gujarat",
    "Taluk": "Bhiloda",
    "Districtname": "Sabarkantha",
    "statename": "GUJARAT"
  },
  {
    "pincode": "383251",
    "officename": "Dahegamda B.O",
    "officeType": "B.O",
    "Deliverystatus": "Delivery",
    "divisionname": "Sabarkantha",
    "regionname": "Ahmedabad HQ",
    "circlename": "Gujarat",
    "Taluk": "Bhiloda",
    "Districtname": "Sabarkantha",
    "statename": "GUJARAT"
  },
  {
    "pincode": "383251",
    "officename": "Gali Semro B.O",
    "officeType": "B.O",
    "Deliverystatus": "Delivery",
    "divisionname": "Sabarkantha",
    "regionname": "Ahmedabad HQ",
    "circlename": "Gujarat",
    "Taluk": "Bhiloda",
    "Districtname": "Sabarkantha",
    "statename": "GUJARAT"
  },
  {
    "pincode": "383251",
    "officename": "Intva B.O",
    "officeType": "B.O",
    "Deliverystatus": "Delivery",
    "divisionname": "Sabarkantha",
    "regionname": "Ahmedabad HQ",
    "circlename": "Gujarat",
    "Taluk": "Meghraj",
    "Districtname": "Sabarkantha",
    "statename": "GUJARAT"
  },
  {
    "pincode": "383251",
    "officename": "Isari B.O",
    "officeType": "B.O",
    "Deliverystatus": "Delivery",
    "divisionname": "Sabarkantha",
    "regionname": "Ahmedabad HQ",
    "circlename": "Gujarat",
    "Taluk": "Meghraj",
    "Districtname": "Sabarkantha",
    "statename": "GUJARAT"
  },
  {
    "pincode": "383251",
    "officename": "Kagda Mahuda B.O",
    "officeType": "B.O",
    "Deliverystatus": "Delivery",
    "divisionname": "Sabarkantha",
    "regionname": "Ahmedabad HQ",
    "circlename": "Gujarat",
    "Taluk": "Bhiloda",
    "Districtname": "Sabarkantha",
    "statename": "GUJARAT"
  },
  {
    "pincode": "383251",
    "officename": "Lusadia S.O",
    "officeType": "S.O",
    "Deliverystatus": "Delivery",
    "divisionname": "Sabarkantha",
    "regionname": "Ahmedabad HQ",
    "circlename": "Gujarat",
    "Taluk": "Bhiloda",
    "Districtname": "Sabarkantha",
    "statename": "GUJARAT"
  },
  {
    "pincode": "383251",
    "officename": "Mota Kantharia B.O",
    "officeType": "B.O",
    "Deliverystatus": "Delivery",
    "divisionname": "Sabarkantha",
    "regionname": "Ahmedabad HQ",
    "circlename": "Gujarat",
    "Taluk": "Bhiloda",
    "Districtname": "Sabarkantha",
    "statename": "GUJARAT"
  },
  {
    "pincode": "383251",
    "officename": "Navagam(Isri) B.O",
    "officeType": "B.O",
    "Deliverystatus": "Delivery",
    "divisionname": "Sabarkantha",
    "regionname": "Ahmedabad HQ",
    "circlename": "Gujarat",
    "Taluk": "Meghraj",
    "Districtname": "Sabarkantha",
    "statename": "GUJARAT"
  },
  {
    "pincode": "383251",
    "officename": "Panibar B.O",
    "officeType": "B.O",
    "Deliverystatus": "Delivery",
    "divisionname": "Sabarkantha",
    "regionname": "Ahmedabad HQ",
    "circlename": "Gujarat",
    "Taluk": "Meghraj",
    "Districtname": "Sabarkantha",
    "statename": "GUJARAT"
  },
  {
    "pincode": "383251",
    "officename": "Rellawada B.O",
    "officeType": "B.O",
    "Deliverystatus": "Delivery",
    "divisionname": "Sabarkantha",
    "regionname": "Ahmedabad HQ",
    "circlename": "Gujarat",
    "Taluk": "Meghraj",
    "Districtname": "Sabarkantha",
    "statename": "GUJARAT"
  },
  {
    "pincode": "383251",
    "officename": "Vaghpur B.O",
    "officeType": "B.O",
    "Deliverystatus": "Delivery",
    "divisionname": "Sabarkantha",
    "regionname": "Ahmedabad HQ",
    "circlename": "Gujarat",
    "Taluk": "Meghraj",
    "Districtname": "Sabarkantha",
    "statename": "GUJARAT"
  }
]
