[
  {
    "pincode": "383305",
    "officename": "Aniod B.O",
    "officeType": "B.O",
    "Deliverystatus": "Delivery",
    "divisionname": "Sabarkantha",
    "regionname": "Ahmedabad HQ",
    "circlename": "Gujarat",
    "Taluk": "Talod",
    "Districtname": "Sabarkantha",
    "statename": "GUJARAT"
  },
  {
    "pincode": "383305",
    "officename": "Antroli B.O",
    "officeType": "B.O",
    "Deliverystatus": "Delivery",
    "divisionname": "Sabarkantha",
    "regionname": "Ahmedabad HQ",
    "circlename": "Gujarat",
    "Taluk": "Talod",
    "Districtname": "Sabarkantha",
    "statename": "GUJARAT"
  },
  {
    "pincode": "383305",
    "officename": "Badodara B.O",
    "officeType": "B.O",
    "Deliverystatus": "Delivery",
    "divisionname": "Sabarkantha",
    "regionname": "Ahmedabad HQ",
    "circlename": "Gujarat",
    "Taluk": "Talod",
    "Districtname": "Sabarkantha",
    "statename": "GUJARAT"
  },
  {
    "pincode": "383305",
    "officename": "Dadarda B.O",
    "officeType": "B.O",
    "Deliverystatus": "Delivery",
    "divisionname": "Sabarkantha",
    "regionname": "Ahmedabad HQ",
    "circlename": "Gujarat",
    "Taluk": "Talod",
    "Districtname": "Sabarkantha",
    "statename": "GUJARAT"
  },
  {
    "pincode": "383305",
    "officename": "Harsol S.O",
    "officeType": "S.O",
    "Deliverystatus": "Delivery",
    "divisionname": "Sabarkantha",
    "regionname": "Ahmedabad HQ",
    "circlename": "Gujarat",
    "Taluk": "Talod",
    "Districtname": "Sabarkantha",
    "statename": "GUJARAT"
  },
  {
    "pincode": "383305",
    "officename": "Kabodara B.O",
    "officeType": "B.O",
    "Deliverystatus": "Delivery",
    "divisionname": "Sabarkantha",
    "regionname": "Ahmedabad HQ",
    "circlename": "Gujarat",
    "Taluk": "Talod",
    "Districtname": "Sabarkantha",
    "statename": "GUJARAT"
  },
  {
    "pincode": "383305",
    "officename": "Lavari B.O",
    "officeType": "B.O",
    "Deliverystatus": "Delivery",
    "divisionname": "Sabarkantha",
    "regionname": "Ahmedabad HQ",
    "circlename": "Gujarat",
    "Taluk": "Talod",
    "Districtname": "Sabarkantha",
    "statename": "GUJARAT"
  },
  {
    "pincode": "383305",
    "officename": "Madhavgadh B.O",
    "officeType": "B.O",
    "Deliverystatus": "Delivery",
    "divisionname": "Sabarkantha",
    "regionname": "Ahmedabad HQ",
    "circlename": "Gujarat",
    "Taluk": "Talod",
    "Districtname": "Sabarkantha",
    "statename": "GUJARAT"
  },
  {
    "pincode": "383305",
    "officename": "Modhuka B.O",
    "officeType": "B.O",
    "Deliverystatus": "Delivery",
    "divisionname": "Sabarkantha",
    "regionname": "Ahmedabad HQ",
    "circlename": "Gujarat",
    "Taluk": "Talod",
    "Districtname": "Sabarkantha",
    "statename": "GUJARAT"
  },
  {
    "pincode": "383305",
    "officename": "Mohanpur B.O",
    "officeType": "B.O",
    "Deliverystatus": "Delivery",
    "divisionname": "Sabarkantha",
    "regionname": "Ahmedabad HQ",
    "circlename": "Gujarat",
    "Taluk": "Talod",
    "Districtname": "Sabarkantha",
    "statename": "GUJARAT"
  },
  {
    "pincode": "383305",
    "officename": "Mota Chekhla B.O",
    "officeType": "B.O",
    "Deliverystatus": "Delivery",
    "divisionname": "Sabarkantha",
    "regionname": "Ahmedabad HQ",
    "circlename": "Gujarat",
    "Taluk": "Talod",
    "Districtname": "Sabarkantha",
    "statename": "GUJARAT"
  },
  {
    "pincode": "383305",
    "officename": "Motesari B.O",
    "officeType": "B.O",
    "Deliverystatus": "Delivery",
    "divisionname": "Sabarkantha",
    "regionname": "Ahmedabad HQ",
    "circlename": "Gujarat",
    "Taluk": "Talod",
    "Districtname": "Sabarkantha",
    "statename": "GUJARAT"
  },
  {
    "pincode": "383305",
    "officename": "Nana Chekhla B.O",
    "officeType": "B.O",
    "Deliverystatus": "Delivery",
    "divisionname": "Sabarkantha",
    "regionname": "Ahmedabad HQ",
    "circlename": "Gujarat",
    "Taluk": "Talod",
    "Districtname": "Sabarkantha",
    "statename": "GUJARAT"
  },
  {
    "pincode": "383305",
    "officename": "Nava B.O",
    "officeType": "B.O",
    "Deliverystatus": "Delivery",
    "divisionname": "Sabarkantha",
    "regionname": "Ahmedabad HQ",
    "circlename": "Gujarat",
    "Taluk": "Talod",
    "Districtname": "Sabarkantha",
    "statename": "GUJARAT"
  },
  {
    "pincode": "383305",
    "officename": "Padusan B.O",
    "officeType": "B.O",
    "Deliverystatus": "Delivery",
    "divisionname": "Sabarkantha",
    "regionname": "Ahmedabad HQ",
    "circlename": "Gujarat",
    "Taluk": "Talod",
    "Districtname": "Sabarkantha",
    "statename": "GUJARAT"
  },
  {
    "pincode": "383305",
    "officename": "Ranasan B.O",
    "officeType": "B.O",
    "Deliverystatus": "Delivery",
    "divisionname": "Sabarkantha",
    "regionname": "Ahmedabad HQ",
    "circlename": "Gujarat",
    "Taluk": "Talod",
    "Districtname": "Sabarkantha",
    "statename": "GUJARAT"
  },
  {
    "pincode": "383305",
    "officename": "Tajpur (Camp) B.O",
    "officeType": "B.O",
    "Deliverystatus": "Delivery",
    "divisionname": "Sabarkantha",
    "regionname": "Ahmedabad HQ",
    "circlename": "Gujarat",
    "Taluk": "Talod",
    "Districtname": "Sabarkantha",
    "statename": "GUJARAT"
  },
  {
    "pincode": "383305",
    "officename": "Varvada B.O",
    "officeType": "B.O",
    "Deliverystatus": "Delivery",
    "divisionname": "Sabarkantha",
    "regionname": "Ahmedabad HQ",
    "circlename": "Gujarat",
    "Taluk": "Talod",
    "Districtname": "Sabarkantha",
    "statename": "GUJARAT"
  }
]
