[
  {
    "pincode": "383307",
    "officename": "Ambasar B.O",
    "officeType": "B.O",
    "Deliverystatus": "Delivery",
    "divisionname": "Sabarkantha",
    "regionname": "Ahmedabad HQ",
    "circlename": "Gujarat",
    "Taluk": "Dhansura",
    "Districtname": "Sabarkantha",
    "statename": "GUJARAT"
  },
  {
    "pincode": "383307",
    "officename": "Khilodia B.O",
    "officeType": "B.O",
    "Deliverystatus": "Delivery",
    "divisionname": "Sabarkantha",
    "regionname": "Ahmedabad HQ",
    "circlename": "Gujarat",
    "Taluk": "Dhansura",
    "Districtname": "Sabarkantha",
    "statename": "GUJARAT"
  },
  {
    "pincode": "383307",
    "officename": "Lalinomath B.O",
    "officeType": "B.O",
    "Deliverystatus": "Delivery",
    "divisionname": "Sabarkantha",
    "regionname": "Ahmedabad HQ",
    "circlename": "Gujarat",
    "Taluk": "Dhansura",
    "Districtname": "Sabarkantha",
    "statename": "GUJARAT"
  },
  {
    "pincode": "383307",
    "officename": "Punsari B.O",
    "officeType": "B.O",
    "Deliverystatus": "Delivery",
    "divisionname": "Sabarkantha",
    "regionname": "Ahmedabad HQ",
    "circlename": "Gujarat",
    "Taluk": "Talod",
    "Districtname": "Sabarkantha",
    "statename": "GUJARAT"
  },
  {
    "pincode": "383307",
    "officename": "Rajpur B.O",
    "officeType": "B.O",
    "Deliverystatus": "Delivery",
    "divisionname": "Sabarkantha",
    "regionname": "Ahmedabad HQ",
    "circlename": "Gujarat",
    "Taluk": "Dhansura",
    "Districtname": "Sabarkantha",
    "statename": "GUJARAT"
  },
  {
    "pincode": "383307",
    "officename": "Ranipura B.O",
    "officeType": "B.O",
    "Deliverystatus": "Delivery",
    "divisionname": "Sabarkantha",
    "regionname": "Ahmedabad HQ",
    "circlename": "Gujarat",
    "Taluk": "Talod",
    "Districtname": "Sabarkantha",
    "statename": "GUJARAT"
  },
  {
    "pincode": "383307",
    "officename": "Sagpur B.O",
    "officeType": "B.O",
    "Deliverystatus": "Delivery",
    "divisionname": "Sabarkantha",
    "regionname": "Ahmedabad HQ",
    "circlename": "Gujarat",
    "Taluk": "Talod",
    "Districtname": "Sabarkantha",
    "statename": "GUJARAT"
  },
  {
    "pincode": "383307",
    "officename": "Vadagam S.O",
    "officeType": "S.O",
    "Deliverystatus": "Delivery",
    "divisionname": "Sabarkantha",
    "regionname": "Ahmedabad HQ",
    "circlename": "Gujarat",
    "Taluk": "Dhansura",
    "Districtname": "Sabarkantha",
    "statename": "GUJARAT"
  }
]
