[
  {
    "pincode": "384170",
    "officename": "Aithor B.O",
    "officeType": "B.O",
    "Deliverystatus": "Delivery",
    "divisionname": "Mahesana",
    "regionname": "Ahmedabad HQ",
    "circlename": "Gujarat",
    "Taluk": "Unjha",
    "Districtname": "Mahesana",
    "statename": "GUJARAT"
  },
  {
    "pincode": "384170",
    "officename": "Amudh B.O",
    "officeType": "B.O",
    "Deliverystatus": "Delivery",
    "divisionname": "Mahesana",
    "regionname": "Ahmedabad HQ",
    "circlename": "Gujarat",
    "Taluk": "Unjha",
    "Districtname": "Mahesana",
    "statename": "GUJARAT"
  },
  {
    "pincode": "384170",
    "officename": "Bhankhar B.O",
    "officeType": "B.O",
    "Deliverystatus": "Delivery",
    "divisionname": "Mahesana",
    "regionname": "Ahmedabad HQ",
    "circlename": "Gujarat",
    "Taluk": "Unjha",
    "Districtname": "Mahesana",
    "statename": "GUJARAT"
  },
  {
    "pincode": "384170",
    "officename": "Dabhi B.O",
    "officeType": "B.O",
    "Deliverystatus": "Delivery",
    "divisionname": "Mahesana",
    "regionname": "Ahmedabad HQ",
    "circlename": "Gujarat",
    "Taluk": "Unjha",
    "Districtname": "Mahesana",
    "statename": "GUJARAT"
  },
  {
    "pincode": "384170",
    "officename": "Dasaj B.O",
    "officeType": "B.O",
    "Deliverystatus": "Delivery",
    "divisionname": "Mahesana",
    "regionname": "Ahmedabad HQ",
    "circlename": "Gujarat",
    "Taluk": "Unjha",
    "Districtname": "Mahesana",
    "statename": "GUJARAT"
  },
  {
    "pincode": "384170",
    "officename": "Hajipur B.O",
    "officeType": "B.O",
    "Deliverystatus": "Delivery",
    "divisionname": "Mahesana",
    "regionname": "Ahmedabad HQ",
    "circlename": "Gujarat",
    "Taluk": "Vadnagar",
    "Districtname": "Mahesana",
    "statename": "GUJARAT"
  },
  {
    "pincode": "384170",
    "officename": "Karli B.O",
    "officeType": "B.O",
    "Deliverystatus": "Delivery",
    "divisionname": "Mahesana",
    "regionname": "Ahmedabad HQ",
    "circlename": "Gujarat",
    "Taluk": "Unjha",
    "Districtname": "Mahesana",
    "statename": "GUJARAT"
  },
  {
    "pincode": "384170",
    "officename": "Maktupur B.O",
    "officeType": "B.O",
    "Deliverystatus": "Delivery",
    "divisionname": "Mahesana",
    "regionname": "Ahmedabad HQ",
    "circlename": "Gujarat",
    "Taluk": "Unjha",
    "Districtname": "Mahesana",
    "statename": "GUJARAT"
  },
  {
    "pincode": "384170",
    "officename": "Ranchhodpura B.O",
    "officeType": "B.O",
    "Deliverystatus": "Delivery",
    "divisionname": "Mahesana",
    "regionname": "Ahmedabad HQ",
    "circlename": "Gujarat",
    "Taluk": "Unjha",
    "Districtname": "Mahesana",
    "statename": "GUJARAT"
  },
  {
    "pincode": "384170",
    "officename": "Sihi B.O",
    "officeType": "B.O",
    "Deliverystatus": "Delivery",
    "divisionname": "Mahesana",
    "regionname": "Ahmedabad HQ",
    "circlename": "Gujarat",
    "Taluk": "Unjha",
    "Districtname": "Mahesana",
    "statename": "GUJARAT"
  },
  {
    "pincode": "384170",
    "officename": "Sunok B.O",
    "officeType": "B.O",
    "Deliverystatus": "Delivery",
    "divisionname": "Mahesana",
    "regionname": "Ahmedabad HQ",
    "circlename": "Gujarat",
    "Taluk": "Unjha",
    "Districtname": "Mahesana",
    "statename": "GUJARAT"
  },
  {
    "pincode": "384170",
    "officename": "Tundav B.O",
    "officeType": "B.O",
    "Deliverystatus": "Delivery",
    "divisionname": "Mahesana",
    "regionname": "Ahmedabad HQ",
    "circlename": "Gujarat",
    "Taluk": "Unjha",
    "Districtname": "Mahesana",
    "statename": "GUJARAT"
  },
  {
    "pincode": "384170",
    "officename": "Unjha Kotkuva S.O",
    "officeType": "S.O",
    "Deliverystatus": "Non-Delivery",
    "divisionname": "Mahesana",
    "regionname": "Ahmedabad HQ",
    "circlename": "Gujarat",
    "Taluk": "Unjha",
    "Districtname": "Mahesana",
    "statename": "GUJARAT"
  },
  {
    "pincode": "384170",
    "officename": "Unjha S.O",
    "officeType": "S.O",
    "Deliverystatus": "Delivery",
    "divisionname": "Mahesana",
    "regionname": "Ahmedabad HQ",
    "circlename": "Gujarat",
    "Taluk": "Unjha",
    "Districtname": "Mahesana",
    "statename": "GUJARAT"
  },
  {
    "pincode": "384170",
    "officename": "Unjha Umiya Mataji S.O",
    "officeType": "S.O",
    "Deliverystatus": "Non-Delivery",
    "divisionname": "Mahesana",
    "regionname": "Ahmedabad HQ",
    "circlename": "Gujarat",
    "Taluk": "Unjha",
    "Districtname": "Mahesana",
    "statename": "GUJARAT"
  },
  {
    "pincode": "384170",
    "officename": "Upera B.O",
    "officeType": "B.O",
    "Deliverystatus": "Delivery",
    "divisionname": "Mahesana",
    "regionname": "Ahmedabad HQ",
    "circlename": "Gujarat",
    "Taluk": "Unjha",
    "Districtname": "Mahesana",
    "statename": "GUJARAT"
  },
  {
    "pincode": "384170",
    "officename": "Vanagala B.O",
    "officeType": "B.O",
    "Deliverystatus": "Delivery",
    "divisionname": "Mahesana",
    "regionname": "Ahmedabad HQ",
    "circlename": "Gujarat",
    "Taluk": "Unjha",
    "Districtname": "Mahesana",
    "statename": "GUJARAT"
  }
]
