[
  {
    "pincode": "384210",
    "officename": "Ambala B.O",
    "officeType": "B.O",
    "Deliverystatus": "Delivery",
    "divisionname": "Mahesana",
    "regionname": "Ahmedabad HQ",
    "circlename": "Gujarat",
    "Taluk": "Becharaji",
    "Districtname": "Mahesana",
    "statename": "GUJARAT"
  },
  {
    "pincode": "384210",
    "officename": "Becharaji S.O",
    "officeType": "S.O",
    "Deliverystatus": "Delivery",
    "divisionname": "Mahesana",
    "regionname": "Ahmedabad HQ",
    "circlename": "Gujarat",
    "Taluk": "Becharaji",
    "Districtname": "Mahesana",
    "statename": "GUJARAT"
  },
  {
    "pincode": "384210",
    "officename": "Chadasana B.O",
    "officeType": "B.O",
    "Deliverystatus": "Delivery",
    "divisionname": "Mahesana",
    "regionname": "Ahmedabad HQ",
    "circlename": "Gujarat",
    "Taluk": "Becharaji",
    "Districtname": "Mahesana",
    "statename": "GUJARAT"
  },
  {
    "pincode": "384210",
    "officename": "Dedana B.O",
    "officeType": "B.O",
    "Deliverystatus": "Delivery",
    "divisionname": "Mahesana",
    "regionname": "Ahmedabad HQ",
    "circlename": "Gujarat",
    "Taluk": "Becharaji",
    "Districtname": "Mahesana",
    "statename": "GUJARAT"
  },
  {
    "pincode": "384210",
    "officename": "Delvada (Khant) B.O",
    "officeType": "B.O",
    "Deliverystatus": "Delivery",
    "divisionname": "Mahesana",
    "regionname": "Ahmedabad HQ",
    "circlename": "Gujarat",
    "Taluk": "Becharaji",
    "Districtname": "Mahesana",
    "statename": "GUJARAT"
  },
  {
    "pincode": "384210",
    "officename": "Dethali B.O",
    "officeType": "B.O",
    "Deliverystatus": "Delivery",
    "divisionname": "Mahesana",
    "regionname": "Ahmedabad HQ",
    "circlename": "Gujarat",
    "Taluk": "Becharaji",
    "Districtname": "Mahesana",
    "statename": "GUJARAT"
  },
  {
    "pincode": "384210",
    "officename": "Dodiwada B.O",
    "officeType": "B.O",
    "Deliverystatus": "Delivery",
    "divisionname": "Mahesana",
    "regionname": "Ahmedabad HQ",
    "circlename": "Gujarat",
    "Taluk": "Becharaji",
    "Districtname": "Mahesana",
    "statename": "GUJARAT"
  },
  {
    "pincode": "384210",
    "officename": "Kalri B.O",
    "officeType": "B.O",
    "Deliverystatus": "Delivery",
    "divisionname": "Mahesana",
    "regionname": "Ahmedabad HQ",
    "circlename": "Gujarat",
    "Taluk": "Becharaji",
    "Districtname": "Mahesana",
    "statename": "GUJARAT"
  },
  {
    "pincode": "384210",
    "officename": "Khambhei B.O",
    "officeType": "B.O",
    "Deliverystatus": "Delivery",
    "divisionname": "Mahesana",
    "regionname": "Ahmedabad HQ",
    "circlename": "Gujarat",
    "Taluk": "Becharaji",
    "Districtname": "Mahesana",
    "statename": "GUJARAT"
  },
  {
    "pincode": "384210",
    "officename": "Sampawada B.O",
    "officeType": "B.O",
    "Deliverystatus": "Delivery",
    "divisionname": "Mahesana",
    "regionname": "Ahmedabad HQ",
    "circlename": "Gujarat",
    "Taluk": "Becharaji",
    "Districtname": "Mahesana",
    "statename": "GUJARAT"
  },
  {
    "pincode": "384210",
    "officename": "Shankhalpur B.O",
    "officeType": "B.O",
    "Deliverystatus": "Delivery",
    "divisionname": "Mahesana",
    "regionname": "Ahmedabad HQ",
    "circlename": "Gujarat",
    "Taluk": "Becharaji",
    "Districtname": "Mahesana",
    "statename": "GUJARAT"
  },
  {
    "pincode": "384210",
    "officename": "Surpura B.O",
    "officeType": "B.O",
    "Deliverystatus": "Delivery",
    "divisionname": "Mahesana",
    "regionname": "Ahmedabad HQ",
    "circlename": "Gujarat",
    "Taluk": "Becharaji",
    "Districtname": "Mahesana",
    "statename": "GUJARAT"
  },
  {
    "pincode": "384210",
    "officename": "Venpura B.O",
    "officeType": "B.O",
    "Deliverystatus": "Delivery",
    "divisionname": "Mahesana",
    "regionname": "Ahmedabad HQ",
    "circlename": "Gujarat",
    "Taluk": "Becharaji",
    "Districtname": "Mahesana",
    "statename": "GUJARAT"
  }
]
