[
  {
    "pincode": "384245",
    "officename": "Adgam B.O",
    "officeType": "B.O",
    "Deliverystatus": "Delivery",
    "divisionname": "Patan",
    "regionname": "Ahmedabad HQ",
    "circlename": "Gujarat",
    "Taluk": "Sami",
    "Districtname": "Patan",
    "statename": "GUJARAT"
  },
  {
    "pincode": "384245",
    "officename": "Amrapuara B.O",
    "officeType": "B.O",
    "Deliverystatus": "Delivery",
    "divisionname": "Patan",
    "regionname": "Ahmedabad HQ",
    "circlename": "Gujarat",
    "Taluk": "Sami",
    "Districtname": "Patan",
    "statename": "GUJARAT"
  },
  {
    "pincode": "384245",
    "officename": "Anvarpura B.O",
    "officeType": "B.O",
    "Deliverystatus": "Delivery",
    "divisionname": "Patan",
    "regionname": "Ahmedabad HQ",
    "circlename": "Gujarat",
    "Taluk": "Sami",
    "Districtname": "Patan",
    "statename": "GUJARAT"
  },
  {
    "pincode": "384245",
    "officename": "Baspa B.O",
    "officeType": "B.O",
    "Deliverystatus": "Delivery",
    "divisionname": "Patan",
    "regionname": "Ahmedabad HQ",
    "circlename": "Gujarat",
    "Taluk": "Sami",
    "Districtname": "Patan",
    "statename": "GUJARAT"
  },
  {
    "pincode": "384245",
    "officename": "Bhadrada B.O",
    "officeType": "B.O",
    "Deliverystatus": "Delivery",
    "divisionname": "Patan",
    "regionname": "Ahmedabad HQ",
    "circlename": "Gujarat",
    "Taluk": "Sami",
    "Districtname": "Patan",
    "statename": "GUJARAT"
  },
  {
    "pincode": "384245",
    "officename": "Chandur Nani B.O",
    "officeType": "B.O",
    "Deliverystatus": "Delivery",
    "divisionname": "Patan",
    "regionname": "Ahmedabad HQ",
    "circlename": "Gujarat",
    "Taluk": "Sami",
    "Districtname": "Patan",
    "statename": "GUJARAT"
  },
  {
    "pincode": "384245",
    "officename": "Dadar B.O",
    "officeType": "B.O",
    "Deliverystatus": "Delivery",
    "divisionname": "Patan",
    "regionname": "Ahmedabad HQ",
    "circlename": "Gujarat",
    "Taluk": "Sami",
    "Districtname": "Patan",
    "statename": "GUJARAT"
  },
  {
    "pincode": "384245",
    "officename": "Daudpur B.O",
    "officeType": "B.O",
    "Deliverystatus": "Delivery",
    "divisionname": "Patan",
    "regionname": "Ahmedabad HQ",
    "circlename": "Gujarat",
    "Taluk": "Sami",
    "Districtname": "Patan",
    "statename": "GUJARAT"
  },
  {
    "pincode": "384245",
    "officename": "Dudkha B.O",
    "officeType": "B.O",
    "Deliverystatus": "Delivery",
    "divisionname": "Patan",
    "regionname": "Ahmedabad HQ",
    "circlename": "Gujarat",
    "Taluk": "Sami",
    "Districtname": "Patan",
    "statename": "GUJARAT"
  },
  {
    "pincode": "384245",
    "officename": "Gajdinpura B.O",
    "officeType": "B.O",
    "Deliverystatus": "Delivery",
    "divisionname": "Patan",
    "regionname": "Ahmedabad HQ",
    "circlename": "Gujarat",
    "Taluk": "Sami",
    "Districtname": "Patan",
    "statename": "GUJARAT"
  },
  {
    "pincode": "384245",
    "officename": "Gujarwada B.O",
    "officeType": "B.O",
    "Deliverystatus": "Delivery",
    "divisionname": "Patan",
    "regionname": "Ahmedabad HQ",
    "circlename": "Gujarat",
    "Taluk": "Sami",
    "Districtname": "Patan",
    "statename": "GUJARAT"
  },
  {
    "pincode": "384245",
    "officename": "Kanij B.O",
    "officeType": "B.O",
    "Deliverystatus": "Delivery",
    "divisionname": "Patan",
    "regionname": "Ahmedabad HQ",
    "circlename": "Gujarat",
    "Taluk": "Sami",
    "Districtname": "Patan",
    "statename": "GUJARAT"
  },
  {
    "pincode": "384245",
    "officename": "Mandvi B.O",
    "officeType": "B.O",
    "Deliverystatus": "Delivery",
    "divisionname": "Patan",
    "regionname": "Ahmedabad HQ",
    "circlename": "Gujarat",
    "Taluk": "Sami",
    "Districtname": "Patan",
    "statename": "GUJARAT"
  },
  {
    "pincode": "384245",
    "officename": "Mota Joravarpura B.O",
    "officeType": "B.O",
    "Deliverystatus": "Delivery",
    "divisionname": "Patan",
    "regionname": "Ahmedabad HQ",
    "circlename": "Gujarat",
    "Taluk": "Sami",
    "Districtname": "Patan",
    "statename": "GUJARAT"
  },
  {
    "pincode": "384245",
    "officename": "Nayka B.O",
    "officeType": "B.O",
    "Deliverystatus": "Delivery",
    "divisionname": "Patan",
    "regionname": "Ahmedabad HQ",
    "circlename": "Gujarat",
    "Taluk": "Sami",
    "Districtname": "Patan",
    "statename": "GUJARAT"
  },
  {
    "pincode": "384245",
    "officename": "Rafu B.O",
    "officeType": "B.O",
    "Deliverystatus": "Delivery",
    "divisionname": "Patan",
    "regionname": "Ahmedabad HQ",
    "circlename": "Gujarat",
    "Taluk": "Sami",
    "Districtname": "Patan",
    "statename": "GUJARAT"
  },
  {
    "pincode": "384245",
    "officename": "Ranavada B.O",
    "officeType": "B.O",
    "Deliverystatus": "Delivery",
    "divisionname": "Patan",
    "regionname": "Ahmedabad HQ",
    "circlename": "Gujarat",
    "Taluk": "Harij",
    "Districtname": "Patan",
    "statename": "GUJARAT"
  },
  {
    "pincode": "384245",
    "officename": "Sami S.O",
    "officeType": "S.O",
    "Deliverystatus": "Delivery",
    "divisionname": "Patan",
    "regionname": "Ahmedabad HQ",
    "circlename": "Gujarat",
    "Taluk": "Sami",
    "Districtname": "Patan",
    "statename": "GUJARAT"
  },
  {
    "pincode": "384245",
    "officename": "Samsherpura B.O",
    "officeType": "B.O",
    "Deliverystatus": "Delivery",
    "divisionname": "Patan",
    "regionname": "Ahmedabad HQ",
    "circlename": "Gujarat",
    "Taluk": "Sami",
    "Districtname": "Patan",
    "statename": "GUJARAT"
  },
  {
    "pincode": "384245",
    "officename": "Varana B.O",
    "officeType": "B.O",
    "Deliverystatus": "Delivery",
    "divisionname": "Patan",
    "regionname": "Ahmedabad HQ",
    "circlename": "Gujarat",
    "Taluk": "Sami",
    "Districtname": "Patan",
    "statename": "GUJARAT"
  },
  {
    "pincode": "384245",
    "officename": "Ved B.O",
    "officeType": "B.O",
    "Deliverystatus": "Delivery",
    "divisionname": "Patan",
    "regionname": "Ahmedabad HQ",
    "circlename": "Gujarat",
    "Taluk": "Sami",
    "Districtname": "Patan",
    "statename": "GUJARAT"
  },
  {
    "pincode": "384245",
    "officename": "Zilvana B.O",
    "officeType": "B.O",
    "Deliverystatus": "Delivery",
    "divisionname": "Patan",
    "regionname": "Ahmedabad HQ",
    "circlename": "Gujarat",
    "Taluk": "Sami",
    "Districtname": "Patan",
    "statename": "GUJARAT"
  }
]
