[
  {
    "pincode": "384220",
    "officename": "Brahmanwada B.O",
    "officeType": "B.O",
    "Deliverystatus": "Delivery",
    "divisionname": "Patan",
    "regionname": "Ahmedabad HQ",
    "circlename": "Gujarat",
    "Taluk": "Chanasma",
    "Districtname": "Patan",
    "statename": "GUJARAT"
  },
  {
    "pincode": "384220",
    "officename": "Chanasma S.O",
    "officeType": "S.O",
    "Deliverystatus": "Delivery",
    "divisionname": "Patan",
    "regionname": "Ahmedabad HQ",
    "circlename": "Gujarat",
    "Taluk": "Chanasma",
    "Districtname": "Patan",
    "statename": "GUJARAT"
  },
  {
    "pincode": "384220",
    "officename": "Dhanodharda B.O",
    "officeType": "B.O",
    "Deliverystatus": "Delivery",
    "divisionname": "Patan",
    "regionname": "Ahmedabad HQ",
    "circlename": "Gujarat",
    "Taluk": "Chanasma",
    "Districtname": "Patan",
    "statename": "GUJARAT"
  },
  {
    "pincode": "384220",
    "officename": "Dharmoda B.O",
    "officeType": "B.O",
    "Deliverystatus": "Delivery",
    "divisionname": "Patan",
    "regionname": "Ahmedabad HQ",
    "circlename": "Gujarat",
    "Taluk": "Chanasma",
    "Districtname": "Patan",
    "statename": "GUJARAT"
  },
  {
    "pincode": "384220",
    "officename": "Jakhana B.O",
    "officeType": "B.O",
    "Deliverystatus": "Delivery",
    "divisionname": "Patan",
    "regionname": "Ahmedabad HQ",
    "circlename": "Gujarat",
    "Taluk": "Chanasma",
    "Districtname": "Patan",
    "statename": "GUJARAT"
  },
  {
    "pincode": "384220",
    "officename": "Jitoda B.O",
    "officeType": "B.O",
    "Deliverystatus": "Delivery",
    "divisionname": "Patan",
    "regionname": "Ahmedabad HQ",
    "circlename": "Gujarat",
    "Taluk": "Chanasma",
    "Districtname": "Patan",
    "statename": "GUJARAT"
  },
  {
    "pincode": "384220",
    "officename": "Khorsam B.O",
    "officeType": "B.O",
    "Deliverystatus": "Delivery",
    "divisionname": "Patan",
    "regionname": "Ahmedabad HQ",
    "circlename": "Gujarat",
    "Taluk": "Chanasma",
    "Districtname": "Patan",
    "statename": "GUJARAT"
  },
  {
    "pincode": "384220",
    "officename": "Mithi Vavdi B.O",
    "officeType": "B.O",
    "Deliverystatus": "Delivery",
    "divisionname": "Patan",
    "regionname": "Ahmedabad HQ",
    "circlename": "Gujarat",
    "Taluk": "Patan",
    "Districtname": "Patan",
    "statename": "GUJARAT"
  },
  {
    "pincode": "384220",
    "officename": "Ruppur B.O",
    "officeType": "B.O",
    "Deliverystatus": "Delivery",
    "divisionname": "Patan",
    "regionname": "Ahmedabad HQ",
    "circlename": "Gujarat",
    "Taluk": "Chanasma",
    "Districtname": "Patan",
    "statename": "GUJARAT"
  },
  {
    "pincode": "384220",
    "officename": "Sevala B.O",
    "officeType": "B.O",
    "Deliverystatus": "Delivery",
    "divisionname": "Patan",
    "regionname": "Ahmedabad HQ",
    "circlename": "Gujarat",
    "Taluk": "Chanasma",
    "Districtname": "Patan",
    "statename": "GUJARAT"
  }
]
