[
  {
    "pincode": "384265",
    "officename": "Aghar B.O",
    "officeType": "B.O",
    "Deliverystatus": "Delivery",
    "divisionname": "Patan",
    "regionname": "Ahmedabad HQ",
    "circlename": "Gujarat",
    "Taluk": "Patan",
    "Districtname": "Patan",
    "statename": "GUJARAT"
  },
  {
    "pincode": "384265",
    "officename": "Ajimana B.O",
    "officeType": "B.O",
    "Deliverystatus": "Delivery",
    "divisionname": "Patan",
    "regionname": "Ahmedabad HQ",
    "circlename": "Gujarat",
    "Taluk": "Patan",
    "Districtname": "Patan",
    "statename": "GUJARAT"
  },
  {
    "pincode": "384265",
    "officename": "Anawada B.O",
    "officeType": "B.O",
    "Deliverystatus": "Delivery",
    "divisionname": "Patan",
    "regionname": "Ahmedabad HQ",
    "circlename": "Gujarat",
    "Taluk": "Patan",
    "Districtname": "Patan",
    "statename": "GUJARAT"
  },
  {
    "pincode": "384265",
    "officename": "Dasawada B.O",
    "officeType": "B.O",
    "Deliverystatus": "Delivery",
    "divisionname": "Patan",
    "regionname": "Ahmedabad HQ",
    "circlename": "Gujarat",
    "Taluk": "Sidhpur",
    "Districtname": "Patan",
    "statename": "GUJARAT"
  },
  {
    "pincode": "384265",
    "officename": "Dhanawada B.O",
    "officeType": "B.O",
    "Deliverystatus": "Delivery",
    "divisionname": "Patan",
    "regionname": "Ahmedabad HQ",
    "circlename": "Gujarat",
    "Taluk": "Sidhpur",
    "Districtname": "Patan",
    "statename": "GUJARAT"
  },
  {
    "pincode": "384265",
    "officename": "Dharnoj B.O",
    "officeType": "B.O",
    "Deliverystatus": "Delivery",
    "divisionname": "Patan",
    "regionname": "Ahmedabad HQ",
    "circlename": "Gujarat",
    "Taluk": "Patan",
    "Districtname": "Patan",
    "statename": "GUJARAT"
  },
  {
    "pincode": "384265",
    "officename": "Dharpur B.O",
    "officeType": "B.O",
    "Deliverystatus": "Delivery",
    "divisionname": "Patan",
    "regionname": "Ahmedabad HQ",
    "circlename": "Gujarat",
    "Taluk": "Patan",
    "Districtname": "Patan",
    "statename": "GUJARAT"
  },
  {
    "pincode": "384265",
    "officename": "Dunawada B.O",
    "officeType": "B.O",
    "Deliverystatus": "Delivery",
    "divisionname": "Patan",
    "regionname": "Ahmedabad HQ",
    "circlename": "Gujarat",
    "Taluk": "Harij",
    "Districtname": "Patan",
    "statename": "GUJARAT"
  },
  {
    "pincode": "384265",
    "officename": "Hansapur B.O",
    "officeType": "B.O",
    "Deliverystatus": "Delivery",
    "divisionname": "Patan",
    "regionname": "Ahmedabad HQ",
    "circlename": "Gujarat",
    "Taluk": "Patan",
    "Districtname": "Patan",
    "statename": "GUJARAT"
  },
  {
    "pincode": "384265",
    "officename": "Kalyana B.O",
    "officeType": "B.O",
    "Deliverystatus": "Delivery",
    "divisionname": "Patan",
    "regionname": "Ahmedabad HQ",
    "circlename": "Gujarat",
    "Taluk": "Sidhpur",
    "Districtname": "Patan",
    "statename": "GUJARAT"
  },
  {
    "pincode": "384265",
    "officename": "Kamliwada B.O",
    "officeType": "B.O",
    "Deliverystatus": "Delivery",
    "divisionname": "Patan",
    "regionname": "Ahmedabad HQ",
    "circlename": "Gujarat",
    "Taluk": "Patan",
    "Districtname": "Patan",
    "statename": "GUJARAT"
  },
  {
    "pincode": "384265",
    "officename": "Kansa B.O",
    "officeType": "B.O",
    "Deliverystatus": "Delivery",
    "divisionname": "Patan",
    "regionname": "Ahmedabad HQ",
    "circlename": "Gujarat",
    "Taluk": "Patan",
    "Districtname": "Patan",
    "statename": "GUJARAT"
  },
  {
    "pincode": "384265",
    "officename": "Katra (Samal) B.O",
    "officeType": "B.O",
    "Deliverystatus": "Delivery",
    "divisionname": "Patan",
    "regionname": "Ahmedabad HQ",
    "circlename": "Gujarat",
    "Taluk": "Patan",
    "Districtname": "Patan",
    "statename": "GUJARAT"
  },
  {
    "pincode": "384265",
    "officename": "Kotavad B.O",
    "officeType": "B.O",
    "Deliverystatus": "Delivery",
    "divisionname": "Patan",
    "regionname": "Ahmedabad HQ",
    "circlename": "Gujarat",
    "Taluk": "Patan",
    "Districtname": "Patan",
    "statename": "GUJARAT"
  },
  {
    "pincode": "384265",
    "officename": "Kunwara B.O",
    "officeType": "B.O",
    "Deliverystatus": "Delivery",
    "divisionname": "Patan",
    "regionname": "Ahmedabad HQ",
    "circlename": "Gujarat",
    "Taluk": "Sidhpur",
    "Districtname": "Patan",
    "statename": "GUJARAT"
  },
  {
    "pincode": "384265",
    "officename": "Mesar B.O",
    "officeType": "B.O",
    "Deliverystatus": "Delivery",
    "divisionname": "Patan",
    "regionname": "Ahmedabad HQ",
    "circlename": "Gujarat",
    "Taluk": "Patan",
    "Districtname": "Patan",
    "statename": "GUJARAT"
  },
  {
    "pincode": "384265",
    "officename": "Nayta B.O",
    "officeType": "B.O",
    "Deliverystatus": "Delivery",
    "divisionname": "Patan",
    "regionname": "Ahmedabad HQ",
    "circlename": "Gujarat",
    "Taluk": "Patan",
    "Districtname": "Patan",
    "statename": "GUJARAT"
  },
  {
    "pincode": "384265",
    "officename": "Odhva B.O",
    "officeType": "B.O",
    "Deliverystatus": "Delivery",
    "divisionname": "Patan",
    "regionname": "Ahmedabad HQ",
    "circlename": "Gujarat",
    "Taluk": "Patan",
    "Districtname": "Patan",
    "statename": "GUJARAT"
  },
  {
    "pincode": "384265",
    "officename": "Pachakvada B.O",
    "officeType": "B.O",
    "Deliverystatus": "Delivery",
    "divisionname": "Patan",
    "regionname": "Ahmedabad HQ",
    "circlename": "Gujarat",
    "Taluk": "Sidhpur",
    "Districtname": "Patan",
    "statename": "GUJARAT"
  },
  {
    "pincode": "384265",
    "officename": "Patan City S.O",
    "officeType": "S.O",
    "Deliverystatus": "Non-Delivery",
    "divisionname": "Patan",
    "regionname": "Ahmedabad HQ",
    "circlename": "Gujarat",
    "Taluk": "Patan",
    "Districtname": "Patan",
    "statename": "GUJARAT"
  },
  {
    "pincode": "384265",
    "officename": "Patan H N G University S.O",
    "officeType": "S.O",
    "Deliverystatus": "Non-Delivery",
    "divisionname": "Patan",
    "regionname": "Ahmedabad HQ",
    "circlename": "Gujarat",
    "Taluk": "Patan",
    "Districtname": "Patan",
    "statename": "GUJARAT"
  },
  {
    "pincode": "384265",
    "officename": "Patan H.O",
    "officeType": "H.O",
    "Deliverystatus": "Delivery",
    "divisionname": "Patan",
    "regionname": "Ahmedabad HQ",
    "circlename": "Gujarat",
    "Taluk": "Patan",
    "Districtname": "Patan",
    "statename": "GUJARAT"
  },
  {
    "pincode": "384265",
    "officename": "Patan Rajkawada S.O",
    "officeType": "S.O",
    "Deliverystatus": "Non-Delivery",
    "divisionname": "Patan",
    "regionname": "Ahmedabad HQ",
    "circlename": "Gujarat",
    "Taluk": "Patan",
    "Districtname": "Patan",
    "statename": "GUJARAT"
  },
  {
    "pincode": "384265",
    "officename": "Patan Siddhraj Road S.O",
    "officeType": "S.O",
    "Deliverystatus": "Non-Delivery",
    "divisionname": "Patan",
    "regionname": "Ahmedabad HQ",
    "circlename": "Gujarat",
    "Taluk": "Patan",
    "Districtname": "Patan",
    "statename": "GUJARAT"
  },
  {
    "pincode": "384265",
    "officename": "Patan Three Gate S.O",
    "officeType": "S.O",
    "Deliverystatus": "Non-Delivery",
    "divisionname": "Patan",
    "regionname": "Ahmedabad HQ",
    "circlename": "Gujarat",
    "Taluk": "Patan",
    "Districtname": "Patan",
    "statename": "GUJARAT"
  },
  {
    "pincode": "384265",
    "officename": "Rajpur B.O",
    "officeType": "B.O",
    "Deliverystatus": "Delivery",
    "divisionname": "Patan",
    "regionname": "Ahmedabad HQ",
    "circlename": "Gujarat",
    "Taluk": "Patan",
    "Districtname": "Patan",
    "statename": "GUJARAT"
  },
  {
    "pincode": "384265",
    "officename": "Rampura B.O",
    "officeType": "B.O",
    "Deliverystatus": "Delivery",
    "divisionname": "Patan",
    "regionname": "Ahmedabad HQ",
    "circlename": "Gujarat",
    "Taluk": "Patan",
    "Districtname": "Patan",
    "statename": "GUJARAT"
  },
  {
    "pincode": "384265",
    "officename": "Runi B.O",
    "officeType": "B.O",
    "Deliverystatus": "Delivery",
    "divisionname": "Patan",
    "regionname": "Ahmedabad HQ",
    "circlename": "Gujarat",
    "Taluk": "Patan",
    "Districtname": "Patan",
    "statename": "GUJARAT"
  },
  {
    "pincode": "384265",
    "officename": "Sagodiya B.O",
    "officeType": "B.O",
    "Deliverystatus": "Delivery",
    "divisionname": "Patan",
    "regionname": "Ahmedabad HQ",
    "circlename": "Gujarat",
    "Taluk": "Patan",
    "Districtname": "Patan",
    "statename": "GUJARAT"
  },
  {
    "pincode": "384265",
    "officename": "Sujnipur B.O",
    "officeType": "B.O",
    "Deliverystatus": "Delivery",
    "divisionname": "Patan",
    "regionname": "Ahmedabad HQ",
    "circlename": "Gujarat",
    "Taluk": "Patan",
    "Districtname": "Patan",
    "statename": "GUJARAT"
  },
  {
    "pincode": "384265",
    "officename": "Vadli B.O",
    "officeType": "B.O",
    "Deliverystatus": "Delivery",
    "divisionname": "Patan",
    "regionname": "Ahmedabad HQ",
    "circlename": "Gujarat",
    "Taluk": "Patan",
    "Districtname": "Patan",
    "statename": "GUJARAT"
  },
  {
    "pincode": "384265",
    "officename": "Vamaiya B.O",
    "officeType": "B.O",
    "Deliverystatus": "Delivery",
    "divisionname": "Patan",
    "regionname": "Ahmedabad HQ",
    "circlename": "Gujarat",
    "Taluk": "Patan",
    "Districtname": "Patan",
    "statename": "GUJARAT"
  }
]
