[
  {
    "pincode": "384330",
    "officename": "Ankaliyara B.O",
    "officeType": "B.O",
    "Deliverystatus": "Delivery",
    "divisionname": "Mahesana",
    "regionname": "Ahmedabad HQ",
    "circlename": "Gujarat",
    "Taluk": "Satlasana",
    "Districtname": "Mahesana",
    "statename": "GUJARAT"
  },
  {
    "pincode": "384330",
    "officename": "Bedasma Mumanvas B.O",
    "officeType": "B.O",
    "Deliverystatus": "Delivery",
    "divisionname": "Mahesana",
    "regionname": "Ahmedabad HQ",
    "circlename": "Gujarat",
    "Taluk": "Satlasana",
    "Districtname": "Mahesana",
    "statename": "GUJARAT"
  },
  {
    "pincode": "384330",
    "officename": "Bhalusana B.O",
    "officeType": "B.O",
    "Deliverystatus": "Delivery",
    "divisionname": "Mahesana",
    "regionname": "Ahmedabad HQ",
    "circlename": "Gujarat",
    "Taluk": "Satlasana",
    "Districtname": "Mahesana",
    "statename": "GUJARAT"
  },
  {
    "pincode": "384330",
    "officename": "Bhatvas B.O",
    "officeType": "B.O",
    "Deliverystatus": "Delivery",
    "divisionname": "Mahesana",
    "regionname": "Ahmedabad HQ",
    "circlename": "Gujarat",
    "Taluk": "Satalasana",
    "Districtname": "Mahesana",
    "statename": "GUJARAT"
  },
  {
    "pincode": "384330",
    "officename": "Bhimpura B.O",
    "officeType": "B.O",
    "Deliverystatus": "Delivery",
    "divisionname": "Mahesana",
    "regionname": "Ahmedabad HQ",
    "circlename": "Gujarat",
    "Taluk": "Satlasana",
    "Districtname": "Mahesana",
    "statename": "GUJARAT"
  },
  {
    "pincode": "384330",
    "officename": "Gothada B.O",
    "officeType": "B.O",
    "Deliverystatus": "Delivery",
    "divisionname": "Mahesana",
    "regionname": "Ahmedabad HQ",
    "circlename": "Gujarat",
    "Taluk": "Satlasana",
    "Districtname": "Mahesana",
    "statename": "GUJARAT"
  },
  {
    "pincode": "384330",
    "officename": "Kothasana B.O",
    "officeType": "B.O",
    "Deliverystatus": "Delivery",
    "divisionname": "Mahesana",
    "regionname": "Ahmedabad HQ",
    "circlename": "Gujarat",
    "Taluk": "Satlasana",
    "Districtname": "Mahesana",
    "statename": "GUJARAT"
  },
  {
    "pincode": "384330",
    "officename": "Moti Bhalu B.O",
    "officeType": "B.O",
    "Deliverystatus": "Delivery",
    "divisionname": "Mahesana",
    "regionname": "Ahmedabad HQ",
    "circlename": "Gujarat",
    "Taluk": "Satlasana",
    "Districtname": "Mahesana",
    "statename": "GUJARAT"
  },
  {
    "pincode": "384330",
    "officename": "Sartanpur B.O",
    "officeType": "B.O",
    "Deliverystatus": "Delivery",
    "divisionname": "Mahesana",
    "regionname": "Ahmedabad HQ",
    "circlename": "Gujarat",
    "Taluk": "Satlasana",
    "Districtname": "Mahesana",
    "statename": "GUJARAT"
  },
  {
    "pincode": "384330",
    "officename": "Satlasana S.O",
    "officeType": "S.O",
    "Deliverystatus": "Delivery",
    "divisionname": "Mahesana",
    "regionname": "Ahmedabad HQ",
    "circlename": "Gujarat",
    "Taluk": "Satlasana",
    "Districtname": "Mahesana",
    "statename": "GUJARAT"
  },
  {
    "pincode": "384330",
    "officename": "Tarangaji Temple B.O",
    "officeType": "B.O",
    "Deliverystatus": "Delivery",
    "divisionname": "Mahesana",
    "regionname": "Ahmedabad HQ",
    "circlename": "Gujarat",
    "Taluk": "Satlasana",
    "Districtname": "Mahesana",
    "statename": "GUJARAT"
  },
  {
    "pincode": "384330",
    "officename": "Timba B.O",
    "officeType": "B.O",
    "Deliverystatus": "Delivery",
    "divisionname": "Mahesana",
    "regionname": "Ahmedabad HQ",
    "circlename": "Gujarat",
    "Taluk": "Satlasana",
    "Districtname": "Mahesana",
    "statename": "GUJARAT"
  }
]
