[
  {
    "pincode": "384315",
    "officename": "Bhalak B.O",
    "officeType": "B.O",
    "Deliverystatus": "Delivery",
    "divisionname": "Mahesana",
    "regionname": "Ahmedabad HQ",
    "circlename": "Gujarat",
    "Taluk": "Visnagar",
    "Districtname": "Mahesana",
    "statename": "GUJARAT"
  },
  {
    "pincode": "384315",
    "officename": "Denap B.O",
    "officeType": "B.O",
    "Deliverystatus": "Delivery",
    "divisionname": "Mahesana",
    "regionname": "Ahmedabad HQ",
    "circlename": "Gujarat",
    "Taluk": "Visnagar",
    "Districtname": "Mahesana",
    "statename": "GUJARAT"
  },
  {
    "pincode": "384315",
    "officename": "Gothva B.O",
    "officeType": "B.O",
    "Deliverystatus": "Delivery",
    "divisionname": "Mahesana",
    "regionname": "Ahmedabad HQ",
    "circlename": "Gujarat",
    "Taluk": "Visnagar",
    "Districtname": "Mahesana",
    "statename": "GUJARAT"
  },
  {
    "pincode": "384315",
    "officename": "Gunja B.O",
    "officeType": "B.O",
    "Deliverystatus": "Delivery",
    "divisionname": "Mahesana",
    "regionname": "Ahmedabad HQ",
    "circlename": "Gujarat",
    "Taluk": "Visnagar",
    "Districtname": "Mahesana",
    "statename": "GUJARAT"
  },
  {
    "pincode": "384315",
    "officename": "Jaska B.O",
    "officeType": "B.O",
    "Deliverystatus": "Delivery",
    "divisionname": "Mahesana",
    "regionname": "Ahmedabad HQ",
    "circlename": "Gujarat",
    "Taluk": "Visnagar",
    "Districtname": "Mahesana",
    "statename": "GUJARAT"
  },
  {
    "pincode": "384315",
    "officename": "Kamana B.O",
    "officeType": "B.O",
    "Deliverystatus": "Delivery",
    "divisionname": "Mahesana",
    "regionname": "Ahmedabad HQ",
    "circlename": "Gujarat",
    "Taluk": "Visnagar",
    "Districtname": "Mahesana",
    "statename": "GUJARAT"
  },
  {
    "pincode": "384315",
    "officename": "Kansa B.O",
    "officeType": "B.O",
    "Deliverystatus": "Delivery",
    "divisionname": "Mahesana",
    "regionname": "Ahmedabad HQ",
    "circlename": "Gujarat",
    "Taluk": "Visnagar",
    "Districtname": "Mahesana",
    "statename": "GUJARAT"
  },
  {
    "pincode": "384315",
    "officename": "Kuvasana B.O",
    "officeType": "B.O",
    "Deliverystatus": "Delivery",
    "divisionname": "Mahesana",
    "regionname": "Ahmedabad HQ",
    "circlename": "Gujarat",
    "Taluk": "Visnagar",
    "Districtname": "Mahesana",
    "statename": "GUJARAT"
  },
  {
    "pincode": "384315",
    "officename": "Laxmipura B.O",
    "officeType": "B.O",
    "Deliverystatus": "Delivery",
    "divisionname": "Mahesana",
    "regionname": "Ahmedabad HQ",
    "circlename": "Gujarat",
    "Taluk": "Visnagar",
    "Districtname": "Mahesana",
    "statename": "GUJARAT"
  },
  {
    "pincode": "384315",
    "officename": "Paladi B.O",
    "officeType": "B.O",
    "Deliverystatus": "Delivery",
    "divisionname": "Mahesana",
    "regionname": "Ahmedabad HQ",
    "circlename": "Gujarat",
    "Taluk": "Visnagar",
    "Districtname": "Mahesana",
    "statename": "GUJARAT"
  },
  {
    "pincode": "384315",
    "officename": "Rajgadh B.O",
    "officeType": "B.O",
    "Deliverystatus": "Delivery",
    "divisionname": "Mahesana",
    "regionname": "Ahmedabad HQ",
    "circlename": "Gujarat",
    "Taluk": "Visnagar",
    "Districtname": "Mahesana",
    "statename": "GUJARAT"
  },
  {
    "pincode": "384315",
    "officename": "Ralisana B.O",
    "officeType": "B.O",
    "Deliverystatus": "Delivery",
    "divisionname": "Mahesana",
    "regionname": "Ahmedabad HQ",
    "circlename": "Gujarat",
    "Taluk": "Visnagar",
    "Districtname": "Mahesana",
    "statename": "GUJARAT"
  },
  {
    "pincode": "384315",
    "officename": "Rangakui B.O",
    "officeType": "B.O",
    "Deliverystatus": "Delivery",
    "divisionname": "Mahesana",
    "regionname": "Ahmedabad HQ",
    "circlename": "Gujarat",
    "Taluk": "Visnagar",
    "Districtname": "Mahesana",
    "statename": "GUJARAT"
  },
  {
    "pincode": "384315",
    "officename": "Saduthala B.O",
    "officeType": "B.O",
    "Deliverystatus": "Delivery",
    "divisionname": "Mahesana",
    "regionname": "Ahmedabad HQ",
    "circlename": "Gujarat",
    "Taluk": "Visnagar",
    "Districtname": "Mahesana",
    "statename": "GUJARAT"
  },
  {
    "pincode": "384315",
    "officename": "Visnagar Collage(Urban) B.O",
    "officeType": "B.O",
    "Deliverystatus": "Non-Delivery",
    "divisionname": "Mahesana",
    "regionname": "Ahmedabad HQ",
    "circlename": "Gujarat",
    "Taluk": "Visnagar",
    "Districtname": "Mahesana",
    "statename": "GUJARAT"
  },
  {
    "pincode": "384315",
    "officename": "Visnagar Market Yard S.O",
    "officeType": "S.O",
    "Deliverystatus": "Non-Delivery",
    "divisionname": "Mahesana",
    "regionname": "Ahmedabad HQ",
    "circlename": "Gujarat",
    "Taluk": "Visnagar",
    "Districtname": "Mahesana",
    "statename": "GUJARAT"
  },
  {
    "pincode": "384315",
    "officename": "Visnagar S.O",
    "officeType": "S.O",
    "Deliverystatus": "Delivery",
    "divisionname": "Mahesana",
    "regionname": "Ahmedabad HQ",
    "circlename": "Gujarat",
    "Taluk": "Visnagar",
    "Districtname": "Mahesana",
    "statename": "GUJARAT"
  },
  {
    "pincode": "384315",
    "officename": "Visnagar Station Road S.O",
    "officeType": "S.O",
    "Deliverystatus": "Non-Delivery",
    "divisionname": "Mahesana",
    "regionname": "Ahmedabad HQ",
    "circlename": "Gujarat",
    "Taluk": "Visnagar",
    "Districtname": "Mahesana",
    "statename": "GUJARAT"
  }
]
