[
  {
    "pincode": "384335",
    "officename": "Ambavada B.O",
    "officeType": "B.O",
    "Deliverystatus": "Delivery",
    "divisionname": "Mahesana",
    "regionname": "Ahmedabad HQ",
    "circlename": "Gujarat",
    "Taluk": "Kheralu",
    "Districtname": "Mahesana",
    "statename": "GUJARAT"
  },
  {
    "pincode": "384335",
    "officename": "Gorisana B.O",
    "officeType": "B.O",
    "Deliverystatus": "Delivery",
    "divisionname": "Mahesana",
    "regionname": "Ahmedabad HQ",
    "circlename": "Gujarat",
    "Taluk": "Kheralu",
    "Districtname": "Mahesana",
    "statename": "GUJARAT"
  },
  {
    "pincode": "384335",
    "officename": "Karsanpura B.O",
    "officeType": "B.O",
    "Deliverystatus": "Delivery",
    "divisionname": "Mahesana",
    "regionname": "Ahmedabad HQ",
    "circlename": "Gujarat",
    "Taluk": "Kadi",
    "Districtname": "Mahesana",
    "statename": "GUJARAT"
  },
  {
    "pincode": "384335",
    "officename": "Madhasana B.O",
    "officeType": "B.O",
    "Deliverystatus": "Delivery",
    "divisionname": "Mahesana",
    "regionname": "Ahmedabad HQ",
    "circlename": "Gujarat",
    "Taluk": "Kheralu",
    "Districtname": "Mahesana",
    "statename": "GUJARAT"
  },
  {
    "pincode": "384335",
    "officename": "Sipor S.O",
    "officeType": "S.O",
    "Deliverystatus": "Delivery",
    "divisionname": "Mahesana",
    "regionname": "Ahmedabad HQ",
    "circlename": "Gujarat",
    "Taluk": "Vadnagar",
    "Districtname": "Mahesana",
    "statename": "GUJARAT"
  },
  {
    "pincode": "384335",
    "officename": "Sobhasan B.O",
    "officeType": "B.O",
    "Deliverystatus": "Delivery",
    "divisionname": "Mahesana",
    "regionname": "Ahmedabad HQ",
    "circlename": "Gujarat",
    "Taluk": "Vadnagar",
    "Districtname": "Mahesana",
    "statename": "GUJARAT"
  },
  {
    "pincode": "384335",
    "officename": "Unad B.O",
    "officeType": "B.O",
    "Deliverystatus": "Delivery",
    "divisionname": "Mahesana",
    "regionname": "Ahmedabad HQ",
    "circlename": "Gujarat",
    "Taluk": "Mahesana",
    "Districtname": "Mahesana",
    "statename": "GUJARAT"
  },
  {
    "pincode": "384335",
    "officename": "Undhai B.O",
    "officeType": "B.O",
    "Deliverystatus": "Delivery",
    "divisionname": "Mahesana",
    "regionname": "Ahmedabad HQ",
    "circlename": "Gujarat",
    "Taluk": "Vadnagar",
    "Districtname": "Mahesana",
    "statename": "GUJARAT"
  },
  {
    "pincode": "384335",
    "officename": "Vaghawadi B.O",
    "officeType": "B.O",
    "Deliverystatus": "Delivery",
    "divisionname": "Mahesana",
    "regionname": "Ahmedabad HQ",
    "circlename": "Gujarat",
    "Taluk": "Kheralu",
    "Districtname": "Mahesana",
    "statename": "GUJARAT"
  },
  {
    "pincode": "384335",
    "officename": "Valasana B.O",
    "officeType": "B.O",
    "Deliverystatus": "Delivery",
    "divisionname": "Mahesana",
    "regionname": "Ahmedabad HQ",
    "circlename": "Gujarat",
    "Taluk": "Vadnagar",
    "Districtname": "Mahesana",
    "statename": "GUJARAT"
  }
]
