[
  {
    "pincode": "385340",
    "officename": "Allahabad B.O",
    "officeType": "B.O",
    "Deliverystatus": "Delivery",
    "divisionname": "Patan",
    "regionname": "Ahmedabad HQ",
    "circlename": "Gujarat",
    "Taluk": "Radhanpur",
    "Districtname": "Patan",
    "statename": "GUJARAT"
  },
  {
    "pincode": "385340",
    "officename": "Arjansar B.O",
    "officeType": "B.O",
    "Deliverystatus": "Delivery",
    "divisionname": "Patan",
    "regionname": "Ahmedabad HQ",
    "circlename": "Gujarat",
    "Taluk": "Radhanpur",
    "Districtname": "Patan",
    "statename": "GUJARAT"
  },
  {
    "pincode": "385340",
    "officename": "Bandhvad B.O",
    "officeType": "B.O",
    "Deliverystatus": "Delivery",
    "divisionname": "Patan",
    "regionname": "Ahmedabad HQ",
    "circlename": "Gujarat",
    "Taluk": "Radhanpur",
    "Districtname": "Patan",
    "statename": "GUJARAT"
  },
  {
    "pincode": "385340",
    "officename": "Bhilot B.O",
    "officeType": "B.O",
    "Deliverystatus": "Delivery",
    "divisionname": "Patan",
    "regionname": "Ahmedabad HQ",
    "circlename": "Gujarat",
    "Taluk": "Radhanpur",
    "Districtname": "Patan",
    "statename": "GUJARAT"
  },
  {
    "pincode": "385340",
    "officename": "Chalvada B.O",
    "officeType": "B.O",
    "Deliverystatus": "Delivery",
    "divisionname": "Patan",
    "regionname": "Ahmedabad HQ",
    "circlename": "Gujarat",
    "Taluk": "Radhanpur",
    "Districtname": "Patan",
    "statename": "GUJARAT"
  },
  {
    "pincode": "385340",
    "officename": "D R.S. B.O",
    "officeType": "B.O",
    "Deliverystatus": "Delivery",
    "divisionname": "Patan",
    "regionname": "Ahmedabad HQ",
    "circlename": "Gujarat",
    "Taluk": "Radhanpur",
    "Districtname": "Patan",
    "statename": "GUJARAT"
  },
  {
    "pincode": "385340",
    "officename": "Dharvadi B.O",
    "officeType": "B.O",
    "Deliverystatus": "Delivery",
    "divisionname": "Patan",
    "regionname": "Ahmedabad HQ",
    "circlename": "Gujarat",
    "Taluk": "Radhanpur",
    "Districtname": "Patan",
    "statename": "GUJARAT"
  },
  {
    "pincode": "385340",
    "officename": "Ganjisar B.O",
    "officeType": "B.O",
    "Deliverystatus": "Delivery",
    "divisionname": "Patan",
    "regionname": "Ahmedabad HQ",
    "circlename": "Gujarat",
    "Taluk": "Santalpur",
    "Districtname": "Patan",
    "statename": "GUJARAT"
  },
  {
    "pincode": "385340",
    "officename": "Gochnath B.O",
    "officeType": "B.O",
    "Deliverystatus": "Delivery",
    "divisionname": "Patan",
    "regionname": "Ahmedabad HQ",
    "circlename": "Gujarat",
    "Taluk": "Sami",
    "Districtname": "Patan",
    "statename": "GUJARAT"
  },
  {
    "pincode": "385340",
    "officename": "Javantri B.O",
    "officeType": "B.O",
    "Deliverystatus": "Delivery",
    "divisionname": "Patan",
    "regionname": "Ahmedabad HQ",
    "circlename": "Gujarat",
    "Taluk": "Radhanpur",
    "Districtname": "Patan",
    "statename": "GUJARAT"
  },
  {
    "pincode": "385340",
    "officename": "Kamalpur (D) B.O",
    "officeType": "B.O",
    "Deliverystatus": "Delivery",
    "divisionname": "Patan",
    "regionname": "Ahmedabad HQ",
    "circlename": "Gujarat",
    "Taluk": "Radhanpur",
    "Districtname": "Patan",
    "statename": "GUJARAT"
  },
  {
    "pincode": "385340",
    "officename": "Kamalpur (S) B.O",
    "officeType": "B.O",
    "Deliverystatus": "Delivery",
    "divisionname": "Patan",
    "regionname": "Ahmedabad HQ",
    "circlename": "Gujarat",
    "Taluk": "Radhanpur",
    "Districtname": "Patan",
    "statename": "GUJARAT"
  },
  {
    "pincode": "385340",
    "officename": "Koliwada B.O",
    "officeType": "B.O",
    "Deliverystatus": "Delivery",
    "divisionname": "Patan",
    "regionname": "Ahmedabad HQ",
    "circlename": "Gujarat",
    "Taluk": "Santalpur",
    "Districtname": "Patan",
    "statename": "GUJARAT"
  },
  {
    "pincode": "385340",
    "officename": "Lodra B.O",
    "officeType": "B.O",
    "Deliverystatus": "Delivery",
    "divisionname": "Patan",
    "regionname": "Ahmedabad HQ",
    "circlename": "Gujarat",
    "Taluk": "Radhanpur",
    "Districtname": "Patan",
    "statename": "GUJARAT"
  },
  {
    "pincode": "385340",
    "officename": "Lotia B.O",
    "officeType": "B.O",
    "Deliverystatus": "Delivery",
    "divisionname": "Patan",
    "regionname": "Ahmedabad HQ",
    "circlename": "Gujarat",
    "Taluk": "Radhanpur",
    "Districtname": "Patan",
    "statename": "GUJARAT"
  },
  {
    "pincode": "385340",
    "officename": "Masali B.O",
    "officeType": "B.O",
    "Deliverystatus": "Delivery",
    "divisionname": "Patan",
    "regionname": "Ahmedabad HQ",
    "circlename": "Gujarat",
    "Taluk": "Radhanpur",
    "Districtname": "Patan",
    "statename": "GUJARAT"
  },
  {
    "pincode": "385340",
    "officename": "Memdavad B.O",
    "officeType": "B.O",
    "Deliverystatus": "Delivery",
    "divisionname": "Patan",
    "regionname": "Ahmedabad HQ",
    "circlename": "Gujarat",
    "Taluk": "Radhanpur",
    "Districtname": "Patan",
    "statename": "GUJARAT"
  },
  {
    "pincode": "385340",
    "officename": "Moti Pipli B.O",
    "officeType": "B.O",
    "Deliverystatus": "Delivery",
    "divisionname": "Patan",
    "regionname": "Ahmedabad HQ",
    "circlename": "Gujarat",
    "Taluk": "Radhanpur",
    "Districtname": "Patan",
    "statename": "GUJARAT"
  },
  {
    "pincode": "385340",
    "officename": "Nani Pipli B.O",
    "officeType": "B.O",
    "Deliverystatus": "Delivery",
    "divisionname": "Patan",
    "regionname": "Ahmedabad HQ",
    "circlename": "Gujarat",
    "Taluk": "Radhanpur",
    "Districtname": "Patan",
    "statename": "GUJARAT"
  },
  {
    "pincode": "385340",
    "officename": "Nanpura B.O",
    "officeType": "B.O",
    "Deliverystatus": "Delivery",
    "divisionname": "Patan",
    "regionname": "Ahmedabad HQ",
    "circlename": "Gujarat",
    "Taluk": "Radhanpur",
    "Districtname": "Patan",
    "statename": "GUJARAT"
  },
  {
    "pincode": "385340",
    "officename": "Radhanpur Rajgadhi S.O",
    "officeType": "S.O",
    "Deliverystatus": "Non-Delivery",
    "divisionname": "Patan",
    "regionname": "Ahmedabad HQ",
    "circlename": "Gujarat",
    "Taluk": "Radhanpur",
    "Districtname": "Patan",
    "statename": "GUJARAT"
  },
  {
    "pincode": "385340",
    "officename": "Radhanpur Rly Colony B.O",
    "officeType": "B.O",
    "Deliverystatus": "Delivery",
    "divisionname": "Patan",
    "regionname": "Ahmedabad HQ",
    "circlename": "Gujarat",
    "Taluk": "Radhanpur",
    "Districtname": "Patan",
    "statename": "GUJARAT"
  },
  {
    "pincode": "385340",
    "officename": "Radhanpur S.O",
    "officeType": "S.O",
    "Deliverystatus": "Delivery",
    "divisionname": "Patan",
    "regionname": "Ahmedabad HQ",
    "circlename": "Gujarat",
    "Taluk": "Radhanpur",
    "Districtname": "Patan",
    "statename": "GUJARAT"
  },
  {
    "pincode": "385340",
    "officename": "Santhli B.O",
    "officeType": "B.O",
    "Deliverystatus": "Delivery",
    "divisionname": "Patan",
    "regionname": "Ahmedabad HQ",
    "circlename": "Gujarat",
    "Taluk": "Radhanpur",
    "Districtname": "Patan",
    "statename": "GUJARAT"
  },
  {
    "pincode": "385340",
    "officename": "Satun B.O",
    "officeType": "B.O",
    "Deliverystatus": "Delivery",
    "divisionname": "Patan",
    "regionname": "Ahmedabad HQ",
    "circlename": "Gujarat",
    "Taluk": "Radhanpur",
    "Districtname": "Patan",
    "statename": "GUJARAT"
  },
  {
    "pincode": "385340",
    "officename": "Sinad B.O",
    "officeType": "B.O",
    "Deliverystatus": "Delivery",
    "divisionname": "Patan",
    "regionname": "Ahmedabad HQ",
    "circlename": "Gujarat",
    "Taluk": "Radhanpur",
    "Districtname": "Patan",
    "statename": "GUJARAT"
  },
  {
    "pincode": "385340",
    "officename": "Subapura B.O",
    "officeType": "B.O",
    "Deliverystatus": "Delivery",
    "divisionname": "Patan",
    "regionname": "Ahmedabad HQ",
    "circlename": "Gujarat",
    "Taluk": "Radhanpur",
    "Districtname": "Patan",
    "statename": "GUJARAT"
  }
]
