[
  {
    "pincode": "385320",
    "officename": "Balodhan B.O",
    "officeType": "B.O",
    "Deliverystatus": "Delivery",
    "divisionname": "Banasanktha",
    "regionname": "Ahmedabad HQ",
    "circlename": "Gujarat",
    "Taluk": "Bhabhar",
    "Districtname": "Banaskantha",
    "statename": "GUJARAT"
  },
  {
    "pincode": "385320",
    "officename": "Barwala B.O",
    "officeType": "B.O",
    "Deliverystatus": "Delivery",
    "divisionname": "Banasanktha",
    "regionname": "Ahmedabad HQ",
    "circlename": "Gujarat",
    "Taluk": "Bhabhar",
    "Districtname": "Banaskantha",
    "statename": "GUJARAT"
  },
  {
    "pincode": "385320",
    "officename": "Bhabhar S.O",
    "officeType": "S.O",
    "Deliverystatus": "Delivery",
    "divisionname": "Banasanktha",
    "regionname": "Ahmedabad HQ",
    "circlename": "Gujarat",
    "Taluk": "Bhabhar",
    "Districtname": "Banaskantha",
    "statename": "GUJARAT"
  },
  {
    "pincode": "385320",
    "officename": "Chatra B.O",
    "officeType": "B.O",
    "Deliverystatus": "Delivery",
    "divisionname": "Banasanktha",
    "regionname": "Ahmedabad HQ",
    "circlename": "Gujarat",
    "Taluk": "Bhabhar",
    "Districtname": "Banaskantha",
    "statename": "GUJARAT"
  },
  {
    "pincode": "385320",
    "officename": "Chembuva B.O",
    "officeType": "B.O",
    "Deliverystatus": "Delivery",
    "divisionname": "Banasanktha",
    "regionname": "Ahmedabad HQ",
    "circlename": "Gujarat",
    "Taluk": "Bhabhar",
    "Districtname": "Banaskantha",
    "statename": "GUJARAT"
  },
  {
    "pincode": "385320",
    "officename": "Dhrechana B.O",
    "officeType": "B.O",
    "Deliverystatus": "Delivery",
    "divisionname": "Banasanktha",
    "regionname": "Ahmedabad HQ",
    "circlename": "Gujarat",
    "Taluk": "Bhabhar",
    "Districtname": "Banaskantha",
    "statename": "GUJARAT"
  },
  {
    "pincode": "385320",
    "officename": "Eta B.O",
    "officeType": "B.O",
    "Deliverystatus": "Delivery",
    "divisionname": "Banasanktha",
    "regionname": "Ahmedabad HQ",
    "circlename": "Gujarat",
    "Taluk": "Bhabhar",
    "Districtname": "Banaskantha",
    "statename": "GUJARAT"
  },
  {
    "pincode": "385320",
    "officename": "Garambadi B.O",
    "officeType": "B.O",
    "Deliverystatus": "Delivery",
    "divisionname": "Banasanktha",
    "regionname": "Ahmedabad HQ",
    "circlename": "Gujarat",
    "Taluk": "Bhabhar",
    "Districtname": "Banaskantha",
    "statename": "GUJARAT"
  },
  {
    "pincode": "385320",
    "officename": "Jasanwada B.O",
    "officeType": "B.O",
    "Deliverystatus": "Delivery",
    "divisionname": "Banasanktha",
    "regionname": "Ahmedabad HQ",
    "circlename": "Gujarat",
    "Taluk": "Bhabhar",
    "Districtname": "Banaskantha",
    "statename": "GUJARAT"
  },
  {
    "pincode": "385320",
    "officename": "Katav B.O",
    "officeType": "B.O",
    "Deliverystatus": "Delivery",
    "divisionname": "Banasanktha",
    "regionname": "Ahmedabad HQ",
    "circlename": "Gujarat",
    "Taluk": "Bhabhar",
    "Districtname": "Banaskantha",
    "statename": "GUJARAT"
  },
  {
    "pincode": "385320",
    "officename": "Kuvala B.O",
    "officeType": "B.O",
    "Deliverystatus": "Delivery",
    "divisionname": "Banasanktha",
    "regionname": "Ahmedabad HQ",
    "circlename": "Gujarat",
    "Taluk": "Bhabhar",
    "Districtname": "Banaskantha",
    "statename": "GUJARAT"
  },
  {
    "pincode": "385320",
    "officename": "Madhpura B.O",
    "officeType": "B.O",
    "Deliverystatus": "Delivery",
    "divisionname": "Banasanktha",
    "regionname": "Ahmedabad HQ",
    "circlename": "Gujarat",
    "Taluk": "Bhabhar",
    "Districtname": "Banaskantha",
    "statename": "GUJARAT"
  },
  {
    "pincode": "385320",
    "officename": "Mitha B.O",
    "officeType": "B.O",
    "Deliverystatus": "Delivery",
    "divisionname": "Banasanktha",
    "regionname": "Ahmedabad HQ",
    "circlename": "Gujarat",
    "Taluk": "Bhabhar",
    "Districtname": "Banaskantha",
    "statename": "GUJARAT"
  },
  {
    "pincode": "385320",
    "officename": "Morwada B.O",
    "officeType": "B.O",
    "Deliverystatus": "Delivery",
    "divisionname": "Banasanktha",
    "regionname": "Ahmedabad HQ",
    "circlename": "Gujarat",
    "Taluk": "Bhabhar",
    "Districtname": "Banaskantha",
    "statename": "GUJARAT"
  },
  {
    "pincode": "385320",
    "officename": "Radka B.O",
    "officeType": "B.O",
    "Deliverystatus": "Delivery",
    "divisionname": "Banasanktha",
    "regionname": "Ahmedabad HQ",
    "circlename": "Gujarat",
    "Taluk": "Bhabhar",
    "Districtname": "Banaskantha",
    "statename": "GUJARAT"
  },
  {
    "pincode": "385320",
    "officename": "Runi B.O",
    "officeType": "B.O",
    "Deliverystatus": "Delivery",
    "divisionname": "Banasanktha",
    "regionname": "Ahmedabad HQ",
    "circlename": "Gujarat",
    "Taluk": "Bhabhar",
    "Districtname": "Banaskantha",
    "statename": "GUJARAT"
  },
  {
    "pincode": "385320",
    "officename": "Ruvel B.O",
    "officeType": "B.O",
    "Deliverystatus": "Delivery",
    "divisionname": "Banasanktha",
    "regionname": "Ahmedabad HQ",
    "circlename": "Gujarat",
    "Taluk": "Bhabhar",
    "Districtname": "Banaskantha",
    "statename": "GUJARAT"
  },
  {
    "pincode": "385320",
    "officename": "Soneth B.O",
    "officeType": "B.O",
    "Deliverystatus": "Delivery",
    "divisionname": "Banasanktha",
    "regionname": "Ahmedabad HQ",
    "circlename": "Gujarat",
    "Taluk": "Bhabhar",
    "Districtname": "Banaskantha",
    "statename": "GUJARAT"
  },
  {
    "pincode": "385320",
    "officename": "Suthar Nesdi B.O",
    "officeType": "B.O",
    "Deliverystatus": "Delivery",
    "divisionname": "Banasanktha",
    "regionname": "Ahmedabad HQ",
    "circlename": "Gujarat",
    "Taluk": "Bhabhar",
    "Districtname": "Banaskantha",
    "statename": "GUJARAT"
  },
  {
    "pincode": "385320",
    "officename": "Tanvad B.O",
    "officeType": "B.O",
    "Deliverystatus": "Delivery",
    "divisionname": "Banasanktha",
    "regionname": "Ahmedabad HQ",
    "circlename": "Gujarat",
    "Taluk": "Bhabhar",
    "Districtname": "Banaskantha",
    "statename": "GUJARAT"
  },
  {
    "pincode": "385320",
    "officename": "Terwada B.O",
    "officeType": "B.O",
    "Deliverystatus": "Delivery",
    "divisionname": "Banasanktha",
    "regionname": "Ahmedabad HQ",
    "circlename": "Gujarat",
    "Taluk": "Bhabhar",
    "Districtname": "Banaskantha",
    "statename": "GUJARAT"
  },
  {
    "pincode": "385320",
    "officename": "Uchosan B.O",
    "officeType": "B.O",
    "Deliverystatus": "Delivery",
    "divisionname": "Banasanktha",
    "regionname": "Ahmedabad HQ",
    "circlename": "Gujarat",
    "Taluk": "Bhabhar",
    "Districtname": "Banaskantha",
    "statename": "GUJARAT"
  },
  {
    "pincode": "385320",
    "officename": "Ujjanwada B.O",
    "officeType": "B.O",
    "Deliverystatus": "Delivery",
    "divisionname": "Banasanktha",
    "regionname": "Ahmedabad HQ",
    "circlename": "Gujarat",
    "Taluk": "Bhabhar",
    "Districtname": "Banaskantha",
    "statename": "GUJARAT"
  },
  {
    "pincode": "385320",
    "officename": "Undai B.O",
    "officeType": "B.O",
    "Deliverystatus": "Delivery",
    "divisionname": "Banasanktha",
    "regionname": "Ahmedabad HQ",
    "circlename": "Gujarat",
    "Taluk": "Bhabhar",
    "Districtname": "Banaskantha",
    "statename": "GUJARAT"
  },
  {
    "pincode": "385320",
    "officename": "Vajapur Juna B.O",
    "officeType": "B.O",
    "Deliverystatus": "Delivery",
    "divisionname": "Banasanktha",
    "regionname": "Ahmedabad HQ",
    "circlename": "Gujarat",
    "Taluk": "Bhabhar",
    "Districtname": "Banaskantha",
    "statename": "GUJARAT"
  },
  {
    "pincode": "385320",
    "officename": "Varasada B.O",
    "officeType": "B.O",
    "Deliverystatus": "Delivery",
    "divisionname": "Banasanktha",
    "regionname": "Ahmedabad HQ",
    "circlename": "Gujarat",
    "Taluk": "Bhabhar",
    "Districtname": "Banaskantha",
    "statename": "GUJARAT"
  }
]
