[
  {
    "pincode": "385550",
    "officename": "Bukoli B.O",
    "officeType": "B.O",
    "Deliverystatus": "Delivery",
    "divisionname": "Banasanktha",
    "regionname": "Ahmedabad HQ",
    "circlename": "Gujarat",
    "Taluk": "Kankrej",
    "Districtname": "Banaskantha",
    "statename": "GUJARAT"
  },
  {
    "pincode": "385550",
    "officename": "Chekhala B.O",
    "officeType": "B.O",
    "Deliverystatus": "Delivery",
    "divisionname": "Banasanktha",
    "regionname": "Ahmedabad HQ",
    "circlename": "Gujarat",
    "Taluk": "Kankrej",
    "Districtname": "Banaskantha",
    "statename": "GUJARAT"
  },
  {
    "pincode": "385550",
    "officename": "Dungrasan B.O",
    "officeType": "B.O",
    "Deliverystatus": "Delivery",
    "divisionname": "Banasanktha",
    "regionname": "Ahmedabad HQ",
    "circlename": "Gujarat",
    "Taluk": "Kankrej",
    "Districtname": "Banaskantha",
    "statename": "GUJARAT"
  },
  {
    "pincode": "385550",
    "officename": "Kakar B.O",
    "officeType": "B.O",
    "Deliverystatus": "Delivery",
    "divisionname": "Banasanktha",
    "regionname": "Ahmedabad HQ",
    "circlename": "Gujarat",
    "Taluk": "Kankraj",
    "Districtname": "Banaskantha",
    "statename": "GUJARAT"
  },
  {
    "pincode": "385550",
    "officename": "Kamboi B.O",
    "officeType": "B.O",
    "Deliverystatus": "Delivery",
    "divisionname": "Banasanktha",
    "regionname": "Ahmedabad HQ",
    "circlename": "Gujarat",
    "Taluk": "Kankrej",
    "Districtname": "Banaskantha",
    "statename": "GUJARAT"
  },
  {
    "pincode": "385550",
    "officename": "Khimana B.O",
    "officeType": "B.O",
    "Deliverystatus": "Delivery",
    "divisionname": "Banasanktha",
    "regionname": "Ahmedabad HQ",
    "circlename": "Gujarat",
    "Taluk": "Kankrej",
    "Districtname": "Banaskantha",
    "statename": "GUJARAT"
  },
  {
    "pincode": "385550",
    "officename": "Khoda B.O",
    "officeType": "B.O",
    "Deliverystatus": "Delivery",
    "divisionname": "Banasanktha",
    "regionname": "Ahmedabad HQ",
    "circlename": "Gujarat",
    "Taluk": "Kankrej",
    "Districtname": "Banaskantha",
    "statename": "GUJARAT"
  },
  {
    "pincode": "385550",
    "officename": "Khodla B.O",
    "officeType": "B.O",
    "Deliverystatus": "Delivery",
    "divisionname": "Banasanktha",
    "regionname": "Ahmedabad HQ",
    "circlename": "Gujarat",
    "Taluk": "Kankrej",
    "Districtname": "Banaskantha",
    "statename": "GUJARAT"
  },
  {
    "pincode": "385550",
    "officename": "Kunvarva B.O",
    "officeType": "B.O",
    "Deliverystatus": "Delivery",
    "divisionname": "Banasanktha",
    "regionname": "Ahmedabad HQ",
    "circlename": "Gujarat",
    "Taluk": "Kankrej",
    "Districtname": "Banaskantha",
    "statename": "GUJARAT"
  },
  {
    "pincode": "385550",
    "officename": "Laxmipura B.O",
    "officeType": "B.O",
    "Deliverystatus": "Delivery",
    "divisionname": "Banasanktha",
    "regionname": "Ahmedabad HQ",
    "circlename": "Gujarat",
    "Taluk": "Kankrej",
    "Districtname": "Banaskantha",
    "statename": "GUJARAT"
  },
  {
    "pincode": "385550",
    "officename": "Manpur B.O",
    "officeType": "B.O",
    "Deliverystatus": "Delivery",
    "divisionname": "Banasanktha",
    "regionname": "Ahmedabad HQ",
    "circlename": "Gujarat",
    "Taluk": "Kankraj",
    "Districtname": "Banaskantha",
    "statename": "GUJARAT"
  },
  {
    "pincode": "385550",
    "officename": "Padardi B.O",
    "officeType": "B.O",
    "Deliverystatus": "Delivery",
    "divisionname": "Banasanktha",
    "regionname": "Ahmedabad HQ",
    "circlename": "Gujarat",
    "Taluk": "Kankraj",
    "Districtname": "Banaskantha",
    "statename": "GUJARAT"
  },
  {
    "pincode": "385550",
    "officename": "Raner B.O",
    "officeType": "B.O",
    "Deliverystatus": "Delivery",
    "divisionname": "Banasanktha",
    "regionname": "Ahmedabad HQ",
    "circlename": "Gujarat",
    "Taluk": "Kankrej",
    "Districtname": "Banaskantha",
    "statename": "GUJARAT"
  },
  {
    "pincode": "385550",
    "officename": "Raviyana B.O",
    "officeType": "B.O",
    "Deliverystatus": "Delivery",
    "divisionname": "Banasanktha",
    "regionname": "Ahmedabad HQ",
    "circlename": "Gujarat",
    "Taluk": "Kankrej",
    "Districtname": "Banaskantha",
    "statename": "GUJARAT"
  },
  {
    "pincode": "385550",
    "officename": "Sihori S.O",
    "officeType": "S.O",
    "Deliverystatus": "Delivery",
    "divisionname": "Banasanktha",
    "regionname": "Ahmedabad HQ",
    "circlename": "Gujarat",
    "Taluk": "Kankrej",
    "Districtname": "Banaskantha",
    "statename": "GUJARAT"
  },
  {
    "pincode": "385550",
    "officename": "Umbari B.O",
    "officeType": "B.O",
    "Deliverystatus": "Delivery",
    "divisionname": "Banasanktha",
    "regionname": "Ahmedabad HQ",
    "circlename": "Gujarat",
    "Taluk": "Kankrej",
    "Districtname": "Banaskantha",
    "statename": "GUJARAT"
  },
  {
    "pincode": "385550",
    "officename": "Zalmor B.O",
    "officeType": "B.O",
    "Deliverystatus": "Delivery",
    "divisionname": "Banasanktha",
    "regionname": "Ahmedabad HQ",
    "circlename": "Gujarat",
    "Taluk": "Kankrej",
    "Districtname": "Banaskantha",
    "statename": "GUJARAT"
  }
]
