[
  {
    "pincode": "385560",
    "officename": "Bhadrewadi B.O",
    "officeType": "B.O",
    "Deliverystatus": "Delivery",
    "divisionname": "Banasanktha",
    "regionname": "Ahmedabad HQ",
    "circlename": "Gujarat",
    "Taluk": "Kankrej",
    "Districtname": "Banaskantha",
    "statename": "GUJARAT"
  },
  {
    "pincode": "385560",
    "officename": "Bhalgam B.O",
    "officeType": "B.O",
    "Deliverystatus": "Delivery",
    "divisionname": "Banasanktha",
    "regionname": "Ahmedabad HQ",
    "circlename": "Gujarat",
    "Taluk": "Kankrej",
    "Districtname": "Banaskantha",
    "statename": "GUJARAT"
  },
  {
    "pincode": "385560",
    "officename": "Mandla B.O",
    "officeType": "B.O",
    "Deliverystatus": "Delivery",
    "divisionname": "Banasanktha",
    "regionname": "Ahmedabad HQ",
    "circlename": "Gujarat",
    "Taluk": "Kankrej",
    "Districtname": "Banaskantha",
    "statename": "GUJARAT"
  },
  {
    "pincode": "385560",
    "officename": "Padar B.O",
    "officeType": "B.O",
    "Deliverystatus": "Delivery",
    "divisionname": "Banasanktha",
    "regionname": "Ahmedabad HQ",
    "circlename": "Gujarat",
    "Taluk": "Kankrej",
    "Districtname": "Banaskantha",
    "statename": "GUJARAT"
  },
  {
    "pincode": "385560",
    "officename": "Siya B.O",
    "officeType": "B.O",
    "Deliverystatus": "Delivery",
    "divisionname": "Banasanktha",
    "regionname": "Ahmedabad HQ",
    "circlename": "Gujarat",
    "Taluk": "Kankrej",
    "Districtname": "Banaskantha",
    "statename": "GUJARAT"
  },
  {
    "pincode": "385560",
    "officename": "Tatiyana B.O",
    "officeType": "B.O",
    "Deliverystatus": "Delivery",
    "divisionname": "Banasanktha",
    "regionname": "Ahmedabad HQ",
    "circlename": "Gujarat",
    "Taluk": "Kankrej",
    "Districtname": "Banaskantha",
    "statename": "GUJARAT"
  },
  {
    "pincode": "385560",
    "officename": "Totana B.O",
    "officeType": "B.O",
    "Deliverystatus": "Delivery",
    "divisionname": "Banasanktha",
    "regionname": "Ahmedabad HQ",
    "circlename": "Gujarat",
    "Taluk": "Kankrej",
    "Districtname": "Banaskantha",
    "statename": "GUJARAT"
  },
  {
    "pincode": "385560",
    "officename": "Un S.O (Banaskantha)",
    "officeType": "S.O",
    "Deliverystatus": "Delivery",
    "divisionname": "Banasanktha",
    "regionname": "Ahmedabad HQ",
    "circlename": "Gujarat",
    "Taluk": "Kankrej",
    "Districtname": "Banaskantha",
    "statename": "GUJARAT"
  },
  {
    "pincode": "385560",
    "officename": "Valpura B.O",
    "officeType": "B.O",
    "Deliverystatus": "Delivery",
    "divisionname": "Banasanktha",
    "regionname": "Ahmedabad HQ",
    "circlename": "Gujarat",
    "Taluk": "Kankrej",
    "Districtname": "Banaskantha",
    "statename": "GUJARAT"
  }
]
