[
  {
    "pincode": "385565",
    "officename": "Asodar B.O",
    "officeType": "B.O",
    "Deliverystatus": "Delivery",
    "divisionname": "Banasanktha",
    "regionname": "Ahmedabad HQ",
    "circlename": "Gujarat",
    "Taluk": "Tharad",
    "Districtname": "Banaskantha",
    "statename": "GUJARAT"
  },
  {
    "pincode": "385565",
    "officename": "Bevta B.O",
    "officeType": "B.O",
    "Deliverystatus": "Delivery",
    "divisionname": "Banasanktha",
    "regionname": "Ahmedabad HQ",
    "circlename": "Gujarat",
    "Taluk": "Tharad",
    "Districtname": "Banaskantha",
    "statename": "GUJARAT"
  },
  {
    "pincode": "385565",
    "officename": "Bhordu B.O",
    "officeType": "B.O",
    "Deliverystatus": "Delivery",
    "divisionname": "Banasanktha",
    "regionname": "Ahmedabad HQ",
    "circlename": "Gujarat",
    "Taluk": "Tharad",
    "Districtname": "Banaskantha",
    "statename": "GUJARAT"
  },
  {
    "pincode": "385565",
    "officename": "Changda B.O",
    "officeType": "B.O",
    "Deliverystatus": "Delivery",
    "divisionname": "Banasanktha",
    "regionname": "Ahmedabad HQ",
    "circlename": "Gujarat",
    "Taluk": "Tharad",
    "Districtname": "Banaskantha",
    "statename": "GUJARAT"
  },
  {
    "pincode": "385565",
    "officename": "Charda B.O",
    "officeType": "B.O",
    "Deliverystatus": "Delivery",
    "divisionname": "Banasanktha",
    "regionname": "Ahmedabad HQ",
    "circlename": "Gujarat",
    "Taluk": "Tharad",
    "Districtname": "Banaskantha",
    "statename": "GUJARAT"
  },
  {
    "pincode": "385565",
    "officename": "Chudmer B.O",
    "officeType": "B.O",
    "Deliverystatus": "Delivery",
    "divisionname": "Banasanktha",
    "regionname": "Ahmedabad HQ",
    "circlename": "Gujarat",
    "Taluk": "Tharad",
    "Districtname": "Banaskantha",
    "statename": "GUJARAT"
  },
  {
    "pincode": "385565",
    "officename": "Dodgam B.O",
    "officeType": "B.O",
    "Deliverystatus": "Delivery",
    "divisionname": "Banasanktha",
    "regionname": "Ahmedabad HQ",
    "circlename": "Gujarat",
    "Taluk": "Tharad",
    "Districtname": "Banaskantha",
    "statename": "GUJARAT"
  },
  {
    "pincode": "385565",
    "officename": "Dudhava B.O",
    "officeType": "B.O",
    "Deliverystatus": "Delivery",
    "divisionname": "Banasanktha",
    "regionname": "Ahmedabad HQ",
    "circlename": "Gujarat",
    "Taluk": "Tharad",
    "Districtname": "Banaskantha",
    "statename": "GUJARAT"
  },
  {
    "pincode": "385565",
    "officename": "Jamda B.O",
    "officeType": "B.O",
    "Deliverystatus": "Delivery",
    "divisionname": "Banasanktha",
    "regionname": "Ahmedabad HQ",
    "circlename": "Gujarat",
    "Taluk": "Tharad",
    "Districtname": "Banaskantha",
    "statename": "GUJARAT"
  },
  {
    "pincode": "385565",
    "officename": "Kamali B.O",
    "officeType": "B.O",
    "Deliverystatus": "Delivery",
    "divisionname": "Banasanktha",
    "regionname": "Ahmedabad HQ",
    "circlename": "Gujarat",
    "Taluk": "Tharad",
    "Districtname": "Banaskantha",
    "statename": "GUJARAT"
  },
  {
    "pincode": "385565",
    "officename": "Khengarpura B.O",
    "officeType": "B.O",
    "Deliverystatus": "Delivery",
    "divisionname": "Banasanktha",
    "regionname": "Ahmedabad HQ",
    "circlename": "Gujarat",
    "Taluk": "Tharad",
    "Districtname": "Banaskantha",
    "statename": "GUJARAT"
  },
  {
    "pincode": "385565",
    "officename": "Khoda B.O",
    "officeType": "B.O",
    "Deliverystatus": "Delivery",
    "divisionname": "Banasanktha",
    "regionname": "Ahmedabad HQ",
    "circlename": "Gujarat",
    "Taluk": "Tharad",
    "Districtname": "Banaskantha",
    "statename": "GUJARAT"
  },
  {
    "pincode": "385565",
    "officename": "Lalpur B.O",
    "officeType": "B.O",
    "Deliverystatus": "Delivery",
    "divisionname": "Banasanktha",
    "regionname": "Ahmedabad HQ",
    "circlename": "Gujarat",
    "Taluk": "Tharad",
    "Districtname": "Banaskantha",
    "statename": "GUJARAT"
  },
  {
    "pincode": "385565",
    "officename": "Luvana B.O",
    "officeType": "B.O",
    "Deliverystatus": "Delivery",
    "divisionname": "Banasanktha",
    "regionname": "Ahmedabad HQ",
    "circlename": "Gujarat",
    "Taluk": "Tharad",
    "Districtname": "Banaskantha",
    "statename": "GUJARAT"
  },
  {
    "pincode": "385565",
    "officename": "Madal B.O",
    "officeType": "B.O",
    "Deliverystatus": "Delivery",
    "divisionname": "Banasanktha",
    "regionname": "Ahmedabad HQ",
    "circlename": "Gujarat",
    "Taluk": "Tharad",
    "Districtname": "Banaskantha",
    "statename": "GUJARAT"
  },
  {
    "pincode": "385565",
    "officename": "Malupur B.O",
    "officeType": "B.O",
    "Deliverystatus": "Delivery",
    "divisionname": "Banasanktha",
    "regionname": "Ahmedabad HQ",
    "circlename": "Gujarat",
    "Taluk": "Tharad",
    "Districtname": "Banaskantha",
    "statename": "GUJARAT"
  },
  {
    "pincode": "385565",
    "officename": "Mota Mesra B.O",
    "officeType": "B.O",
    "Deliverystatus": "Delivery",
    "divisionname": "Banasanktha",
    "regionname": "Ahmedabad HQ",
    "circlename": "Gujarat",
    "Taluk": "Tharad",
    "Districtname": "Banaskantha",
    "statename": "GUJARAT"
  },
  {
    "pincode": "385565",
    "officename": "Moti Pavad B.O",
    "officeType": "B.O",
    "Deliverystatus": "Delivery",
    "divisionname": "Banasanktha",
    "regionname": "Ahmedabad HQ",
    "circlename": "Gujarat",
    "Taluk": "Tharad",
    "Districtname": "Banaskantha",
    "statename": "GUJARAT"
  },
  {
    "pincode": "385565",
    "officename": "Piluda B.O",
    "officeType": "B.O",
    "Deliverystatus": "Delivery",
    "divisionname": "Banasanktha",
    "regionname": "Ahmedabad HQ",
    "circlename": "Gujarat",
    "Taluk": "Tharad",
    "Districtname": "Banaskantha",
    "statename": "GUJARAT"
  },
  {
    "pincode": "385565",
    "officename": "Sanavia B.O",
    "officeType": "B.O",
    "Deliverystatus": "Delivery",
    "divisionname": "Banasanktha",
    "regionname": "Ahmedabad HQ",
    "circlename": "Gujarat",
    "Taluk": "Tharad",
    "Districtname": "Banaskantha",
    "statename": "GUJARAT"
  },
  {
    "pincode": "385565",
    "officename": "Tharad S.O",
    "officeType": "S.O",
    "Deliverystatus": "Delivery",
    "divisionname": "Banasanktha",
    "regionname": "Ahmedabad HQ",
    "circlename": "Gujarat",
    "Taluk": "Tharad",
    "Districtname": "Banaskantha",
    "statename": "GUJARAT"
  },
  {
    "pincode": "385565",
    "officename": "Undrana B.O",
    "officeType": "B.O",
    "Deliverystatus": "Delivery",
    "divisionname": "Banasanktha",
    "regionname": "Ahmedabad HQ",
    "circlename": "Gujarat",
    "Taluk": "Tharad",
    "Districtname": "Banaskantha",
    "statename": "GUJARAT"
  },
  {
    "pincode": "385565",
    "officename": "Vadgamda B.O",
    "officeType": "B.O",
    "Deliverystatus": "Delivery",
    "divisionname": "Banasanktha",
    "regionname": "Ahmedabad HQ",
    "circlename": "Gujarat",
    "Taluk": "Tharad",
    "Districtname": "Banaskantha",
    "statename": "GUJARAT"
  },
  {
    "pincode": "385565",
    "officename": "Valadar B.O",
    "officeType": "B.O",
    "Deliverystatus": "Delivery",
    "divisionname": "Banasanktha",
    "regionname": "Ahmedabad HQ",
    "circlename": "Gujarat",
    "Taluk": "Tharad",
    "Districtname": "Banaskantha",
    "statename": "GUJARAT"
  },
  {
    "pincode": "385565",
    "officename": "Vami B.O",
    "officeType": "B.O",
    "Deliverystatus": "Delivery",
    "divisionname": "Banasanktha",
    "regionname": "Ahmedabad HQ",
    "circlename": "Gujarat",
    "Taluk": "Tharad",
    "Districtname": "Banaskantha",
    "statename": "GUJARAT"
  }
]
