[
  {
    "pincode": "385570",
    "officename": "Benap B.O",
    "officeType": "B.O",
    "Deliverystatus": "Delivery",
    "divisionname": "Banasanktha",
    "regionname": "Ahmedabad HQ",
    "circlename": "Gujarat",
    "Taluk": "Vav",
    "Districtname": "Banaskantha",
    "statename": "GUJARAT"
  },
  {
    "pincode": "385570",
    "officename": "Bharadva B.O",
    "officeType": "B.O",
    "Deliverystatus": "Delivery",
    "divisionname": "Banasanktha",
    "regionname": "Ahmedabad HQ",
    "circlename": "Gujarat",
    "Taluk": "Vav",
    "Districtname": "Banaskantha",
    "statename": "GUJARAT"
  },
  {
    "pincode": "385570",
    "officename": "Chala B.O",
    "officeType": "B.O",
    "Deliverystatus": "Delivery",
    "divisionname": "Banasanktha",
    "regionname": "Ahmedabad HQ",
    "circlename": "Gujarat",
    "Taluk": "Vav",
    "Districtname": "Banaskantha",
    "statename": "GUJARAT"
  },
  {
    "pincode": "385570",
    "officename": "Kumbharkha B.O",
    "officeType": "B.O",
    "Deliverystatus": "Delivery",
    "divisionname": "Banasanktha",
    "regionname": "Ahmedabad HQ",
    "circlename": "Gujarat",
    "Taluk": "Vav",
    "Districtname": "Banaskantha",
    "statename": "GUJARAT"
  },
  {
    "pincode": "385570",
    "officename": "Limbuni B.O",
    "officeType": "B.O",
    "Deliverystatus": "Delivery",
    "divisionname": "Banasanktha",
    "regionname": "Ahmedabad HQ",
    "circlename": "Gujarat",
    "Taluk": "Vav",
    "Districtname": "Banaskantha",
    "statename": "GUJARAT"
  },
  {
    "pincode": "385570",
    "officename": "Mamana B.O",
    "officeType": "B.O",
    "Deliverystatus": "Delivery",
    "divisionname": "Banasanktha",
    "regionname": "Ahmedabad HQ",
    "circlename": "Gujarat",
    "Taluk": "Vav",
    "Districtname": "Banaskantha",
    "statename": "GUJARAT"
  },
  {
    "pincode": "385570",
    "officename": "Radosan B.O",
    "officeType": "B.O",
    "Deliverystatus": "Delivery",
    "divisionname": "Banasanktha",
    "regionname": "Ahmedabad HQ",
    "circlename": "Gujarat",
    "Taluk": "Vav",
    "Districtname": "Banaskantha",
    "statename": "GUJARAT"
  },
  {
    "pincode": "385570",
    "officename": "Suigam S.O",
    "officeType": "S.O",
    "Deliverystatus": "Delivery",
    "divisionname": "Banasanktha",
    "regionname": "Ahmedabad HQ",
    "circlename": "Gujarat",
    "Taluk": "Vav",
    "Districtname": "Banaskantha",
    "statename": "GUJARAT"
  }
]
