[
  {
    "pincode": "387120",
    "officename": "Bidaj B.O",
    "officeType": "B.O",
    "Deliverystatus": "Delivery",
    "divisionname": "Kheda",
    "regionname": "Vadodara",
    "circlename": "Gujarat",
    "Taluk": "Kheda",
    "Districtname": "Kheda",
    "statename": "GUJARAT"
  },
  {
    "pincode": "387120",
    "officename": "Kanij S.O",
    "officeType": "S.O",
    "Deliverystatus": "Delivery",
    "divisionname": "Kheda",
    "regionname": "Vadodara",
    "circlename": "Gujarat",
    "Taluk": "Mahemdavad",
    "Districtname": "Kheda",
    "statename": "GUJARAT"
  },
  {
    "pincode": "387120",
    "officename": "Lali B.O",
    "officeType": "B.O",
    "Deliverystatus": "Delivery",
    "divisionname": "Kheda",
    "regionname": "Vadodara",
    "circlename": "Gujarat",
    "Taluk": "Kheda",
    "Districtname": "Kheda",
    "statename": "GUJARAT"
  },
  {
    "pincode": "387120",
    "officename": "Mahij B.O",
    "officeType": "B.O",
    "Deliverystatus": "Delivery",
    "divisionname": "Kheda",
    "regionname": "Vadodara",
    "circlename": "Gujarat",
    "Taluk": "Kheda",
    "Districtname": "Kheda",
    "statename": "GUJARAT"
  },
  {
    "pincode": "387120",
    "officename": "Raska B.O",
    "officeType": "B.O",
    "Deliverystatus": "Delivery",
    "divisionname": "Kheda",
    "regionname": "Vadodara",
    "circlename": "Gujarat",
    "Taluk": "Mahemdabad",
    "Districtname": "Kheda",
    "statename": "GUJARAT"
  },
  {
    "pincode": "387120",
    "officename": "Samadara B.O",
    "officeType": "B.O",
    "Deliverystatus": "Delivery",
    "divisionname": "Kheda",
    "regionname": "Vadodara",
    "circlename": "Gujarat",
    "Taluk": "Kheda",
    "Districtname": "Kheda",
    "statename": "GUJARAT"
  },
  {
    "pincode": "387120",
    "officename": "Sankhej B.O",
    "officeType": "B.O",
    "Deliverystatus": "Delivery",
    "divisionname": "Kheda",
    "regionname": "Vadodara",
    "circlename": "Gujarat",
    "Taluk": "Kheda",
    "Districtname": "Kheda",
    "statename": "GUJARAT"
  },
  {
    "pincode": "387120",
    "officename": "Vasna Margia B.O",
    "officeType": "B.O",
    "Deliverystatus": "Delivery",
    "divisionname": "Kheda",
    "regionname": "Vadodara",
    "circlename": "Gujarat",
    "Taluk": "Kheda",
    "Districtname": "Kheda",
    "statename": "GUJARAT"
  }
]
