[
  {
    "pincode": "387335",
    "officename": "Abhripur B.O",
    "officeType": "B.O",
    "Deliverystatus": "Delivery",
    "divisionname": "Kheda",
    "regionname": "Vadodara",
    "circlename": "Gujarat",
    "Taluk": "Kathlal",
    "Districtname": "Kheda",
    "statename": "GUJARAT"
  },
  {
    "pincode": "387335",
    "officename": "Dadusar B.O",
    "officeType": "B.O",
    "Deliverystatus": "Delivery",
    "divisionname": "Kheda",
    "regionname": "Vadodara",
    "circlename": "Gujarat",
    "Taluk": "Mahudha",
    "Districtname": "Kheda",
    "statename": "GUJARAT"
  },
  {
    "pincode": "387335",
    "officename": "Jalia B.O",
    "officeType": "B.O",
    "Deliverystatus": "Delivery",
    "divisionname": "Kheda",
    "regionname": "Vadodara",
    "circlename": "Gujarat",
    "Taluk": "Mahemdavad",
    "Districtname": "Kheda",
    "statename": "GUJARAT"
  },
  {
    "pincode": "387335",
    "officename": "Karoli B.O",
    "officeType": "B.O",
    "Deliverystatus": "Delivery",
    "divisionname": "Kheda",
    "regionname": "Vadodara",
    "circlename": "Gujarat",
    "Taluk": "Mahudha",
    "Districtname": "Kheda",
    "statename": "GUJARAT"
  },
  {
    "pincode": "387335",
    "officename": "Mahudha S.O",
    "officeType": "S.O",
    "Deliverystatus": "Delivery",
    "divisionname": "Kheda",
    "regionname": "Vadodara",
    "circlename": "Gujarat",
    "Taluk": "Mahudha",
    "Districtname": "Kheda",
    "statename": "GUJARAT"
  },
  {
    "pincode": "387335",
    "officename": "Nani Khadol B.O",
    "officeType": "B.O",
    "Deliverystatus": "Delivery",
    "divisionname": "Kheda",
    "regionname": "Vadodara",
    "circlename": "Gujarat",
    "Taluk": "Mahudha",
    "Districtname": "Kheda",
    "statename": "GUJARAT"
  },
  {
    "pincode": "387335",
    "officename": "Rudan B.O",
    "officeType": "B.O",
    "Deliverystatus": "Delivery",
    "divisionname": "Kheda",
    "regionname": "Vadodara",
    "circlename": "Gujarat",
    "Taluk": "Mehmedabad",
    "Districtname": "Kheda",
    "statename": "GUJARAT"
  },
  {
    "pincode": "387335",
    "officename": "Ruppura B.O",
    "officeType": "B.O",
    "Deliverystatus": "Delivery",
    "divisionname": "Kheda",
    "regionname": "Vadodara",
    "circlename": "Gujarat",
    "Taluk": "Mahudha",
    "Districtname": "Kheda",
    "statename": "GUJARAT"
  },
  {
    "pincode": "387335",
    "officename": "Sastapur B.O",
    "officeType": "B.O",
    "Deliverystatus": "Delivery",
    "divisionname": "Kheda",
    "regionname": "Vadodara",
    "circlename": "Gujarat",
    "Taluk": "Mahudha",
    "Districtname": "Kheda",
    "statename": "GUJARAT"
  },
  {
    "pincode": "387335",
    "officename": "Torania B.O",
    "officeType": "B.O",
    "Deliverystatus": "Delivery",
    "divisionname": "Kheda",
    "regionname": "Vadodara",
    "circlename": "Gujarat",
    "Taluk": "Mahudha",
    "Districtname": "Kheda",
    "statename": "GUJARAT"
  },
  {
    "pincode": "387335",
    "officename": "Undra B.O",
    "officeType": "B.O",
    "Deliverystatus": "Delivery",
    "divisionname": "Kheda",
    "regionname": "Vadodara",
    "circlename": "Gujarat",
    "Taluk": "Mahudha",
    "Districtname": "Kheda",
    "statename": "GUJARAT"
  },
  {
    "pincode": "387335",
    "officename": "Vadthal B.O",
    "officeType": "B.O",
    "Deliverystatus": "Delivery",
    "divisionname": "Kheda",
    "regionname": "Vadodara",
    "circlename": "Gujarat",
    "Taluk": "Mahudha",
    "Districtname": "Kheda",
    "statename": "GUJARAT"
  },
  {
    "pincode": "387335",
    "officename": "Vansol B.O",
    "officeType": "B.O",
    "Deliverystatus": "Delivery",
    "divisionname": "Kheda",
    "regionname": "Vadodara",
    "circlename": "Gujarat",
    "Taluk": "Mahemdavad",
    "Districtname": "Kheda",
    "statename": "GUJARAT"
  }
]
