[
  {
    "pincode": "387530",
    "officename": "Asamli B.O",
    "officeType": "B.O",
    "Deliverystatus": "Delivery",
    "divisionname": "Kheda",
    "regionname": "Vadodara",
    "circlename": "Gujarat",
    "Taluk": "Matar",
    "Districtname": "Kheda",
    "statename": "GUJARAT"
  },
  {
    "pincode": "387530",
    "officename": "Khada B.O",
    "officeType": "B.O",
    "Deliverystatus": "Delivery",
    "divisionname": "Kheda",
    "regionname": "Vadodara",
    "circlename": "Gujarat",
    "Taluk": "Tarapur",
    "Districtname": "Kheda",
    "statename": "GUJARAT"
  },
  {
    "pincode": "387530",
    "officename": "Koshiyal B.O",
    "officeType": "B.O",
    "Deliverystatus": "Delivery",
    "divisionname": "Kheda",
    "regionname": "Vadodara",
    "circlename": "Gujarat",
    "Taluk": "Matar",
    "Districtname": "Kheda",
    "statename": "GUJARAT"
  },
  {
    "pincode": "387530",
    "officename": "Machhiel B.O",
    "officeType": "B.O",
    "Deliverystatus": "Delivery",
    "divisionname": "Kheda",
    "regionname": "Vadodara",
    "circlename": "Gujarat",
    "Taluk": "Matar",
    "Districtname": "Kheda",
    "statename": "GUJARAT"
  },
  {
    "pincode": "387530",
    "officename": "Mahelaj B.O",
    "officeType": "B.O",
    "Deliverystatus": "Delivery",
    "divisionname": "Kheda",
    "regionname": "Vadodara",
    "circlename": "Gujarat",
    "Taluk": "Matar",
    "Districtname": "Kheda",
    "statename": "GUJARAT"
  },
  {
    "pincode": "387530",
    "officename": "Matar S.O",
    "officeType": "S.O",
    "Deliverystatus": "Delivery",
    "divisionname": "Kheda",
    "regionname": "Vadodara",
    "circlename": "Gujarat",
    "Taluk": "Matar",
    "Districtname": "Kheda",
    "statename": "GUJARAT"
  },
  {
    "pincode": "387530",
    "officename": "Nadhanpur B.O",
    "officeType": "B.O",
    "Deliverystatus": "Delivery",
    "divisionname": "Kheda",
    "regionname": "Vadodara",
    "circlename": "Gujarat",
    "Taluk": "Matar",
    "Districtname": "Kheda",
    "statename": "GUJARAT"
  },
  {
    "pincode": "387530",
    "officename": "Palla B.O",
    "officeType": "B.O",
    "Deliverystatus": "Delivery",
    "divisionname": "Kheda",
    "regionname": "Vadodara",
    "circlename": "Gujarat",
    "Taluk": "Matar",
    "Districtname": "Kheda",
    "statename": "GUJARAT"
  },
  {
    "pincode": "387530",
    "officename": "Sayla B.O",
    "officeType": "B.O",
    "Deliverystatus": "Delivery",
    "divisionname": "Kheda",
    "regionname": "Vadodara",
    "circlename": "Gujarat",
    "Taluk": "Matar",
    "Districtname": "Kheda",
    "statename": "GUJARAT"
  },
  {
    "pincode": "387530",
    "officename": "Traj B.O",
    "officeType": "B.O",
    "Deliverystatus": "Delivery",
    "divisionname": "Kheda",
    "regionname": "Vadodara",
    "circlename": "Gujarat",
    "Taluk": "Matar",
    "Districtname": "Kheda",
    "statename": "GUJARAT"
  },
  {
    "pincode": "387530",
    "officename": "Tranja B.O",
    "officeType": "B.O",
    "Deliverystatus": "Delivery",
    "divisionname": "Kheda",
    "regionname": "Vadodara",
    "circlename": "Gujarat",
    "Taluk": "Matar",
    "Districtname": "Kheda",
    "statename": "GUJARAT"
  }
]
