[
  {
    "pincode": "387640",
    "officename": "Charan Nikol B.O",
    "officeType": "B.O",
    "Deliverystatus": "Delivery",
    "divisionname": "Kheda",
    "regionname": "Vadodara",
    "circlename": "Gujarat",
    "Taluk": "Kathlal",
    "Districtname": "Kheda",
    "statename": "GUJARAT"
  },
  {
    "pincode": "387640",
    "officename": "Chikhlod B.O",
    "officeType": "B.O",
    "Deliverystatus": "Delivery",
    "divisionname": "Kheda",
    "regionname": "Vadodara",
    "circlename": "Gujarat",
    "Taluk": "Kapadwanj",
    "Districtname": "Kheda",
    "statename": "GUJARAT"
  },
  {
    "pincode": "387640",
    "officename": "Fagvel B.O",
    "officeType": "B.O",
    "Deliverystatus": "Delivery",
    "divisionname": "Kheda",
    "regionname": "Vadodara",
    "circlename": "Gujarat",
    "Taluk": "Kathlal",
    "Districtname": "Kheda",
    "statename": "GUJARAT"
  },
  {
    "pincode": "387640",
    "officename": "Kathana B.O",
    "officeType": "B.O",
    "Deliverystatus": "Delivery",
    "divisionname": "Kheda",
    "regionname": "Vadodara",
    "circlename": "Gujarat",
    "Taluk": "Kathlal",
    "Districtname": "Kheda",
    "statename": "GUJARAT"
  },
  {
    "pincode": "387640",
    "officename": "Ladvel B.O",
    "officeType": "B.O",
    "Deliverystatus": "Delivery",
    "divisionname": "Kheda",
    "regionname": "Vadodara",
    "circlename": "Gujarat",
    "Taluk": "Kathlal",
    "Districtname": "Kheda",
    "statename": "GUJARAT"
  },
  {
    "pincode": "387640",
    "officename": "Lasundra S.O",
    "officeType": "S.O",
    "Deliverystatus": "Delivery",
    "divisionname": "Kheda",
    "regionname": "Vadodara",
    "circlename": "Gujarat",
    "Taluk": "Kathlal",
    "Districtname": "Kheda",
    "statename": "GUJARAT"
  },
  {
    "pincode": "387640",
    "officename": "Mal Itadi B.O",
    "officeType": "B.O",
    "Deliverystatus": "Delivery",
    "divisionname": "Kheda",
    "regionname": "Vadodara",
    "circlename": "Gujarat",
    "Taluk": "Kathlal",
    "Districtname": "Kheda",
    "statename": "GUJARAT"
  },
  {
    "pincode": "387640",
    "officename": "Porda Fagvel B.O",
    "officeType": "B.O",
    "Deliverystatus": "Delivery",
    "divisionname": "Kheda",
    "regionname": "Vadodara",
    "circlename": "Gujarat",
    "Taluk": "Kathlal",
    "Districtname": "Kheda",
    "statename": "GUJARAT"
  },
  {
    "pincode": "387640",
    "officename": "Vadol B.O",
    "officeType": "B.O",
    "Deliverystatus": "Delivery",
    "divisionname": "Kheda",
    "regionname": "Vadodara",
    "circlename": "Gujarat",
    "Taluk": "Kapadwanj",
    "Districtname": "Kheda",
    "statename": "GUJARAT"
  }
]
