[
  {
    "pincode": "387620",
    "officename": "Alwa B.O",
    "officeType": "B.O",
    "Deliverystatus": "Delivery",
    "divisionname": "Kheda",
    "regionname": "Vadodara",
    "circlename": "Gujarat",
    "Taluk": "Kapadwanj",
    "Districtname": "Kheda",
    "statename": "GUJARAT"
  },
  {
    "pincode": "387620",
    "officename": "Ambaliara B.O",
    "officeType": "B.O",
    "Deliverystatus": "Delivery",
    "divisionname": "Kheda",
    "regionname": "Vadodara",
    "circlename": "Gujarat",
    "Taluk": "Kapadwanj",
    "Districtname": "Kheda",
    "statename": "GUJARAT"
  },
  {
    "pincode": "387620",
    "officename": "Aminpura B.O",
    "officeType": "B.O",
    "Deliverystatus": "Delivery",
    "divisionname": "Kheda",
    "regionname": "Vadodara",
    "circlename": "Gujarat",
    "Taluk": "Kapadvanj",
    "Districtname": "Kheda",
    "statename": "GUJARAT"
  },
  {
    "pincode": "387620",
    "officename": "Antisar B.O",
    "officeType": "B.O",
    "Deliverystatus": "Delivery",
    "divisionname": "Kheda",
    "regionname": "Vadodara",
    "circlename": "Gujarat",
    "Taluk": "",
    "Districtname": "Kheda",
    "statename": "GUJARAT"
  },
  {
    "pincode": "387620",
    "officename": "Antisar Gat- Kpdvj S.O",
    "officeType": "S.O",
    "Deliverystatus": "Non-Delivery",
    "divisionname": "Kheda",
    "regionname": "Vadodara",
    "circlename": "Gujarat",
    "Taluk": "Kapadvanj",
    "Districtname": "Kheda",
    "statename": "GUJARAT"
  },
  {
    "pincode": "387620",
    "officename": "Bhungalia B.O",
    "officeType": "B.O",
    "Deliverystatus": "Delivery",
    "divisionname": "Kheda",
    "regionname": "Vadodara",
    "circlename": "Gujarat",
    "Taluk": "Kapadwanj",
    "Districtname": "Kheda",
    "statename": "GUJARAT"
  },
  {
    "pincode": "387620",
    "officename": "Bhutia B.O",
    "officeType": "B.O",
    "Deliverystatus": "Delivery",
    "divisionname": "Kheda",
    "regionname": "Vadodara",
    "circlename": "Gujarat",
    "Taluk": "Kapadwanj",
    "Districtname": "Kheda",
    "statename": "GUJARAT"
  },
  {
    "pincode": "387620",
    "officename": "Dahiup B.O",
    "officeType": "B.O",
    "Deliverystatus": "Delivery",
    "divisionname": "Kheda",
    "regionname": "Vadodara",
    "circlename": "Gujarat",
    "Taluk": "Kapadvanj",
    "Districtname": "Kheda",
    "statename": "GUJARAT"
  },
  {
    "pincode": "387620",
    "officename": "Danadra B.O",
    "officeType": "B.O",
    "Deliverystatus": "Delivery",
    "divisionname": "Kheda",
    "regionname": "Vadodara",
    "circlename": "Gujarat",
    "Taluk": "Kapadwanj",
    "Districtname": "Kheda",
    "statename": "GUJARAT"
  },
  {
    "pincode": "387620",
    "officename": "Dudhathal B.O",
    "officeType": "B.O",
    "Deliverystatus": "Delivery",
    "divisionname": "Kheda",
    "regionname": "Vadodara",
    "circlename": "Gujarat",
    "Taluk": "Kapadwanj",
    "Districtname": "Kheda",
    "statename": "GUJARAT"
  },
  {
    "pincode": "387620",
    "officename": "Garod B.O",
    "officeType": "B.O",
    "Deliverystatus": "Delivery",
    "divisionname": "Kheda",
    "regionname": "Vadodara",
    "circlename": "Gujarat",
    "Taluk": "Kapadwanj",
    "Districtname": "Kheda",
    "statename": "GUJARAT"
  },
  {
    "pincode": "387620",
    "officename": "Ghadia B.O",
    "officeType": "B.O",
    "Deliverystatus": "Delivery",
    "divisionname": "Kheda",
    "regionname": "Vadodara",
    "circlename": "Gujarat",
    "Taluk": "Kapadwanj",
    "Districtname": "Kheda",
    "statename": "GUJARAT"
  },
  {
    "pincode": "387620",
    "officename": "Jher B.O",
    "officeType": "B.O",
    "Deliverystatus": "Delivery",
    "divisionname": "Kheda",
    "regionname": "Vadodara",
    "circlename": "Gujarat",
    "Taluk": "Kapadwanj",
    "Districtname": "Kheda",
    "statename": "GUJARAT"
  },
  {
    "pincode": "387620",
    "officename": "Kalaji B.O",
    "officeType": "B.O",
    "Deliverystatus": "Delivery",
    "divisionname": "Kheda",
    "regionname": "Vadodara",
    "circlename": "Gujarat",
    "Taluk": "Kapadwanj",
    "Districtname": "Kheda",
    "statename": "GUJARAT"
  },
  {
    "pincode": "387620",
    "officename": "Kapadwanj S.O",
    "officeType": "S.O",
    "Deliverystatus": "Delivery",
    "divisionname": "Kheda",
    "regionname": "Vadodara",
    "circlename": "Gujarat",
    "Taluk": "Kapadwanj",
    "Districtname": "Kheda",
    "statename": "GUJARAT"
  },
  {
    "pincode": "387620",
    "officename": "Kavath B.O",
    "officeType": "B.O",
    "Deliverystatus": "Delivery",
    "divisionname": "Kheda",
    "regionname": "Vadodara",
    "circlename": "Gujarat",
    "Taluk": "Kapadwanj",
    "Districtname": "Kheda",
    "statename": "GUJARAT"
  },
  {
    "pincode": "387620",
    "officename": "Letar B.O",
    "officeType": "B.O",
    "Deliverystatus": "Delivery",
    "divisionname": "Kheda",
    "regionname": "Vadodara",
    "circlename": "Gujarat",
    "Taluk": "Kapadwanj",
    "Districtname": "Kheda",
    "statename": "GUJARAT"
  },
  {
    "pincode": "387620",
    "officename": "Navagam B.O",
    "officeType": "B.O",
    "Deliverystatus": "Delivery",
    "divisionname": "Kheda",
    "regionname": "Vadodara",
    "circlename": "Gujarat",
    "Taluk": "Kapadvanj",
    "Districtname": "Kheda",
    "statename": "GUJARAT"
  },
  {
    "pincode": "387620",
    "officename": "Savli B.O",
    "officeType": "B.O",
    "Deliverystatus": "Delivery",
    "divisionname": "Kheda",
    "regionname": "Vadodara",
    "circlename": "Gujarat",
    "Taluk": "Kapadwanj",
    "Districtname": "Kheda",
    "statename": "GUJARAT"
  },
  {
    "pincode": "387620",
    "officename": "Sorna B.O",
    "officeType": "B.O",
    "Deliverystatus": "Delivery",
    "divisionname": "Kheda",
    "regionname": "Vadodara",
    "circlename": "Gujarat",
    "Taluk": "Kapadwanj",
    "Districtname": "Kheda",
    "statename": "GUJARAT"
  },
  {
    "pincode": "387620",
    "officename": "Sunda B.O",
    "officeType": "B.O",
    "Deliverystatus": "Delivery",
    "divisionname": "Kheda",
    "regionname": "Vadodara",
    "circlename": "Gujarat",
    "Taluk": "Kapadwanj",
    "Districtname": "Kheda",
    "statename": "GUJARAT"
  },
  {
    "pincode": "387620",
    "officename": "Thavad B.O",
    "officeType": "B.O",
    "Deliverystatus": "Delivery",
    "divisionname": "Kheda",
    "regionname": "Vadodara",
    "circlename": "Gujarat",
    "Taluk": "Kapadwanj",
    "Districtname": "Kheda",
    "statename": "GUJARAT"
  },
  {
    "pincode": "387620",
    "officename": "Vadali B.O",
    "officeType": "B.O",
    "Deliverystatus": "Delivery",
    "divisionname": "Kheda",
    "regionname": "Vadodara",
    "circlename": "Gujarat",
    "Taluk": "Kapadwanj",
    "Districtname": "Kheda",
    "statename": "GUJARAT"
  },
  {
    "pincode": "387620",
    "officename": "Vaghas B.O",
    "officeType": "B.O",
    "Deliverystatus": "Delivery",
    "divisionname": "Kheda",
    "regionname": "Vadodara",
    "circlename": "Gujarat",
    "Taluk": "Kapadwanj",
    "Districtname": "Kheda",
    "statename": "GUJARAT"
  },
  {
    "pincode": "387620",
    "officename": "Vishnupura B.O",
    "officeType": "B.O",
    "Deliverystatus": "Delivery",
    "divisionname": "Kheda",
    "regionname": "Vadodara",
    "circlename": "Gujarat",
    "Taluk": "Kapadvanj",
    "Districtname": "Kheda",
    "statename": "GUJARAT"
  }
]
