[
  {
    "pincode": "388001",
    "officename": "Amuldairy  (Anand) S.O",
    "officeType": "S.O",
    "Deliverystatus": "Non-Delivery",
    "divisionname": "Anand",
    "regionname": "Vadodara",
    "circlename": "Gujarat",
    "Taluk": "Anand",
    "Districtname": "Anand",
    "statename": "GUJARAT"
  },
  {
    "pincode": "388001",
    "officename": "Anand H.O",
    "officeType": "H.O",
    "Deliverystatus": "Delivery",
    "divisionname": "Anand",
    "regionname": "Vadodara",
    "circlename": "Gujarat",
    "Taluk": "Anand",
    "Districtname": "Anand",
    "statename": "GUJARAT"
  },
  {
    "pincode": "388001",
    "officename": "Anand Town  (Anand) S.O",
    "officeType": "S.O",
    "Deliverystatus": "Non-Delivery",
    "divisionname": "Anand",
    "regionname": "Vadodara",
    "circlename": "Gujarat",
    "Taluk": "Anand",
    "Districtname": "Anand",
    "statename": "GUJARAT"
  },
  {
    "pincode": "388001",
    "officename": "District Court S.O (Anand)",
    "officeType": "S.O",
    "Deliverystatus": "Non-Delivery",
    "divisionname": "Anand",
    "regionname": "Vadodara",
    "circlename": "Gujarat",
    "Taluk": "Anand",
    "Districtname": "Anand",
    "statename": "GUJARAT"
  },
  {
    "pincode": "388001",
    "officename": "Gamdi B.O",
    "officeType": "B.O",
    "Deliverystatus": "Non-Delivery",
    "divisionname": "Anand",
    "regionname": "Vadodara",
    "circlename": "Gujarat",
    "Taluk": "Anand",
    "Districtname": "Anand",
    "statename": "GUJARAT"
  },
  {
    "pincode": "388001",
    "officename": "Jitodia B.O",
    "officeType": "B.O",
    "Deliverystatus": "Delivery",
    "divisionname": "Anand",
    "regionname": "Vadodara",
    "circlename": "Gujarat",
    "Taluk": "Anand",
    "Districtname": "Anand",
    "statename": "GUJARAT"
  },
  {
    "pincode": "388001",
    "officename": "Sardarganj   (Anand) S.O",
    "officeType": "S.O",
    "Deliverystatus": "Non-Delivery",
    "divisionname": "Anand",
    "regionname": "Vadodara",
    "circlename": "Gujarat",
    "Taluk": "Anand",
    "Districtname": "Anand",
    "statename": "GUJARAT"
  },
  {
    "pincode": "388001",
    "officename": "Veternary College  (Anand) S.O",
    "officeType": "S.O",
    "Deliverystatus": "Non-Delivery",
    "divisionname": "Anand",
    "regionname": "Vadodara",
    "circlename": "Gujarat",
    "Taluk": "Anand",
    "Districtname": "Anand",
    "statename": "GUJARAT"
  }
]
