[
  {
    "pincode": "388130",
    "officename": "Agas B.O",
    "officeType": "B.O",
    "Deliverystatus": "Delivery",
    "divisionname": "Anand",
    "regionname": "Vadodara",
    "circlename": "Gujarat",
    "Taluk": "Petlad",
    "Districtname": "Anand",
    "statename": "GUJARAT"
  },
  {
    "pincode": "388130",
    "officename": "Ashi B.O",
    "officeType": "B.O",
    "Deliverystatus": "Delivery",
    "divisionname": "Anand",
    "regionname": "Vadodara",
    "circlename": "Gujarat",
    "Taluk": "Petlad",
    "Districtname": "Anand",
    "statename": "GUJARAT"
  },
  {
    "pincode": "388130",
    "officename": "Boria S.O (Anand)",
    "officeType": "S.O",
    "Deliverystatus": "Delivery",
    "divisionname": "Anand",
    "regionname": "Vadodara",
    "circlename": "Gujarat",
    "Taluk": "Petlad",
    "Districtname": "Anand",
    "statename": "GUJARAT"
  },
  {
    "pincode": "388130",
    "officename": "Dhundakuva B.O",
    "officeType": "B.O",
    "Deliverystatus": "Delivery",
    "divisionname": "Anand",
    "regionname": "Vadodara",
    "circlename": "Gujarat",
    "Taluk": "Borsad",
    "Districtname": "Anand",
    "statename": "GUJARAT"
  },
  {
    "pincode": "388130",
    "officename": "Morad B.O",
    "officeType": "B.O",
    "Deliverystatus": "Delivery",
    "divisionname": "Anand",
    "regionname": "Vadodara",
    "circlename": "Gujarat",
    "Taluk": "Perlad",
    "Districtname": "Anand",
    "statename": "GUJARAT"
  },
  {
    "pincode": "388130",
    "officename": "Porda B.O",
    "officeType": "B.O",
    "Deliverystatus": "Delivery",
    "divisionname": "Anand",
    "regionname": "Vadodara",
    "circlename": "Gujarat",
    "Taluk": "Petlad",
    "Districtname": "Anand",
    "statename": "GUJARAT"
  },
  {
    "pincode": "388130",
    "officename": "Sandesar B.O",
    "officeType": "B.O",
    "Deliverystatus": "Delivery",
    "divisionname": "Anand",
    "regionname": "Vadodara",
    "circlename": "Gujarat",
    "Taluk": "Anand",
    "Districtname": "Anand",
    "statename": "GUJARAT"
  },
  {
    "pincode": "388130",
    "officename": "Sinhol B.O",
    "officeType": "B.O",
    "Deliverystatus": "Delivery",
    "divisionname": "Anand",
    "regionname": "Vadodara",
    "circlename": "Gujarat",
    "Taluk": "Petlad",
    "Districtname": "Anand",
    "statename": "GUJARAT"
  },
  {
    "pincode": "388130",
    "officename": "Surkuva B.O",
    "officeType": "B.O",
    "Deliverystatus": "Delivery",
    "divisionname": "Anand",
    "regionname": "Vadodara",
    "circlename": "Gujarat",
    "Taluk": "Borsad",
    "Districtname": "Anand",
    "statename": "GUJARAT"
  }
]
