[
  {
    "pincode": "388180",
    "officename": "Bamangam B.O",
    "officeType": "B.O",
    "Deliverystatus": "Delivery",
    "divisionname": "Kheda",
    "regionname": "Vadodara",
    "circlename": "Gujarat",
    "Taluk": "Matar",
    "Districtname": "Kheda",
    "statename": "GUJARAT"
  },
  {
    "pincode": "388180",
    "officename": "Chagada B.O",
    "officeType": "B.O",
    "Deliverystatus": "Delivery",
    "divisionname": "Kheda",
    "regionname": "Vadodara",
    "circlename": "Gujarat",
    "Taluk": "Tarapur",
    "Districtname": "Anand",
    "statename": "GUJARAT"
  },
  {
    "pincode": "388180",
    "officename": "Gorad B.O",
    "officeType": "B.O",
    "Deliverystatus": "Delivery",
    "divisionname": "Kheda",
    "regionname": "Vadodara",
    "circlename": "Gujarat",
    "Taluk": "Tarapur",
    "Districtname": "Anand",
    "statename": "GUJARAT"
  },
  {
    "pincode": "388180",
    "officename": "Hadeva B.O",
    "officeType": "B.O",
    "Deliverystatus": "Delivery",
    "divisionname": "Kheda",
    "regionname": "Vadodara",
    "circlename": "Gujarat",
    "Taluk": "Tarapur",
    "Districtname": "Anand",
    "statename": "GUJARAT"
  },
  {
    "pincode": "388180",
    "officename": "Indranaj B.O",
    "officeType": "B.O",
    "Deliverystatus": "Delivery",
    "divisionname": "Kheda",
    "regionname": "Vadodara",
    "circlename": "Gujarat",
    "Taluk": "Tarapur",
    "Districtname": "Anand",
    "statename": "GUJARAT"
  },
  {
    "pincode": "388180",
    "officename": "Isarvada B.O",
    "officeType": "B.O",
    "Deliverystatus": "Delivery",
    "divisionname": "Kheda",
    "regionname": "Vadodara",
    "circlename": "Gujarat",
    "Taluk": "Tarapur",
    "Districtname": "Anand",
    "statename": "GUJARAT"
  },
  {
    "pincode": "388180",
    "officename": "Jichka B.O",
    "officeType": "B.O",
    "Deliverystatus": "Delivery",
    "divisionname": "Kheda",
    "regionname": "Vadodara",
    "circlename": "Gujarat",
    "Taluk": "Tarapur",
    "Districtname": "Anand",
    "statename": "GUJARAT"
  },
  {
    "pincode": "388180",
    "officename": "Kanavada B.O",
    "officeType": "B.O",
    "Deliverystatus": "Delivery",
    "divisionname": "Kheda",
    "regionname": "Vadodara",
    "circlename": "Gujarat",
    "Taluk": "Tarapur",
    "Districtname": "Anand",
    "statename": "GUJARAT"
  },
  {
    "pincode": "388180",
    "officename": "Kasbara B.O",
    "officeType": "B.O",
    "Deliverystatus": "Delivery",
    "divisionname": "Kheda",
    "regionname": "Vadodara",
    "circlename": "Gujarat",
    "Taluk": "Tarapur",
    "Districtname": "Anand",
    "statename": "GUJARAT"
  },
  {
    "pincode": "388180",
    "officename": "Khanpur B.O",
    "officeType": "B.O",
    "Deliverystatus": "Delivery",
    "divisionname": "Kheda",
    "regionname": "Vadodara",
    "circlename": "Gujarat",
    "Taluk": "Tarapur",
    "Districtname": "Anand",
    "statename": "GUJARAT"
  },
  {
    "pincode": "388180",
    "officename": "Mahiyari B.O",
    "officeType": "B.O",
    "Deliverystatus": "Delivery",
    "divisionname": "Kheda",
    "regionname": "Vadodara",
    "circlename": "Gujarat",
    "Taluk": "Tarapur",
    "Districtname": "Anand",
    "statename": "GUJARAT"
  },
  {
    "pincode": "388180",
    "officename": "Milarampura B.O",
    "officeType": "B.O",
    "Deliverystatus": "Delivery",
    "divisionname": "Kheda",
    "regionname": "Vadodara",
    "circlename": "Gujarat",
    "Taluk": "Tarapur",
    "Districtname": "Anand",
    "statename": "GUJARAT"
  },
  {
    "pincode": "388180",
    "officename": "Mitli B.O",
    "officeType": "B.O",
    "Deliverystatus": "Delivery",
    "divisionname": "Kheda",
    "regionname": "Vadodara",
    "circlename": "Gujarat",
    "Taluk": "Tarapura=",
    "Districtname": "Anand",
    "statename": "GUJARAT"
  },
  {
    "pincode": "388180",
    "officename": "Moraj B.O",
    "officeType": "B.O",
    "Deliverystatus": "Delivery",
    "divisionname": "Kheda",
    "regionname": "Vadodara",
    "circlename": "Gujarat",
    "Taluk": "Tarapur",
    "Districtname": "Anand",
    "statename": "GUJARAT"
  },
  {
    "pincode": "388180",
    "officename": "Padra B.O",
    "officeType": "B.O",
    "Deliverystatus": "Delivery",
    "divisionname": "Kheda",
    "regionname": "Vadodara",
    "circlename": "Gujarat",
    "Taluk": "Tarapur",
    "Districtname": "Anand",
    "statename": "GUJARAT"
  },
  {
    "pincode": "388180",
    "officename": "Pariej B.O",
    "officeType": "B.O",
    "Deliverystatus": "Delivery",
    "divisionname": "Kheda",
    "regionname": "Vadodara",
    "circlename": "Gujarat",
    "Taluk": "Tarapur",
    "Districtname": "Anand",
    "statename": "GUJARAT"
  },
  {
    "pincode": "388180",
    "officename": "Sansej B.O",
    "officeType": "B.O",
    "Deliverystatus": "Delivery",
    "divisionname": "Kheda",
    "regionname": "Vadodara",
    "circlename": "Gujarat",
    "Taluk": "Petlad",
    "Districtname": "Anand",
    "statename": "GUJARAT"
  },
  {
    "pincode": "388180",
    "officename": "Sinjivada B.O",
    "officeType": "B.O",
    "Deliverystatus": "Delivery",
    "divisionname": "Kheda",
    "regionname": "Vadodara",
    "circlename": "Gujarat",
    "Taluk": "Matar",
    "Districtname": "Kheda",
    "statename": "GUJARAT"
  },
  {
    "pincode": "388180",
    "officename": "Tarapur S.O (Anand)",
    "officeType": "S.O",
    "Deliverystatus": "Delivery",
    "divisionname": "Kheda",
    "regionname": "Vadodara",
    "circlename": "Gujarat",
    "Taluk": "Tarapur",
    "Districtname": "Anand",
    "statename": "GUJARAT"
  },
  {
    "pincode": "388180",
    "officename": "Varsada B.O",
    "officeType": "B.O",
    "Deliverystatus": "Delivery",
    "divisionname": "Kheda",
    "regionname": "Vadodara",
    "circlename": "Gujarat",
    "Taluk": "Tarapur",
    "Districtname": "Anand",
    "statename": "GUJARAT"
  },
  {
    "pincode": "388180",
    "officename": "Vastana B.O",
    "officeType": "B.O",
    "Deliverystatus": "Delivery",
    "divisionname": "Kheda",
    "regionname": "Vadodara",
    "circlename": "Gujarat",
    "Taluk": "Matar",
    "Districtname": "Kheda",
    "statename": "GUJARAT"
  }
]
