[
  {
    "pincode": "388255",
    "officename": "Bhanthala B.O",
    "officeType": "B.O",
    "Deliverystatus": "Delivery",
    "divisionname": "Anand",
    "regionname": "Vadodara",
    "circlename": "Gujarat",
    "Taluk": "Balasinor",
    "Districtname": "Kheda",
    "statename": "GUJARAT"
  },
  {
    "pincode": "388255",
    "officename": "Felsani B.O",
    "officeType": "B.O",
    "Deliverystatus": "Delivery",
    "divisionname": "Anand",
    "regionname": "Vadodara",
    "circlename": "Gujarat",
    "Taluk": "Balasinor",
    "Districtname": "Kheda",
    "statename": "GUJARAT"
  },
  {
    "pincode": "388255",
    "officename": "Gadhavada B.O",
    "officeType": "B.O",
    "Deliverystatus": "Delivery",
    "divisionname": "Anand",
    "regionname": "Vadodara",
    "circlename": "Gujarat",
    "Taluk": "Balasinor",
    "Districtname": "Kheda",
    "statename": "GUJARAT"
  },
  {
    "pincode": "388255",
    "officename": "Guntheli B.O",
    "officeType": "B.O",
    "Deliverystatus": "Delivery",
    "divisionname": "Anand",
    "regionname": "Vadodara",
    "circlename": "Gujarat",
    "Taluk": "Balasinor",
    "Districtname": "Kheda",
    "statename": "GUJARAT"
  },
  {
    "pincode": "388255",
    "officename": "Janod B.O",
    "officeType": "B.O",
    "Deliverystatus": "Delivery",
    "divisionname": "Anand",
    "regionname": "Vadodara",
    "circlename": "Gujarat",
    "Taluk": "Balasinor",
    "Districtname": "Kheda",
    "statename": "GUJARAT"
  },
  {
    "pincode": "388255",
    "officename": "Jorapura B.O",
    "officeType": "B.O",
    "Deliverystatus": "Delivery",
    "divisionname": "Anand",
    "regionname": "Vadodara",
    "circlename": "Gujarat",
    "Taluk": "Balasinor",
    "Districtname": "Kheda",
    "statename": "GUJARAT"
  },
  {
    "pincode": "388255",
    "officename": "Khadgodhra B.O",
    "officeType": "B.O",
    "Deliverystatus": "Delivery",
    "divisionname": "Anand",
    "regionname": "Vadodara",
    "circlename": "Gujarat",
    "Taluk": "Thasra",
    "Districtname": "Kheda",
    "statename": "GUJARAT"
  },
  {
    "pincode": "388255",
    "officename": "Navagama B.O",
    "officeType": "B.O",
    "Deliverystatus": "Delivery",
    "divisionname": "Anand",
    "regionname": "Vadodara",
    "circlename": "Gujarat",
    "Taluk": "Balasinor",
    "Districtname": "Kheda",
    "statename": "GUJARAT"
  },
  {
    "pincode": "388255",
    "officename": "Othwad B.O",
    "officeType": "B.O",
    "Deliverystatus": "Delivery",
    "divisionname": "Anand",
    "regionname": "Vadodara",
    "circlename": "Gujarat",
    "Taluk": "Balasinor",
    "Districtname": "Kheda",
    "statename": "GUJARAT"
  },
  {
    "pincode": "388255",
    "officename": "Rajpur B.O",
    "officeType": "B.O",
    "Deliverystatus": "Delivery",
    "divisionname": "Anand",
    "regionname": "Vadodara",
    "circlename": "Gujarat",
    "Taluk": "Birpur",
    "Districtname": "Kheda",
    "statename": "GUJARAT"
  },
  {
    "pincode": "388255",
    "officename": "Saliawadi B.O",
    "officeType": "B.O",
    "Deliverystatus": "Delivery",
    "divisionname": "Anand",
    "regionname": "Vadodara",
    "circlename": "Gujarat",
    "Taluk": "Balasinor",
    "Districtname": "Kheda",
    "statename": "GUJARAT"
  },
  {
    "pincode": "388255",
    "officename": "Saroda B.O",
    "officeType": "B.O",
    "Deliverystatus": "Delivery",
    "divisionname": "Anand",
    "regionname": "Vadodara",
    "circlename": "Gujarat",
    "Taluk": "Balasinor",
    "Districtname": "Kheda",
    "statename": "GUJARAT"
  },
  {
    "pincode": "388255",
    "officename": "Vadasinor S.O",
    "officeType": "S.O",
    "Deliverystatus": "Delivery",
    "divisionname": "Anand",
    "regionname": "Vadodara",
    "circlename": "Gujarat",
    "Taluk": "Balasinor",
    "Districtname": "Kheda",
    "statename": "GUJARAT"
  },
  {
    "pincode": "388255",
    "officename": "Vadasinor Town (Vadasinor) S.O",
    "officeType": "S.O",
    "Deliverystatus": "Non-Delivery",
    "divisionname": "Anand",
    "regionname": "Vadodara",
    "circlename": "Gujarat",
    "Taluk": "Balasinor",
    "Districtname": "Kheda",
    "statename": "GUJARAT"
  },
  {
    "pincode": "388255",
    "officename": "Vaddala B.O",
    "officeType": "B.O",
    "Deliverystatus": "Delivery",
    "divisionname": "Anand",
    "regionname": "Vadodara",
    "circlename": "Gujarat",
    "Taluk": "Balasinor",
    "Districtname": "Kheda",
    "statename": "GUJARAT"
  }
]
