[
  {
    "pincode": "388220",
    "officename": "Bechri B.O",
    "officeType": "B.O",
    "Deliverystatus": "Delivery",
    "divisionname": "Anand",
    "regionname": "Vadodara",
    "circlename": "Gujarat",
    "Taluk": "Umreth",
    "Districtname": "Anand",
    "statename": "GUJARAT"
  },
  {
    "pincode": "388220",
    "officename": "Bhatpura B.O",
    "officeType": "B.O",
    "Deliverystatus": "Delivery",
    "divisionname": "Anand",
    "regionname": "Vadodara",
    "circlename": "Gujarat",
    "Taluk": "Birpur",
    "Districtname": "Kheda",
    "statename": "GUJARAT"
  },
  {
    "pincode": "388220",
    "officename": "Ghora B.O",
    "officeType": "B.O",
    "Deliverystatus": "Delivery",
    "divisionname": "Anand",
    "regionname": "Vadodara",
    "circlename": "Gujarat",
    "Taluk": "Umreth",
    "Districtname": "Anand",
    "statename": "GUJARAT"
  },
  {
    "pincode": "388220",
    "officename": "Hamidpura B.O",
    "officeType": "B.O",
    "Deliverystatus": "Delivery",
    "divisionname": "Anand",
    "regionname": "Vadodara",
    "circlename": "Gujarat",
    "Taluk": "Umreth",
    "Districtname": "Anand",
    "statename": "GUJARAT"
  },
  {
    "pincode": "388220",
    "officename": "Khankhanpur B.O",
    "officeType": "B.O",
    "Deliverystatus": "Delivery",
    "divisionname": "Anand",
    "regionname": "Vadodara",
    "circlename": "Gujarat",
    "Taluk": "Umreth",
    "Districtname": "Anand",
    "statename": "GUJARAT"
  },
  {
    "pincode": "388220",
    "officename": "Lingda B.O",
    "officeType": "B.O",
    "Deliverystatus": "Delivery",
    "divisionname": "Anand",
    "regionname": "Vadodara",
    "circlename": "Gujarat",
    "Taluk": "Umreth",
    "Districtname": "Anand",
    "statename": "GUJARAT"
  },
  {
    "pincode": "388220",
    "officename": "Panchvati   (Umreth) S.O",
    "officeType": "S.O",
    "Deliverystatus": "Non-Delivery",
    "divisionname": "Anand",
    "regionname": "Vadodara",
    "circlename": "Gujarat",
    "Taluk": "Umreth",
    "Districtname": "Anand",
    "statename": "GUJARAT"
  },
  {
    "pincode": "388220",
    "officename": "Pandvania B.O",
    "officeType": "B.O",
    "Deliverystatus": "Delivery",
    "divisionname": "Anand",
    "regionname": "Vadodara",
    "circlename": "Gujarat",
    "Taluk": "Thasra",
    "Districtname": "Kheda",
    "statename": "GUJARAT"
  },
  {
    "pincode": "388220",
    "officename": "Pansora B.O",
    "officeType": "B.O",
    "Deliverystatus": "Delivery",
    "divisionname": "Anand",
    "regionname": "Vadodara",
    "circlename": "Gujarat",
    "Taluk": "Umreth",
    "Districtname": "Anand",
    "statename": "GUJARAT"
  },
  {
    "pincode": "388220",
    "officename": "Ratanpura B.O",
    "officeType": "B.O",
    "Deliverystatus": "Delivery",
    "divisionname": "Anand",
    "regionname": "Vadodara",
    "circlename": "Gujarat",
    "Taluk": "Umreth",
    "Districtname": "Anand",
    "statename": "GUJARAT"
  },
  {
    "pincode": "388220",
    "officename": "Umreth S.O",
    "officeType": "S.O",
    "Deliverystatus": "Delivery",
    "divisionname": "Anand",
    "regionname": "Vadodara",
    "circlename": "Gujarat",
    "Taluk": "Umreth",
    "Districtname": "Anand",
    "statename": "GUJARAT"
  },
  {
    "pincode": "388220",
    "officename": "Vinzol B.O",
    "officeType": "B.O",
    "Deliverystatus": "Delivery",
    "divisionname": "Anand",
    "regionname": "Vadodara",
    "circlename": "Gujarat",
    "Taluk": "Thsra",
    "Districtname": "Kheda",
    "statename": "GUJARAT"
  }
]
