[
  {
    "pincode": "388250",
    "officename": "Ambav (Thasra) B.O",
    "officeType": "B.O",
    "Deliverystatus": "Delivery",
    "divisionname": "Anand",
    "regionname": "Vadodara",
    "circlename": "Gujarat",
    "Taluk": "Thasra",
    "Districtname": "Kheda",
    "statename": "GUJARAT"
  },
  {
    "pincode": "388250",
    "officename": "Angadi B.O",
    "officeType": "B.O",
    "Deliverystatus": "Delivery",
    "divisionname": "Anand",
    "regionname": "Vadodara",
    "circlename": "Gujarat",
    "Taluk": "Thasra",
    "Districtname": "Kheda",
    "statename": "GUJARAT"
  },
  {
    "pincode": "388250",
    "officename": "Dabhali B.O",
    "officeType": "B.O",
    "Deliverystatus": "Delivery",
    "divisionname": "Anand",
    "regionname": "Vadodara",
    "circlename": "Gujarat",
    "Taluk": "Thasra",
    "Districtname": "Kheda",
    "statename": "GUJARAT"
  },
  {
    "pincode": "388250",
    "officename": "Dhundi B.O",
    "officeType": "B.O",
    "Deliverystatus": "Delivery",
    "divisionname": "Anand",
    "regionname": "Vadodara",
    "circlename": "Gujarat",
    "Taluk": "Thasra",
    "Districtname": "Kheda",
    "statename": "GUJARAT"
  },
  {
    "pincode": "388250",
    "officename": "Golaj B.O",
    "officeType": "B.O",
    "Deliverystatus": "Delivery",
    "divisionname": "Anand",
    "regionname": "Vadodara",
    "circlename": "Gujarat",
    "Taluk": "Thasra",
    "Districtname": "Kheda",
    "statename": "GUJARAT"
  },
  {
    "pincode": "388250",
    "officename": "Gumadia B.O",
    "officeType": "B.O",
    "Deliverystatus": "Delivery",
    "divisionname": "Anand",
    "regionname": "Vadodara",
    "circlename": "Gujarat",
    "Taluk": "Thasra",
    "Districtname": "Kheda",
    "statename": "GUJARAT"
  },
  {
    "pincode": "388250",
    "officename": "Kosam B.O",
    "officeType": "B.O",
    "Deliverystatus": "Delivery",
    "divisionname": "Anand",
    "regionname": "Vadodara",
    "circlename": "Gujarat",
    "Taluk": "Thasra",
    "Districtname": "Kheda",
    "statename": "GUJARAT"
  },
  {
    "pincode": "388250",
    "officename": "Nanadara B.O",
    "officeType": "B.O",
    "Deliverystatus": "Delivery",
    "divisionname": "Anand",
    "regionname": "Vadodara",
    "circlename": "Gujarat",
    "Taluk": "Thasra",
    "Districtname": "Kheda",
    "statename": "GUJARAT"
  },
  {
    "pincode": "388250",
    "officename": "Nepalpura B.O",
    "officeType": "B.O",
    "Deliverystatus": "Delivery",
    "divisionname": "Anand",
    "regionname": "Vadodara",
    "circlename": "Gujarat",
    "Taluk": "Thasra",
    "Districtname": "Kheda",
    "statename": "GUJARAT"
  },
  {
    "pincode": "388250",
    "officename": "Pipalwada B.O",
    "officeType": "B.O",
    "Deliverystatus": "Delivery",
    "divisionname": "Anand",
    "regionname": "Vadodara",
    "circlename": "Gujarat",
    "Taluk": "Thasra",
    "Districtname": "Kheda",
    "statename": "GUJARAT"
  },
  {
    "pincode": "388250",
    "officename": "Rasulpur B.O",
    "officeType": "B.O",
    "Deliverystatus": "Delivery",
    "divisionname": "Anand",
    "regionname": "Vadodara",
    "circlename": "Gujarat",
    "Taluk": "Thasra",
    "Districtname": "Kheda",
    "statename": "GUJARAT"
  },
  {
    "pincode": "388250",
    "officename": "Sandheli B.O",
    "officeType": "B.O",
    "Deliverystatus": "Delivery",
    "divisionname": "Anand",
    "regionname": "Vadodara",
    "circlename": "Gujarat",
    "Taluk": "Thasra",
    "Districtname": "Kheda",
    "statename": "GUJARAT"
  },
  {
    "pincode": "388250",
    "officename": "Thasra S.O",
    "officeType": "S.O",
    "Deliverystatus": "Delivery",
    "divisionname": "Anand",
    "regionname": "Vadodara",
    "circlename": "Gujarat",
    "Taluk": "Thasra",
    "Districtname": "Kheda",
    "statename": "GUJARAT"
  },
  {
    "pincode": "388250",
    "officename": "Vadad B.O",
    "officeType": "B.O",
    "Deliverystatus": "Delivery",
    "divisionname": "Anand",
    "regionname": "Vadodara",
    "circlename": "Gujarat",
    "Taluk": "Thasra",
    "Districtname": "Kheda",
    "statename": "GUJARAT"
  }
]
