[
  {
    "pincode": "388260",
    "officename": "Bharodi B.O",
    "officeType": "B.O",
    "Deliverystatus": "Delivery",
    "divisionname": "Anand",
    "regionname": "Vadodara",
    "circlename": "Gujarat",
    "Taluk": "Birpur",
    "Districtname": "Kheda",
    "statename": "GUJARAT"
  },
  {
    "pincode": "388260",
    "officename": "Bhatpur B.O",
    "officeType": "B.O",
    "Deliverystatus": "Delivery",
    "divisionname": "Anand",
    "regionname": "Vadodara",
    "circlename": "Gujarat",
    "Taluk": "Birpur",
    "Districtname": "Kheda",
    "statename": "GUJARAT"
  },
  {
    "pincode": "388260",
    "officename": "Birpur S.O (Kheda)",
    "officeType": "S.O",
    "Deliverystatus": "Delivery",
    "divisionname": "Anand",
    "regionname": "Vadodara",
    "circlename": "Gujarat",
    "Taluk": "Birpur",
    "Districtname": "Kheda",
    "statename": "GUJARAT"
  },
  {
    "pincode": "388260",
    "officename": "Debhari B.O",
    "officeType": "B.O",
    "Deliverystatus": "Delivery",
    "divisionname": "Anand",
    "regionname": "Vadodara",
    "circlename": "Gujarat",
    "Taluk": "Virpur",
    "Districtname": "Kheda",
    "statename": "GUJARAT"
  },
  {
    "pincode": "388260",
    "officename": "Gandhari B.O",
    "officeType": "B.O",
    "Deliverystatus": "Delivery",
    "divisionname": "Anand",
    "regionname": "Vadodara",
    "circlename": "Gujarat",
    "Taluk": "Birpur",
    "Districtname": "Kheda",
    "statename": "GUJARAT"
  },
  {
    "pincode": "388260",
    "officename": "Kasodi B.O",
    "officeType": "B.O",
    "Deliverystatus": "Delivery",
    "divisionname": "Anand",
    "regionname": "Vadodara",
    "circlename": "Gujarat",
    "Taluk": "Birpur",
    "Districtname": "Kheda",
    "statename": "GUJARAT"
  },
  {
    "pincode": "388260",
    "officename": "Khata B.O",
    "officeType": "B.O",
    "Deliverystatus": "Delivery",
    "divisionname": "Anand",
    "regionname": "Vadodara",
    "circlename": "Gujarat",
    "Taluk": "Birpur",
    "Districtname": "Kheda",
    "statename": "GUJARAT"
  },
  {
    "pincode": "388260",
    "officename": "Kheroli B.O",
    "officeType": "B.O",
    "Deliverystatus": "Delivery",
    "divisionname": "Anand",
    "regionname": "Vadodara",
    "circlename": "Gujarat",
    "Taluk": "Birpur",
    "Districtname": "Kheda",
    "statename": "GUJARAT"
  },
  {
    "pincode": "388260",
    "officename": "Koydam B.O",
    "officeType": "B.O",
    "Deliverystatus": "Delivery",
    "divisionname": "Anand",
    "regionname": "Vadodara",
    "circlename": "Gujarat",
    "Taluk": "Birpur",
    "Districtname": "Kheda",
    "statename": "GUJARAT"
  },
  {
    "pincode": "388260",
    "officename": "Koyla B.O",
    "officeType": "B.O",
    "Deliverystatus": "Delivery",
    "divisionname": "Anand",
    "regionname": "Vadodara",
    "circlename": "Gujarat",
    "Taluk": "Birpur",
    "Districtname": "Kheda",
    "statename": "GUJARAT"
  },
  {
    "pincode": "388260",
    "officename": "Kumbharwadi B.O",
    "officeType": "B.O",
    "Deliverystatus": "Delivery",
    "divisionname": "Anand",
    "regionname": "Vadodara",
    "circlename": "Gujarat",
    "Taluk": "Birpur",
    "Districtname": "Kheda",
    "statename": "GUJARAT"
  },
  {
    "pincode": "388260",
    "officename": "Limbarwada B.O",
    "officeType": "B.O",
    "Deliverystatus": "Delivery",
    "divisionname": "Anand",
    "regionname": "Vadodara",
    "circlename": "Gujarat",
    "Taluk": "Birpur",
    "Districtname": "Kheda",
    "statename": "GUJARAT"
  },
  {
    "pincode": "388260",
    "officename": "Rampura B.O",
    "officeType": "B.O",
    "Deliverystatus": "Delivery",
    "divisionname": "Anand",
    "regionname": "Vadodara",
    "circlename": "Gujarat",
    "Taluk": "Birpur",
    "Districtname": "Kheda",
    "statename": "GUJARAT"
  },
  {
    "pincode": "388260",
    "officename": "Rasulpur B.O",
    "officeType": "B.O",
    "Deliverystatus": "Delivery",
    "divisionname": "Anand",
    "regionname": "Vadodara",
    "circlename": "Gujarat",
    "Taluk": "Birpur",
    "Districtname": "Kheda",
    "statename": "GUJARAT"
  },
  {
    "pincode": "388260",
    "officename": "Ratankuva B.O",
    "officeType": "B.O",
    "Deliverystatus": "Delivery",
    "divisionname": "Anand",
    "regionname": "Vadodara",
    "circlename": "Gujarat",
    "Taluk": "Birpur",
    "Districtname": "Kheda",
    "statename": "GUJARAT"
  },
  {
    "pincode": "388260",
    "officename": "Salaiya B.O",
    "officeType": "B.O",
    "Deliverystatus": "Delivery",
    "divisionname": "Anand",
    "regionname": "Vadodara",
    "circlename": "Gujarat",
    "Taluk": "Birpur",
    "Districtname": "Kheda",
    "statename": "GUJARAT"
  },
  {
    "pincode": "388260",
    "officename": "Saradia B.O",
    "officeType": "B.O",
    "Deliverystatus": "Delivery",
    "divisionname": "Anand",
    "regionname": "Vadodara",
    "circlename": "Gujarat",
    "Taluk": "Birpur",
    "Districtname": "Kheda",
    "statename": "GUJARAT"
  },
  {
    "pincode": "388260",
    "officename": "Vaghas B.O",
    "officeType": "B.O",
    "Deliverystatus": "Delivery",
    "divisionname": "Anand",
    "regionname": "Vadodara",
    "circlename": "Gujarat",
    "Taluk": "Birpur",
    "Districtname": "Kheda",
    "statename": "GUJARAT"
  }
]
