[
  {
    "pincode": "388450",
    "officename": "Ardi B.O",
    "officeType": "B.O",
    "Deliverystatus": "Delivery",
    "divisionname": "Kheda",
    "regionname": "Vadodara",
    "circlename": "Gujarat",
    "Taluk": "Petlad",
    "Districtname": "Anand",
    "statename": "GUJARAT"
  },
  {
    "pincode": "388450",
    "officename": "Bhavanipura B.O",
    "officeType": "B.O",
    "Deliverystatus": "Delivery",
    "divisionname": "Kheda",
    "regionname": "Vadodara",
    "circlename": "Gujarat",
    "Taluk": "Petlad",
    "Districtname": "Anand",
    "statename": "GUJARAT"
  },
  {
    "pincode": "388450",
    "officename": "Dantali B.O",
    "officeType": "B.O",
    "Deliverystatus": "Delivery",
    "divisionname": "Kheda",
    "regionname": "Vadodara",
    "circlename": "Gujarat",
    "Taluk": "Petlad",
    "Districtname": "Anand",
    "statename": "GUJARAT"
  },
  {
    "pincode": "388450",
    "officename": "Davalpura B.O",
    "officeType": "B.O",
    "Deliverystatus": "Delivery",
    "divisionname": "Kheda",
    "regionname": "Vadodara",
    "circlename": "Gujarat",
    "Taluk": "Petlad",
    "Districtname": "Anand",
    "statename": "GUJARAT"
  },
  {
    "pincode": "388450",
    "officename": "Fangani B.O",
    "officeType": "B.O",
    "Deliverystatus": "Delivery",
    "divisionname": "Kheda",
    "regionname": "Vadodara",
    "circlename": "Gujarat",
    "Taluk": "Petlad",
    "Districtname": "Anand",
    "statename": "GUJARAT"
  },
  {
    "pincode": "388450",
    "officename": "Mariumpura B.O",
    "officeType": "B.O",
    "Deliverystatus": "Delivery",
    "divisionname": "Kheda",
    "regionname": "Vadodara",
    "circlename": "Gujarat",
    "Taluk": "Petlad",
    "Districtname": "Anand",
    "statename": "GUJARAT"
  },
  {
    "pincode": "388450",
    "officename": "Petlad RS S.O",
    "officeType": "S.O",
    "Deliverystatus": "Non-Delivery",
    "divisionname": "Kheda",
    "regionname": "Vadodara",
    "circlename": "Gujarat",
    "Taluk": "Petlad",
    "Districtname": "Anand",
    "statename": "GUJARAT"
  },
  {
    "pincode": "388450",
    "officename": "Petlad S.O",
    "officeType": "S.O",
    "Deliverystatus": "Delivery",
    "divisionname": "Kheda",
    "regionname": "Vadodara",
    "circlename": "Gujarat",
    "Taluk": "Petlad",
    "Districtname": "Anand",
    "statename": "GUJARAT"
  },
  {
    "pincode": "388450",
    "officename": "Rangaipura B.O",
    "officeType": "B.O",
    "Deliverystatus": "Delivery",
    "divisionname": "Kheda",
    "regionname": "Vadodara",
    "circlename": "Gujarat",
    "Taluk": "Petlad",
    "Districtname": "Anand",
    "statename": "GUJARAT"
  }
]
