[
  {
    "pincode": "388530",
    "officename": "Bhadran S.O",
    "officeType": "S.O",
    "Deliverystatus": "Delivery",
    "divisionname": "Anand",
    "regionname": "Vadodara",
    "circlename": "Gujarat",
    "Taluk": "Borsad",
    "Districtname": "Anand",
    "statename": "GUJARAT"
  },
  {
    "pincode": "388530",
    "officename": "Gajna B.O",
    "officeType": "B.O",
    "Deliverystatus": "Delivery",
    "divisionname": "Anand",
    "regionname": "Vadodara",
    "circlename": "Gujarat",
    "Taluk": "Borsad",
    "Districtname": "Anand",
    "statename": "GUJARAT"
  },
  {
    "pincode": "388530",
    "officename": "Kathol B.O",
    "officeType": "B.O",
    "Deliverystatus": "Delivery",
    "divisionname": "Anand",
    "regionname": "Vadodara",
    "circlename": "Gujarat",
    "Taluk": "Borsad",
    "Districtname": "Anand",
    "statename": "GUJARAT"
  },
  {
    "pincode": "388530",
    "officename": "Khedasa B.O",
    "officeType": "B.O",
    "Deliverystatus": "Delivery",
    "divisionname": "Anand",
    "regionname": "Vadodara",
    "circlename": "Gujarat",
    "Taluk": "Anand",
    "Districtname": "Anand",
    "statename": "GUJARAT"
  },
  {
    "pincode": "388530",
    "officename": "Pipli B.O",
    "officeType": "B.O",
    "Deliverystatus": "Delivery",
    "divisionname": "Anand",
    "regionname": "Vadodara",
    "circlename": "Gujarat",
    "Taluk": "Borsad",
    "Districtname": "Anand",
    "statename": "GUJARAT"
  },
  {
    "pincode": "388530",
    "officename": "Sarol B.O",
    "officeType": "B.O",
    "Deliverystatus": "Delivery",
    "divisionname": "Anand",
    "regionname": "Vadodara",
    "circlename": "Gujarat",
    "Taluk": "Borsad",
    "Districtname": "Anand",
    "statename": "GUJARAT"
  },
  {
    "pincode": "388530",
    "officename": "Sisva B.O",
    "officeType": "B.O",
    "Deliverystatus": "Delivery",
    "divisionname": "Anand",
    "regionname": "Vadodara",
    "circlename": "Gujarat",
    "Taluk": "Borsad",
    "Districtname": "Anand",
    "statename": "GUJARAT"
  },
  {
    "pincode": "388530",
    "officename": "Valvod B.O",
    "officeType": "B.O",
    "Deliverystatus": "Delivery",
    "divisionname": "Anand",
    "regionname": "Vadodara",
    "circlename": "Gujarat",
    "Taluk": "Borsad",
    "Districtname": "Anand",
    "statename": "GUJARAT"
  }
]
