[
  {
    "pincode": "388540",
    "officename": "Bodal B.O",
    "officeType": "B.O",
    "Deliverystatus": "Delivery",
    "divisionname": "Anand",
    "regionname": "Vadodara",
    "circlename": "Gujarat",
    "Taluk": "Borsad",
    "Districtname": "Anand",
    "statename": "GUJARAT"
  },
  {
    "pincode": "388540",
    "officename": "Borsad S.O",
    "officeType": "S.O",
    "Deliverystatus": "Delivery",
    "divisionname": "Anand",
    "regionname": "Vadodara",
    "circlename": "Gujarat",
    "Taluk": "Borsad",
    "Districtname": "Anand",
    "statename": "GUJARAT"
  },
  {
    "pincode": "388540",
    "officename": "Davol B.O",
    "officeType": "B.O",
    "Deliverystatus": "Delivery",
    "divisionname": "Anand",
    "regionname": "Vadodara",
    "circlename": "Gujarat",
    "Taluk": "Borsad",
    "Districtname": "Anand",
    "statename": "GUJARAT"
  },
  {
    "pincode": "388540",
    "officename": "Kashipura  (Borsad) S.O",
    "officeType": "S.O",
    "Deliverystatus": "Non-Delivery",
    "divisionname": "Anand",
    "regionname": "Vadodara",
    "circlename": "Gujarat",
    "Taluk": "Borsad",
    "Districtname": "Anand",
    "statename": "GUJARAT"
  },
  {
    "pincode": "388540",
    "officename": "Kasumbad B.O",
    "officeType": "B.O",
    "Deliverystatus": "Delivery",
    "divisionname": "Anand",
    "regionname": "Vadodara",
    "circlename": "Gujarat",
    "Taluk": "Borsad",
    "Districtname": "Anand",
    "statename": "GUJARAT"
  },
  {
    "pincode": "388540",
    "officename": "Nisraya B.O",
    "officeType": "B.O",
    "Deliverystatus": "Delivery",
    "divisionname": "Anand",
    "regionname": "Vadodara",
    "circlename": "Gujarat",
    "Taluk": "Borsad",
    "Districtname": "Anand",
    "statename": "GUJARAT"
  },
  {
    "pincode": "388540",
    "officename": "Vasna B.O",
    "officeType": "B.O",
    "Deliverystatus": "Delivery",
    "divisionname": "Anand",
    "regionname": "Vadodara",
    "circlename": "Gujarat",
    "Taluk": "Borsad",
    "Districtname": "Anand",
    "statename": "GUJARAT"
  },
  {
    "pincode": "388540",
    "officename": "Vera B.O",
    "officeType": "B.O",
    "Deliverystatus": "Delivery",
    "divisionname": "Anand",
    "regionname": "Vadodara",
    "circlename": "Gujarat",
    "Taluk": "Borsad",
    "Districtname": "Anand",
    "statename": "GUJARAT"
  }
]
