[
  {
    "pincode": "388620",
    "officename": "Budhej B.O",
    "officeType": "B.O",
    "Deliverystatus": "Delivery",
    "divisionname": "Kheda",
    "regionname": "Vadodara",
    "circlename": "Gujarat",
    "Taluk": "Tarapur",
    "Districtname": "Anand",
    "statename": "GUJARAT"
  },
  {
    "pincode": "388620",
    "officename": "Chitari Bazar S.O",
    "officeType": "S.O",
    "Deliverystatus": "Non-Delivery",
    "divisionname": "Kheda",
    "regionname": "Vadodara",
    "circlename": "Gujarat",
    "Taluk": "Khambhat",
    "Districtname": "Anand",
    "statename": "GUJARAT"
  },
  {
    "pincode": "388620",
    "officename": "Daheda B.O",
    "officeType": "B.O",
    "Deliverystatus": "Delivery",
    "divisionname": "Kheda",
    "regionname": "Vadodara",
    "circlename": "Gujarat",
    "Taluk": "Khambhat",
    "Districtname": "Anand",
    "statename": "GUJARAT"
  },
  {
    "pincode": "388620",
    "officename": "Jinaj B.O",
    "officeType": "B.O",
    "Deliverystatus": "Delivery",
    "divisionname": "Kheda",
    "regionname": "Vadodara",
    "circlename": "Gujarat",
    "Taluk": "Khambhat",
    "Districtname": "Anand",
    "statename": "GUJARAT"
  },
  {
    "pincode": "388620",
    "officename": "Khambhat S.O",
    "officeType": "S.O",
    "Deliverystatus": "Delivery",
    "divisionname": "Kheda",
    "regionname": "Vadodara",
    "circlename": "Gujarat",
    "Taluk": "Khambhat",
    "Districtname": "Anand",
    "statename": "GUJARAT"
  },
  {
    "pincode": "388620",
    "officename": "Laxmipura B.O",
    "officeType": "B.O",
    "Deliverystatus": "Delivery",
    "divisionname": "Kheda",
    "regionname": "Vadodara",
    "circlename": "Gujarat",
    "Taluk": "Tarapur",
    "Districtname": "Anand",
    "statename": "GUJARAT"
  },
  {
    "pincode": "388620",
    "officename": "Lunej B.O",
    "officeType": "B.O",
    "Deliverystatus": "Delivery",
    "divisionname": "Kheda",
    "regionname": "Vadodara",
    "circlename": "Gujarat",
    "Taluk": "Khambhat",
    "Districtname": "Anand",
    "statename": "GUJARAT"
  },
  {
    "pincode": "388620",
    "officename": "Malu B.O",
    "officeType": "B.O",
    "Deliverystatus": "Delivery",
    "divisionname": "Kheda",
    "regionname": "Vadodara",
    "circlename": "Gujarat",
    "Taluk": "Khambhat",
    "Districtname": "Anand",
    "statename": "GUJARAT"
  },
  {
    "pincode": "388620",
    "officename": "Metpur B.O",
    "officeType": "B.O",
    "Deliverystatus": "Delivery",
    "divisionname": "Kheda",
    "regionname": "Vadodara",
    "circlename": "Gujarat",
    "Taluk": "Khambhat",
    "Districtname": "Anand",
    "statename": "GUJARAT"
  },
  {
    "pincode": "388620",
    "officename": "Nagra B.O",
    "officeType": "B.O",
    "Deliverystatus": "Delivery",
    "divisionname": "Kheda",
    "regionname": "Vadodara",
    "circlename": "Gujarat",
    "Taluk": "Khambhat",
    "Districtname": "Anand",
    "statename": "GUJARAT"
  },
  {
    "pincode": "388620",
    "officename": "Pith Baza- Khambhat S.O",
    "officeType": "S.O",
    "Deliverystatus": "Non-Delivery",
    "divisionname": "Kheda",
    "regionname": "Vadodara",
    "circlename": "Gujarat",
    "Taluk": "Khambhat",
    "Districtname": "Anand",
    "statename": "GUJARAT"
  },
  {
    "pincode": "388620",
    "officename": "Rangpur B.O",
    "officeType": "B.O",
    "Deliverystatus": "Delivery",
    "divisionname": "Kheda",
    "regionname": "Vadodara",
    "circlename": "Gujarat",
    "Taluk": "Khambhat",
    "Districtname": "Anand",
    "statename": "GUJARAT"
  },
  {
    "pincode": "388620",
    "officename": "Shakarpur B.O",
    "officeType": "B.O",
    "Deliverystatus": "Delivery",
    "divisionname": "Kheda",
    "regionname": "Vadodara",
    "circlename": "Gujarat",
    "Taluk": "Khambhat",
    "Districtname": "Anand",
    "statename": "GUJARAT"
  }
]
