[
  {
    "pincode": "388640",
    "officename": "Bhuvel B.O",
    "officeType": "B.O",
    "Deliverystatus": "Delivery",
    "divisionname": "Kheda",
    "regionname": "Vadodara",
    "circlename": "Gujarat",
    "Taluk": "Khambhat",
    "Districtname": "Anand",
    "statename": "GUJARAT"
  },
  {
    "pincode": "388640",
    "officename": "Jalundh B.O",
    "officeType": "B.O",
    "Deliverystatus": "Delivery",
    "divisionname": "Kheda",
    "regionname": "Vadodara",
    "circlename": "Gujarat",
    "Taluk": "Khambhat",
    "Districtname": "Anand",
    "statename": "GUJARAT"
  },
  {
    "pincode": "388640",
    "officename": "Kalamsar B.O",
    "officeType": "B.O",
    "Deliverystatus": "Delivery",
    "divisionname": "Kheda",
    "regionname": "Vadodara",
    "circlename": "Gujarat",
    "Taluk": "Khambhat",
    "Districtname": "Anand",
    "statename": "GUJARAT"
  },
  {
    "pincode": "388640",
    "officename": "Khatnal B.O",
    "officeType": "B.O",
    "Deliverystatus": "Delivery",
    "divisionname": "Kheda",
    "regionname": "Vadodara",
    "circlename": "Gujarat",
    "Taluk": "Khambhat",
    "Districtname": "Anand",
    "statename": "GUJARAT"
  },
  {
    "pincode": "388640",
    "officename": "Piploi B.O",
    "officeType": "B.O",
    "Deliverystatus": "Delivery",
    "divisionname": "Kheda",
    "regionname": "Vadodara",
    "circlename": "Gujarat",
    "Taluk": "Khambhat",
    "Districtname": "Anand",
    "statename": "GUJARAT"
  },
  {
    "pincode": "388640",
    "officename": "Ralej B.O",
    "officeType": "B.O",
    "Deliverystatus": "Delivery",
    "divisionname": "Kheda",
    "regionname": "Vadodara",
    "circlename": "Gujarat",
    "Taluk": "Khambhat",
    "Districtname": "Anand",
    "statename": "GUJARAT"
  },
  {
    "pincode": "388640",
    "officename": "Undel S.O",
    "officeType": "S.O",
    "Deliverystatus": "Delivery",
    "divisionname": "Kheda",
    "regionname": "Vadodara",
    "circlename": "Gujarat",
    "Taluk": "Khambhat",
    "Districtname": "Anand",
    "statename": "GUJARAT"
  },
  {
    "pincode": "388640",
    "officename": "Vatra B.O",
    "officeType": "B.O",
    "Deliverystatus": "Delivery",
    "divisionname": "Kheda",
    "regionname": "Vadodara",
    "circlename": "Gujarat",
    "Taluk": "Khambhat",
    "Districtname": "Anand",
    "statename": "GUJARAT"
  }
]
