[
  {
    "pincode": "388625",
    "officename": "Dugari B.O",
    "officeType": "B.O",
    "Deliverystatus": "Delivery",
    "divisionname": "Kheda",
    "regionname": "Vadodara",
    "circlename": "Gujarat",
    "Taluk": "Tarapur",
    "Districtname": "Anand",
    "statename": "GUJARAT"
  },
  {
    "pincode": "388625",
    "officename": "Galiana B.O",
    "officeType": "B.O",
    "Deliverystatus": "Delivery",
    "divisionname": "Kheda",
    "regionname": "Vadodara",
    "circlename": "Gujarat",
    "Taluk": "Tarapur",
    "Districtname": "Anand",
    "statename": "GUJARAT"
  },
  {
    "pincode": "388625",
    "officename": "Golana B.O",
    "officeType": "B.O",
    "Deliverystatus": "Delivery",
    "divisionname": "Kheda",
    "regionname": "Vadodara",
    "circlename": "Gujarat",
    "Taluk": "Khambhat",
    "Districtname": "Anand",
    "statename": "GUJARAT"
  },
  {
    "pincode": "388625",
    "officename": "Gudel S.O",
    "officeType": "S.O",
    "Deliverystatus": "Delivery",
    "divisionname": "Kheda",
    "regionname": "Vadodara",
    "circlename": "Gujarat",
    "Taluk": "Khambhat",
    "Districtname": "Anand",
    "statename": "GUJARAT"
  },
  {
    "pincode": "388625",
    "officename": "Khaksar B.O",
    "officeType": "B.O",
    "Deliverystatus": "Delivery",
    "divisionname": "Kheda",
    "regionname": "Vadodara",
    "circlename": "Gujarat",
    "Taluk": "Tarapur",
    "Districtname": "Anand",
    "statename": "GUJARAT"
  },
  {
    "pincode": "388625",
    "officename": "Naviakhol B.O",
    "officeType": "B.O",
    "Deliverystatus": "Delivery",
    "divisionname": "Kheda",
    "regionname": "Vadodara",
    "circlename": "Gujarat",
    "Taluk": "Khambhat",
    "Districtname": "Anand",
    "statename": "GUJARAT"
  },
  {
    "pincode": "388625",
    "officename": "Pachegam B.O",
    "officeType": "B.O",
    "Deliverystatus": "Delivery",
    "divisionname": "Kheda",
    "regionname": "Vadodara",
    "circlename": "Gujarat",
    "Taluk": "Tarapur",
    "Districtname": "Anand",
    "statename": "GUJARAT"
  },
  {
    "pincode": "388625",
    "officename": "Pandad B.O",
    "officeType": "B.O",
    "Deliverystatus": "Delivery",
    "divisionname": "Kheda",
    "regionname": "Vadodara",
    "circlename": "Gujarat",
    "Taluk": "Khambhat",
    "Districtname": "Anand",
    "statename": "GUJARAT"
  },
  {
    "pincode": "388625",
    "officename": "Vadgam B.O",
    "officeType": "B.O",
    "Deliverystatus": "Delivery",
    "divisionname": "Kheda",
    "regionname": "Vadodara",
    "circlename": "Gujarat",
    "Taluk": "Khambhat",
    "Districtname": "Anand",
    "statename": "GUJARAT"
  },
  {
    "pincode": "388625",
    "officename": "Vainaj B.O",
    "officeType": "B.O",
    "Deliverystatus": "Delivery",
    "divisionname": "Kheda",
    "regionname": "Vadodara",
    "circlename": "Gujarat",
    "Taluk": "Khambhat",
    "Districtname": "Anand",
    "statename": "GUJARAT"
  }
]
