[
  {
    "pincode": "389130",
    "officename": "Aasayadi B.O",
    "officeType": "B.O",
    "Deliverystatus": "Delivery",
    "divisionname": "Panchmahals",
    "regionname": "Vadodara",
    "circlename": "Gujarat",
    "Taluk": "Devgadbaria",
    "Districtname": "Dahod",
    "statename": "GUJARAT"
  },
  {
    "pincode": "389130",
    "officename": "Chhaparwad B.O",
    "officeType": "B.O",
    "Deliverystatus": "Delivery",
    "divisionname": "Panchmahals",
    "regionname": "Vadodara",
    "circlename": "Gujarat",
    "Taluk": "Limkheda",
    "Districtname": "Dahod",
    "statename": "GUJARAT"
  },
  {
    "pincode": "389130",
    "officename": "Chundadi B.O",
    "officeType": "B.O",
    "Deliverystatus": "Delivery",
    "divisionname": "Panchmahals",
    "regionname": "Vadodara",
    "circlename": "Gujarat",
    "Taluk": "Devgadh Baria",
    "Districtname": "Dahod",
    "statename": "GUJARAT"
  },
  {
    "pincode": "389130",
    "officename": "Dasa B.O",
    "officeType": "B.O",
    "Deliverystatus": "Delivery",
    "divisionname": "Panchmahals",
    "regionname": "Vadodara",
    "circlename": "Gujarat",
    "Taluk": "Limkheda",
    "Districtname": "Dahod",
    "statename": "GUJARAT"
  },
  {
    "pincode": "389130",
    "officename": "Machhelai B.O",
    "officeType": "B.O",
    "Deliverystatus": "Delivery",
    "divisionname": "Panchmahals",
    "regionname": "Vadodara",
    "circlename": "Gujarat",
    "Taluk": "Limkheda",
    "Districtname": "Dahod",
    "statename": "GUJARAT"
  },
  {
    "pincode": "389130",
    "officename": "Mander B.O",
    "officeType": "B.O",
    "Deliverystatus": "Delivery",
    "divisionname": "Panchmahals",
    "regionname": "Vadodara",
    "circlename": "Gujarat",
    "Taluk": "Limkheda",
    "Districtname": "Dahod",
    "statename": "GUJARAT"
  },
  {
    "pincode": "389130",
    "officename": "Moti Zari B.O",
    "officeType": "B.O",
    "Deliverystatus": "Delivery",
    "divisionname": "Panchmahals",
    "regionname": "Vadodara",
    "circlename": "Gujarat",
    "Taluk": "Devgadh Baria",
    "Districtname": "Dahod",
    "statename": "GUJARAT"
  },
  {
    "pincode": "389130",
    "officename": "Panchela B.O",
    "officeType": "B.O",
    "Deliverystatus": "Delivery",
    "divisionname": "Panchmahals",
    "regionname": "Vadodara",
    "circlename": "Gujarat",
    "Taluk": "Devgadh Baria",
    "Districtname": "Dahod",
    "statename": "GUJARAT"
  },
  {
    "pincode": "389130",
    "officename": "Patangdi B.O",
    "officeType": "B.O",
    "Deliverystatus": "Delivery",
    "divisionname": "Panchmahals",
    "regionname": "Vadodara",
    "circlename": "Gujarat",
    "Taluk": "Limkheda",
    "Districtname": "Dahod",
    "statename": "GUJARAT"
  },
  {
    "pincode": "389130",
    "officename": "Piplod S.O (Dahod)",
    "officeType": "S.O",
    "Deliverystatus": "Delivery",
    "divisionname": "Panchmahals",
    "regionname": "Vadodara",
    "circlename": "Gujarat",
    "Taluk": "Devgadh Baria",
    "Districtname": "Dahod",
    "statename": "GUJARAT"
  },
  {
    "pincode": "389130",
    "officename": "Rama B.O",
    "officeType": "B.O",
    "Deliverystatus": "Delivery",
    "divisionname": "Panchmahals",
    "regionname": "Vadodara",
    "circlename": "Gujarat",
    "Taluk": "Devgadh Baria",
    "Districtname": "Dahod",
    "statename": "GUJARAT"
  },
  {
    "pincode": "389130",
    "officename": "Randhikpur B.O",
    "officeType": "B.O",
    "Deliverystatus": "Delivery",
    "divisionname": "Panchmahals",
    "regionname": "Vadodara",
    "circlename": "Gujarat",
    "Taluk": "Devgadh Baria",
    "Districtname": "Dahod",
    "statename": "GUJARAT"
  },
  {
    "pincode": "389130",
    "officename": "Salia B.O",
    "officeType": "B.O",
    "Deliverystatus": "Delivery",
    "divisionname": "Panchmahals",
    "regionname": "Vadodara",
    "circlename": "Gujarat",
    "Taluk": "Devgadh Baria",
    "Districtname": "Dahod",
    "statename": "GUJARAT"
  },
  {
    "pincode": "389130",
    "officename": "Toyani B.O",
    "officeType": "B.O",
    "Deliverystatus": "Delivery",
    "divisionname": "Panchmahals",
    "regionname": "Vadodara",
    "circlename": "Gujarat",
    "Taluk": "Devgadh Baria",
    "Districtname": "Dahod",
    "statename": "GUJARAT"
  },
  {
    "pincode": "389130",
    "officename": "Valagota B.O",
    "officeType": "B.O",
    "Deliverystatus": "Non-Delivery",
    "divisionname": "Panchmahals",
    "regionname": "Vadodara",
    "circlename": "Gujarat",
    "Taluk": "Devgadh Baria",
    "Districtname": "Dahod",
    "statename": "GUJARAT"
  }
]
