[
  {
    "pincode": "389115",
    "officename": "Agarwada B.O",
    "officeType": "B.O",
    "Deliverystatus": "Delivery",
    "divisionname": "Panchmahals",
    "regionname": "Vadodara",
    "circlename": "Gujarat",
    "Taluk": "Morva Hadaf",
    "Districtname": "Panch Mahals",
    "statename": "GUJARAT"
  },
  {
    "pincode": "389115",
    "officename": "Bhandoi B.O",
    "officeType": "B.O",
    "Deliverystatus": "Delivery",
    "divisionname": "Panchmahals",
    "regionname": "Vadodara",
    "circlename": "Gujarat",
    "Taluk": "Morva Hadaf",
    "Districtname": "Panch Mahals",
    "statename": "GUJARAT"
  },
  {
    "pincode": "389115",
    "officename": "Dangaria B.O",
    "officeType": "B.O",
    "Deliverystatus": "Delivery",
    "divisionname": "Panchmahals",
    "regionname": "Vadodara",
    "circlename": "Gujarat",
    "Taluk": "Morva Hadaf",
    "Districtname": "Panch Mahals",
    "statename": "GUJARAT"
  },
  {
    "pincode": "389115",
    "officename": "Kadadara B.O",
    "officeType": "B.O",
    "Deliverystatus": "Delivery",
    "divisionname": "Panchmahals",
    "regionname": "Vadodara",
    "circlename": "Gujarat",
    "Taluk": "Morva Hadaf",
    "Districtname": "Panch Mahals",
    "statename": "GUJARAT"
  },
  {
    "pincode": "389115",
    "officename": "Kuwazar B.O",
    "officeType": "B.O",
    "Deliverystatus": "Delivery",
    "divisionname": "Panchmahals",
    "regionname": "Vadodara",
    "circlename": "Gujarat",
    "Taluk": "Morva Hadaf",
    "Districtname": "Panch Mahals",
    "statename": "GUJARAT"
  },
  {
    "pincode": "389115",
    "officename": "Mataria Vejam B.O",
    "officeType": "B.O",
    "Deliverystatus": "Delivery",
    "divisionname": "Panchmahals",
    "regionname": "Vadodara",
    "circlename": "Gujarat",
    "Taluk": "Morva Hadaf",
    "Districtname": "Panch Mahals",
    "statename": "GUJARAT"
  },
  {
    "pincode": "389115",
    "officename": "Mekhar B.O",
    "officeType": "B.O",
    "Deliverystatus": "Delivery",
    "divisionname": "Panchmahals",
    "regionname": "Vadodara",
    "circlename": "Gujarat",
    "Taluk": "Morva Hadaf",
    "Districtname": "Panch Mahals",
    "statename": "GUJARAT"
  },
  {
    "pincode": "389115",
    "officename": "Morva Hadaf S.O",
    "officeType": "S.O",
    "Deliverystatus": "Delivery",
    "divisionname": "Panchmahals",
    "regionname": "Vadodara",
    "circlename": "Gujarat",
    "Taluk": "Morva Hadaf",
    "Districtname": "Panch Mahals",
    "statename": "GUJARAT"
  },
  {
    "pincode": "389115",
    "officename": "Rajayata B.O",
    "officeType": "B.O",
    "Deliverystatus": "Delivery",
    "divisionname": "Panchmahals",
    "regionname": "Vadodara",
    "circlename": "Gujarat",
    "Taluk": "Morva Hadaf",
    "Districtname": "Panch Mahals",
    "statename": "GUJARAT"
  },
  {
    "pincode": "389115",
    "officename": "Rampur Kasanpur B.O",
    "officeType": "B.O",
    "Deliverystatus": "Delivery",
    "divisionname": "Panchmahals",
    "regionname": "Vadodara",
    "circlename": "Gujarat",
    "Taluk": "Morva Hadaf",
    "Districtname": "Panch Mahals",
    "statename": "GUJARAT"
  },
  {
    "pincode": "389115",
    "officename": "Sagawada B.O",
    "officeType": "B.O",
    "Deliverystatus": "Delivery",
    "divisionname": "Panchmahals",
    "regionname": "Vadodara",
    "circlename": "Gujarat",
    "Taluk": "Morva Hadaf",
    "Districtname": "Panch Mahals",
    "statename": "GUJARAT"
  },
  {
    "pincode": "389115",
    "officename": "Vadodar B.O",
    "officeType": "B.O",
    "Deliverystatus": "Delivery",
    "divisionname": "Panchmahals",
    "regionname": "Vadodara",
    "circlename": "Gujarat",
    "Taluk": "Morva Hadaf",
    "Districtname": "Panch Mahals",
    "statename": "GUJARAT"
  },
  {
    "pincode": "389115",
    "officename": "Vandeli B.O",
    "officeType": "B.O",
    "Deliverystatus": "Delivery",
    "divisionname": "Panchmahals",
    "regionname": "Vadodara",
    "circlename": "Gujarat",
    "Taluk": "Morva Hadaf",
    "Districtname": "Panch Mahals",
    "statename": "GUJARAT"
  }
]
