[
  {
    "pincode": "389190",
    "officename": "Afwa B.O",
    "officeType": "B.O",
    "Deliverystatus": "Non-Delivery",
    "divisionname": "Panchmahals",
    "regionname": "Vadodara",
    "circlename": "Gujarat",
    "Taluk": "Fatepura",
    "Districtname": "Dahod",
    "statename": "GUJARAT"
  },
  {
    "pincode": "389190",
    "officename": "Balaiya B.O",
    "officeType": "B.O",
    "Deliverystatus": "Delivery",
    "divisionname": "Panchmahals",
    "regionname": "Vadodara",
    "circlename": "Gujarat",
    "Taluk": "Fatepura",
    "Districtname": "Dahod",
    "statename": "GUJARAT"
  },
  {
    "pincode": "389190",
    "officename": "Bhojela B.O",
    "officeType": "B.O",
    "Deliverystatus": "Non-Delivery",
    "divisionname": "Panchmahals",
    "regionname": "Vadodara",
    "circlename": "Gujarat",
    "Taluk": "Fatepura",
    "Districtname": "Dahod",
    "statename": "GUJARAT"
  },
  {
    "pincode": "389190",
    "officename": "Gothib B.O",
    "officeType": "B.O",
    "Deliverystatus": "Delivery",
    "divisionname": "Panchmahals",
    "regionname": "Vadodara",
    "circlename": "Gujarat",
    "Taluk": "Santrampur",
    "Districtname": "Dahod",
    "statename": "GUJARAT"
  },
  {
    "pincode": "389190",
    "officename": "Hindolia B.O",
    "officeType": "B.O",
    "Deliverystatus": "Delivery",
    "divisionname": "Panchmahals",
    "regionname": "Vadodara",
    "circlename": "Gujarat",
    "Taluk": "Fatepura",
    "Districtname": "Dahod",
    "statename": "GUJARAT"
  },
  {
    "pincode": "389190",
    "officename": "Javesi B.O",
    "officeType": "B.O",
    "Deliverystatus": "Delivery",
    "divisionname": "Panchmahals",
    "regionname": "Vadodara",
    "circlename": "Gujarat",
    "Taluk": "Fatepura",
    "Districtname": "Dahod",
    "statename": "GUJARAT"
  },
  {
    "pincode": "389190",
    "officename": "Lakhanpur B.O",
    "officeType": "B.O",
    "Deliverystatus": "Delivery",
    "divisionname": "Panchmahals",
    "regionname": "Vadodara",
    "circlename": "Gujarat",
    "Taluk": "Fatepura",
    "Districtname": "Dahod",
    "statename": "GUJARAT"
  },
  {
    "pincode": "389190",
    "officename": "Margala B.O",
    "officeType": "B.O",
    "Deliverystatus": "Delivery",
    "divisionname": "Panchmahals",
    "regionname": "Vadodara",
    "circlename": "Gujarat",
    "Taluk": "Fatepura",
    "Districtname": "Dahod",
    "statename": "GUJARAT"
  },
  {
    "pincode": "389190",
    "officename": "Nani Bhugedi B.O",
    "officeType": "B.O",
    "Deliverystatus": "Delivery",
    "divisionname": "Panchmahals",
    "regionname": "Vadodara",
    "circlename": "Gujarat",
    "Taluk": "Santrampur",
    "Districtname": "Panch Mahals",
    "statename": "GUJARAT"
  },
  {
    "pincode": "389190",
    "officename": "Nani Dhadheli B.O",
    "officeType": "B.O",
    "Deliverystatus": "Delivery",
    "divisionname": "Panchmahals",
    "regionname": "Vadodara",
    "circlename": "Gujarat",
    "Taluk": "Fatepura",
    "Districtname": "Dahod",
    "statename": "GUJARAT"
  },
  {
    "pincode": "389190",
    "officename": "Nindka B.O",
    "officeType": "B.O",
    "Deliverystatus": "Delivery",
    "divisionname": "Panchmahals",
    "regionname": "Vadodara",
    "circlename": "Gujarat",
    "Taluk": "Fatepura",
    "Districtname": "Dahod",
    "statename": "GUJARAT"
  },
  {
    "pincode": "389190",
    "officename": "Rupa Kheda B.O",
    "officeType": "B.O",
    "Deliverystatus": "Delivery",
    "divisionname": "Panchmahals",
    "regionname": "Vadodara",
    "circlename": "Gujarat",
    "Taluk": "Fatepura",
    "Districtname": "Dahod",
    "statename": "GUJARAT"
  },
  {
    "pincode": "389190",
    "officename": "Sagdapada B.O",
    "officeType": "B.O",
    "Deliverystatus": "Delivery",
    "divisionname": "Panchmahals",
    "regionname": "Vadodara",
    "circlename": "Gujarat",
    "Taluk": "Fatepura",
    "Districtname": "Dahod",
    "statename": "GUJARAT"
  },
  {
    "pincode": "389190",
    "officename": "Sukhsar S.O",
    "officeType": "S.O",
    "Deliverystatus": "Delivery",
    "divisionname": "Panchmahals",
    "regionname": "Vadodara",
    "circlename": "Gujarat",
    "Taluk": "Fatepura",
    "Districtname": "Dahod",
    "statename": "GUJARAT"
  },
  {
    "pincode": "389190",
    "officename": "Vansia Kui B.O",
    "officeType": "B.O",
    "Deliverystatus": "Delivery",
    "divisionname": "Panchmahals",
    "regionname": "Vadodara",
    "circlename": "Gujarat",
    "Taluk": "Fatepura",
    "Districtname": "Dahod",
    "statename": "GUJARAT"
  }
]
