[
  {
    "pincode": "389154",
    "officename": "Agavada B.O",
    "officeType": "B.O",
    "Deliverystatus": "Delivery",
    "divisionname": "Panchmahals",
    "regionname": "Vadodara",
    "circlename": "Gujarat",
    "Taluk": "Dahod",
    "Districtname": "Dahod",
    "statename": "GUJARAT"
  },
  {
    "pincode": "389154",
    "officename": "Chandwana B.O",
    "officeType": "B.O",
    "Deliverystatus": "Delivery",
    "divisionname": "Panchmahals",
    "regionname": "Vadodara",
    "circlename": "Gujarat",
    "Taluk": "Dahod",
    "Districtname": "Dahod",
    "statename": "GUJARAT"
  },
  {
    "pincode": "389154",
    "officename": "Dasla B.O",
    "officeType": "B.O",
    "Deliverystatus": "Delivery",
    "divisionname": "Panchmahals",
    "regionname": "Vadodara",
    "circlename": "Gujarat",
    "Taluk": "Dohad",
    "Districtname": "Dahod",
    "statename": "GUJARAT"
  },
  {
    "pincode": "389154",
    "officename": "Gamla B.O",
    "officeType": "B.O",
    "Deliverystatus": "Delivery",
    "divisionname": "Panchmahals",
    "regionname": "Vadodara",
    "circlename": "Gujarat",
    "Taluk": "Dahod",
    "Districtname": "Dahod",
    "statename": "GUJARAT"
  },
  {
    "pincode": "389154",
    "officename": "Itawa B.O",
    "officeType": "B.O",
    "Deliverystatus": "Non-Delivery",
    "divisionname": "Panchmahals",
    "regionname": "Vadodara",
    "circlename": "Gujarat",
    "Taluk": "Dahod",
    "Districtname": "Dahod",
    "statename": "GUJARAT"
  },
  {
    "pincode": "389154",
    "officename": "Jalat B.O",
    "officeType": "B.O",
    "Deliverystatus": "Delivery",
    "divisionname": "Panchmahals",
    "regionname": "Vadodara",
    "circlename": "Gujarat",
    "Taluk": "Dohad",
    "Districtname": "Dahod",
    "statename": "GUJARAT"
  },
  {
    "pincode": "389154",
    "officename": "Kathla B.O",
    "officeType": "B.O",
    "Deliverystatus": "Non-Delivery",
    "divisionname": "Panchmahals",
    "regionname": "Vadodara",
    "circlename": "Gujarat",
    "Taluk": "Dohad",
    "Districtname": "Dahod",
    "statename": "GUJARAT"
  },
  {
    "pincode": "389154",
    "officename": "Katwara S.O",
    "officeType": "S.O",
    "Deliverystatus": "Delivery",
    "divisionname": "Panchmahals",
    "regionname": "Vadodara",
    "circlename": "Gujarat",
    "Taluk": "Panchamahals",
    "Districtname": "Dahod",
    "statename": "GUJARAT"
  },
  {
    "pincode": "389154",
    "officename": "Khangela B.O",
    "officeType": "B.O",
    "Deliverystatus": "Delivery",
    "divisionname": "Panchmahals",
    "regionname": "Vadodara",
    "circlename": "Gujarat",
    "Taluk": "Dahod",
    "Districtname": "Dahod",
    "statename": "GUJARAT"
  },
  {
    "pincode": "389154",
    "officename": "Simalia Khurd B.O",
    "officeType": "B.O",
    "Deliverystatus": "Delivery",
    "divisionname": "Panchmahals",
    "regionname": "Vadodara",
    "circlename": "Gujarat",
    "Taluk": "Dahod",
    "Districtname": "Dahod",
    "statename": "GUJARAT"
  },
  {
    "pincode": "389154",
    "officename": "Tarvadia Himat B.O",
    "officeType": "B.O",
    "Deliverystatus": "Non-Delivery",
    "divisionname": "Panchmahals",
    "regionname": "Vadodara",
    "circlename": "Gujarat",
    "Taluk": "Dahod",
    "Districtname": "Dahod",
    "statename": "GUJARAT"
  },
  {
    "pincode": "389154",
    "officename": "Tarvadia Vaja B.O",
    "officeType": "B.O",
    "Deliverystatus": "Delivery",
    "divisionname": "Panchmahals",
    "regionname": "Vadodara",
    "circlename": "Gujarat",
    "Taluk": "Dahod",
    "Districtname": "Dahod",
    "statename": "GUJARAT"
  },
  {
    "pincode": "389154",
    "officename": "Vankiya B.O",
    "officeType": "B.O",
    "Deliverystatus": "Delivery",
    "divisionname": "Panchmahals",
    "regionname": "Vadodara",
    "circlename": "Gujarat",
    "Taluk": "Dahod",
    "Districtname": "Dahod",
    "statename": "GUJARAT"
  }
]
