[
  {
    "pincode": "389260",
    "officename": "Babrol B.O",
    "officeType": "B.O",
    "Deliverystatus": "Delivery",
    "divisionname": "Panchmahals",
    "regionname": "Vadodara",
    "circlename": "Gujarat",
    "Taluk": "Santrampur",
    "Districtname": "Panch Mahals",
    "statename": "GUJARAT"
  },
  {
    "pincode": "389260",
    "officename": "Chitwa B.O",
    "officeType": "B.O",
    "Deliverystatus": "Delivery",
    "divisionname": "Panchmahals",
    "regionname": "Vadodara",
    "circlename": "Gujarat",
    "Taluk": "Santrampur",
    "Districtname": "Panch Mahals",
    "statename": "GUJARAT"
  },
  {
    "pincode": "389260",
    "officename": "Gada B.O",
    "officeType": "B.O",
    "Deliverystatus": "Delivery",
    "divisionname": "Panchmahals",
    "regionname": "Vadodara",
    "circlename": "Gujarat",
    "Taluk": "Santrampur",
    "Districtname": "Panch Mahals",
    "statename": "GUJARAT"
  },
  {
    "pincode": "389260",
    "officename": "Hirapur B.O",
    "officeType": "B.O",
    "Deliverystatus": "Delivery",
    "divisionname": "Panchmahals",
    "regionname": "Vadodara",
    "circlename": "Gujarat",
    "Taluk": "Santrampur",
    "Districtname": "Panch Mahals",
    "statename": "GUJARAT"
  },
  {
    "pincode": "389260",
    "officename": "Janvad B.O",
    "officeType": "B.O",
    "Deliverystatus": "Delivery",
    "divisionname": "Panchmahals",
    "regionname": "Vadodara",
    "circlename": "Gujarat",
    "Taluk": "Santrampur",
    "Districtname": "Panch Mahals",
    "statename": "GUJARAT"
  },
  {
    "pincode": "389260",
    "officename": "Kanajra B.O",
    "officeType": "B.O",
    "Deliverystatus": "Delivery",
    "divisionname": "Panchmahals",
    "regionname": "Vadodara",
    "circlename": "Gujarat",
    "Taluk": "Santrampur",
    "Districtname": "Panch Mahals",
    "statename": "GUJARAT"
  },
  {
    "pincode": "389260",
    "officename": "Motikayar B.O",
    "officeType": "B.O",
    "Deliverystatus": "Non-Delivery",
    "divisionname": "Panchmahals",
    "regionname": "Vadodara",
    "circlename": "Gujarat",
    "Taluk": "Santrampur",
    "Districtname": "Panch Mahals",
    "statename": "GUJARAT"
  },
  {
    "pincode": "389260",
    "officename": "Padedi Ador B.O",
    "officeType": "B.O",
    "Deliverystatus": "Delivery",
    "divisionname": "Panchmahals",
    "regionname": "Vadodara",
    "circlename": "Gujarat",
    "Taluk": "Santrampur",
    "Districtname": "Panch Mahals",
    "statename": "GUJARAT"
  },
  {
    "pincode": "389260",
    "officename": "Sangavada B.O",
    "officeType": "B.O",
    "Deliverystatus": "Delivery",
    "divisionname": "Panchmahals",
    "regionname": "Vadodara",
    "circlename": "Gujarat",
    "Taluk": "Santrampur",
    "Districtname": "Panch Mahals",
    "statename": "GUJARAT"
  },
  {
    "pincode": "389260",
    "officename": "Sant B.O",
    "officeType": "B.O",
    "Deliverystatus": "Delivery",
    "divisionname": "Panchmahals",
    "regionname": "Vadodara",
    "circlename": "Gujarat",
    "Taluk": "Santrampur",
    "Districtname": "Panch Mahals",
    "statename": "GUJARAT"
  },
  {
    "pincode": "389260",
    "officename": "Santrampur S.O",
    "officeType": "S.O",
    "Deliverystatus": "Delivery",
    "divisionname": "Panchmahals",
    "regionname": "Vadodara",
    "circlename": "Gujarat",
    "Taluk": "Santrampur",
    "Districtname": "Panch Mahals",
    "statename": "GUJARAT"
  },
  {
    "pincode": "389260",
    "officename": "Surpur B.O",
    "officeType": "B.O",
    "Deliverystatus": "Non-Delivery",
    "divisionname": "Panchmahals",
    "regionname": "Vadodara",
    "circlename": "Gujarat",
    "Taluk": "Santrampur",
    "Districtname": "Panch Mahals",
    "statename": "GUJARAT"
  },
  {
    "pincode": "389260",
    "officename": "Timbla B.O",
    "officeType": "B.O",
    "Deliverystatus": "Delivery",
    "divisionname": "Panchmahals",
    "regionname": "Vadodara",
    "circlename": "Gujarat",
    "Taluk": "Santrampur",
    "Districtname": "Panch Mahals",
    "statename": "GUJARAT"
  },
  {
    "pincode": "389260",
    "officename": "Ukhreli B.O",
    "officeType": "B.O",
    "Deliverystatus": "Delivery",
    "divisionname": "Panchmahals",
    "regionname": "Vadodara",
    "circlename": "Gujarat",
    "Taluk": "Santrampur",
    "Districtname": "Panch Mahals",
    "statename": "GUJARAT"
  },
  {
    "pincode": "389260",
    "officename": "Vanjiakhut B.O",
    "officeType": "B.O",
    "Deliverystatus": "Non-Delivery",
    "divisionname": "Panchmahals",
    "regionname": "Vadodara",
    "circlename": "Gujarat",
    "Taluk": "Santrampur",
    "Districtname": "Panch Mahals",
    "statename": "GUJARAT"
  }
]
