[
  {
    "pincode": "389380",
    "officename": "Ambakhunt B.O",
    "officeType": "B.O",
    "Deliverystatus": "Delivery",
    "divisionname": "Panchmahals",
    "regionname": "Vadodara",
    "circlename": "Gujarat",
    "Taluk": "Devgadh Baria",
    "Districtname": "Panch Mahals",
    "statename": "GUJARAT"
  },
  {
    "pincode": "389380",
    "officename": "Antela B.O",
    "officeType": "B.O",
    "Deliverystatus": "Delivery",
    "divisionname": "Panchmahals",
    "regionname": "Vadodara",
    "circlename": "Gujarat",
    "Taluk": "Devgadh Baria",
    "Districtname": "Dahod",
    "statename": "GUJARAT"
  },
  {
    "pincode": "389380",
    "officename": "Baina B.O",
    "officeType": "B.O",
    "Deliverystatus": "Delivery",
    "divisionname": "Panchmahals",
    "regionname": "Vadodara",
    "circlename": "Gujarat",
    "Taluk": "Devgadh Baria",
    "Districtname": "Dahod",
    "statename": "GUJARAT"
  },
  {
    "pincode": "389380",
    "officename": "Bamroli B.O",
    "officeType": "B.O",
    "Deliverystatus": "Delivery",
    "divisionname": "Panchmahals",
    "regionname": "Vadodara",
    "circlename": "Gujarat",
    "Taluk": "Devgadh Baria",
    "Districtname": "Dahod",
    "statename": "GUJARAT"
  },
  {
    "pincode": "389380",
    "officename": "Bara B.O",
    "officeType": "B.O",
    "Deliverystatus": "Delivery",
    "divisionname": "Panchmahals",
    "regionname": "Vadodara",
    "circlename": "Gujarat",
    "Taluk": "Devgadh Baria",
    "Districtname": "Dahod",
    "statename": "GUJARAT"
  },
  {
    "pincode": "389380",
    "officename": "Bor B.O",
    "officeType": "B.O",
    "Deliverystatus": "Delivery",
    "divisionname": "Panchmahals",
    "regionname": "Vadodara",
    "circlename": "Gujarat",
    "Taluk": "Ghoghamba",
    "Districtname": "Panch Mahals",
    "statename": "GUJARAT"
  },
  {
    "pincode": "389380",
    "officename": "Chenpur B.O",
    "officeType": "B.O",
    "Deliverystatus": "Delivery",
    "divisionname": "Panchmahals",
    "regionname": "Vadodara",
    "circlename": "Gujarat",
    "Taluk": "Devgadh Baria",
    "Districtname": "Dahod",
    "statename": "GUJARAT"
  },
  {
    "pincode": "389380",
    "officename": "Chorbaria B.O",
    "officeType": "B.O",
    "Deliverystatus": "Delivery",
    "divisionname": "Panchmahals",
    "regionname": "Vadodara",
    "circlename": "Gujarat",
    "Taluk": "Dhanpur",
    "Districtname": "Dahod",
    "statename": "GUJARAT"
  },
  {
    "pincode": "389380",
    "officename": "Damavav B.O",
    "officeType": "B.O",
    "Deliverystatus": "Delivery",
    "divisionname": "Panchmahals",
    "regionname": "Vadodara",
    "circlename": "Gujarat",
    "Taluk": "Ghoghamba",
    "Districtname": "Panch Mahals",
    "statename": "GUJARAT"
  },
  {
    "pincode": "389380",
    "officename": "Devgadh Baria S.O",
    "officeType": "S.O",
    "Deliverystatus": "Delivery",
    "divisionname": "Panchmahals",
    "regionname": "Vadodara",
    "circlename": "Gujarat",
    "Taluk": "Devgadh Baria",
    "Districtname": "Dahod",
    "statename": "GUJARAT"
  },
  {
    "pincode": "389380",
    "officename": "Devirampura B.O",
    "officeType": "B.O",
    "Deliverystatus": "Delivery",
    "divisionname": "Panchmahals",
    "regionname": "Vadodara",
    "circlename": "Gujarat",
    "Taluk": "Devgadh Baria",
    "Districtname": "Dahod",
    "statename": "GUJARAT"
  },
  {
    "pincode": "389380",
    "officename": "Dudhia B.O",
    "officeType": "B.O",
    "Deliverystatus": "Delivery",
    "divisionname": "Panchmahals",
    "regionname": "Vadodara",
    "circlename": "Gujarat",
    "Taluk": "Devgadh Baria",
    "Districtname": "Dahod",
    "statename": "GUJARAT"
  },
  {
    "pincode": "389380",
    "officename": "Fangia B.O",
    "officeType": "B.O",
    "Deliverystatus": "Delivery",
    "divisionname": "Panchmahals",
    "regionname": "Vadodara",
    "circlename": "Gujarat",
    "Taluk": "Devgadh Baria",
    "Districtname": "Dahod",
    "statename": "GUJARAT"
  },
  {
    "pincode": "389380",
    "officename": "Godli B.O",
    "officeType": "B.O",
    "Deliverystatus": "Delivery",
    "divisionname": "Panchmahals",
    "regionname": "Vadodara",
    "circlename": "Gujarat",
    "Taluk": "Ghoghamba",
    "Districtname": "Panch Mahals",
    "statename": "GUJARAT"
  },
  {
    "pincode": "389380",
    "officename": "Gollav B.O",
    "officeType": "B.O",
    "Deliverystatus": "Non-Delivery",
    "divisionname": "Panchmahals",
    "regionname": "Vadodara",
    "circlename": "Gujarat",
    "Taluk": "Godhra",
    "Districtname": "Panch Mahals",
    "statename": "GUJARAT"
  },
  {
    "pincode": "389380",
    "officename": "Gundi B.O",
    "officeType": "B.O",
    "Deliverystatus": "Delivery",
    "divisionname": "Panchmahals",
    "regionname": "Vadodara",
    "circlename": "Gujarat",
    "Taluk": "Ghoghamba",
    "Districtname": "Panch Mahals",
    "statename": "GUJARAT"
  },
  {
    "pincode": "389380",
    "officename": "Juna Baria B.O",
    "officeType": "B.O",
    "Deliverystatus": "Delivery",
    "divisionname": "Panchmahals",
    "regionname": "Vadodara",
    "circlename": "Gujarat",
    "Taluk": "Devgadh Baria",
    "Districtname": "Dahod",
    "statename": "GUJARAT"
  },
  {
    "pincode": "389380",
    "officename": "Kali Dungri B.O",
    "officeType": "B.O",
    "Deliverystatus": "Non-Delivery",
    "divisionname": "Panchmahals",
    "regionname": "Vadodara",
    "circlename": "Gujarat",
    "Taluk": "Devgadh Baria",
    "Districtname": "Dahod",
    "statename": "GUJARAT"
  },
  {
    "pincode": "389380",
    "officename": "Kantu B.O",
    "officeType": "B.O",
    "Deliverystatus": "Delivery",
    "divisionname": "Panchmahals",
    "regionname": "Vadodara",
    "circlename": "Gujarat",
    "Taluk": "Ghoghamba",
    "Districtname": "Panch Mahals",
    "statename": "GUJARAT"
  },
  {
    "pincode": "389380",
    "officename": "Kelia B.O",
    "officeType": "B.O",
    "Deliverystatus": "Delivery",
    "divisionname": "Panchmahals",
    "regionname": "Vadodara",
    "circlename": "Gujarat",
    "Taluk": "Devgadh Baria",
    "Districtname": "Dahod",
    "statename": "GUJARAT"
  },
  {
    "pincode": "389380",
    "officename": "Khandania B.O",
    "officeType": "B.O",
    "Deliverystatus": "Delivery",
    "divisionname": "Panchmahals",
    "regionname": "Vadodara",
    "circlename": "Gujarat",
    "Taluk": "Devgadh Baria",
    "Districtname": "Dahod",
    "statename": "GUJARAT"
  },
  {
    "pincode": "389380",
    "officename": "Moti Khajuri B.O",
    "officeType": "B.O",
    "Deliverystatus": "Delivery",
    "divisionname": "Panchmahals",
    "regionname": "Vadodara",
    "circlename": "Gujarat",
    "Taluk": "Devgadh Baria",
    "Districtname": "Dahod",
    "statename": "GUJARAT"
  },
  {
    "pincode": "389380",
    "officename": "Nadatod B.O",
    "officeType": "B.O",
    "Deliverystatus": "Delivery",
    "divisionname": "Panchmahals",
    "regionname": "Vadodara",
    "circlename": "Gujarat",
    "Taluk": "Devgadh Baria",
    "Districtname": "Dahod",
    "statename": "GUJARAT"
  },
  {
    "pincode": "389380",
    "officename": "Nakti B.O",
    "officeType": "B.O",
    "Deliverystatus": "Non-Delivery",
    "divisionname": "Panchmahals",
    "regionname": "Vadodara",
    "circlename": "Gujarat",
    "Taluk": "Dhanpur",
    "Districtname": "Dahod",
    "statename": "GUJARAT"
  },
  {
    "pincode": "389380",
    "officename": "Rinchhvani B.O",
    "officeType": "B.O",
    "Deliverystatus": "Delivery",
    "divisionname": "Panchmahals",
    "regionname": "Vadodara",
    "circlename": "Gujarat",
    "Taluk": "Ghoghamba",
    "Districtname": "Panch Mahals",
    "statename": "GUJARAT"
  },
  {
    "pincode": "389380",
    "officename": "Ruvabari B.O",
    "officeType": "B.O",
    "Deliverystatus": "Delivery",
    "divisionname": "Panchmahals",
    "regionname": "Vadodara",
    "circlename": "Gujarat",
    "Taluk": "Devgadh Baria",
    "Districtname": "Dahod",
    "statename": "GUJARAT"
  },
  {
    "pincode": "389380",
    "officename": "Sagtala B.O",
    "officeType": "B.O",
    "Deliverystatus": "Delivery",
    "divisionname": "Panchmahals",
    "regionname": "Vadodara",
    "circlename": "Gujarat",
    "Taluk": "Devgadh Baria",
    "Districtname": "Dahod",
    "statename": "GUJARAT"
  },
  {
    "pincode": "389380",
    "officename": "Saniada B.O",
    "officeType": "B.O",
    "Deliverystatus": "Delivery",
    "divisionname": "Panchmahals",
    "regionname": "Vadodara",
    "circlename": "Gujarat",
    "Taluk": "Ghoghamba",
    "Districtname": "Panch Mahals",
    "statename": "GUJARAT"
  },
  {
    "pincode": "389380",
    "officename": "Sevania B.O",
    "officeType": "B.O",
    "Deliverystatus": "Delivery",
    "divisionname": "Panchmahals",
    "regionname": "Vadodara",
    "circlename": "Gujarat",
    "Taluk": "Devgadh Baria",
    "Districtname": "Dahod",
    "statename": "GUJARAT"
  },
  {
    "pincode": "389380",
    "officename": "Singedi B.O",
    "officeType": "B.O",
    "Deliverystatus": "Delivery",
    "divisionname": "Panchmahals",
    "regionname": "Vadodara",
    "circlename": "Gujarat",
    "Taluk": "Devgadh Baria",
    "Districtname": "Dahod",
    "statename": "GUJARAT"
  },
  {
    "pincode": "389380",
    "officename": "Training College B.O",
    "officeType": "B.O",
    "Deliverystatus": "Non-Delivery",
    "divisionname": "Panchmahals",
    "regionname": "Vadodara",
    "circlename": "Gujarat",
    "Taluk": "Devgadh Baria",
    "Districtname": "Dahod",
    "statename": "GUJARAT"
  },
  {
    "pincode": "389380",
    "officename": "Udhavada B.O",
    "officeType": "B.O",
    "Deliverystatus": "Non-Delivery",
    "divisionname": "Panchmahals",
    "regionname": "Vadodara",
    "circlename": "Gujarat",
    "Taluk": "Devgadh Baria",
    "Districtname": "Dahod",
    "statename": "GUJARAT"
  },
  {
    "pincode": "389380",
    "officename": "Vadbhet B.O",
    "officeType": "B.O",
    "Deliverystatus": "Non-Delivery",
    "divisionname": "Panchmahals",
    "regionname": "Vadodara",
    "circlename": "Gujarat",
    "Taluk": "Devgadh Baria",
    "Districtname": "Dahod",
    "statename": "GUJARAT"
  },
  {
    "pincode": "389380",
    "officename": "Virol B.O",
    "officeType": "B.O",
    "Deliverystatus": "Delivery",
    "divisionname": "Panchmahals",
    "regionname": "Vadodara",
    "circlename": "Gujarat",
    "Taluk": "Devgadh Baria",
    "Districtname": "Dahod",
    "statename": "GUJARAT"
  },
  {
    "pincode": "389380",
    "officename": "Zab B.O",
    "officeType": "B.O",
    "Deliverystatus": "Delivery",
    "divisionname": "Panchmahals",
    "regionname": "Vadodara",
    "circlename": "Gujarat",
    "Taluk": "Devgadh Baria",
    "Districtname": "Dahod",
    "statename": "GUJARAT"
  }
]
