[
  {
    "pincode": "389360",
    "officename": "Bhamaria B.O",
    "officeType": "B.O",
    "Deliverystatus": "Delivery",
    "divisionname": "Panchmahals",
    "regionname": "Vadodara",
    "circlename": "Gujarat",
    "Taluk": "Halol",
    "Districtname": "Panch Mahals",
    "statename": "GUJARAT"
  },
  {
    "pincode": "389360",
    "officename": "Chandranagar B.O",
    "officeType": "B.O",
    "Deliverystatus": "Delivery",
    "divisionname": "Panchmahals",
    "regionname": "Vadodara",
    "circlename": "Gujarat",
    "Taluk": "Ghoghamba",
    "Districtname": "Panch Mahals",
    "statename": "GUJARAT"
  },
  {
    "pincode": "389360",
    "officename": "Chapra B.O",
    "officeType": "B.O",
    "Deliverystatus": "Delivery",
    "divisionname": "Panchmahals",
    "regionname": "Vadodara",
    "circlename": "Gujarat",
    "Taluk": "Halol",
    "Districtname": "Panch Mahals",
    "statename": "GUJARAT"
  },
  {
    "pincode": "389360",
    "officename": "Chelawada B.O",
    "officeType": "B.O",
    "Deliverystatus": "Delivery",
    "divisionname": "Panchmahals",
    "regionname": "Vadodara",
    "circlename": "Gujarat",
    "Taluk": "Ghoghamba",
    "Districtname": "Panch Mahals",
    "statename": "GUJARAT"
  },
  {
    "pincode": "389360",
    "officename": "Dhankuva B.O",
    "officeType": "B.O",
    "Deliverystatus": "Delivery",
    "divisionname": "Panchmahals",
    "regionname": "Vadodara",
    "circlename": "Gujarat",
    "Taluk": "Halol",
    "Districtname": "Panch Mahals",
    "statename": "GUJARAT"
  },
  {
    "pincode": "389360",
    "officename": "Dhinkva B.O",
    "officeType": "B.O",
    "Deliverystatus": "Delivery",
    "divisionname": "Panchmahals",
    "regionname": "Vadodara",
    "circlename": "Gujarat",
    "Taluk": "Halol",
    "Districtname": "Panch Mahals",
    "statename": "GUJARAT"
  },
  {
    "pincode": "389360",
    "officename": "Jepura B.O",
    "officeType": "B.O",
    "Deliverystatus": "Delivery",
    "divisionname": "Panchmahals",
    "regionname": "Vadodara",
    "circlename": "Gujarat",
    "Taluk": "Halol",
    "Districtname": "Panch Mahals",
    "statename": "GUJARAT"
  },
  {
    "pincode": "389360",
    "officename": "Jitpura B.O",
    "officeType": "B.O",
    "Deliverystatus": "Delivery",
    "divisionname": "Panchmahals",
    "regionname": "Vadodara",
    "circlename": "Gujarat",
    "Taluk": "Ghoghamba",
    "Districtname": "Panch Mahals",
    "statename": "GUJARAT"
  },
  {
    "pincode": "389360",
    "officename": "Manchi Haveli B.O",
    "officeType": "B.O",
    "Deliverystatus": "Delivery",
    "divisionname": "Panchmahals",
    "regionname": "Vadodara",
    "circlename": "Gujarat",
    "Taluk": "Halol",
    "Districtname": "Panch Mahals",
    "statename": "GUJARAT"
  },
  {
    "pincode": "389360",
    "officename": "Nathkuwa B.O",
    "officeType": "B.O",
    "Deliverystatus": "Delivery",
    "divisionname": "Panchmahals",
    "regionname": "Vadodara",
    "circlename": "Gujarat",
    "Taluk": "Halol",
    "Districtname": "Panch Mahals",
    "statename": "GUJARAT"
  },
  {
    "pincode": "389360",
    "officename": "Navakuwa B.O",
    "officeType": "B.O",
    "Deliverystatus": "Delivery",
    "divisionname": "Panchmahals",
    "regionname": "Vadodara",
    "circlename": "Gujarat",
    "Taluk": "Halol",
    "Districtname": "Panch Mahals",
    "statename": "GUJARAT"
  },
  {
    "pincode": "389360",
    "officename": "Pavagadh S.O",
    "officeType": "S.O",
    "Deliverystatus": "Delivery",
    "divisionname": "Panchmahals",
    "regionname": "Vadodara",
    "circlename": "Gujarat",
    "Taluk": "Halol",
    "Districtname": "Panch Mahals",
    "statename": "GUJARAT"
  },
  {
    "pincode": "389360",
    "officename": "Ranjitnagar B.O",
    "officeType": "B.O",
    "Deliverystatus": "Delivery",
    "divisionname": "Panchmahals",
    "regionname": "Vadodara",
    "circlename": "Gujarat",
    "Taluk": "Ghoghamba",
    "Districtname": "Panch Mahals",
    "statename": "GUJARAT"
  },
  {
    "pincode": "389360",
    "officename": "Rayanwadia B.O",
    "officeType": "B.O",
    "Deliverystatus": "Delivery",
    "divisionname": "Panchmahals",
    "regionname": "Vadodara",
    "circlename": "Gujarat",
    "Taluk": "Halol",
    "Districtname": "Panch Mahals",
    "statename": "GUJARAT"
  },
  {
    "pincode": "389360",
    "officename": "Rinchhia B.O",
    "officeType": "B.O",
    "Deliverystatus": "Delivery",
    "divisionname": "Panchmahals",
    "regionname": "Vadodara",
    "circlename": "Gujarat",
    "Taluk": "Ghoghamba",
    "Districtname": "Panch Mahals",
    "statename": "GUJARAT"
  },
  {
    "pincode": "389360",
    "officename": "Vada Talav B.O",
    "officeType": "B.O",
    "Deliverystatus": "Delivery",
    "divisionname": "Panchmahals",
    "regionname": "Vadodara",
    "circlename": "Gujarat",
    "Taluk": "Halol",
    "Districtname": "Panch Mahals",
    "statename": "GUJARAT"
  },
  {
    "pincode": "389360",
    "officename": "Zankharia B.O",
    "officeType": "B.O",
    "Deliverystatus": "Delivery",
    "divisionname": "Panchmahals",
    "regionname": "Vadodara",
    "circlename": "Gujarat",
    "Taluk": "Halol",
    "Districtname": "Panch Mahals",
    "statename": "GUJARAT"
  }
]
