[
  {
    "pincode": "389382",
    "officename": "Agaswani B.O",
    "officeType": "B.O",
    "Deliverystatus": "Non-Delivery",
    "divisionname": "Panchmahals",
    "regionname": "Vadodara",
    "circlename": "Gujarat",
    "Taluk": "Dhanpur",
    "Districtname": "Dahod",
    "statename": "GUJARAT"
  },
  {
    "pincode": "389382",
    "officename": "Bhorva B.O",
    "officeType": "B.O",
    "Deliverystatus": "Delivery",
    "divisionname": "Panchmahals",
    "regionname": "Vadodara",
    "circlename": "Gujarat",
    "Taluk": "Dhanpur",
    "Districtname": "Dahod",
    "statename": "GUJARAT"
  },
  {
    "pincode": "389382",
    "officename": "Dhanpur S.O",
    "officeType": "S.O",
    "Deliverystatus": "Delivery",
    "divisionname": "Panchmahals",
    "regionname": "Vadodara",
    "circlename": "Gujarat",
    "Taluk": "Dhanpur",
    "Districtname": "Dahod",
    "statename": "GUJARAT"
  },
  {
    "pincode": "389382",
    "officename": "Dudhamali B.O",
    "officeType": "B.O",
    "Deliverystatus": "Non-Delivery",
    "divisionname": "Panchmahals",
    "regionname": "Vadodara",
    "circlename": "Gujarat",
    "Taluk": "Dhanpur",
    "Districtname": "Dahod",
    "statename": "GUJARAT"
  },
  {
    "pincode": "389382",
    "officename": "Dumka B.O",
    "officeType": "B.O",
    "Deliverystatus": "Delivery",
    "divisionname": "Panchmahals",
    "regionname": "Vadodara",
    "circlename": "Gujarat",
    "Taluk": "Dhanpur",
    "Districtname": "Dahod",
    "statename": "GUJARAT"
  },
  {
    "pincode": "389382",
    "officename": "Ghada B.O",
    "officeType": "B.O",
    "Deliverystatus": "Delivery",
    "divisionname": "Panchmahals",
    "regionname": "Vadodara",
    "circlename": "Gujarat",
    "Taluk": "Dhanpur",
    "Districtname": "Dahod",
    "statename": "GUJARAT"
  },
  {
    "pincode": "389382",
    "officename": "Kanjeta B.O",
    "officeType": "B.O",
    "Deliverystatus": "Delivery",
    "divisionname": "Panchmahals",
    "regionname": "Vadodara",
    "circlename": "Gujarat",
    "Taluk": "Dhanpur",
    "Districtname": "Dahod",
    "statename": "GUJARAT"
  },
  {
    "pincode": "389382",
    "officename": "Nalu B.O",
    "officeType": "B.O",
    "Deliverystatus": "Delivery",
    "divisionname": "Panchmahals",
    "regionname": "Vadodara",
    "circlename": "Gujarat",
    "Taluk": "Dhanpur",
    "Districtname": "Dahod",
    "statename": "GUJARAT"
  },
  {
    "pincode": "389382",
    "officename": "Pipero B.O",
    "officeType": "B.O",
    "Deliverystatus": "Non-Delivery",
    "divisionname": "Panchmahals",
    "regionname": "Vadodara",
    "circlename": "Gujarat",
    "Taluk": "Dhanpur",
    "Districtname": "Dahod",
    "statename": "GUJARAT"
  },
  {
    "pincode": "389382",
    "officename": "Sajoi B.O",
    "officeType": "B.O",
    "Deliverystatus": "Non-Delivery",
    "divisionname": "Panchmahals",
    "regionname": "Vadodara",
    "circlename": "Gujarat",
    "Taluk": "Dhanpur",
    "Districtname": "Dahod",
    "statename": "GUJARAT"
  },
  {
    "pincode": "389382",
    "officename": "Simamoi B.O",
    "officeType": "B.O",
    "Deliverystatus": "Non-Delivery",
    "divisionname": "Panchmahals",
    "regionname": "Vadodara",
    "circlename": "Gujarat",
    "Taluk": "Dhanpur",
    "Districtname": "Dahod",
    "statename": "GUJARAT"
  },
  {
    "pincode": "389382",
    "officename": "Tokarva B.O",
    "officeType": "B.O",
    "Deliverystatus": "Delivery",
    "divisionname": "Panchmahals",
    "regionname": "Vadodara",
    "circlename": "Gujarat",
    "Taluk": "Dhanpur",
    "Districtname": "Dahod",
    "statename": "GUJARAT"
  },
  {
    "pincode": "389382",
    "officename": "Ved B.O",
    "officeType": "B.O",
    "Deliverystatus": "Delivery",
    "divisionname": "Panchmahals",
    "regionname": "Vadodara",
    "circlename": "Gujarat",
    "Taluk": "Dhanpur",
    "Districtname": "Dahod",
    "statename": "GUJARAT"
  },
  {
    "pincode": "389382",
    "officename": "Zabu B.O",
    "officeType": "B.O",
    "Deliverystatus": "Delivery",
    "divisionname": "Panchmahals",
    "regionname": "Vadodara",
    "circlename": "Gujarat",
    "Taluk": "Dhanpur",
    "Districtname": "Dahod",
    "statename": "GUJARAT"
  }
]
