[
  {
    "pincode": "391121",
    "officename": "Agar B.O",
    "officeType": "B.O",
    "Deliverystatus": "Delivery",
    "divisionname": "Vadodara East",
    "regionname": "Vadodara",
    "circlename": "Gujarat",
    "Taluk": "Tilakwada",
    "Districtname": "Vadodara",
    "statename": "GUJARAT"
  },
  {
    "pincode": "391121",
    "officename": "Alwa B.O",
    "officeType": "B.O",
    "Deliverystatus": "Delivery",
    "divisionname": "Vadodara East",
    "regionname": "Vadodara",
    "circlename": "Gujarat",
    "Taluk": "Tilakwada",
    "Districtname": "Narmada",
    "statename": "GUJARAT"
  },
  {
    "pincode": "391121",
    "officename": "Bhadarwa B.O",
    "officeType": "B.O",
    "Deliverystatus": "Delivery",
    "divisionname": "Vadodara East",
    "regionname": "Vadodara",
    "circlename": "Gujarat",
    "Taluk": "Tilakwada",
    "Districtname": "Narmada",
    "statename": "GUJARAT"
  },
  {
    "pincode": "391121",
    "officename": "Devaliya S.O",
    "officeType": "S.O",
    "Deliverystatus": "Delivery",
    "divisionname": "Vadodara East",
    "regionname": "Vadodara",
    "circlename": "Gujarat",
    "Taluk": "Tilakwada",
    "Districtname": "Narmada",
    "statename": "GUJARAT"
  },
  {
    "pincode": "391121",
    "officename": "Kantharpura B.O",
    "officeType": "B.O",
    "Deliverystatus": "Delivery",
    "divisionname": "Vadodara East",
    "regionname": "Vadodara",
    "circlename": "Gujarat",
    "Taluk": "Tilakwada",
    "Districtname": "Narmada",
    "statename": "GUJARAT"
  },
  {
    "pincode": "391121",
    "officename": "Puchhpura B.O",
    "officeType": "B.O",
    "Deliverystatus": "Delivery",
    "divisionname": "Vadodara East",
    "regionname": "Vadodara",
    "circlename": "Gujarat",
    "Taluk": "Tilakwada",
    "Districtname": "Narmada",
    "statename": "GUJARAT"
  },
  {
    "pincode": "391121",
    "officename": "Rengan B.O",
    "officeType": "B.O",
    "Deliverystatus": "Delivery",
    "divisionname": "Vadodara East",
    "regionname": "Vadodara",
    "circlename": "Gujarat",
    "Taluk": "Tilakwada",
    "Districtname": "Narmada",
    "statename": "GUJARAT"
  },
  {
    "pincode": "391121",
    "officename": "Savli B.O",
    "officeType": "B.O",
    "Deliverystatus": "Delivery",
    "divisionname": "Vadodara East",
    "regionname": "Vadodara",
    "circlename": "Gujarat",
    "Taluk": "Naswadi",
    "Districtname": "Vadodara",
    "statename": "GUJARAT"
  },
  {
    "pincode": "391121",
    "officename": "Shira B.O",
    "officeType": "B.O",
    "Deliverystatus": "Delivery",
    "divisionname": "Vadodara East",
    "regionname": "Vadodara",
    "circlename": "Gujarat",
    "Taluk": "Naswadi",
    "Districtname": "Vadodara",
    "statename": "GUJARAT"
  },
  {
    "pincode": "391121",
    "officename": "Uchad B.O",
    "officeType": "B.O",
    "Deliverystatus": "Delivery",
    "divisionname": "Vadodara East",
    "regionname": "Vadodara",
    "circlename": "Gujarat",
    "Taluk": "Tilakwada",
    "Districtname": "Narmada",
    "statename": "GUJARAT"
  },
  {
    "pincode": "391121",
    "officename": "Vadia B.O",
    "officeType": "B.O",
    "Deliverystatus": "Delivery",
    "divisionname": "Vadodara East",
    "regionname": "Vadodara",
    "circlename": "Gujarat",
    "Taluk": "Tilakwada",
    "Districtname": "Vadodara",
    "statename": "GUJARAT"
  },
  {
    "pincode": "391121",
    "officename": "Vandh B.O",
    "officeType": "B.O",
    "Deliverystatus": "Delivery",
    "divisionname": "Vadodara East",
    "regionname": "Vadodara",
    "circlename": "Gujarat",
    "Taluk": "Tilakwada",
    "Districtname": "Narmada",
    "statename": "GUJARAT"
  },
  {
    "pincode": "391121",
    "officename": "Vydhar B.O",
    "officeType": "B.O",
    "Deliverystatus": "Delivery",
    "divisionname": "Vadodara East",
    "regionname": "Vadodara",
    "circlename": "Gujarat",
    "Taluk": "Tilakwada",
    "Districtname": "Narmada",
    "statename": "GUJARAT"
  }
]
