[
  {
    "pincode": "391105",
    "officename": "Barkal B.O",
    "officeType": "B.O",
    "Deliverystatus": "Delivery",
    "divisionname": "Vadodara East",
    "regionname": "Vadodara",
    "circlename": "Gujarat",
    "Taluk": "Sinor",
    "Districtname": "Vadodara",
    "statename": "GUJARAT"
  },
  {
    "pincode": "391105",
    "officename": "Bithli B.O",
    "officeType": "B.O",
    "Deliverystatus": "Delivery",
    "divisionname": "Vadodara East",
    "regionname": "Vadodara",
    "circlename": "Gujarat",
    "Taluk": "Sinor",
    "Districtname": "Vadodara",
    "statename": "GUJARAT"
  },
  {
    "pincode": "391105",
    "officename": "Chandod S.O",
    "officeType": "S.O",
    "Deliverystatus": "Delivery",
    "divisionname": "Vadodara East",
    "regionname": "Vadodara",
    "circlename": "Gujarat",
    "Taluk": "Dabhoi",
    "Districtname": "Vadodara",
    "statename": "GUJARAT"
  },
  {
    "pincode": "391105",
    "officename": "Karnali B.O",
    "officeType": "B.O",
    "Deliverystatus": "Delivery",
    "divisionname": "Vadodara East",
    "regionname": "Vadodara",
    "circlename": "Gujarat",
    "Taluk": "Dabhoi",
    "Districtname": "Vadodara",
    "statename": "GUJARAT"
  },
  {
    "pincode": "391105",
    "officename": "Mandva B.O",
    "officeType": "B.O",
    "Deliverystatus": "Delivery",
    "divisionname": "Vadodara East",
    "regionname": "Vadodara",
    "circlename": "Gujarat",
    "Taluk": "Dabhoi",
    "Districtname": "Vadodara",
    "statename": "GUJARAT"
  },
  {
    "pincode": "391105",
    "officename": "Moletha B.O",
    "officeType": "B.O",
    "Deliverystatus": "Delivery",
    "divisionname": "Vadodara East",
    "regionname": "Vadodara",
    "circlename": "Gujarat",
    "Taluk": "Dabhoi",
    "Districtname": "Vadodara",
    "statename": "GUJARAT"
  },
  {
    "pincode": "391105",
    "officename": "Mota Karala B.O",
    "officeType": "B.O",
    "Deliverystatus": "Delivery",
    "divisionname": "Vadodara East",
    "regionname": "Vadodara",
    "circlename": "Gujarat",
    "Taluk": "Sinor",
    "Districtname": "Vadodara",
    "statename": "GUJARAT"
  },
  {
    "pincode": "391105",
    "officename": "Nana Karala B.O",
    "officeType": "B.O",
    "Deliverystatus": "Delivery",
    "divisionname": "Vadodara East",
    "regionname": "Vadodara",
    "circlename": "Gujarat",
    "Taluk": "Sinor",
    "Districtname": "Vadodara",
    "statename": "GUJARAT"
  },
  {
    "pincode": "391105",
    "officename": "Nanderia B.O",
    "officeType": "B.O",
    "Deliverystatus": "Delivery",
    "divisionname": "Vadodara East",
    "regionname": "Vadodara",
    "circlename": "Gujarat",
    "Taluk": "Dabhoi",
    "Districtname": "Vadodara",
    "statename": "GUJARAT"
  },
  {
    "pincode": "391105",
    "officename": "Sagwa B.O",
    "officeType": "B.O",
    "Deliverystatus": "Delivery",
    "divisionname": "Vadodara East",
    "regionname": "Vadodara",
    "circlename": "Gujarat",
    "Taluk": "Sinor",
    "Districtname": "Vadodara",
    "statename": "GUJARAT"
  },
  {
    "pincode": "391105",
    "officename": "Sanor B.O",
    "officeType": "B.O",
    "Deliverystatus": "Delivery",
    "divisionname": "Vadodara East",
    "regionname": "Vadodara",
    "circlename": "Gujarat",
    "Taluk": "Sinor",
    "Districtname": "Vadodara",
    "statename": "GUJARAT"
  },
  {
    "pincode": "391105",
    "officename": "Simli B.O",
    "officeType": "B.O",
    "Deliverystatus": "Delivery",
    "divisionname": "Vadodara East",
    "regionname": "Vadodara",
    "circlename": "Gujarat",
    "Taluk": "Dabhoi",
    "Districtname": "Vadodara",
    "statename": "GUJARAT"
  },
  {
    "pincode": "391105",
    "officename": "Tentalav B.O",
    "officeType": "B.O",
    "Deliverystatus": "Delivery",
    "divisionname": "Vadodara East",
    "regionname": "Vadodara",
    "circlename": "Gujarat",
    "Taluk": "Dabhoi",
    "Districtname": "Vadodara",
    "statename": "GUJARAT"
  },
  {
    "pincode": "391105",
    "officename": "Vadaj B.O",
    "officeType": "B.O",
    "Deliverystatus": "Delivery",
    "divisionname": "Vadodara East",
    "regionname": "Vadodara",
    "circlename": "Gujarat",
    "Taluk": "Dabhoi",
    "Districtname": "Vadodara",
    "statename": "GUJARAT"
  },
  {
    "pincode": "391105",
    "officename": "Vaniad B.O",
    "officeType": "B.O",
    "Deliverystatus": "Delivery",
    "divisionname": "Vadodara East",
    "regionname": "Vadodara",
    "circlename": "Gujarat",
    "Taluk": "Sinor",
    "Districtname": "Vadodara",
    "statename": "GUJARAT"
  }
]
