[
  {
    "pincode": "391135",
    "officename": "Alhadpura B.O",
    "officeType": "B.O",
    "Deliverystatus": "Delivery",
    "divisionname": "Vadodara East",
    "regionname": "Vadodara",
    "circlename": "Gujarat",
    "Taluk": "Sankheda",
    "Districtname": "Vadodara",
    "statename": "GUJARAT"
  },
  {
    "pincode": "391135",
    "officename": "Bhindol B.O",
    "officeType": "B.O",
    "Deliverystatus": "Delivery",
    "divisionname": "Vadodara East",
    "regionname": "Vadodara",
    "circlename": "Gujarat",
    "Taluk": "Pavijetpur",
    "Districtname": "Vadodara",
    "statename": "GUJARAT"
  },
  {
    "pincode": "391135",
    "officename": "Bodeli S.O",
    "officeType": "S.O",
    "Deliverystatus": "Delivery",
    "divisionname": "Vadodara East",
    "regionname": "Vadodara",
    "circlename": "Gujarat",
    "Taluk": "Bodeli",
    "Districtname": "Vadodara",
    "statename": "GUJARAT"
  },
  {
    "pincode": "391135",
    "officename": "Bordha B.O",
    "officeType": "B.O",
    "Deliverystatus": "Delivery",
    "divisionname": "Vadodara East",
    "regionname": "Vadodara",
    "circlename": "Gujarat",
    "Taluk": "Pavijetpur",
    "Districtname": "Vadodara",
    "statename": "GUJARAT"
  },
  {
    "pincode": "391135",
    "officename": "Chhatrali B.O",
    "officeType": "B.O",
    "Deliverystatus": "Delivery",
    "divisionname": "Vadodara East",
    "regionname": "Vadodara",
    "circlename": "Gujarat",
    "Taluk": "Pavijetpur",
    "Districtname": "Vadodara",
    "statename": "GUJARAT"
  },
  {
    "pincode": "391135",
    "officename": "Ferkuva B.O",
    "officeType": "B.O",
    "Deliverystatus": "Delivery",
    "divisionname": "Vadodara East",
    "regionname": "Vadodara",
    "circlename": "Gujarat",
    "Taluk": "Pavijetpur",
    "Districtname": "Vadodara",
    "statename": "GUJARAT"
  },
  {
    "pincode": "391135",
    "officename": "Kalarani B.O",
    "officeType": "B.O",
    "Deliverystatus": "Delivery",
    "divisionname": "Vadodara East",
    "regionname": "Vadodara",
    "circlename": "Gujarat",
    "Taluk": "Pavijetpur",
    "Districtname": "Vadodara",
    "statename": "GUJARAT"
  },
  {
    "pincode": "391135",
    "officename": "Karali B.O",
    "officeType": "B.O",
    "Deliverystatus": "Delivery",
    "divisionname": "Vadodara East",
    "regionname": "Vadodara",
    "circlename": "Gujarat",
    "Taluk": "Pavijetpur",
    "Districtname": "Vadodara",
    "statename": "GUJARAT"
  },
  {
    "pincode": "391135",
    "officename": "Ladod B.O",
    "officeType": "B.O",
    "Deliverystatus": "Delivery",
    "divisionname": "Vadodara East",
    "regionname": "Vadodara",
    "circlename": "Gujarat",
    "Taluk": "Sankheda",
    "Districtname": "Vadodara",
    "statename": "GUJARAT"
  },
  {
    "pincode": "391135",
    "officename": "Modasar B.O",
    "officeType": "B.O",
    "Deliverystatus": "Delivery",
    "divisionname": "Vadodara East",
    "regionname": "Vadodara",
    "circlename": "Gujarat",
    "Taluk": "Sankheda",
    "Districtname": "Vadodara",
    "statename": "GUJARAT"
  },
  {
    "pincode": "391135",
    "officename": "Nana Amadara B.O",
    "officeType": "B.O",
    "Deliverystatus": "Delivery",
    "divisionname": "Vadodara East",
    "regionname": "Vadodara",
    "circlename": "Gujarat",
    "Taluk": "Pavijetpur",
    "Districtname": "Vadodara",
    "statename": "GUJARAT"
  },
  {
    "pincode": "391135",
    "officename": "Saloj B.O",
    "officeType": "B.O",
    "Deliverystatus": "Delivery",
    "divisionname": "Vadodara East",
    "regionname": "Vadodara",
    "circlename": "Gujarat",
    "Taluk": "Pavijetpur",
    "Districtname": "Vadodara",
    "statename": "GUJARAT"
  },
  {
    "pincode": "391135",
    "officename": "Sankhandra B.O",
    "officeType": "B.O",
    "Deliverystatus": "Delivery",
    "divisionname": "Vadodara East",
    "regionname": "Vadodara",
    "circlename": "Gujarat",
    "Taluk": "Pavijetpur",
    "Districtname": "Vadodara",
    "statename": "GUJARAT"
  },
  {
    "pincode": "391135",
    "officename": "Sejwa B.O",
    "officeType": "B.O",
    "Deliverystatus": "Delivery",
    "divisionname": "Vadodara East",
    "regionname": "Vadodara",
    "circlename": "Gujarat",
    "Taluk": "Pavijetpur",
    "Districtname": "Vadodara",
    "statename": "GUJARAT"
  },
  {
    "pincode": "391135",
    "officename": "Tadkachhla B.O",
    "officeType": "B.O",
    "Deliverystatus": "Delivery",
    "divisionname": "Vadodara East",
    "regionname": "Vadodara",
    "circlename": "Gujarat",
    "Taluk": "Pavijetpur",
    "Districtname": "Vadodara",
    "statename": "GUJARAT"
  },
  {
    "pincode": "391135",
    "officename": "Tandalja B.O",
    "officeType": "B.O",
    "Deliverystatus": "Delivery",
    "divisionname": "Vadodara East",
    "regionname": "Vadodara",
    "circlename": "Gujarat",
    "Taluk": "Sankheda",
    "Districtname": "Vadodara",
    "statename": "GUJARAT"
  },
  {
    "pincode": "391135",
    "officename": "Vaniadri B.O",
    "officeType": "B.O",
    "Deliverystatus": "Delivery",
    "divisionname": "Vadodara East",
    "regionname": "Vadodara",
    "circlename": "Gujarat",
    "Taluk": "Sankheda",
    "Districtname": "Vadodara",
    "statename": "GUJARAT"
  },
  {
    "pincode": "391135",
    "officename": "Vanta B.O",
    "officeType": "B.O",
    "Deliverystatus": "Delivery",
    "divisionname": "Vadodara East",
    "regionname": "Vadodara",
    "circlename": "Gujarat",
    "Taluk": "Pavijetpur",
    "Districtname": "Vadodara",
    "statename": "GUJARAT"
  }
]
