[
  {
    "pincode": "391120",
    "officename": "Ambalia B.O",
    "officeType": "B.O",
    "Deliverystatus": "Delivery",
    "divisionname": "Vadodara East",
    "regionname": "Vadodara",
    "circlename": "Gujarat",
    "Taluk": "Tilakwada",
    "Districtname": "Narmada",
    "statename": "GUJARAT"
  },
  {
    "pincode": "391120",
    "officename": "Bujetha B.O",
    "officeType": "B.O",
    "Deliverystatus": "Delivery",
    "divisionname": "Vadodara East",
    "regionname": "Vadodara",
    "circlename": "Gujarat",
    "Taluk": "Tilakwada",
    "Districtname": "Narmada",
    "statename": "GUJARAT"
  },
  {
    "pincode": "391120",
    "officename": "Chudeshwar B.O",
    "officeType": "B.O",
    "Deliverystatus": "Delivery",
    "divisionname": "Vadodara East",
    "regionname": "Vadodara",
    "circlename": "Gujarat",
    "Taluk": "Tilakwada",
    "Districtname": "Narmada",
    "statename": "GUJARAT"
  },
  {
    "pincode": "391120",
    "officename": "Fatepura B.O",
    "officeType": "B.O",
    "Deliverystatus": "Delivery",
    "divisionname": "Vadodara East",
    "regionname": "Vadodara",
    "circlename": "Gujarat",
    "Taluk": "",
    "Districtname": "Narmada",
    "statename": "GUJARAT"
  },
  {
    "pincode": "391120",
    "officename": "Gamod B.O",
    "officeType": "B.O",
    "Deliverystatus": "Delivery",
    "divisionname": "Vadodara East",
    "regionname": "Vadodara",
    "circlename": "Gujarat",
    "Taluk": "Tilakwada",
    "Districtname": "Narmada",
    "statename": "GUJARAT"
  },
  {
    "pincode": "391120",
    "officename": "Jalodra B.O",
    "officeType": "B.O",
    "Deliverystatus": "Delivery",
    "divisionname": "Vadodara East",
    "regionname": "Vadodara",
    "circlename": "Gujarat",
    "Taluk": "Tilakwada",
    "Districtname": "Narmada",
    "statename": "GUJARAT"
  },
  {
    "pincode": "391120",
    "officename": "Kamsoli B.O",
    "officeType": "B.O",
    "Deliverystatus": "Delivery",
    "divisionname": "Vadodara East",
    "regionname": "Vadodara",
    "circlename": "Gujarat",
    "Taluk": "Tilakwada",
    "Districtname": "Narmada",
    "statename": "GUJARAT"
  },
  {
    "pincode": "391120",
    "officename": "Moria B.O",
    "officeType": "B.O",
    "Deliverystatus": "Delivery",
    "divisionname": "Vadodara East",
    "regionname": "Vadodara",
    "circlename": "Gujarat",
    "Taluk": "Tilakwada",
    "Districtname": "Narmada",
    "statename": "GUJARAT"
  },
  {
    "pincode": "391120",
    "officename": "Nalia B.O",
    "officeType": "B.O",
    "Deliverystatus": "Delivery",
    "divisionname": "Vadodara East",
    "regionname": "Vadodara",
    "circlename": "Gujarat",
    "Taluk": "Tilakwada",
    "Districtname": "Narmada",
    "statename": "GUJARAT"
  },
  {
    "pincode": "391120",
    "officename": "Namaria B.O",
    "officeType": "B.O",
    "Deliverystatus": "Delivery",
    "divisionname": "Vadodara East",
    "regionname": "Vadodara",
    "circlename": "Gujarat",
    "Taluk": "Tilakwada",
    "Districtname": "Narmada",
    "statename": "GUJARAT"
  },
  {
    "pincode": "391120",
    "officename": "Sevada B.O",
    "officeType": "B.O",
    "Deliverystatus": "Delivery",
    "divisionname": "Vadodara East",
    "regionname": "Vadodara",
    "circlename": "Gujarat",
    "Taluk": "Tilakwada",
    "Districtname": "Narmada",
    "statename": "GUJARAT"
  },
  {
    "pincode": "391120",
    "officename": "Tilakwada S.O",
    "officeType": "S.O",
    "Deliverystatus": "Delivery",
    "divisionname": "Vadodara East",
    "regionname": "Vadodara",
    "circlename": "Gujarat",
    "Taluk": "Dabhoi",
    "Districtname": "Narmada",
    "statename": "GUJARAT"
  },
  {
    "pincode": "391120",
    "officename": "Utavali B.O",
    "officeType": "B.O",
    "Deliverystatus": "Delivery",
    "divisionname": "Vadodara East",
    "regionname": "Vadodara",
    "circlename": "Gujarat",
    "Taluk": "Tilakwada",
    "Districtname": "Narmada",
    "statename": "GUJARAT"
  },
  {
    "pincode": "391120",
    "officename": "Vagheli B.O",
    "officeType": "B.O",
    "Deliverystatus": "Delivery",
    "divisionname": "Vadodara East",
    "regionname": "Vadodara",
    "circlename": "Gujarat",
    "Taluk": "Tilakwada",
    "Districtname": "Narmada",
    "statename": "GUJARAT"
  },
  {
    "pincode": "391120",
    "officename": "Vajiria B.O",
    "officeType": "B.O",
    "Deliverystatus": "Delivery",
    "divisionname": "Vadodara East",
    "regionname": "Vadodara",
    "circlename": "Gujarat",
    "Taluk": "Tilakwada",
    "Districtname": "Narmada",
    "statename": "GUJARAT"
  },
  {
    "pincode": "391120",
    "officename": "Vanmala B.O",
    "officeType": "B.O",
    "Deliverystatus": "Delivery",
    "divisionname": "Vadodara East",
    "regionname": "Vadodara",
    "circlename": "Gujarat",
    "Taluk": "Tilakwada",
    "Districtname": "Narmada",
    "statename": "GUJARAT"
  },
  {
    "pincode": "391120",
    "officename": "Vora B.O",
    "officeType": "B.O",
    "Deliverystatus": "Delivery",
    "divisionname": "Vadodara East",
    "regionname": "Vadodara",
    "circlename": "Gujarat",
    "Taluk": "Tilakwada",
    "Districtname": "Narmada",
    "statename": "GUJARAT"
  }
]
