[
  {
    "pincode": "391168",
    "officename": "Asar B.O",
    "officeType": "B.O",
    "Deliverystatus": "Delivery",
    "divisionname": "Vadodara East",
    "regionname": "Vadodara",
    "circlename": "Gujarat",
    "Taluk": "Ch.udepur",
    "Districtname": "Vadodara",
    "statename": "GUJARAT"
  },
  {
    "pincode": "391168",
    "officename": "Bedia B.O",
    "officeType": "B.O",
    "Deliverystatus": "Delivery",
    "divisionname": "Vadodara East",
    "regionname": "Vadodara",
    "circlename": "Gujarat",
    "Taluk": "Kawant",
    "Districtname": "Vadodara",
    "statename": "GUJARAT"
  },
  {
    "pincode": "391168",
    "officename": "Bhumaswada B.O",
    "officeType": "B.O",
    "Deliverystatus": "Delivery",
    "divisionname": "Vadodara East",
    "regionname": "Vadodara",
    "circlename": "Gujarat",
    "Taluk": "Kawant",
    "Districtname": "Vadodara",
    "statename": "GUJARAT"
  },
  {
    "pincode": "391168",
    "officename": "Dungargam B.O",
    "officeType": "B.O",
    "Deliverystatus": "Delivery",
    "divisionname": "Vadodara East",
    "regionname": "Vadodara",
    "circlename": "Gujarat",
    "Taluk": "Chhotaudepur",
    "Districtname": "Vadodara",
    "statename": "GUJARAT"
  },
  {
    "pincode": "391168",
    "officename": "Kanalva B.O",
    "officeType": "B.O",
    "Deliverystatus": "Delivery",
    "divisionname": "Vadodara East",
    "regionname": "Vadodara",
    "circlename": "Gujarat",
    "Taluk": "Ch.udepur",
    "Districtname": "Vadodara",
    "statename": "GUJARAT"
  },
  {
    "pincode": "391168",
    "officename": "Karanjwant B.O",
    "officeType": "B.O",
    "Deliverystatus": "Delivery",
    "divisionname": "Vadodara East",
    "regionname": "Vadodara",
    "circlename": "Gujarat",
    "Taluk": "Chhotaudepur",
    "Districtname": "Vadodara",
    "statename": "GUJARAT"
  },
  {
    "pincode": "391168",
    "officename": "Khatiawant B.O",
    "officeType": "B.O",
    "Deliverystatus": "Delivery",
    "divisionname": "Vadodara East",
    "regionname": "Vadodara",
    "circlename": "Gujarat",
    "Taluk": "Kawant",
    "Districtname": "Vadodara",
    "statename": "GUJARAT"
  },
  {
    "pincode": "391168",
    "officename": "Manavant B.O",
    "officeType": "B.O",
    "Deliverystatus": "Delivery",
    "divisionname": "Vadodara East",
    "regionname": "Vadodara",
    "circlename": "Gujarat",
    "Taluk": "Ch.udepur",
    "Districtname": "Vadodara",
    "statename": "GUJARAT"
  },
  {
    "pincode": "391168",
    "officename": "Morangana B.O",
    "officeType": "B.O",
    "Deliverystatus": "Delivery",
    "divisionname": "Vadodara East",
    "regionname": "Vadodara",
    "circlename": "Gujarat",
    "Taluk": "Ch.udepur",
    "Districtname": "Vadodara",
    "statename": "GUJARAT"
  },
  {
    "pincode": "391168",
    "officename": "Motaghoda B.O",
    "officeType": "B.O",
    "Deliverystatus": "Delivery",
    "divisionname": "Vadodara East",
    "regionname": "Vadodara",
    "circlename": "Gujarat",
    "Taluk": "Chhotaudepur",
    "Districtname": "Vadodara",
    "statename": "GUJARAT"
  },
  {
    "pincode": "391168",
    "officename": "Mundamore B.O",
    "officeType": "B.O",
    "Deliverystatus": "Delivery",
    "divisionname": "Vadodara East",
    "regionname": "Vadodara",
    "circlename": "Gujarat",
    "Taluk": "Kawant",
    "Districtname": "Vadodara",
    "statename": "GUJARAT"
  },
  {
    "pincode": "391168",
    "officename": "Nani Tokri B.O",
    "officeType": "B.O",
    "Deliverystatus": "Delivery",
    "divisionname": "Vadodara East",
    "regionname": "Vadodara",
    "circlename": "Gujarat",
    "Taluk": "Chhotaudepur",
    "Districtname": "Vadodara",
    "statename": "GUJARAT"
  },
  {
    "pincode": "391168",
    "officename": "Panvad S.O",
    "officeType": "S.O",
    "Deliverystatus": "Delivery",
    "divisionname": "Vadodara East",
    "regionname": "Vadodara",
    "circlename": "Gujarat",
    "Taluk": "Chhotaudepur",
    "Districtname": "Vadodara",
    "statename": "GUJARAT"
  },
  {
    "pincode": "391168",
    "officename": "Raichha B.O",
    "officeType": "B.O",
    "Deliverystatus": "Delivery",
    "divisionname": "Vadodara East",
    "regionname": "Vadodara",
    "circlename": "Gujarat",
    "Taluk": "Ch.udepur",
    "Districtname": "Vadodara",
    "statename": "GUJARAT"
  },
  {
    "pincode": "391168",
    "officename": "Rangpur (K) B.O",
    "officeType": "B.O",
    "Deliverystatus": "Delivery",
    "divisionname": "Vadodara East",
    "regionname": "Vadodara",
    "circlename": "Gujarat",
    "Taluk": "Kawant",
    "Districtname": "Vadodara",
    "statename": "GUJARAT"
  },
  {
    "pincode": "391168",
    "officename": "Rodadha B.O",
    "officeType": "B.O",
    "Deliverystatus": "Delivery",
    "divisionname": "Vadodara East",
    "regionname": "Vadodara",
    "circlename": "Gujarat",
    "Taluk": "Chhotaudepur",
    "Districtname": "Vadodara",
    "statename": "GUJARAT"
  },
  {
    "pincode": "391168",
    "officename": "Rumadia B.O",
    "officeType": "B.O",
    "Deliverystatus": "Delivery",
    "divisionname": "Vadodara East",
    "regionname": "Vadodara",
    "circlename": "Gujarat",
    "Taluk": "Chhotaudepur",
    "Districtname": "Vadodara",
    "statename": "GUJARAT"
  },
  {
    "pincode": "391168",
    "officename": "Sadhli B.O",
    "officeType": "B.O",
    "Deliverystatus": "Delivery",
    "divisionname": "Vadodara East",
    "regionname": "Vadodara",
    "circlename": "Gujarat",
    "Taluk": "Ch.udepur",
    "Districtname": "Vadodara",
    "statename": "GUJARAT"
  },
  {
    "pincode": "391168",
    "officename": "Sanada B.O",
    "officeType": "B.O",
    "Deliverystatus": "Delivery",
    "divisionname": "Vadodara East",
    "regionname": "Vadodara",
    "circlename": "Gujarat",
    "Taluk": "Ch.udepur",
    "Districtname": "Vadodara",
    "statename": "GUJARAT"
  },
  {
    "pincode": "391168",
    "officename": "Singla B.O",
    "officeType": "B.O",
    "Deliverystatus": "Delivery",
    "divisionname": "Vadodara East",
    "regionname": "Vadodara",
    "circlename": "Gujarat",
    "Taluk": "Ch.udepur",
    "Districtname": "Vadodara",
    "statename": "GUJARAT"
  }
]
