[
  {
    "pincode": "391243",
    "officename": "Baman Gam B.O",
    "officeType": "B.O",
    "Deliverystatus": "Delivery",
    "divisionname": "Vadodara West",
    "regionname": "Vadodara",
    "circlename": "Gujarat",
    "Taluk": "Karjan",
    "Districtname": "Vadodara",
    "statename": "GUJARAT"
  },
  {
    "pincode": "391243",
    "officename": "Itola B.O",
    "officeType": "B.O",
    "Deliverystatus": "Delivery",
    "divisionname": "Vadodara West",
    "regionname": "Vadodara",
    "circlename": "Gujarat",
    "Taluk": "Vadodara",
    "Districtname": "Vadodara",
    "statename": "GUJARAT"
  },
  {
    "pincode": "391243",
    "officename": "Itola R.S. B.O",
    "officeType": "B.O",
    "Deliverystatus": "Delivery",
    "divisionname": "Vadodara West",
    "regionname": "Vadodara",
    "circlename": "Gujarat",
    "Taluk": "Vadodara",
    "Districtname": "Vadodara",
    "statename": "GUJARAT"
  },
  {
    "pincode": "391243",
    "officename": "Jambua B.O",
    "officeType": "B.O",
    "Deliverystatus": "Delivery",
    "divisionname": "Vadodara West",
    "regionname": "Vadodara",
    "circlename": "Gujarat",
    "Taluk": "Vadodara",
    "Districtname": "Vadodara",
    "statename": "GUJARAT"
  },
  {
    "pincode": "391243",
    "officename": "Manglej B.O",
    "officeType": "B.O",
    "Deliverystatus": "Delivery",
    "divisionname": "Vadodara West",
    "regionname": "Vadodara",
    "circlename": "Gujarat",
    "Taluk": "Karjan",
    "Districtname": "Vadodara",
    "statename": "GUJARAT"
  },
  {
    "pincode": "391243",
    "officename": "POR S.O",
    "officeType": "S.O",
    "Deliverystatus": "Delivery",
    "divisionname": "Vadodara West",
    "regionname": "Vadodara",
    "circlename": "Gujarat",
    "Taluk": "Vadodara",
    "Districtname": "Vadodara",
    "statename": "GUJARAT"
  },
  {
    "pincode": "391243",
    "officename": "Ramnath B.O",
    "officeType": "B.O",
    "Deliverystatus": "Delivery",
    "divisionname": "Vadodara West",
    "regionname": "Vadodara",
    "circlename": "Gujarat",
    "Taluk": "Vadodara",
    "Districtname": "Vadodara",
    "statename": "GUJARAT"
  },
  {
    "pincode": "391243",
    "officename": "Sarar B.O",
    "officeType": "B.O",
    "Deliverystatus": "Delivery",
    "divisionname": "Vadodara West",
    "regionname": "Vadodara",
    "circlename": "Gujarat",
    "Taluk": "Vadodara",
    "Districtname": "Vadodara",
    "statename": "GUJARAT"
  },
  {
    "pincode": "391243",
    "officename": "Sundarpura B.O",
    "officeType": "B.O",
    "Deliverystatus": "Delivery",
    "divisionname": "Vadodara West",
    "regionname": "Vadodara",
    "circlename": "Gujarat",
    "Taluk": "Vadodara",
    "Districtname": "Vadodara",
    "statename": "GUJARAT"
  },
  {
    "pincode": "391243",
    "officename": "Vadsala B.O",
    "officeType": "B.O",
    "Deliverystatus": "Delivery",
    "divisionname": "Vadodara West",
    "regionname": "Vadodara",
    "circlename": "Gujarat",
    "Taluk": "Vadodara",
    "Districtname": "Vadodara",
    "statename": "GUJARAT"
  },
  {
    "pincode": "391243",
    "officename": "Varnama B.O",
    "officeType": "B.O",
    "Deliverystatus": "Delivery",
    "divisionname": "Vadodara West",
    "regionname": "Vadodara",
    "circlename": "Gujarat",
    "Taluk": "Vadodara",
    "Districtname": "Vadodara",
    "statename": "GUJARAT"
  }
]
