[
  {
    "pincode": "391430",
    "officename": "Chitral B.O",
    "officeType": "B.O",
    "Deliverystatus": "Delivery",
    "divisionname": "Vadodara West",
    "regionname": "Vadodara",
    "circlename": "Gujarat",
    "Taluk": "Padra",
    "Districtname": "Vadodara",
    "statename": "GUJARAT"
  },
  {
    "pincode": "391430",
    "officename": "Gametha B.O",
    "officeType": "B.O",
    "Deliverystatus": "Delivery",
    "divisionname": "Vadodara West",
    "regionname": "Vadodara",
    "circlename": "Gujarat",
    "Taluk": "Padra",
    "Districtname": "Vadodara",
    "statename": "GUJARAT"
  },
  {
    "pincode": "391430",
    "officename": "Gavasad B.O",
    "officeType": "B.O",
    "Deliverystatus": "Delivery",
    "divisionname": "Vadodara West",
    "regionname": "Vadodara",
    "circlename": "Gujarat",
    "Taluk": "Padra",
    "Districtname": "Vadodara",
    "statename": "GUJARAT"
  },
  {
    "pincode": "391430",
    "officename": "Jalalpura B.O",
    "officeType": "B.O",
    "Deliverystatus": "Delivery",
    "divisionname": "Vadodara West",
    "regionname": "Vadodara",
    "circlename": "Gujarat",
    "Taluk": "Padra",
    "Districtname": "Vadodara",
    "statename": "GUJARAT"
  },
  {
    "pincode": "391430",
    "officename": "Kanda B.O",
    "officeType": "B.O",
    "Deliverystatus": "Delivery",
    "divisionname": "Vadodara West",
    "regionname": "Vadodara",
    "circlename": "Gujarat",
    "Taluk": "Padra",
    "Districtname": "Vadodara",
    "statename": "GUJARAT"
  },
  {
    "pincode": "391430",
    "officename": "Kural B.O",
    "officeType": "B.O",
    "Deliverystatus": "Delivery",
    "divisionname": "Vadodara West",
    "regionname": "Vadodara",
    "circlename": "Gujarat",
    "Taluk": "Padra",
    "Districtname": "Vadodara",
    "statename": "GUJARAT"
  },
  {
    "pincode": "391430",
    "officename": "Mobha B.O",
    "officeType": "B.O",
    "Deliverystatus": "Delivery",
    "divisionname": "Vadodara West",
    "regionname": "Vadodara",
    "circlename": "Gujarat",
    "Taluk": "Padra",
    "Districtname": "Vadodara",
    "statename": "GUJARAT"
  },
  {
    "pincode": "391430",
    "officename": "Mobha Road S.O",
    "officeType": "S.O",
    "Deliverystatus": "Delivery",
    "divisionname": "Vadodara West",
    "regionname": "Vadodara",
    "circlename": "Gujarat",
    "Taluk": "Padra",
    "Districtname": "Vadodara",
    "statename": "GUJARAT"
  },
  {
    "pincode": "391430",
    "officename": "Muval B.O",
    "officeType": "B.O",
    "Deliverystatus": "Delivery",
    "divisionname": "Vadodara West",
    "regionname": "Vadodara",
    "circlename": "Gujarat",
    "Taluk": "Padra",
    "Districtname": "Vadodara",
    "statename": "GUJARAT"
  },
  {
    "pincode": "391430",
    "officename": "Pindappa B.O",
    "officeType": "B.O",
    "Deliverystatus": "Delivery",
    "divisionname": "Vadodara West",
    "regionname": "Vadodara",
    "circlename": "Gujarat",
    "Taluk": "Padra",
    "Districtname": "Vadodara",
    "statename": "GUJARAT"
  },
  {
    "pincode": "391430",
    "officename": "Sadra B.O",
    "officeType": "B.O",
    "Deliverystatus": "Delivery",
    "divisionname": "Vadodara West",
    "regionname": "Vadodara",
    "circlename": "Gujarat",
    "Taluk": "Padra",
    "Districtname": "Vadodara",
    "statename": "GUJARAT"
  },
  {
    "pincode": "391430",
    "officename": "Sanpur B.O",
    "officeType": "B.O",
    "Deliverystatus": "Delivery",
    "divisionname": "Vadodara West",
    "regionname": "Vadodara",
    "circlename": "Gujarat",
    "Taluk": "Padra",
    "Districtname": "Vadodara",
    "statename": "GUJARAT"
  },
  {
    "pincode": "391430",
    "officename": "Vanchhara B.O",
    "officeType": "B.O",
    "Deliverystatus": "Delivery",
    "divisionname": "Vadodara West",
    "regionname": "Vadodara",
    "circlename": "Gujarat",
    "Taluk": "Padra",
    "Districtname": "Vadodara",
    "statename": "GUJARAT"
  }
]
