[
  {
    "pincode": "391770",
    "officename": "Gothda B.O",
    "officeType": "B.O",
    "Deliverystatus": "Delivery",
    "divisionname": "Vadodara West",
    "regionname": "Vadodara",
    "circlename": "Gujarat",
    "Taluk": "Savli",
    "Districtname": "Vadodara",
    "statename": "GUJARAT"
  },
  {
    "pincode": "391770",
    "officename": "Lanchanpura B.O",
    "officeType": "B.O",
    "Deliverystatus": "Delivery",
    "divisionname": "Vadodara West",
    "regionname": "Vadodara",
    "circlename": "Gujarat",
    "Taluk": "Savli",
    "Districtname": "Vadodara",
    "statename": "GUJARAT"
  },
  {
    "pincode": "391770",
    "officename": "Mevli B.O",
    "officeType": "B.O",
    "Deliverystatus": "Delivery",
    "divisionname": "Vadodara West",
    "regionname": "Vadodara",
    "circlename": "Gujarat",
    "Taluk": "Savli",
    "Districtname": "Vadodara",
    "statename": "GUJARAT"
  },
  {
    "pincode": "391770",
    "officename": "Muval B.O",
    "officeType": "B.O",
    "Deliverystatus": "Delivery",
    "divisionname": "Vadodara West",
    "regionname": "Vadodara",
    "circlename": "Gujarat",
    "Taluk": "Savli",
    "Districtname": "Vadodara",
    "statename": "GUJARAT"
  },
  {
    "pincode": "391770",
    "officename": "Nahra B.O",
    "officeType": "B.O",
    "Deliverystatus": "Delivery",
    "divisionname": "Vadodara West",
    "regionname": "Vadodara",
    "circlename": "Gujarat",
    "Taluk": "Savli",
    "Districtname": "Vadodara",
    "statename": "GUJARAT"
  },
  {
    "pincode": "391770",
    "officename": "Poicha B.O",
    "officeType": "B.O",
    "Deliverystatus": "Delivery",
    "divisionname": "Vadodara West",
    "regionname": "Vadodara",
    "circlename": "Gujarat",
    "Taluk": "Savli",
    "Districtname": "Vadodara",
    "statename": "GUJARAT"
  },
  {
    "pincode": "391770",
    "officename": "Prathampura B.O",
    "officeType": "B.O",
    "Deliverystatus": "Delivery",
    "divisionname": "Vadodara West",
    "regionname": "Vadodara",
    "circlename": "Gujarat",
    "Taluk": "Savli",
    "Districtname": "Vadodara",
    "statename": "GUJARAT"
  },
  {
    "pincode": "391770",
    "officename": "Rasulpur B.O",
    "officeType": "B.O",
    "Deliverystatus": "Delivery",
    "divisionname": "Vadodara West",
    "regionname": "Vadodara",
    "circlename": "Gujarat",
    "Taluk": "Savli",
    "Districtname": "Vadodara",
    "statename": "GUJARAT"
  },
  {
    "pincode": "391770",
    "officename": "Savli S.O",
    "officeType": "S.O",
    "Deliverystatus": "Delivery",
    "divisionname": "Vadodara West",
    "regionname": "Vadodara",
    "circlename": "Gujarat",
    "Taluk": "Savli",
    "Districtname": "Vadodara",
    "statename": "GUJARAT"
  },
  {
    "pincode": "391770",
    "officename": "Vasanpura B.O",
    "officeType": "B.O",
    "Deliverystatus": "Delivery",
    "divisionname": "Vadodara West",
    "regionname": "Vadodara",
    "circlename": "Gujarat",
    "Taluk": "Savli",
    "Districtname": "Vadodara",
    "statename": "GUJARAT"
  },
  {
    "pincode": "391770",
    "officename": "Vintoz B.O",
    "officeType": "B.O",
    "Deliverystatus": "Delivery",
    "divisionname": "Vadodara West",
    "regionname": "Vadodara",
    "circlename": "Gujarat",
    "Taluk": "Savli",
    "Districtname": "Vadodara",
    "statename": "GUJARAT"
  }
]
