[
  {
    "pincode": "391761",
    "officename": "Amreshwar B.O",
    "officeType": "B.O",
    "Deliverystatus": "Delivery",
    "divisionname": "Vadodara West",
    "regionname": "Vadodara",
    "circlename": "Gujarat",
    "Taluk": "Dabhoi",
    "Districtname": "Vadodara",
    "statename": "GUJARAT"
  },
  {
    "pincode": "391761",
    "officename": "Anandpura B.O",
    "officeType": "B.O",
    "Deliverystatus": "Delivery",
    "divisionname": "Vadodara West",
    "regionname": "Vadodara",
    "circlename": "Gujarat",
    "Taluk": "Sankheda",
    "Districtname": "Vadodara",
    "statename": "GUJARAT"
  },
  {
    "pincode": "391761",
    "officename": "Antoli B.O",
    "officeType": "B.O",
    "Deliverystatus": "Delivery",
    "divisionname": "Vadodara West",
    "regionname": "Vadodara",
    "circlename": "Gujarat",
    "Taluk": "Vaghodia",
    "Districtname": "Vadodara",
    "statename": "GUJARAT"
  },
  {
    "pincode": "391761",
    "officename": "Gabhirpura B.O",
    "officeType": "B.O",
    "Deliverystatus": "Delivery",
    "divisionname": "Vadodara West",
    "regionname": "Vadodara",
    "circlename": "Gujarat",
    "Taluk": "Vaghodia",
    "Districtname": "Vadodara",
    "statename": "GUJARAT"
  },
  {
    "pincode": "391761",
    "officename": "Goraj B.O",
    "officeType": "B.O",
    "Deliverystatus": "Delivery",
    "divisionname": "Vadodara West",
    "regionname": "Vadodara",
    "circlename": "Gujarat",
    "Taluk": "Vaghodia",
    "Districtname": "Vadodara",
    "statename": "GUJARAT"
  },
  {
    "pincode": "391761",
    "officename": "Karmaliyapura B.O",
    "officeType": "B.O",
    "Deliverystatus": "Delivery",
    "divisionname": "Vadodara West",
    "regionname": "Vadodara",
    "circlename": "Gujarat",
    "Taluk": "Vaghodia",
    "Districtname": "Vadodara",
    "statename": "GUJARAT"
  },
  {
    "pincode": "391761",
    "officename": "Kasumbia B.O",
    "officeType": "B.O",
    "Deliverystatus": "Delivery",
    "divisionname": "Vadodara West",
    "regionname": "Vadodara",
    "circlename": "Gujarat",
    "Taluk": "Sankheda",
    "Districtname": "Vadodara",
    "statename": "GUJARAT"
  },
  {
    "pincode": "391761",
    "officename": "Khandiya B.O",
    "officeType": "B.O",
    "Deliverystatus": "Delivery",
    "divisionname": "Vadodara West",
    "regionname": "Vadodara",
    "circlename": "Gujarat",
    "Taluk": "Sankheda",
    "Districtname": "Vadodara",
    "statename": "GUJARAT"
  },
  {
    "pincode": "391761",
    "officename": "Khervadi B.O",
    "officeType": "B.O",
    "Deliverystatus": "Delivery",
    "divisionname": "Vadodara West",
    "regionname": "Vadodara",
    "circlename": "Gujarat",
    "Taluk": "Vaghodia",
    "Districtname": "Vadodara",
    "statename": "GUJARAT"
  },
  {
    "pincode": "391761",
    "officename": "Kuvarpura B.O",
    "officeType": "B.O",
    "Deliverystatus": "Delivery",
    "divisionname": "Vadodara West",
    "regionname": "Vadodara",
    "circlename": "Gujarat",
    "Taluk": "Sankheda",
    "Districtname": "Vadodara",
    "statename": "GUJARAT"
  },
  {
    "pincode": "391761",
    "officename": "Malu B.O",
    "officeType": "B.O",
    "Deliverystatus": "Delivery",
    "divisionname": "Vadodara West",
    "regionname": "Vadodara",
    "circlename": "Gujarat",
    "Taluk": "Sankheda",
    "Districtname": "Vadodara",
    "statename": "GUJARAT"
  },
  {
    "pincode": "391761",
    "officename": "Motimanekpur B.O",
    "officeType": "B.O",
    "Deliverystatus": "Delivery",
    "divisionname": "Vadodara West",
    "regionname": "Vadodara",
    "circlename": "Gujarat",
    "Taluk": "Vaghodia",
    "Districtname": "Vadodara",
    "statename": "GUJARAT"
  },
  {
    "pincode": "391761",
    "officename": "Remeshwarpura B.O",
    "officeType": "B.O",
    "Deliverystatus": "Delivery",
    "divisionname": "Vadodara West",
    "regionname": "Vadodara",
    "circlename": "Gujarat",
    "Taluk": "Vaghodia",
    "Districtname": "Vadodara",
    "statename": "GUJARAT"
  },
  {
    "pincode": "391761",
    "officename": "Rustampura S.O (Vadodara)",
    "officeType": "S.O",
    "Deliverystatus": "Delivery",
    "divisionname": "Vadodara West",
    "regionname": "Vadodara",
    "circlename": "Gujarat",
    "Taluk": "Vaghodia",
    "Districtname": "Vadodara",
    "statename": "GUJARAT"
  },
  {
    "pincode": "391761",
    "officename": "Saidal B.O",
    "officeType": "B.O",
    "Deliverystatus": "Delivery",
    "divisionname": "Vadodara West",
    "regionname": "Vadodara",
    "circlename": "Gujarat",
    "Taluk": "Vaghodia",
    "Districtname": "Vadodara",
    "statename": "GUJARAT"
  },
  {
    "pincode": "391761",
    "officename": "Valva B.O",
    "officeType": "B.O",
    "Deliverystatus": "Delivery",
    "divisionname": "Vadodara West",
    "regionname": "Vadodara",
    "circlename": "Gujarat",
    "Taluk": "Vaghodida",
    "Districtname": "Vadodara",
    "statename": "GUJARAT"
  },
  {
    "pincode": "391761",
    "officename": "Vandarda B.O",
    "officeType": "B.O",
    "Deliverystatus": "Delivery",
    "divisionname": "Vadodara West",
    "regionname": "Vadodara",
    "circlename": "Gujarat",
    "Taluk": "Sankheda",
    "Districtname": "Vadodara",
    "statename": "GUJARAT"
  },
  {
    "pincode": "391761",
    "officename": "Vedpur B.O",
    "officeType": "B.O",
    "Deliverystatus": "Delivery",
    "divisionname": "Vadodara West",
    "regionname": "Vadodara",
    "circlename": "Gujarat",
    "Taluk": "Vaghodia",
    "Districtname": "Vadodara",
    "statename": "GUJARAT"
  }
]
