[
  {
    "pincode": "391760",
    "officename": "Alva B.O",
    "officeType": "B.O",
    "Deliverystatus": "Delivery",
    "divisionname": "Vadodara West",
    "regionname": "Vadodara",
    "circlename": "Gujarat",
    "Taluk": "Vaghodia",
    "Districtname": "Vadodara",
    "statename": "GUJARAT"
  },
  {
    "pincode": "391760",
    "officename": "Ambali B.O",
    "officeType": "B.O",
    "Deliverystatus": "Delivery",
    "divisionname": "Vadodara West",
    "regionname": "Vadodara",
    "circlename": "Gujarat",
    "Taluk": "Vaghodia",
    "Districtname": "Vadodara",
    "statename": "GUJARAT"
  },
  {
    "pincode": "391760",
    "officename": "Chipad B.O",
    "officeType": "B.O",
    "Deliverystatus": "Delivery",
    "divisionname": "Vadodara West",
    "regionname": "Vadodara",
    "circlename": "Gujarat",
    "Taluk": "Vaghodia",
    "Districtname": "Vadodara",
    "statename": "GUJARAT"
  },
  {
    "pincode": "391760",
    "officename": "Falod B.O",
    "officeType": "B.O",
    "Deliverystatus": "Delivery",
    "divisionname": "Vadodara West",
    "regionname": "Vadodara",
    "circlename": "Gujarat",
    "Taluk": "Vaghoida",
    "Districtname": "Vadodara",
    "statename": "GUJARAT"
  },
  {
    "pincode": "391760",
    "officename": "Ganpatpura B.O",
    "officeType": "B.O",
    "Deliverystatus": "Delivery",
    "divisionname": "Vadodara West",
    "regionname": "Vadodara",
    "circlename": "Gujarat",
    "Taluk": "Vaghodia",
    "Districtname": "Vadodara",
    "statename": "GUJARAT"
  },
  {
    "pincode": "391760",
    "officename": "Ghodadara B.O",
    "officeType": "B.O",
    "Deliverystatus": "Delivery",
    "divisionname": "Vadodara West",
    "regionname": "Vadodara",
    "circlename": "Gujarat",
    "Taluk": "Vaghodia",
    "Districtname": "Vadodara",
    "statename": "GUJARAT"
  },
  {
    "pincode": "391760",
    "officename": "Gutal B.O",
    "officeType": "B.O",
    "Deliverystatus": "Delivery",
    "divisionname": "Vadodara West",
    "regionname": "Vadodara",
    "circlename": "Gujarat",
    "Taluk": "Vaghodia",
    "Districtname": "Vadodara",
    "statename": "GUJARAT"
  },
  {
    "pincode": "391760",
    "officename": "Junarampura B.O",
    "officeType": "B.O",
    "Deliverystatus": "Delivery",
    "divisionname": "Vadodara West",
    "regionname": "Vadodara",
    "circlename": "Gujarat",
    "Taluk": "Vaghoida",
    "Districtname": "Vadodara",
    "statename": "GUJARAT"
  },
  {
    "pincode": "391760",
    "officename": "Khanda B.O",
    "officeType": "B.O",
    "Deliverystatus": "Delivery",
    "divisionname": "Vadodara West",
    "regionname": "Vadodara",
    "circlename": "Gujarat",
    "Taluk": "Vaghodia",
    "Districtname": "Vadodara",
    "statename": "GUJARAT"
  },
  {
    "pincode": "391760",
    "officename": "Kuvarvada B.O",
    "officeType": "B.O",
    "Deliverystatus": "Delivery",
    "divisionname": "Vadodara West",
    "regionname": "Vadodara",
    "circlename": "Gujarat",
    "Taluk": "Vaghodia",
    "Districtname": "Vadodara",
    "statename": "GUJARAT"
  },
  {
    "pincode": "391760",
    "officename": "Limda B.O",
    "officeType": "B.O",
    "Deliverystatus": "Delivery",
    "divisionname": "Vadodara West",
    "regionname": "Vadodara",
    "circlename": "Gujarat",
    "Taluk": "Vaghodia",
    "Districtname": "Vadodara",
    "statename": "GUJARAT"
  },
  {
    "pincode": "391760",
    "officename": "Madheli B.O",
    "officeType": "B.O",
    "Deliverystatus": "Delivery",
    "divisionname": "Vadodara West",
    "regionname": "Vadodara",
    "circlename": "Gujarat",
    "Taluk": "Vaghodia",
    "Districtname": "Vadodara",
    "statename": "GUJARAT"
  },
  {
    "pincode": "391760",
    "officename": "Pipalia B.O",
    "officeType": "B.O",
    "Deliverystatus": "Delivery",
    "divisionname": "Vadodara West",
    "regionname": "Vadodara",
    "circlename": "Gujarat",
    "Taluk": "Vaghodia",
    "Districtname": "Vadodara",
    "statename": "GUJARAT"
  },
  {
    "pincode": "391760",
    "officename": "Raval B.O",
    "officeType": "B.O",
    "Deliverystatus": "Delivery",
    "divisionname": "Vadodara West",
    "regionname": "Vadodara",
    "circlename": "Gujarat",
    "Taluk": "Vaghodia",
    "Districtname": "Vadodara",
    "statename": "GUJARAT"
  },
  {
    "pincode": "391760",
    "officename": "Sangadol B.O",
    "officeType": "B.O",
    "Deliverystatus": "Delivery",
    "divisionname": "Vadodara West",
    "regionname": "Vadodara",
    "circlename": "Gujarat",
    "Taluk": "Vaghodia",
    "Districtname": "Vadodara",
    "statename": "GUJARAT"
  },
  {
    "pincode": "391760",
    "officename": "Vaghodia S.O",
    "officeType": "S.O",
    "Deliverystatus": "Delivery",
    "divisionname": "Vadodara West",
    "regionname": "Vadodara",
    "circlename": "Gujarat",
    "Taluk": "Vaghodia",
    "Districtname": "Vadodara",
    "statename": "GUJARAT"
  },
  {
    "pincode": "391760",
    "officename": "Vasvel B.O",
    "officeType": "B.O",
    "Deliverystatus": "Delivery",
    "divisionname": "Vadodara West",
    "regionname": "Vadodara",
    "circlename": "Gujarat",
    "Taluk": "Vaghodia",
    "Districtname": "Vadodara",
    "statename": "GUJARAT"
  },
  {
    "pincode": "391760",
    "officename": "Vejalpura B.O",
    "officeType": "B.O",
    "Deliverystatus": "Delivery",
    "divisionname": "Vadodara West",
    "regionname": "Vadodara",
    "circlename": "Gujarat",
    "Taluk": "Vaghodia",
    "Districtname": "Vadodara",
    "statename": "GUJARAT"
  },
  {
    "pincode": "391760",
    "officename": "Vesania B.O",
    "officeType": "B.O",
    "Deliverystatus": "Delivery",
    "divisionname": "Vadodara West",
    "regionname": "Vadodara",
    "circlename": "Gujarat",
    "Taluk": "Vaghodia",
    "Districtname": "Vadodara",
    "statename": "GUJARAT"
  },
  {
    "pincode": "391760",
    "officename": "Vyara Antoli B.O",
    "officeType": "B.O",
    "Deliverystatus": "Delivery",
    "divisionname": "Vadodara West",
    "regionname": "Vadodara",
    "circlename": "Gujarat",
    "Taluk": "Vaghodia",
    "Districtname": "Vadodara",
    "statename": "GUJARAT"
  }
]
