[
  {
    "pincode": "392130",
    "officename": "Akod B.O",
    "officeType": "B.O",
    "Deliverystatus": "Delivery",
    "divisionname": "Bharuch",
    "regionname": "Vadodara",
    "circlename": "Gujarat",
    "Taluk": "Vagra",
    "Districtname": "Bharuch",
    "statename": "GUJARAT"
  },
  {
    "pincode": "392130",
    "officename": "Ambheta B.O",
    "officeType": "B.O",
    "Deliverystatus": "Delivery",
    "divisionname": "Bharuch",
    "regionname": "Vadodara",
    "circlename": "Gujarat",
    "Taluk": "Vagra",
    "Districtname": "Bharuch",
    "statename": "GUJARAT"
  },
  {
    "pincode": "392130",
    "officename": "Atali B.O",
    "officeType": "B.O",
    "Deliverystatus": "Delivery",
    "divisionname": "Bharuch",
    "regionname": "Vadodara",
    "circlename": "Gujarat",
    "Taluk": "Vagra",
    "Districtname": "Bharuch",
    "statename": "GUJARAT"
  },
  {
    "pincode": "392130",
    "officename": "Dahej S.O",
    "officeType": "S.O",
    "Deliverystatus": "Delivery",
    "divisionname": "Bharuch",
    "regionname": "Vadodara",
    "circlename": "Gujarat",
    "Taluk": "Vagra",
    "Districtname": "Bharuch",
    "statename": "GUJARAT"
  },
  {
    "pincode": "392130",
    "officename": "Eksal B.O",
    "officeType": "B.O",
    "Deliverystatus": "Delivery",
    "divisionname": "Bharuch",
    "regionname": "Vadodara",
    "circlename": "Gujarat",
    "Taluk": "Vagra",
    "Districtname": "Bharuch",
    "statename": "GUJARAT"
  },
  {
    "pincode": "392130",
    "officename": "Galenda B.O",
    "officeType": "B.O",
    "Deliverystatus": "Delivery",
    "divisionname": "Bharuch",
    "regionname": "Vadodara",
    "circlename": "Gujarat",
    "Taluk": "Vagra",
    "Districtname": "Bharuch",
    "statename": "GUJARAT"
  },
  {
    "pincode": "392130",
    "officename": "Kaladra B.O",
    "officeType": "B.O",
    "Deliverystatus": "Delivery",
    "divisionname": "Bharuch",
    "regionname": "Vadodara",
    "circlename": "Gujarat",
    "Taluk": "Bharuch",
    "Districtname": "Bharuch",
    "statename": "GUJARAT"
  },
  {
    "pincode": "392130",
    "officename": "Khojbal B.O",
    "officeType": "B.O",
    "Deliverystatus": "Delivery",
    "divisionname": "Bharuch",
    "regionname": "Vadodara",
    "circlename": "Gujarat",
    "Taluk": "Vagra",
    "Districtname": "Bharuch",
    "statename": "GUJARAT"
  },
  {
    "pincode": "392130",
    "officename": "Lakhigam B.O",
    "officeType": "B.O",
    "Deliverystatus": "Delivery",
    "divisionname": "Bharuch",
    "regionname": "Vadodara",
    "circlename": "Gujarat",
    "Taluk": "Jhagadia",
    "Districtname": "Bharuch",
    "statename": "GUJARAT"
  },
  {
    "pincode": "392130",
    "officename": "Manad B.O",
    "officeType": "B.O",
    "Deliverystatus": "Delivery",
    "divisionname": "Bharuch",
    "regionname": "Vadodara",
    "circlename": "Gujarat",
    "Taluk": "Vagra",
    "Districtname": "Vadodara",
    "statename": "GUJARAT"
  },
  {
    "pincode": "392130",
    "officename": "Nandida B.O",
    "officeType": "B.O",
    "Deliverystatus": "Delivery",
    "divisionname": "Bharuch",
    "regionname": "Vadodara",
    "circlename": "Gujarat",
    "Taluk": "Jhagadia",
    "Districtname": "Bharuch",
    "statename": "GUJARAT"
  },
  {
    "pincode": "392130",
    "officename": "Rahiad B.O",
    "officeType": "B.O",
    "Deliverystatus": "Delivery",
    "divisionname": "Bharuch",
    "regionname": "Vadodara",
    "circlename": "Gujarat",
    "Taluk": "Vagra",
    "Districtname": "Bharuch",
    "statename": "GUJARAT"
  },
  {
    "pincode": "392130",
    "officename": "Vadadla B.O",
    "officeType": "B.O",
    "Deliverystatus": "Delivery",
    "divisionname": "Bharuch",
    "regionname": "Vadodara",
    "circlename": "Gujarat",
    "Taluk": "Vagra",
    "Districtname": "Bharuch",
    "statename": "GUJARAT"
  },
  {
    "pincode": "392130",
    "officename": "Vegni B.O",
    "officeType": "B.O",
    "Deliverystatus": "Delivery",
    "divisionname": "Bharuch",
    "regionname": "Vadodara",
    "circlename": "Gujarat",
    "Taluk": "Vagra",
    "Districtname": "Bharuch",
    "statename": "GUJARAT"
  }
]
