[
  {
    "pincode": "392150",
    "officename": "Amanpur B.O",
    "officeType": "B.O",
    "Deliverystatus": "Delivery",
    "divisionname": "Bharuch",
    "regionname": "Vadodara",
    "circlename": "Gujarat",
    "Taluk": "Jambusar",
    "Districtname": "Bharuch",
    "statename": "GUJARAT"
  },
  {
    "pincode": "392150",
    "officename": "Ankhi B.O",
    "officeType": "B.O",
    "Deliverystatus": "Delivery",
    "divisionname": "Bharuch",
    "regionname": "Vadodara",
    "circlename": "Gujarat",
    "Taluk": "Jambusar",
    "Districtname": "Surat",
    "statename": "GUJARAT"
  },
  {
    "pincode": "392150",
    "officename": "Bhodar B.O",
    "officeType": "B.O",
    "Deliverystatus": "Delivery",
    "divisionname": "Bharuch",
    "regionname": "Vadodara",
    "circlename": "Gujarat",
    "Taluk": "Jambusar",
    "Districtname": "Bharuch",
    "statename": "GUJARAT"
  },
  {
    "pincode": "392150",
    "officename": "Bojadra B.O",
    "officeType": "B.O",
    "Deliverystatus": "Delivery",
    "divisionname": "Bharuch",
    "regionname": "Vadodara",
    "circlename": "Gujarat",
    "Taluk": "Jambusar",
    "Districtname": "Bharuch",
    "statename": "GUJARAT"
  },
  {
    "pincode": "392150",
    "officename": "Dabha B.O",
    "officeType": "B.O",
    "Deliverystatus": "Delivery",
    "divisionname": "Bharuch",
    "regionname": "Vadodara",
    "circlename": "Gujarat",
    "Taluk": "Jambusar",
    "Districtname": "Vadodara",
    "statename": "GUJARAT"
  },
  {
    "pincode": "392150",
    "officename": "Dolia B.O",
    "officeType": "B.O",
    "Deliverystatus": "Delivery",
    "divisionname": "Bharuch",
    "regionname": "Vadodara",
    "circlename": "Gujarat",
    "Taluk": "Jambusar",
    "Districtname": "Bharuch",
    "statename": "GUJARAT"
  },
  {
    "pincode": "392150",
    "officename": "Jambusar Bazar S.O",
    "officeType": "S.O",
    "Deliverystatus": "Non-Delivery",
    "divisionname": "Bharuch",
    "regionname": "Vadodara",
    "circlename": "Gujarat",
    "Taluk": "Jambusar",
    "Districtname": "Vadodara",
    "statename": "GUJARAT"
  },
  {
    "pincode": "392150",
    "officename": "Jambusar S.O",
    "officeType": "S.O",
    "Deliverystatus": "Delivery",
    "divisionname": "Bharuch",
    "regionname": "Vadodara",
    "circlename": "Gujarat",
    "Taluk": "Jambusar",
    "Districtname": "Bharuch",
    "statename": "GUJARAT"
  },
  {
    "pincode": "392150",
    "officename": "Kalak B.O",
    "officeType": "B.O",
    "Deliverystatus": "Delivery",
    "divisionname": "Bharuch",
    "regionname": "Vadodara",
    "circlename": "Gujarat",
    "Taluk": "Jambusar",
    "Districtname": "Bharuch",
    "statename": "GUJARAT"
  },
  {
    "pincode": "392150",
    "officename": "Karmad B.O",
    "officeType": "B.O",
    "Deliverystatus": "Delivery",
    "divisionname": "Bharuch",
    "regionname": "Vadodara",
    "circlename": "Gujarat",
    "Taluk": "Bharuch",
    "Districtname": "Bharuch",
    "statename": "GUJARAT"
  },
  {
    "pincode": "392150",
    "officename": "Kava B.O",
    "officeType": "B.O",
    "Deliverystatus": "Delivery",
    "divisionname": "Bharuch",
    "regionname": "Vadodara",
    "circlename": "Gujarat",
    "Taluk": "Jambusar",
    "Districtname": "Bharuch",
    "statename": "GUJARAT"
  },
  {
    "pincode": "392150",
    "officename": "Khanpurdeh B.O",
    "officeType": "B.O",
    "Deliverystatus": "Delivery",
    "divisionname": "Bharuch",
    "regionname": "Vadodara",
    "circlename": "Gujarat",
    "Taluk": "Jambusar",
    "Districtname": "Bharuch",
    "statename": "GUJARAT"
  },
  {
    "pincode": "392150",
    "officename": "Magnad B.O",
    "officeType": "B.O",
    "Deliverystatus": "Delivery",
    "divisionname": "Bharuch",
    "regionname": "Vadodara",
    "circlename": "Gujarat",
    "Taluk": "Jambusar",
    "Districtname": "Bharuch",
    "statename": "GUJARAT"
  },
  {
    "pincode": "392150",
    "officename": "Nobar B.O",
    "officeType": "B.O",
    "Deliverystatus": "Delivery",
    "divisionname": "Bharuch",
    "regionname": "Vadodara",
    "circlename": "Gujarat",
    "Taluk": "Jambusar",
    "Districtname": "Bharuch",
    "statename": "GUJARAT"
  },
  {
    "pincode": "392150",
    "officename": "Nodhna B.O",
    "officeType": "B.O",
    "Deliverystatus": "Delivery",
    "divisionname": "Bharuch",
    "regionname": "Vadodara",
    "circlename": "Gujarat",
    "Taluk": "Jambusar",
    "Districtname": "Bharuch",
    "statename": "GUJARAT"
  },
  {
    "pincode": "392150",
    "officename": "Tundaj B.O",
    "officeType": "B.O",
    "Deliverystatus": "Delivery",
    "divisionname": "Bharuch",
    "regionname": "Vadodara",
    "circlename": "Gujarat",
    "Taluk": "Jambusar",
    "Districtname": "Bharuch",
    "statename": "GUJARAT"
  },
  {
    "pincode": "392150",
    "officename": "Uber B.O",
    "officeType": "B.O",
    "Deliverystatus": "Delivery",
    "divisionname": "Bharuch",
    "regionname": "Vadodara",
    "circlename": "Gujarat",
    "Taluk": "Jambusar",
    "Districtname": "Bharuch",
    "statename": "GUJARAT"
  },
  {
    "pincode": "392150",
    "officename": "Uchhad B.O",
    "officeType": "B.O",
    "Deliverystatus": "Delivery",
    "divisionname": "Bharuch",
    "regionname": "Vadodara",
    "circlename": "Gujarat",
    "Taluk": "Jambusar",
    "Districtname": "Bharuch",
    "statename": "GUJARAT"
  },
  {
    "pincode": "392150",
    "officename": "Umra B.O",
    "officeType": "B.O",
    "Deliverystatus": "Delivery",
    "divisionname": "Bharuch",
    "regionname": "Vadodara",
    "circlename": "Gujarat",
    "Taluk": "Nandod",
    "Districtname": "Narmada",
    "statename": "GUJARAT"
  },
  {
    "pincode": "392150",
    "officename": "Vahelam B.O",
    "officeType": "B.O",
    "Deliverystatus": "Delivery",
    "divisionname": "Bharuch",
    "regionname": "Vadodara",
    "circlename": "Gujarat",
    "Taluk": "Jambusar",
    "Districtname": "Bharuch",
    "statename": "GUJARAT"
  },
  {
    "pincode": "392150",
    "officename": "Valvi B.O",
    "officeType": "B.O",
    "Deliverystatus": "Delivery",
    "divisionname": "Bharuch",
    "regionname": "Vadodara",
    "circlename": "Gujarat",
    "Taluk": "Nandod",
    "Districtname": "Narmada",
    "statename": "GUJARAT"
  }
]
