[
  {
    "pincode": "392165",
    "officename": "Goladra B.O",
    "officeType": "B.O",
    "Deliverystatus": "Delivery",
    "divisionname": "Bharuch",
    "regionname": "Vadodara",
    "circlename": "Gujarat",
    "Taluk": "Vagra",
    "Districtname": "Bharuch",
    "statename": "GUJARAT"
  },
  {
    "pincode": "392165",
    "officename": "Janiadra B.O",
    "officeType": "B.O",
    "Deliverystatus": "Delivery",
    "divisionname": "Bharuch",
    "regionname": "Vadodara",
    "circlename": "Gujarat",
    "Taluk": "Vagra",
    "Districtname": "Bharuch",
    "statename": "GUJARAT"
  },
  {
    "pincode": "392165",
    "officename": "Kadodara B.O",
    "officeType": "B.O",
    "Deliverystatus": "Delivery",
    "divisionname": "Bharuch",
    "regionname": "Vadodara",
    "circlename": "Gujarat",
    "Taluk": "Vagra",
    "Districtname": "Bharuch",
    "statename": "GUJARAT"
  },
  {
    "pincode": "392165",
    "officename": "Limdi B.O",
    "officeType": "B.O",
    "Deliverystatus": "Delivery",
    "divisionname": "Bharuch",
    "regionname": "Vadodara",
    "circlename": "Gujarat",
    "Taluk": "Jambusar",
    "Districtname": "Bharuch",
    "statename": "GUJARAT"
  },
  {
    "pincode": "392165",
    "officename": "Narnavi B.O",
    "officeType": "B.O",
    "Deliverystatus": "Delivery",
    "divisionname": "Bharuch",
    "regionname": "Vadodara",
    "circlename": "Gujarat",
    "Taluk": "Bharuch",
    "Districtname": "Bharuch",
    "statename": "GUJARAT"
  },
  {
    "pincode": "392165",
    "officename": "Pakhajan S.O",
    "officeType": "S.O",
    "Deliverystatus": "Delivery",
    "divisionname": "Bharuch",
    "regionname": "Vadodara",
    "circlename": "Gujarat",
    "Taluk": "Vagra",
    "Districtname": "Bharuch",
    "statename": "GUJARAT"
  },
  {
    "pincode": "392165",
    "officename": "Paniadra B.O",
    "officeType": "B.O",
    "Deliverystatus": "Delivery",
    "divisionname": "Bharuch",
    "regionname": "Vadodara",
    "circlename": "Gujarat",
    "Taluk": "Bharuch",
    "Districtname": "Bharuch",
    "statename": "GUJARAT"
  },
  {
    "pincode": "392165",
    "officename": "Pipalia B.O",
    "officeType": "B.O",
    "Deliverystatus": "Delivery",
    "divisionname": "Bharuch",
    "regionname": "Vadodara",
    "circlename": "Gujarat",
    "Taluk": "Bharuch",
    "Districtname": "Bharuch",
    "statename": "GUJARAT"
  }
]
