[
  {
    "pincode": "392140",
    "officename": "Chancvel B.O",
    "officeType": "B.O",
    "Deliverystatus": "Delivery",
    "divisionname": "Bharuch",
    "regionname": "Vadodara",
    "circlename": "Gujarat",
    "Taluk": "Vagra",
    "Districtname": "Bharuch",
    "statename": "GUJARAT"
  },
  {
    "pincode": "392140",
    "officename": "Gandhar B.O",
    "officeType": "B.O",
    "Deliverystatus": "Delivery",
    "divisionname": "Bharuch",
    "regionname": "Vadodara",
    "circlename": "Gujarat",
    "Taluk": "Vagra",
    "Districtname": "Bharuch",
    "statename": "GUJARAT"
  },
  {
    "pincode": "392140",
    "officename": "Kalam B.O",
    "officeType": "B.O",
    "Deliverystatus": "Delivery",
    "divisionname": "Bharuch",
    "regionname": "Vadodara",
    "circlename": "Gujarat",
    "Taluk": "Vagra",
    "Districtname": "Bharuch",
    "statename": "GUJARAT"
  },
  {
    "pincode": "392140",
    "officename": "Keshwan B.O",
    "officeType": "B.O",
    "Deliverystatus": "Delivery",
    "divisionname": "Bharuch",
    "regionname": "Vadodara",
    "circlename": "Gujarat",
    "Taluk": "Vagra",
    "Districtname": "Bharuch",
    "statename": "GUJARAT"
  },
  {
    "pincode": "392140",
    "officename": "Kolavana B.O",
    "officeType": "B.O",
    "Deliverystatus": "Delivery",
    "divisionname": "Bharuch",
    "regionname": "Vadodara",
    "circlename": "Gujarat",
    "Taluk": "Vagra",
    "Districtname": "Bharuch",
    "statename": "GUJARAT"
  },
  {
    "pincode": "392140",
    "officename": "Kothia B.O",
    "officeType": "B.O",
    "Deliverystatus": "Delivery",
    "divisionname": "Bharuch",
    "regionname": "Vadodara",
    "circlename": "Gujarat",
    "Taluk": "Vagra",
    "Districtname": "Vadodara",
    "statename": "GUJARAT"
  },
  {
    "pincode": "392140",
    "officename": "Mosam B.O",
    "officeType": "B.O",
    "Deliverystatus": "Delivery",
    "divisionname": "Bharuch",
    "regionname": "Vadodara",
    "circlename": "Gujarat",
    "Taluk": "Vagra",
    "Districtname": "Bharuch",
    "statename": "GUJARAT"
  },
  {
    "pincode": "392140",
    "officename": "Muler B.O",
    "officeType": "B.O",
    "Deliverystatus": "Delivery",
    "divisionname": "Bharuch",
    "regionname": "Vadodara",
    "circlename": "Gujarat",
    "Taluk": "Jambusar",
    "Districtname": "Bharuch",
    "statename": "GUJARAT"
  },
  {
    "pincode": "392140",
    "officename": "Ochhan B.O",
    "officeType": "B.O",
    "Deliverystatus": "Delivery",
    "divisionname": "Bharuch",
    "regionname": "Vadodara",
    "circlename": "Gujarat",
    "Taluk": "Vagra",
    "Districtname": "Bharuch",
    "statename": "GUJARAT"
  },
  {
    "pincode": "392140",
    "officename": "Ora B.O",
    "officeType": "B.O",
    "Deliverystatus": "Delivery",
    "divisionname": "Bharuch",
    "regionname": "Vadodara",
    "circlename": "Gujarat",
    "Taluk": "Vagra",
    "Districtname": "Bharuch",
    "statename": "GUJARAT"
  },
  {
    "pincode": "392140",
    "officename": "Pahaj B.O",
    "officeType": "B.O",
    "Deliverystatus": "Delivery",
    "divisionname": "Bharuch",
    "regionname": "Vadodara",
    "circlename": "Gujarat",
    "Taluk": "Vagra",
    "Districtname": "Bharuch",
    "statename": "GUJARAT"
  },
  {
    "pincode": "392140",
    "officename": "Roza Tankaria B.O",
    "officeType": "B.O",
    "Deliverystatus": "Delivery",
    "divisionname": "Bharuch",
    "regionname": "Vadodara",
    "circlename": "Gujarat",
    "Taluk": "Bharuch",
    "Districtname": "Bharuch",
    "statename": "GUJARAT"
  },
  {
    "pincode": "392140",
    "officename": "Saran B.O",
    "officeType": "B.O",
    "Deliverystatus": "Delivery",
    "divisionname": "Bharuch",
    "regionname": "Vadodara",
    "circlename": "Gujarat",
    "Taluk": "Vagra",
    "Districtname": "Bharuch",
    "statename": "GUJARAT"
  },
  {
    "pincode": "392140",
    "officename": "Saykha B.O",
    "officeType": "B.O",
    "Deliverystatus": "Delivery",
    "divisionname": "Bharuch",
    "regionname": "Vadodara",
    "circlename": "Gujarat",
    "Taluk": "Amod",
    "Districtname": "Bharuch",
    "statename": "GUJARAT"
  },
  {
    "pincode": "392140",
    "officename": "Sutrel B.O",
    "officeType": "B.O",
    "Deliverystatus": "Delivery",
    "divisionname": "Bharuch",
    "regionname": "Vadodara",
    "circlename": "Gujarat",
    "Taluk": "Vagra",
    "Districtname": "Bharuch",
    "statename": "GUJARAT"
  },
  {
    "pincode": "392140",
    "officename": "Trankal B.O",
    "officeType": "B.O",
    "Deliverystatus": "Delivery",
    "divisionname": "Bharuch",
    "regionname": "Vadodara",
    "circlename": "Gujarat",
    "Taluk": "Vagra",
    "Districtname": "Bharuch",
    "statename": "GUJARAT"
  },
  {
    "pincode": "392140",
    "officename": "Vagra S.O",
    "officeType": "S.O",
    "Deliverystatus": "Delivery",
    "divisionname": "Bharuch",
    "regionname": "Vadodara",
    "circlename": "Gujarat",
    "Taluk": "Vagra",
    "Districtname": "Bharuch",
    "statename": "GUJARAT"
  },
  {
    "pincode": "392140",
    "officename": "Vahial B.O",
    "officeType": "B.O",
    "Deliverystatus": "Delivery",
    "divisionname": "Bharuch",
    "regionname": "Vadodara",
    "circlename": "Gujarat",
    "Taluk": "Vagra",
    "Districtname": "Bharuch",
    "statename": "GUJARAT"
  },
  {
    "pincode": "392140",
    "officename": "Vasti Khandali B.O",
    "officeType": "B.O",
    "Deliverystatus": "Delivery",
    "divisionname": "Bharuch",
    "regionname": "Vadodara",
    "circlename": "Gujarat",
    "Taluk": "Vagra",
    "Districtname": "Bharuch",
    "statename": "GUJARAT"
  }
]
