[
  {
    "pincode": "393115",
    "officename": "Goratia B.O",
    "officeType": "B.O",
    "Deliverystatus": "Delivery",
    "divisionname": "Bharuch",
    "regionname": "Vadodara",
    "circlename": "Gujarat",
    "Taluk": "Jhagadia",
    "Districtname": "Bharuch",
    "statename": "GUJARAT"
  },
  {
    "pincode": "393115",
    "officename": "Jarsad B.O",
    "officeType": "B.O",
    "Deliverystatus": "Delivery",
    "divisionname": "Bharuch",
    "regionname": "Vadodara",
    "circlename": "Gujarat",
    "Taluk": "Nandod",
    "Districtname": "Narmada",
    "statename": "GUJARAT"
  },
  {
    "pincode": "393115",
    "officename": "Jespor B.O",
    "officeType": "B.O",
    "Deliverystatus": "Delivery",
    "divisionname": "Bharuch",
    "regionname": "Vadodara",
    "circlename": "Gujarat",
    "Taluk": "Nandod",
    "Districtname": "Narmada",
    "statename": "GUJARAT"
  },
  {
    "pincode": "393115",
    "officename": "Kadvali B.O",
    "officeType": "B.O",
    "Deliverystatus": "Delivery",
    "divisionname": "Bharuch",
    "regionname": "Vadodara",
    "circlename": "Gujarat",
    "Taluk": "Jhagadia",
    "Districtname": "Bharuch",
    "statename": "GUJARAT"
  },
  {
    "pincode": "393115",
    "officename": "Mota Sorva B.O",
    "officeType": "B.O",
    "Deliverystatus": "Delivery",
    "divisionname": "Bharuch",
    "regionname": "Vadodara",
    "circlename": "Gujarat",
    "Taluk": "Jhagadia",
    "Districtname": "Bharuch",
    "statename": "GUJARAT"
  },
  {
    "pincode": "393115",
    "officename": "Pipadhara B.O",
    "officeType": "B.O",
    "Deliverystatus": "Delivery",
    "divisionname": "Bharuch",
    "regionname": "Vadodara",
    "circlename": "Gujarat",
    "Taluk": "Jhagadia",
    "Districtname": "Bharuch",
    "statename": "GUJARAT"
  },
  {
    "pincode": "393115",
    "officename": "Rajpardi S.O",
    "officeType": "S.O",
    "Deliverystatus": "Delivery",
    "divisionname": "Bharuch",
    "regionname": "Vadodara",
    "circlename": "Gujarat",
    "Taluk": "Jhagadia",
    "Districtname": "Bharuch",
    "statename": "GUJARAT"
  },
  {
    "pincode": "393115",
    "officename": "Razalwada B.O",
    "officeType": "B.O",
    "Deliverystatus": "Delivery",
    "divisionname": "Bharuch",
    "regionname": "Vadodara",
    "circlename": "Gujarat",
    "Taluk": "Jhagadia",
    "Districtname": "Bharuch",
    "statename": "GUJARAT"
  },
  {
    "pincode": "393115",
    "officename": "Sarsa B.O",
    "officeType": "B.O",
    "Deliverystatus": "Delivery",
    "divisionname": "Bharuch",
    "regionname": "Vadodara",
    "circlename": "Gujarat",
    "Taluk": "Nandod",
    "Districtname": "Narmada",
    "statename": "GUJARAT"
  },
  {
    "pincode": "393115",
    "officename": "Simadhra B.O",
    "officeType": "B.O",
    "Deliverystatus": "Delivery",
    "divisionname": "Bharuch",
    "regionname": "Vadodara",
    "circlename": "Gujarat",
    "Taluk": "Jhagadia",
    "Districtname": "Bharuch",
    "statename": "GUJARAT"
  },
  {
    "pincode": "393115",
    "officename": "Umadhra B.O",
    "officeType": "B.O",
    "Deliverystatus": "Delivery",
    "divisionname": "Bharuch",
    "regionname": "Vadodara",
    "circlename": "Gujarat",
    "Taluk": "Nandod",
    "Districtname": "Narmada",
    "statename": "GUJARAT"
  },
  {
    "pincode": "393115",
    "officename": "Vadkhunta B.O",
    "officeType": "B.O",
    "Deliverystatus": "Delivery",
    "divisionname": "Bharuch",
    "regionname": "Vadodara",
    "circlename": "Gujarat",
    "Taluk": "Jhagadia",
    "Districtname": "Bharuch",
    "statename": "GUJARAT"
  },
  {
    "pincode": "393115",
    "officename": "Vanakpore B.O",
    "officeType": "B.O",
    "Deliverystatus": "Delivery",
    "divisionname": "Bharuch",
    "regionname": "Vadodara",
    "circlename": "Gujarat",
    "Taluk": "Jhagadia",
    "Districtname": "Bharuch",
    "statename": "GUJARAT"
  },
  {
    "pincode": "393115",
    "officename": "Vankal B.O",
    "officeType": "B.O",
    "Deliverystatus": "Delivery",
    "divisionname": "Bharuch",
    "regionname": "Vadodara",
    "circlename": "Gujarat",
    "Taluk": "Nandod",
    "Districtname": "Narmada",
    "statename": "GUJARAT"
  }
]
