[
  {
    "pincode": "393120",
    "officename": "Asha B.O",
    "officeType": "B.O",
    "Deliverystatus": "Delivery",
    "divisionname": "Bharuch",
    "regionname": "Vadodara",
    "circlename": "Gujarat",
    "Taluk": "Jhagadia",
    "Districtname": "Bharuch",
    "statename": "GUJARAT"
  },
  {
    "pincode": "393120",
    "officename": "Bamalla B.O",
    "officeType": "B.O",
    "Deliverystatus": "Delivery",
    "divisionname": "Bharuch",
    "regionname": "Vadodara",
    "circlename": "Gujarat",
    "Taluk": "Nandod",
    "Districtname": "Narmada",
    "statename": "GUJARAT"
  },
  {
    "pincode": "393120",
    "officename": "Fitchwada B.O",
    "officeType": "B.O",
    "Deliverystatus": "Delivery",
    "divisionname": "Bharuch",
    "regionname": "Vadodara",
    "circlename": "Gujarat",
    "Taluk": "Nandod",
    "Districtname": "Narmada",
    "statename": "GUJARAT"
  },
  {
    "pincode": "393120",
    "officename": "Haripura B.O",
    "officeType": "B.O",
    "Deliverystatus": "Delivery",
    "divisionname": "Bharuch",
    "regionname": "Vadodara",
    "circlename": "Gujarat",
    "Taluk": "Jhagadia",
    "Districtname": "Bharuch",
    "statename": "GUJARAT"
  },
  {
    "pincode": "393120",
    "officename": "Indore B.O",
    "officeType": "B.O",
    "Deliverystatus": "Delivery",
    "divisionname": "Bharuch",
    "regionname": "Vadodara",
    "circlename": "Gujarat",
    "Taluk": "Nandod",
    "Districtname": "Narmada",
    "statename": "GUJARAT"
  },
  {
    "pincode": "393120",
    "officename": "Jamboi B.O",
    "officeType": "B.O",
    "Deliverystatus": "Delivery",
    "divisionname": "Bharuch",
    "regionname": "Vadodara",
    "circlename": "Gujarat",
    "Taluk": "Nandod",
    "Districtname": "Narmada",
    "statename": "GUJARAT"
  },
  {
    "pincode": "393120",
    "officename": "Kapat B.O",
    "officeType": "B.O",
    "Deliverystatus": "Delivery",
    "divisionname": "Bharuch",
    "regionname": "Vadodara",
    "circlename": "Gujarat",
    "Taluk": "Nandod",
    "Districtname": "Narmada",
    "statename": "GUJARAT"
  },
  {
    "pincode": "393120",
    "officename": "Panetha B.O",
    "officeType": "B.O",
    "Deliverystatus": "Delivery",
    "divisionname": "Bharuch",
    "regionname": "Vadodara",
    "circlename": "Gujarat",
    "Taluk": "Nandod",
    "Districtname": "Narmada",
    "statename": "GUJARAT"
  },
  {
    "pincode": "393120",
    "officename": "Raisingpura B.O",
    "officeType": "B.O",
    "Deliverystatus": "Delivery",
    "divisionname": "Bharuch",
    "regionname": "Vadodara",
    "circlename": "Gujarat",
    "Taluk": "Nandod",
    "Districtname": "Narmada",
    "statename": "GUJARAT"
  },
  {
    "pincode": "393120",
    "officename": "Sanjali B.O",
    "officeType": "B.O",
    "Deliverystatus": "Delivery",
    "divisionname": "Bharuch",
    "regionname": "Vadodara",
    "circlename": "Gujarat",
    "Taluk": "Anklesvar",
    "Districtname": "Bharuch",
    "statename": "GUJARAT"
  },
  {
    "pincode": "393120",
    "officename": "Sarsad B.O",
    "officeType": "B.O",
    "Deliverystatus": "Delivery",
    "divisionname": "Bharuch",
    "regionname": "Vadodara",
    "circlename": "Gujarat",
    "Taluk": "Nandod",
    "Districtname": "Narmada",
    "statename": "GUJARAT"
  },
  {
    "pincode": "393120",
    "officename": "Umalla S.O",
    "officeType": "S.O",
    "Deliverystatus": "Delivery",
    "divisionname": "Bharuch",
    "regionname": "Vadodara",
    "circlename": "Gujarat",
    "Taluk": "Jhagadia",
    "Districtname": "Bharuch",
    "statename": "GUJARAT"
  },
  {
    "pincode": "393120",
    "officename": "Umarva B.O",
    "officeType": "B.O",
    "Deliverystatus": "Delivery",
    "divisionname": "Bharuch",
    "regionname": "Vadodara",
    "circlename": "Gujarat",
    "Taluk": "Nandod",
    "Districtname": "Narmada",
    "statename": "GUJARAT"
  },
  {
    "pincode": "393120",
    "officename": "Velugam B.O",
    "officeType": "B.O",
    "Deliverystatus": "Delivery",
    "divisionname": "Bharuch",
    "regionname": "Vadodara",
    "circlename": "Gujarat",
    "Taluk": "Bharuch",
    "Districtname": "Bharuch",
    "statename": "GUJARAT"
  },
  {
    "pincode": "393120",
    "officename": "Wali B.O",
    "officeType": "B.O",
    "Deliverystatus": "Delivery",
    "divisionname": "Bharuch",
    "regionname": "Vadodara",
    "circlename": "Gujarat",
    "Taluk": "Nandod",
    "Districtname": "Narmada",
    "statename": "GUJARAT"
  }
]
