[
  {
    "pincode": "393151",
    "officename": "Atkeshwar B.O",
    "officeType": "B.O",
    "Deliverystatus": "Delivery",
    "divisionname": "Bharuch",
    "regionname": "Vadodara",
    "circlename": "Gujarat",
    "Taluk": "Nandod",
    "Districtname": "Narmada",
    "statename": "GUJARAT"
  },
  {
    "pincode": "393151",
    "officename": "Garudeshwar B.O",
    "officeType": "B.O",
    "Deliverystatus": "Delivery",
    "divisionname": "Bharuch",
    "regionname": "Vadodara",
    "circlename": "Gujarat",
    "Taluk": "Nandod",
    "Districtname": "Narmada",
    "statename": "GUJARAT"
  },
  {
    "pincode": "393151",
    "officename": "Kadagada B.O",
    "officeType": "B.O",
    "Deliverystatus": "Delivery",
    "divisionname": "Bharuch",
    "regionname": "Vadodara",
    "circlename": "Gujarat",
    "Taluk": "Nandod",
    "Districtname": "Narmada",
    "statename": "GUJARAT"
  },
  {
    "pincode": "393151",
    "officename": "Kareli B.O",
    "officeType": "B.O",
    "Deliverystatus": "Delivery",
    "divisionname": "Bharuch",
    "regionname": "Vadodara",
    "circlename": "Gujarat",
    "Taluk": "Jambusar",
    "Districtname": "Bharuch",
    "statename": "GUJARAT"
  },
  {
    "pincode": "393151",
    "officename": "Kevadia Colony S.O",
    "officeType": "S.O",
    "Deliverystatus": "Delivery",
    "divisionname": "Bharuch",
    "regionname": "Vadodara",
    "circlename": "Gujarat",
    "Taluk": "Nadod",
    "Districtname": "Narmada",
    "statename": "GUJARAT"
  },
  {
    "pincode": "393151",
    "officename": "Kothi B.O",
    "officeType": "B.O",
    "Deliverystatus": "Delivery",
    "divisionname": "Bharuch",
    "regionname": "Vadodara",
    "circlename": "Gujarat",
    "Taluk": "Jambusar",
    "Districtname": "Bharuch",
    "statename": "GUJARAT"
  },
  {
    "pincode": "393151",
    "officename": "Mithivav B.O",
    "officeType": "B.O",
    "Deliverystatus": "Delivery",
    "divisionname": "Bharuch",
    "regionname": "Vadodara",
    "circlename": "Gujarat",
    "Taluk": "Nandod",
    "Districtname": "Narmada",
    "statename": "GUJARAT"
  },
  {
    "pincode": "393151",
    "officename": "Orpa B.O",
    "officeType": "B.O",
    "Deliverystatus": "Delivery",
    "divisionname": "Bharuch",
    "regionname": "Vadodara",
    "circlename": "Gujarat",
    "Taluk": "Nandod",
    "Districtname": "Narmada",
    "statename": "GUJARAT"
  },
  {
    "pincode": "393151",
    "officename": "Pantalavdi B.O",
    "officeType": "B.O",
    "Deliverystatus": "Delivery",
    "divisionname": "Bharuch",
    "regionname": "Vadodara",
    "circlename": "Gujarat",
    "Taluk": "Nandod",
    "Districtname": "Narmada",
    "statename": "GUJARAT"
  },
  {
    "pincode": "393151",
    "officename": "Pichhipura B.O",
    "officeType": "B.O",
    "Deliverystatus": "Delivery",
    "divisionname": "Bharuch",
    "regionname": "Vadodara",
    "circlename": "Gujarat",
    "Taluk": "Bharuch",
    "Districtname": "Bharuch",
    "statename": "GUJARAT"
  },
  {
    "pincode": "393151",
    "officename": "Songam B.O",
    "officeType": "B.O",
    "Deliverystatus": "Delivery",
    "divisionname": "Bharuch",
    "regionname": "Vadodara",
    "circlename": "Gujarat",
    "Taluk": "Nandod",
    "Districtname": "Narmada",
    "statename": "GUJARAT"
  },
  {
    "pincode": "393151",
    "officename": "Suka B.O",
    "officeType": "B.O",
    "Deliverystatus": "Delivery",
    "divisionname": "Bharuch",
    "regionname": "Vadodara",
    "circlename": "Gujarat",
    "Taluk": "Nandod",
    "Districtname": "Narmada",
    "statename": "GUJARAT"
  },
  {
    "pincode": "393151",
    "officename": "Undhva B.O",
    "officeType": "B.O",
    "Deliverystatus": "Delivery",
    "divisionname": "Bharuch",
    "regionname": "Vadodara",
    "circlename": "Gujarat",
    "Taluk": "Nandod",
    "Districtname": "Narmada",
    "statename": "GUJARAT"
  },
  {
    "pincode": "393151",
    "officename": "Vagharali B.O",
    "officeType": "B.O",
    "Deliverystatus": "Delivery",
    "divisionname": "Bharuch",
    "regionname": "Vadodara",
    "circlename": "Gujarat",
    "Taluk": "Nandod",
    "Districtname": "Narmada",
    "statename": "GUJARAT"
  },
  {
    "pincode": "393151",
    "officename": "Vaghrali B.O",
    "officeType": "B.O",
    "Deliverystatus": "Delivery",
    "divisionname": "Bharuch",
    "regionname": "Vadodara",
    "circlename": "Gujarat",
    "Taluk": "Nandod",
    "Districtname": "Narmada",
    "statename": "GUJARAT"
  },
  {
    "pincode": "393151",
    "officename": "Vavharali B.O",
    "officeType": "B.O",
    "Deliverystatus": "Delivery",
    "divisionname": "Bharuch",
    "regionname": "Vadodara",
    "circlename": "Gujarat",
    "Taluk": "Nandod",
    "Districtname": "Narmada",
    "statename": "GUJARAT"
  },
  {
    "pincode": "393151",
    "officename": "Vaviala B.O",
    "officeType": "B.O",
    "Deliverystatus": "Delivery",
    "divisionname": "Bharuch",
    "regionname": "Vadodara",
    "circlename": "Gujarat",
    "Taluk": "Nandod",
    "Districtname": "Narmada",
    "statename": "GUJARAT"
  },
  {
    "pincode": "393151",
    "officename": "Zariawadi B.O",
    "officeType": "B.O",
    "Deliverystatus": "Delivery",
    "divisionname": "Bharuch",
    "regionname": "Vadodara",
    "circlename": "Gujarat",
    "Taluk": "Nandod",
    "Districtname": "Narmada",
    "statename": "GUJARAT"
  }
]
