[
  {
    "pincode": "393135",
    "officename": "Bharadia B.O",
    "officeType": "B.O",
    "Deliverystatus": "Delivery",
    "divisionname": "Bharuch",
    "regionname": "Vadodara",
    "circlename": "Gujarat",
    "Taluk": "Valia",
    "Districtname": "Bharuch",
    "statename": "GUJARAT"
  },
  {
    "pincode": "393135",
    "officename": "Bhenskhetar B.O",
    "officeType": "B.O",
    "Deliverystatus": "Delivery",
    "divisionname": "Bharuch",
    "regionname": "Vadodara",
    "circlename": "Gujarat",
    "Taluk": "Valia",
    "Districtname": "Bharuch",
    "statename": "GUJARAT"
  },
  {
    "pincode": "393135",
    "officename": "Bhilod B.O",
    "officeType": "B.O",
    "Deliverystatus": "Delivery",
    "divisionname": "Bharuch",
    "regionname": "Vadodara",
    "circlename": "Gujarat",
    "Taluk": "Valia",
    "Districtname": "Bharuch",
    "statename": "GUJARAT"
  },
  {
    "pincode": "393135",
    "officename": "Chikhli B.O",
    "officeType": "B.O",
    "Deliverystatus": "Delivery",
    "divisionname": "Bharuch",
    "regionname": "Vadodara",
    "circlename": "Gujarat",
    "Taluk": "Valia",
    "Districtname": "Bharuch",
    "statename": "GUJARAT"
  },
  {
    "pincode": "393135",
    "officename": "Desad B.O",
    "officeType": "B.O",
    "Deliverystatus": "Delivery",
    "divisionname": "Bharuch",
    "regionname": "Vadodara",
    "circlename": "Gujarat",
    "Taluk": "Valia",
    "Districtname": "Bharuch",
    "statename": "GUJARAT"
  },
  {
    "pincode": "393135",
    "officename": "Dholgam B.O",
    "officeType": "B.O",
    "Deliverystatus": "Delivery",
    "divisionname": "Bharuch",
    "regionname": "Vadodara",
    "circlename": "Gujarat",
    "Taluk": "Valia",
    "Districtname": "Bharuch",
    "statename": "GUJARAT"
  },
  {
    "pincode": "393135",
    "officename": "Dolatpur B.O",
    "officeType": "B.O",
    "Deliverystatus": "Delivery",
    "divisionname": "Bharuch",
    "regionname": "Vadodara",
    "circlename": "Gujarat",
    "Taluk": "Valia",
    "Districtname": "Bharuch",
    "statename": "GUJARAT"
  },
  {
    "pincode": "393135",
    "officename": "Dungari B.O",
    "officeType": "B.O",
    "Deliverystatus": "Delivery",
    "divisionname": "Bharuch",
    "regionname": "Vadodara",
    "circlename": "Gujarat",
    "Taluk": "Valia",
    "Districtname": "Bharuch",
    "statename": "GUJARAT"
  },
  {
    "pincode": "393135",
    "officename": "Kabirgam B.O",
    "officeType": "B.O",
    "Deliverystatus": "Delivery",
    "divisionname": "Bharuch",
    "regionname": "Vadodara",
    "circlename": "Gujarat",
    "Taluk": "Valia",
    "Districtname": "Bharuch",
    "statename": "GUJARAT"
  },
  {
    "pincode": "393135",
    "officename": "Kamalia B.O",
    "officeType": "B.O",
    "Deliverystatus": "Delivery",
    "divisionname": "Bharuch",
    "regionname": "Vadodara",
    "circlename": "Gujarat",
    "Taluk": "Valia",
    "Districtname": "Bharuch",
    "statename": "GUJARAT"
  },
  {
    "pincode": "393135",
    "officename": "Kara B.O",
    "officeType": "B.O",
    "Deliverystatus": "Delivery",
    "divisionname": "Bharuch",
    "regionname": "Vadodara",
    "circlename": "Gujarat",
    "Taluk": "Nandod",
    "Districtname": "Narmada",
    "statename": "GUJARAT"
  },
  {
    "pincode": "393135",
    "officename": "Limet B.O",
    "officeType": "B.O",
    "Deliverystatus": "Delivery",
    "divisionname": "Bharuch",
    "regionname": "Vadodara",
    "circlename": "Gujarat",
    "Taluk": "Valia",
    "Districtname": "Bharuch",
    "statename": "GUJARAT"
  },
  {
    "pincode": "393135",
    "officename": "Luna B.O",
    "officeType": "B.O",
    "Deliverystatus": "Delivery",
    "divisionname": "Bharuch",
    "regionname": "Vadodara",
    "circlename": "Gujarat",
    "Taluk": "Valia",
    "Districtname": "Bharuch",
    "statename": "GUJARAT"
  },
  {
    "pincode": "393135",
    "officename": "Mela B.O",
    "officeType": "B.O",
    "Deliverystatus": "Delivery",
    "divisionname": "Bharuch",
    "regionname": "Vadodara",
    "circlename": "Gujarat",
    "Taluk": "Valia",
    "Districtname": "Bharuch",
    "statename": "GUJARAT"
  },
  {
    "pincode": "393135",
    "officename": "Naldhari B.O",
    "officeType": "B.O",
    "Deliverystatus": "Delivery",
    "divisionname": "Bharuch",
    "regionname": "Vadodara",
    "circlename": "Gujarat",
    "Taluk": "Valia",
    "Districtname": "Bharuch",
    "statename": "GUJARAT"
  },
  {
    "pincode": "393135",
    "officename": "Pather B.O",
    "officeType": "B.O",
    "Deliverystatus": "Delivery",
    "divisionname": "Bharuch",
    "regionname": "Vadodara",
    "circlename": "Gujarat",
    "Taluk": "Nandod",
    "Districtname": "Narmada",
    "statename": "GUJARAT"
  },
  {
    "pincode": "393135",
    "officename": "Rajgadh B.O",
    "officeType": "B.O",
    "Deliverystatus": "Delivery",
    "divisionname": "Bharuch",
    "regionname": "Vadodara",
    "circlename": "Gujarat",
    "Taluk": "Nandod",
    "Districtname": "Narmada",
    "statename": "GUJARAT"
  },
  {
    "pincode": "393135",
    "officename": "Sevad B.O",
    "officeType": "B.O",
    "Deliverystatus": "Delivery",
    "divisionname": "Bharuch",
    "regionname": "Vadodara",
    "circlename": "Gujarat",
    "Taluk": "Valia",
    "Districtname": "Bharuch",
    "statename": "GUJARAT"
  },
  {
    "pincode": "393135",
    "officename": "Siludi B.O",
    "officeType": "B.O",
    "Deliverystatus": "Delivery",
    "divisionname": "Bharuch",
    "regionname": "Vadodara",
    "circlename": "Gujarat",
    "Taluk": "Nandod",
    "Districtname": "Narmada",
    "statename": "GUJARAT"
  },
  {
    "pincode": "393135",
    "officename": "Sodgam B.O",
    "officeType": "B.O",
    "Deliverystatus": "Delivery",
    "divisionname": "Bharuch",
    "regionname": "Vadodara",
    "circlename": "Gujarat",
    "Taluk": "Valia",
    "Districtname": "Bharuch",
    "statename": "GUJARAT"
  },
  {
    "pincode": "393135",
    "officename": "Umargam B.O",
    "officeType": "B.O",
    "Deliverystatus": "Delivery",
    "divisionname": "Bharuch",
    "regionname": "Vadodara",
    "circlename": "Gujarat",
    "Taluk": "Valia",
    "Districtname": "Bharuch",
    "statename": "GUJARAT"
  },
  {
    "pincode": "393135",
    "officename": "Valia S.O",
    "officeType": "S.O",
    "Deliverystatus": "Delivery",
    "divisionname": "Bharuch",
    "regionname": "Vadodara",
    "circlename": "Gujarat",
    "Taluk": "Valia",
    "Districtname": "Bharuch",
    "statename": "GUJARAT"
  }
]
