[
  {
    "pincode": "394163",
    "officename": "Amalsadi B.O",
    "officeType": "B.O",
    "Deliverystatus": "Delivery",
    "divisionname": "Bardoli",
    "regionname": "Vadodara",
    "circlename": "Gujarat",
    "Taluk": "Mandvi",
    "Districtname": "Surat",
    "statename": "GUJARAT"
  },
  {
    "pincode": "394163",
    "officename": "Amba B.O",
    "officeType": "B.O",
    "Deliverystatus": "Delivery",
    "divisionname": "Bardoli",
    "regionname": "Vadodara",
    "circlename": "Gujarat",
    "Taluk": "Mandvi",
    "Districtname": "Surat",
    "statename": "GUJARAT"
  },
  {
    "pincode": "394163",
    "officename": "Fali B.O",
    "officeType": "B.O",
    "Deliverystatus": "Delivery",
    "divisionname": "Bardoli",
    "regionname": "Vadodara",
    "circlename": "Gujarat",
    "Taluk": "Mandvi",
    "Districtname": "Surat",
    "statename": "GUJARAT"
  },
  {
    "pincode": "394163",
    "officename": "Gamtalv Bujrang B.O",
    "officeType": "B.O",
    "Deliverystatus": "Delivery",
    "divisionname": "Bardoli",
    "regionname": "Vadodara",
    "circlename": "Gujarat",
    "Taluk": "Mandvi",
    "Districtname": "Surat",
    "statename": "GUJARAT"
  },
  {
    "pincode": "394163",
    "officename": "Godawadi B.O",
    "officeType": "B.O",
    "Deliverystatus": "Delivery",
    "divisionname": "Bardoli",
    "regionname": "Vadodara",
    "circlename": "Gujarat",
    "Taluk": "Mandvi",
    "Districtname": "Surat",
    "statename": "GUJARAT"
  },
  {
    "pincode": "394163",
    "officename": "Godsamba S.O",
    "officeType": "S.O",
    "Deliverystatus": "Delivery",
    "divisionname": "Bardoli",
    "regionname": "Vadodara",
    "circlename": "Gujarat",
    "Taluk": "Mandvi",
    "Districtname": "Surat",
    "statename": "GUJARAT"
  },
  {
    "pincode": "394163",
    "officename": "Karvali B.O",
    "officeType": "B.O",
    "Deliverystatus": "Delivery",
    "divisionname": "Bardoli",
    "regionname": "Vadodara",
    "circlename": "Gujarat",
    "Taluk": "Mandvi",
    "Districtname": "Surat",
    "statename": "GUJARAT"
  },
  {
    "pincode": "394163",
    "officename": "Kasal B.O",
    "officeType": "B.O",
    "Deliverystatus": "Delivery",
    "divisionname": "Bardoli",
    "regionname": "Vadodara",
    "circlename": "Gujarat",
    "Taluk": "Mandvi",
    "Districtname": "Surat",
    "statename": "GUJARAT"
  },
  {
    "pincode": "394163",
    "officename": "Kharoli B.O",
    "officeType": "B.O",
    "Deliverystatus": "Delivery",
    "divisionname": "Bardoli",
    "regionname": "Vadodara",
    "circlename": "Gujarat",
    "Taluk": "Mandvi",
    "Districtname": "Surat",
    "statename": "GUJARAT"
  },
  {
    "pincode": "394163",
    "officename": "Khodamba B.O",
    "officeType": "B.O",
    "Deliverystatus": "Delivery",
    "divisionname": "Bardoli",
    "regionname": "Vadodara",
    "circlename": "Gujarat",
    "Taluk": "Mandvi",
    "Districtname": "Surat",
    "statename": "GUJARAT"
  },
  {
    "pincode": "394163",
    "officename": "Nandpore B.O",
    "officeType": "B.O",
    "Deliverystatus": "Delivery",
    "divisionname": "Bardoli",
    "regionname": "Vadodara",
    "circlename": "Gujarat",
    "Taluk": "Mandvi",
    "Districtname": "Surat",
    "statename": "GUJARAT"
  },
  {
    "pincode": "394163",
    "officename": "Naren B.O",
    "officeType": "B.O",
    "Deliverystatus": "Delivery",
    "divisionname": "Bardoli",
    "regionname": "Vadodara",
    "circlename": "Gujarat",
    "Taluk": "Mandvi",
    "Districtname": "Surat",
    "statename": "GUJARAT"
  },
  {
    "pincode": "394163",
    "officename": "Patal B.O",
    "officeType": "B.O",
    "Deliverystatus": "Delivery",
    "divisionname": "Bardoli",
    "regionname": "Vadodara",
    "circlename": "Gujarat",
    "Taluk": "Mandvi",
    "Districtname": "Surat",
    "statename": "GUJARAT"
  },
  {
    "pincode": "394163",
    "officename": "Puna B.O",
    "officeType": "B.O",
    "Deliverystatus": "Delivery",
    "divisionname": "Bardoli",
    "regionname": "Vadodara",
    "circlename": "Gujarat",
    "Taluk": "Mandvi",
    "Districtname": "Surat",
    "statename": "GUJARAT"
  },
  {
    "pincode": "394163",
    "officename": "Tuked B.O",
    "officeType": "B.O",
    "Deliverystatus": "Delivery",
    "divisionname": "Bardoli",
    "regionname": "Vadodara",
    "circlename": "Gujarat",
    "Taluk": "Mandvi",
    "Districtname": "Surat",
    "statename": "GUJARAT"
  },
  {
    "pincode": "394163",
    "officename": "Unteva B.O",
    "officeType": "B.O",
    "Deliverystatus": "Delivery",
    "divisionname": "Bardoli",
    "regionname": "Vadodara",
    "circlename": "Gujarat",
    "Taluk": "Mandvi",
    "Districtname": "Surat",
    "statename": "GUJARAT"
  },
  {
    "pincode": "394163",
    "officename": "Zab B.O",
    "officeType": "B.O",
    "Deliverystatus": "Delivery",
    "divisionname": "Bardoli",
    "regionname": "Vadodara",
    "circlename": "Gujarat",
    "Taluk": "Mandvi",
    "Districtname": "Surat",
    "statename": "GUJARAT"
  }
]
