[
  {
    "pincode": "394110",
    "officename": "Anita B.O",
    "officeType": "B.O",
    "Deliverystatus": "Delivery",
    "divisionname": "Surat",
    "regionname": "Vadodara",
    "circlename": "Gujarat",
    "Taluk": "Olpad",
    "Districtname": "Surat",
    "statename": "GUJARAT"
  },
  {
    "pincode": "394110",
    "officename": "Borsad B.O",
    "officeType": "B.O",
    "Deliverystatus": "Delivery",
    "divisionname": "Surat",
    "regionname": "Vadodara",
    "circlename": "Gujarat",
    "Taluk": "Olpad",
    "Districtname": "Surat",
    "statename": "GUJARAT"
  },
  {
    "pincode": "394110",
    "officename": "Dhrampur B.O",
    "officeType": "B.O",
    "Deliverystatus": "Delivery",
    "divisionname": "Surat",
    "regionname": "Vadodara",
    "circlename": "Gujarat",
    "Taluk": "Mangrol",
    "Districtname": "Surat",
    "statename": "GUJARAT"
  },
  {
    "pincode": "394110",
    "officename": "Dungri B.O",
    "officeType": "B.O",
    "Deliverystatus": "Delivery",
    "divisionname": "Surat",
    "regionname": "Vadodara",
    "circlename": "Gujarat",
    "Taluk": "Olpad",
    "Districtname": "Surat",
    "statename": "GUJARAT"
  },
  {
    "pincode": "394110",
    "officename": "G.I.P.C.L. S.O",
    "officeType": "S.O",
    "Deliverystatus": "Non-Delivery",
    "divisionname": "Surat",
    "regionname": "Vadodara",
    "circlename": "Gujarat",
    "Taluk": "Mangrol",
    "Districtname": "Surat",
    "statename": "GUJARAT"
  },
  {
    "pincode": "394110",
    "officename": "Karanj B.O",
    "officeType": "B.O",
    "Deliverystatus": "Delivery",
    "divisionname": "Surat",
    "regionname": "Vadodara",
    "circlename": "Gujarat",
    "Taluk": "Olpad",
    "Districtname": "Surat",
    "statename": "GUJARAT"
  },
  {
    "pincode": "394110",
    "officename": "Kim S.O",
    "officeType": "S.O",
    "Deliverystatus": "Delivery",
    "divisionname": "Surat",
    "regionname": "Vadodara",
    "circlename": "Gujarat",
    "Taluk": "Olpad",
    "Districtname": "Surat",
    "statename": "GUJARAT"
  },
  {
    "pincode": "394110",
    "officename": "Kothwa B.O",
    "officeType": "B.O",
    "Deliverystatus": "Delivery",
    "divisionname": "Surat",
    "regionname": "Vadodara",
    "circlename": "Gujarat",
    "Taluk": "Mangrol",
    "Districtname": "Surat",
    "statename": "GUJARAT"
  },
  {
    "pincode": "394110",
    "officename": "Kudsad B.O",
    "officeType": "B.O",
    "Deliverystatus": "Delivery",
    "divisionname": "Surat",
    "regionname": "Vadodara",
    "circlename": "Gujarat",
    "Taluk": "Mangrol",
    "Districtname": "Surat",
    "statename": "GUJARAT"
  },
  {
    "pincode": "394110",
    "officename": "Limodra B.O",
    "officeType": "B.O",
    "Deliverystatus": "Delivery",
    "divisionname": "Surat",
    "regionname": "Vadodara",
    "circlename": "Gujarat",
    "Taluk": "Mangrol",
    "Districtname": "Surat",
    "statename": "GUJARAT"
  },
  {
    "pincode": "394110",
    "officename": "Mota Borsara B.O",
    "officeType": "B.O",
    "Deliverystatus": "Delivery",
    "divisionname": "Surat",
    "regionname": "Vadodara",
    "circlename": "Gujarat",
    "Taluk": "Olpad",
    "Districtname": "Surat",
    "statename": "GUJARAT"
  },
  {
    "pincode": "394110",
    "officename": "Mulad B.O",
    "officeType": "B.O",
    "Deliverystatus": "Delivery",
    "divisionname": "Surat",
    "regionname": "Vadodara",
    "circlename": "Gujarat",
    "Taluk": "Olpad",
    "Districtname": "Surat",
    "statename": "GUJARAT"
  },
  {
    "pincode": "394110",
    "officename": "Nani Naroli B.O",
    "officeType": "B.O",
    "Deliverystatus": "Delivery",
    "divisionname": "Surat",
    "regionname": "Vadodara",
    "circlename": "Gujarat",
    "Taluk": "Mangrol",
    "Districtname": "Surat",
    "statename": "GUJARAT"
  },
  {
    "pincode": "394110",
    "officename": "Pipodara B.O",
    "officeType": "B.O",
    "Deliverystatus": "Delivery",
    "divisionname": "Surat",
    "regionname": "Vadodara",
    "circlename": "Gujarat",
    "Taluk": "Mangrol",
    "Districtname": "Surat",
    "statename": "GUJARAT"
  },
  {
    "pincode": "394110",
    "officename": "Siyalaj B.O",
    "officeType": "B.O",
    "Deliverystatus": "Delivery",
    "divisionname": "Surat",
    "regionname": "Vadodara",
    "circlename": "Gujarat",
    "Taluk": "Mangrol",
    "Districtname": "Surat",
    "statename": "GUJARAT"
  },
  {
    "pincode": "394110",
    "officename": "Vadoli B.O",
    "officeType": "B.O",
    "Deliverystatus": "Delivery",
    "divisionname": "Surat",
    "regionname": "Vadodara",
    "circlename": "Gujarat",
    "Taluk": "Mangrol",
    "Districtname": "Surat",
    "statename": "GUJARAT"
  },
  {
    "pincode": "394110",
    "officename": "Varethi B.O",
    "officeType": "B.O",
    "Deliverystatus": "Delivery",
    "divisionname": "Surat",
    "regionname": "Vadodara",
    "circlename": "Gujarat",
    "Taluk": "Olpad",
    "Districtname": "Surat",
    "statename": "GUJARAT"
  }
]
