[
  {
    "pincode": "394230",
    "officename": "Bonandh B.O",
    "officeType": "B.O",
    "Deliverystatus": "Delivery",
    "divisionname": "Surat",
    "regionname": "Vadodara",
    "circlename": "Gujarat",
    "Taluk": "Sachin",
    "Districtname": "Surat",
    "statename": "GUJARAT"
  },
  {
    "pincode": "394230",
    "officename": "Eklera B.O",
    "officeType": "B.O",
    "Deliverystatus": "Delivery",
    "divisionname": "Surat",
    "regionname": "Vadodara",
    "circlename": "Gujarat",
    "Taluk": "Sachin",
    "Districtname": "Surat",
    "statename": "GUJARAT"
  },
  {
    "pincode": "394230",
    "officename": "Gabheni B.O",
    "officeType": "B.O",
    "Deliverystatus": "Delivery",
    "divisionname": "Surat",
    "regionname": "Vadodara",
    "circlename": "Gujarat",
    "Taluk": "Sachin",
    "Districtname": "Surat",
    "statename": "GUJARAT"
  },
  {
    "pincode": "394230",
    "officename": "Kanakpur B.O",
    "officeType": "B.O",
    "Deliverystatus": "Delivery",
    "divisionname": "Surat",
    "regionname": "Vadodara",
    "circlename": "Gujarat",
    "Taluk": "Chorasi",
    "Districtname": "Surat",
    "statename": "GUJARAT"
  },
  {
    "pincode": "394230",
    "officename": "Kansad B.O",
    "officeType": "B.O",
    "Deliverystatus": "Delivery",
    "divisionname": "Surat",
    "regionname": "Vadodara",
    "circlename": "Gujarat",
    "Taluk": "Sachin",
    "Districtname": "Surat",
    "statename": "GUJARAT"
  },
  {
    "pincode": "394230",
    "officename": "Lingad B.O",
    "officeType": "B.O",
    "Deliverystatus": "Delivery",
    "divisionname": "Surat",
    "regionname": "Vadodara",
    "circlename": "Gujarat",
    "Taluk": "Sachin",
    "Districtname": "Surat",
    "statename": "GUJARAT"
  },
  {
    "pincode": "394230",
    "officename": "Sachin G.I.D.C. S.O",
    "officeType": "S.O",
    "Deliverystatus": "Non-Delivery",
    "divisionname": "Surat",
    "regionname": "Vadodara",
    "circlename": "Gujarat",
    "Taluk": "Chorasi",
    "Districtname": "Surat",
    "statename": "GUJARAT"
  },
  {
    "pincode": "394230",
    "officename": "Sachin R.S. B.O",
    "officeType": "B.O",
    "Deliverystatus": "Delivery",
    "divisionname": "Surat",
    "regionname": "Vadodara",
    "circlename": "Gujarat",
    "Taluk": "Chorasi",
    "Districtname": "Surat",
    "statename": "GUJARAT"
  },
  {
    "pincode": "394230",
    "officename": "Sachin S.O",
    "officeType": "S.O",
    "Deliverystatus": "Delivery",
    "divisionname": "Surat",
    "regionname": "Vadodara",
    "circlename": "Gujarat",
    "Taluk": "Surat",
    "Districtname": "Surat",
    "statename": "GUJARAT"
  },
  {
    "pincode": "394230",
    "officename": "Talangpur B.O",
    "officeType": "B.O",
    "Deliverystatus": "Delivery",
    "divisionname": "Surat",
    "regionname": "Vadodara",
    "circlename": "Gujarat",
    "Taluk": "Sachin",
    "Districtname": "Surat",
    "statename": "GUJARAT"
  },
  {
    "pincode": "394230",
    "officename": "Umber B.O",
    "officeType": "B.O",
    "Deliverystatus": "Delivery",
    "divisionname": "Surat",
    "regionname": "Vadodara",
    "circlename": "Gujarat",
    "Taluk": "Sachin",
    "Districtname": "Surat",
    "statename": "GUJARAT"
  },
  {
    "pincode": "394230",
    "officename": "Vanz B.O",
    "officeType": "B.O",
    "Deliverystatus": "Delivery",
    "divisionname": "Surat",
    "regionname": "Vadodara",
    "circlename": "Gujarat",
    "Taluk": "Sachin",
    "Districtname": "Surat",
    "statename": "GUJARAT"
  },
  {
    "pincode": "394230",
    "officename": "Vektana B.O",
    "officeType": "B.O",
    "Deliverystatus": "Delivery",
    "divisionname": "Surat",
    "regionname": "Vadodara",
    "circlename": "Gujarat",
    "Taluk": "Chorasi",
    "Districtname": "Surat",
    "statename": "GUJARAT"
  }
]
