[
  {
    "pincode": "394250",
    "officename": "Amchak B.O",
    "officeType": "B.O",
    "Deliverystatus": "Delivery",
    "divisionname": "Bardoli",
    "regionname": "Vadodara",
    "circlename": "Gujarat",
    "Taluk": "Mahuva",
    "Districtname": "Surat",
    "statename": "GUJARAT"
  },
  {
    "pincode": "394250",
    "officename": "Bilkhadi B.O",
    "officeType": "B.O",
    "Deliverystatus": "Delivery",
    "divisionname": "Bardoli",
    "regionname": "Vadodara",
    "circlename": "Gujarat",
    "Taluk": "Mahuva",
    "Districtname": "Surat",
    "statename": "GUJARAT"
  },
  {
    "pincode": "394250",
    "officename": "Dedvasan B.O",
    "officeType": "B.O",
    "Deliverystatus": "Delivery",
    "divisionname": "Bardoli",
    "regionname": "Vadodara",
    "circlename": "Gujarat",
    "Taluk": "Mahuva",
    "Districtname": "Surat",
    "statename": "GUJARAT"
  },
  {
    "pincode": "394250",
    "officename": "Dholikui B.O",
    "officeType": "B.O",
    "Deliverystatus": "Delivery",
    "divisionname": "Bardoli",
    "regionname": "Vadodara",
    "circlename": "Gujarat",
    "Taluk": "Mahuva",
    "Districtname": "Surat",
    "statename": "GUJARAT"
  },
  {
    "pincode": "394250",
    "officename": "Kodada B.O",
    "officeType": "B.O",
    "Deliverystatus": "Delivery",
    "divisionname": "Bardoli",
    "regionname": "Vadodara",
    "circlename": "Gujarat",
    "Taluk": "Mahuva",
    "Districtname": "Surat",
    "statename": "GUJARAT"
  },
  {
    "pincode": "394250",
    "officename": "Mahuva S.O (Surat)",
    "officeType": "S.O",
    "Deliverystatus": "Delivery",
    "divisionname": "Bardoli",
    "regionname": "Vadodara",
    "circlename": "Gujarat",
    "Taluk": "Mahuva",
    "Districtname": "Surat",
    "statename": "GUJARAT"
  },
  {
    "pincode": "394250",
    "officename": "Miyapur B.O",
    "officeType": "B.O",
    "Deliverystatus": "Delivery",
    "divisionname": "Bardoli",
    "regionname": "Vadodara",
    "circlename": "Gujarat",
    "Taluk": "Mahuva",
    "Districtname": "Surat",
    "statename": "GUJARAT"
  },
  {
    "pincode": "394250",
    "officename": "Mordevi B.O",
    "officeType": "B.O",
    "Deliverystatus": "Delivery",
    "divisionname": "Bardoli",
    "regionname": "Vadodara",
    "circlename": "Gujarat",
    "Taluk": "Mahuva",
    "Districtname": "Surat",
    "statename": "GUJARAT"
  },
  {
    "pincode": "394250",
    "officename": "Shekhpur B.O",
    "officeType": "B.O",
    "Deliverystatus": "Delivery",
    "divisionname": "Bardoli",
    "regionname": "Vadodara",
    "circlename": "Gujarat",
    "Taluk": "Mahuva",
    "Districtname": "Surat",
    "statename": "GUJARAT"
  }
]
