[
  {
    "pincode": "394375",
    "officename": "Babarghat B.O",
    "officeType": "B.O",
    "Deliverystatus": "Delivery",
    "divisionname": "Bardoli",
    "regionname": "Vadodara",
    "circlename": "Gujarat",
    "Taluk": "Uchchhal",
    "Districtname": "Surat",
    "statename": "GUJARAT"
  },
  {
    "pincode": "394375",
    "officename": "Bhadbhunja B.O",
    "officeType": "B.O",
    "Deliverystatus": "Delivery",
    "divisionname": "Bardoli",
    "regionname": "Vadodara",
    "circlename": "Gujarat",
    "Taluk": "Uchchhal",
    "Districtname": "Surat",
    "statename": "GUJARAT"
  },
  {
    "pincode": "394375",
    "officename": "Bhitkhurd B.O",
    "officeType": "B.O",
    "Deliverystatus": "Delivery",
    "divisionname": "Bardoli",
    "regionname": "Vadodara",
    "circlename": "Gujarat",
    "Taluk": "Uchchhal",
    "Districtname": "Surat",
    "statename": "GUJARAT"
  },
  {
    "pincode": "394375",
    "officename": "Chhapti B.O",
    "officeType": "B.O",
    "Deliverystatus": "Delivery",
    "divisionname": "Bardoli",
    "regionname": "Vadodara",
    "circlename": "Gujarat",
    "Taluk": "Uchchhal",
    "Districtname": "Surat",
    "statename": "GUJARAT"
  },
  {
    "pincode": "394375",
    "officename": "Chhitpur B.O",
    "officeType": "B.O",
    "Deliverystatus": "Delivery",
    "divisionname": "Bardoli",
    "regionname": "Vadodara",
    "circlename": "Gujarat",
    "Taluk": "Uchchhal",
    "Districtname": "Surat",
    "statename": "GUJARAT"
  },
  {
    "pincode": "394375",
    "officename": "Gavan B.O",
    "officeType": "B.O",
    "Deliverystatus": "Delivery",
    "divisionname": "Bardoli",
    "regionname": "Vadodara",
    "circlename": "Gujarat",
    "Taluk": "Uchchhal",
    "Districtname": "Surat",
    "statename": "GUJARAT"
  },
  {
    "pincode": "394375",
    "officename": "Haripur B.O",
    "officeType": "B.O",
    "Deliverystatus": "Delivery",
    "divisionname": "Bardoli",
    "regionname": "Vadodara",
    "circlename": "Gujarat",
    "Taluk": "Uchchhal",
    "Districtname": "Surat",
    "statename": "GUJARAT"
  },
  {
    "pincode": "394375",
    "officename": "Karod B.O",
    "officeType": "B.O",
    "Deliverystatus": "Delivery",
    "divisionname": "Bardoli",
    "regionname": "Vadodara",
    "circlename": "Gujarat",
    "Taluk": "Uchchhal",
    "Districtname": "Surat",
    "statename": "GUJARAT"
  },
  {
    "pincode": "394375",
    "officename": "Khabda B.O",
    "officeType": "B.O",
    "Deliverystatus": "Delivery",
    "divisionname": "Bardoli",
    "regionname": "Vadodara",
    "circlename": "Gujarat",
    "Taluk": "Uchchhal",
    "Districtname": "Surat",
    "statename": "GUJARAT"
  },
  {
    "pincode": "394375",
    "officename": "Kulda B.O",
    "officeType": "B.O",
    "Deliverystatus": "Delivery",
    "divisionname": "Bardoli",
    "regionname": "Vadodara",
    "circlename": "Gujarat",
    "Taluk": "Uchchhal",
    "Districtname": "Surat",
    "statename": "GUJARAT"
  },
  {
    "pincode": "394375",
    "officename": "Magarbara B.O",
    "officeType": "B.O",
    "Deliverystatus": "Delivery",
    "divisionname": "Bardoli",
    "regionname": "Vadodara",
    "circlename": "Gujarat",
    "Taluk": "Uchchhal",
    "Districtname": "Surat",
    "statename": "GUJARAT"
  },
  {
    "pincode": "394375",
    "officename": "Narayanpur B.O",
    "officeType": "B.O",
    "Deliverystatus": "Delivery",
    "divisionname": "Bardoli",
    "regionname": "Vadodara",
    "circlename": "Gujarat",
    "Taluk": "Uchchhal",
    "Districtname": "Surat",
    "statename": "GUJARAT"
  },
  {
    "pincode": "394375",
    "officename": "Sankarda B.O",
    "officeType": "B.O",
    "Deliverystatus": "Delivery",
    "divisionname": "Bardoli",
    "regionname": "Vadodara",
    "circlename": "Gujarat",
    "Taluk": "Uchchhal",
    "Districtname": "Surat",
    "statename": "GUJARAT"
  },
  {
    "pincode": "394375",
    "officename": "Selud B.O",
    "officeType": "B.O",
    "Deliverystatus": "Delivery",
    "divisionname": "Bardoli",
    "regionname": "Vadodara",
    "circlename": "Gujarat",
    "Taluk": "Uchchhal",
    "Districtname": "Surat",
    "statename": "GUJARAT"
  },
  {
    "pincode": "394375",
    "officename": "Sunderpur B.O",
    "officeType": "B.O",
    "Deliverystatus": "Delivery",
    "divisionname": "Bardoli",
    "regionname": "Vadodara",
    "circlename": "Gujarat",
    "Taluk": "Uchchhal",
    "Districtname": "Surat",
    "statename": "GUJARAT"
  },
  {
    "pincode": "394375",
    "officename": "Tokarva B.O",
    "officeType": "B.O",
    "Deliverystatus": "Delivery",
    "divisionname": "Bardoli",
    "regionname": "Vadodara",
    "circlename": "Gujarat",
    "Taluk": "Valod",
    "Districtname": "Surat",
    "statename": "GUJARAT"
  },
  {
    "pincode": "394375",
    "officename": "Uchchhal S.O",
    "officeType": "S.O",
    "Deliverystatus": "Delivery",
    "divisionname": "Bardoli",
    "regionname": "Vadodara",
    "circlename": "Gujarat",
    "Taluk": "Uchchhal",
    "Districtname": "Tapi",
    "statename": "GUJARAT"
  }
]
