[
  {
    "pincode": "394365",
    "officename": "Amalgundi B.O",
    "officeType": "B.O",
    "Deliverystatus": "Delivery",
    "divisionname": "Bardoli",
    "regionname": "Vadodara",
    "circlename": "Gujarat",
    "Taluk": "Songadh",
    "Districtname": "Surat",
    "statename": "GUJARAT"
  },
  {
    "pincode": "394365",
    "officename": "Doswada B.O",
    "officeType": "B.O",
    "Deliverystatus": "Delivery",
    "divisionname": "Bardoli",
    "regionname": "Vadodara",
    "circlename": "Gujarat",
    "Taluk": "Songadh",
    "Districtname": "Surat",
    "statename": "GUJARAT"
  },
  {
    "pincode": "394365",
    "officename": "Gopalpura B.O",
    "officeType": "B.O",
    "Deliverystatus": "Delivery",
    "divisionname": "Bardoli",
    "regionname": "Vadodara",
    "circlename": "Gujarat",
    "Taluk": "Songadh",
    "Districtname": "Surat",
    "statename": "GUJARAT"
  },
  {
    "pincode": "394365",
    "officename": "Gunkhadi B.O",
    "officeType": "B.O",
    "Deliverystatus": "Delivery",
    "divisionname": "Bardoli",
    "regionname": "Vadodara",
    "circlename": "Gujarat",
    "Taluk": "Songadh",
    "Districtname": "Surat",
    "statename": "GUJARAT"
  },
  {
    "pincode": "394365",
    "officename": "Hindla B.O",
    "officeType": "B.O",
    "Deliverystatus": "Delivery",
    "divisionname": "Bardoli",
    "regionname": "Vadodara",
    "circlename": "Gujarat",
    "Taluk": "Songadh",
    "Districtname": "Surat",
    "statename": "GUJARAT"
  },
  {
    "pincode": "394365",
    "officename": "Hiravadi B.O",
    "officeType": "B.O",
    "Deliverystatus": "Delivery",
    "divisionname": "Bardoli",
    "regionname": "Vadodara",
    "circlename": "Gujarat",
    "Taluk": "Songadh",
    "Districtname": "Surat",
    "statename": "GUJARAT"
  },
  {
    "pincode": "394365",
    "officename": "Jamkhadi B.O",
    "officeType": "B.O",
    "Deliverystatus": "Delivery",
    "divisionname": "Bardoli",
    "regionname": "Vadodara",
    "circlename": "Gujarat",
    "Taluk": "Songadh",
    "Districtname": "Surat",
    "statename": "GUJARAT"
  },
  {
    "pincode": "394365",
    "officename": "Khanjar B.O",
    "officeType": "B.O",
    "Deliverystatus": "Delivery",
    "divisionname": "Bardoli",
    "regionname": "Vadodara",
    "circlename": "Gujarat",
    "Taluk": "Songadh",
    "Districtname": "Surat",
    "statename": "GUJARAT"
  },
  {
    "pincode": "394365",
    "officename": "Mota Tarpada B.O",
    "officeType": "B.O",
    "Deliverystatus": "Delivery",
    "divisionname": "Bardoli",
    "regionname": "Vadodara",
    "circlename": "Gujarat",
    "Taluk": "Songadh",
    "Districtname": "Surat",
    "statename": "GUJARAT"
  },
  {
    "pincode": "394365",
    "officename": "Raniamba S.O",
    "officeType": "S.O",
    "Deliverystatus": "Delivery",
    "divisionname": "Bardoli",
    "regionname": "Vadodara",
    "circlename": "Gujarat",
    "Taluk": "Fort Songadh",
    "Districtname": "Tapi",
    "statename": "GUJARAT"
  },
  {
    "pincode": "394365",
    "officename": "Sadadvel B.O",
    "officeType": "B.O",
    "Deliverystatus": "Delivery",
    "divisionname": "Bardoli",
    "regionname": "Vadodara",
    "circlename": "Gujarat",
    "Taluk": "Songadh",
    "Districtname": "Surat",
    "statename": "GUJARAT"
  },
  {
    "pincode": "394365",
    "officename": "Segupada B.O",
    "officeType": "B.O",
    "Deliverystatus": "Delivery",
    "divisionname": "Bardoli",
    "regionname": "Vadodara",
    "circlename": "Gujarat",
    "Taluk": "Songadh",
    "Districtname": "Surat",
    "statename": "GUJARAT"
  },
  {
    "pincode": "394365",
    "officename": "Taparwada B.O",
    "officeType": "B.O",
    "Deliverystatus": "Delivery",
    "divisionname": "Bardoli",
    "regionname": "Vadodara",
    "circlename": "Gujarat",
    "Taluk": "Songadh",
    "Districtname": "Surat",
    "statename": "GUJARAT"
  }
]
