[
  {
    "pincode": "394350",
    "officename": "Amalsadi B.O",
    "officeType": "B.O",
    "Deliverystatus": "Delivery",
    "divisionname": "Bardoli",
    "regionname": "Vadodara",
    "circlename": "Gujarat",
    "Taluk": "Palsana",
    "Districtname": "Surat",
    "statename": "GUJARAT"
  },
  {
    "pincode": "394350",
    "officename": "Chhitra B.O",
    "officeType": "B.O",
    "Deliverystatus": "Delivery",
    "divisionname": "Bardoli",
    "regionname": "Vadodara",
    "circlename": "Gujarat",
    "Taluk": "Bardoli",
    "Districtname": "Surat",
    "statename": "GUJARAT"
  },
  {
    "pincode": "394350",
    "officename": "Goji B.O",
    "officeType": "B.O",
    "Deliverystatus": "Delivery",
    "divisionname": "Bardoli",
    "regionname": "Vadodara",
    "circlename": "Gujarat",
    "Taluk": "Bardoli",
    "Districtname": "Surat",
    "statename": "GUJARAT"
  },
  {
    "pincode": "394350",
    "officename": "Kani B.O",
    "officeType": "B.O",
    "Deliverystatus": "Delivery",
    "divisionname": "Bardoli",
    "regionname": "Vadodara",
    "circlename": "Gujarat",
    "Taluk": "Mahuva",
    "Districtname": "Surat",
    "statename": "GUJARAT"
  },
  {
    "pincode": "394350",
    "officename": "Naugama B.O",
    "officeType": "B.O",
    "Deliverystatus": "Delivery",
    "divisionname": "Bardoli",
    "regionname": "Vadodara",
    "circlename": "Gujarat",
    "Taluk": "Bardoli",
    "Districtname": "Surat",
    "statename": "GUJARAT"
  },
  {
    "pincode": "394350",
    "officename": "Ninat B.O",
    "officeType": "B.O",
    "Deliverystatus": "Delivery",
    "divisionname": "Bardoli",
    "regionname": "Vadodara",
    "circlename": "Gujarat",
    "Taluk": "Bardoli",
    "Districtname": "Surat",
    "statename": "GUJARAT"
  },
  {
    "pincode": "394350",
    "officename": "Nizar B.O",
    "officeType": "B.O",
    "Deliverystatus": "Delivery",
    "divisionname": "Bardoli",
    "regionname": "Vadodara",
    "circlename": "Gujarat",
    "Taluk": "Bardoli",
    "Districtname": "Surat",
    "statename": "GUJARAT"
  },
  {
    "pincode": "394350",
    "officename": "Ranat B.O",
    "officeType": "B.O",
    "Deliverystatus": "Delivery",
    "divisionname": "Bardoli",
    "regionname": "Vadodara",
    "circlename": "Gujarat",
    "Taluk": "Mahuva",
    "Districtname": "Surat",
    "statename": "GUJARAT"
  },
  {
    "pincode": "394350",
    "officename": "Sarbhon S.O",
    "officeType": "S.O",
    "Deliverystatus": "Delivery",
    "divisionname": "Bardoli",
    "regionname": "Vadodara",
    "circlename": "Gujarat",
    "Taluk": "Bardoli",
    "Districtname": "Surat",
    "statename": "GUJARAT"
  },
  {
    "pincode": "394350",
    "officename": "Tarbhon B.O",
    "officeType": "B.O",
    "Deliverystatus": "Delivery",
    "divisionname": "Bardoli",
    "regionname": "Vadodara",
    "circlename": "Gujarat",
    "Taluk": "Bardoli",
    "Districtname": "Surat",
    "statename": "GUJARAT"
  },
  {
    "pincode": "394350",
    "officename": "Tarsadi B.O",
    "officeType": "B.O",
    "Deliverystatus": "Delivery",
    "divisionname": "Bardoli",
    "regionname": "Vadodara",
    "circlename": "Gujarat",
    "Taluk": "Mahuva",
    "Districtname": "Surat",
    "statename": "GUJARAT"
  },
  {
    "pincode": "394350",
    "officename": "Vadoli B.O",
    "officeType": "B.O",
    "Deliverystatus": "Delivery",
    "divisionname": "Bardoli",
    "regionname": "Vadodara",
    "circlename": "Gujarat",
    "Taluk": "Bardoli",
    "Districtname": "Surat",
    "statename": "GUJARAT"
  }
]
