[
  {
    "pincode": "394430",
    "officename": "Ambawadi B.O",
    "officeType": "B.O",
    "Deliverystatus": "Delivery",
    "divisionname": "Surat",
    "regionname": "Vadodara",
    "circlename": "Gujarat",
    "Taluk": "Vankal",
    "Districtname": "Surat",
    "statename": "GUJARAT"
  },
  {
    "pincode": "394430",
    "officename": "Amkhuta B.O",
    "officeType": "B.O",
    "Deliverystatus": "Delivery",
    "divisionname": "Surat",
    "regionname": "Vadodara",
    "circlename": "Gujarat",
    "Taluk": "Vankal",
    "Districtname": "Surat",
    "statename": "GUJARAT"
  },
  {
    "pincode": "394430",
    "officename": "Boria B.O",
    "officeType": "B.O",
    "Deliverystatus": "Delivery",
    "divisionname": "Surat",
    "regionname": "Vadodara",
    "circlename": "Gujarat",
    "Taluk": "Vankal",
    "Districtname": "Surat",
    "statename": "GUJARAT"
  },
  {
    "pincode": "394430",
    "officename": "Dholikui B.O",
    "officeType": "B.O",
    "Deliverystatus": "Delivery",
    "divisionname": "Surat",
    "regionname": "Vadodara",
    "circlename": "Gujarat",
    "Taluk": "Vankal",
    "Districtname": "Surat",
    "statename": "GUJARAT"
  },
  {
    "pincode": "394430",
    "officename": "Isanpur B.O",
    "officeType": "B.O",
    "Deliverystatus": "Delivery",
    "divisionname": "Surat",
    "regionname": "Vadodara",
    "circlename": "Gujarat",
    "Taluk": "Vankal",
    "Districtname": "Surat",
    "statename": "GUJARAT"
  },
  {
    "pincode": "394430",
    "officename": "Lavet B.O",
    "officeType": "B.O",
    "Deliverystatus": "Delivery",
    "divisionname": "Surat",
    "regionname": "Vadodara",
    "circlename": "Gujarat",
    "Taluk": "Vankal",
    "Districtname": "Surat",
    "statename": "GUJARAT"
  },
  {
    "pincode": "394430",
    "officename": "Nandola B.O",
    "officeType": "B.O",
    "Deliverystatus": "Delivery",
    "divisionname": "Surat",
    "regionname": "Vadodara",
    "circlename": "Gujarat",
    "Taluk": "Vankal",
    "Districtname": "Surat",
    "statename": "GUJARAT"
  },
  {
    "pincode": "394430",
    "officename": "Vankal S.O",
    "officeType": "S.O",
    "Deliverystatus": "Delivery",
    "divisionname": "Surat",
    "regionname": "Vadodara",
    "circlename": "Gujarat",
    "Taluk": "Vankal",
    "Districtname": "Surat",
    "statename": "GUJARAT"
  },
  {
    "pincode": "394430",
    "officename": "Verakui B.O",
    "officeType": "B.O",
    "Deliverystatus": "Delivery",
    "divisionname": "Surat",
    "regionname": "Vadodara",
    "circlename": "Gujarat",
    "Taluk": "Vankal",
    "Districtname": "Surat",
    "statename": "GUJARAT"
  }
]
