[
  {
    "pincode": "394540",
    "officename": "Asnad B.O",
    "officeType": "B.O",
    "Deliverystatus": "Delivery",
    "divisionname": "Surat",
    "regionname": "Vadodara",
    "circlename": "Gujarat",
    "Taluk": "Olpad",
    "Districtname": "Surat",
    "statename": "GUJARAT"
  },
  {
    "pincode": "394540",
    "officename": "Bhadol B.O",
    "officeType": "B.O",
    "Deliverystatus": "Delivery",
    "divisionname": "Surat",
    "regionname": "Vadodara",
    "circlename": "Gujarat",
    "Taluk": "Olpad",
    "Districtname": "Surat",
    "statename": "GUJARAT"
  },
  {
    "pincode": "394540",
    "officename": "Bhatgam B.O",
    "officeType": "B.O",
    "Deliverystatus": "Delivery",
    "divisionname": "Surat",
    "regionname": "Vadodara",
    "circlename": "Gujarat",
    "Taluk": "Olpad",
    "Districtname": "Surat",
    "statename": "GUJARAT"
  },
  {
    "pincode": "394540",
    "officename": "Dandi B.O",
    "officeType": "B.O",
    "Deliverystatus": "Delivery",
    "divisionname": "Surat",
    "regionname": "Vadodara",
    "circlename": "Gujarat",
    "Taluk": "Olpad",
    "Districtname": "Surat",
    "statename": "GUJARAT"
  },
  {
    "pincode": "394540",
    "officename": "Erthan B.O",
    "officeType": "B.O",
    "Deliverystatus": "Delivery",
    "divisionname": "Surat",
    "regionname": "Vadodara",
    "circlename": "Gujarat",
    "Taluk": "Olpad",
    "Districtname": "Surat",
    "statename": "GUJARAT"
  },
  {
    "pincode": "394540",
    "officename": "Ishanpore B.O",
    "officeType": "B.O",
    "Deliverystatus": "Delivery",
    "divisionname": "Surat",
    "regionname": "Vadodara",
    "circlename": "Gujarat",
    "Taluk": "Olpad",
    "Districtname": "Surat",
    "statename": "GUJARAT"
  },
  {
    "pincode": "394540",
    "officename": "Kadrama B.O",
    "officeType": "B.O",
    "Deliverystatus": "Delivery",
    "divisionname": "Surat",
    "regionname": "Vadodara",
    "circlename": "Gujarat",
    "Taluk": "Olpad",
    "Districtname": "Surat",
    "statename": "GUJARAT"
  },
  {
    "pincode": "394540",
    "officename": "Kamroli B.O",
    "officeType": "B.O",
    "Deliverystatus": "Delivery",
    "divisionname": "Surat",
    "regionname": "Vadodara",
    "circlename": "Gujarat",
    "Taluk": "Olpad",
    "Districtname": "Surat",
    "statename": "GUJARAT"
  },
  {
    "pincode": "394540",
    "officename": "Koba B.O",
    "officeType": "B.O",
    "Deliverystatus": "Delivery",
    "divisionname": "Surat",
    "regionname": "Vadodara",
    "circlename": "Gujarat",
    "Taluk": "Olpad",
    "Districtname": "Surat",
    "statename": "GUJARAT"
  },
  {
    "pincode": "394540",
    "officename": "Kudiana B.O",
    "officeType": "B.O",
    "Deliverystatus": "Delivery",
    "divisionname": "Surat",
    "regionname": "Vadodara",
    "circlename": "Gujarat",
    "Taluk": "Olpad",
    "Districtname": "Surat",
    "statename": "GUJARAT"
  },
  {
    "pincode": "394540",
    "officename": "Lavachha B.O",
    "officeType": "B.O",
    "Deliverystatus": "Delivery",
    "divisionname": "Surat",
    "regionname": "Vadodara",
    "circlename": "Gujarat",
    "Taluk": "Olpad",
    "Districtname": "Surat",
    "statename": "GUJARAT"
  },
  {
    "pincode": "394540",
    "officename": "Mandroi B.O",
    "officeType": "B.O",
    "Deliverystatus": "Delivery",
    "divisionname": "Surat",
    "regionname": "Vadodara",
    "circlename": "Gujarat",
    "Taluk": "Olpad",
    "Districtname": "Surat",
    "statename": "GUJARAT"
  },
  {
    "pincode": "394540",
    "officename": "Masma B.O",
    "officeType": "B.O",
    "Deliverystatus": "Delivery",
    "divisionname": "Surat",
    "regionname": "Vadodara",
    "circlename": "Gujarat",
    "Taluk": "Olpad",
    "Districtname": "Surat",
    "statename": "GUJARAT"
  },
  {
    "pincode": "394540",
    "officename": "Mohamedpur B.O",
    "officeType": "B.O",
    "Deliverystatus": "Delivery",
    "divisionname": "Surat",
    "regionname": "Vadodara",
    "circlename": "Gujarat",
    "Taluk": "Olpad",
    "Districtname": "Surat",
    "statename": "GUJARAT"
  },
  {
    "pincode": "394540",
    "officename": "Olpad S.O",
    "officeType": "S.O",
    "Deliverystatus": "Delivery",
    "divisionname": "Surat",
    "regionname": "Vadodara",
    "circlename": "Gujarat",
    "Taluk": "Olpad",
    "Districtname": "Surat",
    "statename": "GUJARAT"
  },
  {
    "pincode": "394540",
    "officename": "Orma B.O",
    "officeType": "B.O",
    "Deliverystatus": "Delivery",
    "divisionname": "Surat",
    "regionname": "Vadodara",
    "circlename": "Gujarat",
    "Taluk": "Olpad",
    "Districtname": "Surat",
    "statename": "GUJARAT"
  },
  {
    "pincode": "394540",
    "officename": "Pardi Bhadol B.O",
    "officeType": "B.O",
    "Deliverystatus": "Delivery",
    "divisionname": "Surat",
    "regionname": "Vadodara",
    "circlename": "Gujarat",
    "Taluk": "Olpad",
    "Districtname": "Surat",
    "statename": "GUJARAT"
  },
  {
    "pincode": "394540",
    "officename": "Saras B.O",
    "officeType": "B.O",
    "Deliverystatus": "Delivery",
    "divisionname": "Surat",
    "regionname": "Vadodara",
    "circlename": "Gujarat",
    "Taluk": "Olpad",
    "Districtname": "Surat",
    "statename": "GUJARAT"
  },
  {
    "pincode": "394540",
    "officename": "Sondla Khara B.O",
    "officeType": "B.O",
    "Deliverystatus": "Delivery",
    "divisionname": "Surat",
    "regionname": "Vadodara",
    "circlename": "Gujarat",
    "Taluk": "Olpad",
    "Districtname": "Surat",
    "statename": "GUJARAT"
  },
  {
    "pincode": "394540",
    "officename": "Sonsak B.O",
    "officeType": "B.O",
    "Deliverystatus": "Delivery",
    "divisionname": "Surat",
    "regionname": "Vadodara",
    "circlename": "Gujarat",
    "Taluk": "Olpad",
    "Districtname": "Surat",
    "statename": "GUJARAT"
  },
  {
    "pincode": "394540",
    "officename": "Takarma B.O",
    "officeType": "B.O",
    "Deliverystatus": "Delivery",
    "divisionname": "Surat",
    "regionname": "Vadodara",
    "circlename": "Gujarat",
    "Taluk": "Olpad",
    "Districtname": "Surat",
    "statename": "GUJARAT"
  },
  {
    "pincode": "394540",
    "officename": "Vadod B.O",
    "officeType": "B.O",
    "Deliverystatus": "Delivery",
    "divisionname": "Surat",
    "regionname": "Vadodara",
    "circlename": "Gujarat",
    "Taluk": "Olpad",
    "Districtname": "Surat",
    "statename": "GUJARAT"
  },
  {
    "pincode": "394540",
    "officename": "Vihara B.O",
    "officeType": "B.O",
    "Deliverystatus": "Delivery",
    "divisionname": "Surat",
    "regionname": "Vadodara",
    "circlename": "Gujarat",
    "Taluk": "Olpad",
    "Districtname": "Surat",
    "statename": "GUJARAT"
  }
]
