[
  {
    "pincode": "394655",
    "officename": "Balpur B.O",
    "officeType": "B.O",
    "Deliverystatus": "Delivery",
    "divisionname": "Bardoli",
    "regionname": "Vadodara",
    "circlename": "Gujarat",
    "Taluk": "Vyara",
    "Districtname": "Surat",
    "statename": "GUJARAT"
  },
  {
    "pincode": "394655",
    "officename": "Chhindia B.O",
    "officeType": "B.O",
    "Deliverystatus": "Delivery",
    "divisionname": "Bardoli",
    "regionname": "Vadodara",
    "circlename": "Gujarat",
    "Taluk": "Vyara",
    "Districtname": "Surat",
    "statename": "GUJARAT"
  },
  {
    "pincode": "394655",
    "officename": "Dhat B.O",
    "officeType": "B.O",
    "Deliverystatus": "Delivery",
    "divisionname": "Bardoli",
    "regionname": "Vadodara",
    "circlename": "Gujarat",
    "Taluk": "Vyara",
    "Districtname": "Surat",
    "statename": "GUJARAT"
  },
  {
    "pincode": "394655",
    "officename": "Dolara B.O",
    "officeType": "B.O",
    "Deliverystatus": "Delivery",
    "divisionname": "Bardoli",
    "regionname": "Vadodara",
    "circlename": "Gujarat",
    "Taluk": "Vyara",
    "Districtname": "Surat",
    "statename": "GUJARAT"
  },
  {
    "pincode": "394655",
    "officename": "Kanjan B.O",
    "officeType": "B.O",
    "Deliverystatus": "Delivery",
    "divisionname": "Bardoli",
    "regionname": "Vadodara",
    "circlename": "Gujarat",
    "Taluk": "Vyara",
    "Districtname": "Surat",
    "statename": "GUJARAT"
  },
  {
    "pincode": "394655",
    "officename": "Kapura S.O",
    "officeType": "S.O",
    "Deliverystatus": "Delivery",
    "divisionname": "Bardoli",
    "regionname": "Vadodara",
    "circlename": "Gujarat",
    "Taluk": "Vyara",
    "Districtname": "Tapi",
    "statename": "GUJARAT"
  },
  {
    "pincode": "394655",
    "officename": "Karanjvel B.O",
    "officeType": "B.O",
    "Deliverystatus": "Delivery",
    "divisionname": "Bardoli",
    "regionname": "Vadodara",
    "circlename": "Gujarat",
    "Taluk": "Vyara",
    "Districtname": "Surat",
    "statename": "GUJARAT"
  },
  {
    "pincode": "394655",
    "officename": "Khurdi B.O",
    "officeType": "B.O",
    "Deliverystatus": "Delivery",
    "divisionname": "Bardoli",
    "regionname": "Vadodara",
    "circlename": "Gujarat",
    "Taluk": "Vyara",
    "Districtname": "Surat",
    "statename": "GUJARAT"
  },
  {
    "pincode": "394655",
    "officename": "Khutadia B.O",
    "officeType": "B.O",
    "Deliverystatus": "Delivery",
    "divisionname": "Bardoli",
    "regionname": "Vadodara",
    "circlename": "Gujarat",
    "Taluk": "Vyara",
    "Districtname": "Surat",
    "statename": "GUJARAT"
  },
  {
    "pincode": "394655",
    "officename": "Lakhali B.O",
    "officeType": "B.O",
    "Deliverystatus": "Delivery",
    "divisionname": "Bardoli",
    "regionname": "Vadodara",
    "circlename": "Gujarat",
    "Taluk": "Vyara",
    "Districtname": "Surat",
    "statename": "GUJARAT"
  },
  {
    "pincode": "394655",
    "officename": "Magarkui B.O",
    "officeType": "B.O",
    "Deliverystatus": "Delivery",
    "divisionname": "Bardoli",
    "regionname": "Vadodara",
    "circlename": "Gujarat",
    "Taluk": "Vyara",
    "Districtname": "Surat",
    "statename": "GUJARAT"
  },
  {
    "pincode": "394655",
    "officename": "Mirpur B.O",
    "officeType": "B.O",
    "Deliverystatus": "Delivery",
    "divisionname": "Bardoli",
    "regionname": "Vadodara",
    "circlename": "Gujarat",
    "Taluk": "Vyara",
    "Districtname": "Surat",
    "statename": "GUJARAT"
  },
  {
    "pincode": "394655",
    "officename": "Raniamba B.O",
    "officeType": "B.O",
    "Deliverystatus": "Delivery",
    "divisionname": "Bardoli",
    "regionname": "Vadodara",
    "circlename": "Gujarat",
    "Taluk": "Vyara",
    "Districtname": "Surat",
    "statename": "GUJARAT"
  },
  {
    "pincode": "394655",
    "officename": "Sankli B.O",
    "officeType": "B.O",
    "Deliverystatus": "Delivery",
    "divisionname": "Bardoli",
    "regionname": "Vadodara",
    "circlename": "Gujarat",
    "Taluk": "Vyara",
    "Districtname": "Surat",
    "statename": "GUJARAT"
  },
  {
    "pincode": "394655",
    "officename": "Zankhari B.O",
    "officeType": "B.O",
    "Deliverystatus": "Delivery",
    "divisionname": "Bardoli",
    "regionname": "Vadodara",
    "circlename": "Gujarat",
    "Taluk": "Vyara",
    "Districtname": "Surat",
    "statename": "GUJARAT"
  }
]
