[
  {
    "pincode": "394651",
    "officename": "Agasvan B.O",
    "officeType": "B.O",
    "Deliverystatus": "Delivery",
    "divisionname": "Bardoli",
    "regionname": "Vadodara",
    "circlename": "Gujarat",
    "Taluk": "Songadh",
    "Districtname": "Surat",
    "statename": "GUJARAT"
  },
  {
    "pincode": "394651",
    "officename": "Anumala S.O",
    "officeType": "S.O",
    "Deliverystatus": "Delivery",
    "divisionname": "Bardoli",
    "regionname": "Vadodara",
    "circlename": "Gujarat",
    "Taluk": "Vyara",
    "Districtname": "Tapi",
    "statename": "GUJARAT"
  },
  {
    "pincode": "394651",
    "officename": "Ghata B.O",
    "officeType": "B.O",
    "Deliverystatus": "Delivery",
    "divisionname": "Bardoli",
    "regionname": "Vadodara",
    "circlename": "Gujarat",
    "Taluk": "Vyara",
    "Districtname": "Surat",
    "statename": "GUJARAT"
  },
  {
    "pincode": "394651",
    "officename": "Khodtalav B.O",
    "officeType": "B.O",
    "Deliverystatus": "Delivery",
    "divisionname": "Bardoli",
    "regionname": "Vadodara",
    "circlename": "Gujarat",
    "Taluk": "Vyara",
    "Districtname": "Surat",
    "statename": "GUJARAT"
  },
  {
    "pincode": "394651",
    "officename": "Limberda B.O",
    "officeType": "B.O",
    "Deliverystatus": "Delivery",
    "divisionname": "Bardoli",
    "regionname": "Vadodara",
    "circlename": "Gujarat",
    "Taluk": "Vyara",
    "Districtname": "Surat",
    "statename": "GUJARAT"
  },
  {
    "pincode": "394651",
    "officename": "Moticheir B.O",
    "officeType": "B.O",
    "Deliverystatus": "Delivery",
    "divisionname": "Bardoli",
    "regionname": "Vadodara",
    "circlename": "Gujarat",
    "Taluk": "Mandvi",
    "Districtname": "Surat",
    "statename": "GUJARAT"
  },
  {
    "pincode": "394651",
    "officename": "Sisor B.O",
    "officeType": "B.O",
    "Deliverystatus": "Delivery",
    "divisionname": "Bardoli",
    "regionname": "Vadodara",
    "circlename": "Gujarat",
    "Taluk": "Songadh",
    "Districtname": "Surat",
    "statename": "GUJARAT"
  },
  {
    "pincode": "394651",
    "officename": "Unchamala B.O",
    "officeType": "B.O",
    "Deliverystatus": "Delivery",
    "divisionname": "Bardoli",
    "regionname": "Vadodara",
    "circlename": "Gujarat",
    "Taluk": "Vyara",
    "Districtname": "Surat",
    "statename": "GUJARAT"
  },
  {
    "pincode": "394651",
    "officename": "Vadkui B.O",
    "officeType": "B.O",
    "Deliverystatus": "Delivery",
    "divisionname": "Bardoli",
    "regionname": "Vadodara",
    "circlename": "Gujarat",
    "Taluk": "Vyara",
    "Districtname": "Tapi",
    "statename": "GUJARAT"
  },
  {
    "pincode": "394651",
    "officename": "Vanskui B.O",
    "officeType": "B.O",
    "Deliverystatus": "Delivery",
    "divisionname": "Bardoli",
    "regionname": "Vadodara",
    "circlename": "Gujarat",
    "Taluk": "Vyara",
    "Districtname": "Surat",
    "statename": "GUJARAT"
  },
  {
    "pincode": "394651",
    "officename": "Vanzarda B.O",
    "officeType": "B.O",
    "Deliverystatus": "Delivery",
    "divisionname": "Bardoli",
    "regionname": "Vadodara",
    "circlename": "Gujarat",
    "Taluk": "Songadh",
    "Districtname": "Surat",
    "statename": "GUJARAT"
  }
]
