[
  {
    "pincode": "394620",
    "officename": "Afva Isroli B.O",
    "officeType": "B.O",
    "Deliverystatus": "Delivery",
    "divisionname": "Bardoli",
    "regionname": "Vadodara",
    "circlename": "Gujarat",
    "Taluk": "Bardoli",
    "Districtname": "Surat",
    "statename": "GUJARAT"
  },
  {
    "pincode": "394620",
    "officename": "Allu B.O",
    "officeType": "B.O",
    "Deliverystatus": "Delivery",
    "divisionname": "Bardoli",
    "regionname": "Vadodara",
    "circlename": "Gujarat",
    "Taluk": "Bardoli",
    "Districtname": "Surat",
    "statename": "GUJARAT"
  },
  {
    "pincode": "394620",
    "officename": "Delvada B.O",
    "officeType": "B.O",
    "Deliverystatus": "Delivery",
    "divisionname": "Bardoli",
    "regionname": "Vadodara",
    "circlename": "Gujarat",
    "Taluk": "Valod",
    "Districtname": "Surat",
    "statename": "GUJARAT"
  },
  {
    "pincode": "394620",
    "officename": "Kikwad B.O",
    "officeType": "B.O",
    "Deliverystatus": "Delivery",
    "divisionname": "Bardoli",
    "regionname": "Vadodara",
    "circlename": "Gujarat",
    "Taluk": "Bardoli",
    "Districtname": "Surat",
    "statename": "GUJARAT"
  },
  {
    "pincode": "394620",
    "officename": "Pathran B.O",
    "officeType": "B.O",
    "Deliverystatus": "Delivery",
    "divisionname": "Bardoli",
    "regionname": "Vadodara",
    "circlename": "Gujarat",
    "Taluk": "Mahuva",
    "Districtname": "Surat",
    "statename": "GUJARAT"
  },
  {
    "pincode": "394620",
    "officename": "Sejvad B.O",
    "officeType": "B.O",
    "Deliverystatus": "Delivery",
    "divisionname": "Bardoli",
    "regionname": "Vadodara",
    "circlename": "Gujarat",
    "Taluk": "Bardoli",
    "Districtname": "Surat",
    "statename": "GUJARAT"
  },
  {
    "pincode": "394620",
    "officename": "Siker B.O",
    "officeType": "B.O",
    "Deliverystatus": "Delivery",
    "divisionname": "Bardoli",
    "regionname": "Vadodara",
    "circlename": "Gujarat",
    "Taluk": "Valod",
    "Districtname": "Surat",
    "statename": "GUJARAT"
  },
  {
    "pincode": "394620",
    "officename": "Vankaner (SR) S.O",
    "officeType": "S.O",
    "Deliverystatus": "Delivery",
    "divisionname": "Bardoli",
    "regionname": "Vadodara",
    "circlename": "Gujarat",
    "Taluk": "Bardoli",
    "Districtname": "Surat",
    "statename": "GUJARAT"
  }
]
