[
  {
    "pincode": "394715",
    "officename": "Bardipada B.O",
    "officeType": "B.O",
    "Deliverystatus": "Delivery",
    "divisionname": "Bardoli",
    "regionname": "Vadodara",
    "circlename": "Gujarat",
    "Taluk": "Ahwa",
    "Districtname": "Surat",
    "statename": "GUJARAT"
  },
  {
    "pincode": "394715",
    "officename": "Bhalkhet B.O",
    "officeType": "B.O",
    "Deliverystatus": "Delivery",
    "divisionname": "Bardoli",
    "regionname": "Vadodara",
    "circlename": "Gujarat",
    "Taluk": "Ahwa",
    "Districtname": "Surat",
    "statename": "GUJARAT"
  },
  {
    "pincode": "394715",
    "officename": "Chinchinagaontha B.O",
    "officeType": "B.O",
    "Deliverystatus": "Delivery",
    "divisionname": "Bardoli",
    "regionname": "Vadodara",
    "circlename": "Gujarat",
    "Taluk": "Ahwa",
    "Districtname": "Surat",
    "statename": "GUJARAT"
  },
  {
    "pincode": "394715",
    "officename": "Kalibel B.O",
    "officeType": "B.O",
    "Deliverystatus": "Delivery",
    "divisionname": "Bardoli",
    "regionname": "Vadodara",
    "circlename": "Gujarat",
    "Taluk": "Ahwa",
    "Districtname": "Surat",
    "statename": "GUJARAT"
  },
  {
    "pincode": "394715",
    "officename": "Khatal B.O",
    "officeType": "B.O",
    "Deliverystatus": "Delivery",
    "divisionname": "Bardoli",
    "regionname": "Vadodara",
    "circlename": "Gujarat",
    "Taluk": "Ahwa",
    "Districtname": "Surat",
    "statename": "GUJARAT"
  },
  {
    "pincode": "394715",
    "officename": "Kosimda B.O",
    "officeType": "B.O",
    "Deliverystatus": "Delivery",
    "divisionname": "Bardoli",
    "regionname": "Vadodara",
    "circlename": "Gujarat",
    "Taluk": "",
    "Districtname": "Surat",
    "statename": "GUJARAT"
  },
  {
    "pincode": "394715",
    "officename": "Mahwshkatri B.O",
    "officeType": "B.O",
    "Deliverystatus": "Delivery",
    "divisionname": "Bardoli",
    "regionname": "Vadodara",
    "circlename": "Gujarat",
    "Taluk": "The Dangs",
    "Districtname": "The Dangs",
    "statename": "GUJARAT"
  },
  {
    "pincode": "394715",
    "officename": "Pimpri S.O",
    "officeType": "S.O",
    "Deliverystatus": "Delivery",
    "divisionname": "Bardoli",
    "regionname": "Vadodara",
    "circlename": "Gujarat",
    "Taluk": "Ahwa",
    "Districtname": "The Dangs",
    "statename": "GUJARAT"
  },
  {
    "pincode": "394715",
    "officename": "Sarovar B.O",
    "officeType": "B.O",
    "Deliverystatus": "Delivery",
    "divisionname": "Bardoli",
    "regionname": "Vadodara",
    "circlename": "Gujarat",
    "Taluk": "Ahwa",
    "Districtname": "Surat",
    "statename": "GUJARAT"
  }
]
