[
  {
    "pincode": "394716",
    "officename": "Kadmal B.O",
    "officeType": "B.O",
    "Deliverystatus": "Delivery",
    "divisionname": "Bardoli",
    "regionname": "Vadodara",
    "circlename": "Gujarat",
    "Taluk": "Dang",
    "Districtname": "The Dangs",
    "statename": "GUJARAT"
  },
  {
    "pincode": "394716",
    "officename": "Keshbandh B.O",
    "officeType": "B.O",
    "Deliverystatus": "Delivery",
    "divisionname": "Bardoli",
    "regionname": "Vadodara",
    "circlename": "Gujarat",
    "Taluk": "Dang",
    "Districtname": "The Dangs",
    "statename": "GUJARAT"
  },
  {
    "pincode": "394716",
    "officename": "Khambhala B.O",
    "officeType": "B.O",
    "Deliverystatus": "Delivery",
    "divisionname": "Bardoli",
    "regionname": "Vadodara",
    "circlename": "Gujarat",
    "Taluk": "Dang",
    "Districtname": "The Dangs",
    "statename": "GUJARAT"
  },
  {
    "pincode": "394716",
    "officename": "Lavchali B.O",
    "officeType": "B.O",
    "Deliverystatus": "Delivery",
    "divisionname": "Bardoli",
    "regionname": "Vadodara",
    "circlename": "Gujarat",
    "Taluk": "Dang",
    "Districtname": "The Dangs",
    "statename": "GUJARAT"
  },
  {
    "pincode": "394716",
    "officename": "Mahal B.O",
    "officeType": "B.O",
    "Deliverystatus": "Delivery",
    "divisionname": "Bardoli",
    "regionname": "Vadodara",
    "circlename": "Gujarat",
    "Taluk": "Dang",
    "Districtname": "The Dangs",
    "statename": "GUJARAT"
  },
  {
    "pincode": "394716",
    "officename": "Malangdev B.O",
    "officeType": "B.O",
    "Deliverystatus": "Delivery",
    "divisionname": "Bardoli",
    "regionname": "Vadodara",
    "circlename": "Gujarat",
    "Taluk": "Songadh",
    "Districtname": "Surat",
    "statename": "GUJARAT"
  },
  {
    "pincode": "394716",
    "officename": "Nishana B.O",
    "officeType": "B.O",
    "Deliverystatus": "Delivery",
    "divisionname": "Bardoli",
    "regionname": "Vadodara",
    "circlename": "Gujarat",
    "Taluk": "Dang",
    "Districtname": "The Dangs",
    "statename": "GUJARAT"
  },
  {
    "pincode": "394716",
    "officename": "Pipaldahad B.O",
    "officeType": "B.O",
    "Deliverystatus": "Delivery",
    "divisionname": "Bardoli",
    "regionname": "Vadodara",
    "circlename": "Gujarat",
    "Taluk": "Dang",
    "Districtname": "Surat",
    "statename": "GUJARAT"
  },
  {
    "pincode": "394716",
    "officename": "Piplaidevi B.O",
    "officeType": "B.O",
    "Deliverystatus": "Delivery",
    "divisionname": "Bardoli",
    "regionname": "Vadodara",
    "circlename": "Gujarat",
    "Taluk": "Dang",
    "Districtname": "The Dangs",
    "statename": "GUJARAT"
  },
  {
    "pincode": "394716",
    "officename": "Singana B.O",
    "officeType": "B.O",
    "Deliverystatus": "Delivery",
    "divisionname": "Bardoli",
    "regionname": "Vadodara",
    "circlename": "Gujarat",
    "Taluk": "Dang",
    "Districtname": "The Dangs",
    "statename": "GUJARAT"
  },
  {
    "pincode": "394716",
    "officename": "Subir S.O",
    "officeType": "S.O",
    "Deliverystatus": "Delivery",
    "divisionname": "Bardoli",
    "regionname": "Vadodara",
    "circlename": "Gujarat",
    "Taluk": "Ahwa",
    "Districtname": "The Dangs",
    "statename": "GUJARAT"
  },
  {
    "pincode": "394716",
    "officename": "Tanklipada B.O",
    "officeType": "B.O",
    "Deliverystatus": "Delivery",
    "divisionname": "Bardoli",
    "regionname": "Vadodara",
    "circlename": "Gujarat",
    "Taluk": "Dang",
    "Districtname": "The Dangs",
    "statename": "GUJARAT"
  }
]
