[
  {
    "pincode": "396055",
    "officename": "Anjlav B.O",
    "officeType": "B.O",
    "Deliverystatus": "Delivery",
    "divisionname": "Valsad",
    "regionname": "Vadodara",
    "circlename": "Gujarat",
    "Taluk": "Valsad",
    "Districtname": "Valsad",
    "statename": "GUJARAT"
  },
  {
    "pincode": "396055",
    "officename": "Bhutsar B.O",
    "officeType": "B.O",
    "Deliverystatus": "Delivery",
    "divisionname": "Valsad",
    "regionname": "Vadodara",
    "circlename": "Gujarat",
    "Taluk": "Valsad",
    "Districtname": "Valsad",
    "statename": "GUJARAT"
  },
  {
    "pincode": "396055",
    "officename": "Bodlai B.O",
    "officeType": "B.O",
    "Deliverystatus": "Delivery",
    "divisionname": "Valsad",
    "regionname": "Vadodara",
    "circlename": "Gujarat",
    "Taluk": "Valsad",
    "Districtname": "Valsad",
    "statename": "GUJARAT"
  },
  {
    "pincode": "396055",
    "officename": "Gadaria B.O",
    "officeType": "B.O",
    "Deliverystatus": "Delivery",
    "divisionname": "Valsad",
    "regionname": "Vadodara",
    "circlename": "Gujarat",
    "Taluk": "Valsad",
    "Districtname": "Valsad",
    "statename": "GUJARAT"
  },
  {
    "pincode": "396055",
    "officename": "Kamparia B.O",
    "officeType": "B.O",
    "Deliverystatus": "Delivery",
    "divisionname": "Valsad",
    "regionname": "Vadodara",
    "circlename": "Gujarat",
    "Taluk": "Valsad",
    "Districtname": "Valsad",
    "statename": "GUJARAT"
  },
  {
    "pincode": "396055",
    "officename": "Kanjan Hari B.O",
    "officeType": "B.O",
    "Deliverystatus": "Delivery",
    "divisionname": "Valsad",
    "regionname": "Vadodara",
    "circlename": "Gujarat",
    "Taluk": "Valsad",
    "Districtname": "Valsad",
    "statename": "GUJARAT"
  },
  {
    "pincode": "396055",
    "officename": "Kanjan Ranchhod B.O",
    "officeType": "B.O",
    "Deliverystatus": "Delivery",
    "divisionname": "Valsad",
    "regionname": "Vadodara",
    "circlename": "Gujarat",
    "Taluk": "Valsad",
    "Districtname": "Valsad",
    "statename": "GUJARAT"
  },
  {
    "pincode": "396055",
    "officename": "Marla B.O",
    "officeType": "B.O",
    "Deliverystatus": "Delivery",
    "divisionname": "Valsad",
    "regionname": "Vadodara",
    "circlename": "Gujarat",
    "Taluk": "Valsad",
    "Districtname": "Valsad",
    "statename": "GUJARAT"
  },
  {
    "pincode": "396055",
    "officename": "Navera B.O",
    "officeType": "B.O",
    "Deliverystatus": "Delivery",
    "divisionname": "Valsad",
    "regionname": "Vadodara",
    "circlename": "Gujarat",
    "Taluk": "Valsad",
    "Districtname": "Valsad",
    "statename": "GUJARAT"
  },
  {
    "pincode": "396055",
    "officename": "Ozar B.O",
    "officeType": "B.O",
    "Deliverystatus": "Delivery",
    "divisionname": "Valsad",
    "regionname": "Vadodara",
    "circlename": "Gujarat",
    "Taluk": "Valsad",
    "Districtname": "Valsad",
    "statename": "GUJARAT"
  },
  {
    "pincode": "396055",
    "officename": "Rabda B.O",
    "officeType": "B.O",
    "Deliverystatus": "Delivery",
    "divisionname": "Valsad",
    "regionname": "Vadodara",
    "circlename": "Gujarat",
    "Taluk": "Valsad",
    "Districtname": "Valsad",
    "statename": "GUJARAT"
  },
  {
    "pincode": "396055",
    "officename": "Ronvel S.O",
    "officeType": "S.O",
    "Deliverystatus": "Delivery",
    "divisionname": "Valsad",
    "regionname": "Vadodara",
    "circlename": "Gujarat",
    "Taluk": "Valsad",
    "Districtname": "Valsad",
    "statename": "GUJARAT"
  }
]
