[
  {
    "pincode": "396007",
    "officename": "Atak Pardi B.O",
    "officeType": "B.O",
    "Deliverystatus": "Delivery",
    "divisionname": "Valsad",
    "regionname": "Vadodara",
    "circlename": "Gujarat",
    "Taluk": "Valsad",
    "Districtname": "Valsad",
    "statename": "GUJARAT"
  },
  {
    "pincode": "396007",
    "officename": "Dulsad B.O",
    "officeType": "B.O",
    "Deliverystatus": "Delivery",
    "divisionname": "Valsad",
    "regionname": "Vadodara",
    "circlename": "Gujarat",
    "Taluk": "Valsad",
    "Districtname": "Valsad",
    "statename": "GUJARAT"
  },
  {
    "pincode": "396007",
    "officename": "Faldhara B.O",
    "officeType": "B.O",
    "Deliverystatus": "Delivery",
    "divisionname": "Valsad",
    "regionname": "Vadodara",
    "circlename": "Gujarat",
    "Taluk": "Valsad",
    "Districtname": "Valsad",
    "statename": "GUJARAT"
  },
  {
    "pincode": "396007",
    "officename": "Jujwa B.O",
    "officeType": "B.O",
    "Deliverystatus": "Delivery",
    "divisionname": "Valsad",
    "regionname": "Vadodara",
    "circlename": "Gujarat",
    "Taluk": "Valsad",
    "Districtname": "Valsad",
    "statename": "GUJARAT"
  },
  {
    "pincode": "396007",
    "officename": "Kachigam B.O",
    "officeType": "B.O",
    "Deliverystatus": "Delivery",
    "divisionname": "Valsad",
    "regionname": "Vadodara",
    "circlename": "Gujarat",
    "Taluk": "Valsad",
    "Districtname": "Valsad",
    "statename": "GUJARAT"
  },
  {
    "pincode": "396007",
    "officename": "Kakadmati B.O",
    "officeType": "B.O",
    "Deliverystatus": "Delivery",
    "divisionname": "Valsad",
    "regionname": "Vadodara",
    "circlename": "Gujarat",
    "Taluk": "Valsad",
    "Districtname": "Valsad",
    "statename": "GUJARAT"
  },
  {
    "pincode": "396007",
    "officename": "Kosamba (Valsad) B.O",
    "officeType": "B.O",
    "Deliverystatus": "Delivery",
    "divisionname": "Valsad",
    "regionname": "Vadodara",
    "circlename": "Gujarat",
    "Taluk": "Valsad",
    "Districtname": "Valsad",
    "statename": "GUJARAT"
  },
  {
    "pincode": "396007",
    "officename": "Kurgam B.O",
    "officeType": "B.O",
    "Deliverystatus": "Delivery",
    "divisionname": "Valsad",
    "regionname": "Vadodara",
    "circlename": "Gujarat",
    "Taluk": "Dharampur",
    "Districtname": "Valsad",
    "statename": "GUJARAT"
  },
  {
    "pincode": "396007",
    "officename": "Parnera Pardi B.O",
    "officeType": "B.O",
    "Deliverystatus": "Delivery",
    "divisionname": "Valsad",
    "regionname": "Vadodara",
    "circlename": "Gujarat",
    "Taluk": "Valsad",
    "Districtname": "Valsad",
    "statename": "GUJARAT"
  },
  {
    "pincode": "396007",
    "officename": "Segvi B.O",
    "officeType": "B.O",
    "Deliverystatus": "Delivery",
    "divisionname": "Valsad",
    "regionname": "Vadodara",
    "circlename": "Gujarat",
    "Taluk": "Valsad",
    "Districtname": "Valsad",
    "statename": "GUJARAT"
  },
  {
    "pincode": "396007",
    "officename": "Surwada B.O",
    "officeType": "B.O",
    "Deliverystatus": "Delivery",
    "divisionname": "Valsad",
    "regionname": "Vadodara",
    "circlename": "Gujarat",
    "Taluk": "Valsad",
    "Districtname": "Valsad",
    "statename": "GUJARAT"
  },
  {
    "pincode": "396007",
    "officename": "Valsad - Vankal B.O",
    "officeType": "B.O",
    "Deliverystatus": "Delivery",
    "divisionname": "Valsad",
    "regionname": "Vadodara",
    "circlename": "Gujarat",
    "Taluk": "Valsad",
    "Districtname": "Valsad",
    "statename": "GUJARAT"
  },
  {
    "pincode": "396007",
    "officename": "Valsad Sugar Factory S.O",
    "officeType": "S.O",
    "Deliverystatus": "Delivery",
    "divisionname": "Valsad",
    "regionname": "Vadodara",
    "circlename": "Gujarat",
    "Taluk": "Valsad",
    "Districtname": "Valsad",
    "statename": "GUJARAT"
  },
  {
    "pincode": "396007",
    "officename": "Velvach B.O",
    "officeType": "B.O",
    "Deliverystatus": "Delivery",
    "divisionname": "Valsad",
    "regionname": "Vadodara",
    "circlename": "Gujarat",
    "Taluk": "Valsad",
    "Districtname": "Valsad",
    "statename": "GUJARAT"
  }
]
