[
  {
    "pincode": "396050",
    "officename": "Asura B.O",
    "officeType": "B.O",
    "Deliverystatus": "Delivery",
    "divisionname": "Valsad",
    "regionname": "Vadodara",
    "circlename": "Gujarat",
    "Taluk": "Dharampur",
    "Districtname": "Valsad",
    "statename": "GUJARAT"
  },
  {
    "pincode": "396050",
    "officename": "Avdha B.O",
    "officeType": "B.O",
    "Deliverystatus": "Delivery",
    "divisionname": "Valsad",
    "regionname": "Vadodara",
    "circlename": "Gujarat",
    "Taluk": "Dharampur",
    "Districtname": "Valsad",
    "statename": "GUJARAT"
  },
  {
    "pincode": "396050",
    "officename": "Bamti B.O",
    "officeType": "B.O",
    "Deliverystatus": "Delivery",
    "divisionname": "Valsad",
    "regionname": "Vadodara",
    "circlename": "Gujarat",
    "Taluk": "Dharampur",
    "Districtname": "Valsad",
    "statename": "GUJARAT"
  },
  {
    "pincode": "396050",
    "officename": "Baroliya B.O",
    "officeType": "B.O",
    "Deliverystatus": "Delivery",
    "divisionname": "Valsad",
    "regionname": "Vadodara",
    "circlename": "Gujarat",
    "Taluk": "Dharampur",
    "Districtname": "Valsad",
    "statename": "GUJARAT"
  },
  {
    "pincode": "396050",
    "officename": "Barsol B.O",
    "officeType": "B.O",
    "Deliverystatus": "Delivery",
    "divisionname": "Valsad",
    "regionname": "Vadodara",
    "circlename": "Gujarat",
    "Taluk": "Dharampur",
    "Districtname": "Valsad",
    "statename": "GUJARAT"
  },
  {
    "pincode": "396050",
    "officename": "Barumal B.O",
    "officeType": "B.O",
    "Deliverystatus": "Delivery",
    "divisionname": "Valsad",
    "regionname": "Vadodara",
    "circlename": "Gujarat",
    "Taluk": "Dharampur",
    "Districtname": "Valsad",
    "statename": "GUJARAT"
  },
  {
    "pincode": "396050",
    "officename": "Bhambha B.O",
    "officeType": "B.O",
    "Deliverystatus": "Delivery",
    "divisionname": "Valsad",
    "regionname": "Vadodara",
    "circlename": "Gujarat",
    "Taluk": "Dharampur",
    "Districtname": "Valsad",
    "statename": "GUJARAT"
  },
  {
    "pincode": "396050",
    "officename": "Bhensdara B.O",
    "officeType": "B.O",
    "Deliverystatus": "Delivery",
    "divisionname": "Valsad",
    "regionname": "Vadodara",
    "circlename": "Gujarat",
    "Taluk": "Dharampur",
    "Districtname": "Valsad",
    "statename": "GUJARAT"
  },
  {
    "pincode": "396050",
    "officename": "Bilpudi B.O",
    "officeType": "B.O",
    "Deliverystatus": "Delivery",
    "divisionname": "Valsad",
    "regionname": "Vadodara",
    "circlename": "Gujarat",
    "Taluk": "Dharampur",
    "Districtname": "Valsad",
    "statename": "GUJARAT"
  },
  {
    "pincode": "396050",
    "officename": "Chichozar B.O",
    "officeType": "B.O",
    "Deliverystatus": "Delivery",
    "divisionname": "Valsad",
    "regionname": "Vadodara",
    "circlename": "Gujarat",
    "Taluk": "Dharampur",
    "Districtname": "Valsad",
    "statename": "GUJARAT"
  },
  {
    "pincode": "396050",
    "officename": "Dhamani B.O",
    "officeType": "B.O",
    "Deliverystatus": "Delivery",
    "divisionname": "Valsad",
    "regionname": "Vadodara",
    "circlename": "Gujarat",
    "Taluk": "Dharampur",
    "Districtname": "Valsad",
    "statename": "GUJARAT"
  },
  {
    "pincode": "396050",
    "officename": "Dharampur S.O (Valsad)",
    "officeType": "S.O",
    "Deliverystatus": "Delivery",
    "divisionname": "Valsad",
    "regionname": "Vadodara",
    "circlename": "Gujarat",
    "Taluk": "Dharampur",
    "Districtname": "Valsad",
    "statename": "GUJARAT"
  },
  {
    "pincode": "396050",
    "officename": "Gundia B.O",
    "officeType": "B.O",
    "Deliverystatus": "Delivery",
    "divisionname": "Valsad",
    "regionname": "Vadodara",
    "circlename": "Gujarat",
    "Taluk": "Dharampur",
    "Districtname": "Valsad",
    "statename": "GUJARAT"
  },
  {
    "pincode": "396050",
    "officename": "Kharvel B.O",
    "officeType": "B.O",
    "Deliverystatus": "Delivery",
    "divisionname": "Valsad",
    "regionname": "Vadodara",
    "circlename": "Gujarat",
    "Taluk": "Dharampur",
    "Districtname": "Valsad",
    "statename": "GUJARAT"
  },
  {
    "pincode": "396050",
    "officename": "Kosamkuwa B.O",
    "officeType": "B.O",
    "Deliverystatus": "Delivery",
    "divisionname": "Valsad",
    "regionname": "Vadodara",
    "circlename": "Gujarat",
    "Taluk": "Dharampur",
    "Districtname": "Valsad",
    "statename": "GUJARAT"
  },
  {
    "pincode": "396050",
    "officename": "Makadban B.O",
    "officeType": "B.O",
    "Deliverystatus": "Delivery",
    "divisionname": "Valsad",
    "regionname": "Vadodara",
    "circlename": "Gujarat",
    "Taluk": "Dharampur",
    "Districtname": "Valsad",
    "statename": "GUJARAT"
  },
  {
    "pincode": "396050",
    "officename": "Pindval B.O",
    "officeType": "B.O",
    "Deliverystatus": "Delivery",
    "divisionname": "Valsad",
    "regionname": "Vadodara",
    "circlename": "Gujarat",
    "Taluk": "Dharampur",
    "Districtname": "Valsad",
    "statename": "GUJARAT"
  },
  {
    "pincode": "396050",
    "officename": "Sidumber B.O",
    "officeType": "B.O",
    "Deliverystatus": "Delivery",
    "divisionname": "Valsad",
    "regionname": "Vadodara",
    "circlename": "Gujarat",
    "Taluk": "Dharampur",
    "Districtname": "Valsad",
    "statename": "GUJARAT"
  },
  {
    "pincode": "396050",
    "officename": "Tiskari B.O",
    "officeType": "B.O",
    "Deliverystatus": "Delivery",
    "divisionname": "Valsad",
    "regionname": "Vadodara",
    "circlename": "Gujarat",
    "Taluk": "Dharampur",
    "Districtname": "Valsad",
    "statename": "GUJARAT"
  },
  {
    "pincode": "396050",
    "officename": "Ukta B.O",
    "officeType": "B.O",
    "Deliverystatus": "Delivery",
    "divisionname": "Valsad",
    "regionname": "Vadodara",
    "circlename": "Gujarat",
    "Taluk": "Dharampur",
    "Districtname": "Valsad",
    "statename": "GUJARAT"
  },
  {
    "pincode": "396050",
    "officename": "Veribhavada B.O",
    "officeType": "B.O",
    "Deliverystatus": "Delivery",
    "divisionname": "Valsad",
    "regionname": "Vadodara",
    "circlename": "Gujarat",
    "Taluk": "Dharampur",
    "Districtname": "Valsad",
    "statename": "GUJARAT"
  }
]
