[
  {
    "pincode": "396060",
    "officename": "Agasi B.O",
    "officeType": "B.O",
    "Deliverystatus": "Delivery",
    "divisionname": "Navsari",
    "regionname": "Vadodara",
    "circlename": "Gujarat",
    "Taluk": "Chikhli",
    "Districtname": "Navsari",
    "statename": "GUJARAT"
  },
  {
    "pincode": "396060",
    "officename": "Dhamdhuma B.O",
    "officeType": "B.O",
    "Deliverystatus": "Delivery",
    "divisionname": "Navsari",
    "regionname": "Vadodara",
    "circlename": "Gujarat",
    "Taluk": "Chikhli",
    "Districtname": "Navsari",
    "statename": "GUJARAT"
  },
  {
    "pincode": "396060",
    "officename": "Dholumber  (Chikhli) B.O",
    "officeType": "B.O",
    "Deliverystatus": "Delivery",
    "divisionname": "Navsari",
    "regionname": "Vadodara",
    "circlename": "Gujarat",
    "Taluk": "Chikhli",
    "Districtname": "Navsari",
    "statename": "GUJARAT"
  },
  {
    "pincode": "396060",
    "officename": "Ghodvani B.O",
    "officeType": "B.O",
    "Deliverystatus": "Delivery",
    "divisionname": "Navsari",
    "regionname": "Vadodara",
    "circlename": "Gujarat",
    "Taluk": "Chikhli",
    "Districtname": "Navsari",
    "statename": "GUJARAT"
  },
  {
    "pincode": "396060",
    "officename": "Gholar B.O",
    "officeType": "B.O",
    "Deliverystatus": "Delivery",
    "divisionname": "Navsari",
    "regionname": "Vadodara",
    "circlename": "Gujarat",
    "Taluk": "Chikhli",
    "Districtname": "Navsari",
    "statename": "GUJARAT"
  },
  {
    "pincode": "396060",
    "officename": "Godthalbo B.O",
    "officeType": "B.O",
    "Deliverystatus": "Delivery",
    "divisionname": "Navsari",
    "regionname": "Vadodara",
    "circlename": "Gujarat",
    "Taluk": "Chikhli",
    "Districtname": "Navsari",
    "statename": "GUJARAT"
  },
  {
    "pincode": "396060",
    "officename": "Kanbhai B.O",
    "officeType": "B.O",
    "Deliverystatus": "Delivery",
    "divisionname": "Navsari",
    "regionname": "Vadodara",
    "circlename": "Gujarat",
    "Taluk": "Chikhli",
    "Districtname": "Navsari",
    "statename": "GUJARAT"
  },
  {
    "pincode": "396060",
    "officename": "Kelia B.O",
    "officeType": "B.O",
    "Deliverystatus": "Delivery",
    "divisionname": "Navsari",
    "regionname": "Vadodara",
    "circlename": "Gujarat",
    "Taluk": "Vansda",
    "Districtname": "Navsari",
    "statename": "GUJARAT"
  },
  {
    "pincode": "396060",
    "officename": "Mandavkhadak B.O",
    "officeType": "B.O",
    "Deliverystatus": "Delivery",
    "divisionname": "Navsari",
    "regionname": "Vadodara",
    "circlename": "Gujarat",
    "Taluk": "Chikhli",
    "Districtname": "Navsari",
    "statename": "GUJARAT"
  },
  {
    "pincode": "396060",
    "officename": "Mogravadi B.O",
    "officeType": "B.O",
    "Deliverystatus": "Delivery",
    "divisionname": "Navsari",
    "regionname": "Vadodara",
    "circlename": "Gujarat",
    "Taluk": "Chikhli",
    "Districtname": "Navsari",
    "statename": "GUJARAT"
  },
  {
    "pincode": "396060",
    "officename": "Panikhadak B.O",
    "officeType": "B.O",
    "Deliverystatus": "Delivery",
    "divisionname": "Navsari",
    "regionname": "Vadodara",
    "circlename": "Gujarat",
    "Taluk": "Chikhli",
    "Districtname": "Navsari",
    "statename": "GUJARAT"
  },
  {
    "pincode": "396060",
    "officename": "Pipalkhed B.O",
    "officeType": "B.O",
    "Deliverystatus": "Delivery",
    "divisionname": "Navsari",
    "regionname": "Vadodara",
    "circlename": "Gujarat",
    "Taluk": "Vansda",
    "Districtname": "Navsari",
    "statename": "GUJARAT"
  },
  {
    "pincode": "396060",
    "officename": "Ravania B.O",
    "officeType": "B.O",
    "Deliverystatus": "Delivery",
    "divisionname": "Navsari",
    "regionname": "Vadodara",
    "circlename": "Gujarat",
    "Taluk": "Vansda",
    "Districtname": "Navsari",
    "statename": "GUJARAT"
  },
  {
    "pincode": "396060",
    "officename": "Rumla S.O",
    "officeType": "S.O",
    "Deliverystatus": "Delivery",
    "divisionname": "Navsari",
    "regionname": "Vadodara",
    "circlename": "Gujarat",
    "Taluk": "Chikhli",
    "Districtname": "Navsari",
    "statename": "GUJARAT"
  },
  {
    "pincode": "396060",
    "officename": "Zari(Chikhli) B.O",
    "officeType": "B.O",
    "Deliverystatus": "Delivery",
    "divisionname": "Navsari",
    "regionname": "Vadodara",
    "circlename": "Gujarat",
    "Taluk": "Chikhli",
    "Districtname": "Navsari",
    "statename": "GUJARAT"
  }
]
