[
  {
    "pincode": "396145",
    "officename": "Ambach (Paria) B.O",
    "officeType": "B.O",
    "Deliverystatus": "Delivery",
    "divisionname": "Valsad",
    "regionname": "Vadodara",
    "circlename": "Gujarat",
    "Taluk": "Pardi",
    "Districtname": "Valsad",
    "statename": "GUJARAT"
  },
  {
    "pincode": "396145",
    "officename": "Barai B.O",
    "officeType": "B.O",
    "Deliverystatus": "Delivery",
    "divisionname": "Valsad",
    "regionname": "Vadodara",
    "circlename": "Gujarat",
    "Taluk": "Pardi",
    "Districtname": "Valsad",
    "statename": "GUJARAT"
  },
  {
    "pincode": "396145",
    "officename": "Dumlav B.O",
    "officeType": "B.O",
    "Deliverystatus": "Delivery",
    "divisionname": "Valsad",
    "regionname": "Vadodara",
    "circlename": "Gujarat",
    "Taluk": "Pardi",
    "Districtname": "Valsad",
    "statename": "GUJARAT"
  },
  {
    "pincode": "396145",
    "officename": "Goima B.O",
    "officeType": "B.O",
    "Deliverystatus": "Delivery",
    "divisionname": "Valsad",
    "regionname": "Vadodara",
    "circlename": "Gujarat",
    "Taluk": "Pardi",
    "Districtname": "Valsad",
    "statename": "GUJARAT"
  },
  {
    "pincode": "396145",
    "officename": "Kherlav B.O",
    "officeType": "B.O",
    "Deliverystatus": "Delivery",
    "divisionname": "Valsad",
    "regionname": "Vadodara",
    "circlename": "Gujarat",
    "Taluk": "Pardi",
    "Districtname": "Valsad",
    "statename": "GUJARAT"
  },
  {
    "pincode": "396145",
    "officename": "Pardi Paria S.O",
    "officeType": "S.O",
    "Deliverystatus": "Delivery",
    "divisionname": "Valsad",
    "regionname": "Vadodara",
    "circlename": "Gujarat",
    "Taluk": "Pardi",
    "Districtname": "Valsad",
    "statename": "GUJARAT"
  },
  {
    "pincode": "396145",
    "officename": "Patel Faliya B.O",
    "officeType": "B.O",
    "Deliverystatus": "Delivery",
    "divisionname": "Valsad",
    "regionname": "Vadodara",
    "circlename": "Gujarat",
    "Taluk": "Pardi",
    "Districtname": "Valsad",
    "statename": "GUJARAT"
  },
  {
    "pincode": "396145",
    "officename": "Rohina B.O",
    "officeType": "B.O",
    "Deliverystatus": "Delivery",
    "divisionname": "Valsad",
    "regionname": "Vadodara",
    "circlename": "Gujarat",
    "Taluk": "Pardi",
    "Districtname": "Valsad",
    "statename": "GUJARAT"
  },
  {
    "pincode": "396145",
    "officename": "Tarmalia B.O",
    "officeType": "B.O",
    "Deliverystatus": "Delivery",
    "divisionname": "Valsad",
    "regionname": "Vadodara",
    "circlename": "Gujarat",
    "Taluk": "Pardi",
    "Districtname": "Valsad",
    "statename": "GUJARAT"
  }
]
