[
  {
    "pincode": "396125",
    "officename": "Amli B.O",
    "officeType": "B.O",
    "Deliverystatus": "Delivery",
    "divisionname": "Valsad",
    "regionname": "Vadodara",
    "circlename": "Gujarat",
    "Taluk": "Pardi",
    "Districtname": "Valsad",
    "statename": "GUJARAT"
  },
  {
    "pincode": "396125",
    "officename": "Asma B.O",
    "officeType": "B.O",
    "Deliverystatus": "Delivery",
    "divisionname": "Valsad",
    "regionname": "Vadodara",
    "circlename": "Gujarat",
    "Taluk": "Pardi",
    "Districtname": "Valsad",
    "statename": "GUJARAT"
  },
  {
    "pincode": "396125",
    "officename": "Balda B.O",
    "officeType": "B.O",
    "Deliverystatus": "Delivery",
    "divisionname": "Valsad",
    "regionname": "Vadodara",
    "circlename": "Gujarat",
    "Taluk": "Pardi",
    "Districtname": "Valsad",
    "statename": "GUJARAT"
  },
  {
    "pincode": "396125",
    "officename": "Killa Pardi S.O",
    "officeType": "S.O",
    "Deliverystatus": "Delivery",
    "divisionname": "Valsad",
    "regionname": "Vadodara",
    "circlename": "Gujarat",
    "Taluk": "Pardi",
    "Districtname": "Valsad",
    "statename": "GUJARAT"
  },
  {
    "pincode": "396125",
    "officename": "Kumbharia B.O",
    "officeType": "B.O",
    "Deliverystatus": "Delivery",
    "divisionname": "Valsad",
    "regionname": "Vadodara",
    "circlename": "Gujarat",
    "Taluk": "Pardi",
    "Districtname": "Valsad",
    "statename": "GUJARAT"
  },
  {
    "pincode": "396125",
    "officename": "Machhiwad B.O",
    "officeType": "B.O",
    "Deliverystatus": "Delivery",
    "divisionname": "Valsad",
    "regionname": "Vadodara",
    "circlename": "Gujarat",
    "Taluk": "Pardi",
    "Districtname": "Valsad",
    "statename": "GUJARAT"
  },
  {
    "pincode": "396125",
    "officename": "Pachlai B.O",
    "officeType": "B.O",
    "Deliverystatus": "Delivery",
    "divisionname": "Valsad",
    "regionname": "Vadodara",
    "circlename": "Gujarat",
    "Taluk": "Pardi",
    "Districtname": "Valsad",
    "statename": "GUJARAT"
  },
  {
    "pincode": "396125",
    "officename": "Pardi R.S. B.O",
    "officeType": "B.O",
    "Deliverystatus": "Delivery",
    "divisionname": "Valsad",
    "regionname": "Vadodara",
    "circlename": "Gujarat",
    "Taluk": "Pardi",
    "Districtname": "Valsad",
    "statename": "GUJARAT"
  },
  {
    "pincode": "396125",
    "officename": "Parwasa B.O",
    "officeType": "B.O",
    "Deliverystatus": "Delivery",
    "divisionname": "Valsad",
    "regionname": "Vadodara",
    "circlename": "Gujarat",
    "Taluk": "Pardi",
    "Districtname": "Valsad",
    "statename": "GUJARAT"
  },
  {
    "pincode": "396125",
    "officename": "Sondhal Wada B.O",
    "officeType": "B.O",
    "Deliverystatus": "Delivery",
    "divisionname": "Valsad",
    "regionname": "Vadodara",
    "circlename": "Gujarat",
    "Taluk": "Pardi",
    "Districtname": "Valsad",
    "statename": "GUJARAT"
  },
  {
    "pincode": "396125",
    "officename": "Sonwada B.O",
    "officeType": "B.O",
    "Deliverystatus": "Delivery",
    "divisionname": "Valsad",
    "regionname": "Vadodara",
    "circlename": "Gujarat",
    "Taluk": "Pardi",
    "Districtname": "Valsad",
    "statename": "GUJARAT"
  },
  {
    "pincode": "396125",
    "officename": "Sukesh B.O",
    "officeType": "B.O",
    "Deliverystatus": "Delivery",
    "divisionname": "Valsad",
    "regionname": "Vadodara",
    "circlename": "Gujarat",
    "Taluk": "Pardi",
    "Districtname": "Valsad",
    "statename": "GUJARAT"
  },
  {
    "pincode": "396125",
    "officename": "Sukhlav B.O",
    "officeType": "B.O",
    "Deliverystatus": "Delivery",
    "divisionname": "Valsad",
    "regionname": "Vadodara",
    "circlename": "Gujarat",
    "Taluk": "Pardi",
    "Districtname": "Valsad",
    "statename": "GUJARAT"
  },
  {
    "pincode": "396125",
    "officename": "Umarsadi B.O",
    "officeType": "B.O",
    "Deliverystatus": "Delivery",
    "divisionname": "Valsad",
    "regionname": "Vadodara",
    "circlename": "Gujarat",
    "Taluk": "Pardi",
    "Districtname": "Valsad",
    "statename": "GUJARAT"
  },
  {
    "pincode": "396125",
    "officename": "Vaghchhipa B.O",
    "officeType": "B.O",
    "Deliverystatus": "Delivery",
    "divisionname": "Valsad",
    "regionname": "Vadodara",
    "circlename": "Gujarat",
    "Taluk": "Pardi",
    "Districtname": "Valsad",
    "statename": "GUJARAT"
  },
  {
    "pincode": "396125",
    "officename": "Velparwa B.O",
    "officeType": "B.O",
    "Deliverystatus": "Delivery",
    "divisionname": "Valsad",
    "regionname": "Vadodara",
    "circlename": "Gujarat",
    "Taluk": "Pardi",
    "Districtname": "Valsad",
    "statename": "GUJARAT"
  }
]
