[
  {
    "pincode": "396375",
    "officename": "Dharasana B.O",
    "officeType": "B.O",
    "Deliverystatus": "Delivery",
    "divisionname": "Valsad",
    "regionname": "Vadodara",
    "circlename": "Gujarat",
    "Taluk": "Valsad",
    "Districtname": "Valsad",
    "statename": "GUJARAT"
  },
  {
    "pincode": "396375",
    "officename": "Dungri S.O (Valsad)",
    "officeType": "S.O",
    "Deliverystatus": "Delivery",
    "divisionname": "Valsad",
    "regionname": "Vadodara",
    "circlename": "Gujarat",
    "Taluk": "Dungri",
    "Districtname": "Valsad",
    "statename": "GUJARAT"
  },
  {
    "pincode": "396375",
    "officename": "Endergota B.O",
    "officeType": "B.O",
    "Deliverystatus": "Delivery",
    "divisionname": "Valsad",
    "regionname": "Vadodara",
    "circlename": "Gujarat",
    "Taluk": "Valsad",
    "Districtname": "Valsad",
    "statename": "GUJARAT"
  },
  {
    "pincode": "396375",
    "officename": "Gorgam B.O",
    "officeType": "B.O",
    "Deliverystatus": "Delivery",
    "divisionname": "Valsad",
    "regionname": "Vadodara",
    "circlename": "Gujarat",
    "Taluk": "Valsad",
    "Districtname": "Valsad",
    "statename": "GUJARAT"
  },
  {
    "pincode": "396375",
    "officename": "Jesia B.O",
    "officeType": "B.O",
    "Deliverystatus": "Delivery",
    "divisionname": "Valsad",
    "regionname": "Vadodara",
    "circlename": "Gujarat",
    "Taluk": "Valsad",
    "Districtname": "Valsad",
    "statename": "GUJARAT"
  },
  {
    "pincode": "396375",
    "officename": "Jespore B.O",
    "officeType": "B.O",
    "Deliverystatus": "Delivery",
    "divisionname": "Valsad",
    "regionname": "Vadodara",
    "circlename": "Gujarat",
    "Taluk": "Valsad",
    "Districtname": "Valsad",
    "statename": "GUJARAT"
  },
  {
    "pincode": "396375",
    "officename": "Kundi B.O",
    "officeType": "B.O",
    "Deliverystatus": "Delivery",
    "divisionname": "Valsad",
    "regionname": "Vadodara",
    "circlename": "Gujarat",
    "Taluk": "Valsad",
    "Districtname": "Valsad",
    "statename": "GUJARAT"
  },
  {
    "pincode": "396375",
    "officename": "Rola B.O",
    "officeType": "B.O",
    "Deliverystatus": "Delivery",
    "divisionname": "Valsad",
    "regionname": "Vadodara",
    "circlename": "Gujarat",
    "Taluk": "Valsad",
    "Districtname": "Valsad",
    "statename": "GUJARAT"
  },
  {
    "pincode": "396375",
    "officename": "Shankar Talav B.O",
    "officeType": "B.O",
    "Deliverystatus": "Delivery",
    "divisionname": "Valsad",
    "regionname": "Vadodara",
    "circlename": "Gujarat",
    "Taluk": "Valsad",
    "Districtname": "Valsad",
    "statename": "GUJARAT"
  },
  {
    "pincode": "396375",
    "officename": "Sonwada B.O",
    "officeType": "B.O",
    "Deliverystatus": "Delivery",
    "divisionname": "Valsad",
    "regionname": "Vadodara",
    "circlename": "Gujarat",
    "Taluk": "Valsad",
    "Districtname": "Valsad",
    "statename": "GUJARAT"
  },
  {
    "pincode": "396375",
    "officename": "Tighasa B.O",
    "officeType": "B.O",
    "Deliverystatus": "Delivery",
    "divisionname": "Valsad",
    "regionname": "Vadodara",
    "circlename": "Gujarat",
    "Taluk": "Valsad",
    "Districtname": "Valsad",
    "statename": "GUJARAT"
  },
  {
    "pincode": "396375",
    "officename": "Vaghaldhara B.O",
    "officeType": "B.O",
    "Deliverystatus": "Delivery",
    "divisionname": "Valsad",
    "regionname": "Vadodara",
    "circlename": "Gujarat",
    "Taluk": "Valsad",
    "Districtname": "Valsad",
    "statename": "GUJARAT"
  },
  {
    "pincode": "396375",
    "officename": "Vasan B.O",
    "officeType": "B.O",
    "Deliverystatus": "Delivery",
    "divisionname": "Valsad",
    "regionname": "Vadodara",
    "circlename": "Gujarat",
    "Taluk": "Valsad",
    "Districtname": "Valsad",
    "statename": "GUJARAT"
  }
]
