[
  {
    "pincode": "396350",
    "officename": "Gadat S.O (Navsari)",
    "officeType": "S.O",
    "Deliverystatus": "Delivery",
    "divisionname": "Navsari",
    "regionname": "Vadodara",
    "circlename": "Gujarat",
    "Taluk": "Gandevi",
    "Districtname": "Navsari",
    "statename": "GUJARAT"
  },
  {
    "pincode": "396350",
    "officename": "Ichhapore B.O",
    "officeType": "B.O",
    "Deliverystatus": "Delivery",
    "divisionname": "Navsari",
    "regionname": "Vadodara",
    "circlename": "Gujarat",
    "Taluk": "Gandevi",
    "Districtname": "Navsari",
    "statename": "GUJARAT"
  },
  {
    "pincode": "396350",
    "officename": "Khakhvada B.O",
    "officeType": "B.O",
    "Deliverystatus": "Delivery",
    "divisionname": "Navsari",
    "regionname": "Vadodara",
    "circlename": "Gujarat",
    "Taluk": "Gandevi",
    "Districtname": "Navsari",
    "statename": "GUJARAT"
  },
  {
    "pincode": "396350",
    "officename": "Kolva B.O",
    "officeType": "B.O",
    "Deliverystatus": "Delivery",
    "divisionname": "Navsari",
    "regionname": "Vadodara",
    "circlename": "Gujarat",
    "Taluk": "Gandevi",
    "Districtname": "Navsari",
    "statename": "GUJARAT"
  },
  {
    "pincode": "396350",
    "officename": "Manekpore(Gadat) B.O",
    "officeType": "B.O",
    "Deliverystatus": "Delivery",
    "divisionname": "Navsari",
    "regionname": "Vadodara",
    "circlename": "Gujarat",
    "Taluk": "Gandevi",
    "Districtname": "Navsari",
    "statename": "GUJARAT"
  },
  {
    "pincode": "396350",
    "officename": "Salej B.O",
    "officeType": "B.O",
    "Deliverystatus": "Delivery",
    "divisionname": "Navsari",
    "regionname": "Vadodara",
    "circlename": "Gujarat",
    "Taluk": "Gandevi",
    "Districtname": "Navsari",
    "statename": "GUJARAT"
  },
  {
    "pincode": "396350",
    "officename": "Sonvadi B.O",
    "officeType": "B.O",
    "Deliverystatus": "Delivery",
    "divisionname": "Navsari",
    "regionname": "Vadodara",
    "circlename": "Gujarat",
    "Taluk": "Gandevi",
    "Districtname": "Navsari",
    "statename": "GUJARAT"
  },
  {
    "pincode": "396350",
    "officename": "Vegam B.O",
    "officeType": "B.O",
    "Deliverystatus": "Delivery",
    "divisionname": "Navsari",
    "regionname": "Vadodara",
    "circlename": "Gujarat",
    "Taluk": "Gandevi",
    "Districtname": "Navsari",
    "statename": "GUJARAT"
  }
]
