[
  {
    "pincode": "396445",
    "officename": "Adada B.O",
    "officeType": "B.O",
    "Deliverystatus": "Delivery",
    "divisionname": "Navsari",
    "regionname": "Vadodara",
    "circlename": "Gujarat",
    "Taluk": "Navsari",
    "Districtname": "Navsari",
    "statename": "GUJARAT"
  },
  {
    "pincode": "396445",
    "officename": "Amadpore B.O",
    "officeType": "B.O",
    "Deliverystatus": "Delivery",
    "divisionname": "Navsari",
    "regionname": "Vadodara",
    "circlename": "Gujarat",
    "Taluk": "Navsari",
    "Districtname": "Navsari",
    "statename": "GUJARAT"
  },
  {
    "pincode": "396445",
    "officename": "Amli Kasba B.O",
    "officeType": "B.O",
    "Deliverystatus": "Delivery",
    "divisionname": "Navsari",
    "regionname": "Vadodara",
    "circlename": "Gujarat",
    "Taluk": "Navsari",
    "Districtname": "Navsari",
    "statename": "GUJARAT"
  },
  {
    "pincode": "396445",
    "officename": "Bodali B.O",
    "officeType": "B.O",
    "Deliverystatus": "Delivery",
    "divisionname": "Navsari",
    "regionname": "Vadodara",
    "circlename": "Gujarat",
    "Taluk": "Jalalpore",
    "Districtname": "Navsari",
    "statename": "GUJARAT"
  },
  {
    "pincode": "396445",
    "officename": "Chhapra B.O",
    "officeType": "B.O",
    "Deliverystatus": "Delivery",
    "divisionname": "Navsari",
    "regionname": "Vadodara",
    "circlename": "Gujarat",
    "Taluk": "Navsari",
    "Districtname": "Navsari",
    "statename": "GUJARAT"
  },
  {
    "pincode": "396445",
    "officename": "Hansapore B.O",
    "officeType": "B.O",
    "Deliverystatus": "Delivery",
    "divisionname": "Navsari",
    "regionname": "Vadodara",
    "circlename": "Gujarat",
    "Taluk": "Jalalpore",
    "Districtname": "Navsari",
    "statename": "GUJARAT"
  },
  {
    "pincode": "396445",
    "officename": "Italva B.O",
    "officeType": "B.O",
    "Deliverystatus": "Delivery",
    "divisionname": "Navsari",
    "regionname": "Vadodara",
    "circlename": "Gujarat",
    "Taluk": "Navsari",
    "Districtname": "Navsari",
    "statename": "GUJARAT"
  },
  {
    "pincode": "396445",
    "officename": "Jamalpore B.O",
    "officeType": "B.O",
    "Deliverystatus": "Delivery",
    "divisionname": "Navsari",
    "regionname": "Vadodara",
    "circlename": "Gujarat",
    "Taluk": "Navsari",
    "Districtname": "Navsari",
    "statename": "GUJARAT"
  },
  {
    "pincode": "396445",
    "officename": "Junathana S.O",
    "officeType": "S.O",
    "Deliverystatus": "Non-Delivery",
    "divisionname": "Navsari",
    "regionname": "Vadodara",
    "circlename": "Gujarat",
    "Taluk": "Navsari",
    "Districtname": "Navsari",
    "statename": "GUJARAT"
  },
  {
    "pincode": "396445",
    "officename": "Kasbapar B.O",
    "officeType": "B.O",
    "Deliverystatus": "Delivery",
    "divisionname": "Navsari",
    "regionname": "Vadodara",
    "circlename": "Gujarat",
    "Taluk": "Navsari",
    "Districtname": "Navsari",
    "statename": "GUJARAT"
  },
  {
    "pincode": "396445",
    "officename": "Kothamadi B.O",
    "officeType": "B.O",
    "Deliverystatus": "Delivery",
    "divisionname": "Navsari",
    "regionname": "Vadodara",
    "circlename": "Gujarat",
    "Taluk": "Jalalpore",
    "Districtname": "Navsari",
    "statename": "GUJARAT"
  },
  {
    "pincode": "396445",
    "officename": "Malesar S.O",
    "officeType": "S.O",
    "Deliverystatus": "Non-Delivery",
    "divisionname": "Navsari",
    "regionname": "Vadodara",
    "circlename": "Gujarat",
    "Taluk": "Navsari",
    "Districtname": "Navsari",
    "statename": "GUJARAT"
  },
  {
    "pincode": "396445",
    "officename": "Manekpore Tankoli B.O",
    "officeType": "B.O",
    "Deliverystatus": "Delivery",
    "divisionname": "Navsari",
    "regionname": "Vadodara",
    "circlename": "Gujarat",
    "Taluk": "Jalalpore",
    "Districtname": "Navsari",
    "statename": "GUJARAT"
  },
  {
    "pincode": "396445",
    "officename": "Mogar B.O",
    "officeType": "B.O",
    "Deliverystatus": "Delivery",
    "divisionname": "Navsari",
    "regionname": "Vadodara",
    "circlename": "Gujarat",
    "Taluk": "Navsari",
    "Districtname": "Navsari",
    "statename": "GUJARAT"
  },
  {
    "pincode": "396445",
    "officename": "Navsari H.O",
    "officeType": "H.O",
    "Deliverystatus": "Delivery",
    "divisionname": "Navsari",
    "regionname": "Vadodara",
    "circlename": "Gujarat",
    "Taluk": "Navsari",
    "Districtname": "Navsari",
    "statename": "GUJARAT"
  },
  {
    "pincode": "396445",
    "officename": "Padgha B.O",
    "officeType": "B.O",
    "Deliverystatus": "Delivery",
    "divisionname": "Navsari",
    "regionname": "Vadodara",
    "circlename": "Gujarat",
    "Taluk": "Navsari",
    "Districtname": "Navsari",
    "statename": "GUJARAT"
  },
  {
    "pincode": "396445",
    "officename": "Pethan B.O",
    "officeType": "B.O",
    "Deliverystatus": "Delivery",
    "divisionname": "Navsari",
    "regionname": "Vadodara",
    "circlename": "Gujarat",
    "Taluk": "Jalalpore",
    "Districtname": "Navsari",
    "statename": "GUJARAT"
  },
  {
    "pincode": "396445",
    "officename": "Sagra B.O",
    "officeType": "B.O",
    "Deliverystatus": "Delivery",
    "divisionname": "Navsari",
    "regionname": "Vadodara",
    "circlename": "Gujarat",
    "Taluk": "Navsari",
    "Districtname": "Navsari",
    "statename": "GUJARAT"
  },
  {
    "pincode": "396445",
    "officename": "Tavdi B.O",
    "officeType": "B.O",
    "Deliverystatus": "Delivery",
    "divisionname": "Navsari",
    "regionname": "Vadodara",
    "circlename": "Gujarat",
    "Taluk": "Jalalpore",
    "Districtname": "Navsari",
    "statename": "GUJARAT"
  },
  {
    "pincode": "396445",
    "officename": "Viraval B.O",
    "officeType": "B.O",
    "Deliverystatus": "Delivery",
    "divisionname": "Navsari",
    "regionname": "Vadodara",
    "circlename": "Gujarat",
    "Taluk": "Navsari",
    "Districtname": "Navsari",
    "statename": "GUJARAT"
  }
]
