[
  {
    "pincode": "396590",
    "officename": "Bartad B.O",
    "officeType": "B.O",
    "Deliverystatus": "Delivery",
    "divisionname": "Navsari",
    "regionname": "Vadodara",
    "circlename": "Gujarat",
    "Taluk": "Vansda",
    "Districtname": "Navsari",
    "statename": "GUJARAT"
  },
  {
    "pincode": "396590",
    "officename": "Bhinar B.O",
    "officeType": "B.O",
    "Deliverystatus": "Delivery",
    "divisionname": "Navsari",
    "regionname": "Vadodara",
    "circlename": "Gujarat",
    "Taluk": "Vansda",
    "Districtname": "Navsari",
    "statename": "GUJARAT"
  },
  {
    "pincode": "396590",
    "officename": "Dharampuri B.O",
    "officeType": "B.O",
    "Deliverystatus": "Delivery",
    "divisionname": "Navsari",
    "regionname": "Vadodara",
    "circlename": "Gujarat",
    "Taluk": "Vansda",
    "Districtname": "Navsari",
    "statename": "GUJARAT"
  },
  {
    "pincode": "396590",
    "officename": "Kurelia B.O",
    "officeType": "B.O",
    "Deliverystatus": "Delivery",
    "divisionname": "Navsari",
    "regionname": "Vadodara",
    "circlename": "Gujarat",
    "Taluk": "Vansda",
    "Districtname": "Navsari",
    "statename": "GUJARAT"
  },
  {
    "pincode": "396590",
    "officename": "Palgabhan B.O",
    "officeType": "B.O",
    "Deliverystatus": "Delivery",
    "divisionname": "Navsari",
    "regionname": "Vadodara",
    "circlename": "Gujarat",
    "Taluk": "Vansda",
    "Districtname": "Navsari",
    "statename": "GUJARAT"
  },
  {
    "pincode": "396590",
    "officename": "Sara B.O",
    "officeType": "B.O",
    "Deliverystatus": "Delivery",
    "divisionname": "Navsari",
    "regionname": "Vadodara",
    "circlename": "Gujarat",
    "Taluk": "Vansda",
    "Districtname": "Navsari",
    "statename": "GUJARAT"
  },
  {
    "pincode": "396590",
    "officename": "Sindhai B.O",
    "officeType": "B.O",
    "Deliverystatus": "Delivery",
    "divisionname": "Navsari",
    "regionname": "Vadodara",
    "circlename": "Gujarat",
    "Taluk": "Vansda",
    "Districtname": "Navsari",
    "statename": "GUJARAT"
  },
  {
    "pincode": "396590",
    "officename": "Unai S.O",
    "officeType": "S.O",
    "Deliverystatus": "Delivery",
    "divisionname": "Navsari",
    "regionname": "Vadodara",
    "circlename": "Gujarat",
    "Taluk": "Vansda",
    "Districtname": "Navsari",
    "statename": "GUJARAT"
  }
]
