[
  {
    "pincode": "401102",
    "officename": "Agarwadi B.O",
    "officeType": "B.O",
    "Deliverystatus": "Delivery",
    "divisionname": "Thane West",
    "regionname": "Mumbai",
    "circlename": "Maharashtra",
    "Taluk": "Mokhada",
    "Districtname": "Thane",
    "statename": "MAHARASHTRA"
  },
  {
    "pincode": "401102",
    "officename": "Dahisar tymanor B.O",
    "officeType": "B.O",
    "Deliverystatus": "Delivery",
    "divisionname": "Thane West",
    "regionname": "Mumbai",
    "circlename": "Maharashtra",
    "Taluk": "Palghar",
    "Districtname": "Thane",
    "statename": "MAHARASHTRA"
  },
  {
    "pincode": "401102",
    "officename": "Datiware B.O",
    "officeType": "B.O",
    "Deliverystatus": "Delivery",
    "divisionname": "Thane West",
    "regionname": "Mumbai",
    "circlename": "Maharashtra",
    "Taluk": "Palghar",
    "Districtname": "Thane",
    "statename": "MAHARASHTRA"
  },
  {
    "pincode": "401102",
    "officename": "Dhekale B.O",
    "officeType": "B.O",
    "Deliverystatus": "Delivery",
    "divisionname": "Thane West",
    "regionname": "Mumbai",
    "circlename": "Maharashtra",
    "Taluk": "Palghar",
    "Districtname": "Thane",
    "statename": "MAHARASHTRA"
  },
  {
    "pincode": "401102",
    "officename": "Edwan B.O",
    "officeType": "B.O",
    "Deliverystatus": "Delivery",
    "divisionname": "Thane West",
    "regionname": "Mumbai",
    "circlename": "Maharashtra",
    "Taluk": "Palghar",
    "Districtname": "Thane",
    "statename": "MAHARASHTRA"
  },
  {
    "pincode": "401102",
    "officename": "Navghar B.O",
    "officeType": "B.O",
    "Deliverystatus": "Delivery",
    "divisionname": "Thane West",
    "regionname": "Mumbai",
    "circlename": "Maharashtra",
    "Taluk": "Palghar",
    "Districtname": "Thane",
    "statename": "MAHARASHTRA"
  },
  {
    "pincode": "401102",
    "officename": "Pargaon B.O",
    "officeType": "B.O",
    "Deliverystatus": "Delivery",
    "divisionname": "Thane West",
    "regionname": "Mumbai",
    "circlename": "Maharashtra",
    "Taluk": "Palghar",
    "Districtname": "Thane",
    "statename": "MAHARASHTRA"
  },
  {
    "pincode": "401102",
    "officename": "Tandulwadi B.O",
    "officeType": "B.O",
    "Deliverystatus": "Delivery",
    "divisionname": "Thane West",
    "regionname": "Mumbai",
    "circlename": "Maharashtra",
    "Taluk": "Palghar",
    "Districtname": "Thane",
    "statename": "MAHARASHTRA"
  },
  {
    "pincode": "401102",
    "officename": "Tembhikhodave B.O",
    "officeType": "B.O",
    "Deliverystatus": "Delivery",
    "divisionname": "Thane West",
    "regionname": "Mumbai",
    "circlename": "Maharashtra",
    "Taluk": "Palghar",
    "Districtname": "Thane",
    "statename": "MAHARASHTRA"
  },
  {
    "pincode": "401102",
    "officename": "Umbarpada S.O",
    "officeType": "S.O",
    "Deliverystatus": "Delivery",
    "divisionname": "Thane West",
    "regionname": "Mumbai",
    "circlename": "Maharashtra",
    "Taluk": "Palghar",
    "Districtname": "Thane",
    "statename": "MAHARASHTRA"
  },
  {
    "pincode": "401102",
    "officename": "Usarani B.O",
    "officeType": "B.O",
    "Deliverystatus": "Delivery",
    "divisionname": "Thane West",
    "regionname": "Mumbai",
    "circlename": "Maharashtra",
    "Taluk": "Palghar",
    "Districtname": "Thane",
    "statename": "MAHARASHTRA"
  },
  {
    "pincode": "401102",
    "officename": "Virathan Budruk B.O",
    "officeType": "B.O",
    "Deliverystatus": "Delivery",
    "divisionname": "Thane West",
    "regionname": "Mumbai",
    "circlename": "Maharashtra",
    "Taluk": "Palghar",
    "Districtname": "Thane",
    "statename": "MAHARASHTRA"
  }
]
