[
  {
    "pincode": "401208",
    "officename": "Gokhiware B.O",
    "officeType": "B.O",
    "Deliverystatus": "Delivery",
    "divisionname": "Thane West",
    "regionname": "Mumbai",
    "circlename": "Maharashtra",
    "Taluk": "Vasai",
    "Districtname": "Thane",
    "statename": "MAHARASHTRA"
  },
  {
    "pincode": "401208",
    "officename": "Juchandra B.O",
    "officeType": "B.O",
    "Deliverystatus": "Delivery",
    "divisionname": "Thane West",
    "regionname": "Mumbai",
    "circlename": "Maharashtra",
    "Taluk": "Vasai",
    "Districtname": "Thane",
    "statename": "MAHARASHTRA"
  },
  {
    "pincode": "401208",
    "officename": "Kaman B.O",
    "officeType": "B.O",
    "Deliverystatus": "Delivery",
    "divisionname": "Thane West",
    "regionname": "Mumbai",
    "circlename": "Maharashtra",
    "Taluk": "Vasai",
    "Districtname": "Thane",
    "statename": "MAHARASHTRA"
  },
  {
    "pincode": "401208",
    "officename": "Pelhar B.O",
    "officeType": "B.O",
    "Deliverystatus": "Delivery",
    "divisionname": "Thane West",
    "regionname": "Mumbai",
    "circlename": "Maharashtra",
    "Taluk": "Vasai",
    "Districtname": "Thane",
    "statename": "MAHARASHTRA"
  },
  {
    "pincode": "401208",
    "officename": "Rajawali B.O",
    "officeType": "B.O",
    "Deliverystatus": "Delivery",
    "divisionname": "Thane West",
    "regionname": "Mumbai",
    "circlename": "Maharashtra",
    "Taluk": "Vasai",
    "Districtname": "Thane",
    "statename": "MAHARASHTRA"
  },
  {
    "pincode": "401208",
    "officename": "Sasun Navghar B.O",
    "officeType": "B.O",
    "Deliverystatus": "Delivery",
    "divisionname": "Thane West",
    "regionname": "Mumbai",
    "circlename": "Maharashtra",
    "Taluk": "Vasai",
    "Districtname": "Thane",
    "statename": "MAHARASHTRA"
  },
  {
    "pincode": "401208",
    "officename": "Satiwai B.O",
    "officeType": "B.O",
    "Deliverystatus": "Delivery",
    "divisionname": "Thane West",
    "regionname": "Mumbai",
    "circlename": "Maharashtra",
    "Taluk": "Vasai",
    "Districtname": "Thane",
    "statename": "MAHARASHTRA"
  },
  {
    "pincode": "401208",
    "officename": "Valiv B.O",
    "officeType": "B.O",
    "Deliverystatus": "Delivery",
    "divisionname": "Thane West",
    "regionname": "Mumbai",
    "circlename": "Maharashtra",
    "Taluk": "Vasai",
    "Districtname": "Thane",
    "statename": "MAHARASHTRA"
  },
  {
    "pincode": "401208",
    "officename": "Vasai East IE S.O",
    "officeType": "S.O",
    "Deliverystatus": "Delivery",
    "divisionname": "Thane West",
    "regionname": "Mumbai",
    "circlename": "Maharashtra",
    "Taluk": "Vasai",
    "Districtname": "Thane",
    "statename": "MAHARASHTRA"
  }
]
