[
  {
    "pincode": "401602",
    "officename": "Agawan B.O",
    "officeType": "B.O",
    "Deliverystatus": "Delivery",
    "divisionname": "Thane West",
    "regionname": "Mumbai",
    "circlename": "Maharashtra",
    "Taluk": "Mokhada",
    "Districtname": "Thane",
    "statename": "MAHARASHTRA"
  },
  {
    "pincode": "401602",
    "officename": "Ashagad B.O",
    "officeType": "B.O",
    "Deliverystatus": "Delivery",
    "divisionname": "Thane West",
    "regionname": "Mumbai",
    "circlename": "Maharashtra",
    "Taluk": "Dahanu",
    "Districtname": "Thane",
    "statename": "MAHARASHTRA"
  },
  {
    "pincode": "401602",
    "officename": "Bapugaon B.O",
    "officeType": "B.O",
    "Deliverystatus": "Delivery",
    "divisionname": "Thane West",
    "regionname": "Mumbai",
    "circlename": "Maharashtra",
    "Taluk": "Dahanu",
    "Districtname": "Thane",
    "statename": "MAHARASHTRA"
  },
  {
    "pincode": "401602",
    "officename": "Charoti B.O",
    "officeType": "B.O",
    "Deliverystatus": "Delivery",
    "divisionname": "Thane West",
    "regionname": "Mumbai",
    "circlename": "Maharashtra",
    "Taluk": "Dahanu",
    "Districtname": "Thane",
    "statename": "MAHARASHTRA"
  },
  {
    "pincode": "401602",
    "officename": "Chikhale B.O",
    "officeType": "B.O",
    "Deliverystatus": "Delivery",
    "divisionname": "Thane West",
    "regionname": "Mumbai",
    "circlename": "Maharashtra",
    "Taluk": "Dahanu",
    "Districtname": "Thane",
    "statename": "MAHARASHTRA"
  },
  {
    "pincode": "401602",
    "officename": "Dahanu Road S.O",
    "officeType": "S.O",
    "Deliverystatus": "Delivery",
    "divisionname": "Thane West",
    "regionname": "Mumbai",
    "circlename": "Maharashtra",
    "Taluk": "Dahanu",
    "Districtname": "Thane",
    "statename": "MAHARASHTRA"
  },
  {
    "pincode": "401602",
    "officename": "Ganjad B.O",
    "officeType": "B.O",
    "Deliverystatus": "Delivery",
    "divisionname": "Thane West",
    "regionname": "Mumbai",
    "circlename": "Maharashtra",
    "Taluk": "Dahanu",
    "Districtname": "Thane",
    "statename": "MAHARASHTRA"
  },
  {
    "pincode": "401602",
    "officename": "Jamshet B.O",
    "officeType": "B.O",
    "Deliverystatus": "Delivery",
    "divisionname": "Thane West",
    "regionname": "Mumbai",
    "circlename": "Maharashtra",
    "Taluk": "Mokhada",
    "Districtname": "Thane",
    "statename": "MAHARASHTRA"
  },
  {
    "pincode": "401602",
    "officename": "Kainad B.O",
    "officeType": "B.O",
    "Deliverystatus": "Delivery",
    "divisionname": "Thane West",
    "regionname": "Mumbai",
    "circlename": "Maharashtra",
    "Taluk": "Dahanu",
    "Districtname": "Thane",
    "statename": "MAHARASHTRA"
  },
  {
    "pincode": "401602",
    "officename": "Karaj Gaon B.O",
    "officeType": "B.O",
    "Deliverystatus": "Delivery",
    "divisionname": "Thane West",
    "regionname": "Mumbai",
    "circlename": "Maharashtra",
    "Taluk": "Talasari",
    "Districtname": "Thane",
    "statename": "MAHARASHTRA"
  },
  {
    "pincode": "401602",
    "officename": "Nikane B.O",
    "officeType": "B.O",
    "Deliverystatus": "Delivery",
    "divisionname": "Thane West",
    "regionname": "Mumbai",
    "circlename": "Maharashtra",
    "Taluk": "Dahanu",
    "Districtname": "Thane",
    "statename": "MAHARASHTRA"
  },
  {
    "pincode": "401602",
    "officename": "Ranshet B.O",
    "officeType": "B.O",
    "Deliverystatus": "Delivery",
    "divisionname": "Thane West",
    "regionname": "Mumbai",
    "circlename": "Maharashtra",
    "Taluk": "Dahanu",
    "Districtname": "Thane",
    "statename": "MAHARASHTRA"
  },
  {
    "pincode": "401602",
    "officename": "Saiwan B.O",
    "officeType": "B.O",
    "Deliverystatus": "Delivery",
    "divisionname": "Thane West",
    "regionname": "Mumbai",
    "circlename": "Maharashtra",
    "Taluk": "Dahanu",
    "Districtname": "Thane",
    "statename": "MAHARASHTRA"
  },
  {
    "pincode": "401602",
    "officename": "Sawata B.O",
    "officeType": "B.O",
    "Deliverystatus": "Delivery",
    "divisionname": "Thane West",
    "regionname": "Mumbai",
    "circlename": "Maharashtra",
    "Taluk": "Dahanu",
    "Districtname": "Thane",
    "statename": "MAHARASHTRA"
  },
  {
    "pincode": "401602",
    "officename": "Urse B.O",
    "officeType": "B.O",
    "Deliverystatus": "Delivery",
    "divisionname": "Thane West",
    "regionname": "Mumbai",
    "circlename": "Maharashtra",
    "Taluk": "Dahanu",
    "Districtname": "Thane",
    "statename": "MAHARASHTRA"
  },
  {
    "pincode": "401602",
    "officename": "Waki B.O",
    "officeType": "B.O",
    "Deliverystatus": "Delivery",
    "divisionname": "Thane West",
    "regionname": "Mumbai",
    "circlename": "Maharashtra",
    "Taluk": "Dahanu",
    "Districtname": "Thane",
    "statename": "MAHARASHTRA"
  }
]
