[
  {
    "pincode": "402110",
    "officename": "Bhoste B.O",
    "officeType": "B.O",
    "Deliverystatus": "Delivery",
    "divisionname": "Raigad",
    "regionname": "Mumbai",
    "circlename": "Maharashtra",
    "Taluk": "Shrivardhan",
    "Districtname": "Raigarh(MH)",
    "statename": "MAHARASHTRA"
  },
  {
    "pincode": "402110",
    "officename": "Galsure B.O",
    "officeType": "B.O",
    "Deliverystatus": "Delivery",
    "divisionname": "Raigad",
    "regionname": "Mumbai",
    "circlename": "Maharashtra",
    "Taluk": "Shriwardhan",
    "Districtname": "Raigarh(MH)",
    "statename": "MAHARASHTRA"
  },
  {
    "pincode": "402110",
    "officename": "Hareshwar B.O",
    "officeType": "B.O",
    "Deliverystatus": "Delivery",
    "divisionname": "Raigad",
    "regionname": "Mumbai",
    "circlename": "Maharashtra",
    "Taluk": "Shrivardhan",
    "Districtname": "Raigarh(MH)",
    "statename": "MAHARASHTRA"
  },
  {
    "pincode": "402110",
    "officename": "Jasawali B.O",
    "officeType": "B.O",
    "Deliverystatus": "Delivery",
    "divisionname": "Raigad",
    "regionname": "Mumbai",
    "circlename": "Maharashtra",
    "Taluk": "Shrivardhan",
    "Districtname": "Raigarh(MH)",
    "statename": "MAHARASHTRA"
  },
  {
    "pincode": "402110",
    "officename": "Ranawali B.O",
    "officeType": "B.O",
    "Deliverystatus": "Delivery",
    "divisionname": "Raigad",
    "regionname": "Mumbai",
    "circlename": "Maharashtra",
    "Taluk": "Shriwardhan",
    "Districtname": "Raigarh(MH)",
    "statename": "MAHARASHTRA"
  },
  {
    "pincode": "402110",
    "officename": "Saigaon B.O",
    "officeType": "B.O",
    "Deliverystatus": "Delivery",
    "divisionname": "Raigad",
    "regionname": "Mumbai",
    "circlename": "Maharashtra",
    "Taluk": "Shriwardhan",
    "Districtname": "Raigarh(MH)",
    "statename": "MAHARASHTRA"
  },
  {
    "pincode": "402110",
    "officename": "Shriwardhan S.O",
    "officeType": "S.O",
    "Deliverystatus": "Delivery",
    "divisionname": "Raigad",
    "regionname": "Mumbai",
    "circlename": "Maharashtra",
    "Taluk": "Shriwardhan",
    "Districtname": "Raigarh(MH)",
    "statename": "MAHARASHTRA"
  },
  {
    "pincode": "402110",
    "officename": "Vadghar B.O",
    "officeType": "B.O",
    "Deliverystatus": "Delivery",
    "divisionname": "Raigad",
    "regionname": "Mumbai",
    "circlename": "Maharashtra",
    "Taluk": "Shriwardhan",
    "Districtname": "Raigarh(MH)",
    "statename": "MAHARASHTRA"
  },
  {
    "pincode": "402110",
    "officename": "Vadshetvave B.O",
    "officeType": "B.O",
    "Deliverystatus": "Delivery",
    "divisionname": "Raigad",
    "regionname": "Mumbai",
    "circlename": "Maharashtra",
    "Taluk": "Shrivardhan",
    "Districtname": "Raigarh(MH)",
    "statename": "MAHARASHTRA"
  }
]
