[
  {
    "pincode": "402103",
    "officename": "Adhi B.O",
    "officeType": "B.O",
    "Deliverystatus": "Delivery",
    "divisionname": "Raigad",
    "regionname": "Mumbai",
    "circlename": "Maharashtra",
    "Taluk": "Mangaon",
    "Districtname": "Raigarh(MH)",
    "statename": "MAHARASHTRA"
  },
  {
    "pincode": "402103",
    "officename": "Devali B.O",
    "officeType": "B.O",
    "Deliverystatus": "Delivery",
    "divisionname": "Raigad",
    "regionname": "Mumbai",
    "circlename": "Maharashtra",
    "Taluk": "Mangaon",
    "Districtname": "Raigarh(MH)",
    "statename": "MAHARASHTRA"
  },
  {
    "pincode": "402103",
    "officename": "Goregaon S.O (Raigarh(MH))",
    "officeType": "S.O",
    "Deliverystatus": "Delivery",
    "divisionname": "Raigad",
    "regionname": "Mumbai",
    "circlename": "Maharashtra",
    "Taluk": "",
    "Districtname": "Raigarh(MH)",
    "statename": "MAHARASHTRA"
  },
  {
    "pincode": "402103",
    "officename": "Harkol B.O",
    "officeType": "B.O",
    "Deliverystatus": "Delivery",
    "divisionname": "Raigad",
    "regionname": "Mumbai",
    "circlename": "Maharashtra",
    "Taluk": "Mangaon",
    "Districtname": "Raigarh(MH)",
    "statename": "MAHARASHTRA"
  },
  {
    "pincode": "402103",
    "officename": "Lonere B.O",
    "officeType": "B.O",
    "Deliverystatus": "Delivery",
    "divisionname": "Raigad",
    "regionname": "Mumbai",
    "circlename": "Maharashtra",
    "Taluk": "Mangaon",
    "Districtname": "Raigarh(MH)",
    "statename": "MAHARASHTRA"
  },
  {
    "pincode": "402103",
    "officename": "Mangarul B.O",
    "officeType": "B.O",
    "Deliverystatus": "Delivery",
    "divisionname": "Raigad",
    "regionname": "Mumbai",
    "circlename": "Maharashtra",
    "Taluk": "Mangaon",
    "Districtname": "Raigarh(MH)",
    "statename": "MAHARASHTRA"
  },
  {
    "pincode": "402103",
    "officename": "Nagaon B.O",
    "officeType": "B.O",
    "Deliverystatus": "Delivery",
    "divisionname": "Raigad",
    "regionname": "Mumbai",
    "circlename": "Maharashtra",
    "Taluk": "Mangaon",
    "Districtname": "Raigarh(MH)",
    "statename": "MAHARASHTRA"
  },
  {
    "pincode": "402103",
    "officename": "Nandvi B.O",
    "officeType": "B.O",
    "Deliverystatus": "Delivery",
    "divisionname": "Raigad",
    "regionname": "Mumbai",
    "circlename": "Maharashtra",
    "Taluk": "Mangaon",
    "Districtname": "Raigarh(MH)",
    "statename": "MAHARASHTRA"
  },
  {
    "pincode": "402103",
    "officename": "Panhalghar B.O",
    "officeType": "B.O",
    "Deliverystatus": "Delivery",
    "divisionname": "Raigad",
    "regionname": "Mumbai",
    "circlename": "Maharashtra",
    "Taluk": "Mangaon",
    "Districtname": "Raigarh(MH)",
    "statename": "MAHARASHTRA"
  },
  {
    "pincode": "402103",
    "officename": "Purar B.O",
    "officeType": "B.O",
    "Deliverystatus": "Delivery",
    "divisionname": "Raigad",
    "regionname": "Mumbai",
    "circlename": "Maharashtra",
    "Taluk": "Mangaon",
    "Districtname": "Raigarh(MH)",
    "statename": "MAHARASHTRA"
  },
  {
    "pincode": "402103",
    "officename": "Usarghar B.O",
    "officeType": "B.O",
    "Deliverystatus": "Delivery",
    "divisionname": "Raigad",
    "regionname": "Mumbai",
    "circlename": "Maharashtra",
    "Taluk": "Mangaon",
    "Districtname": "Raigarh(MH)",
    "statename": "MAHARASHTRA"
  },
  {
    "pincode": "402103",
    "officename": "Wadvali B.O",
    "officeType": "B.O",
    "Deliverystatus": "Delivery",
    "divisionname": "Raigad",
    "regionname": "Mumbai",
    "circlename": "Maharashtra",
    "Taluk": "Mangaon",
    "Districtname": "Raigarh(MH)",
    "statename": "MAHARASHTRA"
  }
]
