[
  {
    "pincode": "402209",
    "officename": "Hashiware B.O",
    "officeType": "B.O",
    "Deliverystatus": "Delivery",
    "divisionname": "Raigad",
    "regionname": "Mumbai",
    "circlename": "Maharashtra",
    "Taluk": "Alibag",
    "Districtname": "Raigarh(MH)",
    "statename": "MAHARASHTRA"
  },
  {
    "pincode": "402209",
    "officename": "Kamarle B.O",
    "officeType": "B.O",
    "Deliverystatus": "Delivery",
    "divisionname": "Raigad",
    "regionname": "Mumbai",
    "circlename": "Maharashtra",
    "Taluk": "Alibag",
    "Districtname": "Raigarh(MH)",
    "statename": "MAHARASHTRA"
  },
  {
    "pincode": "402209",
    "officename": "Khandale B.O",
    "officeType": "B.O",
    "Deliverystatus": "Delivery",
    "divisionname": "Raigad",
    "regionname": "Mumbai",
    "circlename": "Maharashtra",
    "Taluk": "Alibag",
    "Districtname": "Raigarh(MH)",
    "statename": "MAHARASHTRA"
  },
  {
    "pincode": "402209",
    "officename": "Kurul B.O",
    "officeType": "B.O",
    "Deliverystatus": "Delivery",
    "divisionname": "Raigad",
    "regionname": "Mumbai",
    "circlename": "Maharashtra",
    "Taluk": "Alibag",
    "Districtname": "Raigarh(MH)",
    "statename": "MAHARASHTRA"
  },
  {
    "pincode": "402209",
    "officename": "Kurul RCF Colony S.O",
    "officeType": "S.O",
    "Deliverystatus": "Delivery",
    "divisionname": "Raigad",
    "regionname": "Mumbai",
    "circlename": "Maharashtra",
    "Taluk": "Alibag",
    "Districtname": "Raigarh(MH)",
    "statename": "MAHARASHTRA"
  },
  {
    "pincode": "402209",
    "officename": "Narangi B.O",
    "officeType": "B.O",
    "Deliverystatus": "Delivery",
    "divisionname": "Raigad",
    "regionname": "Mumbai",
    "circlename": "Maharashtra",
    "Taluk": "Alibag",
    "Districtname": "Raigarh(MH)",
    "statename": "MAHARASHTRA"
  },
  {
    "pincode": "402209",
    "officename": "Saral B.O",
    "officeType": "B.O",
    "Deliverystatus": "Delivery",
    "divisionname": "Raigad",
    "regionname": "Mumbai",
    "circlename": "Maharashtra",
    "Taluk": "Alibag",
    "Districtname": "Raigarh(MH)",
    "statename": "MAHARASHTRA"
  },
  {
    "pincode": "402209",
    "officename": "Varsoli B.O",
    "officeType": "B.O",
    "Deliverystatus": "Delivery",
    "divisionname": "Raigad",
    "regionname": "Mumbai",
    "circlename": "Maharashtra",
    "Taluk": "Alibag",
    "Districtname": "Raigarh(MH)",
    "statename": "MAHARASHTRA"
  },
  {
    "pincode": "402209",
    "officename": "Veshvi B.O",
    "officeType": "B.O",
    "Deliverystatus": "Delivery",
    "divisionname": "Raigad",
    "regionname": "Mumbai",
    "circlename": "Maharashtra",
    "Taluk": "Alibag",
    "Districtname": "Raigarh(MH)",
    "statename": "MAHARASHTRA"
  }
]
