[
  {
    "pincode": "402305",
    "officename": "Achloli B.O",
    "officeType": "B.O",
    "Deliverystatus": "Delivery",
    "divisionname": "Raigad",
    "regionname": "Mumbai",
    "circlename": "Maharashtra",
    "Taluk": "Mahad",
    "Districtname": "Raigarh(MH)",
    "statename": "MAHARASHTRA"
  },
  {
    "pincode": "402305",
    "officename": "Khardi B.O",
    "officeType": "B.O",
    "Deliverystatus": "Delivery",
    "divisionname": "Raigad",
    "regionname": "Mumbai",
    "circlename": "Maharashtra",
    "Taluk": "Mahad",
    "Districtname": "Raigarh(MH)",
    "statename": "MAHARASHTRA"
  },
  {
    "pincode": "402305",
    "officename": "Kolose B.O",
    "officeType": "B.O",
    "Deliverystatus": "Delivery",
    "divisionname": "Raigad",
    "regionname": "Mumbai",
    "circlename": "Maharashtra",
    "Taluk": "Mahad",
    "Districtname": "Raigarh(MH)",
    "statename": "MAHARASHTRA"
  },
  {
    "pincode": "402305",
    "officename": "Konzar B.O",
    "officeType": "B.O",
    "Deliverystatus": "Delivery",
    "divisionname": "Raigad",
    "regionname": "Mumbai",
    "circlename": "Maharashtra",
    "Taluk": "Mahad",
    "Districtname": "Raigarh(MH)",
    "statename": "MAHARASHTRA"
  },
  {
    "pincode": "402305",
    "officename": "Mandle B.O",
    "officeType": "B.O",
    "Deliverystatus": "Delivery",
    "divisionname": "Raigad",
    "regionname": "Mumbai",
    "circlename": "Maharashtra",
    "Taluk": "Mahad",
    "Districtname": "Raigarh(MH)",
    "statename": "MAHARASHTRA"
  },
  {
    "pincode": "402305",
    "officename": "Nate S.O",
    "officeType": "S.O",
    "Deliverystatus": "Delivery",
    "divisionname": "Raigad",
    "regionname": "Mumbai",
    "circlename": "Maharashtra",
    "Taluk": "Mahad",
    "Districtname": "Raigarh(MH)",
    "statename": "MAHARASHTRA"
  },
  {
    "pincode": "402305",
    "officename": "Pachad B.O",
    "officeType": "B.O",
    "Deliverystatus": "Delivery",
    "divisionname": "Raigad",
    "regionname": "Mumbai",
    "circlename": "Maharashtra",
    "Taluk": "Mahad",
    "Districtname": "Raigarh(MH)",
    "statename": "MAHARASHTRA"
  },
  {
    "pincode": "402305",
    "officename": "Sandoshi B.O",
    "officeType": "B.O",
    "Deliverystatus": "Delivery",
    "divisionname": "Raigad",
    "regionname": "Mumbai",
    "circlename": "Maharashtra",
    "Taluk": "Mahad",
    "Districtname": "Raigarh(MH)",
    "statename": "MAHARASHTRA"
  },
  {
    "pincode": "402305",
    "officename": "Savrat B.O",
    "officeType": "B.O",
    "Deliverystatus": "Delivery",
    "divisionname": "Raigad",
    "regionname": "Mumbai",
    "circlename": "Maharashtra",
    "Taluk": "Mahad",
    "Districtname": "Raigarh(MH)",
    "statename": "MAHARASHTRA"
  },
  {
    "pincode": "402305",
    "officename": "Taloshi B.O",
    "officeType": "B.O",
    "Deliverystatus": "Delivery",
    "divisionname": "Raigad",
    "regionname": "Mumbai",
    "circlename": "Maharashtra",
    "Taluk": "Mahad",
    "Districtname": "Raigarh(MH)",
    "statename": "MAHARASHTRA"
  },
  {
    "pincode": "402305",
    "officename": "Tetghar B.O",
    "officeType": "B.O",
    "Deliverystatus": "Delivery",
    "divisionname": "Raigad",
    "regionname": "Mumbai",
    "circlename": "Maharashtra",
    "Taluk": "Mahad",
    "Districtname": "Raigarh(MH)",
    "statename": "MAHARASHTRA"
  },
  {
    "pincode": "402305",
    "officename": "Varandoli B.O",
    "officeType": "B.O",
    "Deliverystatus": "Delivery",
    "divisionname": "Raigad",
    "regionname": "Mumbai",
    "circlename": "Maharashtra",
    "Taluk": "Mahad",
    "Districtname": "Raigarh(MH)",
    "statename": "MAHARASHTRA"
  },
  {
    "pincode": "402305",
    "officename": "Wagheri B.O",
    "officeType": "B.O",
    "Deliverystatus": "Delivery",
    "divisionname": "Raigad",
    "regionname": "Mumbai",
    "circlename": "Maharashtra",
    "Taluk": "Mahad",
    "Districtname": "Raigarh(MH)",
    "statename": "MAHARASHTRA"
  }
]
