[
  {
    "pincode": "402302",
    "officename": "Bhave B.O",
    "officeType": "B.O",
    "Deliverystatus": "Delivery",
    "divisionname": "Raigad",
    "regionname": "Mumbai",
    "circlename": "Maharashtra",
    "Taluk": "Mahad",
    "Districtname": "Raigarh(MH)",
    "statename": "MAHARASHTRA"
  },
  {
    "pincode": "402302",
    "officename": "Birwadi S.O",
    "officeType": "S.O",
    "Deliverystatus": "Delivery",
    "divisionname": "Raigad",
    "regionname": "Mumbai",
    "circlename": "Maharashtra",
    "Taluk": "",
    "Districtname": "Raigarh(MH)",
    "statename": "MAHARASHTRA"
  },
  {
    "pincode": "402302",
    "officename": "Dahivad B.O",
    "officeType": "B.O",
    "Deliverystatus": "Delivery",
    "divisionname": "Raigad",
    "regionname": "Mumbai",
    "circlename": "Maharashtra",
    "Taluk": "Mahad",
    "Districtname": "Raigarh(MH)",
    "statename": "MAHARASHTRA"
  },
  {
    "pincode": "402302",
    "officename": "Dapoli B.O",
    "officeType": "B.O",
    "Deliverystatus": "Delivery",
    "divisionname": "Raigad",
    "regionname": "Mumbai",
    "circlename": "Maharashtra",
    "Taluk": "Mahad",
    "Districtname": "Raigarh(MH)",
    "statename": "MAHARASHTRA"
  },
  {
    "pincode": "402302",
    "officename": "Dhamne B.O",
    "officeType": "B.O",
    "Deliverystatus": "Delivery",
    "divisionname": "Raigad",
    "regionname": "Mumbai",
    "circlename": "Maharashtra",
    "Taluk": "Mahad",
    "Districtname": "Raigarh(MH)",
    "statename": "MAHARASHTRA"
  },
  {
    "pincode": "402302",
    "officename": "Jite B.O",
    "officeType": "B.O",
    "Deliverystatus": "Delivery",
    "divisionname": "Raigad",
    "regionname": "Mumbai",
    "circlename": "Maharashtra",
    "Taluk": "Mahad",
    "Districtname": "Raigarh(MH)",
    "statename": "MAHARASHTRA"
  },
  {
    "pincode": "402302",
    "officename": "Mangrun B.O",
    "officeType": "B.O",
    "Deliverystatus": "Delivery",
    "divisionname": "Raigad",
    "regionname": "Mumbai",
    "circlename": "Maharashtra",
    "Taluk": "Mahad",
    "Districtname": "Raigarh(MH)",
    "statename": "MAHARASHTRA"
  },
  {
    "pincode": "402302",
    "officename": "Mohot B.O",
    "officeType": "B.O",
    "Deliverystatus": "Delivery",
    "divisionname": "Raigad",
    "regionname": "Mumbai",
    "circlename": "Maharashtra",
    "Taluk": "Mahad",
    "Districtname": "Raigarh(MH)",
    "statename": "MAHARASHTRA"
  },
  {
    "pincode": "402302",
    "officename": "Nigade B.O",
    "officeType": "B.O",
    "Deliverystatus": "Delivery",
    "divisionname": "Raigad",
    "regionname": "Mumbai",
    "circlename": "Maharashtra",
    "Taluk": "Mahad",
    "Districtname": "Raigarh(MH)",
    "statename": "MAHARASHTRA"
  },
  {
    "pincode": "402302",
    "officename": "Wagholi B.O",
    "officeType": "B.O",
    "Deliverystatus": "Delivery",
    "divisionname": "Raigad",
    "regionname": "Mumbai",
    "circlename": "Maharashtra",
    "Taluk": "Mahad",
    "Districtname": "Raigarh(MH)",
    "statename": "MAHARASHTRA"
  },
  {
    "pincode": "402302",
    "officename": "Waki Budruk B.O",
    "officeType": "B.O",
    "Deliverystatus": "Delivery",
    "divisionname": "Raigad",
    "regionname": "Mumbai",
    "circlename": "Maharashtra",
    "Taluk": "Mahad",
    "Districtname": "Raigarh(MH)",
    "statename": "MAHARASHTRA"
  },
  {
    "pincode": "402302",
    "officename": "Walan Budruk B.O",
    "officeType": "B.O",
    "Deliverystatus": "Delivery",
    "divisionname": "Raigad",
    "regionname": "Mumbai",
    "circlename": "Maharashtra",
    "Taluk": "Mahad",
    "Districtname": "Raigarh(MH)",
    "statename": "MAHARASHTRA"
  },
  {
    "pincode": "402302",
    "officename": "Walan Khurd B.O",
    "officeType": "B.O",
    "Deliverystatus": "Delivery",
    "divisionname": "Raigad",
    "regionname": "Mumbai",
    "circlename": "Maharashtra",
    "Taluk": "Mahad",
    "Districtname": "Raigarh(MH)",
    "statename": "MAHARASHTRA"
  }
]
