[
  {
    "pincode": "403401",
    "officename": "Agapur Adpoi B.O",
    "officeType": "B.O",
    "Deliverystatus": "Delivery",
    "divisionname": "Goa",
    "regionname": "Goa-Panaji",
    "circlename": "Maharashtra",
    "Taluk": "Ponda",
    "Districtname": "South Goa",
    "statename": "GOA"
  },
  {
    "pincode": "403401",
    "officename": "Bandora B.O",
    "officeType": "B.O",
    "Deliverystatus": "Delivery",
    "divisionname": "Goa",
    "regionname": "Goa-Panaji",
    "circlename": "Maharashtra",
    "Taluk": "Ponda",
    "Districtname": "South Goa",
    "statename": "GOA"
  },
  {
    "pincode": "403401",
    "officename": "Betora B.O",
    "officeType": "B.O",
    "Deliverystatus": "Non-Delivery",
    "divisionname": "Goa",
    "regionname": "Goa-Panaji",
    "circlename": "Maharashtra",
    "Taluk": "Ponda",
    "Districtname": "South Goa",
    "statename": "GOA"
  },
  {
    "pincode": "403401",
    "officename": "Borim B.O",
    "officeType": "B.O",
    "Deliverystatus": "Delivery",
    "divisionname": "Goa",
    "regionname": "Goa-Panaji",
    "circlename": "Maharashtra",
    "Taluk": "Ponda",
    "Districtname": "South Goa",
    "statename": "GOA"
  },
  {
    "pincode": "403401",
    "officename": "Curti B.O",
    "officeType": "B.O",
    "Deliverystatus": "Non-Delivery",
    "divisionname": "Goa",
    "regionname": "Goa-Panaji",
    "circlename": "Maharashtra",
    "Taluk": "Ponda",
    "Districtname": "South Goa",
    "statename": "GOA"
  },
  {
    "pincode": "403401",
    "officename": "Durbhat B.O",
    "officeType": "B.O",
    "Deliverystatus": "Delivery",
    "divisionname": "Goa",
    "regionname": "Goa-Panaji",
    "circlename": "Maharashtra",
    "Taluk": "Ponda",
    "Districtname": "South Goa",
    "statename": "GOA"
  },
  {
    "pincode": "403401",
    "officename": "Farmagudi B.O",
    "officeType": "B.O",
    "Deliverystatus": "Non-Delivery",
    "divisionname": "Goa",
    "regionname": "Goa-Panaji",
    "circlename": "Maharashtra",
    "Taluk": "Ponda",
    "Districtname": "South Goa",
    "statename": "GOA"
  },
  {
    "pincode": "403401",
    "officename": "Nirankal B.O",
    "officeType": "B.O",
    "Deliverystatus": "Delivery",
    "divisionname": "Goa",
    "regionname": "Goa-Panaji",
    "circlename": "Maharashtra",
    "Taluk": "Ponda",
    "Districtname": "South Goa",
    "statename": "GOA"
  },
  {
    "pincode": "403401",
    "officename": "Ponda Camp S.O",
    "officeType": "S.O",
    "Deliverystatus": "Non-Delivery",
    "divisionname": "Goa",
    "regionname": "Goa-Panaji",
    "circlename": "Maharashtra",
    "Taluk": "Ponda",
    "Districtname": "South Goa",
    "statename": "GOA"
  },
  {
    "pincode": "403401",
    "officename": "Ponda S.O",
    "officeType": "S.O",
    "Deliverystatus": "Delivery",
    "divisionname": "Goa",
    "regionname": "Goa-Panaji",
    "circlename": "Maharashtra",
    "Taluk": "Ponda",
    "Districtname": "North Goa",
    "statename": "GOA"
  },
  {
    "pincode": "403401",
    "officename": "Quela B.O",
    "officeType": "B.O",
    "Deliverystatus": "Delivery",
    "divisionname": "Goa",
    "regionname": "Goa-Panaji",
    "circlename": "Maharashtra",
    "Taluk": "Ponda",
    "Districtname": "South Goa",
    "statename": "GOA"
  },
  {
    "pincode": "403401",
    "officename": "Querim B.O",
    "officeType": "B.O",
    "Deliverystatus": "Delivery",
    "divisionname": "Goa",
    "regionname": "Goa-Panaji",
    "circlename": "Maharashtra",
    "Taluk": "Ponda",
    "Districtname": "South Goa",
    "statename": "GOA"
  },
  {
    "pincode": "403401",
    "officename": "Verem De Ponda B.O",
    "officeType": "B.O",
    "Deliverystatus": "Delivery",
    "divisionname": "Goa",
    "regionname": "Goa-Panaji",
    "circlename": "Maharashtra",
    "Taluk": "Ponda",
    "Districtname": "South Goa",
    "statename": "GOA"
  }
]
