[
  {
    "pincode": "403506",
    "officename": "Birondam B.O",
    "officeType": "B.O",
    "Deliverystatus": "Delivery",
    "divisionname": "Goa",
    "regionname": "Goa-Panaji",
    "circlename": "Maharashtra",
    "Taluk": "Sattari",
    "Districtname": "North Goa",
    "statename": "GOA"
  },
  {
    "pincode": "403506",
    "officename": "Cotorem B.O",
    "officeType": "B.O",
    "Deliverystatus": "Delivery",
    "divisionname": "Goa",
    "regionname": "Goa-Panaji",
    "circlename": "Maharashtra",
    "Taluk": "Sattari",
    "Districtname": "North Goa",
    "statename": "GOA"
  },
  {
    "pincode": "403506",
    "officename": "Guleli B.O",
    "officeType": "B.O",
    "Deliverystatus": "Delivery",
    "divisionname": "Goa",
    "regionname": "Goa-Panaji",
    "circlename": "Maharashtra",
    "Taluk": "Sattari",
    "Districtname": "North Goa",
    "statename": "GOA"
  },
  {
    "pincode": "403506",
    "officename": "Mauzi B.O",
    "officeType": "B.O",
    "Deliverystatus": "Delivery",
    "divisionname": "Goa",
    "regionname": "Goa-Panaji",
    "circlename": "Maharashtra",
    "Taluk": "Sattari",
    "Districtname": "North Goa",
    "statename": "GOA"
  },
  {
    "pincode": "403506",
    "officename": "Nagargaon B.O",
    "officeType": "B.O",
    "Deliverystatus": "Delivery",
    "divisionname": "Goa",
    "regionname": "Goa-Panaji",
    "circlename": "Maharashtra",
    "Taluk": "Sattari",
    "Districtname": "North Goa",
    "statename": "GOA"
  },
  {
    "pincode": "403506",
    "officename": "Nanorem B.O",
    "officeType": "B.O",
    "Deliverystatus": "Delivery",
    "divisionname": "Goa",
    "regionname": "Goa-Panaji",
    "circlename": "Maharashtra",
    "Taluk": "Sattari",
    "Districtname": "North Goa",
    "statename": "GOA"
  },
  {
    "pincode": "403506",
    "officename": "Sanvordem B.O",
    "officeType": "B.O",
    "Deliverystatus": "Delivery",
    "divisionname": "Goa",
    "regionname": "Goa-Panaji",
    "circlename": "Maharashtra",
    "Taluk": "Sattari",
    "Districtname": "North Goa",
    "statename": "GOA"
  },
  {
    "pincode": "403506",
    "officename": "Thana B.O",
    "officeType": "B.O",
    "Deliverystatus": "Delivery",
    "divisionname": "Goa",
    "regionname": "Goa-Panaji",
    "circlename": "Maharashtra",
    "Taluk": "Sattari",
    "Districtname": "North Goa",
    "statename": "GOA"
  },
  {
    "pincode": "403506",
    "officename": "Valpoi S.O",
    "officeType": "S.O",
    "Deliverystatus": "Delivery",
    "divisionname": "Goa",
    "regionname": "Goa-Panaji",
    "circlename": "Maharashtra",
    "Taluk": "Sattari",
    "Districtname": "North Goa",
    "statename": "GOA"
  },
  {
    "pincode": "403506",
    "officename": "Velguem O B.O",
    "officeType": "B.O",
    "Deliverystatus": "Delivery",
    "divisionname": "Goa",
    "regionname": "Goa-Panaji",
    "circlename": "Maharashtra",
    "Taluk": "Sattari",
    "Districtname": "North Goa",
    "statename": "GOA"
  }
]
