[
  {
    "pincode": "403702",
    "officename": "Agonda B.O",
    "officeType": "B.O",
    "Deliverystatus": "Delivery",
    "divisionname": "Goa",
    "regionname": "Goa-Panaji",
    "circlename": "Maharashtra",
    "Taluk": "Canacona",
    "Districtname": "South Goa",
    "statename": "GOA"
  },
  {
    "pincode": "403702",
    "officename": "Bhatpal B.O",
    "officeType": "B.O",
    "Deliverystatus": "Delivery",
    "divisionname": "Goa",
    "regionname": "Goa-Panaji",
    "circlename": "Maharashtra",
    "Taluk": "Canacona",
    "Districtname": "South Goa",
    "statename": "GOA"
  },
  {
    "pincode": "403702",
    "officename": "Canacona S.O",
    "officeType": "S.O",
    "Deliverystatus": "Delivery",
    "divisionname": "Goa",
    "regionname": "Goa-Panaji",
    "circlename": "Maharashtra",
    "Taluk": "Canacona",
    "Districtname": "South Goa",
    "statename": "GOA"
  },
  {
    "pincode": "403702",
    "officename": "Cola B.O",
    "officeType": "B.O",
    "Deliverystatus": "Delivery",
    "divisionname": "Goa",
    "regionname": "Goa-Panaji",
    "circlename": "Maharashtra",
    "Taluk": "Canacona",
    "Districtname": "South Goa",
    "statename": "GOA"
  },
  {
    "pincode": "403702",
    "officename": "Cotigaon B.O",
    "officeType": "B.O",
    "Deliverystatus": "Delivery",
    "divisionname": "Goa",
    "regionname": "Goa-Panaji",
    "circlename": "Maharashtra",
    "Taluk": "Canacona",
    "Districtname": "South Goa",
    "statename": "GOA"
  },
  {
    "pincode": "403702",
    "officename": "Gaodongarim B.O",
    "officeType": "B.O",
    "Deliverystatus": "Delivery",
    "divisionname": "Goa",
    "regionname": "Goa-Panaji",
    "circlename": "Maharashtra",
    "Taluk": "Cancona",
    "Districtname": "South Goa",
    "statename": "GOA"
  },
  {
    "pincode": "403702",
    "officename": "Palolem B.O",
    "officeType": "B.O",
    "Deliverystatus": "Delivery",
    "divisionname": "Goa",
    "regionname": "Goa-Panaji",
    "circlename": "Maharashtra",
    "Taluk": "Canacona",
    "Districtname": "South Goa",
    "statename": "GOA"
  },
  {
    "pincode": "403702",
    "officename": "Poinguinim B.O",
    "officeType": "B.O",
    "Deliverystatus": "Delivery",
    "divisionname": "Goa",
    "regionname": "Goa-Panaji",
    "circlename": "Maharashtra",
    "Taluk": "Cancona",
    "Districtname": "South Goa",
    "statename": "GOA"
  },
  {
    "pincode": "403702",
    "officename": "Sadolxem B.O",
    "officeType": "B.O",
    "Deliverystatus": "Delivery",
    "divisionname": "Goa",
    "regionname": "Goa-Panaji",
    "circlename": "Maharashtra",
    "Taluk": "Canacona",
    "Districtname": "South Goa",
    "statename": "GOA"
  }
]
