[
  {
    "pincode": "403704",
    "officename": "Bati B.O",
    "officeType": "B.O",
    "Deliverystatus": "Delivery",
    "divisionname": "Goa",
    "regionname": "Goa-Panaji",
    "circlename": "Maharashtra",
    "Taluk": "Sangaum",
    "Districtname": "South Goa",
    "statename": "GOA"
  },
  {
    "pincode": "403704",
    "officename": "Calem B.O",
    "officeType": "B.O",
    "Deliverystatus": "Delivery",
    "divisionname": "Goa",
    "regionname": "Goa-Panaji",
    "circlename": "Maharashtra",
    "Taluk": "Sangaum",
    "Districtname": "South Goa",
    "statename": "GOA"
  },
  {
    "pincode": "403704",
    "officename": "Curdi B.O",
    "officeType": "B.O",
    "Deliverystatus": "Delivery",
    "divisionname": "Goa",
    "regionname": "Goa-Panaji",
    "circlename": "Maharashtra",
    "Taluk": "Sangaum",
    "Districtname": "South Goa",
    "statename": "GOA"
  },
  {
    "pincode": "403704",
    "officename": "Molcarnem B.O",
    "officeType": "B.O",
    "Deliverystatus": "Non-Delivery",
    "divisionname": "Goa",
    "regionname": "Goa-Panaji",
    "circlename": "Maharashtra",
    "Taluk": "Sangaum",
    "Districtname": "South Goa",
    "statename": "GOA"
  },
  {
    "pincode": "403704",
    "officename": "Netorlim B.O",
    "officeType": "B.O",
    "Deliverystatus": "Delivery",
    "divisionname": "Goa",
    "regionname": "Goa-Panaji",
    "circlename": "Maharashtra",
    "Taluk": "Sangaum",
    "Districtname": "South Goa",
    "statename": "GOA"
  },
  {
    "pincode": "403704",
    "officename": "Sanguem S.O",
    "officeType": "S.O",
    "Deliverystatus": "Delivery",
    "divisionname": "Goa",
    "regionname": "Goa-Panaji",
    "circlename": "Maharashtra",
    "Taluk": "Sanguem",
    "Districtname": "South Goa",
    "statename": "GOA"
  },
  {
    "pincode": "403704",
    "officename": "Ugvem B.O",
    "officeType": "B.O",
    "Deliverystatus": "Delivery",
    "divisionname": "Goa",
    "regionname": "Goa-Panaji",
    "circlename": "Maharashtra",
    "Taluk": "Sangaum",
    "Districtname": "South Goa",
    "statename": "GOA"
  },
  {
    "pincode": "403704",
    "officename": "Valkini B.O",
    "officeType": "B.O",
    "Deliverystatus": "Delivery",
    "divisionname": "Goa",
    "regionname": "Goa-Panaji",
    "circlename": "Maharashtra",
    "Taluk": "Sangaum",
    "Districtname": "South Goa",
    "statename": "GOA"
  }
]
