[
  {
    "pincode": "410208",
    "officename": "Devichapada B.O",
    "officeType": "B.O",
    "Deliverystatus": "Delivery",
    "divisionname": "New Mumbai",
    "regionname": "Mumbai",
    "circlename": "Maharashtra",
    "Taluk": "Panvel",
    "Districtname": "Raigarh(MH)",
    "statename": "MAHARASHTRA"
  },
  {
    "pincode": "410208",
    "officename": "Koynavale B.O",
    "officeType": "B.O",
    "Deliverystatus": "Delivery",
    "divisionname": "New Mumbai",
    "regionname": "Mumbai",
    "circlename": "Maharashtra",
    "Taluk": "Panvel",
    "Districtname": "Raigarh(MH)",
    "statename": "MAHARASHTRA"
  },
  {
    "pincode": "410208",
    "officename": "Navde B.O",
    "officeType": "B.O",
    "Deliverystatus": "Delivery",
    "divisionname": "New Mumbai",
    "regionname": "Mumbai",
    "circlename": "Maharashtra",
    "Taluk": "Uran",
    "Districtname": "Raigarh(MH)",
    "statename": "MAHARASHTRA"
  },
  {
    "pincode": "410208",
    "officename": "Padghe B.O",
    "officeType": "B.O",
    "Deliverystatus": "Delivery",
    "divisionname": "New Mumbai",
    "regionname": "Mumbai",
    "circlename": "Maharashtra",
    "Taluk": "Panvel",
    "Districtname": "Raigarh(MH)",
    "statename": "MAHARASHTRA"
  },
  {
    "pincode": "410208",
    "officename": "Taloja A.V. S.O",
    "officeType": "S.O",
    "Deliverystatus": "Delivery",
    "divisionname": "New Mumbai",
    "regionname": "Mumbai",
    "circlename": "Maharashtra",
    "Taluk": "Panvel",
    "Districtname": "Raigarh(MH)",
    "statename": "MAHARASHTRA"
  },
  {
    "pincode": "410208",
    "officename": "Taloja B.O",
    "officeType": "B.O",
    "Deliverystatus": "Delivery",
    "divisionname": "New Mumbai",
    "regionname": "Mumbai",
    "circlename": "Maharashtra",
    "Taluk": "Panvel",
    "Districtname": "Raigarh(MH)",
    "statename": "MAHARASHTRA"
  },
  {
    "pincode": "410208",
    "officename": "Tondra B.O",
    "officeType": "B.O",
    "Deliverystatus": "Delivery",
    "divisionname": "New Mumbai",
    "regionname": "Mumbai",
    "circlename": "Maharashtra",
    "Taluk": "Panvel",
    "Districtname": "Raigarh(MH)",
    "statename": "MAHARASHTRA"
  },
  {
    "pincode": "410208",
    "officename": "Wawanje B.O",
    "officeType": "B.O",
    "Deliverystatus": "Delivery",
    "divisionname": "New Mumbai",
    "regionname": "Mumbai",
    "circlename": "Maharashtra",
    "Taluk": "Panvel",
    "Districtname": "Raigarh(MH)",
    "statename": "MAHARASHTRA"
  }
]
