[
  {
    "pincode": "410221",
    "officename": "Ajivali B.O",
    "officeType": "B.O",
    "Deliverystatus": "Delivery",
    "divisionname": "New Mumbai",
    "regionname": "Mumbai",
    "circlename": "Maharashtra",
    "Taluk": "Panvel",
    "Districtname": "Raigarh(MH)",
    "statename": "MAHARASHTRA"
  },
  {
    "pincode": "410221",
    "officename": "Barapada B.O",
    "officeType": "B.O",
    "Deliverystatus": "Delivery",
    "divisionname": "New Mumbai",
    "regionname": "Mumbai",
    "circlename": "Maharashtra",
    "Taluk": "Panvel",
    "Districtname": "Raigarh(MH)",
    "statename": "MAHARASHTRA"
  },
  {
    "pincode": "410221",
    "officename": "Chikhale B.O",
    "officeType": "B.O",
    "Deliverystatus": "Delivery",
    "divisionname": "New Mumbai",
    "regionname": "Mumbai",
    "circlename": "Maharashtra",
    "Taluk": "Panvel",
    "Districtname": "Raigarh(MH)",
    "statename": "MAHARASHTRA"
  },
  {
    "pincode": "410221",
    "officename": "Ongc Complex,panvel S.O",
    "officeType": "S.O",
    "Deliverystatus": "Delivery",
    "divisionname": "New Mumbai",
    "regionname": "Mumbai",
    "circlename": "Maharashtra",
    "Taluk": "Panvel",
    "Districtname": "Raigarh(MH)",
    "statename": "MAHARASHTRA"
  },
  {
    "pincode": "410221",
    "officename": "Palaspe B.O",
    "officeType": "B.O",
    "Deliverystatus": "Delivery",
    "divisionname": "New Mumbai",
    "regionname": "Mumbai",
    "circlename": "Maharashtra",
    "Taluk": "Panvel",
    "Districtname": "Raigarh(MH)",
    "statename": "MAHARASHTRA"
  },
  {
    "pincode": "410221",
    "officename": "Poyanje B.O",
    "officeType": "B.O",
    "Deliverystatus": "Delivery",
    "divisionname": "New Mumbai",
    "regionname": "Mumbai",
    "circlename": "Maharashtra",
    "Taluk": "Panvel",
    "Districtname": "Raigarh(MH)",
    "statename": "MAHARASHTRA"
  },
  {
    "pincode": "410221",
    "officename": "Sai B.O",
    "officeType": "B.O",
    "Deliverystatus": "Delivery",
    "divisionname": "New Mumbai",
    "regionname": "Mumbai",
    "circlename": "Maharashtra",
    "Taluk": "Panvel",
    "Districtname": "Raigarh(MH)",
    "statename": "MAHARASHTRA"
  },
  {
    "pincode": "410221",
    "officename": "Shirdhon B.O",
    "officeType": "B.O",
    "Deliverystatus": "Delivery",
    "divisionname": "New Mumbai",
    "regionname": "Mumbai",
    "circlename": "Maharashtra",
    "Taluk": "Panvel",
    "Districtname": "Raigarh(MH)",
    "statename": "MAHARASHTRA"
  }
]
