[
  {
    "pincode": "410201",
    "officename": "Ambivali B.O",
    "officeType": "B.O",
    "Deliverystatus": "Delivery",
    "divisionname": "New Mumbai",
    "regionname": "Mumbai",
    "circlename": "Maharashtra",
    "Taluk": "Panvel",
    "Districtname": "Raigarh(MH)",
    "statename": "MAHARASHTRA"
  },
  {
    "pincode": "410201",
    "officename": "Beed Budruk B.O",
    "officeType": "B.O",
    "Deliverystatus": "Delivery",
    "divisionname": "New Mumbai",
    "regionname": "Mumbai",
    "circlename": "Maharashtra",
    "Taluk": "Karjat",
    "Districtname": "Raigarh(MH)",
    "statename": "MAHARASHTRA"
  },
  {
    "pincode": "410201",
    "officename": "Bhivpuri Camp B.O",
    "officeType": "B.O",
    "Deliverystatus": "Delivery",
    "divisionname": "New Mumbai",
    "regionname": "Mumbai",
    "circlename": "Maharashtra",
    "Taluk": "Karjat",
    "Districtname": "Raigarh(MH)",
    "statename": "MAHARASHTRA"
  },
  {
    "pincode": "410201",
    "officename": "Chinchwali B.O",
    "officeType": "B.O",
    "Deliverystatus": "Delivery",
    "divisionname": "New Mumbai",
    "regionname": "Mumbai",
    "circlename": "Maharashtra",
    "Taluk": "Karjat",
    "Districtname": "Raigarh(MH)",
    "statename": "MAHARASHTRA"
  },
  {
    "pincode": "410201",
    "officename": "Dahivali T.Need B.O",
    "officeType": "B.O",
    "Deliverystatus": "Delivery",
    "divisionname": "New Mumbai",
    "regionname": "Mumbai",
    "circlename": "Maharashtra",
    "Taluk": "Karjat",
    "Districtname": "Raigarh(MH)",
    "statename": "MAHARASHTRA"
  },
  {
    "pincode": "410201",
    "officename": "Gaulwadi B.O",
    "officeType": "B.O",
    "Deliverystatus": "Delivery",
    "divisionname": "New Mumbai",
    "regionname": "Mumbai",
    "circlename": "Maharashtra",
    "Taluk": "Karjat",
    "Districtname": "Raigarh(MH)",
    "statename": "MAHARASHTRA"
  },
  {
    "pincode": "410201",
    "officename": "Gaurkamath B.O",
    "officeType": "B.O",
    "Deliverystatus": "Delivery",
    "divisionname": "New Mumbai",
    "regionname": "Mumbai",
    "circlename": "Maharashtra",
    "Taluk": "Karjat",
    "Districtname": "Raigarh(MH)",
    "statename": "MAHARASHTRA"
  },
  {
    "pincode": "410201",
    "officename": "Gundge B.O",
    "officeType": "B.O",
    "Deliverystatus": "Delivery",
    "divisionname": "New Mumbai",
    "regionname": "Mumbai",
    "circlename": "Maharashtra",
    "Taluk": "Karjat",
    "Districtname": "Raigarh(MH)",
    "statename": "MAHARASHTRA"
  },
  {
    "pincode": "410201",
    "officename": "Humgaon B.O",
    "officeType": "B.O",
    "Deliverystatus": "Delivery",
    "divisionname": "New Mumbai",
    "regionname": "Mumbai",
    "circlename": "Maharashtra",
    "Taluk": "Karjat",
    "Districtname": "Raigarh(MH)",
    "statename": "MAHARASHTRA"
  },
  {
    "pincode": "410201",
    "officename": "Jambrung B.O",
    "officeType": "B.O",
    "Deliverystatus": "Delivery",
    "divisionname": "New Mumbai",
    "regionname": "Mumbai",
    "circlename": "Maharashtra",
    "Taluk": "Karjat",
    "Districtname": "Raigarh(MH)",
    "statename": "MAHARASHTRA"
  },
  {
    "pincode": "410201",
    "officename": "Kadav B.O",
    "officeType": "B.O",
    "Deliverystatus": "Delivery",
    "divisionname": "New Mumbai",
    "regionname": "Mumbai",
    "circlename": "Maharashtra",
    "Taluk": "Karjat",
    "Districtname": "Raigarh(MH)",
    "statename": "MAHARASHTRA"
  },
  {
    "pincode": "410201",
    "officename": "Karjat S.O (Raigarh(MH))",
    "officeType": "S.O",
    "Deliverystatus": "Delivery",
    "divisionname": "New Mumbai",
    "regionname": "Mumbai",
    "circlename": "Maharashtra",
    "Taluk": "",
    "Districtname": "Raigarh(MH)",
    "statename": "MAHARASHTRA"
  },
  {
    "pincode": "410201",
    "officename": "Kashele B.O",
    "officeType": "B.O",
    "Deliverystatus": "Delivery",
    "divisionname": "New Mumbai",
    "regionname": "Mumbai",
    "circlename": "Maharashtra",
    "Taluk": "Karjat",
    "Districtname": "Raigarh(MH)",
    "statename": "MAHARASHTRA"
  },
  {
    "pincode": "410201",
    "officename": "Khandas B.O",
    "officeType": "B.O",
    "Deliverystatus": "Delivery",
    "divisionname": "New Mumbai",
    "regionname": "Mumbai",
    "circlename": "Maharashtra",
    "Taluk": "Karjat",
    "Districtname": "Raigarh(MH)",
    "statename": "MAHARASHTRA"
  },
  {
    "pincode": "410201",
    "officename": "Kirwali B.O",
    "officeType": "B.O",
    "Deliverystatus": "Delivery",
    "divisionname": "New Mumbai",
    "regionname": "Mumbai",
    "circlename": "Maharashtra",
    "Taluk": "Karjat",
    "Districtname": "Raigarh(MH)",
    "statename": "MAHARASHTRA"
  },
  {
    "pincode": "410201",
    "officename": "Kondivade B.O",
    "officeType": "B.O",
    "Deliverystatus": "Delivery",
    "divisionname": "New Mumbai",
    "regionname": "Mumbai",
    "circlename": "Maharashtra",
    "Taluk": "Karjat",
    "Districtname": "Raigarh(MH)",
    "statename": "MAHARASHTRA"
  },
  {
    "pincode": "410201",
    "officename": "Koshane B.O",
    "officeType": "B.O",
    "Deliverystatus": "Delivery",
    "divisionname": "New Mumbai",
    "regionname": "Mumbai",
    "circlename": "Maharashtra",
    "Taluk": "Karjat",
    "Districtname": "Raigarh(MH)",
    "statename": "MAHARASHTRA"
  },
  {
    "pincode": "410201",
    "officename": "Mandavane B.O",
    "officeType": "B.O",
    "Deliverystatus": "Delivery",
    "divisionname": "New Mumbai",
    "regionname": "Mumbai",
    "circlename": "Maharashtra",
    "Taluk": "Karjat",
    "Districtname": "Raigarh(MH)",
    "statename": "MAHARASHTRA"
  },
  {
    "pincode": "410201",
    "officename": "Nandgaon B.O",
    "officeType": "B.O",
    "Deliverystatus": "Delivery",
    "divisionname": "New Mumbai",
    "regionname": "Mumbai",
    "circlename": "Maharashtra",
    "Taluk": "Karjat",
    "Districtname": "Raigarh(MH)",
    "statename": "MAHARASHTRA"
  },
  {
    "pincode": "410201",
    "officename": "Nasarapur B.O",
    "officeType": "B.O",
    "Deliverystatus": "Delivery",
    "divisionname": "New Mumbai",
    "regionname": "Mumbai",
    "circlename": "Maharashtra",
    "Taluk": "Karjat",
    "Districtname": "Raigarh(MH)",
    "statename": "MAHARASHTRA"
  },
  {
    "pincode": "410201",
    "officename": "Palasdari B.O",
    "officeType": "B.O",
    "Deliverystatus": "Delivery",
    "divisionname": "New Mumbai",
    "regionname": "Mumbai",
    "circlename": "Maharashtra",
    "Taluk": "Karjat",
    "Districtname": "Raigarh(MH)",
    "statename": "MAHARASHTRA"
  },
  {
    "pincode": "410201",
    "officename": "Pathraj B.O",
    "officeType": "B.O",
    "Deliverystatus": "Delivery",
    "divisionname": "New Mumbai",
    "regionname": "Mumbai",
    "circlename": "Maharashtra",
    "Taluk": "Akrjat",
    "Districtname": "Raigarh(MH)",
    "statename": "MAHARASHTRA"
  },
  {
    "pincode": "410201",
    "officename": "Salokh T.Need B.O",
    "officeType": "B.O",
    "Deliverystatus": "Delivery",
    "divisionname": "New Mumbai",
    "regionname": "Mumbai",
    "circlename": "Maharashtra",
    "Taluk": "Karjat",
    "Districtname": "Raigarh(MH)",
    "statename": "MAHARASHTRA"
  },
  {
    "pincode": "410201",
    "officename": "Sugawe B.O",
    "officeType": "B.O",
    "Deliverystatus": "Delivery",
    "divisionname": "New Mumbai",
    "regionname": "Mumbai",
    "circlename": "Maharashtra",
    "Taluk": "Karjat",
    "Districtname": "Raigarh(MH)",
    "statename": "MAHARASHTRA"
  },
  {
    "pincode": "410201",
    "officename": "Tiware B.O",
    "officeType": "B.O",
    "Deliverystatus": "Delivery",
    "divisionname": "New Mumbai",
    "regionname": "Mumbai",
    "circlename": "Maharashtra",
    "Taluk": "Karjat",
    "Districtname": "Raigarh(MH)",
    "statename": "MAHARASHTRA"
  },
  {
    "pincode": "410201",
    "officename": "Vengaon B.O",
    "officeType": "B.O",
    "Deliverystatus": "Delivery",
    "divisionname": "New Mumbai",
    "regionname": "Mumbai",
    "circlename": "Maharashtra",
    "Taluk": "Karjat",
    "Districtname": "Raigarh(MH)",
    "statename": "MAHARASHTRA"
  }
]
