[
  {
    "pincode": "410504",
    "officename": "Hivare BK B.O",
    "officeType": "B.O",
    "Deliverystatus": "Delivery",
    "divisionname": "Pune Moffusil",
    "regionname": "Pune",
    "circlename": "Maharashtra",
    "Taluk": "Junnar",
    "Districtname": "Pune",
    "statename": "MAHARASHTRA"
  },
  {
    "pincode": "410504",
    "officename": "Jambhut B.O",
    "officeType": "B.O",
    "Deliverystatus": "Delivery",
    "divisionname": "Pune Moffusil",
    "regionname": "Pune",
    "circlename": "Maharashtra",
    "Taluk": "Shirur",
    "Districtname": "Pune",
    "statename": "MAHARASHTRA"
  },
  {
    "pincode": "410504",
    "officename": "Khamundi B.O",
    "officeType": "B.O",
    "Deliverystatus": "Delivery",
    "divisionname": "Pune Moffusil",
    "regionname": "Pune",
    "circlename": "Maharashtra",
    "Taluk": "Junnar",
    "Districtname": "Pune",
    "statename": "MAHARASHTRA"
  },
  {
    "pincode": "410504",
    "officename": "Khodad B.O",
    "officeType": "B.O",
    "Deliverystatus": "Delivery",
    "divisionname": "Pune Moffusil",
    "regionname": "Pune",
    "circlename": "Maharashtra",
    "Taluk": "Junnar",
    "Districtname": "Pune",
    "statename": "MAHARASHTRA"
  },
  {
    "pincode": "410504",
    "officename": "Narayangaon S.O",
    "officeType": "S.O",
    "Deliverystatus": "Delivery",
    "divisionname": "Pune Moffusil",
    "regionname": "Pune",
    "circlename": "Maharashtra",
    "Taluk": "Junnar",
    "Districtname": "Pune",
    "statename": "MAHARASHTRA"
  },
  {
    "pincode": "410504",
    "officename": "Nimgaon Sava B.O",
    "officeType": "B.O",
    "Deliverystatus": "Delivery",
    "divisionname": "Pune Moffusil",
    "regionname": "Pune",
    "circlename": "Maharashtra",
    "Taluk": "Junnar",
    "Districtname": "Pune",
    "statename": "MAHARASHTRA"
  },
  {
    "pincode": "410504",
    "officename": "Ozar B.O",
    "officeType": "B.O",
    "Deliverystatus": "Delivery",
    "divisionname": "Pune Moffusil",
    "regionname": "Pune",
    "circlename": "Maharashtra",
    "Taluk": "Junnar",
    "Districtname": "Pune",
    "statename": "MAHARASHTRA"
  },
  {
    "pincode": "410504",
    "officename": "Pargaon Tarfe Ala B.O",
    "officeType": "B.O",
    "Deliverystatus": "Delivery",
    "divisionname": "Pune Moffusil",
    "regionname": "Pune",
    "circlename": "Maharashtra",
    "Taluk": "Junnar",
    "Districtname": "Pune",
    "statename": "MAHARASHTRA"
  },
  {
    "pincode": "410504",
    "officename": "Pimparkhed B.O",
    "officeType": "B.O",
    "Deliverystatus": "Delivery",
    "divisionname": "Pune Moffusil",
    "regionname": "Pune",
    "circlename": "Maharashtra",
    "Taluk": "Shirur",
    "Districtname": "Pune",
    "statename": "MAHARASHTRA"
  },
  {
    "pincode": "410504",
    "officename": "Pimpri Pendhar B.O",
    "officeType": "B.O",
    "Deliverystatus": "Delivery",
    "divisionname": "Pune Moffusil",
    "regionname": "Pune",
    "circlename": "Maharashtra",
    "Taluk": "Junnar",
    "Districtname": "Pune",
    "statename": "MAHARASHTRA"
  },
  {
    "pincode": "410504",
    "officename": "Ranjani B.O",
    "officeType": "B.O",
    "Deliverystatus": "Delivery",
    "divisionname": "Pune Moffusil",
    "regionname": "Pune",
    "circlename": "Maharashtra",
    "Taluk": "Ambegaon",
    "Districtname": "Pune",
    "statename": "MAHARASHTRA"
  },
  {
    "pincode": "410504",
    "officename": "Valati B.O",
    "officeType": "B.O",
    "Deliverystatus": "Delivery",
    "divisionname": "Pune Moffusil",
    "regionname": "Pune",
    "circlename": "Maharashtra",
    "Taluk": "Ambegaon",
    "Districtname": "Pune",
    "statename": "MAHARASHTRA"
  },
  {
    "pincode": "410504",
    "officename": "Yedgaon B.O",
    "officeType": "B.O",
    "Deliverystatus": "Delivery",
    "divisionname": "Pune Moffusil",
    "regionname": "Pune",
    "circlename": "Maharashtra",
    "Taluk": "Junnar",
    "Districtname": "Pune",
    "statename": "MAHARASHTRA"
  }
]
