[
  {
    "pincode": "411001",
    "officename": "C D A (O) S.O",
    "officeType": "S.O",
    "Deliverystatus": "Non-Delivery",
    "divisionname": "Pune City East",
    "regionname": "Pune",
    "circlename": "Maharashtra",
    "Taluk": "Pune City",
    "Districtname": "Pune",
    "statename": "MAHARASHTRA"
  },
  {
    "pincode": "411001",
    "officename": "Dr.B.A. Chowk S.O",
    "officeType": "S.O",
    "Deliverystatus": "Non-Delivery",
    "divisionname": "Pune City East",
    "regionname": "Pune",
    "circlename": "Maharashtra",
    "Taluk": "Pune City",
    "Districtname": "Pune",
    "statename": "MAHARASHTRA"
  },
  {
    "pincode": "411001",
    "officename": "Ghorpuri Bazar S.O",
    "officeType": "S.O",
    "Deliverystatus": "Non-Delivery",
    "divisionname": "Pune City East",
    "regionname": "Pune",
    "circlename": "Maharashtra",
    "Taluk": "Pune City",
    "Districtname": "Pune",
    "statename": "MAHARASHTRA"
  },
  {
    "pincode": "411001",
    "officename": "N.W. College S.O",
    "officeType": "S.O",
    "Deliverystatus": "Non-Delivery",
    "divisionname": "Pune City East",
    "regionname": "Pune",
    "circlename": "Maharashtra",
    "Taluk": "Pune City",
    "Districtname": "Pune",
    "statename": "MAHARASHTRA"
  },
  {
    "pincode": "411001",
    "officename": "Pune Cantt East S.O",
    "officeType": "S.O",
    "Deliverystatus": "Non-Delivery",
    "divisionname": "Pune City East",
    "regionname": "Pune",
    "circlename": "Maharashtra",
    "Taluk": "Pune City",
    "Districtname": "Pune",
    "statename": "MAHARASHTRA"
  },
  {
    "pincode": "411001",
    "officename": "Pune H.O",
    "officeType": "H.O",
    "Deliverystatus": "Delivery",
    "divisionname": "Pune City East",
    "regionname": "Pune",
    "circlename": "Maharashtra",
    "Taluk": "Pune City",
    "Districtname": "Pune",
    "statename": "MAHARASHTRA"
  },
  {
    "pincode": "411001",
    "officename": "Pune New Bazar S.O",
    "officeType": "S.O",
    "Deliverystatus": "Non-Delivery",
    "divisionname": "Pune City East",
    "regionname": "Pune",
    "circlename": "Maharashtra",
    "Taluk": "Pune City",
    "Districtname": "Pune",
    "statename": "MAHARASHTRA"
  },
  {
    "pincode": "411001",
    "officename": "Sachapir Street S.O",
    "officeType": "S.O",
    "Deliverystatus": "Non-Delivery",
    "divisionname": "Pune City East",
    "regionname": "Pune",
    "circlename": "Maharashtra",
    "Taluk": "Pune City",
    "Districtname": "Pune",
    "statename": "MAHARASHTRA"
  }
]
