[
  {
    "pincode": "412213",
    "officename": "Ambavane B.O",
    "officeType": "B.O",
    "Deliverystatus": "Delivery",
    "divisionname": "Pune Moffusil",
    "regionname": "Pune",
    "circlename": "Maharashtra",
    "Taluk": "Bhor",
    "Districtname": "Pune",
    "statename": "MAHARASHTRA"
  },
  {
    "pincode": "412213",
    "officename": "Dapode B.O",
    "officeType": "B.O",
    "Deliverystatus": "Delivery",
    "divisionname": "Pune Moffusil",
    "regionname": "Pune",
    "circlename": "Maharashtra",
    "Taluk": "Bhor",
    "Districtname": "Pune",
    "statename": "MAHARASHTRA"
  },
  {
    "pincode": "412213",
    "officename": "Degaon B.O",
    "officeType": "B.O",
    "Deliverystatus": "Delivery",
    "divisionname": "Pune Moffusil",
    "regionname": "Pune",
    "circlename": "Maharashtra",
    "Taluk": "Bhor",
    "Districtname": "Pune",
    "statename": "MAHARASHTRA"
  },
  {
    "pincode": "412213",
    "officename": "Gunjawane B.O",
    "officeType": "B.O",
    "Deliverystatus": "Delivery",
    "divisionname": "Pune Moffusil",
    "regionname": "Pune",
    "circlename": "Maharashtra",
    "Taluk": "Bhor",
    "Districtname": "Pune",
    "statename": "MAHARASHTRA"
  },
  {
    "pincode": "412213",
    "officename": "Hatve BK B.O",
    "officeType": "B.O",
    "Deliverystatus": "Delivery",
    "divisionname": "Pune Moffusil",
    "regionname": "Pune",
    "circlename": "Maharashtra",
    "Taluk": "Bhor",
    "Districtname": "Pune",
    "statename": "MAHARASHTRA"
  },
  {
    "pincode": "412213",
    "officename": "Jambhali BK B.O",
    "officeType": "B.O",
    "Deliverystatus": "Delivery",
    "divisionname": "Pune Moffusil",
    "regionname": "Pune",
    "circlename": "Maharashtra",
    "Taluk": "Bhor",
    "Districtname": "Pune",
    "statename": "MAHARASHTRA"
  },
  {
    "pincode": "412213",
    "officename": "Kamthadi B.O",
    "officeType": "B.O",
    "Deliverystatus": "Delivery",
    "divisionname": "Pune Moffusil",
    "regionname": "Pune",
    "circlename": "Maharashtra",
    "Taluk": "Bhor",
    "Districtname": "Pune",
    "statename": "MAHARASHTRA"
  },
  {
    "pincode": "412213",
    "officename": "Karandi Khedebare B.O",
    "officeType": "B.O",
    "Deliverystatus": "Delivery",
    "divisionname": "Pune Moffusil",
    "regionname": "Pune",
    "circlename": "Maharashtra",
    "Taluk": "Bhor",
    "Districtname": "Pune",
    "statename": "MAHARASHTRA"
  },
  {
    "pincode": "412213",
    "officename": "Karanjawane B.O",
    "officeType": "B.O",
    "Deliverystatus": "Delivery",
    "divisionname": "Pune Moffusil",
    "regionname": "Pune",
    "circlename": "Maharashtra",
    "Taluk": "Bhor",
    "Districtname": "Pune",
    "statename": "MAHARASHTRA"
  },
  {
    "pincode": "412213",
    "officename": "Kelawade B.O",
    "officeType": "B.O",
    "Deliverystatus": "Delivery",
    "divisionname": "Pune Moffusil",
    "regionname": "Pune",
    "circlename": "Maharashtra",
    "Taluk": "Bhor",
    "Districtname": "Pune",
    "statename": "MAHARASHTRA"
  },
  {
    "pincode": "412213",
    "officename": "Kolwadi B.O",
    "officeType": "B.O",
    "Deliverystatus": "Delivery",
    "divisionname": "Pune Moffusil",
    "regionname": "Pune",
    "circlename": "Maharashtra",
    "Taluk": "Bhor",
    "Districtname": "Pune",
    "statename": "MAHARASHTRA"
  },
  {
    "pincode": "412213",
    "officename": "Kurungwadi B.O",
    "officeType": "B.O",
    "Deliverystatus": "Delivery",
    "divisionname": "Pune Moffusil",
    "regionname": "Pune",
    "circlename": "Maharashtra",
    "Taluk": "Bhor",
    "Districtname": "Pune",
    "statename": "MAHARASHTRA"
  },
  {
    "pincode": "412213",
    "officename": "Manjal Asani B.O",
    "officeType": "B.O",
    "Deliverystatus": "Delivery",
    "divisionname": "Pune Moffusil",
    "regionname": "Pune",
    "circlename": "Maharashtra",
    "Taluk": "Bhor",
    "Districtname": "Pune",
    "statename": "MAHARASHTRA"
  },
  {
    "pincode": "412213",
    "officename": "Margasni B.O",
    "officeType": "B.O",
    "Deliverystatus": "Delivery",
    "divisionname": "Pune Moffusil",
    "regionname": "Pune",
    "circlename": "Maharashtra",
    "Taluk": "Bhor",
    "Districtname": "Pune",
    "statename": "MAHARASHTRA"
  },
  {
    "pincode": "412213",
    "officename": "Nasrapur S.O",
    "officeType": "S.O",
    "Deliverystatus": "Delivery",
    "divisionname": "Pune Moffusil",
    "regionname": "Pune",
    "circlename": "Maharashtra",
    "Taluk": "Bhor",
    "Districtname": "Pune",
    "statename": "MAHARASHTRA"
  },
  {
    "pincode": "412213",
    "officename": "Sakhar B.O",
    "officeType": "B.O",
    "Deliverystatus": "Delivery",
    "divisionname": "Pune Moffusil",
    "regionname": "Pune",
    "circlename": "Maharashtra",
    "Taluk": "Bhor",
    "Districtname": "Pune",
    "statename": "MAHARASHTRA"
  },
  {
    "pincode": "412213",
    "officename": "Tambad B.O",
    "officeType": "B.O",
    "Deliverystatus": "Delivery",
    "divisionname": "Pune Moffusil",
    "regionname": "Pune",
    "circlename": "Maharashtra",
    "Taluk": "Bhor",
    "Districtname": "Pune",
    "statename": "MAHARASHTRA"
  },
  {
    "pincode": "412213",
    "officename": "Wangani B.O",
    "officeType": "B.O",
    "Deliverystatus": "Delivery",
    "divisionname": "Pune Moffusil",
    "regionname": "Pune",
    "circlename": "Maharashtra",
    "Taluk": "Velhe",
    "Districtname": "Pune",
    "statename": "MAHARASHTRA"
  },
  {
    "pincode": "412213",
    "officename": "Winzer B.O",
    "officeType": "B.O",
    "Deliverystatus": "Delivery",
    "divisionname": "Pune Moffusil",
    "regionname": "Pune",
    "circlename": "Maharashtra",
    "Taluk": "Velhe",
    "Districtname": "Pune",
    "statename": "MAHARASHTRA"
  }
]
