[
  {
    "pincode": "412214",
    "officename": "Bhandgaon B.O",
    "officeType": "B.O",
    "Deliverystatus": "Delivery",
    "divisionname": "Pune Moffusil",
    "regionname": "Pune",
    "circlename": "Maharashtra",
    "Taluk": "Daund",
    "Districtname": "Pune",
    "statename": "MAHARASHTRA"
  },
  {
    "pincode": "412214",
    "officename": "Delwadi B.O",
    "officeType": "B.O",
    "Deliverystatus": "Delivery",
    "divisionname": "Pune Moffusil",
    "regionname": "Pune",
    "circlename": "Maharashtra",
    "Taluk": "Daund",
    "Districtname": "Pune",
    "statename": "MAHARASHTRA"
  },
  {
    "pincode": "412214",
    "officename": "Kasurdi B.O",
    "officeType": "B.O",
    "Deliverystatus": "Delivery",
    "divisionname": "Pune Moffusil",
    "regionname": "Pune",
    "circlename": "Maharashtra",
    "Taluk": "Daund",
    "Districtname": "Pune",
    "statename": "MAHARASHTRA"
  },
  {
    "pincode": "412214",
    "officename": "Khamgaon BK B.O",
    "officeType": "B.O",
    "Deliverystatus": "Delivery",
    "divisionname": "Pune Moffusil",
    "regionname": "Pune",
    "circlename": "Maharashtra",
    "Taluk": "Daund",
    "Districtname": "Pune",
    "statename": "MAHARASHTRA"
  },
  {
    "pincode": "412214",
    "officename": "Nathachi Wadi B.O",
    "officeType": "B.O",
    "Deliverystatus": "Delivery",
    "divisionname": "Pune Moffusil",
    "regionname": "Pune",
    "circlename": "Maharashtra",
    "Taluk": "Daund",
    "Districtname": "Pune",
    "statename": "MAHARASHTRA"
  },
  {
    "pincode": "412214",
    "officename": "Rahu Pimpalgaon B.O",
    "officeType": "B.O",
    "Deliverystatus": "Delivery",
    "divisionname": "Pune Moffusil",
    "regionname": "Pune",
    "circlename": "Maharashtra",
    "Taluk": "Daund",
    "Districtname": "Pune",
    "statename": "MAHARASHTRA"
  },
  {
    "pincode": "412214",
    "officename": "Yavat R S B.O",
    "officeType": "B.O",
    "Deliverystatus": "Non-Delivery",
    "divisionname": "Pune Moffusil",
    "regionname": "Pune",
    "circlename": "Maharashtra",
    "Taluk": "Daund",
    "Districtname": "Pune",
    "statename": "MAHARASHTRA"
  },
  {
    "pincode": "412214",
    "officename": "Yavat S.O",
    "officeType": "S.O",
    "Deliverystatus": "Delivery",
    "divisionname": "Pune Moffusil",
    "regionname": "Pune",
    "circlename": "Maharashtra",
    "Taluk": "Daund",
    "Districtname": "Pune",
    "statename": "MAHARASHTRA"
  }
]
