[
  {
    "pincode": "412207",
    "officename": "Ashtapur B.O",
    "officeType": "B.O",
    "Deliverystatus": "Delivery",
    "divisionname": "Pune Moffusil",
    "regionname": "Pune",
    "circlename": "Maharashtra",
    "Taluk": "Haveli",
    "Districtname": "Pune",
    "statename": "MAHARASHTRA"
  },
  {
    "pincode": "412207",
    "officename": "Dahitane B.O",
    "officeType": "B.O",
    "Deliverystatus": "Delivery",
    "divisionname": "Pune Moffusil",
    "regionname": "Pune",
    "circlename": "Maharashtra",
    "Taluk": "Haveli",
    "Districtname": "Pune",
    "statename": "MAHARASHTRA"
  },
  {
    "pincode": "412207",
    "officename": "Kesnand B.O",
    "officeType": "B.O",
    "Deliverystatus": "Delivery",
    "divisionname": "Pune Moffusil",
    "regionname": "Pune",
    "circlename": "Maharashtra",
    "Taluk": "Haveli",
    "Districtname": "Pune",
    "statename": "MAHARASHTRA"
  },
  {
    "pincode": "412207",
    "officename": "Koregaon Bhivar B.O",
    "officeType": "B.O",
    "Deliverystatus": "Delivery",
    "divisionname": "Pune Moffusil",
    "regionname": "Pune",
    "circlename": "Maharashtra",
    "Taluk": "Haveli",
    "Districtname": "Pune",
    "statename": "MAHARASHTRA"
  },
  {
    "pincode": "412207",
    "officename": "Rahu B.O",
    "officeType": "B.O",
    "Deliverystatus": "Delivery",
    "divisionname": "Pune Moffusil",
    "regionname": "Pune",
    "circlename": "Maharashtra",
    "Taluk": "Daund",
    "Districtname": "Pune",
    "statename": "MAHARASHTRA"
  },
  {
    "pincode": "412207",
    "officename": "Telewadi B.O",
    "officeType": "B.O",
    "Deliverystatus": "Delivery",
    "divisionname": "Pune Moffusil",
    "regionname": "Pune",
    "circlename": "Maharashtra",
    "Taluk": "Daund",
    "Districtname": "Pune",
    "statename": "MAHARASHTRA"
  },
  {
    "pincode": "412207",
    "officename": "Vadebholhai B.O",
    "officeType": "B.O",
    "Deliverystatus": "Delivery",
    "divisionname": "Pune Moffusil",
    "regionname": "Pune",
    "circlename": "Maharashtra",
    "Taluk": "Haveli",
    "Districtname": "Pune",
    "statename": "MAHARASHTRA"
  },
  {
    "pincode": "412207",
    "officename": "Vagholi S.O",
    "officeType": "S.O",
    "Deliverystatus": "Delivery",
    "divisionname": "Pune Moffusil",
    "regionname": "Pune",
    "circlename": "Maharashtra",
    "Taluk": "Haveli",
    "Districtname": "Pune",
    "statename": "MAHARASHTRA"
  },
  {
    "pincode": "412207",
    "officename": "Walki B.O",
    "officeType": "B.O",
    "Deliverystatus": "Delivery",
    "divisionname": "Pune Moffusil",
    "regionname": "Pune",
    "circlename": "Maharashtra",
    "Taluk": "Daund",
    "Districtname": "Pune",
    "statename": "MAHARASHTRA"
  }
]
