[
  {
    "pincode": "412409",
    "officename": "Chilewadi B.O",
    "officeType": "B.O",
    "Deliverystatus": "Delivery",
    "divisionname": "Pune Moffusil",
    "regionname": "Pune",
    "circlename": "Maharashtra",
    "Taluk": "Junnar",
    "Districtname": "Pune",
    "statename": "MAHARASHTRA"
  },
  {
    "pincode": "412409",
    "officename": "Dholwad B.O",
    "officeType": "B.O",
    "Deliverystatus": "Delivery",
    "divisionname": "Pune Moffusil",
    "regionname": "Pune",
    "circlename": "Maharashtra",
    "Taluk": "Junnar",
    "Districtname": "Pune",
    "statename": "MAHARASHTRA"
  },
  {
    "pincode": "412409",
    "officename": "Dingore B.O",
    "officeType": "B.O",
    "Deliverystatus": "Delivery",
    "divisionname": "Pune Moffusil",
    "regionname": "Pune",
    "circlename": "Maharashtra",
    "Taluk": "Junnar",
    "Districtname": "Pune",
    "statename": "MAHARASHTRA"
  },
  {
    "pincode": "412409",
    "officename": "Hivare KH B.O",
    "officeType": "B.O",
    "Deliverystatus": "Delivery",
    "divisionname": "Pune Moffusil",
    "regionname": "Pune",
    "circlename": "Maharashtra",
    "Taluk": "Junnar",
    "Districtname": "Pune",
    "statename": "MAHARASHTRA"
  },
  {
    "pincode": "412409",
    "officename": "Khubi B.O",
    "officeType": "B.O",
    "Deliverystatus": "Delivery",
    "divisionname": "Pune Moffusil",
    "regionname": "Pune",
    "circlename": "Maharashtra",
    "Taluk": "Junnar",
    "Districtname": "Pune",
    "statename": "MAHARASHTRA"
  },
  {
    "pincode": "412409",
    "officename": "Madh B.O",
    "officeType": "B.O",
    "Deliverystatus": "Delivery",
    "divisionname": "Pune Moffusil",
    "regionname": "Pune",
    "circlename": "Maharashtra",
    "Taluk": "Junnar",
    "Districtname": "Pune",
    "statename": "MAHARASHTRA"
  },
  {
    "pincode": "412409",
    "officename": "Mandave B.O",
    "officeType": "B.O",
    "Deliverystatus": "Delivery",
    "divisionname": "Pune Moffusil",
    "regionname": "Pune",
    "circlename": "Maharashtra",
    "Taluk": "Junnar",
    "Districtname": "Pune",
    "statename": "MAHARASHTRA"
  },
  {
    "pincode": "412409",
    "officename": "Netwad B.O",
    "officeType": "B.O",
    "Deliverystatus": "Delivery",
    "divisionname": "Pune Moffusil",
    "regionname": "Pune",
    "circlename": "Maharashtra",
    "Taluk": "Junnar",
    "Districtname": "Pune",
    "statename": "MAHARASHTRA"
  },
  {
    "pincode": "412409",
    "officename": "Otur S.O",
    "officeType": "S.O",
    "Deliverystatus": "Delivery",
    "divisionname": "Pune Moffusil",
    "regionname": "Pune",
    "circlename": "Maharashtra",
    "Taluk": "Junnar",
    "Districtname": "Pune",
    "statename": "MAHARASHTRA"
  },
  {
    "pincode": "412409",
    "officename": "Pargaon Tarfe Madh B.O",
    "officeType": "B.O",
    "Deliverystatus": "Delivery",
    "divisionname": "Pune Moffusil",
    "regionname": "Pune",
    "circlename": "Maharashtra",
    "Taluk": "Junnar",
    "Districtname": "Pune",
    "statename": "MAHARASHTRA"
  },
  {
    "pincode": "412409",
    "officename": "Pimpalgaon Joga B.O",
    "officeType": "B.O",
    "Deliverystatus": "Delivery",
    "divisionname": "Pune Moffusil",
    "regionname": "Pune",
    "circlename": "Maharashtra",
    "Taluk": "Junnar",
    "Districtname": "Pune",
    "statename": "MAHARASHTRA"
  },
  {
    "pincode": "412409",
    "officename": "Rohokadi B.O",
    "officeType": "B.O",
    "Deliverystatus": "Delivery",
    "divisionname": "Pune Moffusil",
    "regionname": "Pune",
    "circlename": "Maharashtra",
    "Taluk": "Junnar",
    "Districtname": "Pune",
    "statename": "MAHARASHTRA"
  },
  {
    "pincode": "412409",
    "officename": "Taleran B.O",
    "officeType": "B.O",
    "Deliverystatus": "Delivery",
    "divisionname": "Pune Moffusil",
    "regionname": "Pune",
    "circlename": "Maharashtra",
    "Taluk": "Junnar",
    "Districtname": "Pune",
    "statename": "MAHARASHTRA"
  },
  {
    "pincode": "412409",
    "officename": "Udapur B.O",
    "officeType": "B.O",
    "Deliverystatus": "Delivery",
    "divisionname": "Pune Moffusil",
    "regionname": "Pune",
    "circlename": "Maharashtra",
    "Taluk": "Junnar",
    "Districtname": "Pune",
    "statename": "MAHARASHTRA"
  }
]
