[
  {
    "pincode": "412803",
    "officename": "Abhepuri B.O",
    "officeType": "B.O",
    "Deliverystatus": "Delivery",
    "divisionname": "Satara",
    "regionname": "Pune",
    "circlename": "Maharashtra",
    "Taluk": "Wai",
    "Districtname": "Satara",
    "statename": "MAHARASHTRA"
  },
  {
    "pincode": "412803",
    "officename": "Akoshi B.O",
    "officeType": "B.O",
    "Deliverystatus": "Delivery",
    "divisionname": "Satara",
    "regionname": "Pune",
    "circlename": "Maharashtra",
    "Taluk": "Wai",
    "Districtname": "Satara",
    "statename": "MAHARASHTRA"
  },
  {
    "pincode": "412803",
    "officename": "Asare B.O",
    "officeType": "B.O",
    "Deliverystatus": "Delivery",
    "divisionname": "Satara",
    "regionname": "Pune",
    "circlename": "Maharashtra",
    "Taluk": "Wai",
    "Districtname": "Satara",
    "statename": "MAHARASHTRA"
  },
  {
    "pincode": "412803",
    "officename": "Baleghar B.O",
    "officeType": "B.O",
    "Deliverystatus": "Delivery",
    "divisionname": "Satara",
    "regionname": "Pune",
    "circlename": "Maharashtra",
    "Taluk": "Wai",
    "Districtname": "Satara",
    "statename": "MAHARASHTRA"
  },
  {
    "pincode": "412803",
    "officename": "Bhogaon B.O",
    "officeType": "B.O",
    "Deliverystatus": "Delivery",
    "divisionname": "Satara",
    "regionname": "Pune",
    "circlename": "Maharashtra",
    "Taluk": "Wai",
    "Districtname": "Satara",
    "statename": "MAHARASHTRA"
  },
  {
    "pincode": "412803",
    "officename": "Bopardi B.O",
    "officeType": "B.O",
    "Deliverystatus": "Delivery",
    "divisionname": "Satara",
    "regionname": "Pune",
    "circlename": "Maharashtra",
    "Taluk": "Wai",
    "Districtname": "Satara",
    "statename": "MAHARASHTRA"
  },
  {
    "pincode": "412803",
    "officename": "Borgaon BK B.O",
    "officeType": "B.O",
    "Deliverystatus": "Delivery",
    "divisionname": "Satara",
    "regionname": "Pune",
    "circlename": "Maharashtra",
    "Taluk": "Wai",
    "Districtname": "Satara",
    "statename": "MAHARASHTRA"
  },
  {
    "pincode": "412803",
    "officename": "Chikhali B.O",
    "officeType": "B.O",
    "Deliverystatus": "Delivery",
    "divisionname": "Satara",
    "regionname": "Pune",
    "circlename": "Maharashtra",
    "Taluk": "Wai",
    "Districtname": "Satara",
    "statename": "MAHARASHTRA"
  },
  {
    "pincode": "412803",
    "officename": "Degaon Shirgaon B.O",
    "officeType": "B.O",
    "Deliverystatus": "Delivery",
    "divisionname": "Satara",
    "regionname": "Pune",
    "circlename": "Maharashtra",
    "Taluk": "Wai",
    "Districtname": "Satara",
    "statename": "MAHARASHTRA"
  },
  {
    "pincode": "412803",
    "officename": "Dhavadi B.O",
    "officeType": "B.O",
    "Deliverystatus": "Delivery",
    "divisionname": "Satara",
    "regionname": "Pune",
    "circlename": "Maharashtra",
    "Taluk": "Wai",
    "Districtname": "Satara",
    "statename": "MAHARASHTRA"
  },
  {
    "pincode": "412803",
    "officename": "Dhom B.O",
    "officeType": "B.O",
    "Deliverystatus": "Delivery",
    "divisionname": "Satara",
    "regionname": "Pune",
    "circlename": "Maharashtra",
    "Taluk": "Wai",
    "Districtname": "Satara",
    "statename": "MAHARASHTRA"
  },
  {
    "pincode": "412803",
    "officename": "Eksare B.O",
    "officeType": "B.O",
    "Deliverystatus": "Delivery",
    "divisionname": "Satara",
    "regionname": "Pune",
    "circlename": "Maharashtra",
    "Taluk": "Wai",
    "Districtname": "Satara",
    "statename": "MAHARASHTRA"
  },
  {
    "pincode": "412803",
    "officename": "Kadegaon B.O",
    "officeType": "B.O",
    "Deliverystatus": "Delivery",
    "divisionname": "Satara",
    "regionname": "Pune",
    "circlename": "Maharashtra",
    "Taluk": "Wai",
    "Districtname": "Satara",
    "statename": "MAHARASHTRA"
  },
  {
    "pincode": "412803",
    "officename": "Khanapur B.O",
    "officeType": "B.O",
    "Deliverystatus": "Delivery",
    "divisionname": "Satara",
    "regionname": "Pune",
    "circlename": "Maharashtra",
    "Taluk": "Wai",
    "Districtname": "Satara",
    "statename": "MAHARASHTRA"
  },
  {
    "pincode": "412803",
    "officename": "Mandhar Deo B.O",
    "officeType": "B.O",
    "Deliverystatus": "Delivery",
    "divisionname": "Satara",
    "regionname": "Pune",
    "circlename": "Maharashtra",
    "Taluk": "Wai",
    "Districtname": "Satara",
    "statename": "MAHARASHTRA"
  },
  {
    "pincode": "412803",
    "officename": "Menavali B.O",
    "officeType": "B.O",
    "Deliverystatus": "Delivery",
    "divisionname": "Satara",
    "regionname": "Pune",
    "circlename": "Maharashtra",
    "Taluk": "Wai",
    "Districtname": "Satara",
    "statename": "MAHARASHTRA"
  },
  {
    "pincode": "412803",
    "officename": "Ozarde B.O",
    "officeType": "B.O",
    "Deliverystatus": "Delivery",
    "divisionname": "Satara",
    "regionname": "Pune",
    "circlename": "Maharashtra",
    "Taluk": "Wai",
    "Districtname": "Satara",
    "statename": "MAHARASHTRA"
  },
  {
    "pincode": "412803",
    "officename": "Parkhandi B.O",
    "officeType": "B.O",
    "Deliverystatus": "Delivery",
    "divisionname": "Satara",
    "regionname": "Pune",
    "circlename": "Maharashtra",
    "Taluk": "Wai",
    "Districtname": "Satara",
    "statename": "MAHARASHTRA"
  },
  {
    "pincode": "412803",
    "officename": "Pasarni B.O",
    "officeType": "B.O",
    "Deliverystatus": "Delivery",
    "divisionname": "Satara",
    "regionname": "Pune",
    "circlename": "Maharashtra",
    "Taluk": "Wai",
    "Districtname": "Satara",
    "statename": "MAHARASHTRA"
  },
  {
    "pincode": "412803",
    "officename": "Phulenagar Wai S.O",
    "officeType": "S.O",
    "Deliverystatus": "Non-Delivery",
    "divisionname": "Satara",
    "regionname": "Pune",
    "circlename": "Maharashtra",
    "Taluk": "Wai",
    "Districtname": "Satara",
    "statename": "MAHARASHTRA"
  },
  {
    "pincode": "412803",
    "officename": "Shendurjane B.O",
    "officeType": "B.O",
    "Deliverystatus": "Delivery",
    "divisionname": "Satara",
    "regionname": "Pune",
    "circlename": "Maharashtra",
    "Taluk": "Wai",
    "Districtname": "Satara",
    "statename": "MAHARASHTRA"
  },
  {
    "pincode": "412803",
    "officename": "Shirgaon B.O",
    "officeType": "B.O",
    "Deliverystatus": "Delivery",
    "divisionname": "Satara",
    "regionname": "Pune",
    "circlename": "Maharashtra",
    "Taluk": "Wai",
    "Districtname": "Satara",
    "statename": "MAHARASHTRA"
  },
  {
    "pincode": "412803",
    "officename": "Vaigaon B.O",
    "officeType": "B.O",
    "Deliverystatus": "Delivery",
    "divisionname": "Satara",
    "regionname": "Pune",
    "circlename": "Maharashtra",
    "Taluk": "Wai",
    "Districtname": "Satara",
    "statename": "MAHARASHTRA"
  },
  {
    "pincode": "412803",
    "officename": "Vasole B.O",
    "officeType": "B.O",
    "Deliverystatus": "Delivery",
    "divisionname": "Satara",
    "regionname": "Pune",
    "circlename": "Maharashtra",
    "Taluk": "Wai",
    "Districtname": "Satara",
    "statename": "MAHARASHTRA"
  },
  {
    "pincode": "412803",
    "officename": "Velang B.O",
    "officeType": "B.O",
    "Deliverystatus": "Delivery",
    "divisionname": "Satara",
    "regionname": "Pune",
    "circlename": "Maharashtra",
    "Taluk": "Wai",
    "Districtname": "Satara",
    "statename": "MAHARASHTRA"
  },
  {
    "pincode": "412803",
    "officename": "Vyahali B.O",
    "officeType": "B.O",
    "Deliverystatus": "Delivery",
    "divisionname": "Satara",
    "regionname": "Pune",
    "circlename": "Maharashtra",
    "Taluk": "Wai",
    "Districtname": "Satara",
    "statename": "MAHARASHTRA"
  },
  {
    "pincode": "412803",
    "officename": "Vyajawadi B.O",
    "officeType": "B.O",
    "Deliverystatus": "Delivery",
    "divisionname": "Satara",
    "regionname": "Pune",
    "circlename": "Maharashtra",
    "Taluk": "Wai",
    "Districtname": "Satara",
    "statename": "MAHARASHTRA"
  },
  {
    "pincode": "412803",
    "officename": "Wai City S.O",
    "officeType": "S.O",
    "Deliverystatus": "Non-Delivery",
    "divisionname": "Satara",
    "regionname": "Pune",
    "circlename": "Maharashtra",
    "Taluk": "Wai",
    "Districtname": "Satara",
    "statename": "MAHARASHTRA"
  },
  {
    "pincode": "412803",
    "officename": "Wai S.O",
    "officeType": "S.O",
    "Deliverystatus": "Delivery",
    "divisionname": "Satara",
    "regionname": "Pune",
    "circlename": "Maharashtra",
    "Taluk": "Wai",
    "Districtname": "Satara",
    "statename": "MAHARASHTRA"
  }
]
