[
  {
    "pincode": "413002",
    "officename": "Arali B.O",
    "officeType": "B.O",
    "Deliverystatus": "Delivery",
    "divisionname": "Solapur",
    "regionname": "Pune",
    "circlename": "Maharashtra",
    "Taluk": "Solapur South",
    "Districtname": "Solapur",
    "statename": "MAHARASHTRA"
  },
  {
    "pincode": "413002",
    "officename": "Belati B.O",
    "officeType": "B.O",
    "Deliverystatus": "Delivery",
    "divisionname": "Solapur",
    "regionname": "Pune",
    "circlename": "Maharashtra",
    "Taluk": "Solapur North",
    "Districtname": "Solapur",
    "statename": "MAHARASHTRA"
  },
  {
    "pincode": "413002",
    "officename": "Boramani B.O",
    "officeType": "B.O",
    "Deliverystatus": "Delivery",
    "divisionname": "Solapur",
    "regionname": "Pune",
    "circlename": "Maharashtra",
    "Taluk": "Solapur South",
    "Districtname": "Solapur",
    "statename": "MAHARASHTRA"
  },
  {
    "pincode": "413002",
    "officename": "Darganhalli B.O",
    "officeType": "B.O",
    "Deliverystatus": "Delivery",
    "divisionname": "Solapur",
    "regionname": "Pune",
    "circlename": "Maharashtra",
    "Taluk": "Solapur South",
    "Districtname": "Solapur",
    "statename": "MAHARASHTRA"
  },
  {
    "pincode": "413002",
    "officename": "Dayanand Collage S.O",
    "officeType": "S.O",
    "Deliverystatus": "Non-Delivery",
    "divisionname": "Solapur",
    "regionname": "Pune",
    "circlename": "Maharashtra",
    "Taluk": "Solapur North",
    "Districtname": "Solapur",
    "statename": "MAHARASHTRA"
  },
  {
    "pincode": "413002",
    "officename": "Degaon B.O",
    "officeType": "B.O",
    "Deliverystatus": "Delivery",
    "divisionname": "Solapur",
    "regionname": "Pune",
    "circlename": "Maharashtra",
    "Taluk": "Solapur North",
    "Districtname": "Solapur",
    "statename": "MAHARASHTRA"
  },
  {
    "pincode": "413002",
    "officename": "Dongaon B.O",
    "officeType": "B.O",
    "Deliverystatus": "Delivery",
    "divisionname": "Solapur",
    "regionname": "Pune",
    "circlename": "Maharashtra",
    "Taluk": "N.solapur",
    "Districtname": "Solapur",
    "statename": "MAHARASHTRA"
  },
  {
    "pincode": "413002",
    "officename": "Hagloor B.O",
    "officeType": "B.O",
    "Deliverystatus": "Delivery",
    "divisionname": "Solapur",
    "regionname": "Pune",
    "circlename": "Maharashtra",
    "Taluk": "N.solapur",
    "Districtname": "Solapur",
    "statename": "MAHARASHTRA"
  },
  {
    "pincode": "413002",
    "officename": "Honsal B.O",
    "officeType": "B.O",
    "Deliverystatus": "Delivery",
    "divisionname": "Solapur",
    "regionname": "Pune",
    "circlename": "Maharashtra",
    "Taluk": "N.solapur",
    "Districtname": "Solapur",
    "statename": "MAHARASHTRA"
  },
  {
    "pincode": "413002",
    "officename": "Ingalgi B.O",
    "officeType": "B.O",
    "Deliverystatus": "Delivery",
    "divisionname": "Solapur",
    "regionname": "Pune",
    "circlename": "Maharashtra",
    "Taluk": "Solapur South",
    "Districtname": "Solapur",
    "statename": "MAHARASHTRA"
  },
  {
    "pincode": "413002",
    "officename": "Kasegaon B.O",
    "officeType": "B.O",
    "Deliverystatus": "Delivery",
    "divisionname": "Solapur",
    "regionname": "Pune",
    "circlename": "Maharashtra",
    "Taluk": "N.solapur",
    "Districtname": "Solapur",
    "statename": "MAHARASHTRA"
  },
  {
    "pincode": "413002",
    "officename": "Kavathe B.O",
    "officeType": "B.O",
    "Deliverystatus": "Delivery",
    "divisionname": "Solapur",
    "regionname": "Pune",
    "circlename": "Maharashtra",
    "Taluk": "Solapur North",
    "Districtname": "Solapur",
    "statename": "MAHARASHTRA"
  },
  {
    "pincode": "413002",
    "officename": "Mangalwar Peth S.O (Solapur)",
    "officeType": "S.O",
    "Deliverystatus": "Non-Delivery",
    "divisionname": "Solapur",
    "regionname": "Pune",
    "circlename": "Maharashtra",
    "Taluk": "Solapur North",
    "Districtname": "Solapur",
    "statename": "MAHARASHTRA"
  },
  {
    "pincode": "413002",
    "officename": "Mardi B.O",
    "officeType": "B.O",
    "Deliverystatus": "Delivery",
    "divisionname": "Solapur",
    "regionname": "Pune",
    "circlename": "Maharashtra",
    "Taluk": "N.solapur",
    "Districtname": "Solapur",
    "statename": "MAHARASHTRA"
  },
  {
    "pincode": "413002",
    "officename": "Musti B.O",
    "officeType": "B.O",
    "Deliverystatus": "Delivery",
    "divisionname": "Solapur",
    "regionname": "Pune",
    "circlename": "Maharashtra",
    "Taluk": "N.solapur",
    "Districtname": "Solapur",
    "statename": "MAHARASHTRA"
  },
  {
    "pincode": "413002",
    "officename": "Pathari B.O",
    "officeType": "B.O",
    "Deliverystatus": "Delivery",
    "divisionname": "Solapur",
    "regionname": "Pune",
    "circlename": "Maharashtra",
    "Taluk": "N.solapur",
    "Districtname": "Solapur",
    "statename": "MAHARASHTRA"
  },
  {
    "pincode": "413002",
    "officename": "Solapur Mkt S.O",
    "officeType": "S.O",
    "Deliverystatus": "Delivery",
    "divisionname": "Solapur",
    "regionname": "Pune",
    "circlename": "Maharashtra",
    "Taluk": "North Solapur",
    "Districtname": "Solapur",
    "statename": "MAHARASHTRA"
  },
  {
    "pincode": "413002",
    "officename": "Tandulwadi B.O",
    "officeType": "B.O",
    "Deliverystatus": "Delivery",
    "divisionname": "Solapur",
    "regionname": "Pune",
    "circlename": "Maharashtra",
    "Taluk": "Solapur South",
    "Districtname": "Solapur",
    "statename": "MAHARASHTRA"
  },
  {
    "pincode": "413002",
    "officename": "Tirhe B.O",
    "officeType": "B.O",
    "Deliverystatus": "Delivery",
    "divisionname": "Solapur",
    "regionname": "Pune",
    "circlename": "Maharashtra",
    "Taluk": "N.solapur",
    "Districtname": "Solapur",
    "statename": "MAHARASHTRA"
  },
  {
    "pincode": "413002",
    "officename": "Ule B.O",
    "officeType": "B.O",
    "Deliverystatus": "Delivery",
    "divisionname": "Solapur",
    "regionname": "Pune",
    "circlename": "Maharashtra",
    "Taluk": "N.solapur",
    "Districtname": "Solapur",
    "statename": "MAHARASHTRA"
  },
  {
    "pincode": "413002",
    "officename": "Umedpur B.O",
    "officeType": "B.O",
    "Deliverystatus": "Non-Delivery",
    "divisionname": "Solapur",
    "regionname": "Pune",
    "circlename": "Maharashtra",
    "Taluk": "Solapur North",
    "Districtname": "Solapur",
    "statename": "MAHARASHTRA"
  }
]
