[
  {
    "pincode": "413008",
    "officename": "Aurad B.O",
    "officeType": "B.O",
    "Deliverystatus": "Delivery",
    "divisionname": "Solapur",
    "regionname": "Pune",
    "circlename": "Maharashtra",
    "Taluk": "North Solapur",
    "Districtname": "Solapur",
    "statename": "MAHARASHTRA"
  },
  {
    "pincode": "413008",
    "officename": "Barur B.O",
    "officeType": "B.O",
    "Deliverystatus": "Delivery",
    "divisionname": "Solapur",
    "regionname": "Pune",
    "circlename": "Maharashtra",
    "Taluk": "N.solapur",
    "Districtname": "Solapur",
    "statename": "MAHARASHTRA"
  },
  {
    "pincode": "413008",
    "officename": "Hattur B.O",
    "officeType": "B.O",
    "Deliverystatus": "Delivery",
    "divisionname": "Solapur",
    "regionname": "Pune",
    "circlename": "Maharashtra",
    "Taluk": "Solapur South",
    "Districtname": "Solapur",
    "statename": "MAHARASHTRA"
  },
  {
    "pincode": "413008",
    "officename": "Honmurgi B.O",
    "officeType": "B.O",
    "Deliverystatus": "Delivery",
    "divisionname": "Solapur",
    "regionname": "Pune",
    "circlename": "Maharashtra",
    "Taluk": "Nort Solapur",
    "Districtname": "Solapur",
    "statename": "MAHARASHTRA"
  },
  {
    "pincode": "413008",
    "officename": "Jule Solapur S.O",
    "officeType": "S.O",
    "Deliverystatus": "Non-Delivery",
    "divisionname": "Solapur",
    "regionname": "Pune",
    "circlename": "Maharashtra",
    "Taluk": "Solapur South",
    "Districtname": "Solapur",
    "statename": "MAHARASHTRA"
  },
  {
    "pincode": "413008",
    "officename": "Nandani B.O",
    "officeType": "B.O",
    "Deliverystatus": "Delivery",
    "divisionname": "Solapur",
    "regionname": "Pune",
    "circlename": "Maharashtra",
    "Taluk": "Solapur South",
    "Districtname": "Solapur",
    "statename": "MAHARASHTRA"
  },
  {
    "pincode": "413008",
    "officename": "SRPF Camp Solapur S.O",
    "officeType": "S.O",
    "Deliverystatus": "Delivery",
    "divisionname": "Solapur",
    "regionname": "Pune",
    "circlename": "Maharashtra",
    "Taluk": "Solapur",
    "Districtname": "Solapur",
    "statename": "MAHARASHTRA"
  },
  {
    "pincode": "413008",
    "officename": "Soregaon B.O",
    "officeType": "B.O",
    "Deliverystatus": "Delivery",
    "divisionname": "Solapur",
    "regionname": "Pune",
    "circlename": "Maharashtra",
    "Taluk": "North Solapur",
    "Districtname": "Solapur",
    "statename": "MAHARASHTRA"
  },
  {
    "pincode": "413008",
    "officename": "Takali B.O",
    "officeType": "B.O",
    "Deliverystatus": "Delivery",
    "divisionname": "Solapur",
    "regionname": "Pune",
    "circlename": "Maharashtra",
    "Taluk": "N.solapur",
    "Districtname": "Solapur",
    "statename": "MAHARASHTRA"
  }
]
