[
  {
    "pincode": "413222",
    "officename": "Akolekati B.O",
    "officeType": "B.O",
    "Deliverystatus": "Delivery",
    "divisionname": "Solapur",
    "regionname": "Pune",
    "circlename": "Maharashtra",
    "Taluk": "Solapur North",
    "Districtname": "Solapur",
    "statename": "MAHARASHTRA"
  },
  {
    "pincode": "413222",
    "officename": "Darphalbibi B.O",
    "officeType": "B.O",
    "Deliverystatus": "Delivery",
    "divisionname": "Solapur",
    "regionname": "Pune",
    "circlename": "Maharashtra",
    "Taluk": "Solapur North",
    "Districtname": "Solapur",
    "statename": "MAHARASHTRA"
  },
  {
    "pincode": "413222",
    "officename": "Darphalgawadi B.O",
    "officeType": "B.O",
    "Deliverystatus": "Delivery",
    "divisionname": "Solapur",
    "regionname": "Pune",
    "circlename": "Maharashtra",
    "Taluk": "Solapur North",
    "Districtname": "Solapur",
    "statename": "MAHARASHTRA"
  },
  {
    "pincode": "413222",
    "officename": "Kalman B.O",
    "officeType": "B.O",
    "Deliverystatus": "Delivery",
    "divisionname": "Solapur",
    "regionname": "Pune",
    "circlename": "Maharashtra",
    "Taluk": "N.solapur",
    "Districtname": "Solapur",
    "statename": "MAHARASHTRA"
  },
  {
    "pincode": "413222",
    "officename": "Karamba B.O",
    "officeType": "B.O",
    "Deliverystatus": "Delivery",
    "divisionname": "Solapur",
    "regionname": "Pune",
    "circlename": "Maharashtra",
    "Taluk": "N.solapur",
    "Districtname": "Solapur",
    "statename": "MAHARASHTRA"
  },
  {
    "pincode": "413222",
    "officename": "Kauthali B.O",
    "officeType": "B.O",
    "Deliverystatus": "Delivery",
    "divisionname": "Solapur",
    "regionname": "Pune",
    "circlename": "Maharashtra",
    "Taluk": "N.solapur",
    "Districtname": "Solapur",
    "statename": "MAHARASHTRA"
  },
  {
    "pincode": "413222",
    "officename": "Khuneshwar B.O",
    "officeType": "B.O",
    "Deliverystatus": "Delivery",
    "divisionname": "Solapur",
    "regionname": "Pune",
    "circlename": "Maharashtra",
    "Taluk": "Solapur North",
    "Districtname": "Solapur",
    "statename": "MAHARASHTRA"
  },
  {
    "pincode": "413222",
    "officename": "Masale Chaudhari B.O",
    "officeType": "B.O",
    "Deliverystatus": "Delivery",
    "divisionname": "Solapur",
    "regionname": "Pune",
    "circlename": "Maharashtra",
    "Taluk": "N.solapur",
    "Districtname": "Solapur",
    "statename": "MAHARASHTRA"
  },
  {
    "pincode": "413222",
    "officename": "Nanaj S.O (Solapur)",
    "officeType": "S.O",
    "Deliverystatus": "Delivery",
    "divisionname": "Solapur",
    "regionname": "Pune",
    "circlename": "Maharashtra",
    "Taluk": "North Solapur",
    "Districtname": "Solapur",
    "statename": "MAHARASHTRA"
  },
  {
    "pincode": "413222",
    "officename": "Padsali B.O",
    "officeType": "B.O",
    "Deliverystatus": "Delivery",
    "divisionname": "Solapur",
    "regionname": "Pune",
    "circlename": "Maharashtra",
    "Taluk": "Solapur North",
    "Districtname": "Solapur",
    "statename": "MAHARASHTRA"
  },
  {
    "pincode": "413222",
    "officename": "Ranmasale B.O",
    "officeType": "B.O",
    "Deliverystatus": "Delivery",
    "divisionname": "Solapur",
    "regionname": "Pune",
    "circlename": "Maharashtra",
    "Taluk": "Solapur North",
    "Districtname": "Solapur",
    "statename": "MAHARASHTRA"
  },
  {
    "pincode": "413222",
    "officename": "Shelgaon (R) B.O",
    "officeType": "B.O",
    "Deliverystatus": "Delivery",
    "divisionname": "Solapur",
    "regionname": "Pune",
    "circlename": "Maharashtra",
    "Taluk": "Barshi",
    "Districtname": "Solapur",
    "statename": "MAHARASHTRA"
  },
  {
    "pincode": "413222",
    "officename": "Valuj B.O",
    "officeType": "B.O",
    "Deliverystatus": "Delivery",
    "divisionname": "Solapur",
    "regionname": "Pune",
    "circlename": "Maharashtra",
    "Taluk": "N.solapur",
    "Districtname": "Solapur",
    "statename": "MAHARASHTRA"
  },
  {
    "pincode": "413222",
    "officename": "Wadala B.O",
    "officeType": "B.O",
    "Deliverystatus": "Delivery",
    "divisionname": "Solapur",
    "regionname": "Pune",
    "circlename": "Maharashtra",
    "Taluk": "Solapur North",
    "Districtname": "Solapur",
    "statename": "MAHARASHTRA"
  }
]
