[
  {
    "pincode": "413208",
    "officename": "Akulgaon B.O",
    "officeType": "B.O",
    "Deliverystatus": "Delivery",
    "divisionname": "Pandharpur",
    "regionname": "Pune",
    "circlename": "Maharashtra",
    "Taluk": "Madha",
    "Districtname": "Solapur",
    "statename": "MAHARASHTRA"
  },
  {
    "pincode": "413208",
    "officename": "Bhosare B.O",
    "officeType": "B.O",
    "Deliverystatus": "Delivery",
    "divisionname": "Pandharpur",
    "regionname": "Pune",
    "circlename": "Maharashtra",
    "Taluk": "Madha",
    "Districtname": "Solapur",
    "statename": "MAHARASHTRA"
  },
  {
    "pincode": "413208",
    "officename": "Bhutashte B.O",
    "officeType": "B.O",
    "Deliverystatus": "Delivery",
    "divisionname": "Pandharpur",
    "regionname": "Pune",
    "circlename": "Maharashtra",
    "Taluk": "Madha",
    "Districtname": "Solapur",
    "statename": "MAHARASHTRA"
  },
  {
    "pincode": "413208",
    "officename": "Chincholi B.O",
    "officeType": "B.O",
    "Deliverystatus": "Non-Delivery",
    "divisionname": "Pandharpur",
    "regionname": "Pune",
    "circlename": "Maharashtra",
    "Taluk": "Madha",
    "Districtname": "Solapur",
    "statename": "MAHARASHTRA"
  },
  {
    "pincode": "413208",
    "officename": "Dhavlas B.O",
    "officeType": "B.O",
    "Deliverystatus": "Delivery",
    "divisionname": "Pandharpur",
    "regionname": "Pune",
    "circlename": "Maharashtra",
    "Taluk": "Madha",
    "Districtname": "Solapur",
    "statename": "MAHARASHTRA"
  },
  {
    "pincode": "413208",
    "officename": "Kurdu B.O",
    "officeType": "B.O",
    "Deliverystatus": "Delivery",
    "divisionname": "Pandharpur",
    "regionname": "Pune",
    "circlename": "Maharashtra",
    "Taluk": "Madha",
    "Districtname": "Solapur",
    "statename": "MAHARASHTRA"
  },
  {
    "pincode": "413208",
    "officename": "Kurduvadi S.O",
    "officeType": "S.O",
    "Deliverystatus": "Delivery",
    "divisionname": "Pandharpur",
    "regionname": "Pune",
    "circlename": "Maharashtra",
    "Taluk": "Madha",
    "Districtname": "Solapur",
    "statename": "MAHARASHTRA"
  },
  {
    "pincode": "413208",
    "officename": "Laul B.O",
    "officeType": "B.O",
    "Deliverystatus": "Delivery",
    "divisionname": "Pandharpur",
    "regionname": "Pune",
    "circlename": "Maharashtra",
    "Taluk": "Madha",
    "Districtname": "Solapur",
    "statename": "MAHARASHTRA"
  },
  {
    "pincode": "413208",
    "officename": "Padasali B.O",
    "officeType": "B.O",
    "Deliverystatus": "Delivery",
    "divisionname": "Pandharpur",
    "regionname": "Pune",
    "circlename": "Maharashtra",
    "Taluk": "Madha",
    "Districtname": "Solapur",
    "statename": "MAHARASHTRA"
  },
  {
    "pincode": "413208",
    "officename": "Pimpalkhunte B.O",
    "officeType": "B.O",
    "Deliverystatus": "Delivery",
    "divisionname": "Pandharpur",
    "regionname": "Pune",
    "circlename": "Maharashtra",
    "Taluk": "Madha",
    "Districtname": "Solapur",
    "statename": "MAHARASHTRA"
  },
  {
    "pincode": "413208",
    "officename": "Sapatane ( Bhose ) B.O",
    "officeType": "B.O",
    "Deliverystatus": "Delivery",
    "divisionname": "Pandharpur",
    "regionname": "Pune",
    "circlename": "Maharashtra",
    "Taluk": "Madha",
    "Districtname": "Solapur",
    "statename": "MAHARASHTRA"
  },
  {
    "pincode": "413208",
    "officename": "Tadvale B.O",
    "officeType": "B.O",
    "Deliverystatus": "Delivery",
    "divisionname": "Pandharpur",
    "regionname": "Pune",
    "circlename": "Maharashtra",
    "Taluk": "Madha",
    "Districtname": "Solapur",
    "statename": "MAHARASHTRA"
  }
]
