[
  {
    "pincode": "413219",
    "officename": "Ankalge B.O",
    "officeType": "B.O",
    "Deliverystatus": "Delivery",
    "divisionname": "Solapur",
    "regionname": "Pune",
    "circlename": "Maharashtra",
    "Taluk": "Akkalkot",
    "Districtname": "Solapur",
    "statename": "MAHARASHTRA"
  },
  {
    "pincode": "413219",
    "officename": "Jeur  (Akkalkot) B.O",
    "officeType": "B.O",
    "Deliverystatus": "Delivery",
    "divisionname": "Solapur",
    "regionname": "Pune",
    "circlename": "Maharashtra",
    "Taluk": "Solapur South",
    "Districtname": "Solapur",
    "statename": "MAHARASHTRA"
  },
  {
    "pincode": "413219",
    "officename": "Karajagi S.O (Solapur)",
    "officeType": "S.O",
    "Deliverystatus": "Delivery",
    "divisionname": "Solapur",
    "regionname": "Pune",
    "circlename": "Maharashtra",
    "Taluk": "Akkalkot",
    "Districtname": "Solapur",
    "statename": "MAHARASHTRA"
  },
  {
    "pincode": "413219",
    "officename": "Korsegaon B.O",
    "officeType": "B.O",
    "Deliverystatus": "Delivery",
    "divisionname": "Solapur",
    "regionname": "Pune",
    "circlename": "Maharashtra",
    "Taluk": "Akkalkot",
    "Districtname": "Solapur",
    "statename": "MAHARASHTRA"
  },
  {
    "pincode": "413219",
    "officename": "Mangrul B.O",
    "officeType": "B.O",
    "Deliverystatus": "Delivery",
    "divisionname": "Solapur",
    "regionname": "Pune",
    "circlename": "Maharashtra",
    "Taluk": "Akkalkot",
    "Districtname": "Solapur",
    "statename": "MAHARASHTRA"
  },
  {
    "pincode": "413219",
    "officename": "Mhaisalge B.O",
    "officeType": "B.O",
    "Deliverystatus": "Delivery",
    "divisionname": "Solapur",
    "regionname": "Pune",
    "circlename": "Maharashtra",
    "Taluk": "Akkalkot",
    "Districtname": "Solapur",
    "statename": "MAHARASHTRA"
  },
  {
    "pincode": "413219",
    "officename": "Mundewadi B.O",
    "officeType": "B.O",
    "Deliverystatus": "Delivery",
    "divisionname": "Solapur",
    "regionname": "Pune",
    "circlename": "Maharashtra",
    "Taluk": "Akkalkot",
    "Districtname": "Solapur",
    "statename": "MAHARASHTRA"
  },
  {
    "pincode": "413219",
    "officename": "Tadwal  (Hotagi) B.O",
    "officeType": "B.O",
    "Deliverystatus": "Delivery",
    "divisionname": "Solapur",
    "regionname": "Pune",
    "circlename": "Maharashtra",
    "Taluk": "Akkalkot",
    "Districtname": "Solapur",
    "statename": "MAHARASHTRA"
  }
]
