[
  {
    "pincode": "413221",
    "officename": "Antroli B.O",
    "officeType": "B.O",
    "Deliverystatus": "Delivery",
    "divisionname": "Solapur",
    "regionname": "Pune",
    "circlename": "Maharashtra",
    "Taluk": "Solapur South",
    "Districtname": "Solapur",
    "statename": "MAHARASHTRA"
  },
  {
    "pincode": "413221",
    "officename": "Auj B.O",
    "officeType": "B.O",
    "Deliverystatus": "Delivery",
    "divisionname": "Solapur",
    "regionname": "Pune",
    "circlename": "Maharashtra",
    "Taluk": "Solapur South",
    "Districtname": "Solapur",
    "statename": "MAHARASHTRA"
  },
  {
    "pincode": "413221",
    "officename": "Bhandar Kavathe B.O",
    "officeType": "B.O",
    "Deliverystatus": "Delivery",
    "divisionname": "Solapur",
    "regionname": "Pune",
    "circlename": "Maharashtra",
    "Taluk": "South Solapur",
    "Districtname": "Solapur",
    "statename": "MAHARASHTRA"
  },
  {
    "pincode": "413221",
    "officename": "Gunjegaon B.O",
    "officeType": "B.O",
    "Deliverystatus": "Delivery",
    "divisionname": "Solapur",
    "regionname": "Pune",
    "circlename": "Maharashtra",
    "Taluk": "South Solapur",
    "Districtname": "Solapur",
    "statename": "MAHARASHTRA"
  },
  {
    "pincode": "413221",
    "officename": "Kandalgaon B.O",
    "officeType": "B.O",
    "Deliverystatus": "Delivery",
    "divisionname": "Solapur",
    "regionname": "Pune",
    "circlename": "Maharashtra",
    "Taluk": "South Solapur",
    "Districtname": "Solapur",
    "statename": "MAHARASHTRA"
  },
  {
    "pincode": "413221",
    "officename": "Kusur B.O",
    "officeType": "B.O",
    "Deliverystatus": "Delivery",
    "divisionname": "Solapur",
    "regionname": "Pune",
    "circlename": "Maharashtra",
    "Taluk": "South Solapur",
    "Districtname": "Solapur",
    "statename": "MAHARASHTRA"
  },
  {
    "pincode": "413221",
    "officename": "Malkavathe B.O",
    "officeType": "B.O",
    "Deliverystatus": "Delivery",
    "divisionname": "Solapur",
    "regionname": "Pune",
    "circlename": "Maharashtra",
    "Taluk": "South Solapur",
    "Districtname": "Solapur",
    "statename": "MAHARASHTRA"
  },
  {
    "pincode": "413221",
    "officename": "Mandrup S.O",
    "officeType": "S.O",
    "Deliverystatus": "Delivery",
    "divisionname": "Solapur",
    "regionname": "Pune",
    "circlename": "Maharashtra",
    "Taluk": "South Solapur",
    "Districtname": "Solapur",
    "statename": "MAHARASHTRA"
  },
  {
    "pincode": "413221",
    "officename": "Nimbargi B.O",
    "officeType": "B.O",
    "Deliverystatus": "Delivery",
    "divisionname": "Solapur",
    "regionname": "Pune",
    "circlename": "Maharashtra",
    "Taluk": "South Solapur",
    "Districtname": "Solapur",
    "statename": "MAHARASHTRA"
  },
  {
    "pincode": "413221",
    "officename": "Vinchur B.O",
    "officeType": "B.O",
    "Deliverystatus": "Delivery",
    "divisionname": "Solapur",
    "regionname": "Pune",
    "circlename": "Maharashtra",
    "Taluk": "South Solapur",
    "Districtname": "Solapur",
    "statename": "MAHARASHTRA"
  },
  {
    "pincode": "413221",
    "officename": "Wangi B.O",
    "officeType": "B.O",
    "Deliverystatus": "Delivery",
    "divisionname": "Solapur",
    "regionname": "Pune",
    "circlename": "Maharashtra",
    "Taluk": "Solapur South",
    "Districtname": "Solapur",
    "statename": "MAHARASHTRA"
  }
]
