[
  {
    "pincode": "413203",
    "officename": "Anjandoh B.O",
    "officeType": "B.O",
    "Deliverystatus": "Delivery",
    "divisionname": "Pandharpur",
    "regionname": "Pune",
    "circlename": "Maharashtra",
    "Taluk": "Karmala",
    "Districtname": "Solapur",
    "statename": "MAHARASHTRA"
  },
  {
    "pincode": "413203",
    "officename": "Awati B.O",
    "officeType": "B.O",
    "Deliverystatus": "Delivery",
    "divisionname": "Pandharpur",
    "regionname": "Pune",
    "circlename": "Maharashtra",
    "Taluk": "Karmala",
    "Districtname": "Solapur",
    "statename": "MAHARASHTRA"
  },
  {
    "pincode": "413203",
    "officename": "Borgaon (Kml) B.O",
    "officeType": "B.O",
    "Deliverystatus": "Delivery",
    "divisionname": "Pandharpur",
    "regionname": "Pune",
    "circlename": "Maharashtra",
    "Taluk": "Karmala",
    "Districtname": "Solapur",
    "statename": "MAHARASHTRA"
  },
  {
    "pincode": "413203",
    "officename": "Devlali B.O",
    "officeType": "B.O",
    "Deliverystatus": "Delivery",
    "divisionname": "Pandharpur",
    "regionname": "Pune",
    "circlename": "Maharashtra",
    "Taluk": "Karmala",
    "Districtname": "Solapur",
    "statename": "MAHARASHTRA"
  },
  {
    "pincode": "413203",
    "officename": "Gulsade B.O",
    "officeType": "B.O",
    "Deliverystatus": "Delivery",
    "divisionname": "Pandharpur",
    "regionname": "Pune",
    "circlename": "Maharashtra",
    "Taluk": "Karmala",
    "Districtname": "Solapur",
    "statename": "MAHARASHTRA"
  },
  {
    "pincode": "413203",
    "officename": "Jategaon B.O",
    "officeType": "B.O",
    "Deliverystatus": "Delivery",
    "divisionname": "Pandharpur",
    "regionname": "Pune",
    "circlename": "Maharashtra",
    "Taluk": "Karmala",
    "Districtname": "Solapur",
    "statename": "MAHARASHTRA"
  },
  {
    "pincode": "413203",
    "officename": "Jinti B.O",
    "officeType": "B.O",
    "Deliverystatus": "Delivery",
    "divisionname": "Pandharpur",
    "regionname": "Pune",
    "circlename": "Maharashtra",
    "Taluk": "Karmala",
    "Districtname": "Solapur",
    "statename": "MAHARASHTRA"
  },
  {
    "pincode": "413203",
    "officename": "Karanje B.O",
    "officeType": "B.O",
    "Deliverystatus": "Delivery",
    "divisionname": "Pandharpur",
    "regionname": "Pune",
    "circlename": "Maharashtra",
    "Taluk": "Karmala",
    "Districtname": "Solapur",
    "statename": "MAHARASHTRA"
  },
  {
    "pincode": "413203",
    "officename": "Karmala S.O",
    "officeType": "S.O",
    "Deliverystatus": "Delivery",
    "divisionname": "Pandharpur",
    "regionname": "Pune",
    "circlename": "Maharashtra",
    "Taluk": "Karmala",
    "Districtname": "Solapur",
    "statename": "MAHARASHTRA"
  },
  {
    "pincode": "413203",
    "officename": "Karmala Town ( Karmala) S.O",
    "officeType": "S.O",
    "Deliverystatus": "Non-Delivery",
    "divisionname": "Pandharpur",
    "regionname": "Pune",
    "circlename": "Maharashtra",
    "Taluk": "Karmala",
    "Districtname": "Solapur",
    "statename": "MAHARASHTRA"
  },
  {
    "pincode": "413203",
    "officename": "Kolegaon ( E) B.O",
    "officeType": "B.O",
    "Deliverystatus": "Delivery",
    "divisionname": "Pandharpur",
    "regionname": "Pune",
    "circlename": "Maharashtra",
    "Taluk": "Karmala",
    "Districtname": "Solapur",
    "statename": "MAHARASHTRA"
  },
  {
    "pincode": "413203",
    "officename": "Korti B.O",
    "officeType": "B.O",
    "Deliverystatus": "Delivery",
    "divisionname": "Pandharpur",
    "regionname": "Pune",
    "circlename": "Maharashtra",
    "Taluk": "Karmala",
    "Districtname": "Solapur",
    "statename": "MAHARASHTRA"
  },
  {
    "pincode": "413203",
    "officename": "Kumbhargaon B.O",
    "officeType": "B.O",
    "Deliverystatus": "Delivery",
    "divisionname": "Pandharpur",
    "regionname": "Pune",
    "circlename": "Maharashtra",
    "Taluk": "Karmala",
    "Districtname": "Solapur",
    "statename": "MAHARASHTRA"
  },
  {
    "pincode": "413203",
    "officename": "Mangi B.O",
    "officeType": "B.O",
    "Deliverystatus": "Delivery",
    "divisionname": "Pandharpur",
    "regionname": "Pune",
    "circlename": "Maharashtra",
    "Taluk": "Karmala",
    "Districtname": "Solapur",
    "statename": "MAHARASHTRA"
  },
  {
    "pincode": "413203",
    "officename": "Pande B.O",
    "officeType": "B.O",
    "Deliverystatus": "Delivery",
    "divisionname": "Pandharpur",
    "regionname": "Pune",
    "circlename": "Maharashtra",
    "Taluk": "Karmala",
    "Districtname": "Solapur",
    "statename": "MAHARASHTRA"
  },
  {
    "pincode": "413203",
    "officename": "Phisare B.O",
    "officeType": "B.O",
    "Deliverystatus": "Delivery",
    "divisionname": "Pandharpur",
    "regionname": "Pune",
    "circlename": "Maharashtra",
    "Taluk": "Karmala",
    "Districtname": "Solapur",
    "statename": "MAHARASHTRA"
  },
  {
    "pincode": "413203",
    "officename": "Pothare B.O",
    "officeType": "B.O",
    "Deliverystatus": "Delivery",
    "divisionname": "Pandharpur",
    "regionname": "Pune",
    "circlename": "Maharashtra",
    "Taluk": "Karmala",
    "Districtname": "Solapur",
    "statename": "MAHARASHTRA"
  },
  {
    "pincode": "413203",
    "officename": "Rajuri B.O",
    "officeType": "B.O",
    "Deliverystatus": "Delivery",
    "divisionname": "Pandharpur",
    "regionname": "Pune",
    "circlename": "Maharashtra",
    "Taluk": "Karmala",
    "Districtname": "Solapur",
    "statename": "MAHARASHTRA"
  },
  {
    "pincode": "413203",
    "officename": "Raogaon B.O",
    "officeType": "B.O",
    "Deliverystatus": "Delivery",
    "divisionname": "Pandharpur",
    "regionname": "Pune",
    "circlename": "Maharashtra",
    "Taluk": "Karmala",
    "Districtname": "Solapur",
    "statename": "MAHARASHTRA"
  },
  {
    "pincode": "413203",
    "officename": "Sawadi B.O",
    "officeType": "B.O",
    "Deliverystatus": "Delivery",
    "divisionname": "Pandharpur",
    "regionname": "Pune",
    "circlename": "Maharashtra",
    "Taluk": "Karmala",
    "Districtname": "Solapur",
    "statename": "MAHARASHTRA"
  },
  {
    "pincode": "413203",
    "officename": "Takli Rasin B.O",
    "officeType": "B.O",
    "Deliverystatus": "Delivery",
    "divisionname": "Pandharpur",
    "regionname": "Pune",
    "circlename": "Maharashtra",
    "Taluk": "Karmala",
    "Districtname": "Solapur",
    "statename": "MAHARASHTRA"
  },
  {
    "pincode": "413203",
    "officename": "Veet B.O",
    "officeType": "B.O",
    "Deliverystatus": "Delivery",
    "divisionname": "Pandharpur",
    "regionname": "Pune",
    "circlename": "Maharashtra",
    "Taluk": "Karmala",
    "Districtname": "Solapur",
    "statename": "MAHARASHTRA"
  },
  {
    "pincode": "413203",
    "officename": "Vihal B.O",
    "officeType": "B.O",
    "Deliverystatus": "Delivery",
    "divisionname": "Pandharpur",
    "regionname": "Pune",
    "circlename": "Maharashtra",
    "Taluk": "Karmala",
    "Districtname": "Solapur",
    "statename": "MAHARASHTRA"
  }
]
