[
  {
    "pincode": "413306",
    "officename": "Achakdani B.O",
    "officeType": "B.O",
    "Deliverystatus": "Delivery",
    "divisionname": "Pandharpur",
    "regionname": "Pune",
    "circlename": "Maharashtra",
    "Taluk": "Sangola",
    "Districtname": "Solapur",
    "statename": "MAHARASHTRA"
  },
  {
    "pincode": "413306",
    "officename": "Chikmahud B.O",
    "officeType": "B.O",
    "Deliverystatus": "Delivery",
    "divisionname": "Pandharpur",
    "regionname": "Pune",
    "circlename": "Maharashtra",
    "Taluk": "Sangola",
    "Districtname": "Solapur",
    "statename": "MAHARASHTRA"
  },
  {
    "pincode": "413306",
    "officename": "Gaigavan B.O",
    "officeType": "B.O",
    "Deliverystatus": "Delivery",
    "divisionname": "Pandharpur",
    "regionname": "Pune",
    "circlename": "Maharashtra",
    "Taluk": "Sangola",
    "Districtname": "Solapur",
    "statename": "MAHARASHTRA"
  },
  {
    "pincode": "413306",
    "officename": "Gardi B.O",
    "officeType": "B.O",
    "Deliverystatus": "Delivery",
    "divisionname": "Pandharpur",
    "regionname": "Pune",
    "circlename": "Maharashtra",
    "Taluk": "Sangola",
    "Districtname": "Solapur",
    "statename": "MAHARASHTRA"
  },
  {
    "pincode": "413306",
    "officename": "Katphal B.O",
    "officeType": "B.O",
    "Deliverystatus": "Delivery",
    "divisionname": "Pandharpur",
    "regionname": "Pune",
    "circlename": "Maharashtra",
    "Taluk": "Sangola",
    "Districtname": "Solapur",
    "statename": "MAHARASHTRA"
  },
  {
    "pincode": "413306",
    "officename": "Khavaspur B.O",
    "officeType": "B.O",
    "Deliverystatus": "Delivery",
    "divisionname": "Pandharpur",
    "regionname": "Pune",
    "circlename": "Maharashtra",
    "Taluk": "Sangola",
    "Districtname": "Solapur",
    "statename": "MAHARASHTRA"
  },
  {
    "pincode": "413306",
    "officename": "Kolegaon B.O",
    "officeType": "B.O",
    "Deliverystatus": "Delivery",
    "divisionname": "Pandharpur",
    "regionname": "Pune",
    "circlename": "Maharashtra",
    "Taluk": "Sangola",
    "Districtname": "Solapur",
    "statename": "MAHARASHTRA"
  },
  {
    "pincode": "413306",
    "officename": "Lotewadi B.O",
    "officeType": "B.O",
    "Deliverystatus": "Delivery",
    "divisionname": "Pandharpur",
    "regionname": "Pune",
    "circlename": "Maharashtra",
    "Taluk": "Sangola",
    "Districtname": "Solapur",
    "statename": "MAHARASHTRA"
  },
  {
    "pincode": "413306",
    "officename": "Mahim B.O",
    "officeType": "B.O",
    "Deliverystatus": "Delivery",
    "divisionname": "Pandharpur",
    "regionname": "Pune",
    "circlename": "Maharashtra",
    "Taluk": "Sangola",
    "Districtname": "Solapur",
    "statename": "MAHARASHTRA"
  },
  {
    "pincode": "413306",
    "officename": "Mahud S.O",
    "officeType": "S.O",
    "Deliverystatus": "Delivery",
    "divisionname": "Pandharpur",
    "regionname": "Pune",
    "circlename": "Maharashtra",
    "Taluk": "Sangola",
    "Districtname": "Solapur",
    "statename": "MAHARASHTRA"
  },
  {
    "pincode": "413306",
    "officename": "Phalwani B.O",
    "officeType": "B.O",
    "Deliverystatus": "Delivery",
    "divisionname": "Pandharpur",
    "regionname": "Pune",
    "circlename": "Maharashtra",
    "Taluk": "Sngola",
    "Districtname": "Solapur",
    "statename": "MAHARASHTRA"
  }
]
