[
  {
    "pincode": "413317",
    "officename": "Bohali B.O",
    "officeType": "B.O",
    "Deliverystatus": "Delivery",
    "divisionname": "Pandharpur",
    "regionname": "Pune",
    "circlename": "Maharashtra",
    "Taluk": "Sangola",
    "Districtname": "Solapur",
    "statename": "MAHARASHTRA"
  },
  {
    "pincode": "413317",
    "officename": "Dhyati (E) B.O",
    "officeType": "B.O",
    "Deliverystatus": "Delivery",
    "divisionname": "Pandharpur",
    "regionname": "Pune",
    "circlename": "Maharashtra",
    "Taluk": "Sangola",
    "Districtname": "Solapur",
    "statename": "MAHARASHTRA"
  },
  {
    "pincode": "413317",
    "officename": "Khardi S.O",
    "officeType": "S.O",
    "Deliverystatus": "Delivery",
    "divisionname": "Pandharpur",
    "regionname": "Pune",
    "circlename": "Maharashtra",
    "Taluk": "Pandharpur",
    "Districtname": "Solapur",
    "statename": "MAHARASHTRA"
  },
  {
    "pincode": "413317",
    "officename": "Manjari B.O",
    "officeType": "B.O",
    "Deliverystatus": "Delivery",
    "divisionname": "Pandharpur",
    "regionname": "Pune",
    "circlename": "Maharashtra",
    "Taluk": "Sangola",
    "Districtname": "Solapur",
    "statename": "MAHARASHTRA"
  },
  {
    "pincode": "413317",
    "officename": "Methawade B.O",
    "officeType": "B.O",
    "Deliverystatus": "Delivery",
    "divisionname": "Pandharpur",
    "regionname": "Pune",
    "circlename": "Maharashtra",
    "Taluk": "Sangola",
    "Districtname": "Solapur",
    "statename": "MAHARASHTRA"
  },
  {
    "pincode": "413317",
    "officename": "Sangewadi B.O",
    "officeType": "B.O",
    "Deliverystatus": "Delivery",
    "divisionname": "Pandharpur",
    "regionname": "Pune",
    "circlename": "Maharashtra",
    "Taluk": "Sangola",
    "Districtname": "Solapur",
    "statename": "MAHARASHTRA"
  },
  {
    "pincode": "413317",
    "officename": "Save B.O",
    "officeType": "B.O",
    "Deliverystatus": "Delivery",
    "divisionname": "Pandharpur",
    "regionname": "Pune",
    "circlename": "Maharashtra",
    "Taluk": "Sangola",
    "Districtname": "Solapur",
    "statename": "MAHARASHTRA"
  },
  {
    "pincode": "413317",
    "officename": "Shetphal B.O",
    "officeType": "B.O",
    "Deliverystatus": "Delivery",
    "divisionname": "Pandharpur",
    "regionname": "Pune",
    "circlename": "Maharashtra",
    "Taluk": "Sangola",
    "Districtname": "Solapur",
    "statename": "MAHARASHTRA"
  },
  {
    "pincode": "413317",
    "officename": "Shirbhavi B.O",
    "officeType": "B.O",
    "Deliverystatus": "Delivery",
    "divisionname": "Pandharpur",
    "regionname": "Pune",
    "circlename": "Maharashtra",
    "Taluk": "Sangola",
    "Districtname": "Solapur",
    "statename": "MAHARASHTRA"
  }
]
