[
  {
    "pincode": "413309",
    "officename": "Alegaon B.O",
    "officeType": "B.O",
    "Deliverystatus": "Delivery",
    "divisionname": "Pandharpur",
    "regionname": "Pune",
    "circlename": "Maharashtra",
    "Taluk": "Sangola",
    "Districtname": "Solapur",
    "statename": "MAHARASHTRA"
  },
  {
    "pincode": "413309",
    "officename": "Dongargaon B.O",
    "officeType": "B.O",
    "Deliverystatus": "Delivery",
    "divisionname": "Pandharpur",
    "regionname": "Pune",
    "circlename": "Maharashtra",
    "Taluk": "Sangola",
    "Districtname": "Solapur",
    "statename": "MAHARASHTRA"
  },
  {
    "pincode": "413309",
    "officename": "Gherdi B.O",
    "officeType": "B.O",
    "Deliverystatus": "Delivery",
    "divisionname": "Pandharpur",
    "regionname": "Pune",
    "circlename": "Maharashtra",
    "Taluk": "Mangalvedha",
    "Districtname": "Solapur",
    "statename": "MAHARASHTRA"
  },
  {
    "pincode": "413309",
    "officename": "Hangirge B.O",
    "officeType": "B.O",
    "Deliverystatus": "Delivery",
    "divisionname": "Pandharpur",
    "regionname": "Pune",
    "circlename": "Maharashtra",
    "Taluk": "Snagola",
    "Districtname": "Solapur",
    "statename": "MAHARASHTRA"
  },
  {
    "pincode": "413309",
    "officename": "Jawala S.O (Solapur)",
    "officeType": "S.O",
    "Deliverystatus": "Delivery",
    "divisionname": "Pandharpur",
    "regionname": "Pune",
    "circlename": "Maharashtra",
    "Taluk": "Sangola",
    "Districtname": "Solapur",
    "statename": "MAHARASHTRA"
  },
  {
    "pincode": "413309",
    "officename": "Kadlas B.O",
    "officeType": "B.O",
    "Deliverystatus": "Delivery",
    "divisionname": "Pandharpur",
    "regionname": "Pune",
    "circlename": "Maharashtra",
    "Taluk": "Sangola",
    "Districtname": "Solapur",
    "statename": "MAHARASHTRA"
  },
  {
    "pincode": "413309",
    "officename": "Lonvire B.O",
    "officeType": "B.O",
    "Deliverystatus": "Delivery",
    "divisionname": "Pandharpur",
    "regionname": "Pune",
    "circlename": "Maharashtra",
    "Taluk": "Sangola",
    "Districtname": "Solapur",
    "statename": "MAHARASHTRA"
  },
  {
    "pincode": "413309",
    "officename": "Pare B.O",
    "officeType": "B.O",
    "Deliverystatus": "Delivery",
    "divisionname": "Pandharpur",
    "regionname": "Pune",
    "circlename": "Maharashtra",
    "Taluk": "Sangola",
    "Districtname": "Solapur",
    "statename": "MAHARASHTRA"
  },
  {
    "pincode": "413309",
    "officename": "Sonand B.O",
    "officeType": "B.O",
    "Deliverystatus": "Delivery",
    "divisionname": "Pandharpur",
    "regionname": "Pune",
    "circlename": "Maharashtra",
    "Taluk": "Sangola",
    "Districtname": "Solapur",
    "statename": "MAHARASHTRA"
  },
  {
    "pincode": "413309",
    "officename": "Waki B.O",
    "officeType": "B.O",
    "Deliverystatus": "Delivery",
    "divisionname": "Pandharpur",
    "regionname": "Pune",
    "circlename": "Maharashtra",
    "Taluk": "Sangole",
    "Districtname": "Solapur",
    "statename": "MAHARASHTRA"
  }
]
