[
  {
    "pincode": "413532",
    "officename": "Atnoor B.O",
    "officeType": "B.O",
    "Deliverystatus": "Delivery",
    "divisionname": "Osmanabad",
    "regionname": "Aurangabad",
    "circlename": "Maharashtra",
    "Taluk": "",
    "Districtname": "Latur",
    "statename": "MAHARASHTRA"
  },
  {
    "pincode": "413532",
    "officename": "Deulwadi B.O",
    "officeType": "B.O",
    "Deliverystatus": "Delivery",
    "divisionname": "Osmanabad",
    "regionname": "Aurangabad",
    "circlename": "Maharashtra",
    "Taluk": "",
    "Districtname": "Latur",
    "statename": "MAHARASHTRA"
  },
  {
    "pincode": "413532",
    "officename": "Ghonshi B.O",
    "officeType": "B.O",
    "Deliverystatus": "Delivery",
    "divisionname": "Osmanabad",
    "regionname": "Aurangabad",
    "circlename": "Maharashtra",
    "Taluk": "",
    "Districtname": "Latur",
    "statename": "MAHARASHTRA"
  },
  {
    "pincode": "413532",
    "officename": "Gutti B.O",
    "officeType": "B.O",
    "Deliverystatus": "Delivery",
    "divisionname": "Osmanabad",
    "regionname": "Aurangabad",
    "circlename": "Maharashtra",
    "Taluk": "",
    "Districtname": "Latur",
    "statename": "MAHARASHTRA"
  },
  {
    "pincode": "413532",
    "officename": "Jalkot S.O",
    "officeType": "S.O",
    "Deliverystatus": "Delivery",
    "divisionname": "Osmanabad",
    "regionname": "Aurangabad",
    "circlename": "Maharashtra",
    "Taluk": "Jalkot",
    "Districtname": "Latur",
    "statename": "MAHARASHTRA"
  },
  {
    "pincode": "413532",
    "officename": "Kodli B.O",
    "officeType": "B.O",
    "Deliverystatus": "Delivery",
    "divisionname": "Osmanabad",
    "regionname": "Aurangabad",
    "circlename": "Maharashtra",
    "Taluk": "",
    "Districtname": "Osmanabad",
    "statename": "MAHARASHTRA"
  },
  {
    "pincode": "413532",
    "officename": "Mal Hipperga B.O",
    "officeType": "B.O",
    "Deliverystatus": "Delivery",
    "divisionname": "Osmanabad",
    "regionname": "Aurangabad",
    "circlename": "Maharashtra",
    "Taluk": "",
    "Districtname": "Latur",
    "statename": "MAHARASHTRA"
  },
  {
    "pincode": "413532",
    "officename": "Mangrul B.O",
    "officeType": "B.O",
    "Deliverystatus": "Delivery",
    "divisionname": "Osmanabad",
    "regionname": "Aurangabad",
    "circlename": "Maharashtra",
    "Taluk": "Jalkot",
    "Districtname": "Latur",
    "statename": "MAHARASHTRA"
  },
  {
    "pincode": "413532",
    "officename": "Patoda B.O",
    "officeType": "B.O",
    "Deliverystatus": "Delivery",
    "divisionname": "Osmanabad",
    "regionname": "Aurangabad",
    "circlename": "Maharashtra",
    "Taluk": "",
    "Districtname": "Latur",
    "statename": "MAHARASHTRA"
  },
  {
    "pincode": "413532",
    "officename": "Ravankola B.O",
    "officeType": "B.O",
    "Deliverystatus": "Delivery",
    "divisionname": "Osmanabad",
    "regionname": "Aurangabad",
    "circlename": "Maharashtra",
    "Taluk": "",
    "Districtname": "Latur",
    "statename": "MAHARASHTRA"
  },
  {
    "pincode": "413532",
    "officename": "Tiruka B.O",
    "officeType": "B.O",
    "Deliverystatus": "Delivery",
    "divisionname": "Osmanabad",
    "regionname": "Aurangabad",
    "circlename": "Maharashtra",
    "Taluk": "",
    "Districtname": "Latur",
    "statename": "MAHARASHTRA"
  }
]
