[
  {
    "pincode": "413518",
    "officename": "Gudsur B.O",
    "officeType": "B.O",
    "Deliverystatus": "Delivery",
    "divisionname": "Osmanabad",
    "regionname": "Aurangabad",
    "circlename": "Maharashtra",
    "Taluk": "",
    "Districtname": "Latur",
    "statename": "MAHARASHTRA"
  },
  {
    "pincode": "413518",
    "officename": "Halli B.O",
    "officeType": "B.O",
    "Deliverystatus": "Delivery",
    "divisionname": "Osmanabad",
    "regionname": "Aurangabad",
    "circlename": "Maharashtra",
    "Taluk": "",
    "Districtname": "Latur",
    "statename": "MAHARASHTRA"
  },
  {
    "pincode": "413518",
    "officename": "Handargulli B.O",
    "officeType": "B.O",
    "Deliverystatus": "Delivery",
    "divisionname": "Osmanabad",
    "regionname": "Aurangabad",
    "circlename": "Maharashtra",
    "Taluk": "",
    "Districtname": "Latur",
    "statename": "MAHARASHTRA"
  },
  {
    "pincode": "413518",
    "officename": "Kini Yeladevi B.O",
    "officeType": "B.O",
    "Deliverystatus": "Delivery",
    "divisionname": "Osmanabad",
    "regionname": "Aurangabad",
    "circlename": "Maharashtra",
    "Taluk": "",
    "Districtname": "Latur",
    "statename": "MAHARASHTRA"
  },
  {
    "pincode": "413518",
    "officename": "Nawani B.O",
    "officeType": "B.O",
    "Deliverystatus": "Delivery",
    "divisionname": "Osmanabad",
    "regionname": "Aurangabad",
    "circlename": "Maharashtra",
    "Taluk": "",
    "Districtname": "Latur",
    "statename": "MAHARASHTRA"
  },
  {
    "pincode": "413518",
    "officename": "Shelgaon B.O",
    "officeType": "B.O",
    "Deliverystatus": "Delivery",
    "divisionname": "Osmanabad",
    "regionname": "Aurangabad",
    "circlename": "Maharashtra",
    "Taluk": "",
    "Districtname": "Osmanabad",
    "statename": "MAHARASHTRA"
  },
  {
    "pincode": "413518",
    "officename": "Sukani B.O",
    "officeType": "B.O",
    "Deliverystatus": "Delivery",
    "divisionname": "Osmanabad",
    "regionname": "Aurangabad",
    "circlename": "Maharashtra",
    "Taluk": "",
    "Districtname": "Osmanabad",
    "statename": "MAHARASHTRA"
  },
  {
    "pincode": "413518",
    "officename": "Wadhona S.O",
    "officeType": "S.O",
    "Deliverystatus": "Delivery",
    "divisionname": "Osmanabad",
    "regionname": "Aurangabad",
    "circlename": "Maharashtra",
    "Taluk": "Udgir",
    "Districtname": "Latur",
    "statename": "MAHARASHTRA"
  }
]
