[
  {
    "pincode": "413513",
    "officename": "Anjansonda B.O",
    "officeType": "B.O",
    "Deliverystatus": "Delivery",
    "divisionname": "Osmanabad",
    "regionname": "Aurangabad",
    "circlename": "Maharashtra",
    "Taluk": "Chakur",
    "Districtname": "Latur",
    "statename": "MAHARASHTRA"
  },
  {
    "pincode": "413513",
    "officename": "Chakur S.O",
    "officeType": "S.O",
    "Deliverystatus": "Delivery",
    "divisionname": "Osmanabad",
    "regionname": "Aurangabad",
    "circlename": "Maharashtra",
    "Taluk": "Chakur",
    "Districtname": "Latur",
    "statename": "MAHARASHTRA"
  },
  {
    "pincode": "413513",
    "officename": "Chapoli B.O",
    "officeType": "B.O",
    "Deliverystatus": "Delivery",
    "divisionname": "Osmanabad",
    "regionname": "Aurangabad",
    "circlename": "Maharashtra",
    "Taluk": "Chakur",
    "Districtname": "Latur",
    "statename": "MAHARASHTRA"
  },
  {
    "pincode": "413513",
    "officename": "Gharani B.O",
    "officeType": "B.O",
    "Deliverystatus": "Delivery",
    "divisionname": "Osmanabad",
    "regionname": "Aurangabad",
    "circlename": "Maharashtra",
    "Taluk": "Chakur",
    "Districtname": "Latur",
    "statename": "MAHARASHTRA"
  },
  {
    "pincode": "413513",
    "officename": "Hipalner B.O",
    "officeType": "B.O",
    "Deliverystatus": "Delivery",
    "divisionname": "Osmanabad",
    "regionname": "Aurangabad",
    "circlename": "Maharashtra",
    "Taluk": "Chakur",
    "Districtname": "Latur",
    "statename": "MAHARASHTRA"
  },
  {
    "pincode": "413513",
    "officename": "Mohnal B.O",
    "officeType": "B.O",
    "Deliverystatus": "Delivery",
    "divisionname": "Osmanabad",
    "regionname": "Aurangabad",
    "circlename": "Maharashtra",
    "Taluk": "Chakur",
    "Districtname": "Latur",
    "statename": "MAHARASHTRA"
  },
  {
    "pincode": "413513",
    "officename": "Omerga Court B.O",
    "officeType": "B.O",
    "Deliverystatus": "Delivery",
    "divisionname": "Osmanabad",
    "regionname": "Aurangabad",
    "circlename": "Maharashtra",
    "Taluk": "Chakur",
    "Districtname": "Latur",
    "statename": "MAHARASHTRA"
  },
  {
    "pincode": "413513",
    "officename": "Telgaon B.O",
    "officeType": "B.O",
    "Deliverystatus": "Delivery",
    "divisionname": "Osmanabad",
    "regionname": "Aurangabad",
    "circlename": "Maharashtra",
    "Taluk": "Ahmadpur",
    "Districtname": "Latur",
    "statename": "MAHARASHTRA"
  }
]
