[
  {
    "pincode": "413507",
    "officename": "Andora B.O",
    "officeType": "B.O",
    "Deliverystatus": "Delivery",
    "divisionname": "Osmanabad",
    "regionname": "Aurangabad",
    "circlename": "Maharashtra",
    "Taluk": "Kallam",
    "Districtname": "Osmanabad",
    "statename": "MAHARASHTRA"
  },
  {
    "pincode": "413507",
    "officename": "Bhatsirpura B.O",
    "officeType": "B.O",
    "Deliverystatus": "Delivery",
    "divisionname": "Osmanabad",
    "regionname": "Aurangabad",
    "circlename": "Maharashtra",
    "Taluk": "Kallam",
    "Districtname": "Osmanabad",
    "statename": "MAHARASHTRA"
  },
  {
    "pincode": "413507",
    "officename": "Borda B.O",
    "officeType": "B.O",
    "Deliverystatus": "Delivery",
    "divisionname": "Osmanabad",
    "regionname": "Aurangabad",
    "circlename": "Maharashtra",
    "Taluk": "Kallam",
    "Districtname": "Osmanabad",
    "statename": "MAHARASHTRA"
  },
  {
    "pincode": "413507",
    "officename": "Deodhanora B.O",
    "officeType": "B.O",
    "Deliverystatus": "Delivery",
    "divisionname": "Osmanabad",
    "regionname": "Aurangabad",
    "circlename": "Maharashtra",
    "Taluk": "Kallam",
    "Districtname": "Osmanabad",
    "statename": "MAHARASHTRA"
  },
  {
    "pincode": "413507",
    "officename": "Govindpur B.O",
    "officeType": "B.O",
    "Deliverystatus": "Delivery",
    "divisionname": "Osmanabad",
    "regionname": "Aurangabad",
    "circlename": "Maharashtra",
    "Taluk": "Kallam",
    "Districtname": "Osmanabad",
    "statename": "MAHARASHTRA"
  },
  {
    "pincode": "413507",
    "officename": "Harwargaon B.O",
    "officeType": "B.O",
    "Deliverystatus": "Delivery",
    "divisionname": "Osmanabad",
    "regionname": "Aurangabad",
    "circlename": "Maharashtra",
    "Taluk": "Kallam",
    "Districtname": "Osmanabad",
    "statename": "MAHARASHTRA"
  },
  {
    "pincode": "413507",
    "officename": "Itkur B.O",
    "officeType": "B.O",
    "Deliverystatus": "Delivery",
    "divisionname": "Osmanabad",
    "regionname": "Aurangabad",
    "circlename": "Maharashtra",
    "Taluk": "Kallam",
    "Districtname": "Osmanabad",
    "statename": "MAHARASHTRA"
  },
  {
    "pincode": "413507",
    "officename": "Jawala Kh. B.O",
    "officeType": "B.O",
    "Deliverystatus": "Delivery",
    "divisionname": "Osmanabad",
    "regionname": "Aurangabad",
    "circlename": "Maharashtra",
    "Taluk": "Kallam",
    "Districtname": "Osmanabad",
    "statename": "MAHARASHTRA"
  },
  {
    "pincode": "413507",
    "officename": "Kallam S.O",
    "officeType": "S.O",
    "Deliverystatus": "Delivery",
    "divisionname": "Osmanabad",
    "regionname": "Aurangabad",
    "circlename": "Maharashtra",
    "Taluk": "Kallam",
    "Districtname": "Osmanabad",
    "statename": "MAHARASHTRA"
  },
  {
    "pincode": "413507",
    "officename": "Kanherwadi B.O",
    "officeType": "B.O",
    "Deliverystatus": "Delivery",
    "divisionname": "Osmanabad",
    "regionname": "Aurangabad",
    "circlename": "Maharashtra",
    "Taluk": "Kallam",
    "Districtname": "Osmanabad",
    "statename": "MAHARASHTRA"
  },
  {
    "pincode": "413507",
    "officename": "Karanjkalla B.O",
    "officeType": "B.O",
    "Deliverystatus": "Delivery",
    "divisionname": "Osmanabad",
    "regionname": "Aurangabad",
    "circlename": "Maharashtra",
    "Taluk": "Kallam",
    "Districtname": "Osmanabad",
    "statename": "MAHARASHTRA"
  },
  {
    "pincode": "413507",
    "officename": "Khamaswadi B.O",
    "officeType": "B.O",
    "Deliverystatus": "Delivery",
    "divisionname": "Osmanabad",
    "regionname": "Aurangabad",
    "circlename": "Maharashtra",
    "Taluk": "Kallam",
    "Districtname": "Osmanabad",
    "statename": "MAHARASHTRA"
  },
  {
    "pincode": "413507",
    "officename": "Lohata (East) B.O",
    "officeType": "B.O",
    "Deliverystatus": "Delivery",
    "divisionname": "Osmanabad",
    "regionname": "Aurangabad",
    "circlename": "Maharashtra",
    "Taluk": "Kallam",
    "Districtname": "Osmanabad",
    "statename": "MAHARASHTRA"
  },
  {
    "pincode": "413507",
    "officename": "Mandva B.O",
    "officeType": "B.O",
    "Deliverystatus": "Delivery",
    "divisionname": "Osmanabad",
    "regionname": "Aurangabad",
    "circlename": "Maharashtra",
    "Taluk": "Kallam",
    "Districtname": "Osmanabad",
    "statename": "MAHARASHTRA"
  },
  {
    "pincode": "413507",
    "officename": "Mangrool B.O",
    "officeType": "B.O",
    "Deliverystatus": "Delivery",
    "divisionname": "Osmanabad",
    "regionname": "Aurangabad",
    "circlename": "Maharashtra",
    "Taluk": "Kallam",
    "Districtname": "Osmanabad",
    "statename": "MAHARASHTRA"
  },
  {
    "pincode": "413507",
    "officename": "Massa Khandeshwari B.O",
    "officeType": "B.O",
    "Deliverystatus": "Delivery",
    "divisionname": "Osmanabad",
    "regionname": "Aurangabad",
    "circlename": "Maharashtra",
    "Taluk": "Kallam",
    "Districtname": "Osmanabad",
    "statename": "MAHARASHTRA"
  },
  {
    "pincode": "413507",
    "officename": "Moha B.O",
    "officeType": "B.O",
    "Deliverystatus": "Delivery",
    "divisionname": "Osmanabad",
    "regionname": "Aurangabad",
    "circlename": "Maharashtra",
    "Taluk": "Kallam",
    "Districtname": "Osmanabad",
    "statename": "MAHARASHTRA"
  },
  {
    "pincode": "413507",
    "officename": "Para B.O",
    "officeType": "B.O",
    "Deliverystatus": "Delivery",
    "divisionname": "Osmanabad",
    "regionname": "Aurangabad",
    "circlename": "Maharashtra",
    "Taluk": "Kallam",
    "Districtname": "Osmanabad",
    "statename": "MAHARASHTRA"
  },
  {
    "pincode": "413507",
    "officename": "Pimpalgaon (Kothawale) B.O",
    "officeType": "B.O",
    "Deliverystatus": "Delivery",
    "divisionname": "Osmanabad",
    "regionname": "Aurangabad",
    "circlename": "Maharashtra",
    "Taluk": "Kallam",
    "Districtname": "Osmanabad",
    "statename": "MAHARASHTRA"
  },
  {
    "pincode": "413507",
    "officename": "Sarola Mandva B.O",
    "officeType": "B.O",
    "Deliverystatus": "Delivery",
    "divisionname": "Osmanabad",
    "regionname": "Aurangabad",
    "circlename": "Maharashtra",
    "Taluk": "Kallam",
    "Districtname": "Osmanabad",
    "statename": "MAHARASHTRA"
  },
  {
    "pincode": "413507",
    "officename": "Selu B.O",
    "officeType": "B.O",
    "Deliverystatus": "Delivery",
    "divisionname": "Osmanabad",
    "regionname": "Aurangabad",
    "circlename": "Maharashtra",
    "Taluk": "Kallam",
    "Districtname": "Osmanabad",
    "statename": "MAHARASHTRA"
  }
]
