[
  {
    "pincode": "413511",
    "officename": "Bheta B.O",
    "officeType": "B.O",
    "Deliverystatus": "Delivery",
    "divisionname": "Osmanabad",
    "regionname": "Aurangabad",
    "circlename": "Maharashtra",
    "Taluk": "Latur",
    "Districtname": "Latur",
    "statename": "MAHARASHTRA"
  },
  {
    "pincode": "413511",
    "officename": "Borgaon S.O (Latur)",
    "officeType": "S.O",
    "Deliverystatus": "Delivery",
    "divisionname": "Osmanabad",
    "regionname": "Aurangabad",
    "circlename": "Maharashtra",
    "Taluk": "Latur",
    "Districtname": "Latur",
    "statename": "MAHARASHTRA"
  },
  {
    "pincode": "413511",
    "officename": "Chikurda B.O",
    "officeType": "B.O",
    "Deliverystatus": "Delivery",
    "divisionname": "Osmanabad",
    "regionname": "Aurangabad",
    "circlename": "Maharashtra",
    "Taluk": "Latur",
    "Districtname": "Latur",
    "statename": "MAHARASHTRA"
  },
  {
    "pincode": "413511",
    "officename": "Chincholi Ballalnath B.O",
    "officeType": "B.O",
    "Deliverystatus": "Delivery",
    "divisionname": "Osmanabad",
    "regionname": "Aurangabad",
    "circlename": "Maharashtra",
    "Taluk": "Latur",
    "Districtname": "Latur",
    "statename": "MAHARASHTRA"
  },
  {
    "pincode": "413511",
    "officename": "Ekurga B.O",
    "officeType": "B.O",
    "Deliverystatus": "Delivery",
    "divisionname": "Osmanabad",
    "regionname": "Aurangabad",
    "circlename": "Maharashtra",
    "Taluk": "Latur",
    "Districtname": "Latur",
    "statename": "MAHARASHTRA"
  },
  {
    "pincode": "413511",
    "officename": "Gadwad B.O",
    "officeType": "B.O",
    "Deliverystatus": "Delivery",
    "divisionname": "Osmanabad",
    "regionname": "Aurangabad",
    "circlename": "Maharashtra",
    "Taluk": "Latur",
    "Districtname": "Latur",
    "statename": "MAHARASHTRA"
  },
  {
    "pincode": "413511",
    "officename": "Gategaon B.O",
    "officeType": "B.O",
    "Deliverystatus": "Delivery",
    "divisionname": "Osmanabad",
    "regionname": "Aurangabad",
    "circlename": "Maharashtra",
    "Taluk": "Latur",
    "Districtname": "Latur",
    "statename": "MAHARASHTRA"
  },
  {
    "pincode": "413511",
    "officename": "Jawala (BK) B.O",
    "officeType": "B.O",
    "Deliverystatus": "Delivery",
    "divisionname": "Osmanabad",
    "regionname": "Aurangabad",
    "circlename": "Maharashtra",
    "Taluk": "Latur",
    "Districtname": "Latur",
    "statename": "MAHARASHTRA"
  },
  {
    "pincode": "413511",
    "officename": "Murud Akola B.O",
    "officeType": "B.O",
    "Deliverystatus": "Delivery",
    "divisionname": "Osmanabad",
    "regionname": "Aurangabad",
    "circlename": "Maharashtra",
    "Taluk": "Latur",
    "Districtname": "Latur",
    "statename": "MAHARASHTRA"
  },
  {
    "pincode": "413511",
    "officename": "Nevali B.O",
    "officeType": "B.O",
    "Deliverystatus": "Delivery",
    "divisionname": "Osmanabad",
    "regionname": "Aurangabad",
    "circlename": "Maharashtra",
    "Taluk": "Latur",
    "Districtname": "Latur",
    "statename": "MAHARASHTRA"
  },
  {
    "pincode": "413511",
    "officename": "Ramegaon B.O",
    "officeType": "B.O",
    "Deliverystatus": "Delivery",
    "divisionname": "Osmanabad",
    "regionname": "Aurangabad",
    "circlename": "Maharashtra",
    "Taluk": "Latur",
    "Districtname": "Latur",
    "statename": "MAHARASHTRA"
  },
  {
    "pincode": "413511",
    "officename": "Rameshwar B.O",
    "officeType": "B.O",
    "Deliverystatus": "Delivery",
    "divisionname": "Osmanabad",
    "regionname": "Aurangabad",
    "circlename": "Maharashtra",
    "Taluk": "Latur",
    "Districtname": "Latur",
    "statename": "MAHARASHTRA"
  },
  {
    "pincode": "413511",
    "officename": "Shirala B.O",
    "officeType": "B.O",
    "Deliverystatus": "Delivery",
    "divisionname": "Osmanabad",
    "regionname": "Aurangabad",
    "circlename": "Maharashtra",
    "Taluk": "Latur",
    "Districtname": "Latur",
    "statename": "MAHARASHTRA"
  },
  {
    "pincode": "413511",
    "officename": "Tandulja B.O",
    "officeType": "B.O",
    "Deliverystatus": "Delivery",
    "divisionname": "Osmanabad",
    "regionname": "Aurangabad",
    "circlename": "Maharashtra",
    "Taluk": "Latur",
    "Districtname": "Latur",
    "statename": "MAHARASHTRA"
  },
  {
    "pincode": "413511",
    "officename": "Tawarajkheda B.O",
    "officeType": "B.O",
    "Deliverystatus": "Delivery",
    "divisionname": "Osmanabad",
    "regionname": "Aurangabad",
    "circlename": "Maharashtra",
    "Taluk": "Latur",
    "Districtname": "Osmanabad",
    "statename": "MAHARASHTRA"
  },
  {
    "pincode": "413511",
    "officename": "Wagholi B.O",
    "officeType": "B.O",
    "Deliverystatus": "Delivery",
    "divisionname": "Osmanabad",
    "regionname": "Aurangabad",
    "circlename": "Maharashtra",
    "Taluk": "Latur",
    "Districtname": "Latur",
    "statename": "MAHARASHTRA"
  },
  {
    "pincode": "413511",
    "officename": "Wanjarkheda B.O",
    "officeType": "B.O",
    "Deliverystatus": "Delivery",
    "divisionname": "Osmanabad",
    "regionname": "Aurangabad",
    "circlename": "Maharashtra",
    "Taluk": "Latur",
    "Districtname": "Latur",
    "statename": "MAHARASHTRA"
  }
]
