[
  {
    "pincode": "413502",
    "officename": "Antargaon B.O",
    "officeType": "B.O",
    "Deliverystatus": "Delivery",
    "divisionname": "Osmanabad",
    "regionname": "Aurangabad",
    "circlename": "Maharashtra",
    "Taluk": "Paranda",
    "Districtname": "Osmanabad",
    "statename": "MAHARASHTRA"
  },
  {
    "pincode": "413502",
    "officename": "Arangaon B.O",
    "officeType": "B.O",
    "Deliverystatus": "Delivery",
    "divisionname": "Osmanabad",
    "regionname": "Aurangabad",
    "circlename": "Maharashtra",
    "Taluk": "Paranda",
    "Districtname": "Osmanabad",
    "statename": "MAHARASHTRA"
  },
  {
    "pincode": "413502",
    "officename": "Asu B.O",
    "officeType": "B.O",
    "Deliverystatus": "Delivery",
    "divisionname": "Osmanabad",
    "regionname": "Aurangabad",
    "circlename": "Maharashtra",
    "Taluk": "Paranda",
    "Districtname": "Osmanabad",
    "statename": "MAHARASHTRA"
  },
  {
    "pincode": "413502",
    "officename": "Bawachi B.O",
    "officeType": "B.O",
    "Deliverystatus": "Delivery",
    "divisionname": "Osmanabad",
    "regionname": "Aurangabad",
    "circlename": "Maharashtra",
    "Taluk": "Paranda",
    "Districtname": "Osmanabad",
    "statename": "MAHARASHTRA"
  },
  {
    "pincode": "413502",
    "officename": "Ida-Pida B.O",
    "officeType": "B.O",
    "Deliverystatus": "Delivery",
    "divisionname": "Osmanabad",
    "regionname": "Aurangabad",
    "circlename": "Maharashtra",
    "Taluk": "Paranda",
    "Districtname": "Osmanabad",
    "statename": "MAHARASHTRA"
  },
  {
    "pincode": "413502",
    "officename": "Kapilapuri B.O",
    "officeType": "B.O",
    "Deliverystatus": "Delivery",
    "divisionname": "Osmanabad",
    "regionname": "Aurangabad",
    "circlename": "Maharashtra",
    "Taluk": "Paranda",
    "Districtname": "Osmanabad",
    "statename": "MAHARASHTRA"
  },
  {
    "pincode": "413502",
    "officename": "Khasapuri B.O",
    "officeType": "B.O",
    "Deliverystatus": "Delivery",
    "divisionname": "Osmanabad",
    "regionname": "Aurangabad",
    "circlename": "Maharashtra",
    "Taluk": "Paranda",
    "Districtname": "Osmanabad",
    "statename": "MAHARASHTRA"
  },
  {
    "pincode": "413502",
    "officename": "Khasgaon B.O",
    "officeType": "B.O",
    "Deliverystatus": "Delivery",
    "divisionname": "Osmanabad",
    "regionname": "Aurangabad",
    "circlename": "Maharashtra",
    "Taluk": "Paranda",
    "Districtname": "Osmanabad",
    "statename": "MAHARASHTRA"
  },
  {
    "pincode": "413502",
    "officename": "Loni B.O",
    "officeType": "B.O",
    "Deliverystatus": "Delivery",
    "divisionname": "Osmanabad",
    "regionname": "Aurangabad",
    "circlename": "Maharashtra",
    "Taluk": "Paranda",
    "Districtname": "Osmanabad",
    "statename": "MAHARASHTRA"
  },
  {
    "pincode": "413502",
    "officename": "Pach Pimpla B.O",
    "officeType": "B.O",
    "Deliverystatus": "Delivery",
    "divisionname": "Osmanabad",
    "regionname": "Aurangabad",
    "circlename": "Maharashtra",
    "Taluk": "Paranda",
    "Districtname": "Osmanabad",
    "statename": "MAHARASHTRA"
  },
  {
    "pincode": "413502",
    "officename": "Paranda S.O",
    "officeType": "S.O",
    "Deliverystatus": "Delivery",
    "divisionname": "Osmanabad",
    "regionname": "Aurangabad",
    "circlename": "Maharashtra",
    "Taluk": "Paranda",
    "Districtname": "Osmanabad",
    "statename": "MAHARASHTRA"
  },
  {
    "pincode": "413502",
    "officename": "Pimpalwadi B.O",
    "officeType": "B.O",
    "Deliverystatus": "Delivery",
    "divisionname": "Osmanabad",
    "regionname": "Aurangabad",
    "circlename": "Maharashtra",
    "Taluk": "Paranda",
    "Districtname": "Osmanabad",
    "statename": "MAHARASHTRA"
  },
  {
    "pincode": "413502",
    "officename": "Shirala B.O",
    "officeType": "B.O",
    "Deliverystatus": "Delivery",
    "divisionname": "Osmanabad",
    "regionname": "Aurangabad",
    "circlename": "Maharashtra",
    "Taluk": "Paranda",
    "Districtname": "Osmanabad",
    "statename": "MAHARASHTRA"
  },
  {
    "pincode": "413502",
    "officename": "Wakadi B.O",
    "officeType": "B.O",
    "Deliverystatus": "Delivery",
    "divisionname": "Osmanabad",
    "regionname": "Aurangabad",
    "circlename": "Maharashtra",
    "Taluk": "Paranda",
    "Districtname": "Latur",
    "statename": "MAHARASHTRA"
  },
  {
    "pincode": "413502",
    "officename": "Wangi Bk. B.O",
    "officeType": "B.O",
    "Deliverystatus": "Delivery",
    "divisionname": "Osmanabad",
    "regionname": "Aurangabad",
    "circlename": "Maharashtra",
    "Taluk": "Paranda",
    "Districtname": "Osmanabad",
    "statename": "MAHARASHTRA"
  }
]
