[
  {
    "pincode": "413728",
    "officename": "Bhangaon B.O",
    "officeType": "B.O",
    "Deliverystatus": "Delivery",
    "divisionname": "Ahmednagar",
    "regionname": "Pune",
    "circlename": "Maharashtra",
    "Taluk": "Shrigonda",
    "Districtname": "Ahmed Nagar",
    "statename": "MAHARASHTRA"
  },
  {
    "pincode": "413728",
    "officename": "Chikhali B.O",
    "officeType": "B.O",
    "Deliverystatus": "Delivery",
    "divisionname": "Ahmednagar",
    "regionname": "Pune",
    "circlename": "Maharashtra",
    "Taluk": "Shrigonda",
    "Districtname": "Ahmed Nagar",
    "statename": "MAHARASHTRA"
  },
  {
    "pincode": "413728",
    "officename": "Deulgaon B.O",
    "officeType": "B.O",
    "Deliverystatus": "Delivery",
    "divisionname": "Ahmednagar",
    "regionname": "Pune",
    "circlename": "Maharashtra",
    "Taluk": "Shrigonda",
    "Districtname": "Ahmed Nagar",
    "statename": "MAHARASHTRA"
  },
  {
    "pincode": "413728",
    "officename": "Dhorje B.O",
    "officeType": "B.O",
    "Deliverystatus": "Delivery",
    "divisionname": "Ahmednagar",
    "regionname": "Pune",
    "circlename": "Maharashtra",
    "Taluk": "Shrigonda",
    "Districtname": "Ahmed Nagar",
    "statename": "MAHARASHTRA"
  },
  {
    "pincode": "413728",
    "officename": "Ghargaon B.O",
    "officeType": "B.O",
    "Deliverystatus": "Delivery",
    "divisionname": "Ahmednagar",
    "regionname": "Pune",
    "circlename": "Maharashtra",
    "Taluk": "Shrigonda",
    "Districtname": "Ahmed Nagar",
    "statename": "MAHARASHTRA"
  },
  {
    "pincode": "413728",
    "officename": "Ghotvi B.O",
    "officeType": "B.O",
    "Deliverystatus": "Delivery",
    "divisionname": "Ahmednagar",
    "regionname": "Pune",
    "circlename": "Maharashtra",
    "Taluk": "Shrigonda",
    "Districtname": "Ahmed Nagar",
    "statename": "MAHARASHTRA"
  },
  {
    "pincode": "413728",
    "officename": "Kolgaon S.O",
    "officeType": "S.O",
    "Deliverystatus": "Delivery",
    "divisionname": "Ahmednagar",
    "regionname": "Pune",
    "circlename": "Maharashtra",
    "Taluk": "Shrigonda",
    "Districtname": "Ahmed Nagar",
    "statename": "MAHARASHTRA"
  },
  {
    "pincode": "413728",
    "officename": "Kotul B.O",
    "officeType": "B.O",
    "Deliverystatus": "Delivery",
    "divisionname": "Ahmednagar",
    "regionname": "Pune",
    "circlename": "Maharashtra",
    "Taluk": "Shrigonda",
    "Districtname": "Ahmed Nagar",
    "statename": "MAHARASHTRA"
  },
  {
    "pincode": "413728",
    "officename": "Wadali B.O",
    "officeType": "B.O",
    "Deliverystatus": "Delivery",
    "divisionname": "Ahmednagar",
    "regionname": "Pune",
    "circlename": "Maharashtra",
    "Taluk": "Shrigonda",
    "Districtname": "Ahmed Nagar",
    "statename": "MAHARASHTRA"
  }
]
