[
  {
    "pincode": "414006",
    "officename": "Baburdi Ghumat B.O",
    "officeType": "B.O",
    "Deliverystatus": "Delivery",
    "divisionname": "Ahmednagar",
    "regionname": "Pune",
    "circlename": "Maharashtra",
    "Taluk": "Ahmednagar",
    "Districtname": "Ahmed Nagar",
    "statename": "MAHARASHTRA"
  },
  {
    "pincode": "414006",
    "officename": "Deulgaon Sidhhi B.O",
    "officeType": "B.O",
    "Deliverystatus": "Delivery",
    "divisionname": "Ahmednagar",
    "regionname": "Pune",
    "circlename": "Maharashtra",
    "Taluk": "Ahmednagar",
    "Districtname": "Ahmed Nagar",
    "statename": "MAHARASHTRA"
  },
  {
    "pincode": "414006",
    "officename": "Hivare Zare B.O",
    "officeType": "B.O",
    "Deliverystatus": "Delivery",
    "divisionname": "Ahmednagar",
    "regionname": "Pune",
    "circlename": "Maharashtra",
    "Taluk": "Ahmednagar",
    "Districtname": "Ahmed Nagar",
    "statename": "MAHARASHTRA"
  },
  {
    "pincode": "414006",
    "officename": "Khandala B.O",
    "officeType": "B.O",
    "Deliverystatus": "Delivery",
    "divisionname": "Ahmednagar",
    "regionname": "Pune",
    "circlename": "Maharashtra",
    "Taluk": "Ahmednagar",
    "Districtname": "Ahmed Nagar",
    "statename": "MAHARASHTRA"
  },
  {
    "pincode": "414006",
    "officename": "Meherabad B.O",
    "officeType": "B.O",
    "Deliverystatus": "Delivery",
    "divisionname": "Ahmednagar",
    "regionname": "Pune",
    "circlename": "Maharashtra",
    "Taluk": "Ahmednagar",
    "Districtname": "Ahmed Nagar",
    "statename": "MAHARASHTRA"
  },
  {
    "pincode": "414006",
    "officename": "Vadgaon Tandali B.O",
    "officeType": "B.O",
    "Deliverystatus": "Delivery",
    "divisionname": "Ahmednagar",
    "regionname": "Pune",
    "circlename": "Maharashtra",
    "Taluk": "Ahmednagar",
    "Districtname": "Ahmed Nagar",
    "statename": "MAHARASHTRA"
  },
  {
    "pincode": "414006",
    "officename": "Vahannagar S.O",
    "officeType": "S.O",
    "Deliverystatus": "Delivery",
    "divisionname": "Ahmednagar",
    "regionname": "Pune",
    "circlename": "Maharashtra",
    "Taluk": "Ahmednagar",
    "Districtname": "Ahmed Nagar",
    "statename": "MAHARASHTRA"
  },
  {
    "pincode": "414006",
    "officename": "Walki B.O",
    "officeType": "B.O",
    "Deliverystatus": "Delivery",
    "divisionname": "Ahmednagar",
    "regionname": "Pune",
    "circlename": "Maharashtra",
    "Taluk": "Ahmednagar",
    "Districtname": "Ahmed Nagar",
    "statename": "MAHARASHTRA"
  }
]
