[
  {
    "pincode": "414103",
    "officename": "Bhandgaon B.O",
    "officeType": "B.O",
    "Deliverystatus": "Delivery",
    "divisionname": "Ahmednagar",
    "regionname": "Pune",
    "circlename": "Maharashtra",
    "Taluk": "Parner",
    "Districtname": "Ahmed Nagar",
    "statename": "MAHARASHTRA"
  },
  {
    "pincode": "414103",
    "officename": "Bhawlani B.O",
    "officeType": "B.O",
    "Deliverystatus": "Delivery",
    "divisionname": "Ahmednagar",
    "regionname": "Pune",
    "circlename": "Maharashtra",
    "Taluk": "Parner",
    "Districtname": "Ahmed Nagar",
    "statename": "MAHARASHTRA"
  },
  {
    "pincode": "414103",
    "officename": "Daithane Gunjal B.O",
    "officeType": "B.O",
    "Deliverystatus": "Delivery",
    "divisionname": "Ahmednagar",
    "regionname": "Pune",
    "circlename": "Maharashtra",
    "Taluk": "Parner",
    "Districtname": "Ahmed Nagar",
    "statename": "MAHARASHTRA"
  },
  {
    "pincode": "414103",
    "officename": "Dhawalpuri B.O",
    "officeType": "B.O",
    "Deliverystatus": "Delivery",
    "divisionname": "Ahmednagar",
    "regionname": "Pune",
    "circlename": "Maharashtra",
    "Taluk": "Parner",
    "Districtname": "Ahmed Nagar",
    "statename": "MAHARASHTRA"
  },
  {
    "pincode": "414103",
    "officename": "Goregaon B.O",
    "officeType": "B.O",
    "Deliverystatus": "Delivery",
    "divisionname": "Ahmednagar",
    "regionname": "Pune",
    "circlename": "Maharashtra",
    "Taluk": "Parner",
    "Districtname": "Ahmed Nagar",
    "statename": "MAHARASHTRA"
  },
  {
    "pincode": "414103",
    "officename": "Hingangaon B.O",
    "officeType": "B.O",
    "Deliverystatus": "Delivery",
    "divisionname": "Ahmednagar",
    "regionname": "Pune",
    "circlename": "Maharashtra",
    "Taluk": "Parner",
    "Districtname": "Ahmed Nagar",
    "statename": "MAHARASHTRA"
  },
  {
    "pincode": "414103",
    "officename": "Hiware Korda B.O",
    "officeType": "B.O",
    "Deliverystatus": "Delivery",
    "divisionname": "Ahmednagar",
    "regionname": "Pune",
    "circlename": "Maharashtra",
    "Taluk": "Parner",
    "Districtname": "Ahmed Nagar",
    "statename": "MAHARASHTRA"
  },
  {
    "pincode": "414103",
    "officename": "Jamgaon S.O",
    "officeType": "S.O",
    "Deliverystatus": "Delivery",
    "divisionname": "Ahmednagar",
    "regionname": "Pune",
    "circlename": "Maharashtra",
    "Taluk": "Parner",
    "Districtname": "Ahmed Nagar",
    "statename": "MAHARASHTRA"
  },
  {
    "pincode": "414103",
    "officename": "Malkup B.O",
    "officeType": "B.O",
    "Deliverystatus": "Delivery",
    "divisionname": "Ahmednagar",
    "regionname": "Pune",
    "circlename": "Maharashtra",
    "Taluk": "Parner",
    "Districtname": "Ahmed Nagar",
    "statename": "MAHARASHTRA"
  },
  {
    "pincode": "414103",
    "officename": "Takali Khatgaon B.O",
    "officeType": "B.O",
    "Deliverystatus": "Delivery",
    "divisionname": "Ahmednagar",
    "regionname": "Pune",
    "circlename": "Maharashtra",
    "Taluk": "Parner",
    "Districtname": "Ahmed Nagar",
    "statename": "MAHARASHTRA"
  }
]
