[
  {
    "pincode": "414401",
    "officename": "Babhulgaon Khalsa B.O",
    "officeType": "B.O",
    "Deliverystatus": "Delivery",
    "divisionname": "Ahmednagar",
    "regionname": "Pune",
    "circlename": "Maharashtra",
    "Taluk": "Karjat",
    "Districtname": "Ahmed Nagar",
    "statename": "MAHARASHTRA"
  },
  {
    "pincode": "414401",
    "officename": "Chande BK B.O",
    "officeType": "B.O",
    "Deliverystatus": "Delivery",
    "divisionname": "Ahmednagar",
    "regionname": "Pune",
    "circlename": "Maharashtra",
    "Taluk": "Karjat",
    "Districtname": "Ahmed Nagar",
    "statename": "MAHARASHTRA"
  },
  {
    "pincode": "414401",
    "officename": "Chapadgaon B.O",
    "officeType": "B.O",
    "Deliverystatus": "Delivery",
    "divisionname": "Ahmednagar",
    "regionname": "Pune",
    "circlename": "Maharashtra",
    "Taluk": "Karjat",
    "Districtname": "Ahmed Nagar",
    "statename": "MAHARASHTRA"
  },
  {
    "pincode": "414401",
    "officename": "Dighi B.O",
    "officeType": "B.O",
    "Deliverystatus": "Delivery",
    "divisionname": "Ahmednagar",
    "regionname": "Pune",
    "circlename": "Maharashtra",
    "Taluk": "Karjat",
    "Districtname": "Ahmed Nagar",
    "statename": "MAHARASHTRA"
  },
  {
    "pincode": "414401",
    "officename": "Diksal B.O",
    "officeType": "B.O",
    "Deliverystatus": "Delivery",
    "divisionname": "Ahmednagar",
    "regionname": "Pune",
    "circlename": "Maharashtra",
    "Taluk": "Karjat",
    "Districtname": "Ahmed Nagar",
    "statename": "MAHARASHTRA"
  },
  {
    "pincode": "414401",
    "officename": "Ghogargaon B.O",
    "officeType": "B.O",
    "Deliverystatus": "Delivery",
    "divisionname": "Ahmednagar",
    "regionname": "Pune",
    "circlename": "Maharashtra",
    "Taluk": "Karjat",
    "Districtname": "Ahmed Nagar",
    "statename": "MAHARASHTRA"
  },
  {
    "pincode": "414401",
    "officename": "Guravpimpri B.O",
    "officeType": "B.O",
    "Deliverystatus": "Delivery",
    "divisionname": "Ahmednagar",
    "regionname": "Pune",
    "circlename": "Maharashtra",
    "Taluk": "Karjat",
    "Districtname": "Ahmed Nagar",
    "statename": "MAHARASHTRA"
  },
  {
    "pincode": "414401",
    "officename": "Kaundane B.O",
    "officeType": "B.O",
    "Deliverystatus": "Delivery",
    "divisionname": "Ahmednagar",
    "regionname": "Pune",
    "circlename": "Maharashtra",
    "Taluk": "Karjat",
    "Districtname": "Ahmed Nagar",
    "statename": "MAHARASHTRA"
  },
  {
    "pincode": "414401",
    "officename": "Khandvi B.O",
    "officeType": "B.O",
    "Deliverystatus": "Delivery",
    "divisionname": "Ahmednagar",
    "regionname": "Pune",
    "circlename": "Maharashtra",
    "Taluk": "Karjat",
    "Districtname": "Ahmed Nagar",
    "statename": "MAHARASHTRA"
  },
  {
    "pincode": "414401",
    "officename": "Kokangaon B.O",
    "officeType": "B.O",
    "Deliverystatus": "Delivery",
    "divisionname": "Ahmednagar",
    "regionname": "Pune",
    "circlename": "Maharashtra",
    "Taluk": "Karjat",
    "Districtname": "Ahmed Nagar",
    "statename": "MAHARASHTRA"
  },
  {
    "pincode": "414401",
    "officename": "Kombli B.O",
    "officeType": "B.O",
    "Deliverystatus": "Delivery",
    "divisionname": "Ahmednagar",
    "regionname": "Pune",
    "circlename": "Maharashtra",
    "Taluk": "Karjat",
    "Districtname": "Ahmed Nagar",
    "statename": "MAHARASHTRA"
  },
  {
    "pincode": "414401",
    "officename": "Mahijalgaon B.O",
    "officeType": "B.O",
    "Deliverystatus": "Delivery",
    "divisionname": "Ahmednagar",
    "regionname": "Pune",
    "circlename": "Maharashtra",
    "Taluk": "Karjat",
    "Districtname": "Ahmed Nagar",
    "statename": "MAHARASHTRA"
  },
  {
    "pincode": "414401",
    "officename": "Mirajgaon S.O",
    "officeType": "S.O",
    "Deliverystatus": "Delivery",
    "divisionname": "Ahmednagar",
    "regionname": "Pune",
    "circlename": "Maharashtra",
    "Taluk": "Karjat",
    "Districtname": "Ahmed Nagar",
    "statename": "MAHARASHTRA"
  },
  {
    "pincode": "414401",
    "officename": "Nimgaon Daku B.O",
    "officeType": "B.O",
    "Deliverystatus": "Delivery",
    "divisionname": "Ahmednagar",
    "regionname": "Pune",
    "circlename": "Maharashtra",
    "Taluk": "Karjat",
    "Districtname": "Ahmed Nagar",
    "statename": "MAHARASHTRA"
  },
  {
    "pincode": "414401",
    "officename": "Nimgaon Gangarda B.O",
    "officeType": "B.O",
    "Deliverystatus": "Delivery",
    "divisionname": "Ahmednagar",
    "regionname": "Pune",
    "circlename": "Maharashtra",
    "Taluk": "Karjat",
    "Districtname": "Ahmed Nagar",
    "statename": "MAHARASHTRA"
  },
  {
    "pincode": "414401",
    "officename": "Pategaon B.O",
    "officeType": "B.O",
    "Deliverystatus": "Delivery",
    "divisionname": "Ahmednagar",
    "regionname": "Pune",
    "circlename": "Maharashtra",
    "Taluk": "Karjat",
    "Districtname": "Ahmed Nagar",
    "statename": "MAHARASHTRA"
  },
  {
    "pincode": "414401",
    "officename": "Patewadi B.O",
    "officeType": "B.O",
    "Deliverystatus": "Delivery",
    "divisionname": "Ahmednagar",
    "regionname": "Pune",
    "circlename": "Maharashtra",
    "Taluk": "Karjat",
    "Districtname": "Ahmed Nagar",
    "statename": "MAHARASHTRA"
  },
  {
    "pincode": "414401",
    "officename": "Thergaon B.O",
    "officeType": "B.O",
    "Deliverystatus": "Delivery",
    "divisionname": "Ahmednagar",
    "regionname": "Pune",
    "circlename": "Maharashtra",
    "Taluk": "Karjat",
    "Districtname": "Ahmed Nagar",
    "statename": "MAHARASHTRA"
  }
]
