[
  {
    "pincode": "414502",
    "officename": "Akhatwade B.O",
    "officeType": "B.O",
    "Deliverystatus": "Delivery",
    "divisionname": "Ahmednagar",
    "regionname": "Pune",
    "circlename": "Maharashtra",
    "Taluk": "Shevgaon",
    "Districtname": "Ahmed Nagar",
    "statename": "MAHARASHTRA"
  },
  {
    "pincode": "414502",
    "officename": "Bhatkudgaon B.O",
    "officeType": "B.O",
    "Deliverystatus": "Delivery",
    "divisionname": "Ahmednagar",
    "regionname": "Pune",
    "circlename": "Maharashtra",
    "Taluk": "Shevgaon",
    "Districtname": "Ahmed Nagar",
    "statename": "MAHARASHTRA"
  },
  {
    "pincode": "414502",
    "officename": "Bhavinimgaon B.O",
    "officeType": "B.O",
    "Deliverystatus": "Delivery",
    "divisionname": "Ahmednagar",
    "regionname": "Pune",
    "circlename": "Maharashtra",
    "Taluk": "Shevgaon",
    "Districtname": "Ahmed Nagar",
    "statename": "MAHARASHTRA"
  },
  {
    "pincode": "414502",
    "officename": "Dahigaon B.O",
    "officeType": "B.O",
    "Deliverystatus": "Delivery",
    "divisionname": "Ahmednagar",
    "regionname": "Pune",
    "circlename": "Maharashtra",
    "Taluk": "Shevgaon",
    "Districtname": "Ahmed Nagar",
    "statename": "MAHARASHTRA"
  },
  {
    "pincode": "414502",
    "officename": "Deotakli B.O",
    "officeType": "B.O",
    "Deliverystatus": "Delivery",
    "divisionname": "Ahmednagar",
    "regionname": "Pune",
    "circlename": "Maharashtra",
    "Taluk": "Shevgaon",
    "Districtname": "Ahmed Nagar",
    "statename": "MAHARASHTRA"
  },
  {
    "pincode": "414502",
    "officename": "Ghotan B.O",
    "officeType": "B.O",
    "Deliverystatus": "Delivery",
    "divisionname": "Ahmednagar",
    "regionname": "Pune",
    "circlename": "Maharashtra",
    "Taluk": "Shevgaon",
    "Districtname": "Ahmed Nagar",
    "statename": "MAHARASHTRA"
  },
  {
    "pincode": "414502",
    "officename": "Golegaon B.O",
    "officeType": "B.O",
    "Deliverystatus": "Delivery",
    "divisionname": "Ahmednagar",
    "regionname": "Pune",
    "circlename": "Maharashtra",
    "Taluk": "Shevgaon",
    "Districtname": "Ahmed Nagar",
    "statename": "MAHARASHTRA"
  },
  {
    "pincode": "414502",
    "officename": "Hasnapur B.O",
    "officeType": "B.O",
    "Deliverystatus": "Delivery",
    "divisionname": "Ahmednagar",
    "regionname": "Pune",
    "circlename": "Maharashtra",
    "Taluk": "Shevgaon",
    "Districtname": "Ahmed Nagar",
    "statename": "MAHARASHTRA"
  },
  {
    "pincode": "414502",
    "officename": "Joharapur B.O",
    "officeType": "B.O",
    "Deliverystatus": "Delivery",
    "divisionname": "Ahmednagar",
    "regionname": "Pune",
    "circlename": "Maharashtra",
    "Taluk": "Shevgaon",
    "Districtname": "Ahmed Nagar",
    "statename": "MAHARASHTRA"
  },
  {
    "pincode": "414502",
    "officename": "Khanapur  BO B.O",
    "officeType": "B.O",
    "Deliverystatus": "Delivery",
    "divisionname": "Ahmednagar",
    "regionname": "Pune",
    "circlename": "Maharashtra",
    "Taluk": "Shevgaon",
    "Districtname": "Ahmed Nagar",
    "statename": "MAHARASHTRA"
  },
  {
    "pincode": "414502",
    "officename": "Kharadgaon B.O",
    "officeType": "B.O",
    "Deliverystatus": "Delivery",
    "divisionname": "Ahmednagar",
    "regionname": "Pune",
    "circlename": "Maharashtra",
    "Taluk": "Shevgaon",
    "Districtname": "Ahmed Nagar",
    "statename": "MAHARASHTRA"
  },
  {
    "pincode": "414502",
    "officename": "Ladjalgaon B.O",
    "officeType": "B.O",
    "Deliverystatus": "Delivery",
    "divisionname": "Ahmednagar",
    "regionname": "Pune",
    "circlename": "Maharashtra",
    "Taluk": "Shevgaon",
    "Districtname": "Ahmed Nagar",
    "statename": "MAHARASHTRA"
  },
  {
    "pincode": "414502",
    "officename": "Malegaon B.O",
    "officeType": "B.O",
    "Deliverystatus": "Delivery",
    "divisionname": "Ahmednagar",
    "regionname": "Pune",
    "circlename": "Maharashtra",
    "Taluk": "Shevgaon",
    "Districtname": "Ahmed Nagar",
    "statename": "MAHARASHTRA"
  },
  {
    "pincode": "414502",
    "officename": "Rakshi B.O",
    "officeType": "B.O",
    "Deliverystatus": "Delivery",
    "divisionname": "Ahmednagar",
    "regionname": "Pune",
    "circlename": "Maharashtra",
    "Taluk": "Shevgaon",
    "Districtname": "Ahmed Nagar",
    "statename": "MAHARASHTRA"
  },
  {
    "pincode": "414502",
    "officename": "Ranegaon B.O",
    "officeType": "B.O",
    "Deliverystatus": "Delivery",
    "divisionname": "Ahmednagar",
    "regionname": "Pune",
    "circlename": "Maharashtra",
    "Taluk": "",
    "Districtname": "Ahmed Nagar",
    "statename": "MAHARASHTRA"
  },
  {
    "pincode": "414502",
    "officename": "Samangaon B.O",
    "officeType": "B.O",
    "Deliverystatus": "Delivery",
    "divisionname": "Ahmednagar",
    "regionname": "Pune",
    "circlename": "Maharashtra",
    "Taluk": "Shevgaon",
    "Districtname": "Ahmed Nagar",
    "statename": "MAHARASHTRA"
  },
  {
    "pincode": "414502",
    "officename": "Samsud Erandgaon B.O",
    "officeType": "B.O",
    "Deliverystatus": "Delivery",
    "divisionname": "Ahmednagar",
    "regionname": "Pune",
    "circlename": "Maharashtra",
    "Taluk": "Shevgaon",
    "Districtname": "Ahmed Nagar",
    "statename": "MAHARASHTRA"
  },
  {
    "pincode": "414502",
    "officename": "Shahar Takali B.O",
    "officeType": "B.O",
    "Deliverystatus": "Delivery",
    "divisionname": "Ahmednagar",
    "regionname": "Pune",
    "circlename": "Maharashtra",
    "Taluk": "Shevgaon",
    "Districtname": "Ahmed Nagar",
    "statename": "MAHARASHTRA"
  },
  {
    "pincode": "414502",
    "officename": "Shevgaon S.O",
    "officeType": "S.O",
    "Deliverystatus": "Delivery",
    "divisionname": "Ahmednagar",
    "regionname": "Pune",
    "circlename": "Maharashtra",
    "Taluk": "Shevgaon",
    "Districtname": "Ahmed Nagar",
    "statename": "MAHARASHTRA"
  },
  {
    "pincode": "414502",
    "officename": "Shingori B.O",
    "officeType": "B.O",
    "Deliverystatus": "Delivery",
    "divisionname": "Ahmednagar",
    "regionname": "Pune",
    "circlename": "Maharashtra",
    "Taluk": "Shevgaon",
    "Districtname": "Ahmed Nagar",
    "statename": "MAHARASHTRA"
  },
  {
    "pincode": "414502",
    "officename": "Sultanpur BK B.O",
    "officeType": "B.O",
    "Deliverystatus": "Delivery",
    "divisionname": "Ahmednagar",
    "regionname": "Pune",
    "circlename": "Maharashtra",
    "Taluk": "Shevgaon",
    "Districtname": "Ahmed Nagar",
    "statename": "MAHARASHTRA"
  },
  {
    "pincode": "414502",
    "officename": "Tajnapur B.O",
    "officeType": "B.O",
    "Deliverystatus": "Delivery",
    "divisionname": "Ahmednagar",
    "regionname": "Pune",
    "circlename": "Maharashtra",
    "Taluk": "Shevgaon",
    "Districtname": "Ahmed Nagar",
    "statename": "MAHARASHTRA"
  },
  {
    "pincode": "414502",
    "officename": "Vadule BK B.O",
    "officeType": "B.O",
    "Deliverystatus": "Delivery",
    "divisionname": "Ahmednagar",
    "regionname": "Pune",
    "circlename": "Maharashtra",
    "Taluk": "Shevgaon",
    "Districtname": "Ahmed Nagar",
    "statename": "MAHARASHTRA"
  },
  {
    "pincode": "414502",
    "officename": "Varur BK B.O",
    "officeType": "B.O",
    "Deliverystatus": "Delivery",
    "divisionname": "Ahmednagar",
    "regionname": "Pune",
    "circlename": "Maharashtra",
    "Taluk": "Shevgaon",
    "Districtname": "Ahmed Nagar",
    "statename": "MAHARASHTRA"
  }
]
