[
  {
    "pincode": "414604",
    "officename": "Dedgaon B.O",
    "officeType": "B.O",
    "Deliverystatus": "Delivery",
    "divisionname": "Shrirampur",
    "regionname": "Pune",
    "circlename": "Maharashtra",
    "Taluk": "Nevasa",
    "Districtname": "Ahmed Nagar",
    "statename": "MAHARASHTRA"
  },
  {
    "pincode": "414604",
    "officename": "Deogaon B.O",
    "officeType": "B.O",
    "Deliverystatus": "Delivery",
    "divisionname": "Shrirampur",
    "regionname": "Pune",
    "circlename": "Maharashtra",
    "Taluk": "Nevasa",
    "Districtname": "Ahmed Nagar",
    "statename": "MAHARASHTRA"
  },
  {
    "pincode": "414604",
    "officename": "Georai B.O",
    "officeType": "B.O",
    "Deliverystatus": "Delivery",
    "divisionname": "Shrirampur",
    "regionname": "Pune",
    "circlename": "Maharashtra",
    "Taluk": "Nevasa",
    "Districtname": "Ahmed Nagar",
    "statename": "MAHARASHTRA"
  },
  {
    "pincode": "414604",
    "officename": "Jeur B.O",
    "officeType": "B.O",
    "Deliverystatus": "Delivery",
    "divisionname": "Shrirampur",
    "regionname": "Pune",
    "circlename": "Maharashtra",
    "Taluk": "Nevasa",
    "Districtname": "Ahmed Nagar",
    "statename": "MAHARASHTRA"
  },
  {
    "pincode": "414604",
    "officename": "Kukana S.O",
    "officeType": "S.O",
    "Deliverystatus": "Delivery",
    "divisionname": "Shrirampur",
    "regionname": "Pune",
    "circlename": "Maharashtra",
    "Taluk": "Nevasa",
    "Districtname": "Ahmed Nagar",
    "statename": "MAHARASHTRA"
  },
  {
    "pincode": "414604",
    "officename": "Tarwadi B.O",
    "officeType": "B.O",
    "Deliverystatus": "Delivery",
    "divisionname": "Shrirampur",
    "regionname": "Pune",
    "circlename": "Maharashtra",
    "Taluk": "Nevasa",
    "Districtname": "Ahmed Nagar",
    "statename": "MAHARASHTRA"
  },
  {
    "pincode": "414604",
    "officename": "Telkudgaon B.O",
    "officeType": "B.O",
    "Deliverystatus": "Delivery",
    "divisionname": "Shrirampur",
    "regionname": "Pune",
    "circlename": "Maharashtra",
    "Taluk": "Nevasa",
    "Districtname": "Ahmed Nagar",
    "statename": "MAHARASHTRA"
  },
  {
    "pincode": "414604",
    "officename": "Wakadi B.O",
    "officeType": "B.O",
    "Deliverystatus": "Delivery",
    "divisionname": "Shrirampur",
    "regionname": "Pune",
    "circlename": "Maharashtra",
    "Taluk": "Nevasa",
    "Districtname": "Ahmed Nagar",
    "statename": "MAHARASHTRA"
  }
]
