[
  {
    "pincode": "415012",
    "officename": "Alewadi B.O",
    "officeType": "B.O",
    "Deliverystatus": "Delivery",
    "divisionname": "Satara",
    "regionname": "Pune",
    "circlename": "Maharashtra",
    "Taluk": "Jawali",
    "Districtname": "Satara",
    "statename": "MAHARASHTRA"
  },
  {
    "pincode": "415012",
    "officename": "Asani B.O",
    "officeType": "B.O",
    "Deliverystatus": "Delivery",
    "divisionname": "Satara",
    "regionname": "Pune",
    "circlename": "Maharashtra",
    "Taluk": "Jawali",
    "Districtname": "Satara",
    "statename": "MAHARASHTRA"
  },
  {
    "pincode": "415012",
    "officename": "Bibhavi B.O",
    "officeType": "B.O",
    "Deliverystatus": "Delivery",
    "divisionname": "Satara",
    "regionname": "Pune",
    "circlename": "Maharashtra",
    "Taluk": "Jawali",
    "Districtname": "Satara",
    "statename": "MAHARASHTRA"
  },
  {
    "pincode": "415012",
    "officename": "Dund B.O",
    "officeType": "B.O",
    "Deliverystatus": "Delivery",
    "divisionname": "Satara",
    "regionname": "Pune",
    "circlename": "Maharashtra",
    "Taluk": "Jawali",
    "Districtname": "Satara",
    "statename": "MAHARASHTRA"
  },
  {
    "pincode": "415012",
    "officename": "Ganje B.O",
    "officeType": "B.O",
    "Deliverystatus": "Delivery",
    "divisionname": "Satara",
    "regionname": "Pune",
    "circlename": "Maharashtra",
    "Taluk": "Jawali",
    "Districtname": "Satara",
    "statename": "MAHARASHTRA"
  },
  {
    "pincode": "415012",
    "officename": "Gavadi B.O",
    "officeType": "B.O",
    "Deliverystatus": "Delivery",
    "divisionname": "Satara",
    "regionname": "Pune",
    "circlename": "Maharashtra",
    "Taluk": "Jawali",
    "Districtname": "Satara",
    "statename": "MAHARASHTRA"
  },
  {
    "pincode": "415012",
    "officename": "Kedambe B.O",
    "officeType": "B.O",
    "Deliverystatus": "Delivery",
    "divisionname": "Satara",
    "regionname": "Pune",
    "circlename": "Maharashtra",
    "Taluk": "Jawali",
    "Districtname": "Satara",
    "statename": "MAHARASHTRA"
  },
  {
    "pincode": "415012",
    "officename": "Kelaghar B.O",
    "officeType": "B.O",
    "Deliverystatus": "Delivery",
    "divisionname": "Satara",
    "regionname": "Pune",
    "circlename": "Maharashtra",
    "Taluk": "Jawali",
    "Districtname": "Satara",
    "statename": "MAHARASHTRA"
  },
  {
    "pincode": "415012",
    "officename": "Kusumbi B.O",
    "officeType": "B.O",
    "Deliverystatus": "Delivery",
    "divisionname": "Satara",
    "regionname": "Pune",
    "circlename": "Maharashtra",
    "Taluk": "Jawali",
    "Districtname": "Satara",
    "statename": "MAHARASHTRA"
  },
  {
    "pincode": "415012",
    "officename": "Mahathe BK B.O",
    "officeType": "B.O",
    "Deliverystatus": "Delivery",
    "divisionname": "Satara",
    "regionname": "Pune",
    "circlename": "Maharashtra",
    "Taluk": "Jawali",
    "Districtname": "Satara",
    "statename": "MAHARASHTRA"
  },
  {
    "pincode": "415012",
    "officename": "Mamuradi B.O",
    "officeType": "B.O",
    "Deliverystatus": "Delivery",
    "divisionname": "Satara",
    "regionname": "Pune",
    "circlename": "Maharashtra",
    "Taluk": "Jawali",
    "Districtname": "Satara",
    "statename": "MAHARASHTRA"
  },
  {
    "pincode": "415012",
    "officename": "Medha S.O",
    "officeType": "S.O",
    "Deliverystatus": "Delivery",
    "divisionname": "Satara",
    "regionname": "Pune",
    "circlename": "Maharashtra",
    "Taluk": "Jawali",
    "Districtname": "Satara",
    "statename": "MAHARASHTRA"
  },
  {
    "pincode": "415012",
    "officename": "Mohat. B.O",
    "officeType": "B.O",
    "Deliverystatus": "Delivery",
    "divisionname": "Satara",
    "regionname": "Pune",
    "circlename": "Maharashtra",
    "Taluk": "Jawali",
    "Districtname": "Satara",
    "statename": "MAHARASHTRA"
  },
  {
    "pincode": "415012",
    "officename": "Varoshi B.O",
    "officeType": "B.O",
    "Deliverystatus": "Delivery",
    "divisionname": "Satara",
    "regionname": "Pune",
    "circlename": "Maharashtra",
    "Taluk": "Jawali",
    "Districtname": "Satara",
    "statename": "MAHARASHTRA"
  }
]
