[
  {
    "pincode": "415111",
    "officename": "Ghogaon B.O",
    "officeType": "B.O",
    "Deliverystatus": "Delivery",
    "divisionname": "Satara",
    "regionname": "Pune",
    "circlename": "Maharashtra",
    "Taluk": "Karad",
    "Districtname": "Satara",
    "statename": "MAHARASHTRA"
  },
  {
    "pincode": "415111",
    "officename": "Jinti (Ond) B.O",
    "officeType": "B.O",
    "Deliverystatus": "Delivery",
    "divisionname": "Satara",
    "regionname": "Pune",
    "circlename": "Maharashtra",
    "Taluk": "Karad",
    "Districtname": "Satara",
    "statename": "MAHARASHTRA"
  },
  {
    "pincode": "415111",
    "officename": "Mhasoli B.O",
    "officeType": "B.O",
    "Deliverystatus": "Delivery",
    "divisionname": "Satara",
    "regionname": "Pune",
    "circlename": "Maharashtra",
    "Taluk": "Karad",
    "Districtname": "Satara",
    "statename": "MAHARASHTRA"
  },
  {
    "pincode": "415111",
    "officename": "Nandgaon (Ond) B.O",
    "officeType": "B.O",
    "Deliverystatus": "Delivery",
    "divisionname": "Satara",
    "regionname": "Pune",
    "circlename": "Maharashtra",
    "Taluk": "Karad",
    "Districtname": "Satara",
    "statename": "MAHARASHTRA"
  },
  {
    "pincode": "415111",
    "officename": "Ond S.O",
    "officeType": "S.O",
    "Deliverystatus": "Delivery",
    "divisionname": "Satara",
    "regionname": "Pune",
    "circlename": "Maharashtra",
    "Taluk": "Karad",
    "Districtname": "Satara",
    "statename": "MAHARASHTRA"
  },
  {
    "pincode": "415111",
    "officename": "Salshirambe B.O",
    "officeType": "B.O",
    "Deliverystatus": "Delivery",
    "divisionname": "Satara",
    "regionname": "Pune",
    "circlename": "Maharashtra",
    "Taluk": "Karad",
    "Districtname": "Satara",
    "statename": "MAHARASHTRA"
  },
  {
    "pincode": "415111",
    "officename": "Savade B.O",
    "officeType": "B.O",
    "Deliverystatus": "Delivery",
    "divisionname": "Satara",
    "regionname": "Pune",
    "circlename": "Maharashtra",
    "Taluk": "Karad",
    "Districtname": "Satara",
    "statename": "MAHARASHTRA"
  },
  {
    "pincode": "415111",
    "officename": "Tulsan B.O",
    "officeType": "B.O",
    "Deliverystatus": "Delivery",
    "divisionname": "Satara",
    "regionname": "Pune",
    "circlename": "Maharashtra",
    "Taluk": "Karad",
    "Districtname": "Satara",
    "statename": "MAHARASHTRA"
  },
  {
    "pincode": "415111",
    "officename": "Undale B.O",
    "officeType": "B.O",
    "Deliverystatus": "Delivery",
    "divisionname": "Satara",
    "regionname": "Pune",
    "circlename": "Maharashtra",
    "Taluk": "Karad",
    "Districtname": "Satara",
    "statename": "MAHARASHTRA"
  },
  {
    "pincode": "415111",
    "officename": "Yelagaon B.O",
    "officeType": "B.O",
    "Deliverystatus": "Delivery",
    "divisionname": "Satara",
    "regionname": "Pune",
    "circlename": "Maharashtra",
    "Taluk": "Karad",
    "Districtname": "Satara",
    "statename": "MAHARASHTRA"
  },
  {
    "pincode": "415111",
    "officename": "Yenape B.O",
    "officeType": "B.O",
    "Deliverystatus": "Delivery",
    "divisionname": "Satara",
    "regionname": "Pune",
    "circlename": "Maharashtra",
    "Taluk": "Karad",
    "Districtname": "Satara",
    "statename": "MAHARASHTRA"
  },
  {
    "pincode": "415111",
    "officename": "Yeoti B.O",
    "officeType": "B.O",
    "Deliverystatus": "Delivery",
    "divisionname": "Satara",
    "regionname": "Pune",
    "circlename": "Maharashtra",
    "Taluk": "Karad",
    "Districtname": "Satara",
    "statename": "MAHARASHTRA"
  }
]
