[
  {
    "pincode": "415206",
    "officename": "Ambrag B.O",
    "officeType": "B.O",
    "Deliverystatus": "Delivery",
    "divisionname": "Satara",
    "regionname": "Pune",
    "circlename": "Maharashtra",
    "Taluk": "Karad",
    "Districtname": "Satara",
    "statename": "MAHARASHTRA"
  },
  {
    "pincode": "415206",
    "officename": "Bibi(Patan) B.O",
    "officeType": "B.O",
    "Deliverystatus": "Delivery",
    "divisionname": "Satara",
    "regionname": "Pune",
    "circlename": "Maharashtra",
    "Taluk": "Patan",
    "Districtname": "Satara",
    "statename": "MAHARASHTRA"
  },
  {
    "pincode": "415206",
    "officename": "Bondri B.O",
    "officeType": "B.O",
    "Deliverystatus": "Delivery",
    "divisionname": "Satara",
    "regionname": "Pune",
    "circlename": "Maharashtra",
    "Taluk": "Patan",
    "Districtname": "Satara",
    "statename": "MAHARASHTRA"
  },
  {
    "pincode": "415206",
    "officename": "Divashi Khrud B.O",
    "officeType": "B.O",
    "Deliverystatus": "Delivery",
    "divisionname": "Satara",
    "regionname": "Pune",
    "circlename": "Maharashtra",
    "Taluk": "Patan",
    "Districtname": "Satara",
    "statename": "MAHARASHTRA"
  },
  {
    "pincode": "415206",
    "officename": "Dixi B.O",
    "officeType": "B.O",
    "Deliverystatus": "Delivery",
    "divisionname": "Satara",
    "regionname": "Pune",
    "circlename": "Maharashtra",
    "Taluk": "Patan",
    "Districtname": "Satara",
    "statename": "MAHARASHTRA"
  },
  {
    "pincode": "415206",
    "officename": "Ghosatawadi B.O",
    "officeType": "B.O",
    "Deliverystatus": "Delivery",
    "divisionname": "Satara",
    "regionname": "Pune",
    "circlename": "Maharashtra",
    "Taluk": "Patan",
    "Districtname": "Satara",
    "statename": "MAHARASHTRA"
  },
  {
    "pincode": "415206",
    "officename": "Keral B.O",
    "officeType": "B.O",
    "Deliverystatus": "Delivery",
    "divisionname": "Satara",
    "regionname": "Pune",
    "circlename": "Maharashtra",
    "Taluk": "Patan",
    "Districtname": "Satara",
    "statename": "MAHARASHTRA"
  },
  {
    "pincode": "415206",
    "officename": "Kokisare B.O",
    "officeType": "B.O",
    "Deliverystatus": "Delivery",
    "divisionname": "Satara",
    "regionname": "Pune",
    "circlename": "Maharashtra",
    "Taluk": "Patan",
    "Districtname": "Satara",
    "statename": "MAHARASHTRA"
  },
  {
    "pincode": "415206",
    "officename": "Kusawade B.O",
    "officeType": "B.O",
    "Deliverystatus": "Delivery",
    "divisionname": "Satara",
    "regionname": "Pune",
    "circlename": "Maharashtra",
    "Taluk": "Patan",
    "Districtname": "Satara",
    "statename": "MAHARASHTRA"
  },
  {
    "pincode": "415206",
    "officename": "Kusurund B.O",
    "officeType": "B.O",
    "Deliverystatus": "Delivery",
    "divisionname": "Satara",
    "regionname": "Pune",
    "circlename": "Maharashtra",
    "Taluk": "Patan",
    "Districtname": "Satara",
    "statename": "MAHARASHTRA"
  },
  {
    "pincode": "415206",
    "officename": "Mahawashi B.O",
    "officeType": "B.O",
    "Deliverystatus": "Delivery",
    "divisionname": "Satara",
    "regionname": "Pune",
    "circlename": "Maharashtra",
    "Taluk": "Patan",
    "Districtname": "Satara",
    "statename": "MAHARASHTRA"
  },
  {
    "pincode": "415206",
    "officename": "Marul B.O",
    "officeType": "B.O",
    "Deliverystatus": "Delivery",
    "divisionname": "Satara",
    "regionname": "Pune",
    "circlename": "Maharashtra",
    "Taluk": "Patan",
    "Districtname": "Satara",
    "statename": "MAHARASHTRA"
  },
  {
    "pincode": "415206",
    "officename": "Mendhoshi B.O",
    "officeType": "B.O",
    "Deliverystatus": "Delivery",
    "divisionname": "Satara",
    "regionname": "Pune",
    "circlename": "Maharashtra",
    "Taluk": "Patan",
    "Districtname": "Satara",
    "statename": "MAHARASHTRA"
  },
  {
    "pincode": "415206",
    "officename": "Morgiri B.O",
    "officeType": "B.O",
    "Deliverystatus": "Delivery",
    "divisionname": "Satara",
    "regionname": "Pune",
    "circlename": "Maharashtra",
    "Taluk": "Patan",
    "Districtname": "Satara",
    "statename": "MAHARASHTRA"
  },
  {
    "pincode": "415206",
    "officename": "Natoshi B.O",
    "officeType": "B.O",
    "Deliverystatus": "Delivery",
    "divisionname": "Satara",
    "regionname": "Pune",
    "circlename": "Maharashtra",
    "Taluk": "Patan",
    "Districtname": "Satara",
    "statename": "MAHARASHTRA"
  },
  {
    "pincode": "415206",
    "officename": "Patan S.O (Satara)",
    "officeType": "S.O",
    "Deliverystatus": "Delivery",
    "divisionname": "Satara",
    "regionname": "Pune",
    "circlename": "Maharashtra",
    "Taluk": "Patan",
    "Districtname": "Satara",
    "statename": "MAHARASHTRA"
  },
  {
    "pincode": "415206",
    "officename": "Pimpaloshi B.O",
    "officeType": "B.O",
    "Deliverystatus": "Delivery",
    "divisionname": "Satara",
    "regionname": "Pune",
    "circlename": "Maharashtra",
    "Taluk": "Patan",
    "Districtname": "Satara",
    "statename": "MAHARASHTRA"
  },
  {
    "pincode": "415206",
    "officename": "Sadawaghapur B.O",
    "officeType": "B.O",
    "Deliverystatus": "Delivery",
    "divisionname": "Satara",
    "regionname": "Pune",
    "circlename": "Maharashtra",
    "Taluk": "Patan",
    "Districtname": "Satara",
    "statename": "MAHARASHTRA"
  },
  {
    "pincode": "415206",
    "officename": "Tamkane B.O",
    "officeType": "B.O",
    "Deliverystatus": "Delivery",
    "divisionname": "Satara",
    "regionname": "Pune",
    "circlename": "Maharashtra",
    "Taluk": "Patan",
    "Districtname": "Satara",
    "statename": "MAHARASHTRA"
  },
  {
    "pincode": "415206",
    "officename": "Yerad B.O",
    "officeType": "B.O",
    "Deliverystatus": "Delivery",
    "divisionname": "Satara",
    "regionname": "Pune",
    "circlename": "Maharashtra",
    "Taluk": "Patan",
    "Districtname": "Satara",
    "statename": "MAHARASHTRA"
  }
]
