[
  {
    "pincode": "415311",
    "officename": "Ainwadi B.O",
    "officeType": "B.O",
    "Deliverystatus": "Delivery",
    "divisionname": "Sangli",
    "regionname": "Goa-Panaji",
    "circlename": "Maharashtra",
    "Taluk": "Khanapur",
    "Districtname": "Sangli",
    "statename": "MAHARASHTRA"
  },
  {
    "pincode": "415311",
    "officename": "Alsund B.O",
    "officeType": "B.O",
    "Deliverystatus": "Delivery",
    "divisionname": "Sangli",
    "regionname": "Goa-Panaji",
    "circlename": "Maharashtra",
    "Taluk": "Khanapur",
    "Districtname": "Sangli",
    "statename": "MAHARASHTRA"
  },
  {
    "pincode": "415311",
    "officename": "Bamani B.O",
    "officeType": "B.O",
    "Deliverystatus": "Delivery",
    "divisionname": "Sangli",
    "regionname": "Goa-Panaji",
    "circlename": "Maharashtra",
    "Taluk": "Khanapur",
    "Districtname": "Sangli",
    "statename": "MAHARASHTRA"
  },
  {
    "pincode": "415311",
    "officename": "Bhalavani B.O",
    "officeType": "B.O",
    "Deliverystatus": "Delivery",
    "divisionname": "Sangli",
    "regionname": "Goa-Panaji",
    "circlename": "Maharashtra",
    "Taluk": "Khanapur",
    "Districtname": "Sangli",
    "statename": "MAHARASHTRA"
  },
  {
    "pincode": "415311",
    "officename": "Bhikawadi Kurd B.O",
    "officeType": "B.O",
    "Deliverystatus": "Delivery",
    "divisionname": "Sangli",
    "regionname": "Goa-Panaji",
    "circlename": "Maharashtra",
    "Taluk": "Khanapur",
    "Districtname": "Sangli",
    "statename": "MAHARASHTRA"
  },
  {
    "pincode": "415311",
    "officename": "Chinchani Mangrul B.O",
    "officeType": "B.O",
    "Deliverystatus": "Delivery",
    "divisionname": "Sangli",
    "regionname": "Goa-Panaji",
    "circlename": "Maharashtra",
    "Taluk": "Khanapur",
    "Districtname": "Sangli",
    "statename": "MAHARASHTRA"
  },
  {
    "pincode": "415311",
    "officename": "Dhavaleshwar B.O",
    "officeType": "B.O",
    "Deliverystatus": "Delivery",
    "divisionname": "Sangli",
    "regionname": "Goa-Panaji",
    "circlename": "Maharashtra",
    "Taluk": "Khanapur",
    "Districtname": "Sangli",
    "statename": "MAHARASHTRA"
  },
  {
    "pincode": "415311",
    "officename": "Gardi B.O",
    "officeType": "B.O",
    "Deliverystatus": "Delivery",
    "divisionname": "Sangli",
    "regionname": "Goa-Panaji",
    "circlename": "Maharashtra",
    "Taluk": "Khanapur",
    "Districtname": "Sangli",
    "statename": "MAHARASHTRA"
  },
  {
    "pincode": "415311",
    "officename": "Ghoti Khurd B.O",
    "officeType": "B.O",
    "Deliverystatus": "Delivery",
    "divisionname": "Sangli",
    "regionname": "Goa-Panaji",
    "circlename": "Maharashtra",
    "Taluk": "Khanapur",
    "Districtname": "Sangli",
    "statename": "MAHARASHTRA"
  },
  {
    "pincode": "415311",
    "officename": "Hingangade B.O",
    "officeType": "B.O",
    "Deliverystatus": "Delivery",
    "divisionname": "Sangli",
    "regionname": "Goa-Panaji",
    "circlename": "Maharashtra",
    "Taluk": "Kahanapur",
    "Districtname": "Sangli",
    "statename": "MAHARASHTRA"
  },
  {
    "pincode": "415311",
    "officename": "Jadhavwadi B.O",
    "officeType": "B.O",
    "Deliverystatus": "Delivery",
    "divisionname": "Sangli",
    "regionname": "Goa-Panaji",
    "circlename": "Maharashtra",
    "Taluk": "Khanapur",
    "Districtname": "Sangli",
    "statename": "MAHARASHTRA"
  },
  {
    "pincode": "415311",
    "officename": "Karve B.O",
    "officeType": "B.O",
    "Deliverystatus": "Delivery",
    "divisionname": "Sangli",
    "regionname": "Goa-Panaji",
    "circlename": "Maharashtra",
    "Taluk": "Kahanpur",
    "Districtname": "Sangli",
    "statename": "MAHARASHTRA"
  },
  {
    "pincode": "415311",
    "officename": "Khambale B.O",
    "officeType": "B.O",
    "Deliverystatus": "Delivery",
    "divisionname": "Sangli",
    "regionname": "Goa-Panaji",
    "circlename": "Maharashtra",
    "Taluk": "Kadegaon",
    "Districtname": "Sangli",
    "statename": "MAHARASHTRA"
  },
  {
    "pincode": "415311",
    "officename": "Kherade B.O",
    "officeType": "B.O",
    "Deliverystatus": "Delivery",
    "divisionname": "Sangli",
    "regionname": "Goa-Panaji",
    "circlename": "Maharashtra",
    "Taluk": "Kadegaon",
    "Districtname": "Sangli",
    "statename": "MAHARASHTRA"
  },
  {
    "pincode": "415311",
    "officename": "Nagewadi B.O",
    "officeType": "B.O",
    "Deliverystatus": "Delivery",
    "divisionname": "Sangli",
    "regionname": "Goa-Panaji",
    "circlename": "Maharashtra",
    "Taluk": "Kadegaon",
    "Districtname": "Sangli",
    "statename": "MAHARASHTRA"
  },
  {
    "pincode": "415311",
    "officename": "Nevari B.O",
    "officeType": "B.O",
    "Deliverystatus": "Delivery",
    "divisionname": "Sangli",
    "regionname": "Goa-Panaji",
    "circlename": "Maharashtra",
    "Taluk": "Kadegaon",
    "Districtname": "Sangli",
    "statename": "MAHARASHTRA"
  },
  {
    "pincode": "415311",
    "officename": "Pare B.O",
    "officeType": "B.O",
    "Deliverystatus": "Delivery",
    "divisionname": "Sangli",
    "regionname": "Goa-Panaji",
    "circlename": "Maharashtra",
    "Taluk": "Khanapur",
    "Districtname": "Sangli",
    "statename": "MAHARASHTRA"
  },
  {
    "pincode": "415311",
    "officename": "Renavi B.O",
    "officeType": "B.O",
    "Deliverystatus": "Delivery",
    "divisionname": "Sangli",
    "regionname": "Goa-Panaji",
    "circlename": "Maharashtra",
    "Taluk": "Khanapur",
    "Districtname": "Sangli",
    "statename": "MAHARASHTRA"
  },
  {
    "pincode": "415311",
    "officename": "Revangaon B.O",
    "officeType": "B.O",
    "Deliverystatus": "Delivery",
    "divisionname": "Sangli",
    "regionname": "Goa-Panaji",
    "circlename": "Maharashtra",
    "Taluk": "Khanapur",
    "Districtname": "Sangli",
    "statename": "MAHARASHTRA"
  },
  {
    "pincode": "415311",
    "officename": "Salshinge B.O",
    "officeType": "B.O",
    "Deliverystatus": "Delivery",
    "divisionname": "Sangli",
    "regionname": "Goa-Panaji",
    "circlename": "Maharashtra",
    "Taluk": "Khanapur",
    "Districtname": "Sangli",
    "statename": "MAHARASHTRA"
  },
  {
    "pincode": "415311",
    "officename": "Vite City S.O",
    "officeType": "S.O",
    "Deliverystatus": "Non-Delivery",
    "divisionname": "Sangli",
    "regionname": "Goa-Panaji",
    "circlename": "Maharashtra",
    "Taluk": "Khanapur",
    "Districtname": "Sangli",
    "statename": "MAHARASHTRA"
  },
  {
    "pincode": "415311",
    "officename": "Vite S.O",
    "officeType": "S.O",
    "Deliverystatus": "Delivery",
    "divisionname": "Sangli",
    "regionname": "Goa-Panaji",
    "circlename": "Maharashtra",
    "Taluk": "Khanapur",
    "Districtname": "Sangli",
    "statename": "MAHARASHTRA"
  },
  {
    "pincode": "415311",
    "officename": "Yetgaon B.O",
    "officeType": "B.O",
    "Deliverystatus": "Delivery",
    "divisionname": "Sangli",
    "regionname": "Goa-Panaji",
    "circlename": "Maharashtra",
    "Taluk": "Kadegaon",
    "Districtname": "Sangli",
    "statename": "MAHARASHTRA"
  }
]
