[
  {
    "pincode": "415503",
    "officename": "Budh S.O",
    "officeType": "S.O",
    "Deliverystatus": "Delivery",
    "divisionname": "Satara",
    "regionname": "Pune",
    "circlename": "Maharashtra",
    "Taluk": "Khatav",
    "Districtname": "Satara",
    "statename": "MAHARASHTRA"
  },
  {
    "pincode": "415503",
    "officename": "Kulakjai B.O",
    "officeType": "B.O",
    "Deliverystatus": "Delivery",
    "divisionname": "Satara",
    "regionname": "Pune",
    "circlename": "Maharashtra",
    "Taluk": "Khatav",
    "Districtname": "Satara",
    "statename": "MAHARASHTRA"
  },
  {
    "pincode": "415503",
    "officename": "Lalgun B.O",
    "officeType": "B.O",
    "Deliverystatus": "Delivery",
    "divisionname": "Satara",
    "regionname": "Pune",
    "circlename": "Maharashtra",
    "Taluk": "Khatav",
    "Districtname": "Satara",
    "statename": "MAHARASHTRA"
  },
  {
    "pincode": "415503",
    "officename": "Rajapuri(Budh) B.O",
    "officeType": "B.O",
    "Deliverystatus": "Delivery",
    "divisionname": "Satara",
    "regionname": "Pune",
    "circlename": "Maharashtra",
    "Taluk": "Khatav",
    "Districtname": "Satara",
    "statename": "MAHARASHTRA"
  },
  {
    "pincode": "415503",
    "officename": "Ranashingwadi B.O",
    "officeType": "B.O",
    "Deliverystatus": "Delivery",
    "divisionname": "Satara",
    "regionname": "Pune",
    "circlename": "Maharashtra",
    "Taluk": "Khatav",
    "Districtname": "Satara",
    "statename": "MAHARASHTRA"
  },
  {
    "pincode": "415503",
    "officename": "Shinde Khurd B.O",
    "officeType": "B.O",
    "Deliverystatus": "Delivery",
    "divisionname": "Satara",
    "regionname": "Pune",
    "circlename": "Maharashtra",
    "Taluk": "Khatav",
    "Districtname": "Satara",
    "statename": "MAHARASHTRA"
  },
  {
    "pincode": "415503",
    "officename": "Shri Plavan B.O",
    "officeType": "B.O",
    "Deliverystatus": "Delivery",
    "divisionname": "Satara",
    "regionname": "Pune",
    "circlename": "Maharashtra",
    "Taluk": "Satara",
    "Districtname": "Satara",
    "statename": "MAHARASHTRA"
  },
  {
    "pincode": "415503",
    "officename": "Vetane B.O",
    "officeType": "B.O",
    "Deliverystatus": "Delivery",
    "divisionname": "Satara",
    "regionname": "Pune",
    "circlename": "Maharashtra",
    "Taluk": "Khatav",
    "Districtname": "Satara",
    "statename": "MAHARASHTRA"
  }
]
