[
  {
    "pincode": "415612",
    "officename": "Bhatye B.O",
    "officeType": "B.O",
    "Deliverystatus": "Delivery",
    "divisionname": "Ratnagiri",
    "regionname": "Goa-Panaji",
    "circlename": "Maharashtra",
    "Taluk": "Ratnagiri",
    "Districtname": "Ratnagiri",
    "statename": "MAHARASHTRA"
  },
  {
    "pincode": "415612",
    "officename": "Chinchkhari B.O",
    "officeType": "B.O",
    "Deliverystatus": "Delivery",
    "divisionname": "Ratnagiri",
    "regionname": "Goa-Panaji",
    "circlename": "Maharashtra",
    "Taluk": "Ratnagiri",
    "Districtname": "Ratnagiri",
    "statename": "MAHARASHTRA"
  },
  {
    "pincode": "415612",
    "officename": "Dande Adom B.O",
    "officeType": "B.O",
    "Deliverystatus": "Delivery",
    "divisionname": "Ratnagiri",
    "regionname": "Goa-Panaji",
    "circlename": "Maharashtra",
    "Taluk": "Ratnagiri",
    "Districtname": "Ratnagiri",
    "statename": "MAHARASHTRA"
  },
  {
    "pincode": "415612",
    "officename": "Karla B.O",
    "officeType": "B.O",
    "Deliverystatus": "Delivery",
    "divisionname": "Ratnagiri",
    "regionname": "Goa-Panaji",
    "circlename": "Maharashtra",
    "Taluk": "Ratnagiri",
    "Districtname": "Ratnagiri",
    "statename": "MAHARASHTRA"
  },
  {
    "pincode": "415612",
    "officename": "Kelye B.O",
    "officeType": "B.O",
    "Deliverystatus": "Delivery",
    "divisionname": "Ratnagiri",
    "regionname": "Goa-Panaji",
    "circlename": "Maharashtra",
    "Taluk": "Ratnagiri",
    "Districtname": "Ratnagiri",
    "statename": "MAHARASHTRA"
  },
  {
    "pincode": "415612",
    "officename": "Kolambe B.O",
    "officeType": "B.O",
    "Deliverystatus": "Delivery",
    "divisionname": "Ratnagiri",
    "regionname": "Goa-Panaji",
    "circlename": "Maharashtra",
    "Taluk": "Ratnagiri",
    "Districtname": "Ratnagiri",
    "statename": "MAHARASHTRA"
  },
  {
    "pincode": "415612",
    "officename": "Majgaon B.O",
    "officeType": "B.O",
    "Deliverystatus": "Delivery",
    "divisionname": "Ratnagiri",
    "regionname": "Goa-Panaji",
    "circlename": "Maharashtra",
    "Taluk": "Ratnagiri",
    "Districtname": "Ratnagiri",
    "statename": "MAHARASHTRA"
  },
  {
    "pincode": "415612",
    "officename": "Mirya B.O",
    "officeType": "B.O",
    "Deliverystatus": "Non-Delivery",
    "divisionname": "Ratnagiri",
    "regionname": "Goa-Panaji",
    "circlename": "Maharashtra",
    "Taluk": "Ratnagiri",
    "Districtname": "Ratnagiri",
    "statename": "MAHARASHTRA"
  },
  {
    "pincode": "415612",
    "officename": "Phansavale B.O",
    "officeType": "B.O",
    "Deliverystatus": "Delivery",
    "divisionname": "Ratnagiri",
    "regionname": "Goa-Panaji",
    "circlename": "Maharashtra",
    "Taluk": "Ratnagiri",
    "Districtname": "Ratnagiri",
    "statename": "MAHARASHTRA"
  },
  {
    "pincode": "415612",
    "officename": "Phansop B.O",
    "officeType": "B.O",
    "Deliverystatus": "Delivery",
    "divisionname": "Ratnagiri",
    "regionname": "Goa-Panaji",
    "circlename": "Maharashtra",
    "Taluk": "Ratnagiri",
    "Districtname": "Ratnagiri",
    "statename": "MAHARASHTRA"
  },
  {
    "pincode": "415612",
    "officename": "Pomendi Budruk B.O",
    "officeType": "B.O",
    "Deliverystatus": "Delivery",
    "divisionname": "Ratnagiri",
    "regionname": "Goa-Panaji",
    "circlename": "Maharashtra",
    "Taluk": "Ratnagiri",
    "Districtname": "Ratnagiri",
    "statename": "MAHARASHTRA"
  },
  {
    "pincode": "415612",
    "officename": "Pomendi Khurd B.O",
    "officeType": "B.O",
    "Deliverystatus": "Delivery",
    "divisionname": "Ratnagiri",
    "regionname": "Goa-Panaji",
    "circlename": "Maharashtra",
    "Taluk": "Ratnagiri",
    "Districtname": "Ratnagiri",
    "statename": "MAHARASHTRA"
  },
  {
    "pincode": "415612",
    "officename": "Ratnagiri Collectorate S.O",
    "officeType": "S.O",
    "Deliverystatus": "Non-Delivery",
    "divisionname": "Ratnagiri",
    "regionname": "Goa-Panaji",
    "circlename": "Maharashtra",
    "Taluk": "Chiplun",
    "Districtname": "Ratnagiri",
    "statename": "MAHARASHTRA"
  },
  {
    "pincode": "415612",
    "officename": "Ratnagiri H.O",
    "officeType": "H.O",
    "Deliverystatus": "Delivery",
    "divisionname": "Ratnagiri",
    "regionname": "Goa-Panaji",
    "circlename": "Maharashtra",
    "Taluk": "Ratnagiri",
    "Districtname": "Ratnagiri",
    "statename": "MAHARASHTRA"
  },
  {
    "pincode": "415612",
    "officename": "Shivaji Nagar (RTG) S.O",
    "officeType": "S.O",
    "Deliverystatus": "Non-Delivery",
    "divisionname": "Ratnagiri",
    "regionname": "Goa-Panaji",
    "circlename": "Maharashtra",
    "Taluk": "Chiplun",
    "Districtname": "Ratnagiri",
    "statename": "MAHARASHTRA"
  },
  {
    "pincode": "415612",
    "officename": "Someshwar B.O",
    "officeType": "B.O",
    "Deliverystatus": "Delivery",
    "divisionname": "Ratnagiri",
    "regionname": "Goa-Panaji",
    "circlename": "Maharashtra",
    "Taluk": "Ratnagiri",
    "Districtname": "Ratnagiri",
    "statename": "MAHARASHTRA"
  },
  {
    "pincode": "415612",
    "officename": "Tembye B.O",
    "officeType": "B.O",
    "Deliverystatus": "Delivery",
    "divisionname": "Ratnagiri",
    "regionname": "Goa-Panaji",
    "circlename": "Maharashtra",
    "Taluk": "Ratnagiri",
    "Districtname": "Ratnagiri",
    "statename": "MAHARASHTRA"
  },
  {
    "pincode": "415612",
    "officename": "Tilak Memorial (RTG) S.O",
    "officeType": "S.O",
    "Deliverystatus": "Non-Delivery",
    "divisionname": "Ratnagiri",
    "regionname": "Goa-Panaji",
    "circlename": "Maharashtra",
    "Taluk": "Chiplun",
    "Districtname": "Ratnagiri",
    "statename": "MAHARASHTRA"
  },
  {
    "pincode": "415612",
    "officename": "Tonade B.O",
    "officeType": "B.O",
    "Deliverystatus": "Delivery",
    "divisionname": "Ratnagiri",
    "regionname": "Goa-Panaji",
    "circlename": "Maharashtra",
    "Taluk": "Ratnagiri",
    "Districtname": "Ratnagiri",
    "statename": "MAHARASHTRA"
  }
]
