[
  {
    "pincode": "415628",
    "officename": "Bhom B.O",
    "officeType": "B.O",
    "Deliverystatus": "Delivery",
    "divisionname": "Ratnagiri",
    "regionname": "Goa-Panaji",
    "circlename": "Maharashtra",
    "Taluk": "Chiplun",
    "Districtname": "Ratnagiri",
    "statename": "MAHARASHTRA"
  },
  {
    "pincode": "415628",
    "officename": "Biwali B.O",
    "officeType": "B.O",
    "Deliverystatus": "Delivery",
    "divisionname": "Ratnagiri",
    "regionname": "Goa-Panaji",
    "circlename": "Maharashtra",
    "Taluk": "Chiplun",
    "Districtname": "Ratnagiri",
    "statename": "MAHARASHTRA"
  },
  {
    "pincode": "415628",
    "officename": "Donavali B.O",
    "officeType": "B.O",
    "Deliverystatus": "Delivery",
    "divisionname": "Ratnagiri",
    "regionname": "Goa-Panaji",
    "circlename": "Maharashtra",
    "Taluk": "Chiplun",
    "Districtname": "Ratnagiri",
    "statename": "MAHARASHTRA"
  },
  {
    "pincode": "415628",
    "officename": "Gondhale B.O",
    "officeType": "B.O",
    "Deliverystatus": "Delivery",
    "divisionname": "Ratnagiri",
    "regionname": "Goa-Panaji",
    "circlename": "Maharashtra",
    "Taluk": "Chiplun",
    "Districtname": "Ratnagiri",
    "statename": "MAHARASHTRA"
  },
  {
    "pincode": "415628",
    "officename": "Kajarikar Mohalla B.O",
    "officeType": "B.O",
    "Deliverystatus": "Delivery",
    "divisionname": "Ratnagiri",
    "regionname": "Goa-Panaji",
    "circlename": "Maharashtra",
    "Taluk": "Chiplun",
    "Districtname": "Ratnagiri",
    "statename": "MAHARASHTRA"
  },
  {
    "pincode": "415628",
    "officename": "Kapre B.O",
    "officeType": "B.O",
    "Deliverystatus": "Delivery",
    "divisionname": "Ratnagiri",
    "regionname": "Goa-Panaji",
    "circlename": "Maharashtra",
    "Taluk": "Chiplun",
    "Districtname": "Ratnagiri",
    "statename": "MAHARASHTRA"
  },
  {
    "pincode": "415628",
    "officename": "Karambavane B.O",
    "officeType": "B.O",
    "Deliverystatus": "Delivery",
    "divisionname": "Ratnagiri",
    "regionname": "Goa-Panaji",
    "circlename": "Maharashtra",
    "Taluk": "Chiplun",
    "Districtname": "Ratnagiri",
    "statename": "MAHARASHTRA"
  },
  {
    "pincode": "415628",
    "officename": "Kharvate B.O",
    "officeType": "B.O",
    "Deliverystatus": "Delivery",
    "divisionname": "Ratnagiri",
    "regionname": "Goa-Panaji",
    "circlename": "Maharashtra",
    "Taluk": "Chiplun",
    "Districtname": "Ratnagiri",
    "statename": "MAHARASHTRA"
  },
  {
    "pincode": "415628",
    "officename": "Khopad B.O",
    "officeType": "B.O",
    "Deliverystatus": "Delivery",
    "divisionname": "Ratnagiri",
    "regionname": "Goa-Panaji",
    "circlename": "Maharashtra",
    "Taluk": "Chiplun",
    "Districtname": "Ratnagiri",
    "statename": "MAHARASHTRA"
  },
  {
    "pincode": "415628",
    "officename": "Maldoli B.O",
    "officeType": "B.O",
    "Deliverystatus": "Delivery",
    "divisionname": "Ratnagiri",
    "regionname": "Goa-Panaji",
    "circlename": "Maharashtra",
    "Taluk": "Chiplun",
    "Districtname": "Ratnagiri",
    "statename": "MAHARASHTRA"
  },
  {
    "pincode": "415628",
    "officename": "Omali B.O",
    "officeType": "B.O",
    "Deliverystatus": "Delivery",
    "divisionname": "Ratnagiri",
    "regionname": "Goa-Panaji",
    "circlename": "Maharashtra",
    "Taluk": "Chiplun",
    "Districtname": "Ratnagiri",
    "statename": "MAHARASHTRA"
  },
  {
    "pincode": "415628",
    "officename": "Posare B.O",
    "officeType": "B.O",
    "Deliverystatus": "Delivery",
    "divisionname": "Ratnagiri",
    "regionname": "Goa-Panaji",
    "circlename": "Maharashtra",
    "Taluk": "Chiplun",
    "Districtname": "Ratnagiri",
    "statename": "MAHARASHTRA"
  },
  {
    "pincode": "415628",
    "officename": "Shiral S.O",
    "officeType": "S.O",
    "Deliverystatus": "Delivery",
    "divisionname": "Ratnagiri",
    "regionname": "Goa-Panaji",
    "circlename": "Maharashtra",
    "Taluk": "Chiplun",
    "Districtname": "Ratnagiri",
    "statename": "MAHARASHTRA"
  },
  {
    "pincode": "415628",
    "officename": "Tamhanmala B.O",
    "officeType": "B.O",
    "Deliverystatus": "Delivery",
    "divisionname": "Ratnagiri",
    "regionname": "Goa-Panaji",
    "circlename": "Maharashtra",
    "Taluk": "Chiplun",
    "Districtname": "Ratnagiri",
    "statename": "MAHARASHTRA"
  }
]
