[
  {
    "pincode": "415712",
    "officename": "Agarwaingani B.O",
    "officeType": "B.O",
    "Deliverystatus": "Delivery",
    "divisionname": "Ratnagiri",
    "regionname": "Goa-Panaji",
    "circlename": "Maharashtra",
    "Taluk": "Dapoli",
    "Districtname": "Ratnagiri",
    "statename": "MAHARASHTRA"
  },
  {
    "pincode": "415712",
    "officename": "Chickalgaon B.O",
    "officeType": "B.O",
    "Deliverystatus": "Delivery",
    "divisionname": "Ratnagiri",
    "regionname": "Goa-Panaji",
    "circlename": "Maharashtra",
    "Taluk": "Dapoli",
    "Districtname": "Ratnagiri",
    "statename": "MAHARASHTRA"
  },
  {
    "pincode": "415712",
    "officename": "Dapoli S.O",
    "officeType": "S.O",
    "Deliverystatus": "Delivery",
    "divisionname": "Ratnagiri",
    "regionname": "Goa-Panaji",
    "circlename": "Maharashtra",
    "Taluk": "Dapoli",
    "Districtname": "Ratnagiri",
    "statename": "MAHARASHTRA"
  },
  {
    "pincode": "415712",
    "officename": "Dehen B.O",
    "officeType": "B.O",
    "Deliverystatus": "Delivery",
    "divisionname": "Ratnagiri",
    "regionname": "Goa-Panaji",
    "circlename": "Maharashtra",
    "Taluk": "Dapoli",
    "Districtname": "Ratnagiri",
    "statename": "MAHARASHTRA"
  },
  {
    "pincode": "415712",
    "officename": "Jalgaon B.O",
    "officeType": "B.O",
    "Deliverystatus": "Non-Delivery",
    "divisionname": "Ratnagiri",
    "regionname": "Goa-Panaji",
    "circlename": "Maharashtra",
    "Taluk": "Chiplun",
    "Districtname": "Ratnagiri",
    "statename": "MAHARASHTRA"
  },
  {
    "pincode": "415712",
    "officename": "Kadivali B.O",
    "officeType": "B.O",
    "Deliverystatus": "Delivery",
    "divisionname": "Ratnagiri",
    "regionname": "Goa-Panaji",
    "circlename": "Maharashtra",
    "Taluk": "Dapoli",
    "Districtname": "Ratnagiri",
    "statename": "MAHARASHTRA"
  },
  {
    "pincode": "415712",
    "officename": "Kalambat B.O",
    "officeType": "B.O",
    "Deliverystatus": "Delivery",
    "divisionname": "Ratnagiri",
    "regionname": "Goa-Panaji",
    "circlename": "Maharashtra",
    "Taluk": "Dapoli",
    "Districtname": "Ratnagiri",
    "statename": "MAHARASHTRA"
  },
  {
    "pincode": "415712",
    "officename": "Kangwai B.O",
    "officeType": "B.O",
    "Deliverystatus": "Delivery",
    "divisionname": "Ratnagiri",
    "regionname": "Goa-Panaji",
    "circlename": "Maharashtra",
    "Taluk": "Dapoli",
    "Districtname": "Ratnagiri",
    "statename": "MAHARASHTRA"
  },
  {
    "pincode": "415712",
    "officename": "Karanjani B.O",
    "officeType": "B.O",
    "Deliverystatus": "Delivery",
    "divisionname": "Ratnagiri",
    "regionname": "Goa-Panaji",
    "circlename": "Maharashtra",
    "Taluk": "Dapoli",
    "Districtname": "Ratnagiri",
    "statename": "MAHARASHTRA"
  },
  {
    "pincode": "415712",
    "officename": "Kherdi B.O",
    "officeType": "B.O",
    "Deliverystatus": "Delivery",
    "divisionname": "Ratnagiri",
    "regionname": "Goa-Panaji",
    "circlename": "Maharashtra",
    "Taluk": "Dapoli",
    "Districtname": "Ratnagiri",
    "statename": "MAHARASHTRA"
  },
  {
    "pincode": "415712",
    "officename": "Kolthare B.O",
    "officeType": "B.O",
    "Deliverystatus": "Delivery",
    "divisionname": "Ratnagiri",
    "regionname": "Goa-Panaji",
    "circlename": "Maharashtra",
    "Taluk": "Dapoli",
    "Districtname": "Ratnagiri",
    "statename": "MAHARASHTRA"
  },
  {
    "pincode": "415712",
    "officename": "Kudavale B.O",
    "officeType": "B.O",
    "Deliverystatus": "Delivery",
    "divisionname": "Ratnagiri",
    "regionname": "Goa-Panaji",
    "circlename": "Maharashtra",
    "Taluk": "Dapoli",
    "Districtname": "Ratnagiri",
    "statename": "MAHARASHTRA"
  },
  {
    "pincode": "415712",
    "officename": "Ladghar B.O",
    "officeType": "B.O",
    "Deliverystatus": "Delivery",
    "divisionname": "Ratnagiri",
    "regionname": "Goa-Panaji",
    "circlename": "Maharashtra",
    "Taluk": "Dapoli",
    "Districtname": "Ratnagiri",
    "statename": "MAHARASHTRA"
  },
  {
    "pincode": "415712",
    "officename": "Matwan B.O",
    "officeType": "B.O",
    "Deliverystatus": "Delivery",
    "divisionname": "Ratnagiri",
    "regionname": "Goa-Panaji",
    "circlename": "Maharashtra",
    "Taluk": "Dapoli",
    "Districtname": "Ratnagiri",
    "statename": "MAHARASHTRA"
  },
  {
    "pincode": "415712",
    "officename": "Nante B.O",
    "officeType": "B.O",
    "Deliverystatus": "Delivery",
    "divisionname": "Ratnagiri",
    "regionname": "Goa-Panaji",
    "circlename": "Maharashtra",
    "Taluk": "Dapoli",
    "Districtname": "Ratnagiri",
    "statename": "MAHARASHTRA"
  },
  {
    "pincode": "415712",
    "officename": "Pachavali B.O",
    "officeType": "B.O",
    "Deliverystatus": "Delivery",
    "divisionname": "Ratnagiri",
    "regionname": "Goa-Panaji",
    "circlename": "Maharashtra",
    "Taluk": "Dapoli",
    "Districtname": "Ratnagiri",
    "statename": "MAHARASHTRA"
  },
  {
    "pincode": "415712",
    "officename": "Palavani B.O",
    "officeType": "B.O",
    "Deliverystatus": "Delivery",
    "divisionname": "Ratnagiri",
    "regionname": "Goa-Panaji",
    "circlename": "Maharashtra",
    "Taluk": "Dapoli",
    "Districtname": "Ratnagiri",
    "statename": "MAHARASHTRA"
  },
  {
    "pincode": "415712",
    "officename": "Panchnadi B.O",
    "officeType": "B.O",
    "Deliverystatus": "Delivery",
    "divisionname": "Ratnagiri",
    "regionname": "Goa-Panaji",
    "circlename": "Maharashtra",
    "Taluk": "Dapoli",
    "Districtname": "Ratnagiri",
    "statename": "MAHARASHTRA"
  },
  {
    "pincode": "415712",
    "officename": "Pisai B.O",
    "officeType": "B.O",
    "Deliverystatus": "Delivery",
    "divisionname": "Ratnagiri",
    "regionname": "Goa-Panaji",
    "circlename": "Maharashtra",
    "Taluk": "Dapoli",
    "Districtname": "Ratnagiri",
    "statename": "MAHARASHTRA"
  },
  {
    "pincode": "415712",
    "officename": "Sakhloli B.O",
    "officeType": "B.O",
    "Deliverystatus": "Delivery",
    "divisionname": "Ratnagiri",
    "regionname": "Goa-Panaji",
    "circlename": "Maharashtra",
    "Taluk": "Dapoli",
    "Districtname": "Ratnagiri",
    "statename": "MAHARASHTRA"
  },
  {
    "pincode": "415712",
    "officename": "Sarang B.O",
    "officeType": "B.O",
    "Deliverystatus": "Delivery",
    "divisionname": "Ratnagiri",
    "regionname": "Goa-Panaji",
    "circlename": "Maharashtra",
    "Taluk": "Dapoli",
    "Districtname": "Ratnagiri",
    "statename": "MAHARASHTRA"
  },
  {
    "pincode": "415712",
    "officename": "Shirsoli B.O",
    "officeType": "B.O",
    "Deliverystatus": "Delivery",
    "divisionname": "Ratnagiri",
    "regionname": "Goa-Panaji",
    "circlename": "Maharashtra",
    "Taluk": "Dapoli",
    "Districtname": "Ratnagiri",
    "statename": "MAHARASHTRA"
  },
  {
    "pincode": "415712",
    "officename": "Tadil B.O",
    "officeType": "B.O",
    "Deliverystatus": "Delivery",
    "divisionname": "Ratnagiri",
    "regionname": "Goa-Panaji",
    "circlename": "Maharashtra",
    "Taluk": "Dapoli",
    "Districtname": "Ratnagiri",
    "statename": "MAHARASHTRA"
  },
  {
    "pincode": "415712",
    "officename": "Talsure B.O",
    "officeType": "B.O",
    "Deliverystatus": "Delivery",
    "divisionname": "Ratnagiri",
    "regionname": "Goa-Panaji",
    "circlename": "Maharashtra",
    "Taluk": "Dapoli",
    "Districtname": "Ratnagiri",
    "statename": "MAHARASHTRA"
  },
  {
    "pincode": "415712",
    "officename": "Tangar B.O",
    "officeType": "B.O",
    "Deliverystatus": "Delivery",
    "divisionname": "Ratnagiri",
    "regionname": "Goa-Panaji",
    "circlename": "Maharashtra",
    "Taluk": "Dapoli",
    "Districtname": "Ratnagiri",
    "statename": "MAHARASHTRA"
  },
  {
    "pincode": "415712",
    "officename": "Umbarle B.O",
    "officeType": "B.O",
    "Deliverystatus": "Delivery",
    "divisionname": "Ratnagiri",
    "regionname": "Goa-Panaji",
    "circlename": "Maharashtra",
    "Taluk": "Dapoli",
    "Districtname": "Ratnagiri",
    "statename": "MAHARASHTRA"
  },
  {
    "pincode": "415712",
    "officename": "Varnoshi Tarf Panchanadi B.O",
    "officeType": "B.O",
    "Deliverystatus": "Delivery",
    "divisionname": "Ratnagiri",
    "regionname": "Goa-Panaji",
    "circlename": "Maharashtra",
    "Taluk": "Dapoli",
    "Districtname": "Ratnagiri",
    "statename": "MAHARASHTRA"
  },
  {
    "pincode": "415712",
    "officename": "Velvi B.O",
    "officeType": "B.O",
    "Deliverystatus": "Delivery",
    "divisionname": "Ratnagiri",
    "regionname": "Goa-Panaji",
    "circlename": "Maharashtra",
    "Taluk": "Dapoli",
    "Districtname": "Ratnagiri",
    "statename": "MAHARASHTRA"
  }
]
