[
  {
    "pincode": "415726",
    "officename": "Abaloli S.O",
    "officeType": "S.O",
    "Deliverystatus": "Delivery",
    "divisionname": "Ratnagiri",
    "regionname": "Goa-Panaji",
    "circlename": "Maharashtra",
    "Taluk": "Guhagar",
    "Districtname": "Ratnagiri",
    "statename": "MAHARASHTRA"
  },
  {
    "pincode": "415726",
    "officename": "Asore B.O",
    "officeType": "B.O",
    "Deliverystatus": "Delivery",
    "divisionname": "Ratnagiri",
    "regionname": "Goa-Panaji",
    "circlename": "Maharashtra",
    "Taluk": "Guhagar",
    "Districtname": "Ratnagiri",
    "statename": "MAHARASHTRA"
  },
  {
    "pincode": "415726",
    "officename": "Bhatgaon B.O",
    "officeType": "B.O",
    "Deliverystatus": "Delivery",
    "divisionname": "Ratnagiri",
    "regionname": "Goa-Panaji",
    "circlename": "Maharashtra",
    "Taluk": "Guhagar",
    "Districtname": "Ratnagiri",
    "statename": "MAHARASHTRA"
  },
  {
    "pincode": "415726",
    "officename": "Kajurli B.O",
    "officeType": "B.O",
    "Deliverystatus": "Delivery",
    "divisionname": "Ratnagiri",
    "regionname": "Goa-Panaji",
    "circlename": "Maharashtra",
    "Taluk": "Guhagar",
    "Districtname": "Ratnagiri",
    "statename": "MAHARASHTRA"
  },
  {
    "pincode": "415726",
    "officename": "Kelawali B.O",
    "officeType": "B.O",
    "Deliverystatus": "Delivery",
    "divisionname": "Ratnagiri",
    "regionname": "Goa-Panaji",
    "circlename": "Maharashtra",
    "Taluk": "Chiplun",
    "Districtname": "Ratnagiri",
    "statename": "MAHARASHTRA"
  },
  {
    "pincode": "415726",
    "officename": "Khodade B.O",
    "officeType": "B.O",
    "Deliverystatus": "Delivery",
    "divisionname": "Ratnagiri",
    "regionname": "Goa-Panaji",
    "circlename": "Maharashtra",
    "Taluk": "Guhagar",
    "Districtname": "Ratnagiri",
    "statename": "MAHARASHTRA"
  },
  {
    "pincode": "415726",
    "officename": "Masu B.O",
    "officeType": "B.O",
    "Deliverystatus": "Delivery",
    "divisionname": "Ratnagiri",
    "regionname": "Goa-Panaji",
    "circlename": "Maharashtra",
    "Taluk": "Guhagar",
    "Districtname": "Ratnagiri",
    "statename": "MAHARASHTRA"
  },
  {
    "pincode": "415726",
    "officename": "Pacheri Sada B.O",
    "officeType": "B.O",
    "Deliverystatus": "Delivery",
    "divisionname": "Ratnagiri",
    "regionname": "Goa-Panaji",
    "circlename": "Maharashtra",
    "Taluk": "Guhagar",
    "Districtname": "Ratnagiri",
    "statename": "MAHARASHTRA"
  },
  {
    "pincode": "415726",
    "officename": "Sada Jambhari B.O",
    "officeType": "B.O",
    "Deliverystatus": "Delivery",
    "divisionname": "Ratnagiri",
    "regionname": "Goa-Panaji",
    "circlename": "Maharashtra",
    "Taluk": "Chiplun",
    "Districtname": "Ratnagiri",
    "statename": "MAHARASHTRA"
  }
]
