[
  {
    "pincode": "416208",
    "officename": "Arjunwada B.O",
    "officeType": "B.O",
    "Deliverystatus": "Delivery",
    "divisionname": "Kolhapur",
    "regionname": "Goa-Panaji",
    "circlename": "Maharashtra",
    "Taluk": "Kagal",
    "Districtname": "Kolhapur",
    "statename": "MAHARASHTRA"
  },
  {
    "pincode": "416208",
    "officename": "Baradwadi B.O",
    "officeType": "B.O",
    "Deliverystatus": "Delivery",
    "divisionname": "Kolhapur",
    "regionname": "Goa-Panaji",
    "circlename": "Maharashtra",
    "Taluk": "Kagal",
    "Districtname": "Kolhapur",
    "statename": "MAHARASHTRA"
  },
  {
    "pincode": "416208",
    "officename": "Bidri S.O",
    "officeType": "S.O",
    "Deliverystatus": "Delivery",
    "divisionname": "Kolhapur",
    "regionname": "Goa-Panaji",
    "circlename": "Maharashtra",
    "Taluk": "Kagal",
    "Districtname": "Kolhapur",
    "statename": "MAHARASHTRA"
  },
  {
    "pincode": "416208",
    "officename": "Boravade B.O",
    "officeType": "B.O",
    "Deliverystatus": "Delivery",
    "divisionname": "Kolhapur",
    "regionname": "Goa-Panaji",
    "circlename": "Maharashtra",
    "Taluk": "Kagal",
    "Districtname": "Kolhapur",
    "statename": "MAHARASHTRA"
  },
  {
    "pincode": "416208",
    "officename": "Mudhal B.O",
    "officeType": "B.O",
    "Deliverystatus": "Delivery",
    "divisionname": "Kolhapur",
    "regionname": "Goa-Panaji",
    "circlename": "Maharashtra",
    "Taluk": "Kagal",
    "Districtname": "Kolhapur",
    "statename": "MAHARASHTRA"
  },
  {
    "pincode": "416208",
    "officename": "Talashi B.O",
    "officeType": "B.O",
    "Deliverystatus": "Delivery",
    "divisionname": "Kolhapur",
    "regionname": "Goa-Panaji",
    "circlename": "Maharashtra",
    "Taluk": "Kagal",
    "Districtname": "Kolhapur",
    "statename": "MAHARASHTRA"
  },
  {
    "pincode": "416208",
    "officename": "Thikpurli B.O",
    "officeType": "B.O",
    "Deliverystatus": "Delivery",
    "divisionname": "Kolhapur",
    "regionname": "Goa-Panaji",
    "circlename": "Maharashtra",
    "Taluk": "Kagal",
    "Districtname": "Kolhapur",
    "statename": "MAHARASHTRA"
  },
  {
    "pincode": "416208",
    "officename": "Titave B.O",
    "officeType": "B.O",
    "Deliverystatus": "Delivery",
    "divisionname": "Kolhapur",
    "regionname": "Goa-Panaji",
    "circlename": "Maharashtra",
    "Taluk": "Kagal",
    "Districtname": "Kolhapur",
    "statename": "MAHARASHTRA"
  },
  {
    "pincode": "416208",
    "officename": "Turambe B.O",
    "officeType": "B.O",
    "Deliverystatus": "Delivery",
    "divisionname": "Kolhapur",
    "regionname": "Goa-Panaji",
    "circlename": "Maharashtra",
    "Taluk": "Kagal",
    "Districtname": "Kolhapur",
    "statename": "MAHARASHTRA"
  },
  {
    "pincode": "416208",
    "officename": "Undarwadi B.O",
    "officeType": "B.O",
    "Deliverystatus": "Delivery",
    "divisionname": "Kolhapur",
    "regionname": "Goa-Panaji",
    "circlename": "Maharashtra",
    "Taluk": "Kagal",
    "Districtname": "Kolhapur",
    "statename": "MAHARASHTRA"
  }
]
