[
  {
    "pincode": "416210",
    "officename": "Adoli B.O",
    "officeType": "B.O",
    "Deliverystatus": "Delivery",
    "divisionname": "Kolhapur",
    "regionname": "Goa-Panaji",
    "circlename": "Maharashtra",
    "Taluk": "Bhudargad",
    "Districtname": "Kolhapur",
    "statename": "MAHARASHTRA"
  },
  {
    "pincode": "416210",
    "officename": "Anap Khurd B.O",
    "officeType": "B.O",
    "Deliverystatus": "Delivery",
    "divisionname": "Kolhapur",
    "regionname": "Goa-Panaji",
    "circlename": "Maharashtra",
    "Taluk": "Bhudargad",
    "Districtname": "Kolhapur",
    "statename": "MAHARASHTRA"
  },
  {
    "pincode": "416210",
    "officename": "Kadgaon Gargoti S.O",
    "officeType": "S.O",
    "Deliverystatus": "Delivery",
    "divisionname": "Kolhapur",
    "regionname": "Goa-Panaji",
    "circlename": "Maharashtra",
    "Taluk": "Bhudargad",
    "Districtname": "Kolhapur",
    "statename": "MAHARASHTRA"
  },
  {
    "pincode": "416210",
    "officename": "Kondoshi B.O",
    "officeType": "B.O",
    "Deliverystatus": "Delivery",
    "divisionname": "Kolhapur",
    "regionname": "Goa-Panaji",
    "circlename": "Maharashtra",
    "Taluk": "Bhudargad",
    "Districtname": "Kolhapur",
    "statename": "MAHARASHTRA"
  },
  {
    "pincode": "416210",
    "officename": "Mathgaon B.O",
    "officeType": "B.O",
    "Deliverystatus": "Delivery",
    "divisionname": "Kolhapur",
    "regionname": "Goa-Panaji",
    "circlename": "Maharashtra",
    "Taluk": "Bhudargad",
    "Districtname": "Kolhapur",
    "statename": "MAHARASHTRA"
  },
  {
    "pincode": "416210",
    "officename": "Mhasrang B.O",
    "officeType": "B.O",
    "Deliverystatus": "Delivery",
    "divisionname": "Kolhapur",
    "regionname": "Goa-Panaji",
    "circlename": "Maharashtra",
    "Taluk": "Bhudargad",
    "Districtname": "Kolhapur",
    "statename": "MAHARASHTRA"
  },
  {
    "pincode": "416210",
    "officename": "Navale B.O",
    "officeType": "B.O",
    "Deliverystatus": "Delivery",
    "divisionname": "Kolhapur",
    "regionname": "Goa-Panaji",
    "circlename": "Maharashtra",
    "Taluk": "Bhudargad",
    "Districtname": "Kolhapur",
    "statename": "MAHARASHTRA"
  },
  {
    "pincode": "416210",
    "officename": "Patgaon B.O",
    "officeType": "B.O",
    "Deliverystatus": "Delivery",
    "divisionname": "Kolhapur",
    "regionname": "Goa-Panaji",
    "circlename": "Maharashtra",
    "Taluk": "Bhudargad",
    "Districtname": "Kolhapur",
    "statename": "MAHARASHTRA"
  },
  {
    "pincode": "416210",
    "officename": "Sheloli B.O",
    "officeType": "B.O",
    "Deliverystatus": "Delivery",
    "divisionname": "Kolhapur",
    "regionname": "Goa-Panaji",
    "circlename": "Maharashtra",
    "Taluk": "Bhudargad",
    "Districtname": "Kolhapur",
    "statename": "MAHARASHTRA"
  },
  {
    "pincode": "416210",
    "officename": "Shivdav B.O",
    "officeType": "B.O",
    "Deliverystatus": "Delivery",
    "divisionname": "Kolhapur",
    "regionname": "Goa-Panaji",
    "circlename": "Maharashtra",
    "Taluk": "Bhudargad",
    "Districtname": "Kolhapur",
    "statename": "MAHARASHTRA"
  },
  {
    "pincode": "416210",
    "officename": "Tambale B.O",
    "officeType": "B.O",
    "Deliverystatus": "Delivery",
    "divisionname": "Kolhapur",
    "regionname": "Goa-Panaji",
    "circlename": "Maharashtra",
    "Taluk": "Bhudargad",
    "Districtname": "Kolhapur",
    "statename": "MAHARASHTRA"
  },
  {
    "pincode": "416210",
    "officename": "Tambyachiwadi B.O",
    "officeType": "B.O",
    "Deliverystatus": "Delivery",
    "divisionname": "Kolhapur",
    "regionname": "Goa-Panaji",
    "circlename": "Maharashtra",
    "Taluk": "Bhudargad",
    "Districtname": "Kolhapur",
    "statename": "MAHARASHTRA"
  },
  {
    "pincode": "416210",
    "officename": "Vengrul B.O",
    "officeType": "B.O",
    "Deliverystatus": "Delivery",
    "divisionname": "Kolhapur",
    "regionname": "Goa-Panaji",
    "circlename": "Maharashtra",
    "Taluk": "Bhudargad",
    "Districtname": "Kolhapur",
    "statename": "MAHARASHTRA"
  },
  {
    "pincode": "416210",
    "officename": "Vesarde B.O",
    "officeType": "B.O",
    "Deliverystatus": "Delivery",
    "divisionname": "Kolhapur",
    "regionname": "Goa-Panaji",
    "circlename": "Maharashtra",
    "Taluk": "Bhudargad",
    "Districtname": "Kolhapur",
    "statename": "MAHARASHTRA"
  }
]
