[
  {
    "pincode": "416214",
    "officename": "Akurle B.O",
    "officeType": "B.O",
    "Deliverystatus": "Delivery",
    "divisionname": "Kolhapur",
    "regionname": "Goa-Panaji",
    "circlename": "Maharashtra",
    "Taluk": "Shahuwadi",
    "Districtname": "Kolhapur",
    "statename": "MAHARASHTRA"
  },
  {
    "pincode": "416214",
    "officename": "Bhedasgaon B.O",
    "officeType": "B.O",
    "Deliverystatus": "Delivery",
    "divisionname": "Kolhapur",
    "regionname": "Goa-Panaji",
    "circlename": "Maharashtra",
    "Taluk": "Shahuwadi",
    "Districtname": "Kolhapur",
    "statename": "MAHARASHTRA"
  },
  {
    "pincode": "416214",
    "officename": "Kapshi B.O",
    "officeType": "B.O",
    "Deliverystatus": "Delivery",
    "divisionname": "Kolhapur",
    "regionname": "Goa-Panaji",
    "circlename": "Maharashtra",
    "Taluk": "Shahuwadi",
    "Districtname": "Kolhapur",
    "statename": "MAHARASHTRA"
  },
  {
    "pincode": "416214",
    "officename": "Kotoli (Warna) B.O",
    "officeType": "B.O",
    "Deliverystatus": "Delivery",
    "divisionname": "Kolhapur",
    "regionname": "Goa-Panaji",
    "circlename": "Maharashtra",
    "Taluk": "Shahuwadi",
    "Districtname": "Kolhapur",
    "statename": "MAHARASHTRA"
  },
  {
    "pincode": "416214",
    "officename": "Rethare B.O",
    "officeType": "B.O",
    "Deliverystatus": "Delivery",
    "divisionname": "Kolhapur",
    "regionname": "Goa-Panaji",
    "circlename": "Maharashtra",
    "Taluk": "Shahuwadi",
    "Districtname": "Kolhapur",
    "statename": "MAHARASHTRA"
  },
  {
    "pincode": "416214",
    "officename": "Sarud S.O",
    "officeType": "S.O",
    "Deliverystatus": "Delivery",
    "divisionname": "Kolhapur",
    "regionname": "Goa-Panaji",
    "circlename": "Maharashtra",
    "Taluk": "Shahuwadi",
    "Districtname": "Kolhapur",
    "statename": "MAHARASHTRA"
  },
  {
    "pincode": "416214",
    "officename": "Shimpe B.O",
    "officeType": "B.O",
    "Deliverystatus": "Delivery",
    "divisionname": "Kolhapur",
    "regionname": "Goa-Panaji",
    "circlename": "Maharashtra",
    "Taluk": "Shahuwadi",
    "Districtname": "Kolhapur",
    "statename": "MAHARASHTRA"
  },
  {
    "pincode": "416214",
    "officename": "Shirale T/Ff Warun B.O",
    "officeType": "B.O",
    "Deliverystatus": "Delivery",
    "divisionname": "Kolhapur",
    "regionname": "Goa-Panaji",
    "circlename": "Maharashtra",
    "Taluk": "Shahuwadi",
    "Districtname": "Kolhapur",
    "statename": "MAHARASHTRA"
  },
  {
    "pincode": "416214",
    "officename": "Shittur T/F Warun B.O",
    "officeType": "B.O",
    "Deliverystatus": "Delivery",
    "divisionname": "Kolhapur",
    "regionname": "Goa-Panaji",
    "circlename": "Maharashtra",
    "Taluk": "Shahuwadi",
    "Districtname": "Kolhapur",
    "statename": "MAHARASHTRA"
  },
  {
    "pincode": "416214",
    "officename": "Sondoli B.O",
    "officeType": "B.O",
    "Deliverystatus": "Delivery",
    "divisionname": "Kolhapur",
    "regionname": "Goa-Panaji",
    "circlename": "Maharashtra",
    "Taluk": "Shahuwadi",
    "Districtname": "Kolhapur",
    "statename": "MAHARASHTRA"
  },
  {
    "pincode": "416214",
    "officename": "Ukhalu B.O",
    "officeType": "B.O",
    "Deliverystatus": "Delivery",
    "divisionname": "Kolhapur",
    "regionname": "Goa-Panaji",
    "circlename": "Maharashtra",
    "Taluk": "Shahuwadi",
    "Districtname": "Kolhapur",
    "statename": "MAHARASHTRA"
  },
  {
    "pincode": "416214",
    "officename": "Virale B.O",
    "officeType": "B.O",
    "Deliverystatus": "Delivery",
    "divisionname": "Kolhapur",
    "regionname": "Goa-Panaji",
    "circlename": "Maharashtra",
    "Taluk": "Shahuwadi",
    "Districtname": "Kolhapur",
    "statename": "MAHARASHTRA"
  }
]
