[
  {
    "pincode": "416219",
    "officename": "Karanjivane B.O",
    "officeType": "B.O",
    "Deliverystatus": "Delivery",
    "divisionname": "Kolhapur",
    "regionname": "Goa-Panaji",
    "circlename": "Maharashtra",
    "Taluk": "Kagal",
    "Districtname": "Kolhapur",
    "statename": "MAHARASHTRA"
  },
  {
    "pincode": "416219",
    "officename": "Malage BK B.O",
    "officeType": "B.O",
    "Deliverystatus": "Delivery",
    "divisionname": "Kolhapur",
    "regionname": "Goa-Panaji",
    "circlename": "Maharashtra",
    "Taluk": "Kagal",
    "Districtname": "Kolhapur",
    "statename": "MAHARASHTRA"
  },
  {
    "pincode": "416219",
    "officename": "Mouje Haladi B.O",
    "officeType": "B.O",
    "Deliverystatus": "Delivery",
    "divisionname": "Kolhapur",
    "regionname": "Goa-Panaji",
    "circlename": "Maharashtra",
    "Taluk": "Kagal",
    "Districtname": "Kolhapur",
    "statename": "MAHARASHTRA"
  },
  {
    "pincode": "416219",
    "officename": "Murgud S.O",
    "officeType": "S.O",
    "Deliverystatus": "Delivery",
    "divisionname": "Kolhapur",
    "regionname": "Goa-Panaji",
    "circlename": "Maharashtra",
    "Taluk": "Kagal",
    "Districtname": "Kolhapur",
    "statename": "MAHARASHTRA"
  },
  {
    "pincode": "416219",
    "officename": "Nidhori B.O",
    "officeType": "B.O",
    "Deliverystatus": "Delivery",
    "divisionname": "Kolhapur",
    "regionname": "Goa-Panaji",
    "circlename": "Maharashtra",
    "Taluk": "Kagal",
    "Districtname": "Kolhapur",
    "statename": "MAHARASHTRA"
  },
  {
    "pincode": "416219",
    "officename": "Savarde BK B.O",
    "officeType": "B.O",
    "Deliverystatus": "Delivery",
    "divisionname": "Kolhapur",
    "regionname": "Goa-Panaji",
    "circlename": "Maharashtra",
    "Taluk": "Kagal",
    "Districtname": "Kolhapur",
    "statename": "MAHARASHTRA"
  },
  {
    "pincode": "416219",
    "officename": "Sonali B.O",
    "officeType": "B.O",
    "Deliverystatus": "Delivery",
    "divisionname": "Kolhapur",
    "regionname": "Goa-Panaji",
    "circlename": "Maharashtra",
    "Taluk": "Kagal",
    "Districtname": "Kolhapur",
    "statename": "MAHARASHTRA"
  },
  {
    "pincode": "416219",
    "officename": "Yamage B.O",
    "officeType": "B.O",
    "Deliverystatus": "Delivery",
    "divisionname": "Kolhapur",
    "regionname": "Goa-Panaji",
    "circlename": "Maharashtra",
    "Taluk": "Kagal",
    "Districtname": "Kolhapur",
    "statename": "MAHARASHTRA"
  }
]
