[
  {
    "pincode": "416312",
    "officename": "Arawade B.O",
    "officeType": "B.O",
    "Deliverystatus": "Delivery",
    "divisionname": "Sangli",
    "regionname": "Goa-Panaji",
    "circlename": "Maharashtra",
    "Taluk": "Tasgaon",
    "Districtname": "Sangli",
    "statename": "MAHARASHTRA"
  },
  {
    "pincode": "416312",
    "officename": "Balagavade B.O",
    "officeType": "B.O",
    "Deliverystatus": "Delivery",
    "divisionname": "Sangli",
    "regionname": "Goa-Panaji",
    "circlename": "Maharashtra",
    "Taluk": "Tasgaon",
    "Districtname": "Sangli",
    "statename": "MAHARASHTRA"
  },
  {
    "pincode": "416312",
    "officename": "Bendri B.O",
    "officeType": "B.O",
    "Deliverystatus": "Delivery",
    "divisionname": "Sangli",
    "regionname": "Goa-Panaji",
    "circlename": "Maharashtra",
    "Taluk": "Tasgaon",
    "Districtname": "Sangli",
    "statename": "MAHARASHTRA"
  },
  {
    "pincode": "416312",
    "officename": "Biranwadi B.O",
    "officeType": "B.O",
    "Deliverystatus": "Delivery",
    "divisionname": "Sangli",
    "regionname": "Goa-Panaji",
    "circlename": "Maharashtra",
    "Taluk": "Tasgaon",
    "Districtname": "Sangli",
    "statename": "MAHARASHTRA"
  },
  {
    "pincode": "416312",
    "officename": "Borgaon (T) B.O",
    "officeType": "B.O",
    "Deliverystatus": "Delivery",
    "divisionname": "Sangli",
    "regionname": "Goa-Panaji",
    "circlename": "Maharashtra",
    "Taluk": "Tasgaon",
    "Districtname": "Sangli",
    "statename": "MAHARASHTRA"
  },
  {
    "pincode": "416312",
    "officename": "Chinchani (T) B.O",
    "officeType": "B.O",
    "Deliverystatus": "Delivery",
    "divisionname": "Sangli",
    "regionname": "Goa-Panaji",
    "circlename": "Maharashtra",
    "Taluk": "Tasgaon",
    "Districtname": "Sangli",
    "statename": "MAHARASHTRA"
  },
  {
    "pincode": "416312",
    "officename": "Dhavali (T) B.O",
    "officeType": "B.O",
    "Deliverystatus": "Delivery",
    "divisionname": "Sangli",
    "regionname": "Goa-Panaji",
    "circlename": "Maharashtra",
    "Taluk": "Tasgaon",
    "Districtname": "Sangli",
    "statename": "MAHARASHTRA"
  },
  {
    "pincode": "416312",
    "officename": "Gaurgaon B.O",
    "officeType": "B.O",
    "Deliverystatus": "Delivery",
    "divisionname": "Sangli",
    "regionname": "Goa-Panaji",
    "circlename": "Maharashtra",
    "Taluk": "Tasgaon",
    "Districtname": "Sangli",
    "statename": "MAHARASHTRA"
  },
  {
    "pincode": "416312",
    "officename": "Guruwar Peth,tasgaon S.O",
    "officeType": "S.O",
    "Deliverystatus": "Non-Delivery",
    "divisionname": "Sangli",
    "regionname": "Goa-Panaji",
    "circlename": "Maharashtra",
    "Taluk": "Tasgaon",
    "Districtname": "Sangli",
    "statename": "MAHARASHTRA"
  },
  {
    "pincode": "416312",
    "officename": "Karanje B.O",
    "officeType": "B.O",
    "Deliverystatus": "Delivery",
    "divisionname": "Sangli",
    "regionname": "Goa-Panaji",
    "circlename": "Maharashtra",
    "Taluk": "Khanapur",
    "Districtname": "Sangli",
    "statename": "MAHARASHTRA"
  },
  {
    "pincode": "416312",
    "officename": "Limb B.O",
    "officeType": "B.O",
    "Deliverystatus": "Delivery",
    "divisionname": "Sangli",
    "regionname": "Goa-Panaji",
    "circlename": "Maharashtra",
    "Taluk": "Tasgaon",
    "Districtname": "Sangli",
    "statename": "MAHARASHTRA"
  },
  {
    "pincode": "416312",
    "officename": "Lode B.O",
    "officeType": "B.O",
    "Deliverystatus": "Delivery",
    "divisionname": "Sangli",
    "regionname": "Goa-Panaji",
    "circlename": "Maharashtra",
    "Taluk": "Tasgaon",
    "Districtname": "Sangli",
    "statename": "MAHARASHTRA"
  },
  {
    "pincode": "416312",
    "officename": "Manjarde B.O",
    "officeType": "B.O",
    "Deliverystatus": "Delivery",
    "divisionname": "Sangli",
    "regionname": "Goa-Panaji",
    "circlename": "Maharashtra",
    "Taluk": "Miraj",
    "Districtname": "Sangli",
    "statename": "MAHARASHTRA"
  },
  {
    "pincode": "416312",
    "officename": "Nimani B.O",
    "officeType": "B.O",
    "Deliverystatus": "Delivery",
    "divisionname": "Sangli",
    "regionname": "Goa-Panaji",
    "circlename": "Maharashtra",
    "Taluk": "Tasgaon",
    "Districtname": "Sangli",
    "statename": "MAHARASHTRA"
  },
  {
    "pincode": "416312",
    "officename": "Nimblak B.O",
    "officeType": "B.O",
    "Deliverystatus": "Delivery",
    "divisionname": "Sangli",
    "regionname": "Goa-Panaji",
    "circlename": "Maharashtra",
    "Taluk": "Tasgaon",
    "Districtname": "Sangli",
    "statename": "MAHARASHTRA"
  },
  {
    "pincode": "416312",
    "officename": "Ped B.O",
    "officeType": "B.O",
    "Deliverystatus": "Delivery",
    "divisionname": "Sangli",
    "regionname": "Goa-Panaji",
    "circlename": "Maharashtra",
    "Taluk": "Miraj",
    "Districtname": "Sangli",
    "statename": "MAHARASHTRA"
  },
  {
    "pincode": "416312",
    "officename": "Punadi (T) B.O",
    "officeType": "B.O",
    "Deliverystatus": "Delivery",
    "divisionname": "Sangli",
    "regionname": "Goa-Panaji",
    "circlename": "Maharashtra",
    "Taluk": "Tasgaon",
    "Districtname": "Sangli",
    "statename": "MAHARASHTRA"
  },
  {
    "pincode": "416312",
    "officename": "Tasgaon M.D.G S.O",
    "officeType": "S.O",
    "Deliverystatus": "Delivery",
    "divisionname": "Sangli",
    "regionname": "Goa-Panaji",
    "circlename": "Maharashtra",
    "Taluk": "Tasgaon",
    "Districtname": "Sangli",
    "statename": "MAHARASHTRA"
  },
  {
    "pincode": "416312",
    "officename": "Turchi B.O",
    "officeType": "B.O",
    "Deliverystatus": "Delivery",
    "divisionname": "Sangli",
    "regionname": "Goa-Panaji",
    "circlename": "Maharashtra",
    "Taluk": "Tasgaon",
    "Districtname": "Sangli",
    "statename": "MAHARASHTRA"
  },
  {
    "pincode": "416312",
    "officename": "Vasumbe (T) B.O",
    "officeType": "B.O",
    "Deliverystatus": "Delivery",
    "divisionname": "Sangli",
    "regionname": "Goa-Panaji",
    "circlename": "Maharashtra",
    "Taluk": "Tasgaon",
    "Districtname": "Sangli",
    "statename": "MAHARASHTRA"
  },
  {
    "pincode": "416312",
    "officename": "Waiphale B.O",
    "officeType": "B.O",
    "Deliverystatus": "Delivery",
    "divisionname": "Sangli",
    "regionname": "Goa-Panaji",
    "circlename": "Maharashtra",
    "Taluk": "Tasgaon",
    "Districtname": "Sangli",
    "statename": "MAHARASHTRA"
  },
  {
    "pincode": "416312",
    "officename": "Yamgarwadi B.O",
    "officeType": "B.O",
    "Deliverystatus": "Delivery",
    "divisionname": "Sangli",
    "regionname": "Goa-Panaji",
    "circlename": "Maharashtra",
    "Taluk": "Tasgaon",
    "Districtname": "Sangli",
    "statename": "MAHARASHTRA"
  }
]
