[
  {
    "pincode": "416301",
    "officename": "Ashte S.O",
    "officeType": "S.O",
    "Deliverystatus": "Delivery",
    "divisionname": "Sangli",
    "regionname": "Goa-Panaji",
    "circlename": "Maharashtra",
    "Taluk": "Valva",
    "Districtname": "Sangli",
    "statename": "MAHARASHTRA"
  },
  {
    "pincode": "416301",
    "officename": "Bavachi B.O",
    "officeType": "B.O",
    "Deliverystatus": "Delivery",
    "divisionname": "Sangli",
    "regionname": "Goa-Panaji",
    "circlename": "Maharashtra",
    "Taluk": "Walva",
    "Districtname": "Sangli",
    "statename": "MAHARASHTRA"
  },
  {
    "pincode": "416301",
    "officename": "Gotkhindi B.O",
    "officeType": "B.O",
    "Deliverystatus": "Delivery",
    "divisionname": "Sangli",
    "regionname": "Goa-Panaji",
    "circlename": "Maharashtra",
    "Taluk": "Walva",
    "Districtname": "Sangli",
    "statename": "MAHARASHTRA"
  },
  {
    "pincode": "416301",
    "officename": "Karandwadi B.O",
    "officeType": "B.O",
    "Deliverystatus": "Delivery",
    "divisionname": "Sangli",
    "regionname": "Goa-Panaji",
    "circlename": "Maharashtra",
    "Taluk": "Walva",
    "Districtname": "Sangli",
    "statename": "MAHARASHTRA"
  },
  {
    "pincode": "416301",
    "officename": "Mardwadi B.O",
    "officeType": "B.O",
    "Deliverystatus": "Delivery",
    "divisionname": "Sangli",
    "regionname": "Goa-Panaji",
    "circlename": "Maharashtra",
    "Taluk": "Walva",
    "Districtname": "Sangli",
    "statename": "MAHARASHTRA"
  },
  {
    "pincode": "416301",
    "officename": "Mirajwadi B.O",
    "officeType": "B.O",
    "Deliverystatus": "Delivery",
    "divisionname": "Sangli",
    "regionname": "Goa-Panaji",
    "circlename": "Maharashtra",
    "Taluk": "Walva",
    "Districtname": "Sangli",
    "statename": "MAHARASHTRA"
  },
  {
    "pincode": "416301",
    "officename": "Pokharni B.O",
    "officeType": "B.O",
    "Deliverystatus": "Delivery",
    "divisionname": "Sangli",
    "regionname": "Goa-Panaji",
    "circlename": "Maharashtra",
    "Taluk": "Walva",
    "Districtname": "Sangli",
    "statename": "MAHARASHTRA"
  },
  {
    "pincode": "416301",
    "officename": "Tung B.O",
    "officeType": "B.O",
    "Deliverystatus": "Delivery",
    "divisionname": "Sangli",
    "regionname": "Goa-Panaji",
    "circlename": "Maharashtra",
    "Taluk": "Miraj",
    "Districtname": "Sangli",
    "statename": "MAHARASHTRA"
  }
]
