[
  {
    "pincode": "416412",
    "officename": "Ankalagi B.O",
    "officeType": "B.O",
    "Deliverystatus": "Delivery",
    "divisionname": "Sangli",
    "regionname": "Goa-Panaji",
    "circlename": "Maharashtra",
    "Taluk": "Jat",
    "Districtname": "Sangli",
    "statename": "MAHARASHTRA"
  },
  {
    "pincode": "416412",
    "officename": "Asangi J B.O",
    "officeType": "B.O",
    "Deliverystatus": "Delivery",
    "divisionname": "Sangli",
    "regionname": "Goa-Panaji",
    "circlename": "Maharashtra",
    "Taluk": "Jat",
    "Districtname": "Sangli",
    "statename": "MAHARASHTRA"
  },
  {
    "pincode": "416412",
    "officename": "Asangi K B.O",
    "officeType": "B.O",
    "Deliverystatus": "Delivery",
    "divisionname": "Sangli",
    "regionname": "Goa-Panaji",
    "circlename": "Maharashtra",
    "Taluk": "Jat",
    "Districtname": "Sangli",
    "statename": "MAHARASHTRA"
  },
  {
    "pincode": "416412",
    "officename": "Boblad K B.O",
    "officeType": "B.O",
    "Deliverystatus": "Delivery",
    "divisionname": "Sangli",
    "regionname": "Goa-Panaji",
    "circlename": "Maharashtra",
    "Taluk": "Jat",
    "Districtname": "Sangli",
    "statename": "MAHARASHTRA"
  },
  {
    "pincode": "416412",
    "officename": "Daribadachi B.O",
    "officeType": "B.O",
    "Deliverystatus": "Delivery",
    "divisionname": "Sangli",
    "regionname": "Goa-Panaji",
    "circlename": "Maharashtra",
    "Taluk": "Jat",
    "Districtname": "Sangli",
    "statename": "MAHARASHTRA"
  },
  {
    "pincode": "416412",
    "officename": "Sankh S.O",
    "officeType": "S.O",
    "Deliverystatus": "Delivery",
    "divisionname": "Sangli",
    "regionname": "Goa-Panaji",
    "circlename": "Maharashtra",
    "Taluk": "Jat",
    "Districtname": "Sangli",
    "statename": "MAHARASHTRA"
  },
  {
    "pincode": "416412",
    "officename": "Sidhnath B.O",
    "officeType": "B.O",
    "Deliverystatus": "Delivery",
    "divisionname": "Sangli",
    "regionname": "Goa-Panaji",
    "circlename": "Maharashtra",
    "Taluk": "Jat",
    "Districtname": "Sangli",
    "statename": "MAHARASHTRA"
  },
  {
    "pincode": "416412",
    "officename": "Sordi B.O",
    "officeType": "B.O",
    "Deliverystatus": "Delivery",
    "divisionname": "Sangli",
    "regionname": "Goa-Panaji",
    "circlename": "Maharashtra",
    "Taluk": "Jat",
    "Districtname": "Sangli",
    "statename": "MAHARASHTRA"
  },
  {
    "pincode": "416412",
    "officename": "Tikundi B.O",
    "officeType": "B.O",
    "Deliverystatus": "Delivery",
    "divisionname": "Sangli",
    "regionname": "Goa-Panaji",
    "circlename": "Maharashtra",
    "Taluk": "Jat",
    "Districtname": "Sangli",
    "statename": "MAHARASHTRA"
  }
]
