[
  {
    "pincode": "416410",
    "officename": "Banewadi B.O",
    "officeType": "B.O",
    "Deliverystatus": "Delivery",
    "divisionname": "Sangli",
    "regionname": "Goa-Panaji",
    "circlename": "Maharashtra",
    "Taluk": "Kavathe Mahankal",
    "Districtname": "Sangli",
    "statename": "MAHARASHTRA"
  },
  {
    "pincode": "416410",
    "officename": "Bedag B.O",
    "officeType": "B.O",
    "Deliverystatus": "Delivery",
    "divisionname": "Sangli",
    "regionname": "Goa-Panaji",
    "circlename": "Maharashtra",
    "Taluk": "Miraj",
    "Districtname": "Sangli",
    "statename": "MAHARASHTRA"
  },
  {
    "pincode": "416410",
    "officename": "Belanki B.O",
    "officeType": "B.O",
    "Deliverystatus": "Delivery",
    "divisionname": "Sangli",
    "regionname": "Goa-Panaji",
    "circlename": "Maharashtra",
    "Taluk": "Miraj",
    "Districtname": "Sangli",
    "statename": "MAHARASHTRA"
  },
  {
    "pincode": "416410",
    "officename": "Bolwad B.O",
    "officeType": "B.O",
    "Deliverystatus": "Delivery",
    "divisionname": "Sangli",
    "regionname": "Goa-Panaji",
    "circlename": "Maharashtra",
    "Taluk": "Miraj",
    "Districtname": "Sangli",
    "statename": "MAHARASHTRA"
  },
  {
    "pincode": "416410",
    "officename": "Brahmanpuri Miraj S.O",
    "officeType": "S.O",
    "Deliverystatus": "Non-Delivery",
    "divisionname": "Sangli",
    "regionname": "Goa-Panaji",
    "circlename": "Maharashtra",
    "Taluk": "Miraj",
    "Districtname": "Sangli",
    "statename": "MAHARASHTRA"
  },
  {
    "pincode": "416410",
    "officename": "Deshing B.O",
    "officeType": "B.O",
    "Deliverystatus": "Delivery",
    "divisionname": "Sangli",
    "regionname": "Goa-Panaji",
    "circlename": "Maharashtra",
    "Taluk": "Kavathe Mahankal",
    "Districtname": "Sangli",
    "statename": "MAHARASHTRA"
  },
  {
    "pincode": "416410",
    "officename": "Dhavali B.O",
    "officeType": "B.O",
    "Deliverystatus": "Delivery",
    "divisionname": "Sangli",
    "regionname": "Goa-Panaji",
    "circlename": "Maharashtra",
    "Taluk": "Miraj",
    "Districtname": "Sangli",
    "statename": "MAHARASHTRA"
  },
  {
    "pincode": "416410",
    "officename": "Govt.Medical College Miraj S.O",
    "officeType": "S.O",
    "Deliverystatus": "Non-Delivery",
    "divisionname": "Sangli",
    "regionname": "Goa-Panaji",
    "circlename": "Maharashtra",
    "Taluk": "Miraj",
    "Districtname": "Sangli",
    "statename": "MAHARASHTRA"
  },
  {
    "pincode": "416410",
    "officename": "Kalambi B.O",
    "officeType": "B.O",
    "Deliverystatus": "Delivery",
    "divisionname": "Sangli",
    "regionname": "Goa-Panaji",
    "circlename": "Maharashtra",
    "Taluk": "Miraj",
    "Districtname": "Sangli",
    "statename": "MAHARASHTRA"
  },
  {
    "pincode": "416410",
    "officename": "Khanbhag,sangli At Midc Miraj S.O",
    "officeType": "S.O",
    "Deliverystatus": "Non-Delivery",
    "divisionname": "Sangli",
    "regionname": "Goa-Panaji",
    "circlename": "Maharashtra",
    "Taluk": "Miraj",
    "Districtname": "Sangli",
    "statename": "MAHARASHTRA"
  },
  {
    "pincode": "416410",
    "officename": "Khanderajuri B.O",
    "officeType": "B.O",
    "Deliverystatus": "Delivery",
    "divisionname": "Sangli",
    "regionname": "Goa-Panaji",
    "circlename": "Maharashtra",
    "Taluk": "Miraj",
    "Districtname": "Sangli",
    "statename": "MAHARASHTRA"
  },
  {
    "pincode": "416410",
    "officename": "Kharshing B.O",
    "officeType": "B.O",
    "Deliverystatus": "Delivery",
    "divisionname": "Sangli",
    "regionname": "Goa-Panaji",
    "circlename": "Maharashtra",
    "Taluk": "Kavathe Mahankal",
    "Districtname": "Sangli",
    "statename": "MAHARASHTRA"
  },
  {
    "pincode": "416410",
    "officename": "Mallewadi B.O",
    "officeType": "B.O",
    "Deliverystatus": "Delivery",
    "divisionname": "Sangli",
    "regionname": "Goa-Panaji",
    "circlename": "Maharashtra",
    "Taluk": "Miraj",
    "Districtname": "Sangli",
    "statename": "MAHARASHTRA"
  },
  {
    "pincode": "416410",
    "officename": "Mangalwar Peth Miraj S.O",
    "officeType": "S.O",
    "Deliverystatus": "Non-Delivery",
    "divisionname": "Sangli",
    "regionname": "Goa-Panaji",
    "circlename": "Maharashtra",
    "Taluk": "Miraj",
    "Districtname": "Sangli",
    "statename": "MAHARASHTRA"
  },
  {
    "pincode": "416410",
    "officename": "Miraj Audyogik Vasahat S.O",
    "officeType": "S.O",
    "Deliverystatus": "Non-Delivery",
    "divisionname": "Sangli",
    "regionname": "Goa-Panaji",
    "circlename": "Maharashtra",
    "Taluk": "Miraj",
    "Districtname": "Sangli",
    "statename": "MAHARASHTRA"
  },
  {
    "pincode": "416410",
    "officename": "Miraj H.O",
    "officeType": "H.O",
    "Deliverystatus": "Delivery",
    "divisionname": "Sangli",
    "regionname": "Goa-Panaji",
    "circlename": "Maharashtra",
    "Taluk": "Miraj",
    "Districtname": "Sangli",
    "statename": "MAHARASHTRA"
  },
  {
    "pincode": "416410",
    "officename": "Miraj Station Road S.O",
    "officeType": "S.O",
    "Deliverystatus": "Non-Delivery",
    "divisionname": "Sangli",
    "regionname": "Goa-Panaji",
    "circlename": "Maharashtra",
    "Taluk": "Miraj",
    "Districtname": "Sangli",
    "statename": "MAHARASHTRA"
  },
  {
    "pincode": "416410",
    "officename": "Payappachiwadi B.O",
    "officeType": "B.O",
    "Deliverystatus": "Delivery",
    "divisionname": "Sangli",
    "regionname": "Goa-Panaji",
    "circlename": "Maharashtra",
    "Taluk": "Miraj",
    "Districtname": "Sangli",
    "statename": "MAHARASHTRA"
  },
  {
    "pincode": "416410",
    "officename": "Shaniwar Peth Miraj S.O",
    "officeType": "S.O",
    "Deliverystatus": "Non-Delivery",
    "divisionname": "Sangli",
    "regionname": "Goa-Panaji",
    "circlename": "Maharashtra",
    "Taluk": "Miraj",
    "Districtname": "Sangli",
    "statename": "MAHARASHTRA"
  },
  {
    "pincode": "416410",
    "officename": "Shipur B.O",
    "officeType": "B.O",
    "Deliverystatus": "Delivery",
    "divisionname": "Sangli",
    "regionname": "Goa-Panaji",
    "circlename": "Maharashtra",
    "Taluk": "Miraj",
    "Districtname": "Sangli",
    "statename": "MAHARASHTRA"
  },
  {
    "pincode": "416410",
    "officename": "Siddhewadi B.O",
    "officeType": "B.O",
    "Deliverystatus": "Delivery",
    "divisionname": "Sangli",
    "regionname": "Goa-Panaji",
    "circlename": "Maharashtra",
    "Taluk": "Miraj",
    "Districtname": "Sangli",
    "statename": "MAHARASHTRA"
  },
  {
    "pincode": "416410",
    "officename": "Tanang B.O",
    "officeType": "B.O",
    "Deliverystatus": "Delivery",
    "divisionname": "Sangli",
    "regionname": "Goa-Panaji",
    "circlename": "Maharashtra",
    "Taluk": "Miraj",
    "Districtname": "Sangli",
    "statename": "MAHARASHTRA"
  },
  {
    "pincode": "416410",
    "officename": "Vaddi B.O",
    "officeType": "B.O",
    "Deliverystatus": "Delivery",
    "divisionname": "Sangli",
    "regionname": "Goa-Panaji",
    "circlename": "Maharashtra",
    "Taluk": "Miraj",
    "Districtname": "Sangli",
    "statename": "MAHARASHTRA"
  },
  {
    "pincode": "416410",
    "officename": "Yerandoli B.O",
    "officeType": "B.O",
    "Deliverystatus": "Delivery",
    "divisionname": "Sangli",
    "regionname": "Goa-Panaji",
    "circlename": "Maharashtra",
    "Taluk": "Miraj",
    "Districtname": "Sangli",
    "statename": "MAHARASHTRA"
  }
]
