[
  {
    "pincode": "416520",
    "officename": "Andurla B.O",
    "officeType": "B.O",
    "Deliverystatus": "Delivery",
    "divisionname": "Sindhudurg",
    "regionname": "Goa-Panaji",
    "circlename": "Maharashtra",
    "Taluk": "Kudal",
    "Districtname": "Sindhudurg",
    "statename": "MAHARASHTRA"
  },
  {
    "pincode": "416520",
    "officename": "Bambuli B.O",
    "officeType": "B.O",
    "Deliverystatus": "Delivery",
    "divisionname": "Sindhudurg",
    "regionname": "Goa-Panaji",
    "circlename": "Maharashtra",
    "Taluk": "Kudal",
    "Districtname": "Sindhudurg",
    "statename": "MAHARASHTRA"
  },
  {
    "pincode": "416520",
    "officename": "Bav B.O",
    "officeType": "B.O",
    "Deliverystatus": "Delivery",
    "divisionname": "Sindhudurg",
    "regionname": "Goa-Panaji",
    "circlename": "Maharashtra",
    "Taluk": "Kudal",
    "Districtname": "Sindhudurg",
    "statename": "MAHARASHTRA"
  },
  {
    "pincode": "416520",
    "officename": "Bibavane B.O",
    "officeType": "B.O",
    "Deliverystatus": "Delivery",
    "divisionname": "Sindhudurg",
    "regionname": "Goa-Panaji",
    "circlename": "Maharashtra",
    "Taluk": "Kudal",
    "Districtname": "Sindhudurg",
    "statename": "MAHARASHTRA"
  },
  {
    "pincode": "416520",
    "officename": "Ghavanale B.O",
    "officeType": "B.O",
    "Deliverystatus": "Delivery",
    "divisionname": "Sindhudurg",
    "regionname": "Goa-Panaji",
    "circlename": "Maharashtra",
    "Taluk": "Kudal",
    "Districtname": "Sindhudurg",
    "statename": "MAHARASHTRA"
  },
  {
    "pincode": "416520",
    "officename": "Goveri B.O",
    "officeType": "B.O",
    "Deliverystatus": "Delivery",
    "divisionname": "Sindhudurg",
    "regionname": "Goa-Panaji",
    "circlename": "Maharashtra",
    "Taluk": "Kudal",
    "Districtname": "Sindhudurg",
    "statename": "MAHARASHTRA"
  },
  {
    "pincode": "416520",
    "officename": "Hirlok B.O",
    "officeType": "B.O",
    "Deliverystatus": "Delivery",
    "divisionname": "Sindhudurg",
    "regionname": "Goa-Panaji",
    "circlename": "Maharashtra",
    "Taluk": "Kudal",
    "Districtname": "Sindhudurg",
    "statename": "MAHARASHTRA"
  },
  {
    "pincode": "416520",
    "officename": "Kelus B.O",
    "officeType": "B.O",
    "Deliverystatus": "Delivery",
    "divisionname": "Sindhudurg",
    "regionname": "Goa-Panaji",
    "circlename": "Maharashtra",
    "Taluk": "Kudal",
    "Districtname": "Sindhudurg",
    "statename": "MAHARASHTRA"
  },
  {
    "pincode": "416520",
    "officename": "Keravade B.O",
    "officeType": "B.O",
    "Deliverystatus": "Delivery",
    "divisionname": "Sindhudurg",
    "regionname": "Goa-Panaji",
    "circlename": "Maharashtra",
    "Taluk": "Kudal",
    "Districtname": "Sindhudurg",
    "statename": "MAHARASHTRA"
  },
  {
    "pincode": "416520",
    "officename": "Khutvalwadi B.O",
    "officeType": "B.O",
    "Deliverystatus": "Delivery",
    "divisionname": "Sindhudurg",
    "regionname": "Goa-Panaji",
    "circlename": "Maharashtra",
    "Taluk": "Kudal",
    "Districtname": "Sindhudurg",
    "statename": "MAHARASHTRA"
  },
  {
    "pincode": "416520",
    "officename": "Kudal S.O (Sindhudurg)",
    "officeType": "S.O",
    "Deliverystatus": "Delivery",
    "divisionname": "Sindhudurg",
    "regionname": "Goa-Panaji",
    "circlename": "Maharashtra",
    "Taluk": "Kudal",
    "Districtname": "Sindhudurg",
    "statename": "MAHARASHTRA"
  },
  {
    "pincode": "416520",
    "officename": "Madyachiwadi B.O",
    "officeType": "B.O",
    "Deliverystatus": "Delivery",
    "divisionname": "Sindhudurg",
    "regionname": "Goa-Panaji",
    "circlename": "Maharashtra",
    "Taluk": "Kudal",
    "Districtname": "Sindhudurg",
    "statename": "MAHARASHTRA"
  },
  {
    "pincode": "416520",
    "officename": "Mandkuli B.O",
    "officeType": "B.O",
    "Deliverystatus": "Delivery",
    "divisionname": "Sindhudurg",
    "regionname": "Goa-Panaji",
    "circlename": "Maharashtra",
    "Taluk": "Kudal",
    "Districtname": "Sindhudurg",
    "statename": "MAHARASHTRA"
  },
  {
    "pincode": "416520",
    "officename": "Mulde B.O",
    "officeType": "B.O",
    "Deliverystatus": "Delivery",
    "divisionname": "Sindhudurg",
    "regionname": "Goa-Panaji",
    "circlename": "Maharashtra",
    "Taluk": "Kudal",
    "Districtname": "Sindhudurg",
    "statename": "MAHARASHTRA"
  },
  {
    "pincode": "416520",
    "officename": "Pawashi B.O",
    "officeType": "B.O",
    "Deliverystatus": "Delivery",
    "divisionname": "Sindhudurg",
    "regionname": "Goa-Panaji",
    "circlename": "Maharashtra",
    "Taluk": "Kudal",
    "Districtname": "Sindhudurg",
    "statename": "MAHARASHTRA"
  },
  {
    "pincode": "416520",
    "officename": "Sarambal B.O",
    "officeType": "B.O",
    "Deliverystatus": "Delivery",
    "divisionname": "Sindhudurg",
    "regionname": "Goa-Panaji",
    "circlename": "Maharashtra",
    "Taluk": "Kudal",
    "Districtname": "Sindhudurg",
    "statename": "MAHARASHTRA"
  },
  {
    "pincode": "416520",
    "officename": "Sonavade B.O",
    "officeType": "B.O",
    "Deliverystatus": "Delivery",
    "divisionname": "Sindhudurg",
    "regionname": "Goa-Panaji",
    "circlename": "Maharashtra",
    "Taluk": "Kudal",
    "Districtname": "Sindhudurg",
    "statename": "MAHARASHTRA"
  },
  {
    "pincode": "416520",
    "officename": "Tendoli B.O",
    "officeType": "B.O",
    "Deliverystatus": "Delivery",
    "divisionname": "Sindhudurg",
    "regionname": "Goa-Panaji",
    "circlename": "Maharashtra",
    "Taluk": "Kudal",
    "Districtname": "Sindhudurg",
    "statename": "MAHARASHTRA"
  },
  {
    "pincode": "416520",
    "officename": "Terse Bambarde B.O",
    "officeType": "B.O",
    "Deliverystatus": "Delivery",
    "divisionname": "Sindhudurg",
    "regionname": "Goa-Panaji",
    "circlename": "Maharashtra",
    "Taluk": "Kudal",
    "Districtname": "Sindhudurg",
    "statename": "MAHARASHTRA"
  },
  {
    "pincode": "416520",
    "officename": "Tulsuli B.O",
    "officeType": "B.O",
    "Deliverystatus": "Delivery",
    "divisionname": "Sindhudurg",
    "regionname": "Goa-Panaji",
    "circlename": "Maharashtra",
    "Taluk": "Kudal",
    "Districtname": "Sindhudurg",
    "statename": "MAHARASHTRA"
  },
  {
    "pincode": "416520",
    "officename": "Vadivaravde B.O",
    "officeType": "B.O",
    "Deliverystatus": "Delivery",
    "divisionname": "Sindhudurg",
    "regionname": "Goa-Panaji",
    "circlename": "Maharashtra",
    "Taluk": "Kudal",
    "Districtname": "Sindhudurg",
    "statename": "MAHARASHTRA"
  },
  {
    "pincode": "416520",
    "officename": "Vetal Bambarde B.O",
    "officeType": "B.O",
    "Deliverystatus": "Delivery",
    "divisionname": "Sindhudurg",
    "regionname": "Goa-Panaji",
    "circlename": "Maharashtra",
    "Taluk": "Kudal",
    "Districtname": "Sindhudurg",
    "statename": "MAHARASHTRA"
  }
]
