[
  {
    "pincode": "416516",
    "officename": "Adeli B.O",
    "officeType": "B.O",
    "Deliverystatus": "Delivery",
    "divisionname": "Sindhudurg",
    "regionname": "Goa-Panaji",
    "circlename": "Maharashtra",
    "Taluk": "Vengurla",
    "Districtname": "Sindhudurg",
    "statename": "MAHARASHTRA"
  },
  {
    "pincode": "416516",
    "officename": "Ansur B.O",
    "officeType": "B.O",
    "Deliverystatus": "Delivery",
    "divisionname": "Sindhudurg",
    "regionname": "Goa-Panaji",
    "circlename": "Maharashtra",
    "Taluk": "Vengurla",
    "Districtname": "Sindhudurg",
    "statename": "MAHARASHTRA"
  },
  {
    "pincode": "416516",
    "officename": "Asolipal B.O",
    "officeType": "B.O",
    "Deliverystatus": "Delivery",
    "divisionname": "Sindhudurg",
    "regionname": "Goa-Panaji",
    "circlename": "Maharashtra",
    "Taluk": "Vengurla",
    "Districtname": "Sindhudurg",
    "statename": "MAHARASHTRA"
  },
  {
    "pincode": "416516",
    "officename": "Dabholi B.O",
    "officeType": "B.O",
    "Deliverystatus": "Delivery",
    "divisionname": "Sindhudurg",
    "regionname": "Goa-Panaji",
    "circlename": "Maharashtra",
    "Taluk": "Vengurla",
    "Districtname": "Sindhudurg",
    "statename": "MAHARASHTRA"
  },
  {
    "pincode": "416516",
    "officename": "Khanoli B.O",
    "officeType": "B.O",
    "Deliverystatus": "Delivery",
    "divisionname": "Sindhudurg",
    "regionname": "Goa-Panaji",
    "circlename": "Maharashtra",
    "Taluk": "Vengurla",
    "Districtname": "Sindhudurg",
    "statename": "MAHARASHTRA"
  },
  {
    "pincode": "416516",
    "officename": "Math B.O",
    "officeType": "B.O",
    "Deliverystatus": "Delivery",
    "divisionname": "Sindhudurg",
    "regionname": "Goa-Panaji",
    "circlename": "Maharashtra",
    "Taluk": "Vengurla",
    "Districtname": "Sindhudurg",
    "statename": "MAHARASHTRA"
  },
  {
    "pincode": "416516",
    "officename": "Ubhadanda B.O",
    "officeType": "B.O",
    "Deliverystatus": "Delivery",
    "divisionname": "Sindhudurg",
    "regionname": "Goa-Panaji",
    "circlename": "Maharashtra",
    "Taluk": "Vengurla",
    "Districtname": "Sindhudurg",
    "statename": "MAHARASHTRA"
  },
  {
    "pincode": "416516",
    "officename": "Vajarat B.O",
    "officeType": "B.O",
    "Deliverystatus": "Delivery",
    "divisionname": "Sindhudurg",
    "regionname": "Goa-Panaji",
    "circlename": "Maharashtra",
    "Taluk": "Vengurla",
    "Districtname": "Sindhudurg",
    "statename": "MAHARASHTRA"
  },
  {
    "pincode": "416516",
    "officename": "Vengurla Camp S.O",
    "officeType": "S.O",
    "Deliverystatus": "Non-Delivery",
    "divisionname": "Sindhudurg",
    "regionname": "Goa-Panaji",
    "circlename": "Maharashtra",
    "Taluk": "Vengurla",
    "Districtname": "Sindhudurg",
    "statename": "MAHARASHTRA"
  },
  {
    "pincode": "416516",
    "officename": "Vengurla S.O",
    "officeType": "S.O",
    "Deliverystatus": "Delivery",
    "divisionname": "Sindhudurg",
    "regionname": "Goa-Panaji",
    "circlename": "Maharashtra",
    "Taluk": "Vengurla",
    "Districtname": "Sindhudurg",
    "statename": "MAHARASHTRA"
  },
  {
    "pincode": "416516",
    "officename": "Vetore B.O",
    "officeType": "B.O",
    "Deliverystatus": "Delivery",
    "divisionname": "Sindhudurg",
    "regionname": "Goa-Panaji",
    "circlename": "Maharashtra",
    "Taluk": "Vengurla",
    "Districtname": "Sindhudurg",
    "statename": "MAHARASHTRA"
  },
  {
    "pincode": "416516",
    "officename": "Wainganiwadi B.O",
    "officeType": "B.O",
    "Deliverystatus": "Delivery",
    "divisionname": "Sindhudurg",
    "regionname": "Goa-Panaji",
    "circlename": "Maharashtra",
    "Taluk": "Vengurla",
    "Districtname": "Sindhudurg",
    "statename": "MAHARASHTRA"
  }
]
