[
  {
    "pincode": "416518",
    "officename": "Ajgaon B.O",
    "officeType": "B.O",
    "Deliverystatus": "Delivery",
    "divisionname": "Sindhudurg",
    "regionname": "Goa-Panaji",
    "circlename": "Maharashtra",
    "Taluk": "Sawantwadi",
    "Districtname": "Sindhudurg",
    "statename": "MAHARASHTRA"
  },
  {
    "pincode": "416518",
    "officename": "Aravli B.O",
    "officeType": "B.O",
    "Deliverystatus": "Delivery",
    "divisionname": "Sindhudurg",
    "regionname": "Goa-Panaji",
    "circlename": "Maharashtra",
    "Taluk": "Vengurla",
    "Districtname": "Sindhudurg",
    "statename": "MAHARASHTRA"
  },
  {
    "pincode": "416518",
    "officename": "Asoli B.O",
    "officeType": "B.O",
    "Deliverystatus": "Delivery",
    "divisionname": "Sindhudurg",
    "regionname": "Goa-Panaji",
    "circlename": "Maharashtra",
    "Taluk": "Vengurla",
    "Districtname": "Sindhudurg",
    "statename": "MAHARASHTRA"
  },
  {
    "pincode": "416518",
    "officename": "Dhakore B.O",
    "officeType": "B.O",
    "Deliverystatus": "Delivery",
    "divisionname": "Sindhudurg",
    "regionname": "Goa-Panaji",
    "circlename": "Maharashtra",
    "Taluk": "Vengurla",
    "Districtname": "Sindhudurg",
    "statename": "MAHARASHTRA"
  },
  {
    "pincode": "416518",
    "officename": "Shiroda S.O (Sindhudurg)",
    "officeType": "S.O",
    "Deliverystatus": "Delivery",
    "divisionname": "Sindhudurg",
    "regionname": "Goa-Panaji",
    "circlename": "Maharashtra",
    "Taluk": "Vengurla",
    "Districtname": "Sindhudurg",
    "statename": "MAHARASHTRA"
  },
  {
    "pincode": "416518",
    "officename": "Tak B.O",
    "officeType": "B.O",
    "Deliverystatus": "Delivery",
    "divisionname": "Sindhudurg",
    "regionname": "Goa-Panaji",
    "circlename": "Maharashtra",
    "Taluk": "Vengurla",
    "Districtname": "Sindhudurg",
    "statename": "MAHARASHTRA"
  },
  {
    "pincode": "416518",
    "officename": "Tiravade B.O",
    "officeType": "B.O",
    "Deliverystatus": "Delivery",
    "divisionname": "Sindhudurg",
    "regionname": "Goa-Panaji",
    "circlename": "Maharashtra",
    "Taluk": "Vengurla",
    "Districtname": "Sindhudurg",
    "statename": "MAHARASHTRA"
  },
  {
    "pincode": "416518",
    "officename": "Wadkhol B.O",
    "officeType": "B.O",
    "Deliverystatus": "Delivery",
    "divisionname": "Sindhudurg",
    "regionname": "Goa-Panaji",
    "circlename": "Maharashtra",
    "Taluk": "Vengurla",
    "Districtname": "Sindhudurg",
    "statename": "MAHARASHTRA"
  }
]
