[
  {
    "pincode": "416507",
    "officename": "Basarge B.O",
    "officeType": "B.O",
    "Deliverystatus": "Delivery",
    "divisionname": "Kolhapur",
    "regionname": "Goa-Panaji",
    "circlename": "Maharashtra",
    "Taluk": "Chandgad",
    "Districtname": "Kolhapur",
    "statename": "MAHARASHTRA"
  },
  {
    "pincode": "416507",
    "officename": "Dholgarwadi B.O",
    "officeType": "B.O",
    "Deliverystatus": "Delivery",
    "divisionname": "Kolhapur",
    "regionname": "Goa-Panaji",
    "circlename": "Maharashtra",
    "Taluk": "Gadhinglaj",
    "Districtname": "Kolhapur",
    "statename": "MAHARASHTRA"
  },
  {
    "pincode": "416507",
    "officename": "Dukkarwadi B.O",
    "officeType": "B.O",
    "Deliverystatus": "Delivery",
    "divisionname": "Kolhapur",
    "regionname": "Goa-Panaji",
    "circlename": "Maharashtra",
    "Taluk": "Chandgad",
    "Districtname": "Kolhapur",
    "statename": "MAHARASHTRA"
  },
  {
    "pincode": "416507",
    "officename": "Hajgoli B.O",
    "officeType": "B.O",
    "Deliverystatus": "Delivery",
    "divisionname": "Kolhapur",
    "regionname": "Goa-Panaji",
    "circlename": "Maharashtra",
    "Taluk": "Chandgad",
    "Districtname": "Kolhapur",
    "statename": "MAHARASHTRA"
  },
  {
    "pincode": "416507",
    "officename": "Jangamhatti B.O",
    "officeType": "B.O",
    "Deliverystatus": "Delivery",
    "divisionname": "Kolhapur",
    "regionname": "Goa-Panaji",
    "circlename": "Maharashtra",
    "Taluk": "Chandgad",
    "Districtname": "Kolhapur",
    "statename": "MAHARASHTRA"
  },
  {
    "pincode": "416507",
    "officename": "Kanur Khurd B.O",
    "officeType": "B.O",
    "Deliverystatus": "Delivery",
    "divisionname": "Kolhapur",
    "regionname": "Goa-Panaji",
    "circlename": "Maharashtra",
    "Taluk": "Chandgad",
    "Districtname": "Kolhapur",
    "statename": "MAHARASHTRA"
  },
  {
    "pincode": "416507",
    "officename": "Karve S.O",
    "officeType": "S.O",
    "Deliverystatus": "Delivery",
    "divisionname": "Kolhapur",
    "regionname": "Goa-Panaji",
    "circlename": "Maharashtra",
    "Taluk": "Gadhinglaj",
    "Districtname": "Kolhapur",
    "statename": "MAHARASHTRA"
  },
  {
    "pincode": "416507",
    "officename": "Mangaon B.O",
    "officeType": "B.O",
    "Deliverystatus": "Delivery",
    "divisionname": "Kolhapur",
    "regionname": "Goa-Panaji",
    "circlename": "Maharashtra",
    "Taluk": "Chandgad",
    "Districtname": "Kolhapur",
    "statename": "MAHARASHTRA"
  },
  {
    "pincode": "416507",
    "officename": "Mhalunge Khalsa B.O",
    "officeType": "B.O",
    "Deliverystatus": "Delivery",
    "divisionname": "Kolhapur",
    "regionname": "Goa-Panaji",
    "circlename": "Maharashtra",
    "Taluk": "Gadhinglaj",
    "Districtname": "Kolhapur",
    "statename": "MAHARASHTRA"
  },
  {
    "pincode": "416507",
    "officename": "Shinoli KH B.O",
    "officeType": "B.O",
    "Deliverystatus": "Delivery",
    "divisionname": "Kolhapur",
    "regionname": "Goa-Panaji",
    "circlename": "Maharashtra",
    "Taluk": "Chandgad",
    "Districtname": "Kolhapur",
    "statename": "MAHARASHTRA"
  },
  {
    "pincode": "416507",
    "officename": "Shivanage Lakkikatte B.O",
    "officeType": "B.O",
    "Deliverystatus": "Delivery",
    "divisionname": "Kolhapur",
    "regionname": "Goa-Panaji",
    "circlename": "Maharashtra",
    "Taluk": "Gadhinglaj",
    "Districtname": "Kolhapur",
    "statename": "MAHARASHTRA"
  },
  {
    "pincode": "416507",
    "officename": "Sundi B.O",
    "officeType": "B.O",
    "Deliverystatus": "Delivery",
    "divisionname": "Kolhapur",
    "regionname": "Goa-Panaji",
    "circlename": "Maharashtra",
    "Taluk": "Chandgad",
    "Districtname": "Kolhapur",
    "statename": "MAHARASHTRA"
  },
  {
    "pincode": "416507",
    "officename": "Surute B.O",
    "officeType": "B.O",
    "Deliverystatus": "Delivery",
    "divisionname": "Kolhapur",
    "regionname": "Goa-Panaji",
    "circlename": "Maharashtra",
    "Taluk": "Chandgad",
    "Districtname": "Kolhapur",
    "statename": "MAHARASHTRA"
  },
  {
    "pincode": "416507",
    "officename": "Tudiye B.O",
    "officeType": "B.O",
    "Deliverystatus": "Delivery",
    "divisionname": "Kolhapur",
    "regionname": "Goa-Panaji",
    "circlename": "Maharashtra",
    "Taluk": "Chandgad",
    "Districtname": "Kolhapur",
    "statename": "MAHARASHTRA"
  },
  {
    "pincode": "416507",
    "officename": "Turkewadi B.O",
    "officeType": "B.O",
    "Deliverystatus": "Delivery",
    "divisionname": "Kolhapur",
    "regionname": "Goa-Panaji",
    "circlename": "Maharashtra",
    "Taluk": "Gadhinglaj",
    "Districtname": "Kolhapur",
    "statename": "MAHARASHTRA"
  }
]
