[
  {
    "pincode": "416606",
    "officename": "Bilwas B.O",
    "officeType": "B.O",
    "Deliverystatus": "Delivery",
    "divisionname": "Sindhudurg",
    "regionname": "Goa-Panaji",
    "circlename": "Maharashtra",
    "Taluk": "",
    "Districtname": "Sindhudurg",
    "statename": "MAHARASHTRA"
  },
  {
    "pincode": "416606",
    "officename": "Devbag B.O",
    "officeType": "B.O",
    "Deliverystatus": "Delivery",
    "divisionname": "Sindhudurg",
    "regionname": "Goa-Panaji",
    "circlename": "Maharashtra",
    "Taluk": "Malvan",
    "Districtname": "Sindhudurg",
    "statename": "MAHARASHTRA"
  },
  {
    "pincode": "416606",
    "officename": "Devli B.O",
    "officeType": "B.O",
    "Deliverystatus": "Delivery",
    "divisionname": "Sindhudurg",
    "regionname": "Goa-Panaji",
    "circlename": "Maharashtra",
    "Taluk": "Malvan",
    "Districtname": "Sindhudurg",
    "statename": "MAHARASHTRA"
  },
  {
    "pincode": "416606",
    "officename": "Kandalgaon B.O",
    "officeType": "B.O",
    "Deliverystatus": "Delivery",
    "divisionname": "Sindhudurg",
    "regionname": "Goa-Panaji",
    "circlename": "Maharashtra",
    "Taluk": "Malvan",
    "Districtname": "Sindhudurg",
    "statename": "MAHARASHTRA"
  },
  {
    "pincode": "416606",
    "officename": "Khaida B.O",
    "officeType": "B.O",
    "Deliverystatus": "Delivery",
    "divisionname": "Sindhudurg",
    "regionname": "Goa-Panaji",
    "circlename": "Maharashtra",
    "Taluk": "Malvan",
    "Districtname": "Sindhudurg",
    "statename": "MAHARASHTRA"
  },
  {
    "pincode": "416606",
    "officename": "Kolamb B.O",
    "officeType": "B.O",
    "Deliverystatus": "Delivery",
    "divisionname": "Sindhudurg",
    "regionname": "Goa-Panaji",
    "circlename": "Maharashtra",
    "Taluk": "Malvan",
    "Districtname": "Sindhudurg",
    "statename": "MAHARASHTRA"
  },
  {
    "pincode": "416606",
    "officename": "Kumbharmath B.O",
    "officeType": "B.O",
    "Deliverystatus": "Delivery",
    "divisionname": "Sindhudurg",
    "regionname": "Goa-Panaji",
    "circlename": "Maharashtra",
    "Taluk": "Malvsn",
    "Districtname": "Sindhudurg",
    "statename": "MAHARASHTRA"
  },
  {
    "pincode": "416606",
    "officename": "Malgaon B.O",
    "officeType": "B.O",
    "Deliverystatus": "Delivery",
    "divisionname": "Sindhudurg",
    "regionname": "Goa-Panaji",
    "circlename": "Maharashtra",
    "Taluk": "Malvan",
    "Districtname": "Sindhudurg",
    "statename": "MAHARASHTRA"
  },
  {
    "pincode": "416606",
    "officename": "Malvan H.O",
    "officeType": "H.O",
    "Deliverystatus": "Delivery",
    "divisionname": "Sindhudurg",
    "regionname": "Goa-Panaji",
    "circlename": "Maharashtra",
    "Taluk": "Malvan",
    "Districtname": "Sindhudurg",
    "statename": "MAHARASHTRA"
  },
  {
    "pincode": "416606",
    "officename": "Revandi B.O",
    "officeType": "B.O",
    "Deliverystatus": "Delivery",
    "divisionname": "Sindhudurg",
    "regionname": "Goa-Panaji",
    "circlename": "Maharashtra",
    "Taluk": "Malvan",
    "Districtname": "Sindhudurg",
    "statename": "MAHARASHTRA"
  },
  {
    "pincode": "416606",
    "officename": "Sarjekot B.O",
    "officeType": "B.O",
    "Deliverystatus": "Delivery",
    "divisionname": "Sindhudurg",
    "regionname": "Goa-Panaji",
    "circlename": "Maharashtra",
    "Taluk": "Malvan",
    "Districtname": "Sindhudurg",
    "statename": "MAHARASHTRA"
  },
  {
    "pincode": "416606",
    "officename": "Tarkarli B.O",
    "officeType": "B.O",
    "Deliverystatus": "Delivery",
    "divisionname": "Sindhudurg",
    "regionname": "Goa-Panaji",
    "circlename": "Maharashtra",
    "Taluk": "Malvan",
    "Districtname": "Sindhudurg",
    "statename": "MAHARASHTRA"
  },
  {
    "pincode": "416606",
    "officename": "Wairy Bhutnath B.O",
    "officeType": "B.O",
    "Deliverystatus": "Delivery",
    "divisionname": "Sindhudurg",
    "regionname": "Goa-Panaji",
    "circlename": "Maharashtra",
    "Taluk": "Malvan",
    "Districtname": "Sindhudurg",
    "statename": "MAHARASHTRA"
  }
]
