[
  {
    "pincode": "416601",
    "officename": "Belnekhurd B.O",
    "officeType": "B.O",
    "Deliverystatus": "Delivery",
    "divisionname": "Sindhudurg",
    "regionname": "Goa-Panaji",
    "circlename": "Maharashtra",
    "Taluk": "Devgad",
    "Districtname": "Sindhudurg",
    "statename": "MAHARASHTRA"
  },
  {
    "pincode": "416601",
    "officename": "Damre B.O",
    "officeType": "B.O",
    "Deliverystatus": "Delivery",
    "divisionname": "Sindhudurg",
    "regionname": "Goa-Panaji",
    "circlename": "Maharashtra",
    "Taluk": "Devgad",
    "Districtname": "Sindhudurg",
    "statename": "MAHARASHTRA"
  },
  {
    "pincode": "416601",
    "officename": "Ghousari B.O",
    "officeType": "B.O",
    "Deliverystatus": "Delivery",
    "divisionname": "Sindhudurg",
    "regionname": "Goa-Panaji",
    "circlename": "Maharashtra",
    "Taluk": "Devgad",
    "Districtname": "Sindhudurg",
    "statename": "MAHARASHTRA"
  },
  {
    "pincode": "416601",
    "officename": "Harkul Khurd B.O",
    "officeType": "B.O",
    "Deliverystatus": "Delivery",
    "divisionname": "Sindhudurg",
    "regionname": "Goa-Panaji",
    "circlename": "Maharashtra",
    "Taluk": "Devgad",
    "Districtname": "Sindhudurg",
    "statename": "MAHARASHTRA"
  },
  {
    "pincode": "416601",
    "officename": "Karul B.O",
    "officeType": "B.O",
    "Deliverystatus": "Delivery",
    "divisionname": "Sindhudurg",
    "regionname": "Goa-Panaji",
    "circlename": "Maharashtra",
    "Taluk": "Devgad",
    "Districtname": "Sindhudurg",
    "statename": "MAHARASHTRA"
  },
  {
    "pincode": "416601",
    "officename": "Kurli B.O",
    "officeType": "B.O",
    "Deliverystatus": "Delivery",
    "divisionname": "Sindhudurg",
    "regionname": "Goa-Panaji",
    "circlename": "Maharashtra",
    "Taluk": "Devgad",
    "Districtname": "Sindhudurg",
    "statename": "MAHARASHTRA"
  },
  {
    "pincode": "416601",
    "officename": "Lore-II B.O",
    "officeType": "B.O",
    "Deliverystatus": "Delivery",
    "divisionname": "Sindhudurg",
    "regionname": "Goa-Panaji",
    "circlename": "Maharashtra",
    "Taluk": "Devgad",
    "Districtname": "Sindhudurg",
    "statename": "MAHARASHTRA"
  },
  {
    "pincode": "416601",
    "officename": "Lore-i B.O",
    "officeType": "B.O",
    "Deliverystatus": "Delivery",
    "divisionname": "Sindhudurg",
    "regionname": "Goa-Panaji",
    "circlename": "Maharashtra",
    "Taluk": "Devgad",
    "Districtname": "Sindhudurg",
    "statename": "MAHARASHTRA"
  },
  {
    "pincode": "416601",
    "officename": "Phondaghat S.O",
    "officeType": "S.O",
    "Deliverystatus": "Delivery",
    "divisionname": "Sindhudurg",
    "regionname": "Goa-Panaji",
    "circlename": "Maharashtra",
    "Taluk": "Devgad",
    "Districtname": "Sindhudurg",
    "statename": "MAHARASHTRA"
  },
  {
    "pincode": "416601",
    "officename": "Tondavali B.O",
    "officeType": "B.O",
    "Deliverystatus": "Delivery",
    "divisionname": "Sindhudurg",
    "regionname": "Goa-Panaji",
    "circlename": "Maharashtra",
    "Taluk": "Devgad",
    "Districtname": "Sindhudurg",
    "statename": "MAHARASHTRA"
  },
  {
    "pincode": "416601",
    "officename": "Wagheri B.O",
    "officeType": "B.O",
    "Deliverystatus": "Delivery",
    "divisionname": "Sindhudurg",
    "regionname": "Goa-Panaji",
    "circlename": "Maharashtra",
    "Taluk": "Devgad",
    "Districtname": "Sindhudurg",
    "statename": "MAHARASHTRA"
  }
]
