[
  {
    "pincode": "421302",
    "officename": "Amane B.O",
    "officeType": "B.O",
    "Deliverystatus": "Delivery",
    "divisionname": "Thane Central",
    "regionname": "Mumbai",
    "circlename": "Maharashtra",
    "Taluk": "Bhiwandi",
    "Districtname": "Thane",
    "statename": "MAHARASHTRA"
  },
  {
    "pincode": "421302",
    "officename": "Angaon B.O",
    "officeType": "B.O",
    "Deliverystatus": "Delivery",
    "divisionname": "Thane Central",
    "regionname": "Mumbai",
    "circlename": "Maharashtra",
    "Taluk": "Bhiwandi",
    "Districtname": "Thane",
    "statename": "MAHARASHTRA"
  },
  {
    "pincode": "421302",
    "officename": "Anjur B.O",
    "officeType": "B.O",
    "Deliverystatus": "Delivery",
    "divisionname": "Thane Central",
    "regionname": "Mumbai",
    "circlename": "Maharashtra",
    "Taluk": "Bhiwandi",
    "Districtname": "Thane",
    "statename": "MAHARASHTRA"
  },
  {
    "pincode": "421302",
    "officename": "Chimbipada B.O",
    "officeType": "B.O",
    "Deliverystatus": "Delivery",
    "divisionname": "Thane Central",
    "regionname": "Mumbai",
    "circlename": "Maharashtra",
    "Taluk": "Bhiwandi",
    "Districtname": "Thane",
    "statename": "MAHARASHTRA"
  },
  {
    "pincode": "421302",
    "officename": "Chinchwali B.O",
    "officeType": "B.O",
    "Deliverystatus": "Delivery",
    "divisionname": "Thane Central",
    "regionname": "Mumbai",
    "circlename": "Maharashtra",
    "Taluk": "Bhiwandi",
    "Districtname": "Thane",
    "statename": "MAHARASHTRA"
  },
  {
    "pincode": "421302",
    "officename": "Dabhad B.O",
    "officeType": "B.O",
    "Deliverystatus": "Delivery",
    "divisionname": "Thane Central",
    "regionname": "Mumbai",
    "circlename": "Maharashtra",
    "Taluk": "Bhiwandi",
    "Districtname": "Thane",
    "statename": "MAHARASHTRA"
  },
  {
    "pincode": "421302",
    "officename": "Dandekarwadi S.O",
    "officeType": "S.O",
    "Deliverystatus": "Delivery",
    "divisionname": "Thane Central",
    "regionname": "Mumbai",
    "circlename": "Maharashtra",
    "Taluk": "",
    "Districtname": "Thane",
    "statename": "MAHARASHTRA"
  },
  {
    "pincode": "421302",
    "officename": "Dighashi B.O",
    "officeType": "B.O",
    "Deliverystatus": "Delivery",
    "divisionname": "Thane Central",
    "regionname": "Mumbai",
    "circlename": "Maharashtra",
    "Taluk": "Bhiwandi",
    "Districtname": "Thane",
    "statename": "MAHARASHTRA"
  },
  {
    "pincode": "421302",
    "officename": "Dugad B.O",
    "officeType": "B.O",
    "Deliverystatus": "Delivery",
    "divisionname": "Thane Central",
    "regionname": "Mumbai",
    "circlename": "Maharashtra",
    "Taluk": "Bhiwandi",
    "Districtname": "Thane",
    "statename": "MAHARASHTRA"
  },
  {
    "pincode": "421302",
    "officename": "Dunge B.O",
    "officeType": "B.O",
    "Deliverystatus": "Delivery",
    "divisionname": "Thane Central",
    "regionname": "Mumbai",
    "circlename": "Maharashtra",
    "Taluk": "Bhiwandi",
    "Districtname": "Thane",
    "statename": "MAHARASHTRA"
  },
  {
    "pincode": "421302",
    "officename": "Kalher B.O",
    "officeType": "B.O",
    "Deliverystatus": "Delivery",
    "divisionname": "Thane Central",
    "regionname": "Mumbai",
    "circlename": "Maharashtra",
    "Taluk": "Bhiwandi",
    "Districtname": "Thane",
    "statename": "MAHARASHTRA"
  },
  {
    "pincode": "421302",
    "officename": "Kharbav B.O",
    "officeType": "B.O",
    "Deliverystatus": "Delivery",
    "divisionname": "Thane Central",
    "regionname": "Mumbai",
    "circlename": "Maharashtra",
    "Taluk": "Bhiwandi",
    "Districtname": "Thane",
    "statename": "MAHARASHTRA"
  },
  {
    "pincode": "421302",
    "officename": "Kunde B.O",
    "officeType": "B.O",
    "Deliverystatus": "Delivery",
    "divisionname": "Thane Central",
    "regionname": "Mumbai",
    "circlename": "Maharashtra",
    "Taluk": "Bhiwandi",
    "Districtname": "Thane",
    "statename": "MAHARASHTRA"
  },
  {
    "pincode": "421302",
    "officename": "Lonad B.O",
    "officeType": "B.O",
    "Deliverystatus": "Delivery",
    "divisionname": "Thane Central",
    "regionname": "Mumbai",
    "circlename": "Maharashtra",
    "Taluk": "Bhiwandi",
    "Districtname": "Thane",
    "statename": "MAHARASHTRA"
  },
  {
    "pincode": "421302",
    "officename": "Mahapoli B.O",
    "officeType": "B.O",
    "Deliverystatus": "Delivery",
    "divisionname": "Thane Central",
    "regionname": "Mumbai",
    "circlename": "Maharashtra",
    "Taluk": "Bhiwandi",
    "Districtname": "Thane",
    "statename": "MAHARASHTRA"
  },
  {
    "pincode": "421302",
    "officename": "Pachhapur B.O",
    "officeType": "B.O",
    "Deliverystatus": "Delivery",
    "divisionname": "Thane Central",
    "regionname": "Mumbai",
    "circlename": "Maharashtra",
    "Taluk": "Bhiwandi",
    "Districtname": "Thane",
    "statename": "MAHARASHTRA"
  },
  {
    "pincode": "421302",
    "officename": "Paye B.O",
    "officeType": "B.O",
    "Deliverystatus": "Delivery",
    "divisionname": "Thane Central",
    "regionname": "Mumbai",
    "circlename": "Maharashtra",
    "Taluk": "Bhiwandi",
    "Districtname": "Thane",
    "statename": "MAHARASHTRA"
  },
  {
    "pincode": "421302",
    "officename": "Rehnal B.O",
    "officeType": "B.O",
    "Deliverystatus": "Delivery",
    "divisionname": "Thane Central",
    "regionname": "Mumbai",
    "circlename": "Maharashtra",
    "Taluk": "Bhiwandi",
    "Districtname": "Thane",
    "statename": "MAHARASHTRA"
  },
  {
    "pincode": "421302",
    "officename": "Shantinagar E.D. B.O",
    "officeType": "B.O",
    "Deliverystatus": "Non-Delivery",
    "divisionname": "Thane Central",
    "regionname": "Mumbai",
    "circlename": "Maharashtra",
    "Taluk": "Bhiwandi",
    "Districtname": "Thane",
    "statename": "MAHARASHTRA"
  },
  {
    "pincode": "421302",
    "officename": "Shastrinagar S.O (Thane)",
    "officeType": "S.O",
    "Deliverystatus": "Non-Delivery",
    "divisionname": "Thane Central",
    "regionname": "Mumbai",
    "circlename": "Maharashtra",
    "Taluk": "Bhiwandi",
    "Districtname": "Thane",
    "statename": "MAHARASHTRA"
  },
  {
    "pincode": "421302",
    "officename": "Shelar B.O",
    "officeType": "B.O",
    "Deliverystatus": "Delivery",
    "divisionname": "Thane Central",
    "regionname": "Mumbai",
    "circlename": "Maharashtra",
    "Taluk": "Bhiwandi",
    "Districtname": "Thane",
    "statename": "MAHARASHTRA"
  },
  {
    "pincode": "421302",
    "officename": "Vadavali B.O",
    "officeType": "B.O",
    "Deliverystatus": "Delivery",
    "divisionname": "Thane Central",
    "regionname": "Mumbai",
    "circlename": "Maharashtra",
    "Taluk": "Bhiwandi",
    "Districtname": "Thane",
    "statename": "MAHARASHTRA"
  },
  {
    "pincode": "421302",
    "officename": "Vadpe B.O",
    "officeType": "B.O",
    "Deliverystatus": "Delivery",
    "divisionname": "Thane Central",
    "regionname": "Mumbai",
    "circlename": "Maharashtra",
    "Taluk": "Bhiwandi",
    "Districtname": "Thane",
    "statename": "MAHARASHTRA"
  }
]
