[
  {
    "pincode": "421303",
    "officename": "Abitghar B.O",
    "officeType": "B.O",
    "Deliverystatus": "Delivery",
    "divisionname": "Thane West",
    "regionname": "Mumbai",
    "circlename": "Maharashtra",
    "Taluk": "Wada",
    "Districtname": "Thane",
    "statename": "MAHARASHTRA"
  },
  {
    "pincode": "421303",
    "officename": "Abje B.O",
    "officeType": "B.O",
    "Deliverystatus": "Delivery",
    "divisionname": "Thane West",
    "regionname": "Mumbai",
    "circlename": "Maharashtra",
    "Taluk": "Wada",
    "Districtname": "Thane",
    "statename": "MAHARASHTRA"
  },
  {
    "pincode": "421303",
    "officename": "Alonde B.O",
    "officeType": "B.O",
    "Deliverystatus": "Delivery",
    "divisionname": "Thane West",
    "regionname": "Mumbai",
    "circlename": "Maharashtra",
    "Taluk": "Dahanu",
    "Districtname": "Thane",
    "statename": "MAHARASHTRA"
  },
  {
    "pincode": "421303",
    "officename": "Baliwali B.O",
    "officeType": "B.O",
    "Deliverystatus": "Delivery",
    "divisionname": "Thane West",
    "regionname": "Mumbai",
    "circlename": "Maharashtra",
    "Taluk": "Vada",
    "Districtname": "Thane",
    "statename": "MAHARASHTRA"
  },
  {
    "pincode": "421303",
    "officename": "Dohe B.O",
    "officeType": "B.O",
    "Deliverystatus": "Delivery",
    "divisionname": "Thane West",
    "regionname": "Mumbai",
    "circlename": "Maharashtra",
    "Taluk": "Vada",
    "Districtname": "Thane",
    "statename": "MAHARASHTRA"
  },
  {
    "pincode": "421303",
    "officename": "Gargoan B.O",
    "officeType": "B.O",
    "Deliverystatus": "Delivery",
    "divisionname": "Thane West",
    "regionname": "Mumbai",
    "circlename": "Maharashtra",
    "Taluk": "Vada",
    "Districtname": "Thane",
    "statename": "MAHARASHTRA"
  },
  {
    "pincode": "421303",
    "officename": "Gorhe B.O",
    "officeType": "B.O",
    "Deliverystatus": "Delivery",
    "divisionname": "Thane West",
    "regionname": "Mumbai",
    "circlename": "Maharashtra",
    "Taluk": "Vada",
    "Districtname": "Thane",
    "statename": "MAHARASHTRA"
  },
  {
    "pincode": "421303",
    "officename": "Hamarapur B.O",
    "officeType": "B.O",
    "Deliverystatus": "Delivery",
    "divisionname": "Thane West",
    "regionname": "Mumbai",
    "circlename": "Maharashtra",
    "Taluk": "Vada",
    "Districtname": "Thane",
    "statename": "MAHARASHTRA"
  },
  {
    "pincode": "421303",
    "officename": "Kalambe B.O",
    "officeType": "B.O",
    "Deliverystatus": "Delivery",
    "divisionname": "Thane West",
    "regionname": "Mumbai",
    "circlename": "Maharashtra",
    "Taluk": "Vada",
    "Districtname": "Thane",
    "statename": "MAHARASHTRA"
  },
  {
    "pincode": "421303",
    "officename": "Kanchad B.O",
    "officeType": "B.O",
    "Deliverystatus": "Delivery",
    "divisionname": "Thane West",
    "regionname": "Mumbai",
    "circlename": "Maharashtra",
    "Taluk": "Vada",
    "Districtname": "Thane",
    "statename": "MAHARASHTRA"
  },
  {
    "pincode": "421303",
    "officename": "Khare Ambiwali B.O",
    "officeType": "B.O",
    "Deliverystatus": "Delivery",
    "divisionname": "Thane West",
    "regionname": "Mumbai",
    "circlename": "Maharashtra",
    "Taluk": "Vada",
    "Districtname": "Thane",
    "statename": "MAHARASHTRA"
  },
  {
    "pincode": "421303",
    "officename": "Khariwali B.O",
    "officeType": "B.O",
    "Deliverystatus": "Delivery",
    "divisionname": "Thane West",
    "regionname": "Mumbai",
    "circlename": "Maharashtra",
    "Taluk": "Vada",
    "Districtname": "Thane",
    "statename": "MAHARASHTRA"
  },
  {
    "pincode": "421303",
    "officename": "Kone B.O",
    "officeType": "B.O",
    "Deliverystatus": "Delivery",
    "divisionname": "Thane West",
    "regionname": "Mumbai",
    "circlename": "Maharashtra",
    "Taluk": "Vada",
    "Districtname": "Thane",
    "statename": "MAHARASHTRA"
  },
  {
    "pincode": "421303",
    "officename": "Mala B.O",
    "officeType": "B.O",
    "Deliverystatus": "Delivery",
    "divisionname": "Thane West",
    "regionname": "Mumbai",
    "circlename": "Maharashtra",
    "Taluk": "Vikramgad",
    "Districtname": "Thane",
    "statename": "MAHARASHTRA"
  },
  {
    "pincode": "421303",
    "officename": "Malwada B.O",
    "officeType": "B.O",
    "Deliverystatus": "Delivery",
    "divisionname": "Thane West",
    "regionname": "Mumbai",
    "circlename": "Maharashtra",
    "Taluk": "Vikramgad",
    "Districtname": "Thane",
    "statename": "MAHARASHTRA"
  },
  {
    "pincode": "421303",
    "officename": "Maniwali B.O",
    "officeType": "B.O",
    "Deliverystatus": "Delivery",
    "divisionname": "Thane West",
    "regionname": "Mumbai",
    "circlename": "Maharashtra",
    "Taluk": "Vada",
    "Districtname": "Thane",
    "statename": "MAHARASHTRA"
  },
  {
    "pincode": "421303",
    "officename": "Moj B.O",
    "officeType": "B.O",
    "Deliverystatus": "Delivery",
    "divisionname": "Thane West",
    "regionname": "Mumbai",
    "circlename": "Maharashtra",
    "Taluk": "Vada",
    "Districtname": "Thane",
    "statename": "MAHARASHTRA"
  },
  {
    "pincode": "421303",
    "officename": "Parali B.O",
    "officeType": "B.O",
    "Deliverystatus": "Delivery",
    "divisionname": "Thane West",
    "regionname": "Mumbai",
    "circlename": "Maharashtra",
    "Taluk": "Vada",
    "Districtname": "Thane",
    "statename": "MAHARASHTRA"
  },
  {
    "pincode": "421303",
    "officename": "Pik B.O",
    "officeType": "B.O",
    "Deliverystatus": "Delivery",
    "divisionname": "Thane West",
    "regionname": "Mumbai",
    "circlename": "Maharashtra",
    "Taluk": "Vada",
    "Districtname": "Thane",
    "statename": "MAHARASHTRA"
  },
  {
    "pincode": "421303",
    "officename": "Posheri B.O",
    "officeType": "B.O",
    "Deliverystatus": "Delivery",
    "divisionname": "Thane West",
    "regionname": "Mumbai",
    "circlename": "Maharashtra",
    "Taluk": "Vada",
    "Districtname": "Thane",
    "statename": "MAHARASHTRA"
  },
  {
    "pincode": "421303",
    "officename": "Sonale B.O",
    "officeType": "B.O",
    "Deliverystatus": "Delivery",
    "divisionname": "Thane West",
    "regionname": "Mumbai",
    "circlename": "Maharashtra",
    "Taluk": "Vada",
    "Districtname": "Thane",
    "statename": "MAHARASHTRA"
  },
  {
    "pincode": "421303",
    "officename": "Tuse B.O",
    "officeType": "B.O",
    "Deliverystatus": "Delivery",
    "divisionname": "Thane West",
    "regionname": "Mumbai",
    "circlename": "Maharashtra",
    "Taluk": "Vada",
    "Districtname": "Thane",
    "statename": "MAHARASHTRA"
  },
  {
    "pincode": "421303",
    "officename": "Utawali B.O",
    "officeType": "B.O",
    "Deliverystatus": "Delivery",
    "divisionname": "Thane West",
    "regionname": "Mumbai",
    "circlename": "Maharashtra",
    "Taluk": "Vikramgad",
    "Districtname": "Thane",
    "statename": "MAHARASHTRA"
  },
  {
    "pincode": "421303",
    "officename": "Varale B.O",
    "officeType": "B.O",
    "Deliverystatus": "Delivery",
    "divisionname": "Thane West",
    "regionname": "Mumbai",
    "circlename": "Maharashtra",
    "Taluk": "Vada",
    "Districtname": "Thane",
    "statename": "MAHARASHTRA"
  },
  {
    "pincode": "421303",
    "officename": "Vilkos B.O",
    "officeType": "B.O",
    "Deliverystatus": "Delivery",
    "divisionname": "Thane West",
    "regionname": "Mumbai",
    "circlename": "Maharashtra",
    "Taluk": "Vada",
    "Districtname": "Thane",
    "statename": "MAHARASHTRA"
  },
  {
    "pincode": "421303",
    "officename": "Wada S.O",
    "officeType": "S.O",
    "Deliverystatus": "Delivery",
    "divisionname": "Thane West",
    "regionname": "Mumbai",
    "circlename": "Maharashtra",
    "Taluk": "Wada",
    "Districtname": "Thane",
    "statename": "MAHARASHTRA"
  },
  {
    "pincode": "421303",
    "officename": "Waki B.O",
    "officeType": "B.O",
    "Deliverystatus": "Delivery",
    "divisionname": "Thane West",
    "regionname": "Mumbai",
    "circlename": "Maharashtra",
    "Taluk": "Vikramgad",
    "Districtname": "Thane",
    "statename": "MAHARASHTRA"
  }
]
