[
  {
    "pincode": "421601",
    "officename": "Aghai B.O",
    "officeType": "B.O",
    "Deliverystatus": "Delivery",
    "divisionname": "Thane Central",
    "regionname": "Mumbai",
    "circlename": "Maharashtra",
    "Taluk": "Kalyan",
    "Districtname": "Thane",
    "statename": "MAHARASHTRA"
  },
  {
    "pincode": "421601",
    "officename": "Alyani B.O",
    "officeType": "B.O",
    "Deliverystatus": "Delivery",
    "divisionname": "Thane Central",
    "regionname": "Mumbai",
    "circlename": "Maharashtra",
    "Taluk": "Shahapur",
    "Districtname": "Thane",
    "statename": "MAHARASHTRA"
  },
  {
    "pincode": "421601",
    "officename": "Ambarje B.O",
    "officeType": "B.O",
    "Deliverystatus": "Delivery",
    "divisionname": "Thane Central",
    "regionname": "Mumbai",
    "circlename": "Maharashtra",
    "Taluk": "Kalyan",
    "Districtname": "Thane",
    "statename": "MAHARASHTRA"
  },
  {
    "pincode": "421601",
    "officename": "Andad B.O",
    "officeType": "B.O",
    "Deliverystatus": "Delivery",
    "divisionname": "Thane Central",
    "regionname": "Mumbai",
    "circlename": "Maharashtra",
    "Taluk": "Shahapur",
    "Districtname": "Thane",
    "statename": "MAHARASHTRA"
  },
  {
    "pincode": "421601",
    "officename": "Asangaon B.O",
    "officeType": "B.O",
    "Deliverystatus": "Delivery",
    "divisionname": "Thane Central",
    "regionname": "Mumbai",
    "circlename": "Maharashtra",
    "Taluk": "Kalyan",
    "Districtname": "Thane",
    "statename": "MAHARASHTRA"
  },
  {
    "pincode": "421601",
    "officename": "Atgaon B.O",
    "officeType": "B.O",
    "Deliverystatus": "Delivery",
    "divisionname": "Thane Central",
    "regionname": "Mumbai",
    "circlename": "Maharashtra",
    "Taluk": "Kalyan",
    "Districtname": "Thane",
    "statename": "MAHARASHTRA"
  },
  {
    "pincode": "421601",
    "officename": "Aware B.O",
    "officeType": "B.O",
    "Deliverystatus": "Delivery",
    "divisionname": "Thane Central",
    "regionname": "Mumbai",
    "circlename": "Maharashtra",
    "Taluk": "Shahapur",
    "Districtname": "Thane",
    "statename": "MAHARASHTRA"
  },
  {
    "pincode": "421601",
    "officename": "Chande B.O",
    "officeType": "B.O",
    "Deliverystatus": "Delivery",
    "divisionname": "Thane Central",
    "regionname": "Mumbai",
    "circlename": "Maharashtra",
    "Taluk": "Kalyan",
    "Districtname": "Thane",
    "statename": "MAHARASHTRA"
  },
  {
    "pincode": "421601",
    "officename": "Chondhe Colony B.O",
    "officeType": "B.O",
    "Deliverystatus": "Delivery",
    "divisionname": "Thane Central",
    "regionname": "Mumbai",
    "circlename": "Maharashtra",
    "Taluk": "Shahapur",
    "Districtname": "Thane",
    "statename": "MAHARASHTRA"
  },
  {
    "pincode": "421601",
    "officename": "Dalkhan B.O",
    "officeType": "B.O",
    "Deliverystatus": "Delivery",
    "divisionname": "Thane Central",
    "regionname": "Mumbai",
    "circlename": "Maharashtra",
    "Taluk": "Kalyan",
    "Districtname": "Thane",
    "statename": "MAHARASHTRA"
  },
  {
    "pincode": "421601",
    "officename": "Dhasai B.O",
    "officeType": "B.O",
    "Deliverystatus": "Delivery",
    "divisionname": "Thane Central",
    "regionname": "Mumbai",
    "circlename": "Maharashtra",
    "Taluk": "Shahapur",
    "Districtname": "Thane",
    "statename": "MAHARASHTRA"
  },
  {
    "pincode": "421601",
    "officename": "Dolkhamb B.O",
    "officeType": "B.O",
    "Deliverystatus": "Delivery",
    "divisionname": "Thane Central",
    "regionname": "Mumbai",
    "circlename": "Maharashtra",
    "Taluk": "Shahapur",
    "Districtname": "Thane",
    "statename": "MAHARASHTRA"
  },
  {
    "pincode": "421601",
    "officename": "Gunde B.O",
    "officeType": "B.O",
    "Deliverystatus": "Delivery",
    "divisionname": "Thane Central",
    "regionname": "Mumbai",
    "circlename": "Maharashtra",
    "Taluk": "Shahapur",
    "Districtname": "Thane",
    "statename": "MAHARASHTRA"
  },
  {
    "pincode": "421601",
    "officename": "Kalamgaon B.O",
    "officeType": "B.O",
    "Deliverystatus": "Delivery",
    "divisionname": "Thane Central",
    "regionname": "Mumbai",
    "circlename": "Maharashtra",
    "Taluk": "Kalyan",
    "Districtname": "Thane",
    "statename": "MAHARASHTRA"
  },
  {
    "pincode": "421601",
    "officename": "Kharade B.O",
    "officeType": "B.O",
    "Deliverystatus": "Delivery",
    "divisionname": "Thane Central",
    "regionname": "Mumbai",
    "circlename": "Maharashtra",
    "Taluk": "Shahapur",
    "Districtname": "Thane",
    "statename": "MAHARASHTRA"
  },
  {
    "pincode": "421601",
    "officename": "Khardi B.O",
    "officeType": "B.O",
    "Deliverystatus": "Delivery",
    "divisionname": "Thane Central",
    "regionname": "Mumbai",
    "circlename": "Maharashtra",
    "Taluk": "Kalyan",
    "Districtname": "Thane",
    "statename": "MAHARASHTRA"
  },
  {
    "pincode": "421601",
    "officename": "Khutghar B.O",
    "officeType": "B.O",
    "Deliverystatus": "Delivery",
    "divisionname": "Thane Central",
    "regionname": "Mumbai",
    "circlename": "Maharashtra",
    "Taluk": "Shahapur",
    "Districtname": "Thane",
    "statename": "MAHARASHTRA"
  },
  {
    "pincode": "421601",
    "officename": "Lenad Khurd B.O",
    "officeType": "B.O",
    "Deliverystatus": "Delivery",
    "divisionname": "Thane Central",
    "regionname": "Mumbai",
    "circlename": "Maharashtra",
    "Taluk": "Shahapur",
    "Districtname": "Thane",
    "statename": "MAHARASHTRA"
  },
  {
    "pincode": "421601",
    "officename": "Nandgaon B.O",
    "officeType": "B.O",
    "Deliverystatus": "Delivery",
    "divisionname": "Thane Central",
    "regionname": "Mumbai",
    "circlename": "Maharashtra",
    "Taluk": "Shahapur",
    "Districtname": "Thane",
    "statename": "MAHARASHTRA"
  },
  {
    "pincode": "421601",
    "officename": "Piwali B.O",
    "officeType": "B.O",
    "Deliverystatus": "Delivery",
    "divisionname": "Thane Central",
    "regionname": "Mumbai",
    "circlename": "Maharashtra",
    "Taluk": "Kalyan",
    "Districtname": "Thane",
    "statename": "MAHARASHTRA"
  },
  {
    "pincode": "421601",
    "officename": "Sakadbav B.O",
    "officeType": "B.O",
    "Deliverystatus": "Delivery",
    "divisionname": "Thane Central",
    "regionname": "Mumbai",
    "circlename": "Maharashtra",
    "Taluk": "Shahapur",
    "Districtname": "Thane",
    "statename": "MAHARASHTRA"
  },
  {
    "pincode": "421601",
    "officename": "Sakurli B.O",
    "officeType": "B.O",
    "Deliverystatus": "Delivery",
    "divisionname": "Thane Central",
    "regionname": "Mumbai",
    "circlename": "Maharashtra",
    "Taluk": "Shahapur",
    "Districtname": "Thane",
    "statename": "MAHARASHTRA"
  },
  {
    "pincode": "421601",
    "officename": "Saralambe B.O",
    "officeType": "B.O",
    "Deliverystatus": "Delivery",
    "divisionname": "Thane Central",
    "regionname": "Mumbai",
    "circlename": "Maharashtra",
    "Taluk": "Shahapur",
    "Districtname": "Thane",
    "statename": "MAHARASHTRA"
  },
  {
    "pincode": "421601",
    "officename": "Sawaroli B.O",
    "officeType": "B.O",
    "Deliverystatus": "Delivery",
    "divisionname": "Thane Central",
    "regionname": "Mumbai",
    "circlename": "Maharashtra",
    "Taluk": "Shahapur",
    "Districtname": "Thane",
    "statename": "MAHARASHTRA"
  },
  {
    "pincode": "421601",
    "officename": "Shahapur S.O (Thane)",
    "officeType": "S.O",
    "Deliverystatus": "Delivery",
    "divisionname": "Thane Central",
    "regionname": "Mumbai",
    "circlename": "Maharashtra",
    "Taluk": "Shahapur",
    "Districtname": "Thane",
    "statename": "MAHARASHTRA"
  },
  {
    "pincode": "421601",
    "officename": "Shenwa B.O",
    "officeType": "B.O",
    "Deliverystatus": "Delivery",
    "divisionname": "Thane Central",
    "regionname": "Mumbai",
    "circlename": "Maharashtra",
    "Taluk": "Shahapur",
    "Districtname": "Thane",
    "statename": "MAHARASHTRA"
  },
  {
    "pincode": "421601",
    "officename": "Shere B.O",
    "officeType": "B.O",
    "Deliverystatus": "Delivery",
    "divisionname": "Thane Central",
    "regionname": "Mumbai",
    "circlename": "Maharashtra",
    "Taluk": "Kalyan",
    "Districtname": "Thane",
    "statename": "MAHARASHTRA"
  },
  {
    "pincode": "421601",
    "officename": "Shirgaon B.O",
    "officeType": "B.O",
    "Deliverystatus": "Delivery",
    "divisionname": "Thane Central",
    "regionname": "Mumbai",
    "circlename": "Maharashtra",
    "Taluk": "Shahapur",
    "Districtname": "Thane",
    "statename": "MAHARASHTRA"
  },
  {
    "pincode": "421601",
    "officename": "Tansa B.O",
    "officeType": "B.O",
    "Deliverystatus": "Delivery",
    "divisionname": "Thane Central",
    "regionname": "Mumbai",
    "circlename": "Maharashtra",
    "Taluk": "Kalyan",
    "Districtname": "Thane",
    "statename": "MAHARASHTRA"
  },
  {
    "pincode": "421601",
    "officename": "Tembhurli B.O",
    "officeType": "B.O",
    "Deliverystatus": "Delivery",
    "divisionname": "Thane Central",
    "regionname": "Mumbai",
    "circlename": "Maharashtra",
    "Taluk": "Shahapur",
    "Districtname": "Thane",
    "statename": "MAHARASHTRA"
  },
  {
    "pincode": "421601",
    "officename": "Vaitarna B.O",
    "officeType": "B.O",
    "Deliverystatus": "Delivery",
    "divisionname": "Thane Central",
    "regionname": "Mumbai",
    "circlename": "Maharashtra",
    "Taluk": "Kalyan",
    "Districtname": "Thane",
    "statename": "MAHARASHTRA"
  },
  {
    "pincode": "421601",
    "officename": "Vashind E.D. B.O",
    "officeType": "B.O",
    "Deliverystatus": "Delivery",
    "divisionname": "Thane Central",
    "regionname": "Mumbai",
    "circlename": "Maharashtra",
    "Taluk": "Shahapur",
    "Districtname": "Thane",
    "statename": "MAHARASHTRA"
  },
  {
    "pincode": "421601",
    "officename": "Vehele B.O",
    "officeType": "B.O",
    "Deliverystatus": "Delivery",
    "divisionname": "Thane Central",
    "regionname": "Mumbai",
    "circlename": "Maharashtra",
    "Taluk": "Kalyan",
    "Districtname": "Thane",
    "statename": "MAHARASHTRA"
  },
  {
    "pincode": "421601",
    "officename": "Vehloli B.O",
    "officeType": "B.O",
    "Deliverystatus": "Delivery",
    "divisionname": "Thane Central",
    "regionname": "Mumbai",
    "circlename": "Maharashtra",
    "Taluk": "Kalyan",
    "Districtname": "Thane",
    "statename": "MAHARASHTRA"
  },
  {
    "pincode": "421601",
    "officename": "Vehloli B.O",
    "officeType": "B.O",
    "Deliverystatus": "Delivery",
    "divisionname": "Thane Central",
    "regionname": "Mumbai",
    "circlename": "Maharashtra",
    "Taluk": "Shahapur",
    "Districtname": "Thane",
    "statename": "MAHARASHTRA"
  }
]
