[
  {
    "pincode": "422003",
    "officename": "Adgaon B.O",
    "officeType": "B.O",
    "Deliverystatus": "Delivery",
    "divisionname": "Nasik",
    "regionname": "Aurangabad",
    "circlename": "Maharashtra",
    "Taluk": "Nashik",
    "Districtname": "Nashik",
    "statename": "MAHARASHTRA"
  },
  {
    "pincode": "422003",
    "officename": "Ambegaon B.O",
    "officeType": "B.O",
    "Deliverystatus": "Delivery",
    "divisionname": "Nasik",
    "regionname": "Aurangabad",
    "circlename": "Maharashtra",
    "Taluk": "Dindori",
    "Districtname": "Nashik",
    "statename": "MAHARASHTRA"
  },
  {
    "pincode": "422003",
    "officename": "Ashewadi B.O",
    "officeType": "B.O",
    "Deliverystatus": "Delivery",
    "divisionname": "Nasik",
    "regionname": "Aurangabad",
    "circlename": "Maharashtra",
    "Taluk": "Nashik",
    "Districtname": "Nashik",
    "statename": "MAHARASHTRA"
  },
  {
    "pincode": "422003",
    "officename": "Chachadgaon B.O",
    "officeType": "B.O",
    "Deliverystatus": "Delivery",
    "divisionname": "Nasik",
    "regionname": "Aurangabad",
    "circlename": "Maharashtra",
    "Taluk": "Dindori",
    "Districtname": "Nashik",
    "statename": "MAHARASHTRA"
  },
  {
    "pincode": "422003",
    "officename": "Chitegaon B.O",
    "officeType": "B.O",
    "Deliverystatus": "Delivery",
    "divisionname": "Nasik",
    "regionname": "Aurangabad",
    "circlename": "Maharashtra",
    "Taluk": "Surgana",
    "Districtname": "Nashik",
    "statename": "MAHARASHTRA"
  },
  {
    "pincode": "422003",
    "officename": "Dari B.O",
    "officeType": "B.O",
    "Deliverystatus": "Delivery",
    "divisionname": "Nasik",
    "regionname": "Aurangabad",
    "circlename": "Maharashtra",
    "Taluk": "Dindori",
    "Districtname": "Nashik",
    "statename": "MAHARASHTRA"
  },
  {
    "pincode": "422003",
    "officename": "Darnasangvi B.O",
    "officeType": "B.O",
    "Deliverystatus": "Delivery",
    "divisionname": "Nasik",
    "regionname": "Aurangabad",
    "circlename": "Maharashtra",
    "Taluk": "Niphad",
    "Districtname": "Nashik",
    "statename": "MAHARASHTRA"
  },
  {
    "pincode": "422003",
    "officename": "Jambutke B.O",
    "officeType": "B.O",
    "Deliverystatus": "Delivery",
    "divisionname": "Nasik",
    "regionname": "Aurangabad",
    "circlename": "Maharashtra",
    "Taluk": "Dindori",
    "Districtname": "Nashik",
    "statename": "MAHARASHTRA"
  },
  {
    "pincode": "422003",
    "officename": "Kalaram Mandir S.O",
    "officeType": "S.O",
    "Deliverystatus": "Non-Delivery",
    "divisionname": "Nasik",
    "regionname": "Aurangabad",
    "circlename": "Maharashtra",
    "Taluk": "Nashik",
    "Districtname": "Nashik",
    "statename": "MAHARASHTRA"
  },
  {
    "pincode": "422003",
    "officename": "Lakhalgaon B.O",
    "officeType": "B.O",
    "Deliverystatus": "Delivery",
    "divisionname": "Nasik",
    "regionname": "Aurangabad",
    "circlename": "Maharashtra",
    "Taluk": "Nashik",
    "Districtname": "Nashik",
    "statename": "MAHARASHTRA"
  },
  {
    "pincode": "422003",
    "officename": "Madsangvi B.O",
    "officeType": "B.O",
    "Deliverystatus": "Delivery",
    "divisionname": "Nasik",
    "regionname": "Aurangabad",
    "circlename": "Maharashtra",
    "Taluk": "Nashik",
    "Districtname": "Nashik",
    "statename": "MAHARASHTRA"
  },
  {
    "pincode": "422003",
    "officename": "Makhmalabad B.O",
    "officeType": "B.O",
    "Deliverystatus": "Delivery",
    "divisionname": "Nasik",
    "regionname": "Aurangabad",
    "circlename": "Maharashtra",
    "Taluk": "Nashik",
    "Districtname": "Nashik",
    "statename": "MAHARASHTRA"
  },
  {
    "pincode": "422003",
    "officename": "Matori B.O",
    "officeType": "B.O",
    "Deliverystatus": "Delivery",
    "divisionname": "Nasik",
    "regionname": "Aurangabad",
    "circlename": "Maharashtra",
    "Taluk": "Dindori",
    "Districtname": "Nashik",
    "statename": "MAHARASHTRA"
  },
  {
    "pincode": "422003",
    "officename": "Mungsara B.O",
    "officeType": "B.O",
    "Deliverystatus": "Delivery",
    "divisionname": "Nasik",
    "regionname": "Aurangabad",
    "circlename": "Maharashtra",
    "Taluk": "Dindori",
    "Districtname": "Nashik",
    "statename": "MAHARASHTRA"
  },
  {
    "pincode": "422003",
    "officename": "Odha B.O",
    "officeType": "B.O",
    "Deliverystatus": "Delivery",
    "divisionname": "Nasik",
    "regionname": "Aurangabad",
    "circlename": "Maharashtra",
    "Taluk": "Nashik",
    "Districtname": "Nashik",
    "statename": "MAHARASHTRA"
  },
  {
    "pincode": "422003",
    "officename": "Panchvati S.O",
    "officeType": "S.O",
    "Deliverystatus": "Delivery",
    "divisionname": "Nasik",
    "regionname": "Aurangabad",
    "circlename": "Maharashtra",
    "Taluk": "Nashik",
    "Districtname": "Nashik",
    "statename": "MAHARASHTRA"
  },
  {
    "pincode": "422003",
    "officename": "Pimpri-sayyed B.O",
    "officeType": "B.O",
    "Deliverystatus": "Delivery",
    "divisionname": "Nasik",
    "regionname": "Aurangabad",
    "circlename": "Maharashtra",
    "Taluk": "Dindori",
    "Districtname": "Nashik",
    "statename": "MAHARASHTRA"
  },
  {
    "pincode": "422003",
    "officename": "Puria Park S.O",
    "officeType": "S.O",
    "Deliverystatus": "Non-Delivery",
    "divisionname": "Nasik",
    "regionname": "Aurangabad",
    "circlename": "Maharashtra",
    "Taluk": "Nashik",
    "Districtname": "Nashik",
    "statename": "MAHARASHTRA"
  },
  {
    "pincode": "422003",
    "officename": "Rasegaon B.O",
    "officeType": "B.O",
    "Deliverystatus": "Delivery",
    "divisionname": "Nasik",
    "regionname": "Aurangabad",
    "circlename": "Maharashtra",
    "Taluk": "Dindori",
    "Districtname": "Nashik",
    "statename": "MAHARASHTRA"
  },
  {
    "pincode": "422003",
    "officename": "Umrala B.O",
    "officeType": "B.O",
    "Deliverystatus": "Delivery",
    "divisionname": "Nasik",
    "regionname": "Aurangabad",
    "circlename": "Maharashtra",
    "Taluk": "Nashik",
    "Districtname": "Nashik",
    "statename": "MAHARASHTRA"
  },
  {
    "pincode": "422003",
    "officename": "Waghdad Dam B.O",
    "officeType": "B.O",
    "Deliverystatus": "Delivery",
    "divisionname": "Nasik",
    "regionname": "Aurangabad",
    "circlename": "Maharashtra",
    "Taluk": "Nashik",
    "Districtname": "Nashik",
    "statename": "MAHARASHTRA"
  }
]
