[
  {
    "pincode": "422208",
    "officename": "Amba (Peint) B.O",
    "officeType": "B.O",
    "Deliverystatus": "Delivery",
    "divisionname": "Nasik",
    "regionname": "Aurangabad",
    "circlename": "Maharashtra",
    "Taluk": "Peint",
    "Districtname": "Nashik",
    "statename": "MAHARASHTRA"
  },
  {
    "pincode": "422208",
    "officename": "Asarbari B.O",
    "officeType": "B.O",
    "Deliverystatus": "Delivery",
    "divisionname": "Nasik",
    "regionname": "Aurangabad",
    "circlename": "Maharashtra",
    "Taluk": "Peint",
    "Districtname": "Nashik",
    "statename": "MAHARASHTRA"
  },
  {
    "pincode": "422208",
    "officename": "Bhuvan B.O",
    "officeType": "B.O",
    "Deliverystatus": "Delivery",
    "divisionname": "Nasik",
    "regionname": "Aurangabad",
    "circlename": "Maharashtra",
    "Taluk": "Peint",
    "Districtname": "Nashik",
    "statename": "MAHARASHTRA"
  },
  {
    "pincode": "422208",
    "officename": "Borwat B.O",
    "officeType": "B.O",
    "Deliverystatus": "Delivery",
    "divisionname": "Nasik",
    "regionname": "Aurangabad",
    "circlename": "Maharashtra",
    "Taluk": "Peint",
    "Districtname": "Nashik",
    "statename": "MAHARASHTRA"
  },
  {
    "pincode": "422208",
    "officename": "Dhondmal B.O",
    "officeType": "B.O",
    "Deliverystatus": "Delivery",
    "divisionname": "Nasik",
    "regionname": "Aurangabad",
    "circlename": "Maharashtra",
    "Taluk": "Peint",
    "Districtname": "Nashik",
    "statename": "MAHARASHTRA"
  },
  {
    "pincode": "422208",
    "officename": "Gonde B.O",
    "officeType": "B.O",
    "Deliverystatus": "Delivery",
    "divisionname": "Nasik",
    "regionname": "Aurangabad",
    "circlename": "Maharashtra",
    "Taluk": "Peint",
    "Districtname": "Nashik",
    "statename": "MAHARASHTRA"
  },
  {
    "pincode": "422208",
    "officename": "Hatrundi (Peint) B.O",
    "officeType": "B.O",
    "Deliverystatus": "Delivery",
    "divisionname": "Nasik",
    "regionname": "Aurangabad",
    "circlename": "Maharashtra",
    "Taluk": "Peint",
    "Districtname": "Nashik",
    "statename": "MAHARASHTRA"
  },
  {
    "pincode": "422208",
    "officename": "Karanjali B.O",
    "officeType": "B.O",
    "Deliverystatus": "Delivery",
    "divisionname": "Nasik",
    "regionname": "Aurangabad",
    "circlename": "Maharashtra",
    "Taluk": "Peint",
    "Districtname": "Nashik",
    "statename": "MAHARASHTRA"
  },
  {
    "pincode": "422208",
    "officename": "Kohor B.O",
    "officeType": "B.O",
    "Deliverystatus": "Delivery",
    "divisionname": "Nasik",
    "regionname": "Aurangabad",
    "circlename": "Maharashtra",
    "Taluk": "Peint",
    "Districtname": "Nashik",
    "statename": "MAHARASHTRA"
  },
  {
    "pincode": "422208",
    "officename": "Kopurli B.O",
    "officeType": "B.O",
    "Deliverystatus": "Delivery",
    "divisionname": "Nasik",
    "regionname": "Aurangabad",
    "circlename": "Maharashtra",
    "Taluk": "Peint",
    "Districtname": "Nashik",
    "statename": "MAHARASHTRA"
  },
  {
    "pincode": "422208",
    "officename": "Kumbhale B.O",
    "officeType": "B.O",
    "Deliverystatus": "Delivery",
    "divisionname": "Nasik",
    "regionname": "Aurangabad",
    "circlename": "Maharashtra",
    "Taluk": "Peint",
    "Districtname": "Nashik",
    "statename": "MAHARASHTRA"
  },
  {
    "pincode": "422208",
    "officename": "Malegaon (Peint) B.O",
    "officeType": "B.O",
    "Deliverystatus": "Delivery",
    "divisionname": "Nasik",
    "regionname": "Aurangabad",
    "circlename": "Maharashtra",
    "Taluk": "Peint",
    "Districtname": "Nashik",
    "statename": "MAHARASHTRA"
  },
  {
    "pincode": "422208",
    "officename": "Mangone B.O",
    "officeType": "B.O",
    "Deliverystatus": "Delivery",
    "divisionname": "Nasik",
    "regionname": "Aurangabad",
    "circlename": "Maharashtra",
    "Taluk": "Peint",
    "Districtname": "Nashik",
    "statename": "MAHARASHTRA"
  },
  {
    "pincode": "422208",
    "officename": "Mhasgan B.O",
    "officeType": "B.O",
    "Deliverystatus": "Delivery",
    "divisionname": "Nasik",
    "regionname": "Aurangabad",
    "circlename": "Maharashtra",
    "Taluk": "Peint",
    "Districtname": "Nashik",
    "statename": "MAHARASHTRA"
  },
  {
    "pincode": "422208",
    "officename": "Nirgude B.O",
    "officeType": "B.O",
    "Deliverystatus": "Delivery",
    "divisionname": "Nasik",
    "regionname": "Aurangabad",
    "circlename": "Maharashtra",
    "Taluk": "Peint",
    "Districtname": "Nashik",
    "statename": "MAHARASHTRA"
  },
  {
    "pincode": "422208",
    "officename": "Peint S.O",
    "officeType": "S.O",
    "Deliverystatus": "Delivery",
    "divisionname": "Nasik",
    "regionname": "Aurangabad",
    "circlename": "Maharashtra",
    "Taluk": "Peint",
    "Districtname": "Nashik",
    "statename": "MAHARASHTRA"
  },
  {
    "pincode": "422208",
    "officename": "Surgana (Peint) B.O",
    "officeType": "B.O",
    "Deliverystatus": "Delivery",
    "divisionname": "Nasik",
    "regionname": "Aurangabad",
    "circlename": "Maharashtra",
    "Taluk": "Peint",
    "Districtname": "Nashik",
    "statename": "MAHARASHTRA"
  },
  {
    "pincode": "422208",
    "officename": "Usthale B.O",
    "officeType": "B.O",
    "Deliverystatus": "Delivery",
    "divisionname": "Nasik",
    "regionname": "Aurangabad",
    "circlename": "Maharashtra",
    "Taluk": "Peint",
    "Districtname": "Nashik",
    "statename": "MAHARASHTRA"
  }
]
