[
  {
    "pincode": "422203",
    "officename": "Devargaon B.O",
    "officeType": "B.O",
    "Deliverystatus": "Delivery",
    "divisionname": "Nasik",
    "regionname": "Aurangabad",
    "circlename": "Maharashtra",
    "Taluk": "Nashik",
    "Districtname": "Nashik",
    "statename": "MAHARASHTRA"
  },
  {
    "pincode": "422203",
    "officename": "Dondegaon B.O",
    "officeType": "B.O",
    "Deliverystatus": "Delivery",
    "divisionname": "Nasik",
    "regionname": "Aurangabad",
    "circlename": "Maharashtra",
    "Taluk": "Nashik",
    "Districtname": "Nashik",
    "statename": "MAHARASHTRA"
  },
  {
    "pincode": "422203",
    "officename": "Dugaon B.O",
    "officeType": "B.O",
    "Deliverystatus": "Delivery",
    "divisionname": "Nasik",
    "regionname": "Aurangabad",
    "circlename": "Maharashtra",
    "Taluk": "Nashik",
    "Districtname": "Nashik",
    "statename": "MAHARASHTRA"
  },
  {
    "pincode": "422203",
    "officename": "Gangamhalungi B.O",
    "officeType": "B.O",
    "Deliverystatus": "Delivery",
    "divisionname": "Nasik",
    "regionname": "Aurangabad",
    "circlename": "Maharashtra",
    "Taluk": "Nashik",
    "Districtname": "Nashik",
    "statename": "MAHARASHTRA"
  },
  {
    "pincode": "422203",
    "officename": "Girnara S.O",
    "officeType": "S.O",
    "Deliverystatus": "Delivery",
    "divisionname": "Nasik",
    "regionname": "Aurangabad",
    "circlename": "Maharashtra",
    "Taluk": "Nashik",
    "Districtname": "Nashik",
    "statename": "MAHARASHTRA"
  },
  {
    "pincode": "422203",
    "officename": "Kochargaon B.O",
    "officeType": "B.O",
    "Deliverystatus": "Delivery",
    "divisionname": "Nasik",
    "regionname": "Aurangabad",
    "circlename": "Maharashtra",
    "Taluk": "Nashik",
    "Districtname": "Nashik",
    "statename": "MAHARASHTRA"
  },
  {
    "pincode": "422203",
    "officename": "Malegaon B.O",
    "officeType": "B.O",
    "Deliverystatus": "Delivery",
    "divisionname": "Nasik",
    "regionname": "Aurangabad",
    "circlename": "Maharashtra",
    "Taluk": "Trimbakeshwar",
    "Districtname": "Nashik",
    "statename": "MAHARASHTRA"
  },
  {
    "pincode": "422203",
    "officename": "Rohile B.O",
    "officeType": "B.O",
    "Deliverystatus": "Delivery",
    "divisionname": "Nasik",
    "regionname": "Aurangabad",
    "circlename": "Maharashtra",
    "Taluk": "Trimbakeshwar",
    "Districtname": "Nashik",
    "statename": "MAHARASHTRA"
  },
  {
    "pincode": "422203",
    "officename": "Sapte B.O",
    "officeType": "B.O",
    "Deliverystatus": "Delivery",
    "divisionname": "Nasik",
    "regionname": "Aurangabad",
    "circlename": "Maharashtra",
    "Taluk": "Trimbakeshwar",
    "Districtname": "Nashik",
    "statename": "MAHARASHTRA"
  },
  {
    "pincode": "422203",
    "officename": "Vilwandi B.O",
    "officeType": "B.O",
    "Deliverystatus": "Delivery",
    "divisionname": "Nasik",
    "regionname": "Aurangabad",
    "circlename": "Maharashtra",
    "Taluk": "Dindori",
    "Districtname": "Nashik",
    "statename": "MAHARASHTRA"
  },
  {
    "pincode": "422203",
    "officename": "Wadgaon B.O",
    "officeType": "B.O",
    "Deliverystatus": "Delivery",
    "divisionname": "Nasik",
    "regionname": "Aurangabad",
    "circlename": "Maharashtra",
    "Taluk": "Nashik",
    "Districtname": "Nashik",
    "statename": "MAHARASHTRA"
  },
  {
    "pincode": "422203",
    "officename": "Waghera B.O",
    "officeType": "B.O",
    "Deliverystatus": "Delivery",
    "divisionname": "Nasik",
    "regionname": "Aurangabad",
    "circlename": "Maharashtra",
    "Taluk": "Trimbakeshwar",
    "Districtname": "Nashik",
    "statename": "MAHARASHTRA"
  }
]
