[
  {
    "pincode": "422403",
    "officename": "Aswali R.S B.O",
    "officeType": "B.O",
    "Deliverystatus": "Delivery",
    "divisionname": "Nasik",
    "regionname": "Aurangabad",
    "circlename": "Maharashtra",
    "Taluk": "Igatpuri",
    "Districtname": "Nashik",
    "statename": "MAHARASHTRA"
  },
  {
    "pincode": "422403",
    "officename": "Belgaon Tarhale B.O",
    "officeType": "B.O",
    "Deliverystatus": "Delivery",
    "divisionname": "Nasik",
    "regionname": "Aurangabad",
    "circlename": "Maharashtra",
    "Taluk": "Igatpuri",
    "Districtname": "Nashik",
    "statename": "MAHARASHTRA"
  },
  {
    "pincode": "422403",
    "officename": "Bharvir BK B.O",
    "officeType": "B.O",
    "Deliverystatus": "Delivery",
    "divisionname": "Nasik",
    "regionname": "Aurangabad",
    "circlename": "Maharashtra",
    "Taluk": "Igatpuri",
    "Districtname": "Nashik",
    "statename": "MAHARASHTRA"
  },
  {
    "pincode": "422403",
    "officename": "Bhavali Khurd B.O",
    "officeType": "B.O",
    "Deliverystatus": "Delivery",
    "divisionname": "Nasik",
    "regionname": "Aurangabad",
    "circlename": "Maharashtra",
    "Taluk": "Igatpuri",
    "Districtname": "Nashik",
    "statename": "MAHARASHTRA"
  },
  {
    "pincode": "422403",
    "officename": "Dhamangaon B.O",
    "officeType": "B.O",
    "Deliverystatus": "Delivery",
    "divisionname": "Nasik",
    "regionname": "Aurangabad",
    "circlename": "Maharashtra",
    "Taluk": "Igatpuri",
    "Districtname": "Nashik",
    "statename": "MAHARASHTRA"
  },
  {
    "pincode": "422403",
    "officename": "Gondedumala B.O",
    "officeType": "B.O",
    "Deliverystatus": "Delivery",
    "divisionname": "Nasik",
    "regionname": "Aurangabad",
    "circlename": "Maharashtra",
    "Taluk": "Igatpuri",
    "Districtname": "Nashik",
    "statename": "MAHARASHTRA"
  },
  {
    "pincode": "422403",
    "officename": "Igatpuri S.O",
    "officeType": "S.O",
    "Deliverystatus": "Delivery",
    "divisionname": "Nasik",
    "regionname": "Aurangabad",
    "circlename": "Maharashtra",
    "Taluk": "Igatpuri",
    "Districtname": "Nashik",
    "statename": "MAHARASHTRA"
  },
  {
    "pincode": "422403",
    "officename": "Mukane B.O",
    "officeType": "B.O",
    "Deliverystatus": "Delivery",
    "divisionname": "Nasik",
    "regionname": "Aurangabad",
    "circlename": "Maharashtra",
    "Taluk": "Igatpuri",
    "Districtname": "Nashik",
    "statename": "MAHARASHTRA"
  },
  {
    "pincode": "422403",
    "officename": "Mundhegaon B.O",
    "officeType": "B.O",
    "Deliverystatus": "Delivery",
    "divisionname": "Nasik",
    "regionname": "Aurangabad",
    "circlename": "Maharashtra",
    "Taluk": "Igatpuri",
    "Districtname": "Nashik",
    "statename": "MAHARASHTRA"
  },
  {
    "pincode": "422403",
    "officename": "Murambi B.O",
    "officeType": "B.O",
    "Deliverystatus": "Delivery",
    "divisionname": "Nasik",
    "regionname": "Aurangabad",
    "circlename": "Maharashtra",
    "Taluk": "Igatpuri",
    "Districtname": "Nashik",
    "statename": "MAHARASHTRA"
  },
  {
    "pincode": "422403",
    "officename": "Nandgaon B.O",
    "officeType": "B.O",
    "Deliverystatus": "Delivery",
    "divisionname": "Nasik",
    "regionname": "Aurangabad",
    "circlename": "Maharashtra",
    "Taluk": "Igatpuri",
    "Districtname": "Nashik",
    "statename": "MAHARASHTRA"
  },
  {
    "pincode": "422403",
    "officename": "Taked BK B.O",
    "officeType": "B.O",
    "Deliverystatus": "Delivery",
    "divisionname": "Nasik",
    "regionname": "Aurangabad",
    "circlename": "Maharashtra",
    "Taluk": "Igatpuri",
    "Districtname": "Nashik",
    "statename": "MAHARASHTRA"
  },
  {
    "pincode": "422403",
    "officename": "Talegaon (Igatpuri) B.O",
    "officeType": "B.O",
    "Deliverystatus": "Delivery",
    "divisionname": "Nasik",
    "regionname": "Aurangabad",
    "circlename": "Maharashtra",
    "Taluk": "Nashik",
    "Districtname": "Nashik",
    "statename": "MAHARASHTRA"
  },
  {
    "pincode": "422403",
    "officename": "Wadivarhe B.O",
    "officeType": "B.O",
    "Deliverystatus": "Delivery",
    "divisionname": "Nasik",
    "regionname": "Aurangabad",
    "circlename": "Maharashtra",
    "Taluk": "Igatpuri",
    "Districtname": "Nashik",
    "statename": "MAHARASHTRA"
  },
  {
    "pincode": "422403",
    "officename": "Waghare B.O",
    "officeType": "B.O",
    "Deliverystatus": "Delivery",
    "divisionname": "Nasik",
    "regionname": "Aurangabad",
    "circlename": "Maharashtra",
    "Taluk": "Igatpuri",
    "Districtname": "Nashik",
    "statename": "MAHARASHTRA"
  }
]
