[
  {
    "pincode": "422601",
    "officename": "Agasti SSK B.O",
    "officeType": "B.O",
    "Deliverystatus": "Delivery",
    "divisionname": "Shrirampur",
    "regionname": "Pune",
    "circlename": "Maharashtra",
    "Taluk": "Akole",
    "Districtname": "Ahmed Nagar",
    "statename": "MAHARASHTRA"
  },
  {
    "pincode": "422601",
    "officename": "Akole S.O",
    "officeType": "S.O",
    "Deliverystatus": "Delivery",
    "divisionname": "Shrirampur",
    "regionname": "Pune",
    "circlename": "Maharashtra",
    "Taluk": "Akole",
    "Districtname": "Ahmed Nagar",
    "statename": "MAHARASHTRA"
  },
  {
    "pincode": "422601",
    "officename": "Deothan B.O",
    "officeType": "B.O",
    "Deliverystatus": "Delivery",
    "divisionname": "Shrirampur",
    "regionname": "Pune",
    "circlename": "Maharashtra",
    "Taluk": "Akole",
    "Districtname": "Ahmed Nagar",
    "statename": "MAHARASHTRA"
  },
  {
    "pincode": "422601",
    "officename": "Dhamangaon Awari B.O",
    "officeType": "B.O",
    "Deliverystatus": "Delivery",
    "divisionname": "Shrirampur",
    "regionname": "Pune",
    "circlename": "Maharashtra",
    "Taluk": "Akole",
    "Districtname": "Ahmed Nagar",
    "statename": "MAHARASHTRA"
  },
  {
    "pincode": "422601",
    "officename": "Dhokari B.O",
    "officeType": "B.O",
    "Deliverystatus": "Delivery",
    "divisionname": "Shrirampur",
    "regionname": "Pune",
    "circlename": "Maharashtra",
    "Taluk": "Akole",
    "Districtname": "Ahmed Nagar",
    "statename": "MAHARASHTRA"
  },
  {
    "pincode": "422601",
    "officename": "Ekdara B.O",
    "officeType": "B.O",
    "Deliverystatus": "Delivery",
    "divisionname": "Shrirampur",
    "regionname": "Pune",
    "circlename": "Maharashtra",
    "Taluk": "Akole",
    "Districtname": "Ahmed Nagar",
    "statename": "MAHARASHTRA"
  },
  {
    "pincode": "422601",
    "officename": "Gardani B.O",
    "officeType": "B.O",
    "Deliverystatus": "Delivery",
    "divisionname": "Shrirampur",
    "regionname": "Pune",
    "circlename": "Maharashtra",
    "Taluk": "Akole",
    "Districtname": "Ahmed Nagar",
    "statename": "MAHARASHTRA"
  },
  {
    "pincode": "422601",
    "officename": "Keli Rumhanwadi B.O",
    "officeType": "B.O",
    "Deliverystatus": "Delivery",
    "divisionname": "Shrirampur",
    "regionname": "Pune",
    "circlename": "Maharashtra",
    "Taluk": "Akole",
    "Districtname": "Ahmed Nagar",
    "statename": "MAHARASHTRA"
  },
  {
    "pincode": "422601",
    "officename": "Khirvire B.O",
    "officeType": "B.O",
    "Deliverystatus": "Delivery",
    "divisionname": "Shrirampur",
    "regionname": "Pune",
    "circlename": "Maharashtra",
    "Taluk": "Akole",
    "Districtname": "Ahmed Nagar",
    "statename": "MAHARASHTRA"
  },
  {
    "pincode": "422601",
    "officename": "Kombhalane B.O",
    "officeType": "B.O",
    "Deliverystatus": "Delivery",
    "divisionname": "Shrirampur",
    "regionname": "Pune",
    "circlename": "Maharashtra",
    "Taluk": "Akole",
    "Districtname": "Ahmed Nagar",
    "statename": "MAHARASHTRA"
  },
  {
    "pincode": "422601",
    "officename": "Kumbephal B.O",
    "officeType": "B.O",
    "Deliverystatus": "Delivery",
    "divisionname": "Shrirampur",
    "regionname": "Pune",
    "circlename": "Maharashtra",
    "Taluk": "Akole",
    "Districtname": "Ahmed Nagar",
    "statename": "MAHARASHTRA"
  },
  {
    "pincode": "422601",
    "officename": "Muthalane B.O",
    "officeType": "B.O",
    "Deliverystatus": "Delivery",
    "divisionname": "Shrirampur",
    "regionname": "Pune",
    "circlename": "Maharashtra",
    "Taluk": "Akole",
    "Districtname": "Ahmed Nagar",
    "statename": "MAHARASHTRA"
  },
  {
    "pincode": "422601",
    "officename": "Padoshi B.O",
    "officeType": "B.O",
    "Deliverystatus": "Delivery",
    "divisionname": "Shrirampur",
    "regionname": "Pune",
    "circlename": "Maharashtra",
    "Taluk": "Akole",
    "Districtname": "Ahmed Nagar",
    "statename": "MAHARASHTRA"
  },
  {
    "pincode": "422601",
    "officename": "Rumbhodi B.O",
    "officeType": "B.O",
    "Deliverystatus": "Delivery",
    "divisionname": "Shrirampur",
    "regionname": "Pune",
    "circlename": "Maharashtra",
    "Taluk": "Akole",
    "Districtname": "Ahmed Nagar",
    "statename": "MAHARASHTRA"
  },
  {
    "pincode": "422601",
    "officename": "Samesherpur B.O",
    "officeType": "B.O",
    "Deliverystatus": "Delivery",
    "divisionname": "Shrirampur",
    "regionname": "Pune",
    "circlename": "Maharashtra",
    "Taluk": "Akole",
    "Districtname": "Ahmed Nagar",
    "statename": "MAHARASHTRA"
  },
  {
    "pincode": "422601",
    "officename": "Sangvi B.O",
    "officeType": "B.O",
    "Deliverystatus": "Delivery",
    "divisionname": "Shrirampur",
    "regionname": "Pune",
    "circlename": "Maharashtra",
    "Taluk": "Akole",
    "Districtname": "Ahmed Nagar",
    "statename": "MAHARASHTRA"
  },
  {
    "pincode": "422601",
    "officename": "Savargaon Pat B.O",
    "officeType": "B.O",
    "Deliverystatus": "Delivery",
    "divisionname": "Shrirampur",
    "regionname": "Pune",
    "circlename": "Maharashtra",
    "Taluk": "Akole",
    "Districtname": "Ahmed Nagar",
    "statename": "MAHARASHTRA"
  },
  {
    "pincode": "422601",
    "officename": "Tahakari B.O",
    "officeType": "B.O",
    "Deliverystatus": "Delivery",
    "divisionname": "Shrirampur",
    "regionname": "Pune",
    "circlename": "Maharashtra",
    "Taluk": "Akole",
    "Districtname": "Ahmed Nagar",
    "statename": "MAHARASHTRA"
  },
  {
    "pincode": "422601",
    "officename": "Tambhol B.O",
    "officeType": "B.O",
    "Deliverystatus": "Delivery",
    "divisionname": "Shrirampur",
    "regionname": "Pune",
    "circlename": "Maharashtra",
    "Taluk": "Akole",
    "Districtname": "Ahmed Nagar",
    "statename": "MAHARASHTRA"
  },
  {
    "pincode": "422601",
    "officename": "Thugaon BK B.O",
    "officeType": "B.O",
    "Deliverystatus": "Delivery",
    "divisionname": "Shrirampur",
    "regionname": "Pune",
    "circlename": "Maharashtra",
    "Taluk": "Akole",
    "Districtname": "Ahmed Nagar",
    "statename": "MAHARASHTRA"
  },
  {
    "pincode": "422601",
    "officename": "Tirdhe B.O",
    "officeType": "B.O",
    "Deliverystatus": "Delivery",
    "divisionname": "Shrirampur",
    "regionname": "Pune",
    "circlename": "Maharashtra",
    "Taluk": "Akole",
    "Districtname": "Ahmed Nagar",
    "statename": "MAHARASHTRA"
  }
]
