[
  {
    "pincode": "422606",
    "officename": "Bhojapur B.O",
    "officeType": "B.O",
    "Deliverystatus": "Delivery",
    "divisionname": "Nasik",
    "regionname": "Aurangabad",
    "circlename": "Maharashtra",
    "Taluk": "Sinnar",
    "Districtname": "Nashik",
    "statename": "MAHARASHTRA"
  },
  {
    "pincode": "422606",
    "officename": "Chas B.O",
    "officeType": "B.O",
    "Deliverystatus": "Delivery",
    "divisionname": "Nasik",
    "regionname": "Aurangabad",
    "circlename": "Maharashtra",
    "Taluk": "Sinnar",
    "Districtname": "Nashik",
    "statename": "MAHARASHTRA"
  },
  {
    "pincode": "422606",
    "officename": "Dapur B.O",
    "officeType": "B.O",
    "Deliverystatus": "Delivery",
    "divisionname": "Nasik",
    "regionname": "Aurangabad",
    "circlename": "Maharashtra",
    "Taluk": "Sinnar",
    "Districtname": "Nashik",
    "statename": "MAHARASHTRA"
  },
  {
    "pincode": "422606",
    "officename": "Dodi B.O",
    "officeType": "B.O",
    "Deliverystatus": "Delivery",
    "divisionname": "Nasik",
    "regionname": "Aurangabad",
    "circlename": "Maharashtra",
    "Taluk": "Sinnar",
    "Districtname": "Nashik",
    "statename": "MAHARASHTRA"
  },
  {
    "pincode": "422606",
    "officename": "Gonde B.O",
    "officeType": "B.O",
    "Deliverystatus": "Delivery",
    "divisionname": "Nasik",
    "regionname": "Aurangabad",
    "circlename": "Maharashtra",
    "Taluk": "Sinnar",
    "Districtname": "Nashik",
    "statename": "MAHARASHTRA"
  },
  {
    "pincode": "422606",
    "officename": "Kankuri B.O",
    "officeType": "B.O",
    "Deliverystatus": "Delivery",
    "divisionname": "Nasik",
    "regionname": "Aurangabad",
    "circlename": "Maharashtra",
    "Taluk": "Sinnar",
    "Districtname": "Nashik",
    "statename": "MAHARASHTRA"
  },
  {
    "pincode": "422606",
    "officename": "Khambale B.O",
    "officeType": "B.O",
    "Deliverystatus": "Delivery",
    "divisionname": "Nasik",
    "regionname": "Aurangabad",
    "circlename": "Maharashtra",
    "Taluk": "Sinnar",
    "Districtname": "Nashik",
    "statename": "MAHARASHTRA"
  },
  {
    "pincode": "422606",
    "officename": "Marhal BK B.O",
    "officeType": "B.O",
    "Deliverystatus": "Delivery",
    "divisionname": "Nasik",
    "regionname": "Aurangabad",
    "circlename": "Maharashtra",
    "Taluk": "Sinnar",
    "Districtname": "Nashik",
    "statename": "MAHARASHTRA"
  },
  {
    "pincode": "422606",
    "officename": "Nandurshingote S.O",
    "officeType": "S.O",
    "Deliverystatus": "Delivery",
    "divisionname": "Nasik",
    "regionname": "Aurangabad",
    "circlename": "Maharashtra",
    "Taluk": "Sinnar",
    "Districtname": "Nashik",
    "statename": "MAHARASHTRA"
  },
  {
    "pincode": "422606",
    "officename": "Nirhale B.O",
    "officeType": "B.O",
    "Deliverystatus": "Delivery",
    "divisionname": "Nasik",
    "regionname": "Aurangabad",
    "circlename": "Maharashtra",
    "Taluk": "Sinnar",
    "Districtname": "Nashik",
    "statename": "MAHARASHTRA"
  }
]
