[
  {
    "pincode": "423106",
    "officename": "Bangaon B.O",
    "officeType": "B.O",
    "Deliverystatus": "Delivery",
    "divisionname": "Malegaon",
    "regionname": "Aurangabad",
    "circlename": "Maharashtra",
    "Taluk": "Nandgaon",
    "Districtname": "Nashik",
    "statename": "MAHARASHTRA"
  },
  {
    "pincode": "423106",
    "officename": "Bhalur B.O",
    "officeType": "B.O",
    "Deliverystatus": "Delivery",
    "divisionname": "Malegaon",
    "regionname": "Aurangabad",
    "circlename": "Maharashtra",
    "Taluk": "Nandgaon",
    "Districtname": "Nashik",
    "statename": "MAHARASHTRA"
  },
  {
    "pincode": "423106",
    "officename": "Bolthan B.O",
    "officeType": "B.O",
    "Deliverystatus": "Delivery",
    "divisionname": "Malegaon",
    "regionname": "Aurangabad",
    "circlename": "Maharashtra",
    "Taluk": "Nandgaon",
    "Districtname": "Nashik",
    "statename": "MAHARASHTRA"
  },
  {
    "pincode": "423106",
    "officename": "Borale B.O",
    "officeType": "B.O",
    "Deliverystatus": "Delivery",
    "divisionname": "Malegaon",
    "regionname": "Aurangabad",
    "circlename": "Maharashtra",
    "Taluk": "Nandgaon",
    "Districtname": "Nashik",
    "statename": "MAHARASHTRA"
  },
  {
    "pincode": "423106",
    "officename": "Dheku KH B.O",
    "officeType": "B.O",
    "Deliverystatus": "Delivery",
    "divisionname": "Malegaon",
    "regionname": "Aurangabad",
    "circlename": "Maharashtra",
    "Taluk": "Nandgaon",
    "Districtname": "Nashik",
    "statename": "MAHARASHTRA"
  },
  {
    "pincode": "423106",
    "officename": "Girnadam B.O",
    "officeType": "B.O",
    "Deliverystatus": "Delivery",
    "divisionname": "Malegaon",
    "regionname": "Aurangabad",
    "circlename": "Maharashtra",
    "Taluk": "Nandgaon",
    "Districtname": "Nashik",
    "statename": "MAHARASHTRA"
  },
  {
    "pincode": "423106",
    "officename": "Hiswal BK B.O",
    "officeType": "B.O",
    "Deliverystatus": "Delivery",
    "divisionname": "Malegaon",
    "regionname": "Aurangabad",
    "circlename": "Maharashtra",
    "Taluk": "Nandgaon",
    "Districtname": "Nashik",
    "statename": "MAHARASHTRA"
  },
  {
    "pincode": "423106",
    "officename": "Hiswal KH B.O",
    "officeType": "B.O",
    "Deliverystatus": "Delivery",
    "divisionname": "Malegaon",
    "regionname": "Aurangabad",
    "circlename": "Maharashtra",
    "Taluk": "Nandgaon",
    "Districtname": "Nashik",
    "statename": "MAHARASHTRA"
  },
  {
    "pincode": "423106",
    "officename": "Jamdhari B.O",
    "officeType": "B.O",
    "Deliverystatus": "Delivery",
    "divisionname": "Malegaon",
    "regionname": "Aurangabad",
    "circlename": "Maharashtra",
    "Taluk": "Nandgaon",
    "Districtname": "Nashik",
    "statename": "MAHARASHTRA"
  },
  {
    "pincode": "423106",
    "officename": "Jategaon B.O",
    "officeType": "B.O",
    "Deliverystatus": "Delivery",
    "divisionname": "Malegaon",
    "regionname": "Aurangabad",
    "circlename": "Maharashtra",
    "Taluk": "Nandgaon",
    "Districtname": "Nashik",
    "statename": "MAHARASHTRA"
  },
  {
    "pincode": "423106",
    "officename": "Kalamdari B.O",
    "officeType": "B.O",
    "Deliverystatus": "Delivery",
    "divisionname": "Malegaon",
    "regionname": "Aurangabad",
    "circlename": "Maharashtra",
    "Taluk": "Nandgaon",
    "Districtname": "Nashik",
    "statename": "MAHARASHTRA"
  },
  {
    "pincode": "423106",
    "officename": "Kasari B.O",
    "officeType": "B.O",
    "Deliverystatus": "Delivery",
    "divisionname": "Malegaon",
    "regionname": "Aurangabad",
    "circlename": "Maharashtra",
    "Taluk": "Nandgaon",
    "Districtname": "Nashik",
    "statename": "MAHARASHTRA"
  },
  {
    "pincode": "423106",
    "officename": "Mandwad B.O",
    "officeType": "B.O",
    "Deliverystatus": "Delivery",
    "divisionname": "Malegaon",
    "regionname": "Aurangabad",
    "circlename": "Maharashtra",
    "Taluk": "Nandgaon",
    "Districtname": "Nashik",
    "statename": "MAHARASHTRA"
  },
  {
    "pincode": "423106",
    "officename": "Mohegaon B.O",
    "officeType": "B.O",
    "Deliverystatus": "Delivery",
    "divisionname": "Malegaon",
    "regionname": "Aurangabad",
    "circlename": "Maharashtra",
    "Taluk": "Nandgaon",
    "Districtname": "Nashik",
    "statename": "MAHARASHTRA"
  },
  {
    "pincode": "423106",
    "officename": "Nandgaon S.O",
    "officeType": "S.O",
    "Deliverystatus": "Delivery",
    "divisionname": "Malegaon",
    "regionname": "Aurangabad",
    "circlename": "Maharashtra",
    "Taluk": "Nandgaon",
    "Districtname": "Nashik",
    "statename": "MAHARASHTRA"
  },
  {
    "pincode": "423106",
    "officename": "Pokhari B.O",
    "officeType": "B.O",
    "Deliverystatus": "Delivery",
    "divisionname": "Malegaon",
    "regionname": "Aurangabad",
    "circlename": "Maharashtra",
    "Taluk": "Nandgaon",
    "Districtname": "Nashik",
    "statename": "MAHARASHTRA"
  },
  {
    "pincode": "423106",
    "officename": "Sakore B.O",
    "officeType": "B.O",
    "Deliverystatus": "Delivery",
    "divisionname": "Malegaon",
    "regionname": "Aurangabad",
    "circlename": "Maharashtra",
    "Taluk": "Nandgaon",
    "Districtname": "Nashik",
    "statename": "MAHARASHTRA"
  },
  {
    "pincode": "423106",
    "officename": "Savargaon B.O",
    "officeType": "B.O",
    "Deliverystatus": "Delivery",
    "divisionname": "Malegaon",
    "regionname": "Aurangabad",
    "circlename": "Maharashtra",
    "Taluk": "Nandgaon",
    "Districtname": "Nashik",
    "statename": "MAHARASHTRA"
  },
  {
    "pincode": "423106",
    "officename": "Vadali BK B.O",
    "officeType": "B.O",
    "Deliverystatus": "Delivery",
    "divisionname": "Malegaon",
    "regionname": "Aurangabad",
    "circlename": "Maharashtra",
    "Taluk": "Nandgaon",
    "Districtname": "Nashik",
    "statename": "MAHARASHTRA"
  },
  {
    "pincode": "423106",
    "officename": "Vehelgaon B.O",
    "officeType": "B.O",
    "Deliverystatus": "Delivery",
    "divisionname": "Malegaon",
    "regionname": "Aurangabad",
    "circlename": "Maharashtra",
    "Taluk": "Nandgaon",
    "Districtname": "Nashik",
    "statename": "MAHARASHTRA"
  },
  {
    "pincode": "423106",
    "officename": "Wakhari B.O",
    "officeType": "B.O",
    "Deliverystatus": "Delivery",
    "divisionname": "Malegaon",
    "regionname": "Aurangabad",
    "circlename": "Maharashtra",
    "Taluk": "Nandgaon",
    "Districtname": "Nashik",
    "statename": "MAHARASHTRA"
  }
]
