[
  {
    "pincode": "423212",
    "officename": "Chandanpuri B.O",
    "officeType": "B.O",
    "Deliverystatus": "Delivery",
    "divisionname": "Malegaon",
    "regionname": "Aurangabad",
    "circlename": "Maharashtra",
    "Taluk": "Malegaon",
    "Districtname": "Nashik",
    "statename": "MAHARASHTRA"
  },
  {
    "pincode": "423212",
    "officename": "Khayde B.O",
    "officeType": "B.O",
    "Deliverystatus": "Delivery",
    "divisionname": "Malegaon",
    "regionname": "Aurangabad",
    "circlename": "Maharashtra",
    "Taluk": "Malegaon",
    "Districtname": "Nashik",
    "statename": "MAHARASHTRA"
  },
  {
    "pincode": "423212",
    "officename": "Malgaon B.O",
    "officeType": "B.O",
    "Deliverystatus": "Delivery",
    "divisionname": "Malegaon",
    "regionname": "Aurangabad",
    "circlename": "Maharashtra",
    "Taluk": "Malegaon",
    "Districtname": "Nashik",
    "statename": "MAHARASHTRA"
  },
  {
    "pincode": "423212",
    "officename": "Mehune B.O",
    "officeType": "B.O",
    "Deliverystatus": "Delivery",
    "divisionname": "Malegaon",
    "regionname": "Aurangabad",
    "circlename": "Maharashtra",
    "Taluk": "Malegaon",
    "Districtname": "Nashik",
    "statename": "MAHARASHTRA"
  },
  {
    "pincode": "423212",
    "officename": "Nimbayati B.O",
    "officeType": "B.O",
    "Deliverystatus": "Delivery",
    "divisionname": "Malegaon",
    "regionname": "Aurangabad",
    "circlename": "Maharashtra",
    "Taluk": "Malegaon",
    "Districtname": "Nashik",
    "statename": "MAHARASHTRA"
  },
  {
    "pincode": "423212",
    "officename": "Nimgaon S.O",
    "officeType": "S.O",
    "Deliverystatus": "Delivery",
    "divisionname": "Malegaon",
    "regionname": "Aurangabad",
    "circlename": "Maharashtra",
    "Taluk": "Malegaon",
    "Districtname": "Nashik",
    "statename": "MAHARASHTRA"
  },
  {
    "pincode": "423212",
    "officename": "Sakuri B.O",
    "officeType": "B.O",
    "Deliverystatus": "Delivery",
    "divisionname": "Malegaon",
    "regionname": "Aurangabad",
    "circlename": "Maharashtra",
    "Taluk": "Malegaon",
    "Districtname": "Nashik",
    "statename": "MAHARASHTRA"
  },
  {
    "pincode": "423212",
    "officename": "Yesgaon B.O",
    "officeType": "B.O",
    "Deliverystatus": "Delivery",
    "divisionname": "Malegaon",
    "regionname": "Aurangabad",
    "circlename": "Maharashtra",
    "Taluk": "Malegaon",
    "Districtname": "Nashik",
    "statename": "MAHARASHTRA"
  }
]
