[
  {
    "pincode": "423206",
    "officename": "Chinchave Galane B.O",
    "officeType": "B.O",
    "Deliverystatus": "Delivery",
    "divisionname": "Malegaon",
    "regionname": "Aurangabad",
    "circlename": "Maharashtra",
    "Taluk": "Malegaon",
    "Districtname": "Nashik",
    "statename": "MAHARASHTRA"
  },
  {
    "pincode": "423206",
    "officename": "Kashti B.O",
    "officeType": "B.O",
    "Deliverystatus": "Delivery",
    "divisionname": "Malegaon",
    "regionname": "Aurangabad",
    "circlename": "Maharashtra",
    "Taluk": "Malegaon",
    "Districtname": "Nashik",
    "statename": "MAHARASHTRA"
  },
  {
    "pincode": "423206",
    "officename": "Khakurdi B.O",
    "officeType": "B.O",
    "Deliverystatus": "Delivery",
    "divisionname": "Malegaon",
    "regionname": "Aurangabad",
    "circlename": "Maharashtra",
    "Taluk": "Malegaon",
    "Districtname": "Nashik",
    "statename": "MAHARASHTRA"
  },
  {
    "pincode": "423206",
    "officename": "Pohane B.O",
    "officeType": "B.O",
    "Deliverystatus": "Delivery",
    "divisionname": "Malegaon",
    "regionname": "Aurangabad",
    "circlename": "Maharashtra",
    "Taluk": "Malegaon",
    "Districtname": "Nashik",
    "statename": "MAHARASHTRA"
  },
  {
    "pincode": "423206",
    "officename": "Vadel B.O",
    "officeType": "B.O",
    "Deliverystatus": "Delivery",
    "divisionname": "Malegaon",
    "regionname": "Aurangabad",
    "circlename": "Maharashtra",
    "Taluk": "Malegaon",
    "Districtname": "Nashik",
    "statename": "MAHARASHTRA"
  },
  {
    "pincode": "423206",
    "officename": "Vadner Malegaon S.O",
    "officeType": "S.O",
    "Deliverystatus": "Delivery",
    "divisionname": "Malegaon",
    "regionname": "Aurangabad",
    "circlename": "Maharashtra",
    "Taluk": "Malegaon",
    "Districtname": "Nashik",
    "statename": "MAHARASHTRA"
  },
  {
    "pincode": "423206",
    "officename": "Valwade B.O",
    "officeType": "B.O",
    "Deliverystatus": "Delivery",
    "divisionname": "Malegaon",
    "regionname": "Aurangabad",
    "circlename": "Maharashtra",
    "Taluk": "Malegaon",
    "Districtname": "Nashik",
    "statename": "MAHARASHTRA"
  },
  {
    "pincode": "423206",
    "officename": "Virane B.O",
    "officeType": "B.O",
    "Deliverystatus": "Delivery",
    "divisionname": "Malegaon",
    "regionname": "Aurangabad",
    "circlename": "Maharashtra",
    "Taluk": "Malegaon",
    "Districtname": "Nashik",
    "statename": "MAHARASHTRA"
  }
]
