[
  {
    "pincode": "423403",
    "officename": "Dhamode B.O",
    "officeType": "B.O",
    "Deliverystatus": "Delivery",
    "divisionname": "Malegaon",
    "regionname": "Aurangabad",
    "circlename": "Maharashtra",
    "Taluk": "Yeola",
    "Districtname": "Nashik",
    "statename": "MAHARASHTRA"
  },
  {
    "pincode": "423403",
    "officename": "Khirdisathe B.O",
    "officeType": "B.O",
    "Deliverystatus": "Delivery",
    "divisionname": "Malegaon",
    "regionname": "Aurangabad",
    "circlename": "Maharashtra",
    "Taluk": "Yeola",
    "Districtname": "Nashik",
    "statename": "MAHARASHTRA"
  },
  {
    "pincode": "423403",
    "officename": "Kusmadi B.O",
    "officeType": "B.O",
    "Deliverystatus": "Delivery",
    "divisionname": "Malegaon",
    "regionname": "Aurangabad",
    "circlename": "Maharashtra",
    "Taluk": "Yeola",
    "Districtname": "Nashik",
    "statename": "MAHARASHTRA"
  },
  {
    "pincode": "423403",
    "officename": "Kusur B.O",
    "officeType": "B.O",
    "Deliverystatus": "Delivery",
    "divisionname": "Malegaon",
    "regionname": "Aurangabad",
    "circlename": "Maharashtra",
    "Taluk": "Yeola.",
    "Districtname": "Nashik",
    "statename": "MAHARASHTRA"
  },
  {
    "pincode": "423403",
    "officename": "Mamdapur B.O",
    "officeType": "B.O",
    "Deliverystatus": "Delivery",
    "divisionname": "Malegaon",
    "regionname": "Aurangabad",
    "circlename": "Maharashtra",
    "Taluk": "Yeola",
    "Districtname": "Nashik",
    "statename": "MAHARASHTRA"
  },
  {
    "pincode": "423403",
    "officename": "Matulthan B.O",
    "officeType": "B.O",
    "Deliverystatus": "Delivery",
    "divisionname": "Malegaon",
    "regionname": "Aurangabad",
    "circlename": "Maharashtra",
    "Taluk": "Yeola",
    "Districtname": "Nashik",
    "statename": "MAHARASHTRA"
  },
  {
    "pincode": "423403",
    "officename": "Nagarsul S.O",
    "officeType": "S.O",
    "Deliverystatus": "Delivery",
    "divisionname": "Malegaon",
    "regionname": "Aurangabad",
    "circlename": "Maharashtra",
    "Taluk": "Yeola",
    "Districtname": "Nashik",
    "statename": "MAHARASHTRA"
  },
  {
    "pincode": "423403",
    "officename": "Rajapur B.O",
    "officeType": "B.O",
    "Deliverystatus": "Delivery",
    "divisionname": "Malegaon",
    "regionname": "Aurangabad",
    "circlename": "Maharashtra",
    "Taluk": "Yeola",
    "Districtname": "Nashik",
    "statename": "MAHARASHTRA"
  }
]
