[
  {
    "pincode": "423501",
    "officename": "Athambe B.O",
    "officeType": "B.O",
    "Deliverystatus": "Delivery",
    "divisionname": "Malegaon",
    "regionname": "Aurangabad",
    "circlename": "Maharashtra",
    "Taluk": "Kalwan",
    "Districtname": "Nashik",
    "statename": "MAHARASHTRA"
  },
  {
    "pincode": "423501",
    "officename": "Bej B.O",
    "officeType": "B.O",
    "Deliverystatus": "Delivery",
    "divisionname": "Malegaon",
    "regionname": "Aurangabad",
    "circlename": "Maharashtra",
    "Taluk": "Kalwan",
    "Districtname": "Nashik",
    "statename": "MAHARASHTRA"
  },
  {
    "pincode": "423501",
    "officename": "Desrane B.O",
    "officeType": "B.O",
    "Deliverystatus": "Delivery",
    "divisionname": "Malegaon",
    "regionname": "Aurangabad",
    "circlename": "Maharashtra",
    "Taluk": "Kalwan",
    "Districtname": "Nashik",
    "statename": "MAHARASHTRA"
  },
  {
    "pincode": "423501",
    "officename": "Ganore B.O",
    "officeType": "B.O",
    "Deliverystatus": "Delivery",
    "divisionname": "Malegaon",
    "regionname": "Aurangabad",
    "circlename": "Maharashtra",
    "Taluk": "Kalwan",
    "Districtname": "Nashik",
    "statename": "MAHARASHTRA"
  },
  {
    "pincode": "423501",
    "officename": "Kalwan S.O",
    "officeType": "S.O",
    "Deliverystatus": "Delivery",
    "divisionname": "Malegaon",
    "regionname": "Aurangabad",
    "circlename": "Maharashtra",
    "Taluk": "Kalwan",
    "Districtname": "Nashik",
    "statename": "MAHARASHTRA"
  },
  {
    "pincode": "423501",
    "officename": "Manur B.O",
    "officeType": "B.O",
    "Deliverystatus": "Delivery",
    "divisionname": "Malegaon",
    "regionname": "Aurangabad",
    "circlename": "Maharashtra",
    "Taluk": "Kalwan",
    "Districtname": "Nashik",
    "statename": "MAHARASHTRA"
  },
  {
    "pincode": "423501",
    "officename": "Mokbhangi B.O",
    "officeType": "B.O",
    "Deliverystatus": "Delivery",
    "divisionname": "Malegaon",
    "regionname": "Aurangabad",
    "circlename": "Maharashtra",
    "Taluk": "Kalwan",
    "Districtname": "Nashik",
    "statename": "MAHARASHTRA"
  },
  {
    "pincode": "423501",
    "officename": "Nanduri B.O",
    "officeType": "B.O",
    "Deliverystatus": "Delivery",
    "divisionname": "Malegaon",
    "regionname": "Aurangabad",
    "circlename": "Maharashtra",
    "Taluk": "Kalwan",
    "Districtname": "Nashik",
    "statename": "MAHARASHTRA"
  },
  {
    "pincode": "423501",
    "officename": "Narul B.O",
    "officeType": "B.O",
    "Deliverystatus": "Delivery",
    "divisionname": "Malegaon",
    "regionname": "Aurangabad",
    "circlename": "Maharashtra",
    "Taluk": "Kalwn",
    "Districtname": "Nashik",
    "statename": "MAHARASHTRA"
  },
  {
    "pincode": "423501",
    "officename": "Nivane B.O",
    "officeType": "B.O",
    "Deliverystatus": "Delivery",
    "divisionname": "Malegaon",
    "regionname": "Aurangabad",
    "circlename": "Maharashtra",
    "Taluk": "Kalwan",
    "Districtname": "Nashik",
    "statename": "MAHARASHTRA"
  },
  {
    "pincode": "423501",
    "officename": "Otur B.O",
    "officeType": "B.O",
    "Deliverystatus": "Delivery",
    "divisionname": "Malegaon",
    "regionname": "Aurangabad",
    "circlename": "Maharashtra",
    "Taluk": "Kalwan",
    "Districtname": "Nashik",
    "statename": "MAHARASHTRA"
  },
  {
    "pincode": "423501",
    "officename": "Pale BK B.O",
    "officeType": "B.O",
    "Deliverystatus": "Delivery",
    "divisionname": "Malegaon",
    "regionname": "Aurangabad",
    "circlename": "Maharashtra",
    "Taluk": "Kalwan",
    "Districtname": "Nashik",
    "statename": "MAHARASHTRA"
  },
  {
    "pincode": "423501",
    "officename": "Pilkos B.O",
    "officeType": "B.O",
    "Deliverystatus": "Delivery",
    "divisionname": "Malegaon",
    "regionname": "Aurangabad",
    "circlename": "Maharashtra",
    "Taluk": "Satana",
    "Districtname": "Nashik",
    "statename": "MAHARASHTRA"
  },
  {
    "pincode": "423501",
    "officename": "Ravalji B.O",
    "officeType": "B.O",
    "Deliverystatus": "Delivery",
    "divisionname": "Malegaon",
    "regionname": "Aurangabad",
    "circlename": "Maharashtra",
    "Taluk": "Kalwan",
    "Districtname": "Nashik",
    "statename": "MAHARASHTRA"
  },
  {
    "pincode": "423501",
    "officename": "Sakora B.O",
    "officeType": "B.O",
    "Deliverystatus": "Delivery",
    "divisionname": "Malegaon",
    "regionname": "Aurangabad",
    "circlename": "Maharashtra",
    "Taluk": "Kalwan",
    "Districtname": "Nashik",
    "statename": "MAHARASHTRA"
  },
  {
    "pincode": "423501",
    "officename": "Sapthshringigarh B.O",
    "officeType": "B.O",
    "Deliverystatus": "Delivery",
    "divisionname": "Malegaon",
    "regionname": "Aurangabad",
    "circlename": "Maharashtra",
    "Taluk": "Kalwan",
    "Districtname": "Nashik",
    "statename": "MAHARASHTRA"
  },
  {
    "pincode": "423501",
    "officename": "Shirasmani B.O",
    "officeType": "B.O",
    "Deliverystatus": "Delivery",
    "divisionname": "Malegaon",
    "regionname": "Aurangabad",
    "circlename": "Maharashtra",
    "Taluk": "Kalwan",
    "Districtname": "Nashik",
    "statename": "MAHARASHTRA"
  },
  {
    "pincode": "423501",
    "officename": "Visapur B.O",
    "officeType": "B.O",
    "Deliverystatus": "Delivery",
    "divisionname": "Malegaon",
    "regionname": "Aurangabad",
    "circlename": "Maharashtra",
    "Taluk": "Satana",
    "Districtname": "Nashik",
    "statename": "MAHARASHTRA"
  }
]
