[
  {
    "pincode": "423701",
    "officename": "Akoli Wadgaon B.O",
    "officeType": "B.O",
    "Deliverystatus": "Delivery",
    "divisionname": "Aurangabad(Maharashtra)",
    "regionname": "Aurangabad",
    "circlename": "Maharashtra",
    "Taluk": "Vaijapur",
    "Districtname": "Aurangabad",
    "statename": "MAHARASHTRA"
  },
  {
    "pincode": "423701",
    "officename": "Bhaggaon B.O",
    "officeType": "B.O",
    "Deliverystatus": "Delivery",
    "divisionname": "Aurangabad(Maharashtra)",
    "regionname": "Aurangabad",
    "circlename": "Maharashtra",
    "Taluk": "Vaijapur",
    "Districtname": "Aurangabad",
    "statename": "MAHARASHTRA"
  },
  {
    "pincode": "423701",
    "officename": "Bhagur B.O",
    "officeType": "B.O",
    "Deliverystatus": "Delivery",
    "divisionname": "Aurangabad(Maharashtra)",
    "regionname": "Aurangabad",
    "circlename": "Maharashtra",
    "Taluk": "Vaijapur",
    "Districtname": "Aurangabad",
    "statename": "MAHARASHTRA"
  },
  {
    "pincode": "423701",
    "officename": "Chandgon B.O",
    "officeType": "B.O",
    "Deliverystatus": "Delivery",
    "divisionname": "Aurangabad(Maharashtra)",
    "regionname": "Aurangabad",
    "circlename": "Maharashtra",
    "Taluk": "Vaijapur",
    "Districtname": "Aurangabad",
    "statename": "MAHARASHTRA"
  },
  {
    "pincode": "423701",
    "officename": "Chinchadgaon B.O",
    "officeType": "B.O",
    "Deliverystatus": "Delivery",
    "divisionname": "Aurangabad(Maharashtra)",
    "regionname": "Aurangabad",
    "circlename": "Maharashtra",
    "Taluk": "Vaijapur",
    "Districtname": "Aurangabad",
    "statename": "MAHARASHTRA"
  },
  {
    "pincode": "423701",
    "officename": "Chorwaghalgaon B.O",
    "officeType": "B.O",
    "Deliverystatus": "Delivery",
    "divisionname": "Aurangabad(Maharashtra)",
    "regionname": "Aurangabad",
    "circlename": "Maharashtra",
    "Taluk": "Vaijapur",
    "Districtname": "Aurangabad",
    "statename": "MAHARASHTRA"
  },
  {
    "pincode": "423701",
    "officename": "Gadhepimpalgaon B.O",
    "officeType": "B.O",
    "Deliverystatus": "Delivery",
    "divisionname": "Aurangabad(Maharashtra)",
    "regionname": "Aurangabad",
    "circlename": "Maharashtra",
    "Taluk": "Vaijapur",
    "Districtname": "Aurangabad",
    "statename": "MAHARASHTRA"
  },
  {
    "pincode": "423701",
    "officename": "Hingoni B.O",
    "officeType": "B.O",
    "Deliverystatus": "Delivery",
    "divisionname": "Aurangabad(Maharashtra)",
    "regionname": "Aurangabad",
    "circlename": "Maharashtra",
    "Taluk": "Vaijapur",
    "Districtname": "Aurangabad",
    "statename": "MAHARASHTRA"
  },
  {
    "pincode": "423701",
    "officename": "Jambhargaon B.O",
    "officeType": "B.O",
    "Deliverystatus": "Delivery",
    "divisionname": "Aurangabad(Maharashtra)",
    "regionname": "Aurangabad",
    "circlename": "Maharashtra",
    "Taluk": "Vaijapur",
    "Districtname": "Aurangabad",
    "statename": "MAHARASHTRA"
  },
  {
    "pincode": "423701",
    "officename": "Jategaon B.O",
    "officeType": "B.O",
    "Deliverystatus": "Delivery",
    "divisionname": "Aurangabad(Maharashtra)",
    "regionname": "Aurangabad",
    "circlename": "Maharashtra",
    "Taluk": "Vaijapur",
    "Districtname": "Aurangabad",
    "statename": "MAHARASHTRA"
  },
  {
    "pincode": "423701",
    "officename": "Katepimpalgaon B.O",
    "officeType": "B.O",
    "Deliverystatus": "Delivery",
    "divisionname": "Aurangabad(Maharashtra)",
    "regionname": "Aurangabad",
    "circlename": "Maharashtra",
    "Taluk": "Vaijapur",
    "Districtname": "Aurangabad",
    "statename": "MAHARASHTRA"
  },
  {
    "pincode": "423701",
    "officename": "Ladgaon B.O",
    "officeType": "B.O",
    "Deliverystatus": "Delivery",
    "divisionname": "Aurangabad(Maharashtra)",
    "regionname": "Aurangabad",
    "circlename": "Maharashtra",
    "Taluk": "Vaijapur",
    "Districtname": "Aurangabad",
    "statename": "MAHARASHTRA"
  },
  {
    "pincode": "423701",
    "officename": "Mahalgaon B.O",
    "officeType": "B.O",
    "Deliverystatus": "Delivery",
    "divisionname": "Aurangabad(Maharashtra)",
    "regionname": "Aurangabad",
    "circlename": "Maharashtra",
    "Taluk": "Vaijapur",
    "Districtname": "Aurangabad",
    "statename": "MAHARASHTRA"
  },
  {
    "pincode": "423701",
    "officename": "Maleghogargaon B.O",
    "officeType": "B.O",
    "Deliverystatus": "Delivery",
    "divisionname": "Aurangabad(Maharashtra)",
    "regionname": "Aurangabad",
    "circlename": "Maharashtra",
    "Taluk": "Vaijapur",
    "Districtname": "Aurangabad",
    "statename": "MAHARASHTRA"
  },
  {
    "pincode": "423701",
    "officename": "Nagamthan B.O",
    "officeType": "B.O",
    "Deliverystatus": "Delivery",
    "divisionname": "Aurangabad(Maharashtra)",
    "regionname": "Aurangabad",
    "circlename": "Maharashtra",
    "Taluk": "Vaijapur",
    "Districtname": "Aurangabad",
    "statename": "MAHARASHTRA"
  },
  {
    "pincode": "423701",
    "officename": "Rotegaon R.S. B.O",
    "officeType": "B.O",
    "Deliverystatus": "Delivery",
    "divisionname": "Aurangabad(Maharashtra)",
    "regionname": "Aurangabad",
    "circlename": "Maharashtra",
    "Taluk": "Vaijapur",
    "Districtname": "Aurangabad",
    "statename": "MAHARASHTRA"
  },
  {
    "pincode": "423701",
    "officename": "Sirasgaon B.O",
    "officeType": "B.O",
    "Deliverystatus": "Delivery",
    "divisionname": "Aurangabad(Maharashtra)",
    "regionname": "Aurangabad",
    "circlename": "Maharashtra",
    "Taluk": "Vaijapur",
    "Districtname": "Aurangabad",
    "statename": "MAHARASHTRA"
  },
  {
    "pincode": "423701",
    "officename": "Vaijapur S.O",
    "officeType": "S.O",
    "Deliverystatus": "Delivery",
    "divisionname": "Aurangabad(Maharashtra)",
    "regionname": "Aurangabad",
    "circlename": "Maharashtra",
    "Taluk": "Vaijapur",
    "Districtname": "Aurangabad",
    "statename": "MAHARASHTRA"
  },
  {
    "pincode": "423701",
    "officename": "Vaijapur Town S.O",
    "officeType": "S.O",
    "Deliverystatus": "Non-Delivery",
    "divisionname": "Aurangabad(Maharashtra)",
    "regionname": "Aurangabad",
    "circlename": "Maharashtra",
    "Taluk": "Vaijapur",
    "Districtname": "Aurangabad",
    "statename": "MAHARASHTRA"
  },
  {
    "pincode": "423701",
    "officename": "Veergaon B.O",
    "officeType": "B.O",
    "Deliverystatus": "Delivery",
    "divisionname": "Aurangabad(Maharashtra)",
    "regionname": "Aurangabad",
    "circlename": "Maharashtra",
    "Taluk": "Vaijapur",
    "Districtname": "Aurangabad",
    "statename": "MAHARASHTRA"
  },
  {
    "pincode": "423701",
    "officename": "Wanjargaon B.O",
    "officeType": "B.O",
    "Deliverystatus": "Delivery",
    "divisionname": "Aurangabad(Maharashtra)",
    "regionname": "Aurangabad",
    "circlename": "Maharashtra",
    "Taluk": "Vaijapur",
    "Districtname": "Aurangabad",
    "statename": "MAHARASHTRA"
  }
]
