[
  {
    "pincode": "424106",
    "officename": "Bahal B.O",
    "officeType": "B.O",
    "Deliverystatus": "Delivery",
    "divisionname": "Jalgaon",
    "regionname": "Aurangabad",
    "circlename": "Maharashtra",
    "Taluk": "Chalisgaon",
    "Districtname": "Jalgaon",
    "statename": "MAHARASHTRA"
  },
  {
    "pincode": "424106",
    "officename": "Bhaur B.O",
    "officeType": "B.O",
    "Deliverystatus": "Delivery",
    "divisionname": "Jalgaon",
    "regionname": "Aurangabad",
    "circlename": "Maharashtra",
    "Taluk": "Chalisgaon",
    "Districtname": "Jalgaon",
    "statename": "MAHARASHTRA"
  },
  {
    "pincode": "424106",
    "officename": "Dahiwad B.O",
    "officeType": "B.O",
    "Deliverystatus": "Delivery",
    "divisionname": "Jalgaon",
    "regionname": "Aurangabad",
    "circlename": "Maharashtra",
    "Taluk": "Chalisgaon",
    "Districtname": "Jalgaon",
    "statename": "MAHARASHTRA"
  },
  {
    "pincode": "424106",
    "officename": "Dhamangaon B.O",
    "officeType": "B.O",
    "Deliverystatus": "Delivery",
    "divisionname": "Jalgaon",
    "regionname": "Aurangabad",
    "circlename": "Maharashtra",
    "Taluk": "Chalisgaon",
    "Districtname": "Jalgaon",
    "statename": "MAHARASHTRA"
  },
  {
    "pincode": "424106",
    "officename": "Gudhe B.O",
    "officeType": "B.O",
    "Deliverystatus": "Delivery",
    "divisionname": "Jalgaon",
    "regionname": "Aurangabad",
    "circlename": "Maharashtra",
    "Taluk": "Bhadgaon",
    "Districtname": "Jalgaon",
    "statename": "MAHARASHTRA"
  },
  {
    "pincode": "424106",
    "officename": "Jamda B.O",
    "officeType": "B.O",
    "Deliverystatus": "Delivery",
    "divisionname": "Jalgaon",
    "regionname": "Aurangabad",
    "circlename": "Maharashtra",
    "Taluk": "Chalisgaon",
    "Districtname": "Jalgaon",
    "statename": "MAHARASHTRA"
  },
  {
    "pincode": "424106",
    "officename": "Kalmadu B.O",
    "officeType": "B.O",
    "Deliverystatus": "Delivery",
    "divisionname": "Jalgaon",
    "regionname": "Aurangabad",
    "circlename": "Maharashtra",
    "Taluk": "Chalisgaon",
    "Districtname": "Jalgaon",
    "statename": "MAHARASHTRA"
  },
  {
    "pincode": "424106",
    "officename": "Khakdesim B.O",
    "officeType": "B.O",
    "Deliverystatus": "Delivery",
    "divisionname": "Jalgaon",
    "regionname": "Aurangabad",
    "circlename": "Maharashtra",
    "Taluk": "Chalisgaon",
    "Districtname": "Jalgaon",
    "statename": "MAHARASHTRA"
  },
  {
    "pincode": "424106",
    "officename": "Kunjhar B.O",
    "officeType": "B.O",
    "Deliverystatus": "Delivery",
    "divisionname": "Jalgaon",
    "regionname": "Aurangabad",
    "circlename": "Maharashtra",
    "Taluk": "Chalisgaon",
    "Districtname": "Jalgaon",
    "statename": "MAHARASHTRA"
  },
  {
    "pincode": "424106",
    "officename": "Londhe B.O",
    "officeType": "B.O",
    "Deliverystatus": "Delivery",
    "divisionname": "Jalgaon",
    "regionname": "Aurangabad",
    "circlename": "Maharashtra",
    "Taluk": "Chalisgaon",
    "Districtname": "Jalgaon",
    "statename": "MAHARASHTRA"
  },
  {
    "pincode": "424106",
    "officename": "Mehunbare S.O",
    "officeType": "S.O",
    "Deliverystatus": "Delivery",
    "divisionname": "Jalgaon",
    "regionname": "Aurangabad",
    "circlename": "Maharashtra",
    "Taluk": "Chalisgaon",
    "Districtname": "Jalgaon",
    "statename": "MAHARASHTRA"
  },
  {
    "pincode": "424106",
    "officename": "Varkhede Budruk B.O",
    "officeType": "B.O",
    "Deliverystatus": "Delivery",
    "divisionname": "Jalgaon",
    "regionname": "Aurangabad",
    "circlename": "Maharashtra",
    "Taluk": "Chalisgaon",
    "Districtname": "Jalgaon",
    "statename": "MAHARASHTRA"
  }
]
