[
  {
    "pincode": "424119",
    "officename": "Beldarwadi B.O",
    "officeType": "B.O",
    "Deliverystatus": "Delivery",
    "divisionname": "Jalgaon",
    "regionname": "Aurangabad",
    "circlename": "Maharashtra",
    "Taluk": "Chalisgaon",
    "Districtname": "Jalgaon",
    "statename": "MAHARASHTRA"
  },
  {
    "pincode": "424119",
    "officename": "Bhoras Budruk B.O",
    "officeType": "B.O",
    "Deliverystatus": "Delivery",
    "divisionname": "Jalgaon",
    "regionname": "Aurangabad",
    "circlename": "Maharashtra",
    "Taluk": "Chalisgaon",
    "Districtname": "Jalgaon",
    "statename": "MAHARASHTRA"
  },
  {
    "pincode": "424119",
    "officename": "Bilakhed B.O",
    "officeType": "B.O",
    "Deliverystatus": "Delivery",
    "divisionname": "Jalgaon",
    "regionname": "Aurangabad",
    "circlename": "Maharashtra",
    "Taluk": "Chalisgaon",
    "Districtname": "Jalgaon",
    "statename": "MAHARASHTRA"
  },
  {
    "pincode": "424119",
    "officename": "Borkheda B.O",
    "officeType": "B.O",
    "Deliverystatus": "Delivery",
    "divisionname": "Jalgaon",
    "regionname": "Aurangabad",
    "circlename": "Maharashtra",
    "Taluk": "Chalisgaon",
    "Districtname": "Jalgaon",
    "statename": "MAHARASHTRA"
  },
  {
    "pincode": "424119",
    "officename": "C.T. Mill Road S.O",
    "officeType": "S.O",
    "Deliverystatus": "Delivery",
    "divisionname": "Jalgaon",
    "regionname": "Aurangabad",
    "circlename": "Maharashtra",
    "Taluk": "Chalisgaon",
    "Districtname": "Jalgaon",
    "statename": "MAHARASHTRA"
  },
  {
    "pincode": "424119",
    "officename": "Deoli B.O",
    "officeType": "B.O",
    "Deliverystatus": "Delivery",
    "divisionname": "Jalgaon",
    "regionname": "Aurangabad",
    "circlename": "Maharashtra",
    "Taluk": "Chalisgaon",
    "Districtname": "Jalgaon",
    "statename": "MAHARASHTRA"
  },
  {
    "pincode": "424119",
    "officename": "Ganeshpur B.O",
    "officeType": "B.O",
    "Deliverystatus": "Delivery",
    "divisionname": "Jalgaon",
    "regionname": "Aurangabad",
    "circlename": "Maharashtra",
    "Taluk": "Chalisgaon",
    "Districtname": "Jalgaon",
    "statename": "MAHARASHTRA"
  },
  {
    "pincode": "424119",
    "officename": "Hatle B.O",
    "officeType": "B.O",
    "Deliverystatus": "Delivery",
    "divisionname": "Jalgaon",
    "regionname": "Aurangabad",
    "circlename": "Maharashtra",
    "Taluk": "Chalisgaon",
    "Districtname": "Jalgaon",
    "statename": "MAHARASHTRA"
  },
  {
    "pincode": "424119",
    "officename": "Kargaon B.O",
    "officeType": "B.O",
    "Deliverystatus": "Delivery",
    "divisionname": "Jalgaon",
    "regionname": "Aurangabad",
    "circlename": "Maharashtra",
    "Taluk": "Chalisgaon",
    "Districtname": "Jalgaon",
    "statename": "MAHARASHTRA"
  },
  {
    "pincode": "424119",
    "officename": "Kharjai B.O",
    "officeType": "B.O",
    "Deliverystatus": "Delivery",
    "divisionname": "Jalgaon",
    "regionname": "Aurangabad",
    "circlename": "Maharashtra",
    "Taluk": "Chalisgaon",
    "Districtname": "Jalgaon",
    "statename": "MAHARASHTRA"
  },
  {
    "pincode": "424119",
    "officename": "Kherde B.O",
    "officeType": "B.O",
    "Deliverystatus": "Delivery",
    "divisionname": "Jalgaon",
    "regionname": "Aurangabad",
    "circlename": "Maharashtra",
    "Taluk": "Chalisgaon",
    "Districtname": "Jalgaon",
    "statename": "MAHARASHTRA"
  },
  {
    "pincode": "424119",
    "officename": "Lonje B.O",
    "officeType": "B.O",
    "Deliverystatus": "Delivery",
    "divisionname": "Jalgaon",
    "regionname": "Aurangabad",
    "circlename": "Maharashtra",
    "Taluk": "Chalisgaon",
    "Districtname": "Jalgaon",
    "statename": "MAHARASHTRA"
  },
  {
    "pincode": "424119",
    "officename": "Ozar B.O",
    "officeType": "B.O",
    "Deliverystatus": "Delivery",
    "divisionname": "Jalgaon",
    "regionname": "Aurangabad",
    "circlename": "Maharashtra",
    "Taluk": "Chalisgaon",
    "Districtname": "Jalgaon",
    "statename": "MAHARASHTRA"
  },
  {
    "pincode": "424119",
    "officename": "Patnadevi B.O",
    "officeType": "B.O",
    "Deliverystatus": "Delivery",
    "divisionname": "Jalgaon",
    "regionname": "Aurangabad",
    "circlename": "Maharashtra",
    "Taluk": "Chalisgaon",
    "Districtname": "Jalgaon",
    "statename": "MAHARASHTRA"
  },
  {
    "pincode": "424119",
    "officename": "Pilkhod B.O",
    "officeType": "B.O",
    "Deliverystatus": "Delivery",
    "divisionname": "Jalgaon",
    "regionname": "Aurangabad",
    "circlename": "Maharashtra",
    "Taluk": "Chalisgaon",
    "Districtname": "Jalgaon",
    "statename": "MAHARASHTRA"
  },
  {
    "pincode": "424119",
    "officename": "Pimparkhed B.O",
    "officeType": "B.O",
    "Deliverystatus": "Delivery",
    "divisionname": "Jalgaon",
    "regionname": "Aurangabad",
    "circlename": "Maharashtra",
    "Taluk": "Chalisgaon",
    "Districtname": "Jalgaon",
    "statename": "MAHARASHTRA"
  },
  {
    "pincode": "424119",
    "officename": "Ranjangaon B.O",
    "officeType": "B.O",
    "Deliverystatus": "Delivery",
    "divisionname": "Jalgaon",
    "regionname": "Aurangabad",
    "circlename": "Maharashtra",
    "Taluk": "Chalisgoan",
    "Districtname": "Jalgaon",
    "statename": "MAHARASHTRA"
  },
  {
    "pincode": "424119",
    "officename": "Sangavi B.O",
    "officeType": "B.O",
    "Deliverystatus": "Delivery",
    "divisionname": "Jalgaon",
    "regionname": "Aurangabad",
    "circlename": "Maharashtra",
    "Taluk": "Chalisgaon",
    "Districtname": "Jalgaon",
    "statename": "MAHARASHTRA"
  },
  {
    "pincode": "424119",
    "officename": "Saygaon B.O",
    "officeType": "B.O",
    "Deliverystatus": "Delivery",
    "divisionname": "Jalgaon",
    "regionname": "Aurangabad",
    "circlename": "Maharashtra",
    "Taluk": "Chalisgaon",
    "Districtname": "Jalgaon",
    "statename": "MAHARASHTRA"
  },
  {
    "pincode": "424119",
    "officename": "Shindi B.O",
    "officeType": "B.O",
    "Deliverystatus": "Delivery",
    "divisionname": "Jalgaon",
    "regionname": "Aurangabad",
    "circlename": "Maharashtra",
    "Taluk": "Chalisgaon",
    "Districtname": "Jalgaon",
    "statename": "MAHARASHTRA"
  },
  {
    "pincode": "424119",
    "officename": "Shirasgaon B.O",
    "officeType": "B.O",
    "Deliverystatus": "Delivery",
    "divisionname": "Jalgaon",
    "regionname": "Aurangabad",
    "circlename": "Maharashtra",
    "Taluk": "Chalisgaon",
    "Districtname": "Jalgaon",
    "statename": "MAHARASHTRA"
  },
  {
    "pincode": "424119",
    "officename": "Takli P.D. B.O",
    "officeType": "B.O",
    "Deliverystatus": "Delivery",
    "divisionname": "Jalgaon",
    "regionname": "Aurangabad",
    "circlename": "Maharashtra",
    "Taluk": "Chalisgaon",
    "Districtname": "Jalgaon",
    "statename": "MAHARASHTRA"
  },
  {
    "pincode": "424119",
    "officename": "Talonde Digar B.O",
    "officeType": "B.O",
    "Deliverystatus": "Delivery",
    "divisionname": "Jalgaon",
    "regionname": "Aurangabad",
    "circlename": "Maharashtra",
    "Taluk": "Chalisgaon",
    "Districtname": "Jalgaon",
    "statename": "MAHARASHTRA"
  },
  {
    "pincode": "424119",
    "officename": "Tambole Budruk B.O",
    "officeType": "B.O",
    "Deliverystatus": "Delivery",
    "divisionname": "Jalgaon",
    "regionname": "Aurangabad",
    "circlename": "Maharashtra",
    "Taluk": "Chalisgaon",
    "Districtname": "Jalgaon",
    "statename": "MAHARASHTRA"
  },
  {
    "pincode": "424119",
    "officename": "Tarwade B.O",
    "officeType": "B.O",
    "Deliverystatus": "Delivery",
    "divisionname": "Jalgaon",
    "regionname": "Aurangabad",
    "circlename": "Maharashtra",
    "Taluk": "Chalisgaon",
    "Districtname": "Jalgaon",
    "statename": "MAHARASHTRA"
  },
  {
    "pincode": "424119",
    "officename": "Umbarkhed B.O",
    "officeType": "B.O",
    "Deliverystatus": "Delivery",
    "divisionname": "Jalgaon",
    "regionname": "Aurangabad",
    "circlename": "Maharashtra",
    "Taluk": "Chalisgaon",
    "Districtname": "Jalgaon",
    "statename": "MAHARASHTRA"
  },
  {
    "pincode": "424119",
    "officename": "Upkhed B.O",
    "officeType": "B.O",
    "Deliverystatus": "Delivery",
    "divisionname": "Jalgaon",
    "regionname": "Aurangabad",
    "circlename": "Maharashtra",
    "Taluk": "Chalisgaon",
    "Districtname": "Jalgaon",
    "statename": "MAHARASHTRA"
  },
  {
    "pincode": "424119",
    "officename": "Vadgaon Lambe B.O",
    "officeType": "B.O",
    "Deliverystatus": "Delivery",
    "divisionname": "Jalgaon",
    "regionname": "Aurangabad",
    "circlename": "Maharashtra",
    "Taluk": "Chalisgaon",
    "Districtname": "Jalgaon",
    "statename": "MAHARASHTRA"
  },
  {
    "pincode": "424119",
    "officename": "Wade B.O",
    "officeType": "B.O",
    "Deliverystatus": "Delivery",
    "divisionname": "Jalgaon",
    "regionname": "Aurangabad",
    "circlename": "Maharashtra",
    "Taluk": "Chalisgaon",
    "Districtname": "Jalgaon",
    "statename": "MAHARASHTRA"
  },
  {
    "pincode": "424119",
    "officename": "Waghdu B.O",
    "officeType": "B.O",
    "Deliverystatus": "Delivery",
    "divisionname": "Jalgaon",
    "regionname": "Aurangabad",
    "circlename": "Maharashtra",
    "Taluk": "Chalisgaon",
    "Districtname": "Jalgaon",
    "statename": "MAHARASHTRA"
  }
]
