[
  {
    "pincode": "424105",
    "officename": "Amadade B.O",
    "officeType": "B.O",
    "Deliverystatus": "Delivery",
    "divisionname": "Jalgaon",
    "regionname": "Aurangabad",
    "circlename": "Maharashtra",
    "Taluk": "Bhadgaon",
    "Districtname": "Jalgaon",
    "statename": "MAHARASHTRA"
  },
  {
    "pincode": "424105",
    "officename": "Anjanvihire B.O",
    "officeType": "B.O",
    "Deliverystatus": "Delivery",
    "divisionname": "Jalgaon",
    "regionname": "Aurangabad",
    "circlename": "Maharashtra",
    "Taluk": "Bhadgaon",
    "Districtname": "Jalgaon",
    "statename": "MAHARASHTRA"
  },
  {
    "pincode": "424105",
    "officename": "Bhadgaon S.O",
    "officeType": "S.O",
    "Deliverystatus": "Delivery",
    "divisionname": "Jalgaon",
    "regionname": "Aurangabad",
    "circlename": "Maharashtra",
    "Taluk": "Bhadgaon",
    "Districtname": "Jalgaon",
    "statename": "MAHARASHTRA"
  },
  {
    "pincode": "424105",
    "officename": "Khedgaon Khurd B.O",
    "officeType": "B.O",
    "Deliverystatus": "Delivery",
    "divisionname": "Jalgaon",
    "regionname": "Aurangabad",
    "circlename": "Maharashtra",
    "Taluk": "Bhadgaon",
    "Districtname": "Jalgaon",
    "statename": "MAHARASHTRA"
  },
  {
    "pincode": "424105",
    "officename": "Mahindale B.O",
    "officeType": "B.O",
    "Deliverystatus": "Delivery",
    "divisionname": "Jalgaon",
    "regionname": "Aurangabad",
    "circlename": "Maharashtra",
    "Taluk": "Bhadgaon",
    "Districtname": "Jalgaon",
    "statename": "MAHARASHTRA"
  },
  {
    "pincode": "424105",
    "officename": "Nimbhora B.O",
    "officeType": "B.O",
    "Deliverystatus": "Delivery",
    "divisionname": "Jalgaon",
    "regionname": "Aurangabad",
    "circlename": "Maharashtra",
    "Taluk": "Bhadgaon",
    "Districtname": "Jalgaon",
    "statename": "MAHARASHTRA"
  },
  {
    "pincode": "424105",
    "officename": "Picharde B.O",
    "officeType": "B.O",
    "Deliverystatus": "Delivery",
    "divisionname": "Jalgaon",
    "regionname": "Aurangabad",
    "circlename": "Maharashtra",
    "Taluk": "Bhadgaon",
    "Districtname": "Jalgaon",
    "statename": "MAHARASHTRA"
  },
  {
    "pincode": "424105",
    "officename": "Pimparkhed B.O",
    "officeType": "B.O",
    "Deliverystatus": "Delivery",
    "divisionname": "Jalgaon",
    "regionname": "Aurangabad",
    "circlename": "Maharashtra",
    "Taluk": "Bhadgaon",
    "Districtname": "Jalgaon",
    "statename": "MAHARASHTRA"
  },
  {
    "pincode": "424105",
    "officename": "Shivani B.O",
    "officeType": "B.O",
    "Deliverystatus": "Delivery",
    "divisionname": "Jalgaon",
    "regionname": "Aurangabad",
    "circlename": "Maharashtra",
    "Taluk": "Bhadgaon",
    "Districtname": "Jalgaon",
    "statename": "MAHARASHTRA"
  },
  {
    "pincode": "424105",
    "officename": "Vadji B.O",
    "officeType": "B.O",
    "Deliverystatus": "Delivery",
    "divisionname": "Jalgaon",
    "regionname": "Aurangabad",
    "circlename": "Maharashtra",
    "Taluk": "Bhadgaon",
    "Districtname": "Jalgaon",
    "statename": "MAHARASHTRA"
  }
]
