[
  {
    "pincode": "424201",
    "officename": "Anturli  -  Ii B.O",
    "officeType": "B.O",
    "Deliverystatus": "Delivery",
    "divisionname": "Jalgaon",
    "regionname": "Aurangabad",
    "circlename": "Maharashtra",
    "Taluk": "Pachora",
    "Districtname": "Jalgaon",
    "statename": "MAHARASHTRA"
  },
  {
    "pincode": "424201",
    "officename": "Anturli  -- IIi B.O",
    "officeType": "B.O",
    "Deliverystatus": "Delivery",
    "divisionname": "Jalgaon",
    "regionname": "Aurangabad",
    "circlename": "Maharashtra",
    "Taluk": "Pachora",
    "Districtname": "Jalgaon",
    "statename": "MAHARASHTRA"
  },
  {
    "pincode": "424201",
    "officename": "Anturli --i B.O",
    "officeType": "B.O",
    "Deliverystatus": "Delivery",
    "divisionname": "Jalgaon",
    "regionname": "Aurangabad",
    "circlename": "Maharashtra",
    "Taluk": "Pachora",
    "Districtname": "Jalgaon",
    "statename": "MAHARASHTRA"
  },
  {
    "pincode": "424201",
    "officename": "Bamrud Budruk B.O",
    "officeType": "B.O",
    "Deliverystatus": "Delivery",
    "divisionname": "Jalgaon",
    "regionname": "Aurangabad",
    "circlename": "Maharashtra",
    "Taluk": "Pachora",
    "Districtname": "Jalgaon",
    "statename": "MAHARASHTRA"
  },
  {
    "pincode": "424201",
    "officename": "Galan B.O",
    "officeType": "B.O",
    "Deliverystatus": "Delivery",
    "divisionname": "Jalgaon",
    "regionname": "Aurangabad",
    "circlename": "Maharashtra",
    "Taluk": "Pachora",
    "Districtname": "Jalgaon",
    "statename": "MAHARASHTRA"
  },
  {
    "pincode": "424201",
    "officename": "Girad B.O",
    "officeType": "B.O",
    "Deliverystatus": "Delivery",
    "divisionname": "Jalgaon",
    "regionname": "Aurangabad",
    "circlename": "Maharashtra",
    "Taluk": "Pachora",
    "Districtname": "Jalgaon",
    "statename": "MAHARASHTRA"
  },
  {
    "pincode": "424201",
    "officename": "Goradkheda B.O",
    "officeType": "B.O",
    "Deliverystatus": "Delivery",
    "divisionname": "Jalgaon",
    "regionname": "Aurangabad",
    "circlename": "Maharashtra",
    "Taluk": "Pachora",
    "Districtname": "Jalgaon",
    "statename": "MAHARASHTRA"
  },
  {
    "pincode": "424201",
    "officename": "Kasampura B.O",
    "officeType": "B.O",
    "Deliverystatus": "Delivery",
    "divisionname": "Jalgaon",
    "regionname": "Aurangabad",
    "circlename": "Maharashtra",
    "Taluk": "Pachora",
    "Districtname": "Jalgaon",
    "statename": "MAHARASHTRA"
  },
  {
    "pincode": "424201",
    "officename": "Khadakdeola B.O",
    "officeType": "B.O",
    "Deliverystatus": "Delivery",
    "divisionname": "Jalgaon",
    "regionname": "Aurangabad",
    "circlename": "Maharashtra",
    "Taluk": "Pachora",
    "Districtname": "Jalgaon",
    "statename": "MAHARASHTRA"
  },
  {
    "pincode": "424201",
    "officename": "Khedgaon Nandiche B.O",
    "officeType": "B.O",
    "Deliverystatus": "Delivery",
    "divisionname": "Jalgaon",
    "regionname": "Aurangabad",
    "circlename": "Maharashtra",
    "Taluk": "Pachora",
    "Districtname": "Jalgaon",
    "statename": "MAHARASHTRA"
  },
  {
    "pincode": "424201",
    "officename": "Lohare B.O",
    "officeType": "B.O",
    "Deliverystatus": "Delivery",
    "divisionname": "Jalgaon",
    "regionname": "Aurangabad",
    "circlename": "Maharashtra",
    "Taluk": "Pachora",
    "Districtname": "Jalgaon",
    "statename": "MAHARASHTRA"
  },
  {
    "pincode": "424201",
    "officename": "Lohtar B.O",
    "officeType": "B.O",
    "Deliverystatus": "Delivery",
    "divisionname": "Jalgaon",
    "regionname": "Aurangabad",
    "circlename": "Maharashtra",
    "Taluk": "Pachora",
    "Districtname": "Jalgaon",
    "statename": "MAHARASHTRA"
  },
  {
    "pincode": "424201",
    "officename": "Nimbhori B.O",
    "officeType": "B.O",
    "Deliverystatus": "Delivery",
    "divisionname": "Jalgaon",
    "regionname": "Aurangabad",
    "circlename": "Maharashtra",
    "Taluk": "Pachora",
    "Districtname": "Jalgaon",
    "statename": "MAHARASHTRA"
  },
  {
    "pincode": "424201",
    "officename": "Pachora S.O",
    "officeType": "S.O",
    "Deliverystatus": "Delivery",
    "divisionname": "Jalgaon",
    "regionname": "Aurangabad",
    "circlename": "Maharashtra",
    "Taluk": "Pachora",
    "Districtname": "Jalgaon",
    "statename": "MAHARASHTRA"
  },
  {
    "pincode": "424201",
    "officename": "Pardhade B.O",
    "officeType": "B.O",
    "Deliverystatus": "Delivery",
    "divisionname": "Jalgaon",
    "regionname": "Aurangabad",
    "circlename": "Maharashtra",
    "Taluk": "Pachora",
    "Districtname": "Jalgaon",
    "statename": "MAHARASHTRA"
  },
  {
    "pincode": "424201",
    "officename": "Sarole B.O",
    "officeType": "B.O",
    "Deliverystatus": "Delivery",
    "divisionname": "Jalgaon",
    "regionname": "Aurangabad",
    "circlename": "Maharashtra",
    "Taluk": "Pachora",
    "Districtname": "Jalgaon",
    "statename": "MAHARASHTRA"
  },
  {
    "pincode": "424201",
    "officename": "Satgaon B.O",
    "officeType": "B.O",
    "Deliverystatus": "Delivery",
    "divisionname": "Jalgaon",
    "regionname": "Aurangabad",
    "circlename": "Maharashtra",
    "Taluk": "Pachora",
    "Districtname": "Jalgaon",
    "statename": "MAHARASHTRA"
  },
  {
    "pincode": "424201",
    "officename": "Tarkheda B.O",
    "officeType": "B.O",
    "Deliverystatus": "Delivery",
    "divisionname": "Jalgaon",
    "regionname": "Aurangabad",
    "circlename": "Maharashtra",
    "Taluk": "Pachora",
    "Districtname": "Jalgaon",
    "statename": "MAHARASHTRA"
  },
  {
    "pincode": "424201",
    "officename": "Veruli Khurd B.O",
    "officeType": "B.O",
    "Deliverystatus": "Delivery",
    "divisionname": "Jalgaon",
    "regionname": "Aurangabad",
    "circlename": "Maharashtra",
    "Taluk": "Pachora",
    "Districtname": "Jalgaon",
    "statename": "MAHARASHTRA"
  },
  {
    "pincode": "424201",
    "officename": "Vivekanand nagar Pachora S.O",
    "officeType": "S.O",
    "Deliverystatus": "Non-Delivery",
    "divisionname": "Jalgaon",
    "regionname": "Aurangabad",
    "circlename": "Maharashtra",
    "Taluk": "Pachora",
    "Districtname": "Jalgaon",
    "statename": "MAHARASHTRA"
  },
  {
    "pincode": "424201",
    "officename": "Wadi B.O",
    "officeType": "B.O",
    "Deliverystatus": "Delivery",
    "divisionname": "Jalgaon",
    "regionname": "Aurangabad",
    "circlename": "Maharashtra",
    "Taluk": "Pachora",
    "Districtname": "Jalgaon",
    "statename": "MAHARASHTRA"
  }
]
