[
  {
    "pincode": "424318",
    "officename": "Ambode B.O",
    "officeType": "B.O",
    "Deliverystatus": "Delivery",
    "divisionname": "Dhule",
    "regionname": "Aurangabad",
    "circlename": "Maharashtra",
    "Taluk": "Dhule",
    "Districtname": "Dhule",
    "statename": "MAHARASHTRA"
  },
  {
    "pincode": "424318",
    "officename": "Mohadi-dangri B.O",
    "officeType": "B.O",
    "Deliverystatus": "Delivery",
    "divisionname": "Dhule",
    "regionname": "Aurangabad",
    "circlename": "Maharashtra",
    "Taluk": "Dhule",
    "Districtname": "Dhule",
    "statename": "MAHARASHTRA"
  },
  {
    "pincode": "424318",
    "officename": "Naval Nagar S.O",
    "officeType": "S.O",
    "Deliverystatus": "Delivery",
    "divisionname": "Dhule",
    "regionname": "Aurangabad",
    "circlename": "Maharashtra",
    "Taluk": "Dhule",
    "Districtname": "Dhule",
    "statename": "MAHARASHTRA"
  },
  {
    "pincode": "424318",
    "officename": "Navara-navari B.O",
    "officeType": "B.O",
    "Deliverystatus": "Delivery",
    "divisionname": "Dhule",
    "regionname": "Aurangabad",
    "circlename": "Maharashtra",
    "Taluk": "Dhule",
    "Districtname": "Dhule",
    "statename": "MAHARASHTRA"
  },
  {
    "pincode": "424318",
    "officename": "Satarne B.O",
    "officeType": "B.O",
    "Deliverystatus": "Delivery",
    "divisionname": "Dhule",
    "regionname": "Aurangabad",
    "circlename": "Maharashtra",
    "Taluk": "Dhule",
    "Districtname": "Dhule",
    "statename": "MAHARASHTRA"
  },
  {
    "pincode": "424318",
    "officename": "Shirdane B.O",
    "officeType": "B.O",
    "Deliverystatus": "Delivery",
    "divisionname": "Dhule",
    "regionname": "Aurangabad",
    "circlename": "Maharashtra",
    "Taluk": "Dhule",
    "Districtname": "Dhule",
    "statename": "MAHARASHTRA"
  },
  {
    "pincode": "424318",
    "officename": "Vani B.O",
    "officeType": "B.O",
    "Deliverystatus": "Delivery",
    "divisionname": "Dhule",
    "regionname": "Aurangabad",
    "circlename": "Maharashtra",
    "Taluk": "Dhule",
    "Districtname": "Dhule",
    "statename": "MAHARASHTRA"
  },
  {
    "pincode": "424318",
    "officename": "Vishvanath B.O",
    "officeType": "B.O",
    "Deliverystatus": "Delivery",
    "divisionname": "Dhule",
    "regionname": "Aurangabad",
    "circlename": "Maharashtra",
    "Taluk": "Dhule",
    "Districtname": "Dhule",
    "statename": "MAHARASHTRA"
  }
]
