[
  {
    "pincode": "424304",
    "officename": "Ashtane B.O",
    "officeType": "B.O",
    "Deliverystatus": "Delivery",
    "divisionname": "Dhule",
    "regionname": "Aurangabad",
    "circlename": "Maharashtra",
    "Taluk": "Sakri",
    "Districtname": "Dhule",
    "statename": "MAHARASHTRA"
  },
  {
    "pincode": "424304",
    "officename": "Balsane B.O",
    "officeType": "B.O",
    "Deliverystatus": "Delivery",
    "divisionname": "Dhule",
    "regionname": "Aurangabad",
    "circlename": "Maharashtra",
    "Taluk": "Sakri",
    "Districtname": "Dhule",
    "statename": "MAHARASHTRA"
  },
  {
    "pincode": "424304",
    "officename": "Bhadne B.O",
    "officeType": "B.O",
    "Deliverystatus": "Delivery",
    "divisionname": "Dhule",
    "regionname": "Aurangabad",
    "circlename": "Maharashtra",
    "Taluk": "Sakri",
    "Districtname": "Dhule",
    "statename": "MAHARASHTRA"
  },
  {
    "pincode": "424304",
    "officename": "Bodgaon B.O",
    "officeType": "B.O",
    "Deliverystatus": "Delivery",
    "divisionname": "Dhule",
    "regionname": "Aurangabad",
    "circlename": "Maharashtra",
    "Taluk": "Sakri",
    "Districtname": "Dhule",
    "statename": "MAHARASHTRA"
  },
  {
    "pincode": "424304",
    "officename": "Chaupale B.O",
    "officeType": "B.O",
    "Deliverystatus": "Delivery",
    "divisionname": "Dhule",
    "regionname": "Aurangabad",
    "circlename": "Maharashtra",
    "Taluk": "Sakri",
    "Districtname": "Dhule",
    "statename": "MAHARASHTRA"
  },
  {
    "pincode": "424304",
    "officename": "Chinchkhede B.O",
    "officeType": "B.O",
    "Deliverystatus": "Delivery",
    "divisionname": "Dhule",
    "regionname": "Aurangabad",
    "circlename": "Maharashtra",
    "Taluk": "Dhule",
    "Districtname": "Dhule",
    "statename": "MAHARASHTRA"
  },
  {
    "pincode": "424304",
    "officename": "Dahivel B.O",
    "officeType": "B.O",
    "Deliverystatus": "Delivery",
    "divisionname": "Dhule",
    "regionname": "Aurangabad",
    "circlename": "Maharashtra",
    "Taluk": "Sakri",
    "Districtname": "Dhule",
    "statename": "MAHARASHTRA"
  },
  {
    "pincode": "424304",
    "officename": "Datarti B.O",
    "officeType": "B.O",
    "Deliverystatus": "Delivery",
    "divisionname": "Dhule",
    "regionname": "Aurangabad",
    "circlename": "Maharashtra",
    "Taluk": "Sakri",
    "Districtname": "Dhule",
    "statename": "MAHARASHTRA"
  },
  {
    "pincode": "424304",
    "officename": "Devjipada B.O",
    "officeType": "B.O",
    "Deliverystatus": "Delivery",
    "divisionname": "Dhule",
    "regionname": "Aurangabad",
    "circlename": "Maharashtra",
    "Taluk": "Sakri",
    "Districtname": "Dhule",
    "statename": "MAHARASHTRA"
  },
  {
    "pincode": "424304",
    "officename": "Dhamnar B.O",
    "officeType": "B.O",
    "Deliverystatus": "Delivery",
    "divisionname": "Dhule",
    "regionname": "Aurangabad",
    "circlename": "Maharashtra",
    "Taluk": "Sakri",
    "Districtname": "Dhule",
    "statename": "MAHARASHTRA"
  },
  {
    "pincode": "424304",
    "officename": "Dusane B.O",
    "officeType": "B.O",
    "Deliverystatus": "Delivery",
    "divisionname": "Dhule",
    "regionname": "Aurangabad",
    "circlename": "Maharashtra",
    "Taluk": "Sakri",
    "Districtname": "Dhule",
    "statename": "MAHARASHTRA"
  },
  {
    "pincode": "424304",
    "officename": "Ghodade B.O",
    "officeType": "B.O",
    "Deliverystatus": "Delivery",
    "divisionname": "Dhule",
    "regionname": "Aurangabad",
    "circlename": "Maharashtra",
    "Taluk": "Sakri",
    "Districtname": "Dhule",
    "statename": "MAHARASHTRA"
  },
  {
    "pincode": "424304",
    "officename": "Kakani B.O",
    "officeType": "B.O",
    "Deliverystatus": "Delivery",
    "divisionname": "Dhule",
    "regionname": "Aurangabad",
    "circlename": "Maharashtra",
    "Taluk": "Dhule",
    "Districtname": "Dhule",
    "statename": "MAHARASHTRA"
  },
  {
    "pincode": "424304",
    "officename": "Kalambhir B.O",
    "officeType": "B.O",
    "Deliverystatus": "Delivery",
    "divisionname": "Dhule",
    "regionname": "Aurangabad",
    "circlename": "Maharashtra",
    "Taluk": "Sakri",
    "Districtname": "Dhule",
    "statename": "MAHARASHTRA"
  },
  {
    "pincode": "424304",
    "officename": "Kavthe B.O",
    "officeType": "B.O",
    "Deliverystatus": "Delivery",
    "divisionname": "Dhule",
    "regionname": "Aurangabad",
    "circlename": "Maharashtra",
    "Taluk": "Sakri",
    "Districtname": "Dhule",
    "statename": "MAHARASHTRA"
  },
  {
    "pincode": "424304",
    "officename": "Kharadbari B.O",
    "officeType": "B.O",
    "Deliverystatus": "Delivery",
    "divisionname": "Dhule",
    "regionname": "Aurangabad",
    "circlename": "Maharashtra",
    "Taluk": "Sakri",
    "Districtname": "Dhule",
    "statename": "MAHARASHTRA"
  },
  {
    "pincode": "424304",
    "officename": "Mauje-chadvel B.O",
    "officeType": "B.O",
    "Deliverystatus": "Delivery",
    "divisionname": "Dhule",
    "regionname": "Aurangabad",
    "circlename": "Maharashtra",
    "Taluk": "Sakri",
    "Districtname": "Dhule",
    "statename": "MAHARASHTRA"
  },
  {
    "pincode": "424304",
    "officename": "Mhasdi B.O",
    "officeType": "B.O",
    "Deliverystatus": "Delivery",
    "divisionname": "Dhule",
    "regionname": "Aurangabad",
    "circlename": "Maharashtra",
    "Taluk": "Sakri",
    "Districtname": "Dhule",
    "statename": "MAHARASHTRA"
  },
  {
    "pincode": "424304",
    "officename": "Navapada B.O",
    "officeType": "B.O",
    "Deliverystatus": "Delivery",
    "divisionname": "Dhule",
    "regionname": "Aurangabad",
    "circlename": "Maharashtra",
    "Taluk": "Sakri",
    "Districtname": "Dhule",
    "statename": "MAHARASHTRA"
  },
  {
    "pincode": "424304",
    "officename": "Perejpur B.O",
    "officeType": "B.O",
    "Deliverystatus": "Delivery",
    "divisionname": "Dhule",
    "regionname": "Aurangabad",
    "circlename": "Maharashtra",
    "Taluk": "Sakri",
    "Districtname": "Dhule",
    "statename": "MAHARASHTRA"
  },
  {
    "pincode": "424304",
    "officename": "Pinjarzadi B.O",
    "officeType": "B.O",
    "Deliverystatus": "Delivery",
    "divisionname": "Dhule",
    "regionname": "Aurangabad",
    "circlename": "Maharashtra",
    "Taluk": "Sakri",
    "Districtname": "Dhule",
    "statename": "MAHARASHTRA"
  },
  {
    "pincode": "424304",
    "officename": "Rainpada B.O",
    "officeType": "B.O",
    "Deliverystatus": "Delivery",
    "divisionname": "Dhule",
    "regionname": "Aurangabad",
    "circlename": "Maharashtra",
    "Taluk": "Sakri",
    "Districtname": "Dhule",
    "statename": "MAHARASHTRA"
  },
  {
    "pincode": "424304",
    "officename": "Rohod B.O",
    "officeType": "B.O",
    "Deliverystatus": "Delivery",
    "divisionname": "Dhule",
    "regionname": "Aurangabad",
    "circlename": "Maharashtra",
    "Taluk": "Sakri",
    "Districtname": "Dhule",
    "statename": "MAHARASHTRA"
  },
  {
    "pincode": "424304",
    "officename": "S.P. Bhadne B.O",
    "officeType": "B.O",
    "Deliverystatus": "Delivery",
    "divisionname": "Dhule",
    "regionname": "Aurangabad",
    "circlename": "Maharashtra",
    "Taluk": "Sakri",
    "Districtname": "Dhule",
    "statename": "MAHARASHTRA"
  },
  {
    "pincode": "424304",
    "officename": "Sakri (Dhule) S.O",
    "officeType": "S.O",
    "Deliverystatus": "Delivery",
    "divisionname": "Dhule",
    "regionname": "Aurangabad",
    "circlename": "Maharashtra",
    "Taluk": "Sakri",
    "Districtname": "Dhule",
    "statename": "MAHARASHTRA"
  },
  {
    "pincode": "424304",
    "officename": "Shewali B.O",
    "officeType": "B.O",
    "Deliverystatus": "Delivery",
    "divisionname": "Dhule",
    "regionname": "Aurangabad",
    "circlename": "Maharashtra",
    "Taluk": "Sakri",
    "Districtname": "Dhule",
    "statename": "MAHARASHTRA"
  },
  {
    "pincode": "424304",
    "officename": "Shirsole B.O",
    "officeType": "B.O",
    "Deliverystatus": "Delivery",
    "divisionname": "Dhule",
    "regionname": "Aurangabad",
    "circlename": "Maharashtra",
    "Taluk": "Sakri",
    "Districtname": "Dhule",
    "statename": "MAHARASHTRA"
  },
  {
    "pincode": "424304",
    "officename": "Tamasvadi B.O",
    "officeType": "B.O",
    "Deliverystatus": "Delivery",
    "divisionname": "Dhule",
    "regionname": "Aurangabad",
    "circlename": "Maharashtra",
    "Taluk": "Sakri",
    "Districtname": "Dhule",
    "statename": "MAHARASHTRA"
  },
  {
    "pincode": "424304",
    "officename": "Vardhane B.O",
    "officeType": "B.O",
    "Deliverystatus": "Delivery",
    "divisionname": "Dhule",
    "regionname": "Aurangabad",
    "circlename": "Maharashtra",
    "Taluk": "Sakri",
    "Districtname": "Dhule",
    "statename": "MAHARASHTRA"
  },
  {
    "pincode": "424304",
    "officename": "Vasmar B.O",
    "officeType": "B.O",
    "Deliverystatus": "Delivery",
    "divisionname": "Dhule",
    "regionname": "Aurangabad",
    "circlename": "Maharashtra",
    "Taluk": "Sakri",
    "Districtname": "Dhule",
    "statename": "MAHARASHTRA"
  }
]
