[
  {
    "pincode": "424311",
    "officename": "Borvihir B.O",
    "officeType": "B.O",
    "Deliverystatus": "Delivery",
    "divisionname": "Dhule",
    "regionname": "Aurangabad",
    "circlename": "Maharashtra",
    "Taluk": "Dhule",
    "Districtname": "Dhule",
    "statename": "MAHARASHTRA"
  },
  {
    "pincode": "424311",
    "officename": "Junawane B.O",
    "officeType": "B.O",
    "Deliverystatus": "Delivery",
    "divisionname": "Dhule",
    "regionname": "Aurangabad",
    "circlename": "Maharashtra",
    "Taluk": "Dhule",
    "Districtname": "Dhule",
    "statename": "MAHARASHTRA"
  },
  {
    "pincode": "424311",
    "officename": "Mohadi Laling S.O",
    "officeType": "S.O",
    "Deliverystatus": "Delivery",
    "divisionname": "Dhule",
    "regionname": "Aurangabad",
    "circlename": "Maharashtra",
    "Taluk": "Dhule",
    "Districtname": "Dhule",
    "statename": "MAHARASHTRA"
  },
  {
    "pincode": "424311",
    "officename": "Narvhal B.O",
    "officeType": "B.O",
    "Deliverystatus": "Delivery",
    "divisionname": "Dhule",
    "regionname": "Aurangabad",
    "circlename": "Maharashtra",
    "Taluk": "Dhule",
    "Districtname": "Dhule",
    "statename": "MAHARASHTRA"
  },
  {
    "pincode": "424311",
    "officename": "Nimgul B.O",
    "officeType": "B.O",
    "Deliverystatus": "Delivery",
    "divisionname": "Dhule",
    "regionname": "Aurangabad",
    "circlename": "Maharashtra",
    "Taluk": "Dhule",
    "Districtname": "Dhule",
    "statename": "MAHARASHTRA"
  },
  {
    "pincode": "424311",
    "officename": "Talvade B.O",
    "officeType": "B.O",
    "Deliverystatus": "Delivery",
    "divisionname": "Dhule",
    "regionname": "Aurangabad",
    "circlename": "Maharashtra",
    "Taluk": "Dhule",
    "Districtname": "Dhule",
    "statename": "MAHARASHTRA"
  },
  {
    "pincode": "424311",
    "officename": "Tikhi B.O",
    "officeType": "B.O",
    "Deliverystatus": "Delivery",
    "divisionname": "Dhule",
    "regionname": "Aurangabad",
    "circlename": "Maharashtra",
    "Taluk": "Dhule",
    "Districtname": "Dhule",
    "statename": "MAHARASHTRA"
  },
  {
    "pincode": "424311",
    "officename": "Velhane B.O",
    "officeType": "B.O",
    "Deliverystatus": "Delivery",
    "divisionname": "Dhule",
    "regionname": "Aurangabad",
    "circlename": "Maharashtra",
    "Taluk": "Dhule",
    "Districtname": "Dhule",
    "statename": "MAHARASHTRA"
  },
  {
    "pincode": "424311",
    "officename": "Vinchur B.O",
    "officeType": "B.O",
    "Deliverystatus": "Delivery",
    "divisionname": "Dhule",
    "regionname": "Aurangabad",
    "circlename": "Maharashtra",
    "Taluk": "Dhule",
    "Districtname": "Dhule",
    "statename": "MAHARASHTRA"
  }
]
