[
  {
    "pincode": "425115",
    "officename": "Asankheda B.O",
    "officeType": "B.O",
    "Deliverystatus": "Delivery",
    "divisionname": "Jalgaon",
    "regionname": "Aurangabad",
    "circlename": "Maharashtra",
    "Taluk": "Pachora",
    "Districtname": "Jalgaon",
    "statename": "MAHARASHTRA"
  },
  {
    "pincode": "425115",
    "officename": "Bambrud Raniche B.O",
    "officeType": "B.O",
    "Deliverystatus": "Delivery",
    "divisionname": "Jalgaon",
    "regionname": "Aurangabad",
    "circlename": "Maharashtra",
    "Taluk": "Pachora",
    "Districtname": "Jalgaon",
    "statename": "MAHARASHTRA"
  },
  {
    "pincode": "425115",
    "officename": "Kurangi B.O",
    "officeType": "B.O",
    "Deliverystatus": "Delivery",
    "divisionname": "Jalgaon",
    "regionname": "Aurangabad",
    "circlename": "Maharashtra",
    "Taluk": "Pachora",
    "Districtname": "Jalgaon",
    "statename": "MAHARASHTRA"
  },
  {
    "pincode": "425115",
    "officename": "Maheji B.O",
    "officeType": "B.O",
    "Deliverystatus": "Delivery",
    "divisionname": "Jalgaon",
    "regionname": "Aurangabad",
    "circlename": "Maharashtra",
    "Taluk": "Pachora",
    "Districtname": "Jalgaon",
    "statename": "MAHARASHTRA"
  },
  {
    "pincode": "425115",
    "officename": "Nandra Pachora S.O",
    "officeType": "S.O",
    "Deliverystatus": "Delivery",
    "divisionname": "Jalgaon",
    "regionname": "Aurangabad",
    "circlename": "Maharashtra",
    "Taluk": "Pachora",
    "Districtname": "Jalgaon",
    "statename": "MAHARASHTRA"
  },
  {
    "pincode": "425115",
    "officename": "Pahan B.O",
    "officeType": "B.O",
    "Deliverystatus": "Delivery",
    "divisionname": "Jalgaon",
    "regionname": "Aurangabad",
    "circlename": "Maharashtra",
    "Taluk": "Pachora",
    "Districtname": "Jalgaon",
    "statename": "MAHARASHTRA"
  },
  {
    "pincode": "425115",
    "officename": "Pathri B.O",
    "officeType": "B.O",
    "Deliverystatus": "Delivery",
    "divisionname": "Jalgaon",
    "regionname": "Aurangabad",
    "circlename": "Maharashtra",
    "Taluk": "Pachora",
    "Districtname": "Jalgaon",
    "statename": "MAHARASHTRA"
  },
  {
    "pincode": "425115",
    "officename": "Samner B.O",
    "officeType": "B.O",
    "Deliverystatus": "Delivery",
    "divisionname": "Jalgaon",
    "regionname": "Aurangabad",
    "circlename": "Maharashtra",
    "Taluk": "Pachora",
    "Districtname": "Jalgaon",
    "statename": "MAHARASHTRA"
  },
  {
    "pincode": "425115",
    "officename": "Vadali B.O",
    "officeType": "B.O",
    "Deliverystatus": "Delivery",
    "divisionname": "Jalgaon",
    "regionname": "Aurangabad",
    "circlename": "Maharashtra",
    "Taluk": "Pachora",
    "Districtname": "Jalgaon",
    "statename": "MAHARASHTRA"
  },
  {
    "pincode": "425115",
    "officename": "Varad Budruk B.O",
    "officeType": "B.O",
    "Deliverystatus": "Delivery",
    "divisionname": "Jalgaon",
    "regionname": "Aurangabad",
    "circlename": "Maharashtra",
    "Taluk": "Jalgaon",
    "Districtname": "Jalgaon",
    "statename": "MAHARASHTRA"
  }
]
