[
  {
    "pincode": "425107",
    "officename": "Adgaon B.O",
    "officeType": "B.O",
    "Deliverystatus": "Delivery",
    "divisionname": "Bhusaval",
    "regionname": "Aurangabad",
    "circlename": "Maharashtra",
    "Taluk": "Jalgaon",
    "Districtname": "Jalgaon",
    "statename": "MAHARASHTRA"
  },
  {
    "pincode": "425107",
    "officename": "Bhokari B.O",
    "officeType": "B.O",
    "Deliverystatus": "Delivery",
    "divisionname": "Bhusaval",
    "regionname": "Aurangabad",
    "circlename": "Maharashtra",
    "Taluk": "Jalgaon",
    "Districtname": "Jalgaon",
    "statename": "MAHARASHTRA"
  },
  {
    "pincode": "425107",
    "officename": "Chahardi B.O",
    "officeType": "B.O",
    "Deliverystatus": "Delivery",
    "divisionname": "Bhusaval",
    "regionname": "Aurangabad",
    "circlename": "Maharashtra",
    "Taluk": "Jalgaon",
    "Districtname": "Jalgaon",
    "statename": "MAHARASHTRA"
  },
  {
    "pincode": "425107",
    "officename": "Chopda S.O",
    "officeType": "S.O",
    "Deliverystatus": "Delivery",
    "divisionname": "Bhusaval",
    "regionname": "Aurangabad",
    "circlename": "Maharashtra",
    "Taluk": "Jalgaon",
    "Districtname": "Jalgaon",
    "statename": "MAHARASHTRA"
  },
  {
    "pincode": "425107",
    "officename": "Chunchale B.O",
    "officeType": "B.O",
    "Deliverystatus": "Delivery",
    "divisionname": "Bhusaval",
    "regionname": "Aurangabad",
    "circlename": "Maharashtra",
    "Taluk": "Jalgaon",
    "Districtname": "Jalgaon",
    "statename": "MAHARASHTRA"
  },
  {
    "pincode": "425107",
    "officename": "Ghadvel B.O",
    "officeType": "B.O",
    "Deliverystatus": "Delivery",
    "divisionname": "Bhusaval",
    "regionname": "Aurangabad",
    "circlename": "Maharashtra",
    "Taluk": "Jalgaon",
    "Districtname": "Jalgaon",
    "statename": "MAHARASHTRA"
  },
  {
    "pincode": "425107",
    "officename": "Gorgavale B.O",
    "officeType": "B.O",
    "Deliverystatus": "Delivery",
    "divisionname": "Bhusaval",
    "regionname": "Aurangabad",
    "circlename": "Maharashtra",
    "Taluk": "Jalgaon",
    "Districtname": "Jalgaon",
    "statename": "MAHARASHTRA"
  },
  {
    "pincode": "425107",
    "officename": "Hated B.O",
    "officeType": "B.O",
    "Deliverystatus": "Delivery",
    "divisionname": "Bhusaval",
    "regionname": "Aurangabad",
    "circlename": "Maharashtra",
    "Taluk": "Jalgaon",
    "Districtname": "Jalgaon",
    "statename": "MAHARASHTRA"
  },
  {
    "pincode": "425107",
    "officename": "Khachane B.O",
    "officeType": "B.O",
    "Deliverystatus": "Delivery",
    "divisionname": "Bhusaval",
    "regionname": "Aurangabad",
    "circlename": "Maharashtra",
    "Taluk": "Jalgaon",
    "Districtname": "Jalgaon",
    "statename": "MAHARASHTRA"
  },
  {
    "pincode": "425107",
    "officename": "Kolambe B.O",
    "officeType": "B.O",
    "Deliverystatus": "Delivery",
    "divisionname": "Bhusaval",
    "regionname": "Aurangabad",
    "circlename": "Maharashtra",
    "Taluk": "Jalgaon",
    "Districtname": "Jalgaon",
    "statename": "MAHARASHTRA"
  },
  {
    "pincode": "425107",
    "officename": "Kurvel B.O",
    "officeType": "B.O",
    "Deliverystatus": "Delivery",
    "divisionname": "Bhusaval",
    "regionname": "Aurangabad",
    "circlename": "Maharashtra",
    "Taluk": "Jalgaon",
    "Districtname": "Jalgaon",
    "statename": "MAHARASHTRA"
  },
  {
    "pincode": "425107",
    "officename": "Lasur B.O",
    "officeType": "B.O",
    "Deliverystatus": "Delivery",
    "divisionname": "Bhusaval",
    "regionname": "Aurangabad",
    "circlename": "Maharashtra",
    "Taluk": "Jalgaon",
    "Districtname": "Jalgaon",
    "statename": "MAHARASHTRA"
  },
  {
    "pincode": "425107",
    "officename": "Mamalde B.O",
    "officeType": "B.O",
    "Deliverystatus": "Delivery",
    "divisionname": "Bhusaval",
    "regionname": "Aurangabad",
    "circlename": "Maharashtra",
    "Taluk": "Jalgaon",
    "Districtname": "Jalgaon",
    "statename": "MAHARASHTRA"
  },
  {
    "pincode": "425107",
    "officename": "Mangrul B.O",
    "officeType": "B.O",
    "Deliverystatus": "Delivery",
    "divisionname": "Bhusaval",
    "regionname": "Aurangabad",
    "circlename": "Maharashtra",
    "Taluk": "Jalgaon",
    "Districtname": "Jalgaon",
    "statename": "MAHARASHTRA"
  },
  {
    "pincode": "425107",
    "officename": "Melane B.O",
    "officeType": "B.O",
    "Deliverystatus": "Delivery",
    "divisionname": "Bhusaval",
    "regionname": "Aurangabad",
    "circlename": "Maharashtra",
    "Taluk": "Jalgaon",
    "Districtname": "Jalgaon",
    "statename": "MAHARASHTRA"
  },
  {
    "pincode": "425107",
    "officename": "Nagalwadi B.O",
    "officeType": "B.O",
    "Deliverystatus": "Delivery",
    "divisionname": "Bhusaval",
    "regionname": "Aurangabad",
    "circlename": "Maharashtra",
    "Taluk": "Jalgaon",
    "Districtname": "Jalgaon",
    "statename": "MAHARASHTRA"
  },
  {
    "pincode": "425107",
    "officename": "Nimgavhan B.O",
    "officeType": "B.O",
    "Deliverystatus": "Delivery",
    "divisionname": "Bhusaval",
    "regionname": "Aurangabad",
    "circlename": "Maharashtra",
    "Taluk": "Jalgaon",
    "Districtname": "Jalgaon",
    "statename": "MAHARASHTRA"
  },
  {
    "pincode": "425107",
    "officename": "Sanpule B.O",
    "officeType": "B.O",
    "Deliverystatus": "Delivery",
    "divisionname": "Bhusaval",
    "regionname": "Aurangabad",
    "circlename": "Maharashtra",
    "Taluk": "Jalgaon",
    "Districtname": "Jalgaon",
    "statename": "MAHARASHTRA"
  },
  {
    "pincode": "425107",
    "officename": "Satrasen B.O",
    "officeType": "B.O",
    "Deliverystatus": "Delivery",
    "divisionname": "Bhusaval",
    "regionname": "Aurangabad",
    "circlename": "Maharashtra",
    "Taluk": "Jalgaon",
    "Districtname": "Jalgaon",
    "statename": "MAHARASHTRA"
  },
  {
    "pincode": "425107",
    "officename": "Tawase B.O",
    "officeType": "B.O",
    "Deliverystatus": "Delivery",
    "divisionname": "Bhusaval",
    "regionname": "Aurangabad",
    "circlename": "Maharashtra",
    "Taluk": "Jalgaon",
    "Districtname": "Jalgaon",
    "statename": "MAHARASHTRA"
  },
  {
    "pincode": "425107",
    "officename": "Umarti B.O",
    "officeType": "B.O",
    "Deliverystatus": "Delivery",
    "divisionname": "Bhusaval",
    "regionname": "Aurangabad",
    "circlename": "Maharashtra",
    "Taluk": "Jalgaon",
    "Districtname": "Jalgaon",
    "statename": "MAHARASHTRA"
  },
  {
    "pincode": "425107",
    "officename": "Vadti B.O",
    "officeType": "B.O",
    "Deliverystatus": "Delivery",
    "divisionname": "Bhusaval",
    "regionname": "Aurangabad",
    "circlename": "Maharashtra",
    "Taluk": "Jalgaon",
    "Districtname": "Jalgaon",
    "statename": "MAHARASHTRA"
  },
  {
    "pincode": "425107",
    "officename": "Vaijpur Settelement B.O",
    "officeType": "B.O",
    "Deliverystatus": "Delivery",
    "divisionname": "Bhusaval",
    "regionname": "Aurangabad",
    "circlename": "Maharashtra",
    "Taluk": "Jalgaon",
    "Districtname": "Jalgaon",
    "statename": "MAHARASHTRA"
  },
  {
    "pincode": "425107",
    "officename": "Vardi B.O",
    "officeType": "B.O",
    "Deliverystatus": "Delivery",
    "divisionname": "Bhusaval",
    "regionname": "Aurangabad",
    "circlename": "Maharashtra",
    "Taluk": "Jalgaon",
    "Districtname": "Jalgaon",
    "statename": "MAHARASHTRA"
  },
  {
    "pincode": "425107",
    "officename": "Vele B.O",
    "officeType": "B.O",
    "Deliverystatus": "Delivery",
    "divisionname": "Bhusaval",
    "regionname": "Aurangabad",
    "circlename": "Maharashtra",
    "Taluk": "Jalgaon",
    "Districtname": "Jalgaon",
    "statename": "MAHARASHTRA"
  },
  {
    "pincode": "425107",
    "officename": "Virwade B.O",
    "officeType": "B.O",
    "Deliverystatus": "Delivery",
    "divisionname": "Bhusaval",
    "regionname": "Aurangabad",
    "circlename": "Maharashtra",
    "Taluk": "Jalgaon",
    "Districtname": "Jalgaon",
    "statename": "MAHARASHTRA"
  },
  {
    "pincode": "425107",
    "officename": "Vishnapur B.O",
    "officeType": "B.O",
    "Deliverystatus": "Delivery",
    "divisionname": "Bhusaval",
    "regionname": "Aurangabad",
    "circlename": "Maharashtra",
    "Taluk": "Jalgaon",
    "Districtname": "Jalgaon",
    "statename": "MAHARASHTRA"
  }
]
