[
  {
    "pincode": "425114",
    "officename": "Devpimpri B.O",
    "officeType": "B.O",
    "Deliverystatus": "Delivery",
    "divisionname": "Bhusaval",
    "regionname": "Aurangabad",
    "circlename": "Maharashtra",
    "Taluk": "Jalgaon",
    "Districtname": "Jalgaon",
    "statename": "MAHARASHTRA"
  },
  {
    "pincode": "425114",
    "officename": "Hiwarkheda B.O",
    "officeType": "B.O",
    "Deliverystatus": "Delivery",
    "divisionname": "Bhusaval",
    "regionname": "Aurangabad",
    "circlename": "Maharashtra",
    "Taluk": "Jalgaon",
    "Districtname": "Jalgaon",
    "statename": "MAHARASHTRA"
  },
  {
    "pincode": "425114",
    "officename": "Kekat Nimbhora B.O",
    "officeType": "B.O",
    "Deliverystatus": "Delivery",
    "divisionname": "Bhusaval",
    "regionname": "Aurangabad",
    "circlename": "Maharashtra",
    "Taluk": "Jalgaon",
    "Districtname": "Jalgaon",
    "statename": "MAHARASHTRA"
  },
  {
    "pincode": "425114",
    "officename": "Mohadi B.O",
    "officeType": "B.O",
    "Deliverystatus": "Delivery",
    "divisionname": "Bhusaval",
    "regionname": "Aurangabad",
    "circlename": "Maharashtra",
    "Taluk": "Jalgaon",
    "Districtname": "Jalgaon",
    "statename": "MAHARASHTRA"
  },
  {
    "pincode": "425114",
    "officename": "Neri BK S.O",
    "officeType": "S.O",
    "Deliverystatus": "Delivery",
    "divisionname": "Bhusaval",
    "regionname": "Aurangabad",
    "circlename": "Maharashtra",
    "Taluk": "Jalgaon",
    "Districtname": "Jalgaon",
    "statename": "MAHARASHTRA"
  },
  {
    "pincode": "425114",
    "officename": "Palaskheda Mirache B.O",
    "officeType": "B.O",
    "Deliverystatus": "Delivery",
    "divisionname": "Bhusaval",
    "regionname": "Aurangabad",
    "circlename": "Maharashtra",
    "Taluk": "Jalgaon",
    "Districtname": "Jalgaon",
    "statename": "MAHARASHTRA"
  },
  {
    "pincode": "425114",
    "officename": "Rotwad B.O",
    "officeType": "B.O",
    "Deliverystatus": "Delivery",
    "divisionname": "Bhusaval",
    "regionname": "Aurangabad",
    "circlename": "Maharashtra",
    "Taluk": "Jalgaon",
    "Districtname": "Jalgaon",
    "statename": "MAHARASHTRA"
  },
  {
    "pincode": "425114",
    "officename": "Sunasgaon B.O",
    "officeType": "B.O",
    "Deliverystatus": "Delivery",
    "divisionname": "Bhusaval",
    "regionname": "Aurangabad",
    "circlename": "Maharashtra",
    "Taluk": "Jalgaon",
    "Districtname": "Jalgaon",
    "statename": "MAHARASHTRA"
  }
]
