[
  {
    "pincode": "425306",
    "officename": "Anturli B.O",
    "officeType": "B.O",
    "Deliverystatus": "Delivery",
    "divisionname": "Bhusaval",
    "regionname": "Aurangabad",
    "circlename": "Maharashtra",
    "Taluk": "Muktainagar",
    "Districtname": "Jalgaon",
    "statename": "MAHARASHTRA"
  },
  {
    "pincode": "425306",
    "officename": "Changdeo B.O",
    "officeType": "B.O",
    "Deliverystatus": "Delivery",
    "divisionname": "Bhusaval",
    "regionname": "Aurangabad",
    "circlename": "Maharashtra",
    "Taluk": "Muktainagar",
    "Districtname": "Jalgaon",
    "statename": "MAHARASHTRA"
  },
  {
    "pincode": "425306",
    "officename": "Chinkhol B.O",
    "officeType": "B.O",
    "Deliverystatus": "Delivery",
    "divisionname": "Bhusaval",
    "regionname": "Aurangabad",
    "circlename": "Maharashtra",
    "Taluk": "Muktainagar",
    "Districtname": "Jalgaon",
    "statename": "MAHARASHTRA"
  },
  {
    "pincode": "425306",
    "officename": "Ghodasgaon B.O",
    "officeType": "B.O",
    "Deliverystatus": "Delivery",
    "divisionname": "Bhusaval",
    "regionname": "Aurangabad",
    "circlename": "Maharashtra",
    "Taluk": "Muktainagar",
    "Districtname": "Jalgaon",
    "statename": "MAHARASHTRA"
  },
  {
    "pincode": "425306",
    "officename": "Hartala B.O",
    "officeType": "B.O",
    "Deliverystatus": "Delivery",
    "divisionname": "Bhusaval",
    "regionname": "Aurangabad",
    "circlename": "Maharashtra",
    "Taluk": "Muktainagar",
    "Districtname": "Jalgaon",
    "statename": "MAHARASHTRA"
  },
  {
    "pincode": "425306",
    "officename": "Karkee B.O",
    "officeType": "B.O",
    "Deliverystatus": "Delivery",
    "divisionname": "Bhusaval",
    "regionname": "Aurangabad",
    "circlename": "Maharashtra",
    "Taluk": "Muktainagar",
    "Districtname": "Jalgaon",
    "statename": "MAHARASHTRA"
  },
  {
    "pincode": "425306",
    "officename": "Kothali B.O",
    "officeType": "B.O",
    "Deliverystatus": "Delivery",
    "divisionname": "Bhusaval",
    "regionname": "Aurangabad",
    "circlename": "Maharashtra",
    "Taluk": "Muktainagar",
    "Districtname": "Jalgaon",
    "statename": "MAHARASHTRA"
  },
  {
    "pincode": "425306",
    "officename": "Melsangve B.O",
    "officeType": "B.O",
    "Deliverystatus": "Delivery",
    "divisionname": "Bhusaval",
    "regionname": "Aurangabad",
    "circlename": "Maharashtra",
    "Taluk": "Muktainagar",
    "Districtname": "Jalgaon",
    "statename": "MAHARASHTRA"
  },
  {
    "pincode": "425306",
    "officename": "Muktainagar S.O",
    "officeType": "S.O",
    "Deliverystatus": "Delivery",
    "divisionname": "Bhusaval",
    "regionname": "Aurangabad",
    "circlename": "Maharashtra",
    "Taluk": "Muktainagar",
    "Districtname": "Jalgaon",
    "statename": "MAHARASHTRA"
  },
  {
    "pincode": "425306",
    "officename": "Naigaon B.O",
    "officeType": "B.O",
    "Deliverystatus": "Delivery",
    "divisionname": "Bhusaval",
    "regionname": "Aurangabad",
    "circlename": "Maharashtra",
    "Taluk": "Muktainagar",
    "Districtname": "Jalgaon",
    "statename": "MAHARASHTRA"
  },
  {
    "pincode": "425306",
    "officename": "Nimkhedi KH B.O",
    "officeType": "B.O",
    "Deliverystatus": "Delivery",
    "divisionname": "Bhusaval",
    "regionname": "Aurangabad",
    "circlename": "Maharashtra",
    "Taluk": "Muktainagar",
    "Districtname": "Jalgaon",
    "statename": "MAHARASHTRA"
  },
  {
    "pincode": "425306",
    "officename": "Old Muktainagar S.O",
    "officeType": "S.O",
    "Deliverystatus": "Non-Delivery",
    "divisionname": "Bhusaval",
    "regionname": "Aurangabad",
    "circlename": "Maharashtra",
    "Taluk": "Muktainagar",
    "Districtname": "Jalgaon",
    "statename": "MAHARASHTRA"
  },
  {
    "pincode": "425306",
    "officename": "Pimpri Nandu B.O",
    "officeType": "B.O",
    "Deliverystatus": "Delivery",
    "divisionname": "Bhusaval",
    "regionname": "Aurangabad",
    "circlename": "Maharashtra",
    "Taluk": "Muktainagar",
    "Districtname": "Jalgaon",
    "statename": "MAHARASHTRA"
  },
  {
    "pincode": "425306",
    "officename": "Ruikheda B.O",
    "officeType": "B.O",
    "Deliverystatus": "Delivery",
    "divisionname": "Bhusaval",
    "regionname": "Aurangabad",
    "circlename": "Maharashtra",
    "Taluk": "Muktainagar",
    "Districtname": "Jalgaon",
    "statename": "MAHARASHTRA"
  },
  {
    "pincode": "425306",
    "officename": "Uchande B.O",
    "officeType": "B.O",
    "Deliverystatus": "Delivery",
    "divisionname": "Bhusaval",
    "regionname": "Aurangabad",
    "circlename": "Maharashtra",
    "Taluk": "Muktainagar",
    "Districtname": "Jalgaon",
    "statename": "MAHARASHTRA"
  }
]
