[
  {
    "pincode": "425310",
    "officename": "Betawad B.O",
    "officeType": "B.O",
    "Deliverystatus": "Delivery",
    "divisionname": "Bhusaval",
    "regionname": "Aurangabad",
    "circlename": "Maharashtra",
    "Taluk": "Raver",
    "Districtname": "Jalgaon",
    "statename": "MAHARASHTRA"
  },
  {
    "pincode": "425310",
    "officename": "Bodwad S.O",
    "officeType": "S.O",
    "Deliverystatus": "Delivery",
    "divisionname": "Bhusaval",
    "regionname": "Aurangabad",
    "circlename": "Maharashtra",
    "Taluk": "Bodwad",
    "Districtname": "Jalgaon",
    "statename": "MAHARASHTRA"
  },
  {
    "pincode": "425310",
    "officename": "Engaon B.O",
    "officeType": "B.O",
    "Deliverystatus": "Delivery",
    "divisionname": "Bhusaval",
    "regionname": "Aurangabad",
    "circlename": "Maharashtra",
    "Taluk": "Bodwad",
    "Districtname": "Jalgaon",
    "statename": "MAHARASHTRA"
  },
  {
    "pincode": "425310",
    "officename": "Ghankheda B.O",
    "officeType": "B.O",
    "Deliverystatus": "Delivery",
    "divisionname": "Bhusaval",
    "regionname": "Aurangabad",
    "circlename": "Maharashtra",
    "Taluk": "Bodwad",
    "Districtname": "Jalgaon",
    "statename": "MAHARASHTRA"
  },
  {
    "pincode": "425310",
    "officename": "Harankheda B.O",
    "officeType": "B.O",
    "Deliverystatus": "Delivery",
    "divisionname": "Bhusaval",
    "regionname": "Aurangabad",
    "circlename": "Maharashtra",
    "Taluk": "Bodwad",
    "Districtname": "Jalgaon",
    "statename": "MAHARASHTRA"
  },
  {
    "pincode": "425310",
    "officename": "Jamthi B.O",
    "officeType": "B.O",
    "Deliverystatus": "Delivery",
    "divisionname": "Bhusaval",
    "regionname": "Aurangabad",
    "circlename": "Maharashtra",
    "Taluk": "Bodwad",
    "Districtname": "Jalgaon",
    "statename": "MAHARASHTRA"
  },
  {
    "pincode": "425310",
    "officename": "Kapuswadi B.O",
    "officeType": "B.O",
    "Deliverystatus": "Delivery",
    "divisionname": "Bhusaval",
    "regionname": "Aurangabad",
    "circlename": "Maharashtra",
    "Taluk": "Bodwad",
    "Districtname": "Jalgaon",
    "statename": "MAHARASHTRA"
  },
  {
    "pincode": "425310",
    "officename": "Kolhadi B.O",
    "officeType": "B.O",
    "Deliverystatus": "Delivery",
    "divisionname": "Bhusaval",
    "regionname": "Aurangabad",
    "circlename": "Maharashtra",
    "Taluk": "Bodwad",
    "Districtname": "Jalgaon",
    "statename": "MAHARASHTRA"
  },
  {
    "pincode": "425310",
    "officename": "Kurha Hardo B.O",
    "officeType": "B.O",
    "Deliverystatus": "Delivery",
    "divisionname": "Bhusaval",
    "regionname": "Aurangabad",
    "circlename": "Maharashtra",
    "Taluk": "Bodwad",
    "Districtname": "Jalgaon",
    "statename": "MAHARASHTRA"
  },
  {
    "pincode": "425310",
    "officename": "Manur B.O",
    "officeType": "B.O",
    "Deliverystatus": "Delivery",
    "divisionname": "Bhusaval",
    "regionname": "Aurangabad",
    "circlename": "Maharashtra",
    "Taluk": "Bodwad",
    "Districtname": "Jalgaon",
    "statename": "MAHARASHTRA"
  },
  {
    "pincode": "425310",
    "officename": "Muktal B.O",
    "officeType": "B.O",
    "Deliverystatus": "Delivery",
    "divisionname": "Bhusaval",
    "regionname": "Aurangabad",
    "circlename": "Maharashtra",
    "Taluk": "Bodwad",
    "Districtname": "Jalgaon",
    "statename": "MAHARASHTRA"
  },
  {
    "pincode": "425310",
    "officename": "Nadgaon B.O",
    "officeType": "B.O",
    "Deliverystatus": "Delivery",
    "divisionname": "Bhusaval",
    "regionname": "Aurangabad",
    "circlename": "Maharashtra",
    "Taluk": "Bodwad",
    "Districtname": "Jalgaon",
    "statename": "MAHARASHTRA"
  },
  {
    "pincode": "425310",
    "officename": "Nandra Haveli B.O",
    "officeType": "B.O",
    "Deliverystatus": "Delivery",
    "divisionname": "Bhusaval",
    "regionname": "Aurangabad",
    "circlename": "Maharashtra",
    "Taluk": "Bodwad",
    "Districtname": "Jalgaon",
    "statename": "MAHARASHTRA"
  },
  {
    "pincode": "425310",
    "officename": "Ranjani B.O",
    "officeType": "B.O",
    "Deliverystatus": "Delivery",
    "divisionname": "Bhusaval",
    "regionname": "Aurangabad",
    "circlename": "Maharashtra",
    "Taluk": "Bodwad",
    "Districtname": "Jalgaon",
    "statename": "MAHARASHTRA"
  },
  {
    "pincode": "425310",
    "officename": "Salshingi B.O",
    "officeType": "B.O",
    "Deliverystatus": "Delivery",
    "divisionname": "Bhusaval",
    "regionname": "Aurangabad",
    "circlename": "Maharashtra",
    "Taluk": "Bodwad",
    "Districtname": "Jalgaon",
    "statename": "MAHARASHTRA"
  },
  {
    "pincode": "425310",
    "officename": "Shelwad B.O",
    "officeType": "B.O",
    "Deliverystatus": "Delivery",
    "divisionname": "Bhusaval",
    "regionname": "Aurangabad",
    "circlename": "Maharashtra",
    "Taluk": "Bodwad",
    "Districtname": "Jalgaon",
    "statename": "MAHARASHTRA"
  }
]
