[
  {
    "pincode": "425407",
    "officename": "Amrale B.O",
    "officeType": "B.O",
    "Deliverystatus": "Delivery",
    "divisionname": "Dhule",
    "regionname": "Aurangabad",
    "circlename": "Maharashtra",
    "Taluk": "Sindkheda",
    "Districtname": "Dhule",
    "statename": "MAHARASHTRA"
  },
  {
    "pincode": "425407",
    "officename": "Chimthana S.O",
    "officeType": "S.O",
    "Deliverystatus": "Delivery",
    "divisionname": "Dhule",
    "regionname": "Aurangabad",
    "circlename": "Maharashtra",
    "Taluk": "Shindkheda",
    "Districtname": "Dhule",
    "statename": "MAHARASHTRA"
  },
  {
    "pincode": "425407",
    "officename": "Dangurne B.O",
    "officeType": "B.O",
    "Deliverystatus": "Delivery",
    "divisionname": "Dhule",
    "regionname": "Aurangabad",
    "circlename": "Maharashtra",
    "Taluk": "Sindkheda",
    "Districtname": "Dhule",
    "statename": "MAHARASHTRA"
  },
  {
    "pincode": "425407",
    "officename": "Divi B.O",
    "officeType": "B.O",
    "Deliverystatus": "Delivery",
    "divisionname": "Dhule",
    "regionname": "Aurangabad",
    "circlename": "Maharashtra",
    "Taluk": "Shindkheda",
    "Districtname": "Dhule",
    "statename": "MAHARASHTRA"
  },
  {
    "pincode": "425407",
    "officename": "Jakhane B.O",
    "officeType": "B.O",
    "Deliverystatus": "Delivery",
    "divisionname": "Dhule",
    "regionname": "Aurangabad",
    "circlename": "Maharashtra",
    "Taluk": "Shindkheda",
    "Districtname": "Dhule",
    "statename": "MAHARASHTRA"
  },
  {
    "pincode": "425407",
    "officename": "Khalane B.O",
    "officeType": "B.O",
    "Deliverystatus": "Delivery",
    "divisionname": "Dhule",
    "regionname": "Aurangabad",
    "circlename": "Maharashtra",
    "Taluk": "Shindkheda",
    "Districtname": "Dhule",
    "statename": "MAHARASHTRA"
  },
  {
    "pincode": "425407",
    "officename": "Rohane B.O",
    "officeType": "B.O",
    "Deliverystatus": "Delivery",
    "divisionname": "Dhule",
    "regionname": "Aurangabad",
    "circlename": "Maharashtra",
    "Taluk": "Sindkheda",
    "Districtname": "Dhule",
    "statename": "MAHARASHTRA"
  },
  {
    "pincode": "425407",
    "officename": "Salve B.O",
    "officeType": "B.O",
    "Deliverystatus": "Delivery",
    "divisionname": "Dhule",
    "regionname": "Aurangabad",
    "circlename": "Maharashtra",
    "Taluk": "Shindkheda",
    "Districtname": "Dhule",
    "statename": "MAHARASHTRA"
  },
  {
    "pincode": "425407",
    "officename": "Savaimukti B.O",
    "officeType": "B.O",
    "Deliverystatus": "Delivery",
    "divisionname": "Dhule",
    "regionname": "Aurangabad",
    "circlename": "Maharashtra",
    "Taluk": "Sindkhede",
    "Districtname": "Dhule",
    "statename": "MAHARASHTRA"
  },
  {
    "pincode": "425407",
    "officename": "Shevade B.O",
    "officeType": "B.O",
    "Deliverystatus": "Delivery",
    "divisionname": "Dhule",
    "regionname": "Aurangabad",
    "circlename": "Maharashtra",
    "Taluk": "Shindkheda",
    "Districtname": "Dhule",
    "statename": "MAHARASHTRA"
  },
  {
    "pincode": "425407",
    "officename": "Tamthare B.O",
    "officeType": "B.O",
    "Deliverystatus": "Delivery",
    "divisionname": "Dhule",
    "regionname": "Aurangabad",
    "circlename": "Maharashtra",
    "Taluk": "Shindkheda",
    "Districtname": "Dhule",
    "statename": "MAHARASHTRA"
  }
]
