[
  {
    "pincode": "425409",
    "officename": "Ambapur B.O",
    "officeType": "B.O",
    "Deliverystatus": "Delivery",
    "divisionname": "Dhule",
    "regionname": "Aurangabad",
    "circlename": "Maharashtra",
    "Taluk": "Shahada",
    "Districtname": "Nandurbar",
    "statename": "MAHARASHTRA"
  },
  {
    "pincode": "425409",
    "officename": "Bhade B.O",
    "officeType": "B.O",
    "Deliverystatus": "Delivery",
    "divisionname": "Dhule",
    "regionname": "Aurangabad",
    "circlename": "Maharashtra",
    "Taluk": "Shahada",
    "Districtname": "Nandurbar",
    "statename": "MAHARASHTRA"
  },
  {
    "pincode": "425409",
    "officename": "Brahmanpuri B.O",
    "officeType": "B.O",
    "Deliverystatus": "Delivery",
    "divisionname": "Dhule",
    "regionname": "Aurangabad",
    "circlename": "Maharashtra",
    "Taluk": "Shahada",
    "Districtname": "Nandurbar",
    "statename": "MAHARASHTRA"
  },
  {
    "pincode": "425409",
    "officename": "Dhurkheda B.O",
    "officeType": "B.O",
    "Deliverystatus": "Delivery",
    "divisionname": "Dhule",
    "regionname": "Aurangabad",
    "circlename": "Maharashtra",
    "Taluk": "Shahada",
    "Districtname": "Nandurbar",
    "statename": "MAHARASHTRA"
  },
  {
    "pincode": "425409",
    "officename": "Kahatul B.O",
    "officeType": "B.O",
    "Deliverystatus": "Delivery",
    "divisionname": "Dhule",
    "regionname": "Aurangabad",
    "circlename": "Maharashtra",
    "Taluk": "Shahada",
    "Districtname": "Nandurbar",
    "statename": "MAHARASHTRA"
  },
  {
    "pincode": "425409",
    "officename": "Kalmadi B.O",
    "officeType": "B.O",
    "Deliverystatus": "Delivery",
    "divisionname": "Dhule",
    "regionname": "Aurangabad",
    "circlename": "Maharashtra",
    "Taluk": "Shahade",
    "Districtname": "Nandurbar",
    "statename": "MAHARASHTRA"
  },
  {
    "pincode": "425409",
    "officename": "Kalsadi B.O",
    "officeType": "B.O",
    "Deliverystatus": "Delivery",
    "divisionname": "Dhule",
    "regionname": "Aurangabad",
    "circlename": "Maharashtra",
    "Taluk": "Shahada",
    "Districtname": "Nandurbar",
    "statename": "MAHARASHTRA"
  },
  {
    "pincode": "425409",
    "officename": "Londhare B.O",
    "officeType": "B.O",
    "Deliverystatus": "Delivery",
    "divisionname": "Dhule",
    "regionname": "Aurangabad",
    "circlename": "Maharashtra",
    "Taluk": "Shahada",
    "Districtname": "Nandurbar",
    "statename": "MAHARASHTRA"
  },
  {
    "pincode": "425409",
    "officename": "Lonkheda B.O",
    "officeType": "B.O",
    "Deliverystatus": "Delivery",
    "divisionname": "Dhule",
    "regionname": "Aurangabad",
    "circlename": "Maharashtra",
    "Taluk": "Shahada",
    "Districtname": "Nandurbar",
    "statename": "MAHARASHTRA"
  },
  {
    "pincode": "425409",
    "officename": "M-mohida B.O",
    "officeType": "B.O",
    "Deliverystatus": "Delivery",
    "divisionname": "Dhule",
    "regionname": "Aurangabad",
    "circlename": "Maharashtra",
    "Taluk": "Shahada",
    "Districtname": "Nandurbar",
    "statename": "MAHARASHTRA"
  },
  {
    "pincode": "425409",
    "officename": "Mohida TH B.O",
    "officeType": "B.O",
    "Deliverystatus": "Delivery",
    "divisionname": "Dhule",
    "regionname": "Aurangabad",
    "circlename": "Maharashtra",
    "Taluk": "Shahada",
    "Districtname": "Nandurbar",
    "statename": "MAHARASHTRA"
  },
  {
    "pincode": "425409",
    "officename": "Mubarakpur B.O",
    "officeType": "B.O",
    "Deliverystatus": "Delivery",
    "divisionname": "Dhule",
    "regionname": "Aurangabad",
    "circlename": "Maharashtra",
    "Taluk": "Shahada",
    "Districtname": "Nandurbar",
    "statename": "MAHARASHTRA"
  },
  {
    "pincode": "425409",
    "officename": "Padalda B.O",
    "officeType": "B.O",
    "Deliverystatus": "Delivery",
    "divisionname": "Dhule",
    "regionname": "Aurangabad",
    "circlename": "Maharashtra",
    "Taluk": "Shahade",
    "Districtname": "Nandurbar",
    "statename": "MAHARASHTRA"
  },
  {
    "pincode": "425409",
    "officename": "Raikhed B.O",
    "officeType": "B.O",
    "Deliverystatus": "Delivery",
    "divisionname": "Dhule",
    "regionname": "Aurangabad",
    "circlename": "Maharashtra",
    "Taluk": "Shahada",
    "Districtname": "Nandurbar",
    "statename": "MAHARASHTRA"
  },
  {
    "pincode": "425409",
    "officename": "Shahada S.O",
    "officeType": "S.O",
    "Deliverystatus": "Delivery",
    "divisionname": "Dhule",
    "regionname": "Aurangabad",
    "circlename": "Maharashtra",
    "Taluk": "Shahada",
    "Districtname": "Nandurbar",
    "statename": "MAHARASHTRA"
  },
  {
    "pincode": "425409",
    "officename": "Shahada Town S.O",
    "officeType": "S.O",
    "Deliverystatus": "Non-Delivery",
    "divisionname": "Dhule",
    "regionname": "Aurangabad",
    "circlename": "Maharashtra",
    "Taluk": "Shahade",
    "Districtname": "Nandurbar",
    "statename": "MAHARASHTRA"
  },
  {
    "pincode": "425409",
    "officename": "Shelti B.O",
    "officeType": "B.O",
    "Deliverystatus": "Delivery",
    "divisionname": "Dhule",
    "regionname": "Aurangabad",
    "circlename": "Maharashtra",
    "Taluk": "Shahada",
    "Districtname": "Nandurbar",
    "statename": "MAHARASHTRA"
  },
  {
    "pincode": "425409",
    "officename": "Shirud-digar B.O",
    "officeType": "B.O",
    "Deliverystatus": "Delivery",
    "divisionname": "Dhule",
    "regionname": "Aurangabad",
    "circlename": "Maharashtra",
    "Taluk": "Shahada",
    "Districtname": "Nandurbar",
    "statename": "MAHARASHTRA"
  },
  {
    "pincode": "425409",
    "officename": "Sonwad B.O",
    "officeType": "B.O",
    "Deliverystatus": "Delivery",
    "divisionname": "Dhule",
    "regionname": "Aurangabad",
    "circlename": "Maharashtra",
    "Taluk": "Shahade",
    "Districtname": "Nandurbar",
    "statename": "MAHARASHTRA"
  },
  {
    "pincode": "425409",
    "officename": "Sulvade B.O",
    "officeType": "B.O",
    "Deliverystatus": "Delivery",
    "divisionname": "Dhule",
    "regionname": "Aurangabad",
    "circlename": "Maharashtra",
    "Taluk": "Shahada",
    "Districtname": "Nandurbar",
    "statename": "MAHARASHTRA"
  },
  {
    "pincode": "425409",
    "officename": "Vardhe B.O",
    "officeType": "B.O",
    "Deliverystatus": "Delivery",
    "divisionname": "Dhule",
    "regionname": "Aurangabad",
    "circlename": "Maharashtra",
    "Taluk": "Shahada",
    "Districtname": "Nandurbar",
    "statename": "MAHARASHTRA"
  }
]
