[
  {
    "pincode": "425408",
    "officename": "Aichale B.O",
    "officeType": "B.O",
    "Deliverystatus": "Delivery",
    "divisionname": "Dhule",
    "regionname": "Aurangabad",
    "circlename": "Maharashtra",
    "Taluk": "Sindkheda",
    "Districtname": "Dhule",
    "statename": "MAHARASHTRA"
  },
  {
    "pincode": "425408",
    "officename": "Bamhane B.O",
    "officeType": "B.O",
    "Deliverystatus": "Delivery",
    "divisionname": "Dhule",
    "regionname": "Aurangabad",
    "circlename": "Maharashtra",
    "Taluk": "Sindkheda",
    "Districtname": "Dhule",
    "statename": "MAHARASHTRA"
  },
  {
    "pincode": "425408",
    "officename": "Daul B.O",
    "officeType": "B.O",
    "Deliverystatus": "Delivery",
    "divisionname": "Dhule",
    "regionname": "Aurangabad",
    "circlename": "Maharashtra",
    "Taluk": "Shindkheda",
    "Districtname": "Dhule",
    "statename": "MAHARASHTRA"
  },
  {
    "pincode": "425408",
    "officename": "Dhamane B.O",
    "officeType": "B.O",
    "Deliverystatus": "Delivery",
    "divisionname": "Dhule",
    "regionname": "Aurangabad",
    "circlename": "Maharashtra",
    "Taluk": "Shinkheda",
    "Districtname": "Dhule",
    "statename": "MAHARASHTRA"
  },
  {
    "pincode": "425408",
    "officename": "Dondaicha S.O",
    "officeType": "S.O",
    "Deliverystatus": "Delivery",
    "divisionname": "Dhule",
    "regionname": "Aurangabad",
    "circlename": "Maharashtra",
    "Taluk": "Sindkhede",
    "Districtname": "Dhule",
    "statename": "MAHARASHTRA"
  },
  {
    "pincode": "425408",
    "officename": "Dondaicha-town B.O",
    "officeType": "B.O",
    "Deliverystatus": "Delivery",
    "divisionname": "Dhule",
    "regionname": "Aurangabad",
    "circlename": "Maharashtra",
    "Taluk": "Sindkhede",
    "Districtname": "Dhule",
    "statename": "MAHARASHTRA"
  },
  {
    "pincode": "425408",
    "officename": "Hatti-kh B.O",
    "officeType": "B.O",
    "Deliverystatus": "Delivery",
    "divisionname": "Dhule",
    "regionname": "Aurangabad",
    "circlename": "Maharashtra",
    "Taluk": "Shindkheda",
    "Districtname": "Dhule",
    "statename": "MAHARASHTRA"
  },
  {
    "pincode": "425408",
    "officename": "Indave B.O",
    "officeType": "B.O",
    "Deliverystatus": "Delivery",
    "divisionname": "Dhule",
    "regionname": "Aurangabad",
    "circlename": "Maharashtra",
    "Taluk": "Sindkheda",
    "Districtname": "Dhule",
    "statename": "MAHARASHTRA"
  },
  {
    "pincode": "425408",
    "officename": "Karle B.O",
    "officeType": "B.O",
    "Deliverystatus": "Delivery",
    "divisionname": "Dhule",
    "regionname": "Aurangabad",
    "circlename": "Maharashtra",
    "Taluk": "Shindkheda",
    "Districtname": "Dhule",
    "statename": "MAHARASHTRA"
  },
  {
    "pincode": "425408",
    "officename": "Kharde-BK B.O",
    "officeType": "B.O",
    "Deliverystatus": "Delivery",
    "divisionname": "Dhule",
    "regionname": "Aurangabad",
    "circlename": "Maharashtra",
    "Taluk": "Sindkheda",
    "Districtname": "Dhule",
    "statename": "MAHARASHTRA"
  },
  {
    "pincode": "425408",
    "officename": "Kharde-KH B.O",
    "officeType": "B.O",
    "Deliverystatus": "Delivery",
    "divisionname": "Dhule",
    "regionname": "Aurangabad",
    "circlename": "Maharashtra",
    "Taluk": "Sindkheda",
    "Districtname": "Dhule",
    "statename": "MAHARASHTRA"
  },
  {
    "pincode": "425408",
    "officename": "Kodade B.O",
    "officeType": "B.O",
    "Deliverystatus": "Delivery",
    "divisionname": "Dhule",
    "regionname": "Aurangabad",
    "circlename": "Maharashtra",
    "Taluk": "Shindkheda",
    "Districtname": "Dhule",
    "statename": "MAHARASHTRA"
  },
  {
    "pincode": "425408",
    "officename": "Kurkwade B.O",
    "officeType": "B.O",
    "Deliverystatus": "Delivery",
    "divisionname": "Dhule",
    "regionname": "Aurangabad",
    "circlename": "Maharashtra",
    "Taluk": "Shindkheda",
    "Districtname": "Dhule",
    "statename": "MAHARASHTRA"
  },
  {
    "pincode": "425408",
    "officename": "Malpur B.O",
    "officeType": "B.O",
    "Deliverystatus": "Delivery",
    "divisionname": "Dhule",
    "regionname": "Aurangabad",
    "circlename": "Maharashtra",
    "Taluk": "Shindkheda",
    "Districtname": "Dhule",
    "statename": "MAHARASHTRA"
  },
  {
    "pincode": "425408",
    "officename": "Methi B.O",
    "officeType": "B.O",
    "Deliverystatus": "Delivery",
    "divisionname": "Dhule",
    "regionname": "Aurangabad",
    "circlename": "Maharashtra",
    "Taluk": "Shindkheda",
    "Districtname": "Dhule",
    "statename": "MAHARASHTRA"
  },
  {
    "pincode": "425408",
    "officename": "Nihali B.O",
    "officeType": "B.O",
    "Deliverystatus": "Delivery",
    "divisionname": "Dhule",
    "regionname": "Aurangabad",
    "circlename": "Maharashtra",
    "Taluk": "Shindkheda",
    "Districtname": "Dhule",
    "statename": "MAHARASHTRA"
  },
  {
    "pincode": "425408",
    "officename": "Nimgul B.O",
    "officeType": "B.O",
    "Deliverystatus": "Delivery",
    "divisionname": "Dhule",
    "regionname": "Aurangabad",
    "circlename": "Maharashtra",
    "Taluk": "Shindkheda",
    "Districtname": "Dhule",
    "statename": "MAHARASHTRA"
  },
  {
    "pincode": "425408",
    "officename": "Rajale B.O",
    "officeType": "B.O",
    "Deliverystatus": "Delivery",
    "divisionname": "Dhule",
    "regionname": "Aurangabad",
    "circlename": "Maharashtra",
    "Taluk": "Shindkheda",
    "Districtname": "Dhule",
    "statename": "MAHARASHTRA"
  },
  {
    "pincode": "425408",
    "officename": "Rami B.O",
    "officeType": "B.O",
    "Deliverystatus": "Delivery",
    "divisionname": "Dhule",
    "regionname": "Aurangabad",
    "circlename": "Maharashtra",
    "Taluk": "Shindkheda",
    "Districtname": "Dhule",
    "statename": "MAHARASHTRA"
  },
  {
    "pincode": "425408",
    "officename": "Shanimandal B.O",
    "officeType": "B.O",
    "Deliverystatus": "Delivery",
    "divisionname": "Dhule",
    "regionname": "Aurangabad",
    "circlename": "Maharashtra",
    "Taluk": "Sindkhede",
    "Districtname": "Dhule",
    "statename": "MAHARASHTRA"
  },
  {
    "pincode": "425408",
    "officename": "Suray B.O",
    "officeType": "B.O",
    "Deliverystatus": "Delivery",
    "divisionname": "Dhule",
    "regionname": "Aurangabad",
    "circlename": "Maharashtra",
    "Taluk": "Shindkheda",
    "Districtname": "Dhule",
    "statename": "MAHARASHTRA"
  },
  {
    "pincode": "425408",
    "officename": "Tavkheda B.O",
    "officeType": "B.O",
    "Deliverystatus": "Delivery",
    "divisionname": "Dhule",
    "regionname": "Aurangabad",
    "circlename": "Maharashtra",
    "Taluk": "Shindkheda",
    "Districtname": "Dhule",
    "statename": "MAHARASHTRA"
  },
  {
    "pincode": "425408",
    "officename": "Vaindane B.O",
    "officeType": "B.O",
    "Deliverystatus": "Delivery",
    "divisionname": "Dhule",
    "regionname": "Aurangabad",
    "circlename": "Maharashtra",
    "Taluk": "Shindkheda",
    "Districtname": "Dhule",
    "statename": "MAHARASHTRA"
  },
  {
    "pincode": "425408",
    "officename": "Vikhran B.O",
    "officeType": "B.O",
    "Deliverystatus": "Delivery",
    "divisionname": "Dhule",
    "regionname": "Aurangabad",
    "circlename": "Maharashtra",
    "Taluk": "Shindkheda",
    "Districtname": "Dhule",
    "statename": "MAHARASHTRA"
  }
]
