[
  {
    "pincode": "425418",
    "officename": "Dhaite B.O",
    "officeType": "B.O",
    "Deliverystatus": "Delivery",
    "divisionname": "Dhule",
    "regionname": "Aurangabad",
    "circlename": "Maharashtra",
    "Taluk": "Nawapur",
    "Districtname": "Nandurbar",
    "statename": "MAHARASHTRA"
  },
  {
    "pincode": "425418",
    "officename": "Dhanarat B.O",
    "officeType": "B.O",
    "Deliverystatus": "Delivery",
    "divisionname": "Dhule",
    "regionname": "Aurangabad",
    "circlename": "Maharashtra",
    "Taluk": "Navapur",
    "Districtname": "Nandurbar",
    "statename": "MAHARASHTRA"
  },
  {
    "pincode": "425418",
    "officename": "Gadat B.O",
    "officeType": "B.O",
    "Deliverystatus": "Delivery",
    "divisionname": "Dhule",
    "regionname": "Aurangabad",
    "circlename": "Maharashtra",
    "Taluk": "Navapur",
    "Districtname": "Nandurbar",
    "statename": "MAHARASHTRA"
  },
  {
    "pincode": "425418",
    "officename": "Karanji-KH B.O",
    "officeType": "B.O",
    "Deliverystatus": "Delivery",
    "divisionname": "Dhule",
    "regionname": "Aurangabad",
    "circlename": "Maharashtra",
    "Taluk": "Navapur",
    "Districtname": "Nandurbar",
    "statename": "MAHARASHTRA"
  },
  {
    "pincode": "425418",
    "officename": "Khekada B.O",
    "officeType": "B.O",
    "Deliverystatus": "Delivery",
    "divisionname": "Dhule",
    "regionname": "Aurangabad",
    "circlename": "Maharashtra",
    "Taluk": "Navapur",
    "Districtname": "Nandurbar",
    "statename": "MAHARASHTRA"
  },
  {
    "pincode": "425418",
    "officename": "Khokse B.O",
    "officeType": "B.O",
    "Deliverystatus": "Delivery",
    "divisionname": "Dhule",
    "regionname": "Aurangabad",
    "circlename": "Maharashtra",
    "Taluk": "Navapur",
    "Districtname": "Nandurbar",
    "statename": "MAHARASHTRA"
  },
  {
    "pincode": "425418",
    "officename": "Nagziri B.O",
    "officeType": "B.O",
    "Deliverystatus": "Delivery",
    "divisionname": "Dhule",
    "regionname": "Aurangabad",
    "circlename": "Maharashtra",
    "Taluk": "Navapur",
    "Districtname": "Nandurbar",
    "statename": "MAHARASHTRA"
  },
  {
    "pincode": "425418",
    "officename": "Navagaon B.O",
    "officeType": "B.O",
    "Deliverystatus": "Delivery",
    "divisionname": "Dhule",
    "regionname": "Aurangabad",
    "circlename": "Maharashtra",
    "Taluk": "Navapur",
    "Districtname": "Nandurbar",
    "statename": "MAHARASHTRA"
  },
  {
    "pincode": "425418",
    "officename": "Navapur R.S. B.O",
    "officeType": "B.O",
    "Deliverystatus": "Delivery",
    "divisionname": "Dhule",
    "regionname": "Aurangabad",
    "circlename": "Maharashtra",
    "Taluk": "Nawapur",
    "Districtname": "Nandurbar",
    "statename": "MAHARASHTRA"
  },
  {
    "pincode": "425418",
    "officename": "Navapur S.O",
    "officeType": "S.O",
    "Deliverystatus": "Delivery",
    "divisionname": "Dhule",
    "regionname": "Aurangabad",
    "circlename": "Maharashtra",
    "Taluk": "Navapur",
    "Districtname": "Nandurbar",
    "statename": "MAHARASHTRA"
  },
  {
    "pincode": "425418",
    "officename": "Raingaon B.O",
    "officeType": "B.O",
    "Deliverystatus": "Delivery",
    "divisionname": "Dhule",
    "regionname": "Aurangabad",
    "circlename": "Maharashtra",
    "Taluk": "Navapur",
    "Districtname": "Nandurbar",
    "statename": "MAHARASHTRA"
  },
  {
    "pincode": "425418",
    "officename": "Raipur B.O",
    "officeType": "B.O",
    "Deliverystatus": "Delivery",
    "divisionname": "Dhule",
    "regionname": "Aurangabad",
    "circlename": "Maharashtra",
    "Taluk": "Navapur",
    "Districtname": "Nandurbar",
    "statename": "MAHARASHTRA"
  }
]
