[
  {
    "pincode": "425426",
    "officename": "Bhandarpada B.O",
    "officeType": "B.O",
    "Deliverystatus": "Delivery",
    "divisionname": "Dhule",
    "regionname": "Aurangabad",
    "circlename": "Maharashtra",
    "Taluk": "Navapur",
    "Districtname": "Nandurbar",
    "statename": "MAHARASHTRA"
  },
  {
    "pincode": "425426",
    "officename": "Bharadu B.O",
    "officeType": "B.O",
    "Deliverystatus": "Delivery",
    "divisionname": "Dhule",
    "regionname": "Aurangabad",
    "circlename": "Maharashtra",
    "Taluk": "Navapur",
    "Districtname": "Nandurbar",
    "statename": "MAHARASHTRA"
  },
  {
    "pincode": "425426",
    "officename": "Chitvi B.O",
    "officeType": "B.O",
    "Deliverystatus": "Delivery",
    "divisionname": "Dhule",
    "regionname": "Aurangabad",
    "circlename": "Maharashtra",
    "Taluk": "Navapur",
    "Districtname": "Nandurbar",
    "statename": "MAHARASHTRA"
  },
  {
    "pincode": "425426",
    "officename": "Davlipada B.O",
    "officeType": "B.O",
    "Deliverystatus": "Delivery",
    "divisionname": "Dhule",
    "regionname": "Aurangabad",
    "circlename": "Maharashtra",
    "Taluk": "Navapur",
    "Districtname": "Nandurbar",
    "statename": "MAHARASHTRA"
  },
  {
    "pincode": "425426",
    "officename": "Haldani B.O",
    "officeType": "B.O",
    "Deliverystatus": "Delivery",
    "divisionname": "Dhule",
    "regionname": "Aurangabad",
    "circlename": "Maharashtra",
    "Taluk": "Navapur",
    "Districtname": "Nandurbar",
    "statename": "MAHARASHTRA"
  },
  {
    "pincode": "425426",
    "officename": "Khanapur B.O",
    "officeType": "B.O",
    "Deliverystatus": "Delivery",
    "divisionname": "Dhule",
    "regionname": "Aurangabad",
    "circlename": "Maharashtra",
    "Taluk": "Navapur",
    "Districtname": "Nandurbar",
    "statename": "MAHARASHTRA"
  },
  {
    "pincode": "425426",
    "officename": "Vadfali B.O",
    "officeType": "B.O",
    "Deliverystatus": "Delivery",
    "divisionname": "Dhule",
    "regionname": "Aurangabad",
    "circlename": "Maharashtra",
    "Taluk": "Navapur",
    "Districtname": "Nandurbar",
    "statename": "MAHARASHTRA"
  },
  {
    "pincode": "425426",
    "officename": "Visarwadi S.O",
    "officeType": "S.O",
    "Deliverystatus": "Delivery",
    "divisionname": "Dhule",
    "regionname": "Aurangabad",
    "circlename": "Maharashtra",
    "Taluk": "Navapur",
    "Districtname": "Nandurbar",
    "statename": "MAHARASHTRA"
  }
]
