[
  {
    "pincode": "431008",
    "officename": "Adgaon Sarak B.O",
    "officeType": "B.O",
    "Deliverystatus": "Delivery",
    "divisionname": "Aurangabad(Maharashtra)",
    "regionname": "Aurangabad",
    "circlename": "Maharashtra",
    "Taluk": "Aurangabad",
    "Districtname": "Aurangabad",
    "statename": "MAHARASHTRA"
  },
  {
    "pincode": "431008",
    "officename": "Bilda B.O",
    "officeType": "B.O",
    "Deliverystatus": "Delivery",
    "divisionname": "Aurangabad(Maharashtra)",
    "regionname": "Aurangabad",
    "circlename": "Maharashtra",
    "Taluk": "Phulumbri",
    "Districtname": "Aurangabad",
    "statename": "MAHARASHTRA"
  },
  {
    "pincode": "431008",
    "officename": "Chouka B.O",
    "officeType": "B.O",
    "Deliverystatus": "Delivery",
    "divisionname": "Aurangabad(Maharashtra)",
    "regionname": "Aurangabad",
    "circlename": "Maharashtra",
    "Taluk": "Aurangabad",
    "Districtname": "Aurangabad",
    "statename": "MAHARASHTRA"
  },
  {
    "pincode": "431008",
    "officename": "Ganori B.O",
    "officeType": "B.O",
    "Deliverystatus": "Delivery",
    "divisionname": "Aurangabad(Maharashtra)",
    "regionname": "Aurangabad",
    "circlename": "Maharashtra",
    "Taluk": "Phulumbri",
    "Districtname": "Aurangabad",
    "statename": "MAHARASHTRA"
  },
  {
    "pincode": "431008",
    "officename": "Harsool S.O",
    "officeType": "S.O",
    "Deliverystatus": "Delivery",
    "divisionname": "Aurangabad(Maharashtra)",
    "regionname": "Aurangabad",
    "circlename": "Maharashtra",
    "Taluk": "Aurangabad",
    "Districtname": "Aurangabad",
    "statename": "MAHARASHTRA"
  },
  {
    "pincode": "431008",
    "officename": "Jatwada B.O",
    "officeType": "B.O",
    "Deliverystatus": "Delivery",
    "divisionname": "Aurangabad(Maharashtra)",
    "regionname": "Aurangabad",
    "circlename": "Maharashtra",
    "Taluk": "Aurangabad",
    "Districtname": "Aurangabad",
    "statename": "MAHARASHTRA"
  },
  {
    "pincode": "431008",
    "officename": "Palshi (Shahar) B.O",
    "officeType": "B.O",
    "Deliverystatus": "Delivery",
    "divisionname": "Aurangabad(Maharashtra)",
    "regionname": "Aurangabad",
    "circlename": "Maharashtra",
    "Taluk": "Aurangabad",
    "Districtname": "Aurangabad",
    "statename": "MAHARASHTRA"
  },
  {
    "pincode": "431008",
    "officename": "Tuljapur Sawangi B.O",
    "officeType": "B.O",
    "Deliverystatus": "Delivery",
    "divisionname": "Aurangabad(Maharashtra)",
    "regionname": "Aurangabad",
    "circlename": "Maharashtra",
    "Taluk": "Aurangabad",
    "Districtname": "Aurangabad",
    "statename": "MAHARASHTRA"
  }
]
