[
  {
    "pincode": "431114",
    "officename": "Avana B.O",
    "officeType": "B.O",
    "Deliverystatus": "Delivery",
    "divisionname": "Aurangabad(Maharashtra)",
    "regionname": "Aurangabad",
    "circlename": "Maharashtra",
    "Taluk": "Bhokardan",
    "Districtname": "Jalna",
    "statename": "MAHARASHTRA"
  },
  {
    "pincode": "431114",
    "officename": "Babhulgaon B.O",
    "officeType": "B.O",
    "Deliverystatus": "Delivery",
    "divisionname": "Aurangabad(Maharashtra)",
    "regionname": "Aurangabad",
    "circlename": "Maharashtra",
    "Taluk": "Bhokardan",
    "Districtname": "Jalna",
    "statename": "MAHARASHTRA"
  },
  {
    "pincode": "431114",
    "officename": "Bhokardan S.O",
    "officeType": "S.O",
    "Deliverystatus": "Delivery",
    "divisionname": "Aurangabad(Maharashtra)",
    "regionname": "Aurangabad",
    "circlename": "Maharashtra",
    "Taluk": "Bhokardan",
    "Districtname": "Aurangabad",
    "statename": "MAHARASHTRA"
  },
  {
    "pincode": "431114",
    "officename": "Danapur B.O",
    "officeType": "B.O",
    "Deliverystatus": "Delivery",
    "divisionname": "Aurangabad(Maharashtra)",
    "regionname": "Aurangabad",
    "circlename": "Maharashtra",
    "Taluk": "Bhokardan",
    "Districtname": "Jalna",
    "statename": "MAHARASHTRA"
  },
  {
    "pincode": "431114",
    "officename": "Kathora B.O",
    "officeType": "B.O",
    "Deliverystatus": "Delivery",
    "divisionname": "Aurangabad(Maharashtra)",
    "regionname": "Aurangabad",
    "circlename": "Maharashtra",
    "Taluk": "Bhokardan",
    "Districtname": "Jalna",
    "statename": "MAHARASHTRA"
  },
  {
    "pincode": "431114",
    "officename": "Kedarkheda B.O",
    "officeType": "B.O",
    "Deliverystatus": "Delivery",
    "divisionname": "Aurangabad(Maharashtra)",
    "regionname": "Aurangabad",
    "circlename": "Maharashtra",
    "Taluk": "Bhokardan",
    "Districtname": "Jalna",
    "statename": "MAHARASHTRA"
  },
  {
    "pincode": "431114",
    "officename": "Kosgaon B.O",
    "officeType": "B.O",
    "Deliverystatus": "Delivery",
    "divisionname": "Aurangabad(Maharashtra)",
    "regionname": "Aurangabad",
    "circlename": "Maharashtra",
    "Taluk": "Bhokardan",
    "Districtname": "Jalna",
    "statename": "MAHARASHTRA"
  },
  {
    "pincode": "431114",
    "officename": "Nalni B.O",
    "officeType": "B.O",
    "Deliverystatus": "Delivery",
    "divisionname": "Aurangabad(Maharashtra)",
    "regionname": "Aurangabad",
    "circlename": "Maharashtra",
    "Taluk": "Bhokardan",
    "Districtname": "Jalna",
    "statename": "MAHARASHTRA"
  },
  {
    "pincode": "431114",
    "officename": "Pahtepur B.O",
    "officeType": "B.O",
    "Deliverystatus": "Delivery",
    "divisionname": "Aurangabad(Maharashtra)",
    "regionname": "Aurangabad",
    "circlename": "Maharashtra",
    "Taluk": "Bholardan",
    "Districtname": "Jalna",
    "statename": "MAHARASHTRA"
  },
  {
    "pincode": "431114",
    "officename": "Paradh B.O",
    "officeType": "B.O",
    "Deliverystatus": "Delivery",
    "divisionname": "Aurangabad(Maharashtra)",
    "regionname": "Aurangabad",
    "circlename": "Maharashtra",
    "Taluk": "Bhokardan",
    "Districtname": "Aurangabad",
    "statename": "MAHARASHTRA"
  },
  {
    "pincode": "431114",
    "officename": "Pimpalgaon R B.O",
    "officeType": "B.O",
    "Deliverystatus": "Delivery",
    "divisionname": "Aurangabad(Maharashtra)",
    "regionname": "Aurangabad",
    "circlename": "Maharashtra",
    "Taluk": "Bhokardan",
    "Districtname": "Jalna",
    "statename": "MAHARASHTRA"
  },
  {
    "pincode": "431114",
    "officename": "Sawangi A B.O",
    "officeType": "B.O",
    "Deliverystatus": "Delivery",
    "divisionname": "Aurangabad(Maharashtra)",
    "regionname": "Aurangabad",
    "circlename": "Maharashtra",
    "Taluk": "Bhokardan",
    "Districtname": "Jalna",
    "statename": "MAHARASHTRA"
  },
  {
    "pincode": "431114",
    "officename": "Sipora B.O",
    "officeType": "B.O",
    "Deliverystatus": "Delivery",
    "divisionname": "Aurangabad(Maharashtra)",
    "regionname": "Aurangabad",
    "circlename": "Maharashtra",
    "Taluk": "Bhokardan",
    "Districtname": "Jalna",
    "statename": "MAHARASHTRA"
  },
  {
    "pincode": "431114",
    "officename": "Soegaon Devi B.O",
    "officeType": "B.O",
    "Deliverystatus": "Delivery",
    "divisionname": "Aurangabad(Maharashtra)",
    "regionname": "Aurangabad",
    "circlename": "Maharashtra",
    "Taluk": "Bhokardan",
    "Districtname": "Jalna",
    "statename": "MAHARASHTRA"
  },
  {
    "pincode": "431114",
    "officename": "Surangali B.O",
    "officeType": "B.O",
    "Deliverystatus": "Delivery",
    "divisionname": "Aurangabad(Maharashtra)",
    "regionname": "Aurangabad",
    "circlename": "Maharashtra",
    "Taluk": "Bhokardan",
    "Districtname": "Jalna",
    "statename": "MAHARASHTRA"
  },
  {
    "pincode": "431114",
    "officename": "Tadegaon B.O",
    "officeType": "B.O",
    "Deliverystatus": "Delivery",
    "divisionname": "Aurangabad(Maharashtra)",
    "regionname": "Aurangabad",
    "circlename": "Maharashtra",
    "Taluk": "Bhokardan",
    "Districtname": "Jalna",
    "statename": "MAHARASHTRA"
  },
  {
    "pincode": "431114",
    "officename": "Wadi BK B.O",
    "officeType": "B.O",
    "Deliverystatus": "Delivery",
    "divisionname": "Aurangabad(Maharashtra)",
    "regionname": "Aurangabad",
    "circlename": "Maharashtra",
    "Taluk": "Bhokardan",
    "Districtname": "Jalna",
    "statename": "MAHARASHTRA"
  },
  {
    "pincode": "431114",
    "officename": "Walsa Khalsa B.O",
    "officeType": "B.O",
    "Deliverystatus": "Delivery",
    "divisionname": "Aurangabad(Maharashtra)",
    "regionname": "Aurangabad",
    "circlename": "Maharashtra",
    "Taluk": "Bhokardan",
    "Districtname": "Jalna",
    "statename": "MAHARASHTRA"
  },
  {
    "pincode": "431114",
    "officename": "Walsa Wadala B.O",
    "officeType": "B.O",
    "Deliverystatus": "Delivery",
    "divisionname": "Aurangabad(Maharashtra)",
    "regionname": "Aurangabad",
    "circlename": "Maharashtra",
    "Taluk": "Bhorkardan",
    "Districtname": "Jalna",
    "statename": "MAHARASHTRA"
  },
  {
    "pincode": "431114",
    "officename": "Warud BK B.O",
    "officeType": "B.O",
    "Deliverystatus": "Delivery",
    "divisionname": "Aurangabad(Maharashtra)",
    "regionname": "Aurangabad",
    "circlename": "Maharashtra",
    "Taluk": "Bhokardan",
    "Districtname": "Jalna",
    "statename": "MAHARASHTRA"
  }
]
