[
  {
    "pincode": "431130",
    "officename": "Ardha Pimpri B.O",
    "officeType": "B.O",
    "Deliverystatus": "Delivery",
    "divisionname": "Beed",
    "regionname": "Aurangabad",
    "circlename": "Maharashtra",
    "Taluk": "Georai",
    "Districtname": "Beed",
    "statename": "MAHARASHTRA"
  },
  {
    "pincode": "431130",
    "officename": "Bangali Pimpla B.O",
    "officeType": "B.O",
    "Deliverystatus": "Delivery",
    "divisionname": "Beed",
    "regionname": "Aurangabad",
    "circlename": "Maharashtra",
    "Taluk": "Georai",
    "Districtname": "Beed",
    "statename": "MAHARASHTRA"
  },
  {
    "pincode": "431130",
    "officename": "Borgaon BK B.O",
    "officeType": "B.O",
    "Deliverystatus": "Delivery",
    "divisionname": "Beed",
    "regionname": "Aurangabad",
    "circlename": "Maharashtra",
    "Taluk": "Georai",
    "Districtname": "Beed",
    "statename": "MAHARASHTRA"
  },
  {
    "pincode": "431130",
    "officename": "Chaklamba B.O",
    "officeType": "B.O",
    "Deliverystatus": "Delivery",
    "divisionname": "Beed",
    "regionname": "Aurangabad",
    "circlename": "Maharashtra",
    "Taluk": "Georai",
    "Districtname": "Beed",
    "statename": "MAHARASHTRA"
  },
  {
    "pincode": "431130",
    "officename": "Deo Pimpri B.O",
    "officeType": "B.O",
    "Deliverystatus": "Delivery",
    "divisionname": "Beed",
    "regionname": "Aurangabad",
    "circlename": "Maharashtra",
    "Taluk": "Georai",
    "Districtname": "Beed",
    "statename": "MAHARASHTRA"
  },
  {
    "pincode": "431130",
    "officename": "Ghogas Pargaon B.O",
    "officeType": "B.O",
    "Deliverystatus": "Delivery",
    "divisionname": "Beed",
    "regionname": "Aurangabad",
    "circlename": "Maharashtra",
    "Taluk": "Gevrai",
    "Districtname": "Beed",
    "statename": "MAHARASHTRA"
  },
  {
    "pincode": "431130",
    "officename": "Gulaj B.O",
    "officeType": "B.O",
    "Deliverystatus": "Delivery",
    "divisionname": "Beed",
    "regionname": "Aurangabad",
    "circlename": "Maharashtra",
    "Taluk": "Georai",
    "Districtname": "Beed",
    "statename": "MAHARASHTRA"
  },
  {
    "pincode": "431130",
    "officename": "Khalegaon B.O",
    "officeType": "B.O",
    "Deliverystatus": "Delivery",
    "divisionname": "Beed",
    "regionname": "Aurangabad",
    "circlename": "Maharashtra",
    "Taluk": "Gevrai",
    "Districtname": "Beed",
    "statename": "MAHARASHTRA"
  },
  {
    "pincode": "431130",
    "officename": "Malegaon KHD B.O",
    "officeType": "B.O",
    "Deliverystatus": "Delivery",
    "divisionname": "Beed",
    "regionname": "Aurangabad",
    "circlename": "Maharashtra",
    "Taluk": "Georai",
    "Districtname": "Beed",
    "statename": "MAHARASHTRA"
  },
  {
    "pincode": "431130",
    "officename": "Mategoan B.O",
    "officeType": "B.O",
    "Deliverystatus": "Delivery",
    "divisionname": "Beed",
    "regionname": "Aurangabad",
    "circlename": "Maharashtra",
    "Taluk": "Georai",
    "Districtname": "Beed",
    "statename": "MAHARASHTRA"
  },
  {
    "pincode": "431130",
    "officename": "Matori B.O",
    "officeType": "B.O",
    "Deliverystatus": "Delivery",
    "divisionname": "Beed",
    "regionname": "Aurangabad",
    "circlename": "Maharashtra",
    "Taluk": "Georai",
    "Districtname": "Beed",
    "statename": "MAHARASHTRA"
  },
  {
    "pincode": "431130",
    "officename": "Nimgaon Mayamba B.O",
    "officeType": "B.O",
    "Deliverystatus": "Delivery",
    "divisionname": "Beed",
    "regionname": "Aurangabad",
    "circlename": "Maharashtra",
    "Taluk": "Gevrai",
    "Districtname": "Beed",
    "statename": "MAHARASHTRA"
  },
  {
    "pincode": "431130",
    "officename": "Rakashasbhuwan Shani B.O",
    "officeType": "B.O",
    "Deliverystatus": "Delivery",
    "divisionname": "Beed",
    "regionname": "Aurangabad",
    "circlename": "Maharashtra",
    "Taluk": "Georai",
    "Districtname": "Beed",
    "statename": "MAHARASHTRA"
  },
  {
    "pincode": "431130",
    "officename": "Shekta B.O",
    "officeType": "B.O",
    "Deliverystatus": "Delivery",
    "divisionname": "Beed",
    "regionname": "Aurangabad",
    "circlename": "Maharashtra",
    "Taluk": "Georai",
    "Districtname": "Beed",
    "statename": "MAHARASHTRA"
  },
  {
    "pincode": "431130",
    "officename": "Tintarwani B.O",
    "officeType": "B.O",
    "Deliverystatus": "Delivery",
    "divisionname": "Beed",
    "regionname": "Aurangabad",
    "circlename": "Maharashtra",
    "Taluk": "Georai",
    "Districtname": "Beed",
    "statename": "MAHARASHTRA"
  },
  {
    "pincode": "431130",
    "officename": "Umapur S.O",
    "officeType": "S.O",
    "Deliverystatus": "Delivery",
    "divisionname": "Beed",
    "regionname": "Aurangabad",
    "circlename": "Maharashtra",
    "Taluk": "Georai",
    "Districtname": "Beed",
    "statename": "MAHARASHTRA"
  }
]
