[
  {
    "pincode": "431127",
    "officename": "Antarwali BK B.O",
    "officeType": "B.O",
    "Deliverystatus": "Delivery",
    "divisionname": "Beed",
    "regionname": "Aurangabad",
    "circlename": "Maharashtra",
    "Taluk": "Georai",
    "Districtname": "Beed",
    "statename": "MAHARASHTRA"
  },
  {
    "pincode": "431127",
    "officename": "Bagpimpalgoan B.O",
    "officeType": "B.O",
    "Deliverystatus": "Delivery",
    "divisionname": "Beed",
    "regionname": "Aurangabad",
    "circlename": "Maharashtra",
    "Taluk": "Georai",
    "Districtname": "Beed",
    "statename": "MAHARASHTRA"
  },
  {
    "pincode": "431127",
    "officename": "Bhogalgaon B.O",
    "officeType": "B.O",
    "Deliverystatus": "Delivery",
    "divisionname": "Beed",
    "regionname": "Aurangabad",
    "circlename": "Maharashtra",
    "Taluk": "Georai",
    "Districtname": "Beed",
    "statename": "MAHARASHTRA"
  },
  {
    "pincode": "431127",
    "officename": "Daithan B.O",
    "officeType": "B.O",
    "Deliverystatus": "Delivery",
    "divisionname": "Beed",
    "regionname": "Aurangabad",
    "circlename": "Maharashtra",
    "Taluk": "Georai",
    "Districtname": "Beed",
    "statename": "MAHARASHTRA"
  },
  {
    "pincode": "431127",
    "officename": "Dhondrai B.O",
    "officeType": "B.O",
    "Deliverystatus": "Delivery",
    "divisionname": "Beed",
    "regionname": "Aurangabad",
    "circlename": "Maharashtra",
    "Taluk": "Georai",
    "Districtname": "Beed",
    "statename": "MAHARASHTRA"
  },
  {
    "pincode": "431127",
    "officename": "Gevrai S.O",
    "officeType": "S.O",
    "Deliverystatus": "Delivery",
    "divisionname": "Beed",
    "regionname": "Aurangabad",
    "circlename": "Maharashtra",
    "Taluk": "Georai",
    "Districtname": "Beed",
    "statename": "MAHARASHTRA"
  },
  {
    "pincode": "431127",
    "officename": "Jategaon B.O",
    "officeType": "B.O",
    "Deliverystatus": "Delivery",
    "divisionname": "Beed",
    "regionname": "Aurangabad",
    "circlename": "Maharashtra",
    "Taluk": "Georai",
    "Districtname": "Beed",
    "statename": "MAHARASHTRA"
  },
  {
    "pincode": "431127",
    "officename": "Kekat Pangri B.O",
    "officeType": "B.O",
    "Deliverystatus": "Delivery",
    "divisionname": "Beed",
    "regionname": "Aurangabad",
    "circlename": "Maharashtra",
    "Taluk": "Georai",
    "Districtname": "Beed",
    "statename": "MAHARASHTRA"
  },
  {
    "pincode": "431127",
    "officename": "Raj Pimpri B.O",
    "officeType": "B.O",
    "Deliverystatus": "Delivery",
    "divisionname": "Beed",
    "regionname": "Aurangabad",
    "circlename": "Maharashtra",
    "Taluk": "Georai",
    "Districtname": "Beed",
    "statename": "MAHARASHTRA"
  },
  {
    "pincode": "431127",
    "officename": "Reoki B.O",
    "officeType": "B.O",
    "Deliverystatus": "Delivery",
    "divisionname": "Beed",
    "regionname": "Aurangabad",
    "circlename": "Maharashtra",
    "Taluk": "Georai",
    "Districtname": "Beed",
    "statename": "MAHARASHTRA"
  },
  {
    "pincode": "431127",
    "officename": "Ruithal B.O",
    "officeType": "B.O",
    "Deliverystatus": "Delivery",
    "divisionname": "Beed",
    "regionname": "Aurangabad",
    "circlename": "Maharashtra",
    "Taluk": "Georai",
    "Districtname": "Beed",
    "statename": "MAHARASHTRA"
  },
  {
    "pincode": "431127",
    "officename": "Talnewadi B.O",
    "officeType": "B.O",
    "Deliverystatus": "Delivery",
    "divisionname": "Beed",
    "regionname": "Aurangabad",
    "circlename": "Maharashtra",
    "Taluk": "Georai",
    "Districtname": "Beed",
    "statename": "MAHARASHTRA"
  },
  {
    "pincode": "431127",
    "officename": "Talwada B.O",
    "officeType": "B.O",
    "Deliverystatus": "Delivery",
    "divisionname": "Beed",
    "regionname": "Aurangabad",
    "circlename": "Maharashtra",
    "Taluk": "Gevrai",
    "Districtname": "Beed",
    "statename": "MAHARASHTRA"
  }
]
