[
  {
    "pincode": "431147",
    "officename": "Chincholi Limbaji S.O",
    "officeType": "S.O",
    "Deliverystatus": "Delivery",
    "divisionname": "Aurangabad(Maharashtra)",
    "regionname": "Aurangabad",
    "circlename": "Maharashtra",
    "Taluk": "Kannad",
    "Districtname": "Aurangabad",
    "statename": "MAHARASHTRA"
  },
  {
    "pincode": "431147",
    "officename": "Dahegaon B.O",
    "officeType": "B.O",
    "Deliverystatus": "Delivery",
    "divisionname": "Aurangabad(Maharashtra)",
    "regionname": "Aurangabad",
    "circlename": "Maharashtra",
    "Taluk": "Kannad",
    "Districtname": "Aurangabad",
    "statename": "MAHARASHTRA"
  },
  {
    "pincode": "431147",
    "officename": "Ghat Shendra B.O",
    "officeType": "B.O",
    "Deliverystatus": "Delivery",
    "divisionname": "Aurangabad(Maharashtra)",
    "regionname": "Aurangabad",
    "circlename": "Maharashtra",
    "Taluk": "Kannad",
    "Districtname": "Aurangabad",
    "statename": "MAHARASHTRA"
  },
  {
    "pincode": "431147",
    "officename": "Jamdi Jahangir B.O",
    "officeType": "B.O",
    "Deliverystatus": "Delivery",
    "divisionname": "Aurangabad(Maharashtra)",
    "regionname": "Aurangabad",
    "circlename": "Maharashtra",
    "Taluk": "Kannad",
    "Districtname": "Aurangabad",
    "statename": "MAHARASHTRA"
  },
  {
    "pincode": "431147",
    "officename": "Karanjkheda B.O",
    "officeType": "B.O",
    "Deliverystatus": "Delivery",
    "divisionname": "Aurangabad(Maharashtra)",
    "regionname": "Aurangabad",
    "circlename": "Maharashtra",
    "Taluk": "Kannad",
    "Districtname": "Aurangabad",
    "statename": "MAHARASHTRA"
  },
  {
    "pincode": "431147",
    "officename": "Nagapur B.O",
    "officeType": "B.O",
    "Deliverystatus": "Delivery",
    "divisionname": "Aurangabad(Maharashtra)",
    "regionname": "Aurangabad",
    "circlename": "Maharashtra",
    "Taluk": "Kannad",
    "Districtname": "Aurangabad",
    "statename": "MAHARASHTRA"
  },
  {
    "pincode": "431147",
    "officename": "Nevpur B.O",
    "officeType": "B.O",
    "Deliverystatus": "Delivery",
    "divisionname": "Aurangabad(Maharashtra)",
    "regionname": "Aurangabad",
    "circlename": "Maharashtra",
    "Taluk": "Kannad",
    "Districtname": "Aurangabad",
    "statename": "MAHARASHTRA"
  },
  {
    "pincode": "431147",
    "officename": "Umarkheda B.O",
    "officeType": "B.O",
    "Deliverystatus": "Delivery",
    "divisionname": "Aurangabad(Maharashtra)",
    "regionname": "Aurangabad",
    "circlename": "Maharashtra",
    "Taluk": "Kannad",
    "Districtname": "Aurangabad",
    "statename": "MAHARASHTRA"
  },
  {
    "pincode": "431147",
    "officename": "Wakod B.O",
    "officeType": "B.O",
    "Deliverystatus": "Delivery",
    "divisionname": "Aurangabad(Maharashtra)",
    "regionname": "Aurangabad",
    "circlename": "Maharashtra",
    "Taluk": "Kannad",
    "Districtname": "Aurangabad",
    "statename": "MAHARASHTRA"
  }
]
