[
  {
    "pincode": "431123",
    "officename": "Borgaon B.O",
    "officeType": "B.O",
    "Deliverystatus": "Delivery",
    "divisionname": "Beed",
    "regionname": "Aurangabad",
    "circlename": "Maharashtra",
    "Taluk": "Kaij",
    "Districtname": "Beed",
    "statename": "MAHARASHTRA"
  },
  {
    "pincode": "431123",
    "officename": "Chandan Sawargaon B.O",
    "officeType": "B.O",
    "Deliverystatus": "Delivery",
    "divisionname": "Beed",
    "regionname": "Aurangabad",
    "circlename": "Maharashtra",
    "Taluk": "Kaij",
    "Districtname": "Beed",
    "statename": "MAHARASHTRA"
  },
  {
    "pincode": "431123",
    "officename": "Chincholi B.O",
    "officeType": "B.O",
    "Deliverystatus": "Delivery",
    "divisionname": "Beed",
    "regionname": "Aurangabad",
    "circlename": "Maharashtra",
    "Taluk": "Kaij",
    "Districtname": "Beed",
    "statename": "MAHARASHTRA"
  },
  {
    "pincode": "431123",
    "officename": "Dahiphal Wadmauli B.O",
    "officeType": "B.O",
    "Deliverystatus": "Delivery",
    "divisionname": "Beed",
    "regionname": "Aurangabad",
    "circlename": "Maharashtra",
    "Taluk": "Kaij",
    "Districtname": "Beed",
    "statename": "MAHARASHTRA"
  },
  {
    "pincode": "431123",
    "officename": "Deogaon B.O",
    "officeType": "B.O",
    "Deliverystatus": "Delivery",
    "divisionname": "Beed",
    "regionname": "Aurangabad",
    "circlename": "Maharashtra",
    "Taluk": "Kaij",
    "Districtname": "Beed",
    "statename": "MAHARASHTRA"
  },
  {
    "pincode": "431123",
    "officename": "Jiwachiwadi B.O",
    "officeType": "B.O",
    "Deliverystatus": "Delivery",
    "divisionname": "Beed",
    "regionname": "Aurangabad",
    "circlename": "Maharashtra",
    "Taluk": "Kaij",
    "Districtname": "Beed",
    "statename": "MAHARASHTRA"
  },
  {
    "pincode": "431123",
    "officename": "Kaij S.O",
    "officeType": "S.O",
    "Deliverystatus": "Delivery",
    "divisionname": "Beed",
    "regionname": "Aurangabad",
    "circlename": "Maharashtra",
    "Taluk": "Kaij",
    "Districtname": "Beed",
    "statename": "MAHARASHTRA"
  },
  {
    "pincode": "431123",
    "officename": "Kalamamba B.O",
    "officeType": "B.O",
    "Deliverystatus": "Delivery",
    "divisionname": "Beed",
    "regionname": "Aurangabad",
    "circlename": "Maharashtra",
    "Taluk": "Kaij",
    "Districtname": "Beed",
    "statename": "MAHARASHTRA"
  },
  {
    "pincode": "431123",
    "officename": "Kalegoanghat B.O",
    "officeType": "B.O",
    "Deliverystatus": "Delivery",
    "divisionname": "Beed",
    "regionname": "Aurangabad",
    "circlename": "Maharashtra",
    "Taluk": "Kaij",
    "Districtname": "Beed",
    "statename": "MAHARASHTRA"
  },
  {
    "pincode": "431123",
    "officename": "Kumbephal B.O",
    "officeType": "B.O",
    "Deliverystatus": "Delivery",
    "divisionname": "Beed",
    "regionname": "Aurangabad",
    "circlename": "Maharashtra",
    "Taluk": "Kaij",
    "Districtname": "Beed",
    "statename": "MAHARASHTRA"
  },
  {
    "pincode": "431123",
    "officename": "Lahuri B.O",
    "officeType": "B.O",
    "Deliverystatus": "Delivery",
    "divisionname": "Beed",
    "regionname": "Aurangabad",
    "circlename": "Maharashtra",
    "Taluk": "Kaij",
    "Districtname": "Beed",
    "statename": "MAHARASHTRA"
  },
  {
    "pincode": "431123",
    "officename": "Malegaon B.O",
    "officeType": "B.O",
    "Deliverystatus": "Delivery",
    "divisionname": "Beed",
    "regionname": "Aurangabad",
    "circlename": "Maharashtra",
    "Taluk": "Kaij",
    "Districtname": "Beed",
    "statename": "MAHARASHTRA"
  },
  {
    "pincode": "431123",
    "officename": "Mangwadgaon B.O",
    "officeType": "B.O",
    "Deliverystatus": "Delivery",
    "divisionname": "Beed",
    "regionname": "Aurangabad",
    "circlename": "Maharashtra",
    "Taluk": "Kaij",
    "Districtname": "Beed",
    "statename": "MAHARASHTRA"
  },
  {
    "pincode": "431123",
    "officename": "Massajog B.O",
    "officeType": "B.O",
    "Deliverystatus": "Delivery",
    "divisionname": "Beed",
    "regionname": "Aurangabad",
    "circlename": "Maharashtra",
    "Taluk": "Kaij",
    "Districtname": "Beed",
    "statename": "MAHARASHTRA"
  },
  {
    "pincode": "431123",
    "officename": "Salegaon B.O",
    "officeType": "B.O",
    "Deliverystatus": "Delivery",
    "divisionname": "Beed",
    "regionname": "Aurangabad",
    "circlename": "Maharashtra",
    "Taluk": "Kaij",
    "Districtname": "Beed",
    "statename": "MAHARASHTRA"
  },
  {
    "pincode": "431123",
    "officename": "Sarni Sangvi B.O",
    "officeType": "B.O",
    "Deliverystatus": "Delivery",
    "divisionname": "Beed",
    "regionname": "Aurangabad",
    "circlename": "Maharashtra",
    "Taluk": "Kaij",
    "Districtname": "Beed",
    "statename": "MAHARASHTRA"
  },
  {
    "pincode": "431123",
    "officename": "Shindi B.O",
    "officeType": "B.O",
    "Deliverystatus": "Delivery",
    "divisionname": "Beed",
    "regionname": "Aurangabad",
    "circlename": "Maharashtra",
    "Taluk": "Kaij",
    "Districtname": "Beed",
    "statename": "MAHARASHTRA"
  },
  {
    "pincode": "431123",
    "officename": "Sonasangvi B.O",
    "officeType": "B.O",
    "Deliverystatus": "Delivery",
    "divisionname": "Beed",
    "regionname": "Aurangabad",
    "circlename": "Maharashtra",
    "Taluk": "Kaij",
    "Districtname": "Beed",
    "statename": "MAHARASHTRA"
  },
  {
    "pincode": "431123",
    "officename": "Takli B.O",
    "officeType": "B.O",
    "Deliverystatus": "Delivery",
    "divisionname": "Beed",
    "regionname": "Aurangabad",
    "circlename": "Maharashtra",
    "Taluk": "Kaij",
    "Districtname": "Beed",
    "statename": "MAHARASHTRA"
  },
  {
    "pincode": "431123",
    "officename": "Tambwa B.O",
    "officeType": "B.O",
    "Deliverystatus": "Delivery",
    "divisionname": "Beed",
    "regionname": "Aurangabad",
    "circlename": "Maharashtra",
    "Taluk": "Kaij",
    "Districtname": "Beed",
    "statename": "MAHARASHTRA"
  },
  {
    "pincode": "431123",
    "officename": "Undri B.O",
    "officeType": "B.O",
    "Deliverystatus": "Delivery",
    "divisionname": "Beed",
    "regionname": "Aurangabad",
    "circlename": "Maharashtra",
    "Taluk": "Kaij",
    "Districtname": "Beed",
    "statename": "MAHARASHTRA"
  },
  {
    "pincode": "431123",
    "officename": "Vida B.O",
    "officeType": "B.O",
    "Deliverystatus": "Delivery",
    "divisionname": "Beed",
    "regionname": "Aurangabad",
    "circlename": "Maharashtra",
    "Taluk": "Kaij",
    "Districtname": "Beed",
    "statename": "MAHARASHTRA"
  },
  {
    "pincode": "431123",
    "officename": "Warapgoan B.O",
    "officeType": "B.O",
    "Deliverystatus": "Delivery",
    "divisionname": "Beed",
    "regionname": "Aurangabad",
    "circlename": "Maharashtra",
    "Taluk": "Kaij",
    "Districtname": "Beed",
    "statename": "MAHARASHTRA"
  },
  {
    "pincode": "431123",
    "officename": "Yeota B.O",
    "officeType": "B.O",
    "Deliverystatus": "Delivery",
    "divisionname": "Beed",
    "regionname": "Aurangabad",
    "circlename": "Maharashtra",
    "Taluk": "Kaij",
    "Districtname": "Beed",
    "statename": "MAHARASHTRA"
  }
]
