[
  {
    "pincode": "431101",
    "officename": "Gadana B.O",
    "officeType": "B.O",
    "Deliverystatus": "Delivery",
    "divisionname": "Aurangabad(Maharashtra)",
    "regionname": "Aurangabad",
    "circlename": "Maharashtra",
    "Taluk": "Khuldabad",
    "Districtname": "Aurangabad",
    "statename": "MAHARASHTRA"
  },
  {
    "pincode": "431101",
    "officename": "Golegaon B.O",
    "officeType": "B.O",
    "Deliverystatus": "Delivery",
    "divisionname": "Aurangabad(Maharashtra)",
    "regionname": "Aurangabad",
    "circlename": "Maharashtra",
    "Taluk": "Khuldabad",
    "Districtname": "Aurangabad",
    "statename": "MAHARASHTRA"
  },
  {
    "pincode": "431101",
    "officename": "Kagazipura B.O",
    "officeType": "B.O",
    "Deliverystatus": "Delivery",
    "divisionname": "Aurangabad(Maharashtra)",
    "regionname": "Aurangabad",
    "circlename": "Maharashtra",
    "Taluk": "Khuldabad",
    "Districtname": "Aurangabad",
    "statename": "MAHARASHTRA"
  },
  {
    "pincode": "431101",
    "officename": "Khirdi B.O",
    "officeType": "B.O",
    "Deliverystatus": "Delivery",
    "divisionname": "Aurangabad(Maharashtra)",
    "regionname": "Aurangabad",
    "circlename": "Maharashtra",
    "Taluk": "Khuldabad",
    "Districtname": "Aurangabad",
    "statename": "MAHARASHTRA"
  },
  {
    "pincode": "431101",
    "officename": "Khuldabad S.O",
    "officeType": "S.O",
    "Deliverystatus": "Delivery",
    "divisionname": "Aurangabad(Maharashtra)",
    "regionname": "Aurangabad",
    "circlename": "Maharashtra",
    "Taluk": "Khuldabad",
    "Districtname": "Aurangabad",
    "statename": "MAHARASHTRA"
  },
  {
    "pincode": "431101",
    "officename": "Sultanpur B.O",
    "officeType": "B.O",
    "Deliverystatus": "Delivery",
    "divisionname": "Aurangabad(Maharashtra)",
    "regionname": "Aurangabad",
    "circlename": "Maharashtra",
    "Taluk": "Khuldabad",
    "Districtname": "Aurangabad",
    "statename": "MAHARASHTRA"
  },
  {
    "pincode": "431101",
    "officename": "Takali Raje Rai B.O",
    "officeType": "B.O",
    "Deliverystatus": "Delivery",
    "divisionname": "Aurangabad(Maharashtra)",
    "regionname": "Aurangabad",
    "circlename": "Maharashtra",
    "Taluk": "Khuldabad",
    "Districtname": "Aurangabad",
    "statename": "MAHARASHTRA"
  },
  {
    "pincode": "431101",
    "officename": "Yesgaon B.O",
    "officeType": "B.O",
    "Deliverystatus": "Delivery",
    "divisionname": "Aurangabad(Maharashtra)",
    "regionname": "Aurangabad",
    "circlename": "Maharashtra",
    "Taluk": "Khuldabad",
    "Districtname": "Aurangabad",
    "statename": "MAHARASHTRA"
  }
]
