[
  {
    "pincode": "431506",
    "officename": "Bhahulgaon B.O",
    "officeType": "B.O",
    "Deliverystatus": "Delivery",
    "divisionname": "Pharbhani",
    "regionname": "Aurangabad",
    "circlename": "Maharashtra",
    "Taluk": "Pathri",
    "Districtname": "Parbhani",
    "statename": "MAHARASHTRA"
  },
  {
    "pincode": "431506",
    "officename": "Dongargaon B.O",
    "officeType": "B.O",
    "Deliverystatus": "Delivery",
    "divisionname": "Pharbhani",
    "regionname": "Aurangabad",
    "circlename": "Maharashtra",
    "Taluk": "Pathri",
    "Districtname": "Parbhani",
    "statename": "MAHARASHTRA"
  },
  {
    "pincode": "431506",
    "officename": "Gunj KH B.O",
    "officeType": "B.O",
    "Deliverystatus": "Delivery",
    "divisionname": "Pharbhani",
    "regionname": "Aurangabad",
    "circlename": "Maharashtra",
    "Taluk": "Pathri",
    "Districtname": "Parbhani",
    "statename": "MAHARASHTRA"
  },
  {
    "pincode": "431506",
    "officename": "Hadgaon B.O",
    "officeType": "B.O",
    "Deliverystatus": "Delivery",
    "divisionname": "Pharbhani",
    "regionname": "Aurangabad",
    "circlename": "Maharashtra",
    "Taluk": "Pathri",
    "Districtname": "Parbhani",
    "statename": "MAHARASHTRA"
  },
  {
    "pincode": "431506",
    "officename": "Kansur B.O",
    "officeType": "B.O",
    "Deliverystatus": "Delivery",
    "divisionname": "Pharbhani",
    "regionname": "Aurangabad",
    "circlename": "Maharashtra",
    "Taluk": "Pathri",
    "Districtname": "Parbhani",
    "statename": "MAHARASHTRA"
  },
  {
    "pincode": "431506",
    "officename": "Kasapuri B.O",
    "officeType": "B.O",
    "Deliverystatus": "Delivery",
    "divisionname": "Pharbhani",
    "regionname": "Aurangabad",
    "circlename": "Maharashtra",
    "Taluk": "Pathri",
    "Districtname": "Parbhani",
    "statename": "MAHARASHTRA"
  },
  {
    "pincode": "431506",
    "officename": "Khavane Pimpri B.O",
    "officeType": "B.O",
    "Deliverystatus": "Delivery",
    "divisionname": "Pharbhani",
    "regionname": "Aurangabad",
    "circlename": "Maharashtra",
    "Taluk": "Sailu",
    "Districtname": "Parbhani",
    "statename": "MAHARASHTRA"
  },
  {
    "pincode": "431506",
    "officename": "Nathra B.O",
    "officeType": "B.O",
    "Deliverystatus": "Delivery",
    "divisionname": "Pharbhani",
    "regionname": "Aurangabad",
    "circlename": "Maharashtra",
    "Taluk": "Pathri",
    "Districtname": "Parbhani",
    "statename": "MAHARASHTRA"
  },
  {
    "pincode": "431506",
    "officename": "Pathargavan B.O",
    "officeType": "B.O",
    "Deliverystatus": "Delivery",
    "divisionname": "Pharbhani",
    "regionname": "Aurangabad",
    "circlename": "Maharashtra",
    "Taluk": "Pathri",
    "Districtname": "Parbhani",
    "statename": "MAHARASHTRA"
  },
  {
    "pincode": "431506",
    "officename": "Pathri S.O",
    "officeType": "S.O",
    "Deliverystatus": "Delivery",
    "divisionname": "Pharbhani",
    "regionname": "Aurangabad",
    "circlename": "Maharashtra",
    "Taluk": "Pathri",
    "Districtname": "Parbhani",
    "statename": "MAHARASHTRA"
  },
  {
    "pincode": "431506",
    "officename": "Rampuri KH B.O",
    "officeType": "B.O",
    "Deliverystatus": "Delivery",
    "divisionname": "Pharbhani",
    "regionname": "Aurangabad",
    "circlename": "Maharashtra",
    "Taluk": "Pathri",
    "Districtname": "Parbhani",
    "statename": "MAHARASHTRA"
  },
  {
    "pincode": "431506",
    "officename": "Renakhali B.O",
    "officeType": "B.O",
    "Deliverystatus": "Delivery",
    "divisionname": "Pharbhani",
    "regionname": "Aurangabad",
    "circlename": "Maharashtra",
    "Taluk": "Pathri",
    "Districtname": "Parbhani",
    "statename": "MAHARASHTRA"
  },
  {
    "pincode": "431506",
    "officename": "Renapur B.O",
    "officeType": "B.O",
    "Deliverystatus": "Delivery",
    "divisionname": "Pharbhani",
    "regionname": "Aurangabad",
    "circlename": "Maharashtra",
    "Taluk": "Pathri",
    "Districtname": "Parbhani",
    "statename": "MAHARASHTRA"
  },
  {
    "pincode": "431506",
    "officename": "Wadi B.O",
    "officeType": "B.O",
    "Deliverystatus": "Delivery",
    "divisionname": "Pharbhani",
    "regionname": "Aurangabad",
    "circlename": "Maharashtra",
    "Taluk": "Pathri",
    "Districtname": "Parbhani",
    "statename": "MAHARASHTRA"
  }
]
