[
  {
    "pincode": "431510",
    "officename": "Ambarwadi B.O",
    "officeType": "B.O",
    "Deliverystatus": "Delivery",
    "divisionname": "Pharbhani",
    "regionname": "Aurangabad",
    "circlename": "Maharashtra",
    "Taluk": "Jintur",
    "Districtname": "Parbhani",
    "statename": "MAHARASHTRA"
  },
  {
    "pincode": "431510",
    "officename": "Bamni B.O",
    "officeType": "B.O",
    "Deliverystatus": "Delivery",
    "divisionname": "Pharbhani",
    "regionname": "Aurangabad",
    "circlename": "Maharashtra",
    "Taluk": "Jintur",
    "Districtname": "Parbhani",
    "statename": "MAHARASHTRA"
  },
  {
    "pincode": "431510",
    "officename": "Kehal B.O",
    "officeType": "B.O",
    "Deliverystatus": "Delivery",
    "divisionname": "Pharbhani",
    "regionname": "Aurangabad",
    "circlename": "Maharashtra",
    "Taluk": "Jintur",
    "Districtname": "Parbhani",
    "statename": "MAHARASHTRA"
  },
  {
    "pincode": "431510",
    "officename": "Pimpalgaon Kajale B.O",
    "officeType": "B.O",
    "Deliverystatus": "Delivery",
    "divisionname": "Pharbhani",
    "regionname": "Aurangabad",
    "circlename": "Maharashtra",
    "Taluk": "Jintur",
    "Districtname": "Parbhani",
    "statename": "MAHARASHTRA"
  },
  {
    "pincode": "431510",
    "officename": "Sawali BK B.O",
    "officeType": "B.O",
    "Deliverystatus": "Delivery",
    "divisionname": "Pharbhani",
    "regionname": "Aurangabad",
    "circlename": "Maharashtra",
    "Taluk": "Jintur",
    "Districtname": "Parbhani",
    "statename": "MAHARASHTRA"
  },
  {
    "pincode": "431510",
    "officename": "Sawangi Bhambale B.O",
    "officeType": "B.O",
    "Deliverystatus": "Delivery",
    "divisionname": "Pharbhani",
    "regionname": "Aurangabad",
    "circlename": "Maharashtra",
    "Taluk": "Jintur",
    "Districtname": "Parbhani",
    "statename": "MAHARASHTRA"
  },
  {
    "pincode": "431510",
    "officename": "Wazar B.O",
    "officeType": "B.O",
    "Deliverystatus": "Delivery",
    "divisionname": "Pharbhani",
    "regionname": "Aurangabad",
    "circlename": "Maharashtra",
    "Taluk": "Jintur",
    "Districtname": "Parbhani",
    "statename": "MAHARASHTRA"
  },
  {
    "pincode": "431510",
    "officename": "Yeldari S.O",
    "officeType": "S.O",
    "Deliverystatus": "Delivery",
    "divisionname": "Pharbhani",
    "regionname": "Aurangabad",
    "circlename": "Maharashtra",
    "Taluk": "Jintur",
    "Districtname": "Parbhani",
    "statename": "MAHARASHTRA"
  }
]
