[
  {
    "pincode": "431512",
    "officename": "Amba B.O",
    "officeType": "B.O",
    "Deliverystatus": "Delivery",
    "divisionname": "Pharbhani",
    "regionname": "Aurangabad",
    "circlename": "Maharashtra",
    "Taluk": "Partur",
    "Districtname": "Jalna",
    "statename": "MAHARASHTRA"
  },
  {
    "pincode": "431512",
    "officename": "Aral B.O",
    "officeType": "B.O",
    "Deliverystatus": "Delivery",
    "divisionname": "Pharbhani",
    "regionname": "Aurangabad",
    "circlename": "Maharashtra",
    "Taluk": "Basmath",
    "Districtname": "Hingoli",
    "statename": "MAHARASHTRA"
  },
  {
    "pincode": "431512",
    "officename": "Basmathnagar S.O",
    "officeType": "S.O",
    "Deliverystatus": "Delivery",
    "divisionname": "Pharbhani",
    "regionname": "Aurangabad",
    "circlename": "Maharashtra",
    "Taluk": "Basmathnagar",
    "Districtname": "Hingoli",
    "statename": "MAHARASHTRA"
  },
  {
    "pincode": "431512",
    "officename": "Basmathnagar Town S.O",
    "officeType": "S.O",
    "Deliverystatus": "Non-Delivery",
    "divisionname": "Pharbhani",
    "regionname": "Aurangabad",
    "circlename": "Maharashtra",
    "Taluk": "Basmathnagar",
    "Districtname": "Hingoli",
    "statename": "MAHARASHTRA"
  },
  {
    "pincode": "431512",
    "officename": "Chondi B.O",
    "officeType": "B.O",
    "Deliverystatus": "Delivery",
    "divisionname": "Pharbhani",
    "regionname": "Aurangabad",
    "circlename": "Maharashtra",
    "Taluk": "Basmath",
    "Districtname": "Hingoli",
    "statename": "MAHARASHTRA"
  },
  {
    "pincode": "431512",
    "officename": "Darefal B.O",
    "officeType": "B.O",
    "Deliverystatus": "Delivery",
    "divisionname": "Pharbhani",
    "regionname": "Aurangabad",
    "circlename": "Maharashtra",
    "Taluk": "Basmath",
    "Districtname": "Hingoli",
    "statename": "MAHARASHTRA"
  },
  {
    "pincode": "431512",
    "officename": "Girgaon B.O",
    "officeType": "B.O",
    "Deliverystatus": "Delivery",
    "divisionname": "Pharbhani",
    "regionname": "Aurangabad",
    "circlename": "Maharashtra",
    "Taluk": "Basmath",
    "Districtname": "Hingoli",
    "statename": "MAHARASHTRA"
  },
  {
    "pincode": "431512",
    "officename": "Hayatnagar B.O",
    "officeType": "B.O",
    "Deliverystatus": "Delivery",
    "divisionname": "Pharbhani",
    "regionname": "Aurangabad",
    "circlename": "Maharashtra",
    "Taluk": "Basmath",
    "Districtname": "Hingoli",
    "statename": "MAHARASHTRA"
  },
  {
    "pincode": "431512",
    "officename": "Kautha B.O",
    "officeType": "B.O",
    "Deliverystatus": "Delivery",
    "divisionname": "Pharbhani",
    "regionname": "Aurangabad",
    "circlename": "Maharashtra",
    "Taluk": "Basmath",
    "Districtname": "Hingoli",
    "statename": "MAHARASHTRA"
  },
  {
    "pincode": "431512",
    "officename": "Khandegaon B.O",
    "officeType": "B.O",
    "Deliverystatus": "Delivery",
    "divisionname": "Pharbhani",
    "regionname": "Aurangabad",
    "circlename": "Maharashtra",
    "Taluk": "Basmath",
    "Districtname": "Hingoli",
    "statename": "MAHARASHTRA"
  },
  {
    "pincode": "431512",
    "officename": "Kurunda B.O",
    "officeType": "B.O",
    "Deliverystatus": "Delivery",
    "divisionname": "Pharbhani",
    "regionname": "Aurangabad",
    "circlename": "Maharashtra",
    "Taluk": "Basmath",
    "Districtname": "Hingoli",
    "statename": "MAHARASHTRA"
  },
  {
    "pincode": "431512",
    "officename": "Pardi BK B.O",
    "officeType": "B.O",
    "Deliverystatus": "Delivery",
    "divisionname": "Pharbhani",
    "regionname": "Aurangabad",
    "circlename": "Maharashtra",
    "Taluk": "Basmath",
    "Districtname": "Hingoli",
    "statename": "MAHARASHTRA"
  }
]
