[
  {
    "pincode": "431503",
    "officename": "Aherborgaon B.O",
    "officeType": "B.O",
    "Deliverystatus": "Delivery",
    "divisionname": "Pharbhani",
    "regionname": "Aurangabad",
    "circlename": "Maharashtra",
    "Taluk": "Sailu",
    "Districtname": "Parbhani",
    "statename": "MAHARASHTRA"
  },
  {
    "pincode": "431503",
    "officename": "Ballur B.O",
    "officeType": "B.O",
    "Deliverystatus": "Delivery",
    "divisionname": "Pharbhani",
    "regionname": "Aurangabad",
    "circlename": "Maharashtra",
    "Taluk": "Sailu",
    "Districtname": "Parbhani",
    "statename": "MAHARASHTRA"
  },
  {
    "pincode": "431503",
    "officename": "Chikalthana B.O",
    "officeType": "B.O",
    "Deliverystatus": "Delivery",
    "divisionname": "Pharbhani",
    "regionname": "Aurangabad",
    "circlename": "Maharashtra",
    "Taluk": "Sailu",
    "Districtname": "Parbhani",
    "statename": "MAHARASHTRA"
  },
  {
    "pincode": "431503",
    "officename": "Dasala B.O",
    "officeType": "B.O",
    "Deliverystatus": "Delivery",
    "divisionname": "Pharbhani",
    "regionname": "Aurangabad",
    "circlename": "Maharashtra",
    "Taluk": "Sailu",
    "Districtname": "Parbhani",
    "statename": "MAHARASHTRA"
  },
  {
    "pincode": "431503",
    "officename": "Devalgaon Gat B.O",
    "officeType": "B.O",
    "Deliverystatus": "Delivery",
    "divisionname": "Pharbhani",
    "regionname": "Aurangabad",
    "circlename": "Maharashtra",
    "Taluk": "Sailu",
    "Districtname": "Parbhani",
    "statename": "MAHARASHTRA"
  },
  {
    "pincode": "431503",
    "officename": "Gomewakdi B.O",
    "officeType": "B.O",
    "Deliverystatus": "Delivery",
    "divisionname": "Pharbhani",
    "regionname": "Aurangabad",
    "circlename": "Maharashtra",
    "Taluk": "Sailu",
    "Districtname": "Parbhani",
    "statename": "MAHARASHTRA"
  },
  {
    "pincode": "431503",
    "officename": "Gugali Dhamangaon B.O",
    "officeType": "B.O",
    "Deliverystatus": "Delivery",
    "divisionname": "Pharbhani",
    "regionname": "Aurangabad",
    "circlename": "Maharashtra",
    "Taluk": "Sailu",
    "Districtname": "Parbhani",
    "statename": "MAHARASHTRA"
  },
  {
    "pincode": "431503",
    "officename": "Hatnoor B.O",
    "officeType": "B.O",
    "Deliverystatus": "Delivery",
    "divisionname": "Pharbhani",
    "regionname": "Aurangabad",
    "circlename": "Maharashtra",
    "Taluk": "Sailu",
    "Districtname": "Parbhani",
    "statename": "MAHARASHTRA"
  },
  {
    "pincode": "431503",
    "officename": "Kundi B.O",
    "officeType": "B.O",
    "Deliverystatus": "Delivery",
    "divisionname": "Pharbhani",
    "regionname": "Aurangabad",
    "circlename": "Maharashtra",
    "Taluk": "Sailu",
    "Districtname": "Parbhani",
    "statename": "MAHARASHTRA"
  },
  {
    "pincode": "431503",
    "officename": "Kupta B.O",
    "officeType": "B.O",
    "Deliverystatus": "Delivery",
    "divisionname": "Pharbhani",
    "regionname": "Aurangabad",
    "circlename": "Maharashtra",
    "Taluk": "Sailu",
    "Districtname": "Parbhani",
    "statename": "MAHARASHTRA"
  },
  {
    "pincode": "431503",
    "officename": "Moregaon B.O",
    "officeType": "B.O",
    "Deliverystatus": "Delivery",
    "divisionname": "Pharbhani",
    "regionname": "Aurangabad",
    "circlename": "Maharashtra",
    "Taluk": "Sailu",
    "Districtname": "Parbhani",
    "statename": "MAHARASHTRA"
  },
  {
    "pincode": "431503",
    "officename": "Patoda B.O",
    "officeType": "B.O",
    "Deliverystatus": "Delivery",
    "divisionname": "Pharbhani",
    "regionname": "Aurangabad",
    "circlename": "Maharashtra",
    "Taluk": "Mantha",
    "Districtname": "Jalna",
    "statename": "MAHARASHTRA"
  },
  {
    "pincode": "431503",
    "officename": "Rawalgaon B.O",
    "officeType": "B.O",
    "Deliverystatus": "Delivery",
    "divisionname": "Pharbhani",
    "regionname": "Aurangabad",
    "circlename": "Maharashtra",
    "Taluk": "Sailu",
    "Districtname": "Parbhani",
    "statename": "MAHARASHTRA"
  },
  {
    "pincode": "431503",
    "officename": "Sailu S.O",
    "officeType": "S.O",
    "Deliverystatus": "Delivery",
    "divisionname": "Pharbhani",
    "regionname": "Aurangabad",
    "circlename": "Maharashtra",
    "Taluk": "Sailu",
    "Districtname": "Parbhani",
    "statename": "MAHARASHTRA"
  },
  {
    "pincode": "431503",
    "officename": "Sailu Town S.O",
    "officeType": "S.O",
    "Deliverystatus": "Non-Delivery",
    "divisionname": "Pharbhani",
    "regionname": "Aurangabad",
    "circlename": "Maharashtra",
    "Taluk": "Sailu",
    "Districtname": "Parbhani",
    "statename": "MAHARASHTRA"
  },
  {
    "pincode": "431503",
    "officename": "Sonna B.O",
    "officeType": "B.O",
    "Deliverystatus": "Delivery",
    "divisionname": "Pharbhani",
    "regionname": "Aurangabad",
    "circlename": "Maharashtra",
    "Taluk": "Sailu",
    "Districtname": "Parbhani",
    "statename": "MAHARASHTRA"
  }
]
