[
  {
    "pincode": "431508",
    "officename": "Bori S.O (Parbhani)",
    "officeType": "S.O",
    "Deliverystatus": "Delivery",
    "divisionname": "Pharbhani",
    "regionname": "Aurangabad",
    "circlename": "Maharashtra",
    "Taluk": "Jintur",
    "Districtname": "Parbhani",
    "statename": "MAHARASHTRA"
  },
  {
    "pincode": "431508",
    "officename": "Chandaj B.O",
    "officeType": "B.O",
    "Deliverystatus": "Delivery",
    "divisionname": "Pharbhani",
    "regionname": "Aurangabad",
    "circlename": "Maharashtra",
    "Taluk": "Jintur",
    "Districtname": "Parbhani",
    "statename": "MAHARASHTRA"
  },
  {
    "pincode": "431508",
    "officename": "Kausadi B.O",
    "officeType": "B.O",
    "Deliverystatus": "Delivery",
    "divisionname": "Pharbhani",
    "regionname": "Aurangabad",
    "circlename": "Maharashtra",
    "Taluk": "Jintur",
    "Districtname": "Parbhani",
    "statename": "MAHARASHTRA"
  },
  {
    "pincode": "431508",
    "officename": "Kok B.O",
    "officeType": "B.O",
    "Deliverystatus": "Delivery",
    "divisionname": "Pharbhani",
    "regionname": "Aurangabad",
    "circlename": "Maharashtra",
    "Taluk": "Jintur",
    "Districtname": "Parbhani",
    "statename": "MAHARASHTRA"
  },
  {
    "pincode": "431508",
    "officename": "Nivali B.O",
    "officeType": "B.O",
    "Deliverystatus": "Delivery",
    "divisionname": "Pharbhani",
    "regionname": "Aurangabad",
    "circlename": "Maharashtra",
    "Taluk": "Jintur",
    "Districtname": "Parbhani",
    "statename": "MAHARASHTRA"
  },
  {
    "pincode": "431508",
    "officename": "Pimpalgaon Gayke B.O",
    "officeType": "B.O",
    "Deliverystatus": "Delivery",
    "divisionname": "Pharbhani",
    "regionname": "Aurangabad",
    "circlename": "Maharashtra",
    "Taluk": "Jintur",
    "Districtname": "Parbhani",
    "statename": "MAHARASHTRA"
  },
  {
    "pincode": "431508",
    "officename": "Simangaon B.O",
    "officeType": "B.O",
    "Deliverystatus": "Delivery",
    "divisionname": "Pharbhani",
    "regionname": "Aurangabad",
    "circlename": "Maharashtra",
    "Taluk": "Sailu",
    "Districtname": "Parbhani",
    "statename": "MAHARASHTRA"
  },
  {
    "pincode": "431508",
    "officename": "Waghi Bobde B.O",
    "officeType": "B.O",
    "Deliverystatus": "Delivery",
    "divisionname": "Pharbhani",
    "regionname": "Aurangabad",
    "circlename": "Maharashtra",
    "Taluk": "Jintur",
    "Districtname": "Parbhani",
    "statename": "MAHARASHTRA"
  }
]
