[
  {
    "pincode": "431514",
    "officename": "Badwani B.O",
    "officeType": "B.O",
    "Deliverystatus": "Delivery",
    "divisionname": "Pharbhani",
    "regionname": "Aurangabad",
    "circlename": "Maharashtra",
    "Taluk": "Gangakhed",
    "Districtname": "Parbhani",
    "statename": "MAHARASHTRA"
  },
  {
    "pincode": "431514",
    "officename": "Borda B.O",
    "officeType": "B.O",
    "Deliverystatus": "Delivery",
    "divisionname": "Pharbhani",
    "regionname": "Aurangabad",
    "circlename": "Maharashtra",
    "Taluk": "Gangakhed",
    "Districtname": "Parbhani",
    "statename": "MAHARASHTRA"
  },
  {
    "pincode": "431514",
    "officename": "Devalgaon Dudhate B.O",
    "officeType": "B.O",
    "Deliverystatus": "Delivery",
    "divisionname": "Pharbhani",
    "regionname": "Aurangabad",
    "circlename": "Maharashtra",
    "Taluk": "Gangakhed",
    "Districtname": "Parbhani",
    "statename": "MAHARASHTRA"
  },
  {
    "pincode": "431514",
    "officename": "Dongarpimpla B.O",
    "officeType": "B.O",
    "Deliverystatus": "Delivery",
    "divisionname": "Pharbhani",
    "regionname": "Aurangabad",
    "circlename": "Maharashtra",
    "Taluk": "Gangakhed",
    "Districtname": "Parbhani",
    "statename": "MAHARASHTRA"
  },
  {
    "pincode": "431514",
    "officename": "Gangakhed S.O",
    "officeType": "S.O",
    "Deliverystatus": "Delivery",
    "divisionname": "Pharbhani",
    "regionname": "Aurangabad",
    "circlename": "Maharashtra",
    "Taluk": "Gangakhed",
    "Districtname": "Parbhani",
    "statename": "MAHARASHTRA"
  },
  {
    "pincode": "431514",
    "officename": "Gaundgaon B.O",
    "officeType": "B.O",
    "Deliverystatus": "Delivery",
    "divisionname": "Pharbhani",
    "regionname": "Aurangabad",
    "circlename": "Maharashtra",
    "Taluk": "Gangakhed",
    "Districtname": "Parbhani",
    "statename": "MAHARASHTRA"
  },
  {
    "pincode": "431514",
    "officename": "Harangul B.O",
    "officeType": "B.O",
    "Deliverystatus": "Delivery",
    "divisionname": "Pharbhani",
    "regionname": "Aurangabad",
    "circlename": "Maharashtra",
    "Taluk": "Gangakhed",
    "Districtname": "Parbhani",
    "statename": "MAHARASHTRA"
  },
  {
    "pincode": "431514",
    "officename": "Isad B.O",
    "officeType": "B.O",
    "Deliverystatus": "Delivery",
    "divisionname": "Pharbhani",
    "regionname": "Aurangabad",
    "circlename": "Maharashtra",
    "Taluk": "Gangakhed",
    "Districtname": "Parbhani",
    "statename": "MAHARASHTRA"
  },
  {
    "pincode": "431514",
    "officename": "Khali B.O",
    "officeType": "B.O",
    "Deliverystatus": "Delivery",
    "divisionname": "Pharbhani",
    "regionname": "Aurangabad",
    "circlename": "Maharashtra",
    "Taluk": "Gangakhed",
    "Districtname": "Parbhani",
    "statename": "MAHARASHTRA"
  },
  {
    "pincode": "431514",
    "officename": "Kodri B.O",
    "officeType": "B.O",
    "Deliverystatus": "Delivery",
    "divisionname": "Pharbhani",
    "regionname": "Aurangabad",
    "circlename": "Maharashtra",
    "Taluk": "Gangakhed",
    "Districtname": "Parbhani",
    "statename": "MAHARASHTRA"
  },
  {
    "pincode": "431514",
    "officename": "Mahatpuri B.O",
    "officeType": "B.O",
    "Deliverystatus": "Delivery",
    "divisionname": "Pharbhani",
    "regionname": "Aurangabad",
    "circlename": "Maharashtra",
    "Taluk": "Gangakhed",
    "Districtname": "Parbhani",
    "statename": "MAHARASHTRA"
  },
  {
    "pincode": "431514",
    "officename": "Makhani B.O",
    "officeType": "B.O",
    "Deliverystatus": "Delivery",
    "divisionname": "Pharbhani",
    "regionname": "Aurangabad",
    "circlename": "Maharashtra",
    "Taluk": "Gangakhed",
    "Districtname": "Parbhani",
    "statename": "MAHARASHTRA"
  },
  {
    "pincode": "431514",
    "officename": "Malewadi B.O",
    "officeType": "B.O",
    "Deliverystatus": "Delivery",
    "divisionname": "Pharbhani",
    "regionname": "Aurangabad",
    "circlename": "Maharashtra",
    "Taluk": "Gangakhed",
    "Districtname": "Parbhani",
    "statename": "MAHARASHTRA"
  },
  {
    "pincode": "431514",
    "officename": "Mardasgaon B.O",
    "officeType": "B.O",
    "Deliverystatus": "Delivery",
    "divisionname": "Pharbhani",
    "regionname": "Aurangabad",
    "circlename": "Maharashtra",
    "Taluk": "Gangakhed",
    "Districtname": "Parbhani",
    "statename": "MAHARASHTRA"
  },
  {
    "pincode": "431514",
    "officename": "Muli B.O",
    "officeType": "B.O",
    "Deliverystatus": "Delivery",
    "divisionname": "Pharbhani",
    "regionname": "Aurangabad",
    "circlename": "Maharashtra",
    "Taluk": "Gangakhed",
    "Districtname": "Parbhani",
    "statename": "MAHARASHTRA"
  },
  {
    "pincode": "431514",
    "officename": "Naikota B.O",
    "officeType": "B.O",
    "Deliverystatus": "Delivery",
    "divisionname": "Pharbhani",
    "regionname": "Aurangabad",
    "circlename": "Maharashtra",
    "Taluk": "Gangakhed",
    "Districtname": "Parbhani",
    "statename": "MAHARASHTRA"
  },
  {
    "pincode": "431514",
    "officename": "Pimpaldari B.O",
    "officeType": "B.O",
    "Deliverystatus": "Delivery",
    "divisionname": "Pharbhani",
    "regionname": "Aurangabad",
    "circlename": "Maharashtra",
    "Taluk": "Gangakhed",
    "Districtname": "Parbhani",
    "statename": "MAHARASHTRA"
  },
  {
    "pincode": "431514",
    "officename": "Pimprizola B.O",
    "officeType": "B.O",
    "Deliverystatus": "Delivery",
    "divisionname": "Pharbhani",
    "regionname": "Aurangabad",
    "circlename": "Maharashtra",
    "Taluk": "Gangakhed",
    "Districtname": "Parbhani",
    "statename": "MAHARASHTRA"
  },
  {
    "pincode": "431514",
    "officename": "Raorajura B.O",
    "officeType": "B.O",
    "Deliverystatus": "Delivery",
    "divisionname": "Pharbhani",
    "regionname": "Aurangabad",
    "circlename": "Maharashtra",
    "Taluk": "Gangakhed",
    "Districtname": "Parbhani",
    "statename": "MAHARASHTRA"
  },
  {
    "pincode": "431514",
    "officename": "Suppa B.O",
    "officeType": "B.O",
    "Deliverystatus": "Delivery",
    "divisionname": "Pharbhani",
    "regionname": "Aurangabad",
    "circlename": "Maharashtra",
    "Taluk": "Gangakhed",
    "Districtname": "Parbhani",
    "statename": "MAHARASHTRA"
  },
  {
    "pincode": "431514",
    "officename": "Ukhali B.O",
    "officeType": "B.O",
    "Deliverystatus": "Delivery",
    "divisionname": "Pharbhani",
    "regionname": "Aurangabad",
    "circlename": "Maharashtra",
    "Taluk": "Gangakhed",
    "Districtname": "Parbhani",
    "statename": "MAHARASHTRA"
  },
  {
    "pincode": "431514",
    "officename": "Wadgaon B.O",
    "officeType": "B.O",
    "Deliverystatus": "Delivery",
    "divisionname": "Pharbhani",
    "regionname": "Aurangabad",
    "circlename": "Maharashtra",
    "Taluk": "Gangakhed",
    "Districtname": "Parbhani",
    "statename": "MAHARASHTRA"
  },
  {
    "pincode": "431514",
    "officename": "Wazur B.O",
    "officeType": "B.O",
    "Deliverystatus": "Delivery",
    "divisionname": "Pharbhani",
    "regionname": "Aurangabad",
    "circlename": "Maharashtra",
    "Taluk": "Gangakhed",
    "Districtname": "Parbhani",
    "statename": "MAHARASHTRA"
  }
]
