[
  {
    "pincode": "431542",
    "officename": "Bhankheda B.O",
    "officeType": "B.O",
    "Deliverystatus": "Delivery",
    "divisionname": "Pharbhani",
    "regionname": "Aurangabad",
    "circlename": "Maharashtra",
    "Taluk": "Sengaon",
    "Districtname": "Hingoli",
    "statename": "MAHARASHTRA"
  },
  {
    "pincode": "431542",
    "officename": "Datala B.O",
    "officeType": "B.O",
    "Deliverystatus": "Delivery",
    "divisionname": "Pharbhani",
    "regionname": "Aurangabad",
    "circlename": "Maharashtra",
    "Taluk": "Sengaon",
    "Districtname": "Hingoli",
    "statename": "MAHARASHTRA"
  },
  {
    "pincode": "431542",
    "officename": "Hatta B.O",
    "officeType": "B.O",
    "Deliverystatus": "Delivery",
    "divisionname": "Pharbhani",
    "regionname": "Aurangabad",
    "circlename": "Maharashtra",
    "Taluk": "Sengaon",
    "Districtname": "Hingoli",
    "statename": "MAHARASHTRA"
  },
  {
    "pincode": "431542",
    "officename": "Jaipur B.O",
    "officeType": "B.O",
    "Deliverystatus": "Delivery",
    "divisionname": "Pharbhani",
    "regionname": "Aurangabad",
    "circlename": "Maharashtra",
    "Taluk": "Sengaon",
    "Districtname": "Hingoli",
    "statename": "MAHARASHTRA"
  },
  {
    "pincode": "431542",
    "officename": "Kautha B.O",
    "officeType": "B.O",
    "Deliverystatus": "Delivery",
    "divisionname": "Pharbhani",
    "regionname": "Aurangabad",
    "circlename": "Maharashtra",
    "Taluk": "Sengaon",
    "Districtname": "Hingoli",
    "statename": "MAHARASHTRA"
  },
  {
    "pincode": "431542",
    "officename": "Pankanhergaon B.O",
    "officeType": "B.O",
    "Deliverystatus": "Delivery",
    "divisionname": "Pharbhani",
    "regionname": "Aurangabad",
    "circlename": "Maharashtra",
    "Taluk": "Sengaon",
    "Districtname": "Hingoli",
    "statename": "MAHARASHTRA"
  },
  {
    "pincode": "431542",
    "officename": "Sakhra B.O",
    "officeType": "B.O",
    "Deliverystatus": "Delivery",
    "divisionname": "Pharbhani",
    "regionname": "Aurangabad",
    "circlename": "Maharashtra",
    "Taluk": "Sengaon",
    "Districtname": "Hingoli",
    "statename": "MAHARASHTRA"
  },
  {
    "pincode": "431542",
    "officename": "Sapatgaon B.O",
    "officeType": "B.O",
    "Deliverystatus": "Delivery",
    "divisionname": "Pharbhani",
    "regionname": "Aurangabad",
    "circlename": "Maharashtra",
    "Taluk": "Sengaon",
    "Districtname": "Hingoli",
    "statename": "MAHARASHTRA"
  },
  {
    "pincode": "431542",
    "officename": "Sengaon S.O",
    "officeType": "S.O",
    "Deliverystatus": "Delivery",
    "divisionname": "Pharbhani",
    "regionname": "Aurangabad",
    "circlename": "Maharashtra",
    "Taluk": "Sengaon",
    "Districtname": "Hingoli",
    "statename": "MAHARASHTRA"
  },
  {
    "pincode": "431542",
    "officename": "Shegaon B.O",
    "officeType": "B.O",
    "Deliverystatus": "Delivery",
    "divisionname": "Pharbhani",
    "regionname": "Aurangabad",
    "circlename": "Maharashtra",
    "Taluk": "Sengaon",
    "Districtname": "Hingoli",
    "statename": "MAHARASHTRA"
  },
  {
    "pincode": "431542",
    "officename": "Sindagikhamba B.O",
    "officeType": "B.O",
    "Deliverystatus": "Delivery",
    "divisionname": "Pharbhani",
    "regionname": "Aurangabad",
    "circlename": "Maharashtra",
    "Taluk": "Sengaon",
    "Districtname": "Hingoli",
    "statename": "MAHARASHTRA"
  },
  {
    "pincode": "431542",
    "officename": "Warud Chakrapani B.O",
    "officeType": "B.O",
    "Deliverystatus": "Delivery",
    "divisionname": "Pharbhani",
    "regionname": "Aurangabad",
    "circlename": "Maharashtra",
    "Taluk": "Sengaon",
    "Districtname": "Hingoli",
    "statename": "MAHARASHTRA"
  }
]
