[
  {
    "pincode": "431702",
    "officename": "Babhali B.O",
    "officeType": "B.O",
    "Deliverystatus": "Delivery",
    "divisionname": "Pharbhani",
    "regionname": "Aurangabad",
    "circlename": "Maharashtra",
    "Taluk": "Kalamnuri",
    "Districtname": "Hingoli",
    "statename": "MAHARASHTRA"
  },
  {
    "pincode": "431702",
    "officename": "Gaul B.O",
    "officeType": "B.O",
    "Deliverystatus": "Delivery",
    "divisionname": "Pharbhani",
    "regionname": "Aurangabad",
    "circlename": "Maharashtra",
    "Taluk": "Kalamnuri",
    "Districtname": "Hingoli",
    "statename": "MAHARASHTRA"
  },
  {
    "pincode": "431702",
    "officename": "Ghoda B.O",
    "officeType": "B.O",
    "Deliverystatus": "Delivery",
    "divisionname": "Pharbhani",
    "regionname": "Aurangabad",
    "circlename": "Maharashtra",
    "Taluk": "Kalamnuri",
    "Districtname": "Hingoli",
    "statename": "MAHARASHTRA"
  },
  {
    "pincode": "431702",
    "officename": "Hingani B.O",
    "officeType": "B.O",
    "Deliverystatus": "Delivery",
    "divisionname": "Pharbhani",
    "regionname": "Aurangabad",
    "circlename": "Maharashtra",
    "Taluk": "Hingoli",
    "Districtname": "Hingoli",
    "statename": "MAHARASHTRA"
  },
  {
    "pincode": "431702",
    "officename": "Kalamnuri S.O",
    "officeType": "S.O",
    "Deliverystatus": "Delivery",
    "divisionname": "Pharbhani",
    "regionname": "Aurangabad",
    "circlename": "Maharashtra",
    "Taluk": "Kalamnuri",
    "Districtname": "Hingoli",
    "statename": "MAHARASHTRA"
  },
  {
    "pincode": "431702",
    "officename": "Khanapur Chitta B.O",
    "officeType": "B.O",
    "Deliverystatus": "Delivery",
    "divisionname": "Pharbhani",
    "regionname": "Aurangabad",
    "circlename": "Maharashtra",
    "Taluk": "Kalamnuri",
    "Districtname": "Hingoli",
    "statename": "MAHARASHTRA"
  },
  {
    "pincode": "431702",
    "officename": "Kharwad B.O",
    "officeType": "B.O",
    "Deliverystatus": "Delivery",
    "divisionname": "Pharbhani",
    "regionname": "Aurangabad",
    "circlename": "Maharashtra",
    "Taluk": "Kalamnuri",
    "Districtname": "Hingoli",
    "statename": "MAHARASHTRA"
  },
  {
    "pincode": "431702",
    "officename": "Lakh B.O",
    "officeType": "B.O",
    "Deliverystatus": "Delivery",
    "divisionname": "Pharbhani",
    "regionname": "Aurangabad",
    "circlename": "Maharashtra",
    "Taluk": "Aundha Nagnath",
    "Districtname": "Hingoli",
    "statename": "MAHARASHTRA"
  },
  {
    "pincode": "431702",
    "officename": "Masod B.O",
    "officeType": "B.O",
    "Deliverystatus": "Delivery",
    "divisionname": "Pharbhani",
    "regionname": "Aurangabad",
    "circlename": "Maharashtra",
    "Taluk": "Kalamnuri",
    "Districtname": "Hingoli",
    "statename": "MAHARASHTRA"
  },
  {
    "pincode": "431702",
    "officename": "Nandapur B.O",
    "officeType": "B.O",
    "Deliverystatus": "Delivery",
    "divisionname": "Pharbhani",
    "regionname": "Aurangabad",
    "circlename": "Maharashtra",
    "Taluk": "Kalamnuri",
    "Districtname": "Hingoli",
    "statename": "MAHARASHTRA"
  },
  {
    "pincode": "431702",
    "officename": "Pimpaldari B.O",
    "officeType": "B.O",
    "Deliverystatus": "Delivery",
    "divisionname": "Pharbhani",
    "regionname": "Aurangabad",
    "circlename": "Maharashtra",
    "Taluk": "Aundha Nagnath",
    "Districtname": "Hingoli",
    "statename": "MAHARASHTRA"
  },
  {
    "pincode": "431702",
    "officename": "Sandas B.O",
    "officeType": "B.O",
    "Deliverystatus": "Delivery",
    "divisionname": "Pharbhani",
    "regionname": "Aurangabad",
    "circlename": "Maharashtra",
    "Taluk": "Kalamnuri",
    "Districtname": "Hingoli",
    "statename": "MAHARASHTRA"
  },
  {
    "pincode": "431702",
    "officename": "Wakodi B.O",
    "officeType": "B.O",
    "Deliverystatus": "Delivery",
    "divisionname": "Pharbhani",
    "regionname": "Aurangabad",
    "circlename": "Maharashtra",
    "Taluk": "Kalamnuri",
    "Districtname": "Hingoli",
    "statename": "MAHARASHTRA"
  },
  {
    "pincode": "431702",
    "officename": "Yelegaon (T) B.O",
    "officeType": "B.O",
    "Deliverystatus": "Delivery",
    "divisionname": "Pharbhani",
    "regionname": "Aurangabad",
    "circlename": "Maharashtra",
    "Taluk": "Kalamnuri",
    "Districtname": "Hingoli",
    "statename": "MAHARASHTRA"
  }
]
