[
  {
    "pincode": "431712",
    "officename": "Ashti B.O",
    "officeType": "B.O",
    "Deliverystatus": "Delivery",
    "divisionname": "Nanded",
    "regionname": "Aurangabad",
    "circlename": "Maharashtra",
    "Taluk": "Hadgaon",
    "Districtname": "Nanded",
    "statename": "MAHARASHTRA"
  },
  {
    "pincode": "431712",
    "officename": "Banchincholi B.O",
    "officeType": "B.O",
    "Deliverystatus": "Delivery",
    "divisionname": "Nanded",
    "regionname": "Aurangabad",
    "circlename": "Maharashtra",
    "Taluk": "Hadgaon",
    "Districtname": "Nanded",
    "statename": "MAHARASHTRA"
  },
  {
    "pincode": "431712",
    "officename": "Baradshewala B.O",
    "officeType": "B.O",
    "Deliverystatus": "Delivery",
    "divisionname": "Nanded",
    "regionname": "Aurangabad",
    "circlename": "Maharashtra",
    "Taluk": "Hadgaon",
    "Districtname": "Nanded",
    "statename": "MAHARASHTRA"
  },
  {
    "pincode": "431712",
    "officename": "Chinchgavan B.O",
    "officeType": "B.O",
    "Deliverystatus": "Delivery",
    "divisionname": "Nanded",
    "regionname": "Aurangabad",
    "circlename": "Maharashtra",
    "Taluk": "Hadgaon",
    "Districtname": "Nanded",
    "statename": "MAHARASHTRA"
  },
  {
    "pincode": "431712",
    "officename": "Choramba B.O",
    "officeType": "B.O",
    "Deliverystatus": "Delivery",
    "divisionname": "Nanded",
    "regionname": "Aurangabad",
    "circlename": "Maharashtra",
    "Taluk": "Hadgaon",
    "Districtname": "Nanded",
    "statename": "MAHARASHTRA"
  },
  {
    "pincode": "431712",
    "officename": "Chuncha B.O",
    "officeType": "B.O",
    "Deliverystatus": "Delivery",
    "divisionname": "Nanded",
    "regionname": "Aurangabad",
    "circlename": "Maharashtra",
    "Taluk": "Bhokar",
    "Districtname": "Nanded",
    "statename": "MAHARASHTRA"
  },
  {
    "pincode": "431712",
    "officename": "Gorlegaon B.O",
    "officeType": "B.O",
    "Deliverystatus": "Delivery",
    "divisionname": "Nanded",
    "regionname": "Aurangabad",
    "circlename": "Maharashtra",
    "Taluk": "Hadgaon",
    "Districtname": "Nanded",
    "statename": "MAHARASHTRA"
  },
  {
    "pincode": "431712",
    "officename": "Hadgaon S.O",
    "officeType": "S.O",
    "Deliverystatus": "Delivery",
    "divisionname": "Nanded",
    "regionname": "Aurangabad",
    "circlename": "Maharashtra",
    "Taluk": "Hadgaon",
    "Districtname": "Nanded",
    "statename": "MAHARASHTRA"
  },
  {
    "pincode": "431712",
    "officename": "Hardaf B.O",
    "officeType": "B.O",
    "Deliverystatus": "Delivery",
    "divisionname": "Nanded",
    "regionname": "Aurangabad",
    "circlename": "Maharashtra",
    "Taluk": "Hadgaon",
    "Districtname": "Nanded",
    "statename": "MAHARASHTRA"
  },
  {
    "pincode": "431712",
    "officename": "Kawana B.O",
    "officeType": "B.O",
    "Deliverystatus": "Delivery",
    "divisionname": "Nanded",
    "regionname": "Aurangabad",
    "circlename": "Maharashtra",
    "Taluk": "Hadgaon",
    "Districtname": "Nanded",
    "statename": "MAHARASHTRA"
  },
  {
    "pincode": "431712",
    "officename": "Manatha B.O",
    "officeType": "B.O",
    "Deliverystatus": "Delivery",
    "divisionname": "Nanded",
    "regionname": "Aurangabad",
    "circlename": "Maharashtra",
    "Taluk": "Hadgaon",
    "Districtname": "Nanded",
    "statename": "MAHARASHTRA"
  },
  {
    "pincode": "431712",
    "officename": "Palsa B.O",
    "officeType": "B.O",
    "Deliverystatus": "Delivery",
    "divisionname": "Nanded",
    "regionname": "Aurangabad",
    "circlename": "Maharashtra",
    "Taluk": "Hadgaon",
    "Districtname": "Nanded",
    "statename": "MAHARASHTRA"
  },
  {
    "pincode": "431712",
    "officename": "Pimparkhed B.O",
    "officeType": "B.O",
    "Deliverystatus": "Delivery",
    "divisionname": "Nanded",
    "regionname": "Aurangabad",
    "circlename": "Maharashtra",
    "Taluk": "Hadgaon",
    "Districtname": "Nanded",
    "statename": "MAHARASHTRA"
  },
  {
    "pincode": "431712",
    "officename": "Sawargaon B.O",
    "officeType": "B.O",
    "Deliverystatus": "Delivery",
    "divisionname": "Nanded",
    "regionname": "Aurangabad",
    "circlename": "Maharashtra",
    "Taluk": "Hadgaon",
    "Districtname": "Nanded",
    "statename": "MAHARASHTRA"
  },
  {
    "pincode": "431712",
    "officename": "Talang B.O",
    "officeType": "B.O",
    "Deliverystatus": "Delivery",
    "divisionname": "Nanded",
    "regionname": "Aurangabad",
    "circlename": "Maharashtra",
    "Taluk": "Hadgaon",
    "Districtname": "Nanded",
    "statename": "MAHARASHTRA"
  },
  {
    "pincode": "431712",
    "officename": "Unchegaon B.O",
    "officeType": "B.O",
    "Deliverystatus": "Delivery",
    "divisionname": "Nanded",
    "regionname": "Aurangabad",
    "circlename": "Maharashtra",
    "Taluk": "Hadgaon",
    "Districtname": "Nanded",
    "statename": "MAHARASHTRA"
  },
  {
    "pincode": "431712",
    "officename": "Walki B.O",
    "officeType": "B.O",
    "Deliverystatus": "Delivery",
    "divisionname": "Nanded",
    "regionname": "Aurangabad",
    "circlename": "Maharashtra",
    "Taluk": "Hadgaon",
    "Districtname": "Nanded",
    "statename": "MAHARASHTRA"
  }
]
