[
  {
    "pincode": "431701",
    "officename": "Akhada Balapur S.O",
    "officeType": "S.O",
    "Deliverystatus": "Delivery",
    "divisionname": "Pharbhani",
    "regionname": "Aurangabad",
    "circlename": "Maharashtra",
    "Taluk": "Kalamnuri",
    "Districtname": "Hingoli",
    "statename": "MAHARASHTRA"
  },
  {
    "pincode": "431701",
    "officename": "Bolda B.O",
    "officeType": "B.O",
    "Deliverystatus": "Delivery",
    "divisionname": "Pharbhani",
    "regionname": "Aurangabad",
    "circlename": "Maharashtra",
    "Taluk": "Kalamnuri",
    "Districtname": "Hingoli",
    "statename": "MAHARASHTRA"
  },
  {
    "pincode": "431701",
    "officename": "Bour B.O",
    "officeType": "B.O",
    "Deliverystatus": "Delivery",
    "divisionname": "Pharbhani",
    "regionname": "Aurangabad",
    "circlename": "Maharashtra",
    "Taluk": "Kalamnuri",
    "Districtname": "Hingoli",
    "statename": "MAHARASHTRA"
  },
  {
    "pincode": "431701",
    "officename": "Dhawanda Kasba B.O",
    "officeType": "B.O",
    "Deliverystatus": "Delivery",
    "divisionname": "Pharbhani",
    "regionname": "Aurangabad",
    "circlename": "Maharashtra",
    "Taluk": "Kalamnuri",
    "Districtname": "Hingoli",
    "statename": "MAHARASHTRA"
  },
  {
    "pincode": "431701",
    "officename": "Dongargaon Pool B.O",
    "officeType": "B.O",
    "Deliverystatus": "Delivery",
    "divisionname": "Pharbhani",
    "regionname": "Aurangabad",
    "circlename": "Maharashtra",
    "Taluk": "Kalamnuri",
    "Districtname": "Hingoli",
    "statename": "MAHARASHTRA"
  },
  {
    "pincode": "431701",
    "officename": "Dongarkada B.O",
    "officeType": "B.O",
    "Deliverystatus": "Delivery",
    "divisionname": "Pharbhani",
    "regionname": "Aurangabad",
    "circlename": "Maharashtra",
    "Taluk": "Kalamnuri",
    "Districtname": "Hingoli",
    "statename": "MAHARASHTRA"
  },
  {
    "pincode": "431701",
    "officename": "Jawala Panchal B.O",
    "officeType": "B.O",
    "Deliverystatus": "Delivery",
    "divisionname": "Pharbhani",
    "regionname": "Aurangabad",
    "circlename": "Maharashtra",
    "Taluk": "Kalamnuri",
    "Districtname": "Hingoli",
    "statename": "MAHARASHTRA"
  },
  {
    "pincode": "431701",
    "officename": "Kandali B.O",
    "officeType": "B.O",
    "Deliverystatus": "Delivery",
    "divisionname": "Pharbhani",
    "regionname": "Aurangabad",
    "circlename": "Maharashtra",
    "Taluk": "Kalamnuri",
    "Districtname": "Hingoli",
    "statename": "MAHARASHTRA"
  },
  {
    "pincode": "431701",
    "officename": "Kille Wadgaon B.O",
    "officeType": "B.O",
    "Deliverystatus": "Delivery",
    "divisionname": "Pharbhani",
    "regionname": "Aurangabad",
    "circlename": "Maharashtra",
    "Taluk": "Kalamnuri",
    "Districtname": "Hingoli",
    "statename": "MAHARASHTRA"
  },
  {
    "pincode": "431701",
    "officename": "Kondhur B.O",
    "officeType": "B.O",
    "Deliverystatus": "Delivery",
    "divisionname": "Pharbhani",
    "regionname": "Aurangabad",
    "circlename": "Maharashtra",
    "Taluk": "Kalamnuri",
    "Districtname": "Hingoli",
    "statename": "MAHARASHTRA"
  },
  {
    "pincode": "431701",
    "officename": "Kurtadi B.O",
    "officeType": "B.O",
    "Deliverystatus": "Delivery",
    "divisionname": "Pharbhani",
    "regionname": "Aurangabad",
    "circlename": "Maharashtra",
    "Taluk": "Kalamnuri",
    "Districtname": "Hingoli",
    "statename": "MAHARASHTRA"
  },
  {
    "pincode": "431701",
    "officename": "Mssk Dongarkada B.O",
    "officeType": "B.O",
    "Deliverystatus": "Delivery",
    "divisionname": "Pharbhani",
    "regionname": "Aurangabad",
    "circlename": "Maharashtra",
    "Taluk": "Kalamnuri",
    "Districtname": "Hingoli",
    "statename": "MAHARASHTRA"
  },
  {
    "pincode": "431701",
    "officename": "Pangra Shinde B.O",
    "officeType": "B.O",
    "Deliverystatus": "Delivery",
    "divisionname": "Pharbhani",
    "regionname": "Aurangabad",
    "circlename": "Maharashtra",
    "Taluk": "Kalamnuri",
    "Districtname": "Hingoli",
    "statename": "MAHARASHTRA"
  },
  {
    "pincode": "431701",
    "officename": "Potra B.O",
    "officeType": "B.O",
    "Deliverystatus": "Delivery",
    "divisionname": "Pharbhani",
    "regionname": "Aurangabad",
    "circlename": "Maharashtra",
    "Taluk": "Kalamnuri",
    "Districtname": "Hingoli",
    "statename": "MAHARASHTRA"
  },
  {
    "pincode": "431701",
    "officename": "Rameshwar Tanda B.O",
    "officeType": "B.O",
    "Deliverystatus": "Delivery",
    "divisionname": "Pharbhani",
    "regionname": "Aurangabad",
    "circlename": "Maharashtra",
    "Taluk": "Kalamnuri",
    "Districtname": "Hingoli",
    "statename": "MAHARASHTRA"
  },
  {
    "pincode": "431701",
    "officename": "Salva B.O",
    "officeType": "B.O",
    "Deliverystatus": "Delivery",
    "divisionname": "Pharbhani",
    "regionname": "Aurangabad",
    "circlename": "Maharashtra",
    "Taluk": "Kalamnuri",
    "Districtname": "Hingoli",
    "statename": "MAHARASHTRA"
  },
  {
    "pincode": "431701",
    "officename": "Shewala B.O",
    "officeType": "B.O",
    "Deliverystatus": "Delivery",
    "divisionname": "Pharbhani",
    "regionname": "Aurangabad",
    "circlename": "Maharashtra",
    "Taluk": "Kalamnuri",
    "Districtname": "Hingoli",
    "statename": "MAHARASHTRA"
  },
  {
    "pincode": "431701",
    "officename": "Sindagi B.O",
    "officeType": "B.O",
    "Deliverystatus": "Delivery",
    "divisionname": "Pharbhani",
    "regionname": "Aurangabad",
    "circlename": "Maharashtra",
    "Taluk": "Kalamnuri",
    "Districtname": "Hingoli",
    "statename": "MAHARASHTRA"
  },
  {
    "pincode": "431701",
    "officename": "Sirli B.O",
    "officeType": "B.O",
    "Deliverystatus": "Delivery",
    "divisionname": "Pharbhani",
    "regionname": "Aurangabad",
    "circlename": "Maharashtra",
    "Taluk": "Kalamnuri",
    "Districtname": "Hingoli",
    "statename": "MAHARASHTRA"
  },
  {
    "pincode": "431701",
    "officename": "Sukli Veer B.O",
    "officeType": "B.O",
    "Deliverystatus": "Delivery",
    "divisionname": "Pharbhani",
    "regionname": "Aurangabad",
    "circlename": "Maharashtra",
    "Taluk": "Kalamnuri",
    "Districtname": "Hingoli",
    "statename": "MAHARASHTRA"
  },
  {
    "pincode": "431701",
    "officename": "Wapti B.O",
    "officeType": "B.O",
    "Deliverystatus": "Delivery",
    "divisionname": "Pharbhani",
    "regionname": "Aurangabad",
    "circlename": "Maharashtra",
    "Taluk": "Kalamnuri",
    "Districtname": "Hingoli",
    "statename": "MAHARASHTRA"
  },
  {
    "pincode": "431701",
    "officename": "Waranga B.O",
    "officeType": "B.O",
    "Deliverystatus": "Delivery",
    "divisionname": "Pharbhani",
    "regionname": "Aurangabad",
    "circlename": "Maharashtra",
    "Taluk": "Kalamnuri",
    "Districtname": "Hingoli",
    "statename": "MAHARASHTRA"
  },
  {
    "pincode": "431701",
    "officename": "Yedsi B.O",
    "officeType": "B.O",
    "Deliverystatus": "Delivery",
    "divisionname": "Pharbhani",
    "regionname": "Aurangabad",
    "circlename": "Maharashtra",
    "Taluk": "Kalamnuri",
    "Districtname": "Hingoli",
    "statename": "MAHARASHTRA"
  },
  {
    "pincode": "431701",
    "officename": "Yelegaon Gawali B.O",
    "officeType": "B.O",
    "Deliverystatus": "Delivery",
    "divisionname": "Pharbhani",
    "regionname": "Aurangabad",
    "circlename": "Maharashtra",
    "Taluk": "Kalamnuri",
    "Districtname": "Hingoli",
    "statename": "MAHARASHTRA"
  },
  {
    "pincode": "431701",
    "officename": "Yelki B.O",
    "officeType": "B.O",
    "Deliverystatus": "Delivery",
    "divisionname": "Pharbhani",
    "regionname": "Aurangabad",
    "circlename": "Maharashtra",
    "Taluk": "Kalamnuri",
    "Districtname": "Hingoli",
    "statename": "MAHARASHTRA"
  }
]
