[
  {
    "pincode": "431705",
    "officename": "Adgaon B.O",
    "officeType": "B.O",
    "Deliverystatus": "Delivery",
    "divisionname": "Pharbhani",
    "regionname": "Aurangabad",
    "circlename": "Maharashtra",
    "Taluk": "Basmath",
    "Districtname": "Hingoli",
    "statename": "MAHARASHTRA"
  },
  {
    "pincode": "431705",
    "officename": "Aundha Nagnath S.O",
    "officeType": "S.O",
    "Deliverystatus": "Delivery",
    "divisionname": "Pharbhani",
    "regionname": "Aurangabad",
    "circlename": "Maharashtra",
    "Taluk": "Aundha Nagnath",
    "Districtname": "Hingoli",
    "statename": "MAHARASHTRA"
  },
  {
    "pincode": "431705",
    "officename": "Borisawant B.O",
    "officeType": "B.O",
    "Deliverystatus": "Delivery",
    "divisionname": "Pharbhani",
    "regionname": "Aurangabad",
    "circlename": "Maharashtra",
    "Taluk": "Basmath",
    "Districtname": "Hingoli",
    "statename": "MAHARASHTRA"
  },
  {
    "pincode": "431705",
    "officename": "Digras B.O",
    "officeType": "B.O",
    "Deliverystatus": "Delivery",
    "divisionname": "Pharbhani",
    "regionname": "Aurangabad",
    "circlename": "Maharashtra",
    "Taluk": "Hingoli",
    "Districtname": "Hingoli",
    "statename": "MAHARASHTRA"
  },
  {
    "pincode": "431705",
    "officename": "Golegaon Camp B.O",
    "officeType": "B.O",
    "Deliverystatus": "Delivery",
    "divisionname": "Pharbhani",
    "regionname": "Aurangabad",
    "circlename": "Maharashtra",
    "Taluk": "Aundha Nagnath",
    "Districtname": "Hingoli",
    "statename": "MAHARASHTRA"
  },
  {
    "pincode": "431705",
    "officename": "Gunda B.O",
    "officeType": "B.O",
    "Deliverystatus": "Delivery",
    "divisionname": "Pharbhani",
    "regionname": "Aurangabad",
    "circlename": "Maharashtra",
    "Taluk": "Aundha Nagnath",
    "Districtname": "Hingoli",
    "statename": "MAHARASHTRA"
  },
  {
    "pincode": "431705",
    "officename": "Hatta B.O",
    "officeType": "B.O",
    "Deliverystatus": "Delivery",
    "divisionname": "Pharbhani",
    "regionname": "Aurangabad",
    "circlename": "Maharashtra",
    "Taluk": "Basmath",
    "Districtname": "Hingoli",
    "statename": "MAHARASHTRA"
  },
  {
    "pincode": "431705",
    "officename": "Jawala Bazar B.O",
    "officeType": "B.O",
    "Deliverystatus": "Delivery",
    "divisionname": "Pharbhani",
    "regionname": "Aurangabad",
    "circlename": "Maharashtra",
    "Taluk": "Aundha Nagnath",
    "Districtname": "Hingoli",
    "statename": "MAHARASHTRA"
  },
  {
    "pincode": "431705",
    "officename": "Karanjala B.O",
    "officeType": "B.O",
    "Deliverystatus": "Delivery",
    "divisionname": "Pharbhani",
    "regionname": "Aurangabad",
    "circlename": "Maharashtra",
    "Taluk": "Basmath",
    "Districtname": "Hingoli",
    "statename": "MAHARASHTRA"
  },
  {
    "pincode": "431705",
    "officename": "Lohara BK B.O",
    "officeType": "B.O",
    "Deliverystatus": "Delivery",
    "divisionname": "Pharbhani",
    "regionname": "Aurangabad",
    "circlename": "Maharashtra",
    "Taluk": "Aundha Nagnath",
    "Districtname": "Hingoli",
    "statename": "MAHARASHTRA"
  },
  {
    "pincode": "431705",
    "officename": "Lohgaon B.O",
    "officeType": "B.O",
    "Deliverystatus": "Delivery",
    "divisionname": "Pharbhani",
    "regionname": "Aurangabad",
    "circlename": "Maharashtra",
    "Taluk": "Hingoli",
    "Districtname": "Hingoli",
    "statename": "MAHARASHTRA"
  },
  {
    "pincode": "431705",
    "officename": "Murtijapur Sawangi B.O",
    "officeType": "B.O",
    "Deliverystatus": "Delivery",
    "divisionname": "Pharbhani",
    "regionname": "Aurangabad",
    "circlename": "Maharashtra",
    "Taluk": "Aundha Nagnath",
    "Districtname": "Hingoli",
    "statename": "MAHARASHTRA"
  },
  {
    "pincode": "431705",
    "officename": "Nahad B.O",
    "officeType": "B.O",
    "Deliverystatus": "Delivery",
    "divisionname": "Pharbhani",
    "regionname": "Aurangabad",
    "circlename": "Maharashtra",
    "Taluk": "Basmath",
    "Districtname": "Hingoli",
    "statename": "MAHARASHTRA"
  },
  {
    "pincode": "431705",
    "officename": "Purjal B.O",
    "officeType": "B.O",
    "Deliverystatus": "Delivery",
    "divisionname": "Pharbhani",
    "regionname": "Aurangabad",
    "circlename": "Maharashtra",
    "Taluk": "Aundha Nagnath",
    "Districtname": "Hingoli",
    "statename": "MAHARASHTRA"
  },
  {
    "pincode": "431705",
    "officename": "Sawangi BK B.O",
    "officeType": "B.O",
    "Deliverystatus": "Delivery",
    "divisionname": "Pharbhani",
    "regionname": "Aurangabad",
    "circlename": "Maharashtra",
    "Taluk": "Basmath",
    "Districtname": "Hingoli",
    "statename": "MAHARASHTRA"
  },
  {
    "pincode": "431705",
    "officename": "Sendursena B.O",
    "officeType": "B.O",
    "Deliverystatus": "Delivery",
    "divisionname": "Pharbhani",
    "regionname": "Aurangabad",
    "circlename": "Maharashtra",
    "Taluk": "Aundha Nagnath",
    "Districtname": "Hingoli",
    "statename": "MAHARASHTRA"
  },
  {
    "pincode": "431705",
    "officename": "Shirad Shahapur B.O",
    "officeType": "B.O",
    "Deliverystatus": "Delivery",
    "divisionname": "Pharbhani",
    "regionname": "Aurangabad",
    "circlename": "Maharashtra",
    "Taluk": "Aundha Nagnath",
    "Districtname": "Hingoli",
    "statename": "MAHARASHTRA"
  },
  {
    "pincode": "431705",
    "officename": "Siddheshwar B.O",
    "officeType": "B.O",
    "Deliverystatus": "Delivery",
    "divisionname": "Pharbhani",
    "regionname": "Aurangabad",
    "circlename": "Maharashtra",
    "Taluk": "Aundha Nagnath",
    "Districtname": "Hingoli",
    "statename": "MAHARASHTRA"
  },
  {
    "pincode": "431705",
    "officename": "Siddheshwar Camp B.O",
    "officeType": "B.O",
    "Deliverystatus": "Delivery",
    "divisionname": "Pharbhani",
    "regionname": "Aurangabad",
    "circlename": "Maharashtra",
    "Taluk": "Aundha Nagnath",
    "Districtname": "Hingoli",
    "statename": "MAHARASHTRA"
  },
  {
    "pincode": "431705",
    "officename": "Yehlegaon Solanke B.O",
    "officeType": "B.O",
    "Deliverystatus": "Delivery",
    "divisionname": "Pharbhani",
    "regionname": "Aurangabad",
    "circlename": "Maharashtra",
    "Taluk": "Aundha Nagnath",
    "Districtname": "Hingoli",
    "statename": "MAHARASHTRA"
  }
]
