[
  {
    "pincode": "431710",
    "officename": "Arli B.O",
    "officeType": "B.O",
    "Deliverystatus": "Delivery",
    "divisionname": "Nanded",
    "regionname": "Aurangabad",
    "circlename": "Maharashtra",
    "Taluk": "Biloli",
    "Districtname": "Nanded",
    "statename": "MAHARASHTRA"
  },
  {
    "pincode": "431710",
    "officename": "Bamni B.O",
    "officeType": "B.O",
    "Deliverystatus": "Delivery",
    "divisionname": "Nanded",
    "regionname": "Aurangabad",
    "circlename": "Maharashtra",
    "Taluk": "Biloli",
    "Districtname": "Nanded",
    "statename": "MAHARASHTRA"
  },
  {
    "pincode": "431710",
    "officename": "Bdur B.O",
    "officeType": "B.O",
    "Deliverystatus": "Delivery",
    "divisionname": "Nanded",
    "regionname": "Aurangabad",
    "circlename": "Maharashtra",
    "Taluk": "Biloi",
    "Districtname": "Nanded",
    "statename": "MAHARASHTRA"
  },
  {
    "pincode": "431710",
    "officename": "Belkoni B.O",
    "officeType": "B.O",
    "Deliverystatus": "Delivery",
    "divisionname": "Nanded",
    "regionname": "Aurangabad",
    "circlename": "Maharashtra",
    "Taluk": "Bhokar",
    "Districtname": "Nanded",
    "statename": "MAHARASHTRA"
  },
  {
    "pincode": "431710",
    "officename": "Belkoni BK B.O",
    "officeType": "B.O",
    "Deliverystatus": "Delivery",
    "divisionname": "Nanded",
    "regionname": "Aurangabad",
    "circlename": "Maharashtra",
    "Taluk": "Biloli",
    "Districtname": "Nanded",
    "statename": "MAHARASHTRA"
  },
  {
    "pincode": "431710",
    "officename": "Biloli S.O",
    "officeType": "S.O",
    "Deliverystatus": "Delivery",
    "divisionname": "Nanded",
    "regionname": "Aurangabad",
    "circlename": "Maharashtra",
    "Taluk": "Biloli",
    "Districtname": "Nanded",
    "statename": "MAHARASHTRA"
  },
  {
    "pincode": "431710",
    "officename": "Chinchala B.O",
    "officeType": "B.O",
    "Deliverystatus": "Delivery",
    "divisionname": "Nanded",
    "regionname": "Aurangabad",
    "circlename": "Maharashtra",
    "Taluk": "Biloli",
    "Districtname": "Nanded",
    "statename": "MAHARASHTRA"
  },
  {
    "pincode": "431710",
    "officename": "Dongaon KH B.O",
    "officeType": "B.O",
    "Deliverystatus": "Delivery",
    "divisionname": "Nanded",
    "regionname": "Aurangabad",
    "circlename": "Maharashtra",
    "Taluk": "Biloli",
    "Districtname": "Nanded",
    "statename": "MAHARASHTRA"
  },
  {
    "pincode": "431710",
    "officename": "Karala Kalam B.O",
    "officeType": "B.O",
    "Deliverystatus": "Delivery",
    "divisionname": "Nanded",
    "regionname": "Aurangabad",
    "circlename": "Maharashtra",
    "Taluk": "Biloli",
    "Districtname": "Nanded",
    "statename": "MAHARASHTRA"
  },
  {
    "pincode": "431710",
    "officename": "Kasrali B.O",
    "officeType": "B.O",
    "Deliverystatus": "Delivery",
    "divisionname": "Nanded",
    "regionname": "Aurangabad",
    "circlename": "Maharashtra",
    "Taluk": "Bhokar",
    "Districtname": "Nanded",
    "statename": "MAHARASHTRA"
  },
  {
    "pincode": "431710",
    "officename": "Kolheborgaon B.O",
    "officeType": "B.O",
    "Deliverystatus": "Delivery",
    "divisionname": "Nanded",
    "regionname": "Aurangabad",
    "circlename": "Maharashtra",
    "Taluk": "Biloli",
    "Districtname": "Nanded",
    "statename": "MAHARASHTRA"
  },
  {
    "pincode": "431710",
    "officename": "Laghul B.O",
    "officeType": "B.O",
    "Deliverystatus": "Delivery",
    "divisionname": "Nanded",
    "regionname": "Aurangabad",
    "circlename": "Maharashtra",
    "Taluk": "Biloli",
    "Districtname": "Nanded",
    "statename": "MAHARASHTRA"
  },
  {
    "pincode": "431710",
    "officename": "Lohgaon B.O",
    "officeType": "B.O",
    "Deliverystatus": "Delivery",
    "divisionname": "Nanded",
    "regionname": "Aurangabad",
    "circlename": "Maharashtra",
    "Taluk": "Biloli",
    "Districtname": "Nanded",
    "statename": "MAHARASHTRA"
  },
  {
    "pincode": "431710",
    "officename": "Sawali B.O",
    "officeType": "B.O",
    "Deliverystatus": "Delivery",
    "divisionname": "Nanded",
    "regionname": "Aurangabad",
    "circlename": "Maharashtra",
    "Taluk": "Biloli",
    "Districtname": "Nanded",
    "statename": "MAHARASHTRA"
  },
  {
    "pincode": "431710",
    "officename": "Talni B.O",
    "officeType": "B.O",
    "Deliverystatus": "Delivery",
    "divisionname": "Nanded",
    "regionname": "Aurangabad",
    "circlename": "Maharashtra",
    "Taluk": "Biloli",
    "Districtname": "Nanded",
    "statename": "MAHARASHTRA"
  }
]
