[
  {
    "pincode": "431721",
    "officename": "Anjankhed B.O",
    "officeType": "B.O",
    "Deliverystatus": "Delivery",
    "divisionname": "Nanded",
    "regionname": "Aurangabad",
    "circlename": "Maharashtra",
    "Taluk": "Mahore",
    "Districtname": "Nanded",
    "statename": "MAHARASHTRA"
  },
  {
    "pincode": "431721",
    "officename": "Anmal B.O",
    "officeType": "B.O",
    "Deliverystatus": "Delivery",
    "divisionname": "Nanded",
    "regionname": "Aurangabad",
    "circlename": "Maharashtra",
    "Taluk": "Mahore",
    "Districtname": "Nanded",
    "statename": "MAHARASHTRA"
  },
  {
    "pincode": "431721",
    "officename": "Ashta B.O",
    "officeType": "B.O",
    "Deliverystatus": "Delivery",
    "divisionname": "Nanded",
    "regionname": "Aurangabad",
    "circlename": "Maharashtra",
    "Taluk": "Mahore",
    "Districtname": "Nanded",
    "statename": "MAHARASHTRA"
  },
  {
    "pincode": "431721",
    "officename": "Asoli B.O",
    "officeType": "B.O",
    "Deliverystatus": "Delivery",
    "divisionname": "Nanded",
    "regionname": "Aurangabad",
    "circlename": "Maharashtra",
    "Taluk": "Mahore",
    "Districtname": "Nanded",
    "statename": "MAHARASHTRA"
  },
  {
    "pincode": "431721",
    "officename": "Bhorad B.O",
    "officeType": "B.O",
    "Deliverystatus": "Delivery",
    "divisionname": "Nanded",
    "regionname": "Aurangabad",
    "circlename": "Maharashtra",
    "Taluk": "Mahore",
    "Districtname": "Nanded",
    "statename": "MAHARASHTRA"
  },
  {
    "pincode": "431721",
    "officename": "Dattamanjari B.O",
    "officeType": "B.O",
    "Deliverystatus": "Delivery",
    "divisionname": "Nanded",
    "regionname": "Aurangabad",
    "circlename": "Maharashtra",
    "Taluk": "Mahore",
    "Districtname": "Nanded",
    "statename": "MAHARASHTRA"
  },
  {
    "pincode": "431721",
    "officename": "Gondegaon B.O",
    "officeType": "B.O",
    "Deliverystatus": "Delivery",
    "divisionname": "Nanded",
    "regionname": "Aurangabad",
    "circlename": "Maharashtra",
    "Taluk": "Mahore",
    "Districtname": "Nanded",
    "statename": "MAHARASHTRA"
  },
  {
    "pincode": "431721",
    "officename": "Gondwadsa B.O",
    "officeType": "B.O",
    "Deliverystatus": "Delivery",
    "divisionname": "Nanded",
    "regionname": "Aurangabad",
    "circlename": "Maharashtra",
    "Taluk": "Mahore",
    "Districtname": "Nanded",
    "statename": "MAHARASHTRA"
  },
  {
    "pincode": "431721",
    "officename": "Hadsani B.O",
    "officeType": "B.O",
    "Deliverystatus": "Delivery",
    "divisionname": "Nanded",
    "regionname": "Aurangabad",
    "circlename": "Maharashtra",
    "Taluk": "Mahore",
    "Districtname": "Nanded",
    "statename": "MAHARASHTRA"
  },
  {
    "pincode": "431721",
    "officename": "Hardaf B.O",
    "officeType": "B.O",
    "Deliverystatus": "Delivery",
    "divisionname": "Nanded",
    "regionname": "Aurangabad",
    "circlename": "Maharashtra",
    "Taluk": "Mahore",
    "Districtname": "Nanded",
    "statename": "MAHARASHTRA"
  },
  {
    "pincode": "431721",
    "officename": "Hingani B.O",
    "officeType": "B.O",
    "Deliverystatus": "Delivery",
    "divisionname": "Nanded",
    "regionname": "Aurangabad",
    "circlename": "Maharashtra",
    "Taluk": "Mahore",
    "Districtname": "Nanded",
    "statename": "MAHARASHTRA"
  },
  {
    "pincode": "431721",
    "officename": "Ivaleshwar B.O",
    "officeType": "B.O",
    "Deliverystatus": "Delivery",
    "divisionname": "Nanded",
    "regionname": "Aurangabad",
    "circlename": "Maharashtra",
    "Taluk": "Mahore",
    "Districtname": "Nanded",
    "statename": "MAHARASHTRA"
  },
  {
    "pincode": "431721",
    "officename": "Lakhamapur B.O",
    "officeType": "B.O",
    "Deliverystatus": "Delivery",
    "divisionname": "Nanded",
    "regionname": "Aurangabad",
    "circlename": "Maharashtra",
    "Taluk": "Mahore",
    "Districtname": "Nanded",
    "statename": "MAHARASHTRA"
  },
  {
    "pincode": "431721",
    "officename": "Machandrapardi B.O",
    "officeType": "B.O",
    "Deliverystatus": "Delivery",
    "divisionname": "Nanded",
    "regionname": "Aurangabad",
    "circlename": "Maharashtra",
    "Taluk": "Mahore",
    "Districtname": "Nanded",
    "statename": "MAHARASHTRA"
  },
  {
    "pincode": "431721",
    "officename": "Madnapur B.O",
    "officeType": "B.O",
    "Deliverystatus": "Delivery",
    "divisionname": "Nanded",
    "regionname": "Aurangabad",
    "circlename": "Maharashtra",
    "Taluk": "Mahore",
    "Districtname": "Nanded",
    "statename": "MAHARASHTRA"
  },
  {
    "pincode": "431721",
    "officename": "Mahore S.O (Nanded)",
    "officeType": "S.O",
    "Deliverystatus": "Delivery",
    "divisionname": "Nanded",
    "regionname": "Aurangabad",
    "circlename": "Maharashtra",
    "Taluk": "Bhokar",
    "Districtname": "Nanded",
    "statename": "MAHARASHTRA"
  },
  {
    "pincode": "431721",
    "officename": "Malakaguda B.O",
    "officeType": "B.O",
    "Deliverystatus": "Delivery",
    "divisionname": "Nanded",
    "regionname": "Aurangabad",
    "circlename": "Maharashtra",
    "Taluk": "Mahore",
    "Districtname": "Nanded",
    "statename": "MAHARASHTRA"
  },
  {
    "pincode": "431721",
    "officename": "Padsa B.O",
    "officeType": "B.O",
    "Deliverystatus": "Delivery",
    "divisionname": "Nanded",
    "regionname": "Aurangabad",
    "circlename": "Maharashtra",
    "Taluk": "Bhokar",
    "Districtname": "Nanded",
    "statename": "MAHARASHTRA"
  },
  {
    "pincode": "431721",
    "officename": "Papalwadi B.O",
    "officeType": "B.O",
    "Deliverystatus": "Delivery",
    "divisionname": "Nanded",
    "regionname": "Aurangabad",
    "circlename": "Maharashtra",
    "Taluk": "Mahore",
    "Districtname": "Nanded",
    "statename": "MAHARASHTRA"
  },
  {
    "pincode": "431721",
    "officename": "Rui B.O",
    "officeType": "B.O",
    "Deliverystatus": "Delivery",
    "divisionname": "Nanded",
    "regionname": "Aurangabad",
    "circlename": "Maharashtra",
    "Taluk": "Mahore",
    "Districtname": "Nanded",
    "statename": "MAHARASHTRA"
  },
  {
    "pincode": "431721",
    "officename": "Saiphal B.O",
    "officeType": "B.O",
    "Deliverystatus": "Delivery",
    "divisionname": "Nanded",
    "regionname": "Aurangabad",
    "circlename": "Maharashtra",
    "Taluk": "Mahore",
    "Districtname": "Nanded",
    "statename": "MAHARASHTRA"
  },
  {
    "pincode": "431721",
    "officename": "Tulshi B.O",
    "officeType": "B.O",
    "Deliverystatus": "Delivery",
    "divisionname": "Nanded",
    "regionname": "Aurangabad",
    "circlename": "Maharashtra",
    "Taluk": "Mahore",
    "Districtname": "Nanded",
    "statename": "MAHARASHTRA"
  },
  {
    "pincode": "431721",
    "officename": "Wadsa B.O",
    "officeType": "B.O",
    "Deliverystatus": "Delivery",
    "divisionname": "Nanded",
    "regionname": "Aurangabad",
    "circlename": "Maharashtra",
    "Taluk": "Mahore",
    "Districtname": "Nanded",
    "statename": "MAHARASHTRA"
  },
  {
    "pincode": "431721",
    "officename": "Wai B.O",
    "officeType": "B.O",
    "Deliverystatus": "Delivery",
    "divisionname": "Nanded",
    "regionname": "Aurangabad",
    "circlename": "Maharashtra",
    "Taluk": "Mahore",
    "Districtname": "Nanded",
    "statename": "MAHARASHTRA"
  }
]
