[
  {
    "pincode": "431806",
    "officename": "Chikhala B.O",
    "officeType": "B.O",
    "Deliverystatus": "Delivery",
    "divisionname": "Nanded",
    "regionname": "Aurangabad",
    "circlename": "Maharashtra",
    "Taluk": "Mudkhed",
    "Districtname": "Nanded",
    "statename": "MAHARASHTRA"
  },
  {
    "pincode": "431806",
    "officename": "Daregaon B.O",
    "officeType": "B.O",
    "Deliverystatus": "Delivery",
    "divisionname": "Nanded",
    "regionname": "Aurangabad",
    "circlename": "Maharashtra",
    "Taluk": "Mudkhed",
    "Districtname": "Nanded",
    "statename": "MAHARASHTRA"
  },
  {
    "pincode": "431806",
    "officename": "Dongaon B.O",
    "officeType": "B.O",
    "Deliverystatus": "Delivery",
    "divisionname": "Nanded",
    "regionname": "Aurangabad",
    "circlename": "Maharashtra",
    "Taluk": "Mudkhed",
    "Districtname": "Nanded",
    "statename": "MAHARASHTRA"
  },
  {
    "pincode": "431806",
    "officename": "Malkautha B.O",
    "officeType": "B.O",
    "Deliverystatus": "Delivery",
    "divisionname": "Nanded",
    "regionname": "Aurangabad",
    "circlename": "Maharashtra",
    "Taluk": "Mudkhed",
    "Districtname": "Nanded",
    "statename": "MAHARASHTRA"
  },
  {
    "pincode": "431806",
    "officename": "Mendka B.O",
    "officeType": "B.O",
    "Deliverystatus": "Delivery",
    "divisionname": "Nanded",
    "regionname": "Aurangabad",
    "circlename": "Maharashtra",
    "Taluk": "Mudkhed",
    "Districtname": "Nanded",
    "statename": "MAHARASHTRA"
  },
  {
    "pincode": "431806",
    "officename": "Mudkhed Station S.O",
    "officeType": "S.O",
    "Deliverystatus": "Delivery",
    "divisionname": "Nanded",
    "regionname": "Aurangabad",
    "circlename": "Maharashtra",
    "Taluk": "Bhokar",
    "Districtname": "Nanded",
    "statename": "MAHARASHTRA"
  },
  {
    "pincode": "431806",
    "officename": "Mugat B.O",
    "officeType": "B.O",
    "Deliverystatus": "Delivery",
    "divisionname": "Nanded",
    "regionname": "Aurangabad",
    "circlename": "Maharashtra",
    "Taluk": "Mudkhed",
    "Districtname": "Nanded",
    "statename": "MAHARASHTRA"
  },
  {
    "pincode": "431806",
    "officename": "Newgha B.O",
    "officeType": "B.O",
    "Deliverystatus": "Delivery",
    "divisionname": "Nanded",
    "regionname": "Aurangabad",
    "circlename": "Maharashtra",
    "Taluk": "Mudkhed",
    "Districtname": "Nanded",
    "statename": "MAHARASHTRA"
  },
  {
    "pincode": "431806",
    "officename": "Punegaon B.O",
    "officeType": "B.O",
    "Deliverystatus": "Delivery",
    "divisionname": "Nanded",
    "regionname": "Aurangabad",
    "circlename": "Maharashtra",
    "Taluk": "Mudkhed",
    "Districtname": "Nanded",
    "statename": "MAHARASHTRA"
  },
  {
    "pincode": "431806",
    "officename": "Rohipimpalgaon B.O",
    "officeType": "B.O",
    "Deliverystatus": "Delivery",
    "divisionname": "Nanded",
    "regionname": "Aurangabad",
    "circlename": "Maharashtra",
    "Taluk": "Mudkhed",
    "Districtname": "Nanded",
    "statename": "MAHARASHTRA"
  }
]
