[
  {
    "pincode": "431803",
    "officename": "Andbori B.O",
    "officeType": "B.O",
    "Deliverystatus": "Delivery",
    "divisionname": "Nanded",
    "regionname": "Aurangabad",
    "circlename": "Maharashtra",
    "Taluk": "Kinwat",
    "Districtname": "Nanded",
    "statename": "MAHARASHTRA"
  },
  {
    "pincode": "431803",
    "officename": "Apparaopeth B.O",
    "officeType": "B.O",
    "Deliverystatus": "Delivery",
    "divisionname": "Nanded",
    "regionname": "Aurangabad",
    "circlename": "Maharashtra",
    "Taluk": "",
    "Districtname": "Nanded",
    "statename": "MAHARASHTRA"
  },
  {
    "pincode": "431803",
    "officename": "Bhishi B.O",
    "officeType": "B.O",
    "Deliverystatus": "Delivery",
    "divisionname": "Nanded",
    "regionname": "Aurangabad",
    "circlename": "Maharashtra",
    "Taluk": "Kinwat",
    "Districtname": "Nanded",
    "statename": "MAHARASHTRA"
  },
  {
    "pincode": "431803",
    "officename": "Chikhali B.O",
    "officeType": "B.O",
    "Deliverystatus": "Delivery",
    "divisionname": "Nanded",
    "regionname": "Aurangabad",
    "circlename": "Maharashtra",
    "Taluk": "Kinwat",
    "Districtname": "Nanded",
    "statename": "MAHARASHTRA"
  },
  {
    "pincode": "431803",
    "officename": "Gondjavli B.O",
    "officeType": "B.O",
    "Deliverystatus": "Delivery",
    "divisionname": "Nanded",
    "regionname": "Aurangabad",
    "circlename": "Maharashtra",
    "Taluk": "Kinwat",
    "Districtname": "Nanded",
    "statename": "MAHARASHTRA"
  },
  {
    "pincode": "431803",
    "officename": "Gondmahagaon B.O",
    "officeType": "B.O",
    "Deliverystatus": "Delivery",
    "divisionname": "Nanded",
    "regionname": "Aurangabad",
    "circlename": "Maharashtra",
    "Taluk": "Kinwat",
    "Districtname": "Nanded",
    "statename": "MAHARASHTRA"
  },
  {
    "pincode": "431803",
    "officename": "Iregaon B.O",
    "officeType": "B.O",
    "Deliverystatus": "Delivery",
    "divisionname": "Nanded",
    "regionname": "Aurangabad",
    "circlename": "Maharashtra",
    "Taluk": "Kinwat",
    "Districtname": "Nanded",
    "statename": "MAHARASHTRA"
  },
  {
    "pincode": "431803",
    "officename": "Islapur S.O",
    "officeType": "S.O",
    "Deliverystatus": "Delivery",
    "divisionname": "Nanded",
    "regionname": "Aurangabad",
    "circlename": "Maharashtra",
    "Taluk": "Kinwat",
    "Districtname": "Nanded",
    "statename": "MAHARASHTRA"
  },
  {
    "pincode": "431803",
    "officename": "Kanchali B.O",
    "officeType": "B.O",
    "Deliverystatus": "Delivery",
    "divisionname": "Nanded",
    "regionname": "Aurangabad",
    "circlename": "Maharashtra",
    "Taluk": "Kinwat",
    "Districtname": "Nanded",
    "statename": "MAHARASHTRA"
  },
  {
    "pincode": "431803",
    "officename": "Kolahari B.O",
    "officeType": "B.O",
    "Deliverystatus": "Delivery",
    "divisionname": "Nanded",
    "regionname": "Aurangabad",
    "circlename": "Maharashtra",
    "Taluk": "Kinwat",
    "Districtname": "Nanded",
    "statename": "MAHARASHTRA"
  },
  {
    "pincode": "431803",
    "officename": "Kosmet B.O",
    "officeType": "B.O",
    "Deliverystatus": "Delivery",
    "divisionname": "Nanded",
    "regionname": "Aurangabad",
    "circlename": "Maharashtra",
    "Taluk": "Kinwat",
    "Districtname": "Nanded",
    "statename": "MAHARASHTRA"
  },
  {
    "pincode": "431803",
    "officename": "Kupati B.O",
    "officeType": "B.O",
    "Deliverystatus": "Delivery",
    "divisionname": "Nanded",
    "regionname": "Aurangabad",
    "circlename": "Maharashtra",
    "Taluk": "Kinwat",
    "Districtname": "Nanded",
    "statename": "MAHARASHTRA"
  },
  {
    "pincode": "431803",
    "officename": "Malakjamb B.O",
    "officeType": "B.O",
    "Deliverystatus": "Delivery",
    "divisionname": "Nanded",
    "regionname": "Aurangabad",
    "circlename": "Maharashtra",
    "Taluk": "Kinwat",
    "Districtname": "Nanded",
    "statename": "MAHARASHTRA"
  },
  {
    "pincode": "431803",
    "officename": "Mulzara B.O",
    "officeType": "B.O",
    "Deliverystatus": "Delivery",
    "divisionname": "Nanded",
    "regionname": "Aurangabad",
    "circlename": "Maharashtra",
    "Taluk": "Kinwat",
    "Districtname": "Nanded",
    "statename": "MAHARASHTRA"
  },
  {
    "pincode": "431803",
    "officename": "Nandgaon Tanda B.O",
    "officeType": "B.O",
    "Deliverystatus": "Delivery",
    "divisionname": "Nanded",
    "regionname": "Aurangabad",
    "circlename": "Maharashtra",
    "Taluk": "Kinwat",
    "Districtname": "Nanded",
    "statename": "MAHARASHTRA"
  },
  {
    "pincode": "431803",
    "officename": "Paroti B.O",
    "officeType": "B.O",
    "Deliverystatus": "Delivery",
    "divisionname": "Nanded",
    "regionname": "Aurangabad",
    "circlename": "Maharashtra",
    "Taluk": "Kinwat",
    "Districtname": "Nanded",
    "statename": "MAHARASHTRA"
  },
  {
    "pincode": "431803",
    "officename": "Shivani B.O",
    "officeType": "B.O",
    "Deliverystatus": "Delivery",
    "divisionname": "Nanded",
    "regionname": "Aurangabad",
    "circlename": "Maharashtra",
    "Taluk": "Kinwat",
    "Districtname": "Nanded",
    "statename": "MAHARASHTRA"
  },
  {
    "pincode": "431803",
    "officename": "Talhari B.O",
    "officeType": "B.O",
    "Deliverystatus": "Delivery",
    "divisionname": "Nanded",
    "regionname": "Aurangabad",
    "circlename": "Maharashtra",
    "Taluk": "Kinwat",
    "Districtname": "Nanded",
    "statename": "MAHARASHTRA"
  },
  {
    "pincode": "431803",
    "officename": "Totamba B.O",
    "officeType": "B.O",
    "Deliverystatus": "Delivery",
    "divisionname": "Nanded",
    "regionname": "Aurangabad",
    "circlename": "Maharashtra",
    "Taluk": "Kinwat",
    "Districtname": "Nanded",
    "statename": "MAHARASHTRA"
  },
  {
    "pincode": "431803",
    "officename": "Walki B.O",
    "officeType": "B.O",
    "Deliverystatus": "Delivery",
    "divisionname": "Nanded",
    "regionname": "Aurangabad",
    "circlename": "Maharashtra",
    "Taluk": "Kinwat",
    "Districtname": "Nanded",
    "statename": "MAHARASHTRA"
  }
]
