[
  {
    "pincode": "441108",
    "officename": "Ashta B.O",
    "officeType": "B.O",
    "Deliverystatus": "Delivery",
    "divisionname": "Nagpur Moffusil",
    "regionname": "Nagpur",
    "circlename": "Maharashtra",
    "Taluk": "Nagpur",
    "Districtname": "Nagpur",
    "statename": "MAHARASHTRA"
  },
  {
    "pincode": "441108",
    "officename": "Bela B.O",
    "officeType": "B.O",
    "Deliverystatus": "Delivery",
    "divisionname": "Nagpur Moffusil",
    "regionname": "Nagpur",
    "circlename": "Maharashtra",
    "Taluk": "Nagpur",
    "Districtname": "Nagpur",
    "statename": "MAHARASHTRA"
  },
  {
    "pincode": "441108",
    "officename": "Bori S.O (Nagpur)",
    "officeType": "S.O",
    "Deliverystatus": "Delivery",
    "divisionname": "Nagpur Moffusil",
    "regionname": "Nagpur",
    "circlename": "Maharashtra",
    "Taluk": "Nagpur",
    "Districtname": "Nagpur",
    "statename": "MAHARASHTRA"
  },
  {
    "pincode": "441108",
    "officename": "Borkhedi B.O",
    "officeType": "B.O",
    "Deliverystatus": "Delivery",
    "divisionname": "Nagpur Moffusil",
    "regionname": "Nagpur",
    "circlename": "Maharashtra",
    "Taluk": "Nagpur",
    "Districtname": "Nagpur",
    "statename": "MAHARASHTRA"
  },
  {
    "pincode": "441108",
    "officename": "Dongargaon B.O",
    "officeType": "B.O",
    "Deliverystatus": "Delivery",
    "divisionname": "Nagpur Moffusil",
    "regionname": "Nagpur",
    "circlename": "Maharashtra",
    "Taluk": "Nagpur",
    "Districtname": "Nagpur",
    "statename": "MAHARASHTRA"
  },
  {
    "pincode": "441108",
    "officename": "Khapri B.O",
    "officeType": "B.O",
    "Deliverystatus": "Delivery",
    "divisionname": "Nagpur Moffusil",
    "regionname": "Nagpur",
    "circlename": "Maharashtra",
    "Taluk": "Nagpur",
    "Districtname": "Nagpur",
    "statename": "MAHARASHTRA"
  },
  {
    "pincode": "441108",
    "officename": "Padri Thana B.O",
    "officeType": "B.O",
    "Deliverystatus": "Delivery",
    "divisionname": "Nagpur Moffusil",
    "regionname": "Nagpur",
    "circlename": "Maharashtra",
    "Taluk": "Nagpur (Rural)",
    "Districtname": "Nagpur",
    "statename": "MAHARASHTRA"
  },
  {
    "pincode": "441108",
    "officename": "Pipra B.O",
    "officeType": "B.O",
    "Deliverystatus": "Delivery",
    "divisionname": "Nagpur Moffusil",
    "regionname": "Nagpur",
    "circlename": "Maharashtra",
    "Taluk": "Nagpur",
    "Districtname": "Nagpur",
    "statename": "MAHARASHTRA"
  },
  {
    "pincode": "441108",
    "officename": "Rama B.O",
    "officeType": "B.O",
    "Deliverystatus": "Delivery",
    "divisionname": "Nagpur Moffusil",
    "regionname": "Nagpur",
    "circlename": "Maharashtra",
    "Taluk": "Nagpur",
    "Districtname": "Nagpur",
    "statename": "MAHARASHTRA"
  },
  {
    "pincode": "441108",
    "officename": "Ridhora B.O",
    "officeType": "B.O",
    "Deliverystatus": "Delivery",
    "divisionname": "Nagpur Moffusil",
    "regionname": "Nagpur",
    "circlename": "Maharashtra",
    "Taluk": "Nagpur",
    "Districtname": "Nagpur",
    "statename": "MAHARASHTRA"
  },
  {
    "pincode": "441108",
    "officename": "Rui B.O",
    "officeType": "B.O",
    "Deliverystatus": "Delivery",
    "divisionname": "Nagpur Moffusil",
    "regionname": "Nagpur",
    "circlename": "Maharashtra",
    "Taluk": "Nagpur",
    "Districtname": "Nagpur",
    "statename": "MAHARASHTRA"
  },
  {
    "pincode": "441108",
    "officename": "Sawangi Asola B.O",
    "officeType": "B.O",
    "Deliverystatus": "Delivery",
    "divisionname": "Nagpur Moffusil",
    "regionname": "Nagpur",
    "circlename": "Maharashtra",
    "Taluk": "Nagpur (Rural)",
    "Districtname": "Nagpur",
    "statename": "MAHARASHTRA"
  }
]
