[
  {
    "pincode": "441101",
    "officename": "Badegaon B.O",
    "officeType": "B.O",
    "Deliverystatus": "Delivery",
    "divisionname": "Nagpur Moffusil",
    "regionname": "Nagpur",
    "circlename": "Maharashtra",
    "Taluk": "Saoner",
    "Districtname": "Nagpur",
    "statename": "MAHARASHTRA"
  },
  {
    "pincode": "441101",
    "officename": "Bichwa B.O",
    "officeType": "B.O",
    "Deliverystatus": "Delivery",
    "divisionname": "Nagpur Moffusil",
    "regionname": "Nagpur",
    "circlename": "Maharashtra",
    "Taluk": "Saoner",
    "Districtname": "Nagpur",
    "statename": "MAHARASHTRA"
  },
  {
    "pincode": "441101",
    "officename": "Khapa S.O",
    "officeType": "S.O",
    "Deliverystatus": "Delivery",
    "divisionname": "Nagpur Moffusil",
    "regionname": "Nagpur",
    "circlename": "Maharashtra",
    "Taluk": "Kamptee",
    "Districtname": "Nagpur",
    "statename": "MAHARASHTRA"
  },
  {
    "pincode": "441101",
    "officename": "Khubala B.O",
    "officeType": "B.O",
    "Deliverystatus": "Delivery",
    "divisionname": "Nagpur Moffusil",
    "regionname": "Nagpur",
    "circlename": "Maharashtra",
    "Taluk": "Saoner",
    "Districtname": "Nagpur",
    "statename": "MAHARASHTRA"
  },
  {
    "pincode": "441101",
    "officename": "Kodegaon B.O",
    "officeType": "B.O",
    "Deliverystatus": "Delivery",
    "divisionname": "Nagpur Moffusil",
    "regionname": "Nagpur",
    "circlename": "Maharashtra",
    "Taluk": "Saoner",
    "Districtname": "Nagpur",
    "statename": "MAHARASHTRA"
  },
  {
    "pincode": "441101",
    "officename": "Kothurna B.O",
    "officeType": "B.O",
    "Deliverystatus": "Delivery",
    "divisionname": "Nagpur Moffusil",
    "regionname": "Nagpur",
    "circlename": "Maharashtra",
    "Taluk": "Savner",
    "Districtname": "Nagpur",
    "statename": "MAHARASHTRA"
  },
  {
    "pincode": "441101",
    "officename": "Nagalwadi B.O",
    "officeType": "B.O",
    "Deliverystatus": "Delivery",
    "divisionname": "Nagpur Moffusil",
    "regionname": "Nagpur",
    "circlename": "Maharashtra",
    "Taluk": "Saoner",
    "Districtname": "Nagpur",
    "statename": "MAHARASHTRA"
  },
  {
    "pincode": "441101",
    "officename": "Wakodi B.O",
    "officeType": "B.O",
    "Deliverystatus": "Delivery",
    "divisionname": "Nagpur Moffusil",
    "regionname": "Nagpur",
    "circlename": "Maharashtra",
    "Taluk": "Saoner",
    "Districtname": "Nagpur",
    "statename": "MAHARASHTRA"
  }
]
