[
  {
    "pincode": "441209",
    "officename": "Armurkasa B.O",
    "officeType": "B.O",
    "Deliverystatus": "Delivery",
    "divisionname": "Chandrapur",
    "regionname": "Nagpur",
    "circlename": "Maharashtra",
    "Taluk": "Korchi",
    "Districtname": "Gadchiroli",
    "statename": "MAHARASHTRA"
  },
  {
    "pincode": "441209",
    "officename": "Bedgaon B.O",
    "officeType": "B.O",
    "Deliverystatus": "Delivery",
    "divisionname": "Chandrapur",
    "regionname": "Nagpur",
    "circlename": "Maharashtra",
    "Taluk": "Korchi",
    "Districtname": "Gadchiroli",
    "statename": "MAHARASHTRA"
  },
  {
    "pincode": "441209",
    "officename": "Bethakathi B.O",
    "officeType": "B.O",
    "Deliverystatus": "Delivery",
    "divisionname": "Chandrapur",
    "regionname": "Nagpur",
    "circlename": "Maharashtra",
    "Taluk": "Korchi",
    "Districtname": "Gadchiroli",
    "statename": "MAHARASHTRA"
  },
  {
    "pincode": "441209",
    "officename": "Botekasa B.O",
    "officeType": "B.O",
    "Deliverystatus": "Delivery",
    "divisionname": "Chandrapur",
    "regionname": "Nagpur",
    "circlename": "Maharashtra",
    "Taluk": "Korchi",
    "Districtname": "Gadchiroli",
    "statename": "MAHARASHTRA"
  },
  {
    "pincode": "441209",
    "officename": "Chandagad B.O",
    "officeType": "B.O",
    "Deliverystatus": "Delivery",
    "divisionname": "Chandrapur",
    "regionname": "Nagpur",
    "circlename": "Maharashtra",
    "Taluk": "Kurkheda",
    "Districtname": "Gadchiroli",
    "statename": "MAHARASHTRA"
  },
  {
    "pincode": "441209",
    "officename": "Charbhatti B.O",
    "officeType": "B.O",
    "Deliverystatus": "Delivery",
    "divisionname": "Chandrapur",
    "regionname": "Nagpur",
    "circlename": "Maharashtra",
    "Taluk": "Kurkheda",
    "Districtname": "Gadchiroli",
    "statename": "MAHARASHTRA"
  },
  {
    "pincode": "441209",
    "officename": "Gothangaon B.O",
    "officeType": "B.O",
    "Deliverystatus": "Delivery",
    "divisionname": "Chandrapur",
    "regionname": "Nagpur",
    "circlename": "Maharashtra",
    "Taluk": "Kurkheda",
    "Districtname": "Gadchiroli",
    "statename": "MAHARASHTRA"
  },
  {
    "pincode": "441209",
    "officename": "Korchi B.O",
    "officeType": "B.O",
    "Deliverystatus": "Delivery",
    "divisionname": "Chandrapur",
    "regionname": "Nagpur",
    "circlename": "Maharashtra",
    "Taluk": "Korchi",
    "Districtname": "Gadchiroli",
    "statename": "MAHARASHTRA"
  },
  {
    "pincode": "441209",
    "officename": "Kotgul B.O",
    "officeType": "B.O",
    "Deliverystatus": "Delivery",
    "divisionname": "Chandrapur",
    "regionname": "Nagpur",
    "circlename": "Maharashtra",
    "Taluk": "Kurkheda",
    "Districtname": "Gadchiroli",
    "statename": "MAHARASHTRA"
  },
  {
    "pincode": "441209",
    "officename": "Kotra B.O",
    "officeType": "B.O",
    "Deliverystatus": "Delivery",
    "divisionname": "Chandrapur",
    "regionname": "Nagpur",
    "circlename": "Maharashtra",
    "Taluk": "Korchi",
    "Districtname": "Gadchiroli",
    "statename": "MAHARASHTRA"
  },
  {
    "pincode": "441209",
    "officename": "Kurkheda S.O",
    "officeType": "S.O",
    "Deliverystatus": "Delivery",
    "divisionname": "Chandrapur",
    "regionname": "Nagpur",
    "circlename": "Maharashtra",
    "Taluk": "Kurkheda",
    "Districtname": "Gadchiroli",
    "statename": "MAHARASHTRA"
  },
  {
    "pincode": "441209",
    "officename": "Malewada B.O",
    "officeType": "B.O",
    "Deliverystatus": "Delivery",
    "divisionname": "Chandrapur",
    "regionname": "Nagpur",
    "circlename": "Maharashtra",
    "Taluk": "Korchi",
    "Districtname": "Gadchiroli",
    "statename": "MAHARASHTRA"
  },
  {
    "pincode": "441209",
    "officename": "Masali B.O",
    "officeType": "B.O",
    "Deliverystatus": "Delivery",
    "divisionname": "Chandrapur",
    "regionname": "Nagpur",
    "circlename": "Maharashtra",
    "Taluk": "Korchi",
    "Districtname": "Gadchiroli",
    "statename": "MAHARASHTRA"
  },
  {
    "pincode": "441209",
    "officename": "Nanhi B.O",
    "officeType": "B.O",
    "Deliverystatus": "Delivery",
    "divisionname": "Chandrapur",
    "regionname": "Nagpur",
    "circlename": "Maharashtra",
    "Taluk": "Korchi",
    "Districtname": "Gadchiroli",
    "statename": "MAHARASHTRA"
  },
  {
    "pincode": "441209",
    "officename": "Palasgad B.O",
    "officeType": "B.O",
    "Deliverystatus": "Delivery",
    "divisionname": "Chandrapur",
    "regionname": "Nagpur",
    "circlename": "Maharashtra",
    "Taluk": "Kurkheda",
    "Districtname": "Gadchiroli",
    "statename": "MAHARASHTRA"
  },
  {
    "pincode": "441209",
    "officename": "Purada B.O",
    "officeType": "B.O",
    "Deliverystatus": "Delivery",
    "divisionname": "Chandrapur",
    "regionname": "Nagpur",
    "circlename": "Maharashtra",
    "Taluk": "Kurkheda",
    "Districtname": "Gadchiroli",
    "statename": "MAHARASHTRA"
  },
  {
    "pincode": "441209",
    "officename": "Ramgarh B.O",
    "officeType": "B.O",
    "Deliverystatus": "Delivery",
    "divisionname": "Chandrapur",
    "regionname": "Nagpur",
    "circlename": "Maharashtra",
    "Taluk": "Kurkheda",
    "Districtname": "Gadchiroli",
    "statename": "MAHARASHTRA"
  },
  {
    "pincode": "441209",
    "officename": "Sonsari B.O",
    "officeType": "B.O",
    "Deliverystatus": "Delivery",
    "divisionname": "Chandrapur",
    "regionname": "Nagpur",
    "circlename": "Maharashtra",
    "Taluk": "Kurkheda",
    "Districtname": "Gadchiroli",
    "statename": "MAHARASHTRA"
  },
  {
    "pincode": "441209",
    "officename": "Sursundi B.O",
    "officeType": "B.O",
    "Deliverystatus": "Delivery",
    "divisionname": "Chandrapur",
    "regionname": "Nagpur",
    "circlename": "Maharashtra",
    "Taluk": "Kurkheda",
    "Districtname": "Gadchiroli",
    "statename": "MAHARASHTRA"
  },
  {
    "pincode": "441209",
    "officename": "Talegaon B.O",
    "officeType": "B.O",
    "Deliverystatus": "Delivery",
    "divisionname": "Chandrapur",
    "regionname": "Nagpur",
    "circlename": "Maharashtra",
    "Taluk": "Kurkheda",
    "Districtname": "Gadchiroli",
    "statename": "MAHARASHTRA"
  },
  {
    "pincode": "441209",
    "officename": "Yengalkheda B.O",
    "officeType": "B.O",
    "Deliverystatus": "Delivery",
    "divisionname": "Chandrapur",
    "regionname": "Nagpur",
    "circlename": "Maharashtra",
    "Taluk": "Kurkheda",
    "Districtname": "Gadchiroli",
    "statename": "MAHARASHTRA"
  }
]
