[
  {
    "pincode": "441224",
    "officename": "Borda B.O",
    "officeType": "B.O",
    "Deliverystatus": "Delivery",
    "divisionname": "Chandrapur",
    "regionname": "Nagpur",
    "circlename": "Maharashtra",
    "Taluk": "Mul",
    "Districtname": "Chandrapur",
    "statename": "MAHARASHTRA"
  },
  {
    "pincode": "441224",
    "officename": "Chichpalli B.O",
    "officeType": "B.O",
    "Deliverystatus": "Delivery",
    "divisionname": "Chandrapur",
    "regionname": "Nagpur",
    "circlename": "Maharashtra",
    "Taluk": "Chandrapur",
    "Districtname": "Chandrapur",
    "statename": "MAHARASHTRA"
  },
  {
    "pincode": "441224",
    "officename": "Chimda B.O",
    "officeType": "B.O",
    "Deliverystatus": "Delivery",
    "divisionname": "Chandrapur",
    "regionname": "Nagpur",
    "circlename": "Maharashtra",
    "Taluk": "Mul",
    "Districtname": "Chandrapur",
    "statename": "MAHARASHTRA"
  },
  {
    "pincode": "441224",
    "officename": "Chinchala B.O",
    "officeType": "B.O",
    "Deliverystatus": "Delivery",
    "divisionname": "Chandrapur",
    "regionname": "Nagpur",
    "circlename": "Maharashtra",
    "Taluk": "Mul",
    "Districtname": "Chandrapur",
    "statename": "MAHARASHTRA"
  },
  {
    "pincode": "441224",
    "officename": "Chiroli B.O",
    "officeType": "B.O",
    "Deliverystatus": "Delivery",
    "divisionname": "Chandrapur",
    "regionname": "Nagpur",
    "circlename": "Maharashtra",
    "Taluk": "Mul",
    "Districtname": "Chandrapur",
    "statename": "MAHARASHTRA"
  },
  {
    "pincode": "441224",
    "officename": "Kolsa B.O",
    "officeType": "B.O",
    "Deliverystatus": "Delivery",
    "divisionname": "Chandrapur",
    "regionname": "Nagpur",
    "circlename": "Maharashtra",
    "Taluk": "Mul",
    "Districtname": "Chandrapur",
    "statename": "MAHARASHTRA"
  },
  {
    "pincode": "441224",
    "officename": "Maroda B.O",
    "officeType": "B.O",
    "Deliverystatus": "Delivery",
    "divisionname": "Chandrapur",
    "regionname": "Nagpur",
    "circlename": "Maharashtra",
    "Taluk": "Mul",
    "Districtname": "Chandrapur",
    "statename": "MAHARASHTRA"
  },
  {
    "pincode": "441224",
    "officename": "Mul S.O",
    "officeType": "S.O",
    "Deliverystatus": "Delivery",
    "divisionname": "Chandrapur",
    "regionname": "Nagpur",
    "circlename": "Maharashtra",
    "Taluk": "Mul",
    "Districtname": "Chandrapur",
    "statename": "MAHARASHTRA"
  },
  {
    "pincode": "441224",
    "officename": "Somnath Prakala B.O",
    "officeType": "B.O",
    "Deliverystatus": "Delivery",
    "divisionname": "Chandrapur",
    "regionname": "Nagpur",
    "circlename": "Maharashtra",
    "Taluk": "Mul",
    "Districtname": "Chandrapur",
    "statename": "MAHARASHTRA"
  }
]
