[
  {
    "pincode": "441222",
    "officename": "Gramsevak Trg B.O",
    "officeType": "B.O",
    "Deliverystatus": "Delivery",
    "divisionname": "Chandrapur",
    "regionname": "Nagpur",
    "circlename": "Maharashtra",
    "Taluk": "Sindewahi",
    "Districtname": "Chandrapur",
    "statename": "MAHARASHTRA"
  },
  {
    "pincode": "441222",
    "officename": "Jamsala B.O",
    "officeType": "B.O",
    "Deliverystatus": "Delivery",
    "divisionname": "Chandrapur",
    "regionname": "Nagpur",
    "circlename": "Maharashtra",
    "Taluk": "Sindewahi",
    "Districtname": "Chandrapur",
    "statename": "MAHARASHTRA"
  },
  {
    "pincode": "441222",
    "officename": "Kalamgaon Ganna B.O",
    "officeType": "B.O",
    "Deliverystatus": "Delivery",
    "divisionname": "Chandrapur",
    "regionname": "Nagpur",
    "circlename": "Maharashtra",
    "Taluk": "Sindewahi",
    "Districtname": "Chandrapur",
    "statename": "MAHARASHTRA"
  },
  {
    "pincode": "441222",
    "officename": "Khatgaon B.O",
    "officeType": "B.O",
    "Deliverystatus": "Delivery",
    "divisionname": "Chandrapur",
    "regionname": "Nagpur",
    "circlename": "Maharashtra",
    "Taluk": "Sindewahi",
    "Districtname": "Chandrapur",
    "statename": "MAHARASHTRA"
  },
  {
    "pincode": "441222",
    "officename": "Kinhi B.O",
    "officeType": "B.O",
    "Deliverystatus": "Delivery",
    "divisionname": "Chandrapur",
    "regionname": "Nagpur",
    "circlename": "Maharashtra",
    "Taluk": "Sindewahi",
    "Districtname": "Chandrapur",
    "statename": "MAHARASHTRA"
  },
  {
    "pincode": "441222",
    "officename": "Ladbori B.O",
    "officeType": "B.O",
    "Deliverystatus": "Delivery",
    "divisionname": "Chandrapur",
    "regionname": "Nagpur",
    "circlename": "Maharashtra",
    "Taluk": "Sindewahi",
    "Districtname": "Chandrapur",
    "statename": "MAHARASHTRA"
  },
  {
    "pincode": "441222",
    "officename": "Mohali Naleshwar B.O",
    "officeType": "B.O",
    "Deliverystatus": "Delivery",
    "divisionname": "Chandrapur",
    "regionname": "Nagpur",
    "circlename": "Maharashtra",
    "Taluk": "Sindewahi",
    "Districtname": "Chandrapur",
    "statename": "MAHARASHTRA"
  },
  {
    "pincode": "441222",
    "officename": "Palasgaon Jat B.O",
    "officeType": "B.O",
    "Deliverystatus": "Delivery",
    "divisionname": "Chandrapur",
    "regionname": "Nagpur",
    "circlename": "Maharashtra",
    "Taluk": "",
    "Districtname": "Chandrapur",
    "statename": "MAHARASHTRA"
  },
  {
    "pincode": "441222",
    "officename": "Sindewahi S.O",
    "officeType": "S.O",
    "Deliverystatus": "Delivery",
    "divisionname": "Chandrapur",
    "regionname": "Nagpur",
    "circlename": "Maharashtra",
    "Taluk": "Sindewahi",
    "Districtname": "Chandrapur",
    "statename": "MAHARASHTRA"
  },
  {
    "pincode": "441222",
    "officename": "Waneri B.O",
    "officeType": "B.O",
    "Deliverystatus": "Delivery",
    "divisionname": "Chandrapur",
    "regionname": "Nagpur",
    "circlename": "Maharashtra",
    "Taluk": "Sindewahi",
    "Districtname": "Chandrapur",
    "statename": "MAHARASHTRA"
  }
]
