[
  {
    "pincode": "441205",
    "officename": "Dongargaon BK B.O",
    "officeType": "B.O",
    "Deliverystatus": "Delivery",
    "divisionname": "Chandrapur",
    "regionname": "Nagpur",
    "circlename": "Maharashtra",
    "Taluk": "Nagbhid",
    "Districtname": "Chandrapur",
    "statename": "MAHARASHTRA"
  },
  {
    "pincode": "441205",
    "officename": "Kanpa B.O",
    "officeType": "B.O",
    "Deliverystatus": "Delivery",
    "divisionname": "Chandrapur",
    "regionname": "Nagpur",
    "circlename": "Maharashtra",
    "Taluk": "Nagbhid",
    "Districtname": "Chandrapur",
    "statename": "MAHARASHTRA"
  },
  {
    "pincode": "441205",
    "officename": "Kotgaon B.O",
    "officeType": "B.O",
    "Deliverystatus": "Delivery",
    "divisionname": "Chandrapur",
    "regionname": "Nagpur",
    "circlename": "Maharashtra",
    "Taluk": "Nagbhid",
    "Districtname": "Chandrapur",
    "statename": "MAHARASHTRA"
  },
  {
    "pincode": "441205",
    "officename": "Mangali Arab B.O",
    "officeType": "B.O",
    "Deliverystatus": "Delivery",
    "divisionname": "Chandrapur",
    "regionname": "Nagpur",
    "circlename": "Maharashtra",
    "Taluk": "Nagbhid",
    "Districtname": "Chandrapur",
    "statename": "MAHARASHTRA"
  },
  {
    "pincode": "441205",
    "officename": "Mindhala B.O",
    "officeType": "B.O",
    "Deliverystatus": "Delivery",
    "divisionname": "Chandrapur",
    "regionname": "Nagpur",
    "circlename": "Maharashtra",
    "Taluk": "Nagbhid",
    "Districtname": "Chandrapur",
    "statename": "MAHARASHTRA"
  },
  {
    "pincode": "441205",
    "officename": "Mohali Mokasa B.O",
    "officeType": "B.O",
    "Deliverystatus": "Delivery",
    "divisionname": "Chandrapur",
    "regionname": "Nagpur",
    "circlename": "Maharashtra",
    "Taluk": "Nagbhid",
    "Districtname": "Chandrapur",
    "statename": "MAHARASHTRA"
  },
  {
    "pincode": "441205",
    "officename": "Nagbhid S.O",
    "officeType": "S.O",
    "Deliverystatus": "Delivery",
    "divisionname": "Chandrapur",
    "regionname": "Nagpur",
    "circlename": "Maharashtra",
    "Taluk": "Nabhid",
    "Districtname": "Chandrapur",
    "statename": "MAHARASHTRA"
  },
  {
    "pincode": "441205",
    "officename": "Navegaon Hundeshwari B.O",
    "officeType": "B.O",
    "Deliverystatus": "Delivery",
    "divisionname": "Chandrapur",
    "regionname": "Nagpur",
    "circlename": "Maharashtra",
    "Taluk": "Nagbhid",
    "Districtname": "Chandrapur",
    "statename": "MAHARASHTRA"
  },
  {
    "pincode": "441205",
    "officename": "Navegaon Pandav B.O",
    "officeType": "B.O",
    "Deliverystatus": "Delivery",
    "divisionname": "Chandrapur",
    "regionname": "Nagpur",
    "circlename": "Maharashtra",
    "Taluk": "Nagbhid",
    "Districtname": "Chandrapur",
    "statename": "MAHARASHTRA"
  },
  {
    "pincode": "441205",
    "officename": "Navkhala B.O",
    "officeType": "B.O",
    "Deliverystatus": "Delivery",
    "divisionname": "Chandrapur",
    "regionname": "Nagpur",
    "circlename": "Maharashtra",
    "Taluk": "Nagbhid",
    "Districtname": "Chandrapur",
    "statename": "MAHARASHTRA"
  },
  {
    "pincode": "441205",
    "officename": "Paharni B.O",
    "officeType": "B.O",
    "Deliverystatus": "Delivery",
    "divisionname": "Chandrapur",
    "regionname": "Nagpur",
    "circlename": "Maharashtra",
    "Taluk": "Nagbhid",
    "Districtname": "Chandrapur",
    "statename": "MAHARASHTRA"
  },
  {
    "pincode": "441205",
    "officename": "Pardi B.O",
    "officeType": "B.O",
    "Deliverystatus": "Delivery",
    "divisionname": "Chandrapur",
    "regionname": "Nagpur",
    "circlename": "Maharashtra",
    "Taluk": "",
    "Districtname": "Chandrapur",
    "statename": "MAHARASHTRA"
  },
  {
    "pincode": "441205",
    "officename": "Vilam B.O",
    "officeType": "B.O",
    "Deliverystatus": "Delivery",
    "divisionname": "Chandrapur",
    "regionname": "Nagpur",
    "circlename": "Maharashtra",
    "Taluk": "Nagbhid",
    "Districtname": "Chandrapur",
    "statename": "MAHARASHTRA"
  }
]
