[
  {
    "pincode": "441401",
    "officename": "Ajni B.O",
    "officeType": "B.O",
    "Deliverystatus": "Delivery",
    "divisionname": "Nagpur Moffusil",
    "regionname": "Nagpur",
    "circlename": "Maharashtra",
    "Taluk": "Kamthi",
    "Districtname": "Nagpur",
    "statename": "MAHARASHTRA"
  },
  {
    "pincode": "441401",
    "officename": "Belda B.O",
    "officeType": "B.O",
    "Deliverystatus": "Delivery",
    "divisionname": "Nagpur Moffusil",
    "regionname": "Nagpur",
    "circlename": "Maharashtra",
    "Taluk": "Ramtek",
    "Districtname": "Nagpur",
    "statename": "MAHARASHTRA"
  },
  {
    "pincode": "441401",
    "officename": "Borda B.O",
    "officeType": "B.O",
    "Deliverystatus": "Delivery",
    "divisionname": "Nagpur Moffusil",
    "regionname": "Nagpur",
    "circlename": "Maharashtra",
    "Taluk": "Ramtek",
    "Districtname": "Nagpur",
    "statename": "MAHARASHTRA"
  },
  {
    "pincode": "441401",
    "officename": "Deolapar B.O",
    "officeType": "B.O",
    "Deliverystatus": "Delivery",
    "divisionname": "Nagpur Moffusil",
    "regionname": "Nagpur",
    "circlename": "Maharashtra",
    "Taluk": "Parseoni",
    "Districtname": "Nagpur",
    "statename": "MAHARASHTRA"
  },
  {
    "pincode": "441401",
    "officename": "Hiwra Bazar B.O",
    "officeType": "B.O",
    "Deliverystatus": "Delivery",
    "divisionname": "Nagpur Moffusil",
    "regionname": "Nagpur",
    "circlename": "Maharashtra",
    "Taluk": "Ramtek",
    "Districtname": "Nagpur",
    "statename": "MAHARASHTRA"
  },
  {
    "pincode": "441401",
    "officename": "Kandri B.O",
    "officeType": "B.O",
    "Deliverystatus": "Delivery",
    "divisionname": "Nagpur Moffusil",
    "regionname": "Nagpur",
    "circlename": "Maharashtra",
    "Taluk": "Ramtek",
    "Districtname": "Nagpur",
    "statename": "MAHARASHTRA"
  },
  {
    "pincode": "441401",
    "officename": "Kanhan Pipri S.O",
    "officeType": "S.O",
    "Deliverystatus": "Delivery",
    "divisionname": "Nagpur Moffusil",
    "regionname": "Nagpur",
    "circlename": "Maharashtra",
    "Taluk": "Parseoni",
    "Districtname": "Nagpur",
    "statename": "MAHARASHTRA"
  },
  {
    "pincode": "441401",
    "officename": "Karwahi B.O",
    "officeType": "B.O",
    "Deliverystatus": "Delivery",
    "divisionname": "Nagpur Moffusil",
    "regionname": "Nagpur",
    "circlename": "Maharashtra",
    "Taluk": "Ramtek",
    "Districtname": "Nagpur",
    "statename": "MAHARASHTRA"
  },
  {
    "pincode": "441401",
    "officename": "Khumari B.O",
    "officeType": "B.O",
    "Deliverystatus": "Delivery",
    "divisionname": "Nagpur Moffusil",
    "regionname": "Nagpur",
    "circlename": "Maharashtra",
    "Taluk": "Ramtek",
    "Districtname": "Nagpur",
    "statename": "MAHARASHTRA"
  },
  {
    "pincode": "441401",
    "officename": "Manegaon Tek B.O",
    "officeType": "B.O",
    "Deliverystatus": "Delivery",
    "divisionname": "Nagpur Moffusil",
    "regionname": "Nagpur",
    "circlename": "Maharashtra",
    "Taluk": "Ramtek",
    "Districtname": "Nagpur",
    "statename": "MAHARASHTRA"
  },
  {
    "pincode": "441401",
    "officename": "Mansar B.O",
    "officeType": "B.O",
    "Deliverystatus": "Delivery",
    "divisionname": "Nagpur Moffusil",
    "regionname": "Nagpur",
    "circlename": "Maharashtra",
    "Taluk": "Parseoni",
    "Districtname": "Nagpur",
    "statename": "MAHARASHTRA"
  },
  {
    "pincode": "441401",
    "officename": "Patharai B.O",
    "officeType": "B.O",
    "Deliverystatus": "Delivery",
    "divisionname": "Nagpur Moffusil",
    "regionname": "Nagpur",
    "circlename": "Maharashtra",
    "Taluk": "Ramtek",
    "Districtname": "Nagpur",
    "statename": "MAHARASHTRA"
  },
  {
    "pincode": "441401",
    "officename": "Pauni B.O",
    "officeType": "B.O",
    "Deliverystatus": "Delivery",
    "divisionname": "Nagpur Moffusil",
    "regionname": "Nagpur",
    "circlename": "Maharashtra",
    "Taluk": "Parseoni",
    "Districtname": "Nagpur",
    "statename": "MAHARASHTRA"
  },
  {
    "pincode": "441401",
    "officename": "Pipariya B.O",
    "officeType": "B.O",
    "Deliverystatus": "Delivery",
    "divisionname": "Nagpur Moffusil",
    "regionname": "Nagpur",
    "circlename": "Maharashtra",
    "Taluk": "Ramtek",
    "Districtname": "Nagpur",
    "statename": "MAHARASHTRA"
  },
  {
    "pincode": "441401",
    "officename": "Ranala B.O",
    "officeType": "B.O",
    "Deliverystatus": "Non-Delivery",
    "divisionname": "Nagpur Moffusil",
    "regionname": "Nagpur",
    "circlename": "Maharashtra",
    "Taluk": "Kamptee",
    "Districtname": "Nagpur",
    "statename": "MAHARASHTRA"
  },
  {
    "pincode": "441401",
    "officename": "Rewral B.O",
    "officeType": "B.O",
    "Deliverystatus": "Delivery",
    "divisionname": "Nagpur Moffusil",
    "regionname": "Nagpur",
    "circlename": "Maharashtra",
    "Taluk": "Mauda",
    "Districtname": "Nagpur",
    "statename": "MAHARASHTRA"
  },
  {
    "pincode": "441401",
    "officename": "Salwa B.O",
    "officeType": "B.O",
    "Deliverystatus": "Delivery",
    "divisionname": "Nagpur Moffusil",
    "regionname": "Nagpur",
    "circlename": "Maharashtra",
    "Taluk": "Mauda",
    "Districtname": "Nagpur",
    "statename": "MAHARASHTRA"
  },
  {
    "pincode": "441401",
    "officename": "Tangla B.O",
    "officeType": "B.O",
    "Deliverystatus": "Delivery",
    "divisionname": "Nagpur Moffusil",
    "regionname": "Nagpur",
    "circlename": "Maharashtra",
    "Taluk": "Ramtek",
    "Districtname": "Nagpur",
    "statename": "MAHARASHTRA"
  },
  {
    "pincode": "441401",
    "officename": "Wadamba B.O",
    "officeType": "B.O",
    "Deliverystatus": "Delivery",
    "divisionname": "Nagpur Moffusil",
    "regionname": "Nagpur",
    "circlename": "Maharashtra",
    "Taluk": "Ramtek",
    "Districtname": "Nagpur",
    "statename": "MAHARASHTRA"
  }
]
