[
  {
    "pincode": "441501",
    "officename": "Bamhni B.O",
    "officeType": "B.O",
    "Deliverystatus": "Delivery",
    "divisionname": "Nagpur Moffusil",
    "regionname": "Nagpur",
    "circlename": "Maharashtra",
    "Taluk": "Kalmeshwar",
    "Districtname": "Nagpur",
    "statename": "MAHARASHTRA"
  },
  {
    "pincode": "441501",
    "officename": "Dhapewada B.O",
    "officeType": "B.O",
    "Deliverystatus": "Delivery",
    "divisionname": "Nagpur Moffusil",
    "regionname": "Nagpur",
    "circlename": "Maharashtra",
    "Taluk": "Kalmeshwar",
    "Districtname": "Nagpur",
    "statename": "MAHARASHTRA"
  },
  {
    "pincode": "441501",
    "officename": "Fetri B.O",
    "officeType": "B.O",
    "Deliverystatus": "Delivery",
    "divisionname": "Nagpur Moffusil",
    "regionname": "Nagpur",
    "circlename": "Maharashtra",
    "Taluk": "Nagpur Rural",
    "Districtname": "Nagpur",
    "statename": "MAHARASHTRA"
  },
  {
    "pincode": "441501",
    "officename": "Ghorad B.O",
    "officeType": "B.O",
    "Deliverystatus": "Delivery",
    "divisionname": "Nagpur Moffusil",
    "regionname": "Nagpur",
    "circlename": "Maharashtra",
    "Taluk": "Kalmeshwar",
    "Districtname": "Nagpur",
    "statename": "MAHARASHTRA"
  },
  {
    "pincode": "441501",
    "officename": "Kalambi B.O",
    "officeType": "B.O",
    "Deliverystatus": "Delivery",
    "divisionname": "Nagpur Moffusil",
    "regionname": "Nagpur",
    "circlename": "Maharashtra",
    "Taluk": "Kalmeshwar",
    "Districtname": "Nagpur",
    "statename": "MAHARASHTRA"
  },
  {
    "pincode": "441501",
    "officename": "Kalmeshwar S.O",
    "officeType": "S.O",
    "Deliverystatus": "Delivery",
    "divisionname": "Nagpur Moffusil",
    "regionname": "Nagpur",
    "circlename": "Maharashtra",
    "Taluk": "Kalmeshwar",
    "Districtname": "Nagpur",
    "statename": "MAHARASHTRA"
  },
  {
    "pincode": "441501",
    "officename": "Mahurzari B.O",
    "officeType": "B.O",
    "Deliverystatus": "Delivery",
    "divisionname": "Nagpur Moffusil",
    "regionname": "Nagpur",
    "circlename": "Maharashtra",
    "Taluk": "Nagpur Rural",
    "Districtname": "Nagpur",
    "statename": "MAHARASHTRA"
  },
  {
    "pincode": "441501",
    "officename": "Midc Kalmeshwar S.O",
    "officeType": "S.O",
    "Deliverystatus": "Non-Delivery",
    "divisionname": "Nagpur Moffusil",
    "regionname": "Nagpur",
    "circlename": "Maharashtra",
    "Taluk": "Kalameshwar",
    "Districtname": "Nagpur",
    "statename": "MAHARASHTRA"
  },
  {
    "pincode": "441501",
    "officename": "Ubali B.O",
    "officeType": "B.O",
    "Deliverystatus": "Delivery",
    "divisionname": "Nagpur Moffusil",
    "regionname": "Nagpur",
    "circlename": "Maharashtra",
    "Taluk": "Kalmeshwar",
    "Districtname": "Nagpur",
    "statename": "MAHARASHTRA"
  },
  {
    "pincode": "441501",
    "officename": "Uparwahi B.O",
    "officeType": "B.O",
    "Deliverystatus": "Delivery",
    "divisionname": "Nagpur Moffusil",
    "regionname": "Nagpur",
    "circlename": "Maharashtra",
    "Taluk": "Kalmeshwar",
    "Districtname": "Nagpur",
    "statename": "MAHARASHTRA"
  },
  {
    "pincode": "441501",
    "officename": "Walni B.O",
    "officeType": "B.O",
    "Deliverystatus": "Delivery",
    "divisionname": "Nagpur Moffusil",
    "regionname": "Nagpur",
    "circlename": "Maharashtra",
    "Taluk": "Kalameshwar",
    "Districtname": "Nagpur",
    "statename": "MAHARASHTRA"
  }
]
