[
  {
    "pincode": "441701",
    "officename": "Arjuni Morgaon S.O",
    "officeType": "S.O",
    "Deliverystatus": "Delivery",
    "divisionname": "Nagpur Moffusil",
    "regionname": "Nagpur",
    "circlename": "Maharashtra",
    "Taluk": "Arjuni Morgaon",
    "Districtname": "Gondia",
    "statename": "MAHARASHTRA"
  },
  {
    "pincode": "441701",
    "officename": "Bakti B.O",
    "officeType": "B.O",
    "Deliverystatus": "Delivery",
    "divisionname": "Nagpur Moffusil",
    "regionname": "Nagpur",
    "circlename": "Maharashtra",
    "Taluk": "Arjuni Morgaon",
    "Districtname": "Gondia",
    "statename": "MAHARASHTRA"
  },
  {
    "pincode": "441701",
    "officename": "Bondgaon Devi B.O",
    "officeType": "B.O",
    "Deliverystatus": "Delivery",
    "divisionname": "Nagpur Moffusil",
    "regionname": "Nagpur",
    "circlename": "Maharashtra",
    "Taluk": "Arjuni Morgaon",
    "Districtname": "Gondia",
    "statename": "MAHARASHTRA"
  },
  {
    "pincode": "441701",
    "officename": "Etikheda B.O",
    "officeType": "B.O",
    "Deliverystatus": "Delivery",
    "divisionname": "Nagpur Moffusil",
    "regionname": "Nagpur",
    "circlename": "Maharashtra",
    "Taluk": "Arjuni Morgaon",
    "Districtname": "Gondia",
    "statename": "MAHARASHTRA"
  },
  {
    "pincode": "441701",
    "officename": "Korambitola B.O",
    "officeType": "B.O",
    "Deliverystatus": "Delivery",
    "divisionname": "Nagpur Moffusil",
    "regionname": "Nagpur",
    "circlename": "Maharashtra",
    "Taluk": "Arjuni Morgaon",
    "Districtname": "Gondia",
    "statename": "MAHARASHTRA"
  },
  {
    "pincode": "441701",
    "officename": "Mohgaon R.S. B.O",
    "officeType": "B.O",
    "Deliverystatus": "Delivery",
    "divisionname": "Nagpur Moffusil",
    "regionname": "Nagpur",
    "circlename": "Maharashtra",
    "Taluk": "Arjuni Morgaon",
    "Districtname": "Gondia",
    "statename": "MAHARASHTRA"
  },
  {
    "pincode": "441701",
    "officename": "Wadegaon R.S. B.O",
    "officeType": "B.O",
    "Deliverystatus": "Delivery",
    "divisionname": "Nagpur Moffusil",
    "regionname": "Nagpur",
    "circlename": "Maharashtra",
    "Taluk": "Arjuni Morgaon",
    "Districtname": "Gondia",
    "statename": "MAHARASHTRA"
  },
  {
    "pincode": "441701",
    "officename": "Zarpada B.O",
    "officeType": "B.O",
    "Deliverystatus": "Delivery",
    "divisionname": "Nagpur Moffusil",
    "regionname": "Nagpur",
    "circlename": "Maharashtra",
    "Taluk": "Arjuni Morgaon",
    "Districtname": "Gondia",
    "statename": "MAHARASHTRA"
  }
]
