[
  {
    "pincode": "441702",
    "officename": "Barabhati B.O",
    "officeType": "B.O",
    "Deliverystatus": "Delivery",
    "divisionname": "Nagpur Moffusil",
    "regionname": "Nagpur",
    "circlename": "Maharashtra",
    "Taluk": "Arjuni Morgaon",
    "Districtname": "Gondia",
    "statename": "MAHARASHTRA"
  },
  {
    "pincode": "441702",
    "officename": "Bhivkhidki B.O",
    "officeType": "B.O",
    "Deliverystatus": "Delivery",
    "divisionname": "Nagpur Moffusil",
    "regionname": "Nagpur",
    "circlename": "Maharashtra",
    "Taluk": "Arjuni Morgaon",
    "Districtname": "Gondia",
    "statename": "MAHARASHTRA"
  },
  {
    "pincode": "441702",
    "officename": "Bondegaon (Surban) B.O",
    "officeType": "B.O",
    "Deliverystatus": "Delivery",
    "divisionname": "Nagpur Moffusil",
    "regionname": "Nagpur",
    "circlename": "Maharashtra",
    "Taluk": "Arjuni Morgaon",
    "Districtname": "Gondia",
    "statename": "MAHARASHTRA"
  },
  {
    "pincode": "441702",
    "officename": "Channa B.O",
    "officeType": "B.O",
    "Deliverystatus": "Delivery",
    "divisionname": "Nagpur Moffusil",
    "regionname": "Nagpur",
    "circlename": "Maharashtra",
    "Taluk": "Arjuni Morgaon",
    "Districtname": "Gondia",
    "statename": "MAHARASHTRA"
  },
  {
    "pincode": "441702",
    "officename": "Dhabetekdi B.O",
    "officeType": "B.O",
    "Deliverystatus": "Delivery",
    "divisionname": "Nagpur Moffusil",
    "regionname": "Nagpur",
    "circlename": "Maharashtra",
    "Taluk": "Arjuni Morgaon",
    "Districtname": "Gondia",
    "statename": "MAHARASHTRA"
  },
  {
    "pincode": "441702",
    "officename": "Ghonadi B.O",
    "officeType": "B.O",
    "Deliverystatus": "Delivery",
    "divisionname": "Nagpur Moffusil",
    "regionname": "Nagpur",
    "circlename": "Maharashtra",
    "Taluk": "Arjuni Morgaon",
    "Districtname": "Gondia",
    "statename": "MAHARASHTRA"
  },
  {
    "pincode": "441702",
    "officename": "Gothangaon B.O",
    "officeType": "B.O",
    "Deliverystatus": "Delivery",
    "divisionname": "Nagpur Moffusil",
    "regionname": "Nagpur",
    "circlename": "Maharashtra",
    "Taluk": "Arjuni Morgaon",
    "Districtname": "Gondia",
    "statename": "MAHARASHTRA"
  },
  {
    "pincode": "441702",
    "officename": "Kesori B.O",
    "officeType": "B.O",
    "Deliverystatus": "Delivery",
    "divisionname": "Nagpur Moffusil",
    "regionname": "Nagpur",
    "circlename": "Maharashtra",
    "Taluk": "Arjuni Morgaon",
    "Districtname": "Gondia",
    "statename": "MAHARASHTRA"
  },
  {
    "pincode": "441702",
    "officename": "Navegaon Bandh S.O",
    "officeType": "S.O",
    "Deliverystatus": "Delivery",
    "divisionname": "Nagpur Moffusil",
    "regionname": "Nagpur",
    "circlename": "Maharashtra",
    "Taluk": "Arjuni Morgaon",
    "Districtname": "Gondia",
    "statename": "MAHARASHTRA"
  },
  {
    "pincode": "441702",
    "officename": "Palandur Zamindari B.O",
    "officeType": "B.O",
    "Deliverystatus": "Delivery",
    "divisionname": "Nagpur Moffusil",
    "regionname": "Nagpur",
    "circlename": "Maharashtra",
    "Taluk": "Arjuni Morgaon",
    "Districtname": "Gondia",
    "statename": "MAHARASHTRA"
  },
  {
    "pincode": "441702",
    "officename": "Palasgaon B.O",
    "officeType": "B.O",
    "Deliverystatus": "Delivery",
    "divisionname": "Nagpur Moffusil",
    "regionname": "Nagpur",
    "circlename": "Maharashtra",
    "Taluk": "Arjuni Morgaon",
    "Districtname": "Gondia",
    "statename": "MAHARASHTRA"
  },
  {
    "pincode": "441702",
    "officename": "Parastola B.O",
    "officeType": "B.O",
    "Deliverystatus": "Delivery",
    "divisionname": "Nagpur Moffusil",
    "regionname": "Nagpur",
    "circlename": "Maharashtra",
    "Taluk": "Arjuni Morgaon",
    "Districtname": "Gondia",
    "statename": "MAHARASHTRA"
  },
  {
    "pincode": "441702",
    "officename": "Parsodi Rayatwadi B.O",
    "officeType": "B.O",
    "Deliverystatus": "Delivery",
    "divisionname": "Nagpur Moffusil",
    "regionname": "Nagpur",
    "circlename": "Maharashtra",
    "Taluk": "Arjuni Morgaon",
    "Districtname": "Gondia",
    "statename": "MAHARASHTRA"
  },
  {
    "pincode": "441702",
    "officename": "Pimpalgaon Khambi B.O",
    "officeType": "B.O",
    "Deliverystatus": "Delivery",
    "divisionname": "Nagpur Moffusil",
    "regionname": "Nagpur",
    "circlename": "Maharashtra",
    "Taluk": "Arjuni Morgaon",
    "Districtname": "Gondia",
    "statename": "MAHARASHTRA"
  },
  {
    "pincode": "441702",
    "officename": "Pratapgarh B.O",
    "officeType": "B.O",
    "Deliverystatus": "Delivery",
    "divisionname": "Nagpur Moffusil",
    "regionname": "Nagpur",
    "circlename": "Maharashtra",
    "Taluk": "Arjuni Morgaon",
    "Districtname": "Gondia",
    "statename": "MAHARASHTRA"
  },
  {
    "pincode": "441702",
    "officename": "Rajori (Bharnoli) B.O",
    "officeType": "B.O",
    "Deliverystatus": "Delivery",
    "divisionname": "Nagpur Moffusil",
    "regionname": "Nagpur",
    "circlename": "Maharashtra",
    "Taluk": "Arjuni Morgaon",
    "Districtname": "Gondia",
    "statename": "MAHARASHTRA"
  },
  {
    "pincode": "441702",
    "officename": "Tukum Narayan B.O",
    "officeType": "B.O",
    "Deliverystatus": "Delivery",
    "divisionname": "Nagpur Moffusil",
    "regionname": "Nagpur",
    "circlename": "Maharashtra",
    "Taluk": "Arjuni Morgaon",
    "Districtname": "Gondia",
    "statename": "MAHARASHTRA"
  }
]
