[
  {
    "pincode": "441802",
    "officename": "Amgaon BK B.O",
    "officeType": "B.O",
    "Deliverystatus": "Delivery",
    "divisionname": "Nagpur Moffusil",
    "regionname": "Nagpur",
    "circlename": "Maharashtra",
    "Taluk": "Sakoli",
    "Districtname": "Bhandara",
    "statename": "MAHARASHTRA"
  },
  {
    "pincode": "441802",
    "officename": "Bampewada B.O",
    "officeType": "B.O",
    "Deliverystatus": "Delivery",
    "divisionname": "Nagpur Moffusil",
    "regionname": "Nagpur",
    "circlename": "Maharashtra",
    "Taluk": "Sakoli",
    "Districtname": "Bhandara",
    "statename": "MAHARASHTRA"
  },
  {
    "pincode": "441802",
    "officename": "Chandori B.O",
    "officeType": "B.O",
    "Deliverystatus": "Delivery",
    "divisionname": "Nagpur Moffusil",
    "regionname": "Nagpur",
    "circlename": "Maharashtra",
    "Taluk": "Sakoli",
    "Districtname": "Bhandara",
    "statename": "MAHARASHTRA"
  },
  {
    "pincode": "441802",
    "officename": "Khandala B.O",
    "officeType": "B.O",
    "Deliverystatus": "Delivery",
    "divisionname": "Nagpur Moffusil",
    "regionname": "Nagpur",
    "circlename": "Maharashtra",
    "Taluk": "Sakoli",
    "Districtname": "Bhandara",
    "statename": "MAHARASHTRA"
  },
  {
    "pincode": "441802",
    "officename": "Kumbhali B.O",
    "officeType": "B.O",
    "Deliverystatus": "Delivery",
    "divisionname": "Nagpur Moffusil",
    "regionname": "Nagpur",
    "circlename": "Maharashtra",
    "Taluk": "Sakoli",
    "Districtname": "Bhandara",
    "statename": "MAHARASHTRA"
  },
  {
    "pincode": "441802",
    "officename": "Lawri Umri B.O",
    "officeType": "B.O",
    "Deliverystatus": "Delivery",
    "divisionname": "Nagpur Moffusil",
    "regionname": "Nagpur",
    "circlename": "Maharashtra",
    "Taluk": "Sakoli",
    "Districtname": "Bhandara",
    "statename": "MAHARASHTRA"
  },
  {
    "pincode": "441802",
    "officename": "Malutola B.O",
    "officeType": "B.O",
    "Deliverystatus": "Delivery",
    "divisionname": "Nagpur Moffusil",
    "regionname": "Nagpur",
    "circlename": "Maharashtra",
    "Taluk": "Sakoli",
    "Districtname": "Bhandara",
    "statename": "MAHARASHTRA"
  },
  {
    "pincode": "441802",
    "officename": "Pindkepar B.O",
    "officeType": "B.O",
    "Deliverystatus": "Delivery",
    "divisionname": "Nagpur Moffusil",
    "regionname": "Nagpur",
    "circlename": "Maharashtra",
    "Taluk": "Sakoli",
    "Districtname": "Bhandara",
    "statename": "MAHARASHTRA"
  },
  {
    "pincode": "441802",
    "officename": "Sakoli S.O",
    "officeType": "S.O",
    "Deliverystatus": "Delivery",
    "divisionname": "Nagpur Moffusil",
    "regionname": "Nagpur",
    "circlename": "Maharashtra",
    "Taluk": "Sakoli",
    "Districtname": "Bhandara",
    "statename": "MAHARASHTRA"
  },
  {
    "pincode": "441802",
    "officename": "Sangadi B.O",
    "officeType": "B.O",
    "Deliverystatus": "Delivery",
    "divisionname": "Nagpur Moffusil",
    "regionname": "Nagpur",
    "circlename": "Maharashtra",
    "Taluk": "Sakoli",
    "Districtname": "Bhandara",
    "statename": "MAHARASHTRA"
  },
  {
    "pincode": "441802",
    "officename": "Sasra B.O",
    "officeType": "B.O",
    "Deliverystatus": "Delivery",
    "divisionname": "Nagpur Moffusil",
    "regionname": "Nagpur",
    "circlename": "Maharashtra",
    "Taluk": "Sakoli",
    "Districtname": "Bhandara",
    "statename": "MAHARASHTRA"
  },
  {
    "pincode": "441802",
    "officename": "Satalwada B.O",
    "officeType": "B.O",
    "Deliverystatus": "Delivery",
    "divisionname": "Nagpur Moffusil",
    "regionname": "Nagpur",
    "circlename": "Maharashtra",
    "Taluk": "Sakoli",
    "Districtname": "Bhandara",
    "statename": "MAHARASHTRA"
  },
  {
    "pincode": "441802",
    "officename": "Sendurwafa B.O",
    "officeType": "B.O",
    "Deliverystatus": "Delivery",
    "divisionname": "Nagpur Moffusil",
    "regionname": "Nagpur",
    "circlename": "Maharashtra",
    "Taluk": "Sakoli",
    "Districtname": "Bhandara",
    "statename": "MAHARASHTRA"
  },
  {
    "pincode": "441802",
    "officename": "Virshi B.O",
    "officeType": "B.O",
    "Deliverystatus": "Delivery",
    "divisionname": "Nagpur Moffusil",
    "regionname": "Nagpur",
    "circlename": "Maharashtra",
    "Taluk": "Sakoli",
    "Districtname": "Bhandara",
    "statename": "MAHARASHTRA"
  },
  {
    "pincode": "441802",
    "officename": "Wadad B.O",
    "officeType": "B.O",
    "Deliverystatus": "Delivery",
    "divisionname": "Nagpur Moffusil",
    "regionname": "Nagpur",
    "circlename": "Maharashtra",
    "Taluk": "Sakoli",
    "Districtname": "Bhandara",
    "statename": "MAHARASHTRA"
  },
  {
    "pincode": "441802",
    "officename": "Yekodi (Sakoli) B.O",
    "officeType": "B.O",
    "Deliverystatus": "Delivery",
    "divisionname": "Nagpur Moffusil",
    "regionname": "Nagpur",
    "circlename": "Maharashtra",
    "Taluk": "Sakoli",
    "Districtname": "Bhandara",
    "statename": "MAHARASHTRA"
  }
]
