[
  {
    "pincode": "441801",
    "officename": "Bhasgaon B.O",
    "officeType": "B.O",
    "Deliverystatus": "Delivery",
    "divisionname": "Nagpur Moffusil",
    "regionname": "Nagpur",
    "circlename": "Maharashtra",
    "Taluk": "Goregaon",
    "Districtname": "Gondia",
    "statename": "MAHARASHTRA"
  },
  {
    "pincode": "441801",
    "officename": "Gankhaira B.O",
    "officeType": "B.O",
    "Deliverystatus": "Delivery",
    "divisionname": "Nagpur Moffusil",
    "regionname": "Nagpur",
    "circlename": "Maharashtra",
    "Taluk": "Goregaon",
    "Districtname": "Gondia",
    "statename": "MAHARASHTRA"
  },
  {
    "pincode": "441801",
    "officename": "Ghoti B.O",
    "officeType": "B.O",
    "Deliverystatus": "Delivery",
    "divisionname": "Nagpur Moffusil",
    "regionname": "Nagpur",
    "circlename": "Maharashtra",
    "Taluk": "Goregaon",
    "Districtname": "Gondia",
    "statename": "MAHARASHTRA"
  },
  {
    "pincode": "441801",
    "officename": "Gidhadi B.O",
    "officeType": "B.O",
    "Deliverystatus": "Delivery",
    "divisionname": "Nagpur Moffusil",
    "regionname": "Nagpur",
    "circlename": "Maharashtra",
    "Taluk": "Goregaon",
    "Districtname": "Gondia",
    "statename": "MAHARASHTRA"
  },
  {
    "pincode": "441801",
    "officename": "Goregaon S.O (Gondia)",
    "officeType": "S.O",
    "Deliverystatus": "Delivery",
    "divisionname": "Nagpur Moffusil",
    "regionname": "Nagpur",
    "circlename": "Maharashtra",
    "Taluk": "Goregaon",
    "Districtname": "Gondia",
    "statename": "MAHARASHTRA"
  },
  {
    "pincode": "441801",
    "officename": "Hirapur B.O",
    "officeType": "B.O",
    "Deliverystatus": "Delivery",
    "divisionname": "Nagpur Moffusil",
    "regionname": "Nagpur",
    "circlename": "Maharashtra",
    "Taluk": "Goregaon",
    "Districtname": "Gondia",
    "statename": "MAHARASHTRA"
  },
  {
    "pincode": "441801",
    "officename": "Hirdamali B.O",
    "officeType": "B.O",
    "Deliverystatus": "Delivery",
    "divisionname": "Nagpur Moffusil",
    "regionname": "Nagpur",
    "circlename": "Maharashtra",
    "Taluk": "Goregaon",
    "Districtname": "Gondia",
    "statename": "MAHARASHTRA"
  },
  {
    "pincode": "441801",
    "officename": "Kalimati B.O",
    "officeType": "B.O",
    "Deliverystatus": "Delivery",
    "divisionname": "Nagpur Moffusil",
    "regionname": "Nagpur",
    "circlename": "Maharashtra",
    "Taluk": "Goregaon",
    "Districtname": "Gondia",
    "statename": "MAHARASHTRA"
  },
  {
    "pincode": "441801",
    "officename": "Katangi BK B.O",
    "officeType": "B.O",
    "Deliverystatus": "Delivery",
    "divisionname": "Nagpur Moffusil",
    "regionname": "Nagpur",
    "circlename": "Maharashtra",
    "Taluk": "Goregaon",
    "Districtname": "Gondia",
    "statename": "MAHARASHTRA"
  },
  {
    "pincode": "441801",
    "officename": "Khodseoni B.O",
    "officeType": "B.O",
    "Deliverystatus": "Delivery",
    "divisionname": "Nagpur Moffusil",
    "regionname": "Nagpur",
    "circlename": "Maharashtra",
    "Taluk": "Goregaon",
    "Districtname": "Gondia",
    "statename": "MAHARASHTRA"
  },
  {
    "pincode": "441801",
    "officename": "Kosamthondi B.O",
    "officeType": "B.O",
    "Deliverystatus": "Delivery",
    "divisionname": "Nagpur Moffusil",
    "regionname": "Nagpur",
    "circlename": "Maharashtra",
    "Taluk": "Goregaon",
    "Districtname": "Gondia",
    "statename": "MAHARASHTRA"
  },
  {
    "pincode": "441801",
    "officename": "Kurhadi B.O",
    "officeType": "B.O",
    "Deliverystatus": "Delivery",
    "divisionname": "Nagpur Moffusil",
    "regionname": "Nagpur",
    "circlename": "Maharashtra",
    "Taluk": "Goregaon",
    "Districtname": "Gondia",
    "statename": "MAHARASHTRA"
  },
  {
    "pincode": "441801",
    "officename": "Mundipar (Ishwar) B.O",
    "officeType": "B.O",
    "Deliverystatus": "Delivery",
    "divisionname": "Nagpur Moffusil",
    "regionname": "Nagpur",
    "circlename": "Maharashtra",
    "Taluk": "Goregaon",
    "Districtname": "Gondia",
    "statename": "MAHARASHTRA"
  },
  {
    "pincode": "441801",
    "officename": "Pandhari B.O",
    "officeType": "B.O",
    "Deliverystatus": "Delivery",
    "divisionname": "Nagpur Moffusil",
    "regionname": "Nagpur",
    "circlename": "Maharashtra",
    "Taluk": "Goregaon",
    "Districtname": "Gondia",
    "statename": "MAHARASHTRA"
  },
  {
    "pincode": "441801",
    "officename": "Pathri (Gondia) B.O",
    "officeType": "B.O",
    "Deliverystatus": "Delivery",
    "divisionname": "Nagpur Moffusil",
    "regionname": "Nagpur",
    "circlename": "Maharashtra",
    "Taluk": "Goregaon",
    "Districtname": "Gondia",
    "statename": "MAHARASHTRA"
  },
  {
    "pincode": "441801",
    "officename": "Soni B.O",
    "officeType": "B.O",
    "Deliverystatus": "Delivery",
    "divisionname": "Nagpur Moffusil",
    "regionname": "Nagpur",
    "circlename": "Maharashtra",
    "Taluk": "Goregaon",
    "Districtname": "Gondia",
    "statename": "MAHARASHTRA"
  },
  {
    "pincode": "441801",
    "officename": "Timezari B.O",
    "officeType": "B.O",
    "Deliverystatus": "Delivery",
    "divisionname": "Nagpur Moffusil",
    "regionname": "Nagpur",
    "circlename": "Maharashtra",
    "Taluk": "Goregaon",
    "Districtname": "Gondia",
    "statename": "MAHARASHTRA"
  }
]
