[
  {
    "pincode": "441809",
    "officename": "Bhugaon B.O",
    "officeType": "B.O",
    "Deliverystatus": "Delivery",
    "divisionname": "Nagpur Moffusil",
    "regionname": "Nagpur",
    "circlename": "Maharashtra",
    "Taluk": "Lakhni",
    "Districtname": "Bhandara",
    "statename": "MAHARASHTRA"
  },
  {
    "pincode": "441809",
    "officename": "Channa B.O",
    "officeType": "B.O",
    "Deliverystatus": "Delivery",
    "divisionname": "Nagpur Moffusil",
    "regionname": "Nagpur",
    "circlename": "Maharashtra",
    "Taluk": "Lakhni",
    "Districtname": "Bhandara",
    "statename": "MAHARASHTRA"
  },
  {
    "pincode": "441809",
    "officename": "Gurdha B.O",
    "officeType": "B.O",
    "Deliverystatus": "Delivery",
    "divisionname": "Nagpur Moffusil",
    "regionname": "Nagpur",
    "circlename": "Maharashtra",
    "Taluk": "Lakhni",
    "Districtname": "Bhandara",
    "statename": "MAHARASHTRA"
  },
  {
    "pincode": "441809",
    "officename": "Kanheri B.O",
    "officeType": "B.O",
    "Deliverystatus": "Delivery",
    "divisionname": "Nagpur Moffusil",
    "regionname": "Nagpur",
    "circlename": "Maharashtra",
    "Taluk": "Lakhni",
    "Districtname": "Bhandara",
    "statename": "MAHARASHTRA"
  },
  {
    "pincode": "441809",
    "officename": "Kolari B.O",
    "officeType": "B.O",
    "Deliverystatus": "Delivery",
    "divisionname": "Nagpur Moffusil",
    "regionname": "Nagpur",
    "circlename": "Maharashtra",
    "Taluk": "Lakhni",
    "Districtname": "Bhandara",
    "statename": "MAHARASHTRA"
  },
  {
    "pincode": "441809",
    "officename": "Miregaon B.O",
    "officeType": "B.O",
    "Deliverystatus": "Delivery",
    "divisionname": "Nagpur Moffusil",
    "regionname": "Nagpur",
    "circlename": "Maharashtra",
    "Taluk": "Lakhni",
    "Districtname": "Bhandara",
    "statename": "MAHARASHTRA"
  },
  {
    "pincode": "441809",
    "officename": "Murmadi B.O",
    "officeType": "B.O",
    "Deliverystatus": "Delivery",
    "divisionname": "Nagpur Moffusil",
    "regionname": "Nagpur",
    "circlename": "Maharashtra",
    "Taluk": "Lakhni",
    "Districtname": "Bhandara",
    "statename": "MAHARASHTRA"
  },
  {
    "pincode": "441809",
    "officename": "Palandur(Chauras) B.O",
    "officeType": "B.O",
    "Deliverystatus": "Delivery",
    "divisionname": "Nagpur Moffusil",
    "regionname": "Nagpur",
    "circlename": "Maharashtra",
    "Taluk": "Lakhni",
    "Districtname": "Bhandara",
    "statename": "MAHARASHTRA"
  },
  {
    "pincode": "441809",
    "officename": "Pohra S.O",
    "officeType": "S.O",
    "Deliverystatus": "Delivery",
    "divisionname": "Nagpur Moffusil",
    "regionname": "Nagpur",
    "circlename": "Maharashtra",
    "Taluk": "Lakhni",
    "Districtname": "Bhandara",
    "statename": "MAHARASHTRA"
  },
  {
    "pincode": "441809",
    "officename": "Seloti B.O",
    "officeType": "B.O",
    "Deliverystatus": "Delivery",
    "divisionname": "Nagpur Moffusil",
    "regionname": "Nagpur",
    "circlename": "Maharashtra",
    "Taluk": "Lakhni",
    "Districtname": "Bhandara",
    "statename": "MAHARASHTRA"
  },
  {
    "pincode": "441809",
    "officename": "Shioni B.O",
    "officeType": "B.O",
    "Deliverystatus": "Delivery",
    "divisionname": "Nagpur Moffusil",
    "regionname": "Nagpur",
    "circlename": "Maharashtra",
    "Taluk": "Lakhni",
    "Districtname": "Bhandara",
    "statename": "MAHARASHTRA"
  }
]
