[
  {
    "pincode": "441924",
    "officename": "Chandori B.O",
    "officeType": "B.O",
    "Deliverystatus": "Delivery",
    "divisionname": "Nagpur Moffusil",
    "regionname": "Nagpur",
    "circlename": "Maharashtra",
    "Taluk": "Bhandara",
    "Districtname": "Bhandara",
    "statename": "MAHARASHTRA"
  },
  {
    "pincode": "441924",
    "officename": "Dawadipar B.O",
    "officeType": "B.O",
    "Deliverystatus": "Delivery",
    "divisionname": "Nagpur Moffusil",
    "regionname": "Nagpur",
    "circlename": "Maharashtra",
    "Taluk": "Bhandara",
    "Districtname": "Bhandara",
    "statename": "MAHARASHTRA"
  },
  {
    "pincode": "441924",
    "officename": "Kardha B.O",
    "officeType": "B.O",
    "Deliverystatus": "Delivery",
    "divisionname": "Nagpur Moffusil",
    "regionname": "Nagpur",
    "circlename": "Maharashtra",
    "Taluk": "Bhandara",
    "Districtname": "Bhandara",
    "statename": "MAHARASHTRA"
  },
  {
    "pincode": "441924",
    "officename": "Manegaon B.O",
    "officeType": "B.O",
    "Deliverystatus": "Delivery",
    "divisionname": "Nagpur Moffusil",
    "regionname": "Nagpur",
    "circlename": "Maharashtra",
    "Taluk": "Bhandara",
    "Districtname": "Bhandara",
    "statename": "MAHARASHTRA"
  },
  {
    "pincode": "441924",
    "officename": "Matora B.O",
    "officeType": "B.O",
    "Deliverystatus": "Delivery",
    "divisionname": "Nagpur Moffusil",
    "regionname": "Nagpur",
    "circlename": "Maharashtra",
    "Taluk": "Bhandara",
    "Districtname": "Bhandara",
    "statename": "MAHARASHTRA"
  },
  {
    "pincode": "441924",
    "officename": "Minshi B.O",
    "officeType": "B.O",
    "Deliverystatus": "Delivery",
    "divisionname": "Nagpur Moffusil",
    "regionname": "Nagpur",
    "circlename": "Maharashtra",
    "Taluk": "Bhandara",
    "Districtname": "Bhandara",
    "statename": "MAHARASHTRA"
  },
  {
    "pincode": "441924",
    "officename": "Pahela S.O",
    "officeType": "S.O",
    "Deliverystatus": "Delivery",
    "divisionname": "Nagpur Moffusil",
    "regionname": "Nagpur",
    "circlename": "Maharashtra",
    "Taluk": "Bhandara",
    "Districtname": "Bhandara",
    "statename": "MAHARASHTRA"
  },
  {
    "pincode": "441924",
    "officename": "Silli B.O",
    "officeType": "B.O",
    "Deliverystatus": "Delivery",
    "divisionname": "Nagpur Moffusil",
    "regionname": "Nagpur",
    "circlename": "Maharashtra",
    "Taluk": "Bhandara",
    "Districtname": "Bhandara",
    "statename": "MAHARASHTRA"
  }
]
