[
  {
    "pincode": "441902",
    "officename": "Amgaon S.O",
    "officeType": "S.O",
    "Deliverystatus": "Delivery",
    "divisionname": "Nagpur Moffusil",
    "regionname": "Nagpur",
    "circlename": "Maharashtra",
    "Taluk": "Amgaon",
    "Districtname": "Gondia",
    "statename": "MAHARASHTRA"
  },
  {
    "pincode": "441902",
    "officename": "Anjora B.O",
    "officeType": "B.O",
    "Deliverystatus": "Delivery",
    "divisionname": "Nagpur Moffusil",
    "regionname": "Nagpur",
    "circlename": "Maharashtra",
    "Taluk": "Amgaon",
    "Districtname": "Gondia",
    "statename": "MAHARASHTRA"
  },
  {
    "pincode": "441902",
    "officename": "Bijepar B.O",
    "officeType": "B.O",
    "Deliverystatus": "Delivery",
    "divisionname": "Nagpur Moffusil",
    "regionname": "Nagpur",
    "circlename": "Maharashtra",
    "Taluk": "Amgaon",
    "Districtname": "Gondia",
    "statename": "MAHARASHTRA"
  },
  {
    "pincode": "441902",
    "officename": "Borkanhar B.O",
    "officeType": "B.O",
    "Deliverystatus": "Delivery",
    "divisionname": "Nagpur Moffusil",
    "regionname": "Nagpur",
    "circlename": "Maharashtra",
    "Taluk": "Amgaon",
    "Districtname": "Gondia",
    "statename": "MAHARASHTRA"
  },
  {
    "pincode": "441902",
    "officename": "Kalimati B.O",
    "officeType": "B.O",
    "Deliverystatus": "Delivery",
    "divisionname": "Nagpur Moffusil",
    "regionname": "Nagpur",
    "circlename": "Maharashtra",
    "Taluk": "Amgaon",
    "Districtname": "Gondia",
    "statename": "MAHARASHTRA"
  },
  {
    "pincode": "441902",
    "officename": "Kattipar B.O",
    "officeType": "B.O",
    "Deliverystatus": "Delivery",
    "divisionname": "Nagpur Moffusil",
    "regionname": "Nagpur",
    "circlename": "Maharashtra",
    "Taluk": "Amgaon",
    "Districtname": "Gondia",
    "statename": "MAHARASHTRA"
  },
  {
    "pincode": "441902",
    "officename": "Kotra B.O",
    "officeType": "B.O",
    "Deliverystatus": "Delivery",
    "divisionname": "Nagpur Moffusil",
    "regionname": "Nagpur",
    "circlename": "Maharashtra",
    "Taluk": "Amgaon",
    "Districtname": "Gondia",
    "statename": "MAHARASHTRA"
  },
  {
    "pincode": "441902",
    "officename": "Lohara B.O",
    "officeType": "B.O",
    "Deliverystatus": "Delivery",
    "divisionname": "Nagpur Moffusil",
    "regionname": "Nagpur",
    "circlename": "Maharashtra",
    "Taluk": "Amgaon",
    "Districtname": "Gondia",
    "statename": "MAHARASHTRA"
  },
  {
    "pincode": "441902",
    "officename": "Makkatola B.O",
    "officeType": "B.O",
    "Deliverystatus": "Delivery",
    "divisionname": "Nagpur Moffusil",
    "regionname": "Nagpur",
    "circlename": "Maharashtra",
    "Taluk": "Amgaon",
    "Districtname": "Gondia",
    "statename": "MAHARASHTRA"
  },
  {
    "pincode": "441902",
    "officename": "Pandharwani B.O",
    "officeType": "B.O",
    "Deliverystatus": "Delivery",
    "divisionname": "Nagpur Moffusil",
    "regionname": "Nagpur",
    "circlename": "Maharashtra",
    "Taluk": "Amgaon",
    "Districtname": "Gondia",
    "statename": "MAHARASHTRA"
  },
  {
    "pincode": "441902",
    "officename": "Phukimeta B.O",
    "officeType": "B.O",
    "Deliverystatus": "Delivery",
    "divisionname": "Nagpur Moffusil",
    "regionname": "Nagpur",
    "circlename": "Maharashtra",
    "Taluk": "Amgaon",
    "Districtname": "Gondia",
    "statename": "MAHARASHTRA"
  },
  {
    "pincode": "441902",
    "officename": "Purada B.O",
    "officeType": "B.O",
    "Deliverystatus": "Delivery",
    "divisionname": "Nagpur Moffusil",
    "regionname": "Nagpur",
    "circlename": "Maharashtra",
    "Taluk": "Amgaon",
    "Districtname": "Gondia",
    "statename": "MAHARASHTRA"
  },
  {
    "pincode": "441902",
    "officename": "Saoli Dongargaon B.O",
    "officeType": "B.O",
    "Deliverystatus": "Delivery",
    "divisionname": "Nagpur Moffusil",
    "regionname": "Nagpur",
    "circlename": "Maharashtra",
    "Taluk": "Amgaon",
    "Districtname": "Gondia",
    "statename": "MAHARASHTRA"
  },
  {
    "pincode": "441902",
    "officename": "Sarkartola B.O",
    "officeType": "B.O",
    "Deliverystatus": "Delivery",
    "divisionname": "Nagpur Moffusil",
    "regionname": "Nagpur",
    "circlename": "Maharashtra",
    "Taluk": "Amgaon",
    "Districtname": "Gondia",
    "statename": "MAHARASHTRA"
  },
  {
    "pincode": "441902",
    "officename": "Satgaon B.O",
    "officeType": "B.O",
    "Deliverystatus": "Delivery",
    "divisionname": "Nagpur Moffusil",
    "regionname": "Nagpur",
    "circlename": "Maharashtra",
    "Taluk": "Amgaon",
    "Districtname": "Gondia",
    "statename": "MAHARASHTRA"
  },
  {
    "pincode": "441902",
    "officename": "Suplipar B.O",
    "officeType": "B.O",
    "Deliverystatus": "Delivery",
    "divisionname": "Nagpur Moffusil",
    "regionname": "Nagpur",
    "circlename": "Maharashtra",
    "Taluk": "Amgaon",
    "Districtname": "Gondia",
    "statename": "MAHARASHTRA"
  },
  {
    "pincode": "441902",
    "officename": "Thana B.O",
    "officeType": "B.O",
    "Deliverystatus": "Delivery",
    "divisionname": "Nagpur Moffusil",
    "regionname": "Nagpur",
    "circlename": "Maharashtra",
    "Taluk": "Amgaon",
    "Districtname": "Gondia",
    "statename": "MAHARASHTRA"
  },
  {
    "pincode": "441902",
    "officename": "Tigaon B.O",
    "officeType": "B.O",
    "Deliverystatus": "Delivery",
    "divisionname": "Nagpur Moffusil",
    "regionname": "Nagpur",
    "circlename": "Maharashtra",
    "Taluk": "Amgoan",
    "Districtname": "Gondia",
    "statename": "MAHARASHTRA"
  }
]
