[
  {
    "pincode": "442203",
    "officename": "Chincholi B.O",
    "officeType": "B.O",
    "Deliverystatus": "Delivery",
    "divisionname": "Wardha",
    "regionname": "Nagpur",
    "circlename": "Maharashtra",
    "Taluk": "Karanja",
    "Districtname": "Wardha",
    "statename": "MAHARASHTRA"
  },
  {
    "pincode": "442203",
    "officename": "Dhanoli B.O",
    "officeType": "B.O",
    "Deliverystatus": "Delivery",
    "divisionname": "Wardha",
    "regionname": "Nagpur",
    "circlename": "Maharashtra",
    "Taluk": "Karanja",
    "Districtname": "Wardha",
    "statename": "MAHARASHTRA"
  },
  {
    "pincode": "442203",
    "officename": "Junapani B.O",
    "officeType": "B.O",
    "Deliverystatus": "Delivery",
    "divisionname": "Wardha",
    "regionname": "Nagpur",
    "circlename": "Maharashtra",
    "Taluk": "Karanja",
    "Districtname": "Wardha",
    "statename": "MAHARASHTRA"
  },
  {
    "pincode": "442203",
    "officename": "Kajali B.O",
    "officeType": "B.O",
    "Deliverystatus": "Delivery",
    "divisionname": "Wardha",
    "regionname": "Nagpur",
    "circlename": "Maharashtra",
    "Taluk": "Karanja",
    "Districtname": "Wardha",
    "statename": "MAHARASHTRA"
  },
  {
    "pincode": "442203",
    "officename": "Kakda B.O",
    "officeType": "B.O",
    "Deliverystatus": "Delivery",
    "divisionname": "Wardha",
    "regionname": "Nagpur",
    "circlename": "Maharashtra",
    "Taluk": "Karanja",
    "Districtname": "Wardha",
    "statename": "MAHARASHTRA"
  },
  {
    "pincode": "442203",
    "officename": "Kannamwargram B.O",
    "officeType": "B.O",
    "Deliverystatus": "Delivery",
    "divisionname": "Wardha",
    "regionname": "Nagpur",
    "circlename": "Maharashtra",
    "Taluk": "Karanja",
    "Districtname": "Wardha",
    "statename": "MAHARASHTRA"
  },
  {
    "pincode": "442203",
    "officename": "Karanja S.O (Wardha)",
    "officeType": "S.O",
    "Deliverystatus": "Delivery",
    "divisionname": "Wardha",
    "regionname": "Nagpur",
    "circlename": "Maharashtra",
    "Taluk": "Karanja",
    "Districtname": "Wardha",
    "statename": "MAHARASHTRA"
  },
  {
    "pincode": "442203",
    "officename": "Nara B.O",
    "officeType": "B.O",
    "Deliverystatus": "Delivery",
    "divisionname": "Wardha",
    "regionname": "Nagpur",
    "circlename": "Maharashtra",
    "Taluk": "Karanja",
    "Districtname": "Wardha",
    "statename": "MAHARASHTRA"
  },
  {
    "pincode": "442203",
    "officename": "Sawali Khurd B.O",
    "officeType": "B.O",
    "Deliverystatus": "Delivery",
    "divisionname": "Wardha",
    "regionname": "Nagpur",
    "circlename": "Maharashtra",
    "Taluk": "Karanja",
    "Districtname": "Wardha",
    "statename": "MAHARASHTRA"
  },
  {
    "pincode": "442203",
    "officename": "Sindi Vihiri B.O",
    "officeType": "B.O",
    "Deliverystatus": "Delivery",
    "divisionname": "Wardha",
    "regionname": "Nagpur",
    "circlename": "Maharashtra",
    "Taluk": "Karanja",
    "Districtname": "Wardha",
    "statename": "MAHARASHTRA"
  },
  {
    "pincode": "442203",
    "officename": "Thanegaon B.O",
    "officeType": "B.O",
    "Deliverystatus": "Delivery",
    "divisionname": "Wardha",
    "regionname": "Nagpur",
    "circlename": "Maharashtra",
    "Taluk": "Karanja",
    "Districtname": "Wardha",
    "statename": "MAHARASHTRA"
  },
  {
    "pincode": "442203",
    "officename": "Umri B.O",
    "officeType": "B.O",
    "Deliverystatus": "Delivery",
    "divisionname": "Wardha",
    "regionname": "Nagpur",
    "circlename": "Maharashtra",
    "Taluk": "Karanja",
    "Districtname": "Wardha",
    "statename": "MAHARASHTRA"
  }
]
