[
  {
    "pincode": "442504",
    "officename": "Ankisa B.O",
    "officeType": "B.O",
    "Deliverystatus": "Delivery",
    "divisionname": "Chandrapur",
    "regionname": "Nagpur",
    "circlename": "Maharashtra",
    "Taluk": "Sironcha",
    "Districtname": "Gadchiroli",
    "statename": "MAHARASHTRA"
  },
  {
    "pincode": "442504",
    "officename": "Arda B.O",
    "officeType": "B.O",
    "Deliverystatus": "Delivery",
    "divisionname": "Chandrapur",
    "regionname": "Nagpur",
    "circlename": "Maharashtra",
    "Taluk": "Sironcha",
    "Districtname": "Gadchiroli",
    "statename": "MAHARASHTRA"
  },
  {
    "pincode": "442504",
    "officename": "Asaralli B.O",
    "officeType": "B.O",
    "Deliverystatus": "Delivery",
    "divisionname": "Chandrapur",
    "regionname": "Nagpur",
    "circlename": "Maharashtra",
    "Taluk": "Sironcha",
    "Districtname": "Gadchiroli",
    "statename": "MAHARASHTRA"
  },
  {
    "pincode": "442504",
    "officename": "Bamni B.O",
    "officeType": "B.O",
    "Deliverystatus": "Delivery",
    "divisionname": "Chandrapur",
    "regionname": "Nagpur",
    "circlename": "Maharashtra",
    "Taluk": "Sironcha",
    "Districtname": "Gadchiroli",
    "statename": "MAHARASHTRA"
  },
  {
    "pincode": "442504",
    "officename": "Janampalli B.O",
    "officeType": "B.O",
    "Deliverystatus": "Delivery",
    "divisionname": "Chandrapur",
    "regionname": "Nagpur",
    "circlename": "Maharashtra",
    "Taluk": "Sironcha",
    "Districtname": "Chandrapur",
    "statename": "MAHARASHTRA"
  },
  {
    "pincode": "442504",
    "officename": "Jinganur B.O",
    "officeType": "B.O",
    "Deliverystatus": "Delivery",
    "divisionname": "Chandrapur",
    "regionname": "Nagpur",
    "circlename": "Maharashtra",
    "Taluk": "Sironcha",
    "Districtname": "Gadchiroli",
    "statename": "MAHARASHTRA"
  },
  {
    "pincode": "442504",
    "officename": "Korla Mal B.O",
    "officeType": "B.O",
    "Deliverystatus": "Delivery",
    "divisionname": "Chandrapur",
    "regionname": "Nagpur",
    "circlename": "Maharashtra",
    "Taluk": "Sironcha",
    "Districtname": "Gadchiroli",
    "statename": "MAHARASHTRA"
  },
  {
    "pincode": "442504",
    "officename": "Moyabinpetta B.O",
    "officeType": "B.O",
    "Deliverystatus": "Delivery",
    "divisionname": "Chandrapur",
    "regionname": "Nagpur",
    "circlename": "Maharashtra",
    "Taluk": "Sironcha",
    "Districtname": "Gadchiroli",
    "statename": "MAHARASHTRA"
  },
  {
    "pincode": "442504",
    "officename": "Nagram B.O",
    "officeType": "B.O",
    "Deliverystatus": "Delivery",
    "divisionname": "Chandrapur",
    "regionname": "Nagpur",
    "circlename": "Maharashtra",
    "Taluk": "Sironcha",
    "Districtname": "Gadchiroli",
    "statename": "MAHARASHTRA"
  },
  {
    "pincode": "442504",
    "officename": "Narayanpur B.O",
    "officeType": "B.O",
    "Deliverystatus": "Delivery",
    "divisionname": "Chandrapur",
    "regionname": "Nagpur",
    "circlename": "Maharashtra",
    "Taluk": "Sironcha",
    "Districtname": "Gadchiroli",
    "statename": "MAHARASHTRA"
  },
  {
    "pincode": "442504",
    "officename": "Rangaapalli B.O",
    "officeType": "B.O",
    "Deliverystatus": "Delivery",
    "divisionname": "Chandrapur",
    "regionname": "Nagpur",
    "circlename": "Maharashtra",
    "Taluk": "Sironcha",
    "Districtname": "Gadchiroli",
    "statename": "MAHARASHTRA"
  },
  {
    "pincode": "442504",
    "officename": "Regunta B.O",
    "officeType": "B.O",
    "Deliverystatus": "Delivery",
    "divisionname": "Chandrapur",
    "regionname": "Nagpur",
    "circlename": "Maharashtra",
    "Taluk": "Sironcha",
    "Districtname": "Gadchiroli",
    "statename": "MAHARASHTRA"
  },
  {
    "pincode": "442504",
    "officename": "Sironcha Mal B.O",
    "officeType": "B.O",
    "Deliverystatus": "Delivery",
    "divisionname": "Chandrapur",
    "regionname": "Nagpur",
    "circlename": "Maharashtra",
    "Taluk": "Sironcha",
    "Districtname": "Gadchiroli",
    "statename": "MAHARASHTRA"
  },
  {
    "pincode": "442504",
    "officename": "Sironcha S.O",
    "officeType": "S.O",
    "Deliverystatus": "Delivery",
    "divisionname": "Chandrapur",
    "regionname": "Nagpur",
    "circlename": "Maharashtra",
    "Taluk": "Sironcha",
    "Districtname": "Gadchiroli",
    "statename": "MAHARASHTRA"
  },
  {
    "pincode": "442504",
    "officename": "Tekada B.O",
    "officeType": "B.O",
    "Deliverystatus": "Delivery",
    "divisionname": "Chandrapur",
    "regionname": "Nagpur",
    "circlename": "Maharashtra",
    "Taluk": "Sironcha",
    "Districtname": "Gadchiroli",
    "statename": "MAHARASHTRA"
  }
]
