[
  {
    "pincode": "442605",
    "officename": "Ambeshioni B.O",
    "officeType": "B.O",
    "Deliverystatus": "Delivery",
    "divisionname": "Chandrapur",
    "regionname": "Nagpur",
    "circlename": "Maharashtra",
    "Taluk": "Gadchiroli",
    "Districtname": "Gadchiroli",
    "statename": "MAHARASHTRA"
  },
  {
    "pincode": "442605",
    "officename": "Amirza B.O",
    "officeType": "B.O",
    "Deliverystatus": "Delivery",
    "divisionname": "Chandrapur",
    "regionname": "Nagpur",
    "circlename": "Maharashtra",
    "Taluk": "Gadchiroli",
    "Districtname": "Gadchiroli",
    "statename": "MAHARASHTRA"
  },
  {
    "pincode": "442605",
    "officename": "Bamni B.O",
    "officeType": "B.O",
    "Deliverystatus": "Delivery",
    "divisionname": "Chandrapur",
    "regionname": "Nagpur",
    "circlename": "Maharashtra",
    "Taluk": "Sironcha",
    "Districtname": "Gadchiroli",
    "statename": "MAHARASHTRA"
  },
  {
    "pincode": "442605",
    "officename": "Bodhali B.O",
    "officeType": "B.O",
    "Deliverystatus": "Delivery",
    "divisionname": "Chandrapur",
    "regionname": "Nagpur",
    "circlename": "Maharashtra",
    "Taluk": "Gadchiroli",
    "Districtname": "Gadchiroli",
    "statename": "MAHARASHTRA"
  },
  {
    "pincode": "442605",
    "officename": "Churchura B.O",
    "officeType": "B.O",
    "Deliverystatus": "Delivery",
    "divisionname": "Chandrapur",
    "regionname": "Nagpur",
    "circlename": "Maharashtra",
    "Taluk": "Gadchiroli",
    "Districtname": "Gadchiroli",
    "statename": "MAHARASHTRA"
  },
  {
    "pincode": "442605",
    "officename": "Deloda B.O",
    "officeType": "B.O",
    "Deliverystatus": "Delivery",
    "divisionname": "Chandrapur",
    "regionname": "Nagpur",
    "circlename": "Maharashtra",
    "Taluk": "Gadchiroli",
    "Districtname": "Gadchiroli",
    "statename": "MAHARASHTRA"
  },
  {
    "pincode": "442605",
    "officename": "Gadchiroli Coll S.O",
    "officeType": "S.O",
    "Deliverystatus": "Non-Delivery",
    "divisionname": "Chandrapur",
    "regionname": "Nagpur",
    "circlename": "Maharashtra",
    "Taluk": "Gadchiroli",
    "Districtname": "Gadchiroli",
    "statename": "MAHARASHTRA"
  },
  {
    "pincode": "442605",
    "officename": "Gadchiroli S.O",
    "officeType": "S.O",
    "Deliverystatus": "Delivery",
    "divisionname": "Chandrapur",
    "regionname": "Nagpur",
    "circlename": "Maharashtra",
    "Taluk": "Gadchiroli",
    "Districtname": "Gadchiroli",
    "statename": "MAHARASHTRA"
  },
  {
    "pincode": "442605",
    "officename": "Gogaon B.O",
    "officeType": "B.O",
    "Deliverystatus": "Delivery",
    "divisionname": "Chandrapur",
    "regionname": "Nagpur",
    "circlename": "Maharashtra",
    "Taluk": "",
    "Districtname": "Chandrapur",
    "statename": "MAHARASHTRA"
  },
  {
    "pincode": "442605",
    "officename": "Guruwala B.O",
    "officeType": "B.O",
    "Deliverystatus": "Delivery",
    "divisionname": "Chandrapur",
    "regionname": "Nagpur",
    "circlename": "Maharashtra",
    "Taluk": "Gadchiroli",
    "Districtname": "Gadchiroli",
    "statename": "MAHARASHTRA"
  },
  {
    "pincode": "442605",
    "officename": "Jambhali B.O",
    "officeType": "B.O",
    "Deliverystatus": "Delivery",
    "divisionname": "Chandrapur",
    "regionname": "Nagpur",
    "circlename": "Maharashtra",
    "Taluk": "Gadchiroli",
    "Districtname": "Gadchiroli",
    "statename": "MAHARASHTRA"
  },
  {
    "pincode": "442605",
    "officename": "Jepra B.O",
    "officeType": "B.O",
    "Deliverystatus": "Delivery",
    "divisionname": "Chandrapur",
    "regionname": "Nagpur",
    "circlename": "Maharashtra",
    "Taluk": "Gadchiroli",
    "Districtname": "Gadchiroli",
    "statename": "MAHARASHTRA"
  },
  {
    "pincode": "442605",
    "officename": "Kaneri B.O",
    "officeType": "B.O",
    "Deliverystatus": "Delivery",
    "divisionname": "Chandrapur",
    "regionname": "Nagpur",
    "circlename": "Maharashtra",
    "Taluk": "Gadchiroli",
    "Districtname": "Gadchiroli",
    "statename": "MAHARASHTRA"
  },
  {
    "pincode": "442605",
    "officename": "Maushi Khamb B.O",
    "officeType": "B.O",
    "Deliverystatus": "Delivery",
    "divisionname": "Chandrapur",
    "regionname": "Nagpur",
    "circlename": "Maharashtra",
    "Taluk": "Gadchiroli",
    "Districtname": "Gadchiroli",
    "statename": "MAHARASHTRA"
  },
  {
    "pincode": "442605",
    "officename": "Mudza B.O",
    "officeType": "B.O",
    "Deliverystatus": "Delivery",
    "divisionname": "Chandrapur",
    "regionname": "Nagpur",
    "circlename": "Maharashtra",
    "Taluk": "Gadchiroli",
    "Districtname": "Gadchiroli",
    "statename": "MAHARASHTRA"
  },
  {
    "pincode": "442605",
    "officename": "Murmadi B.O",
    "officeType": "B.O",
    "Deliverystatus": "Delivery",
    "divisionname": "Chandrapur",
    "regionname": "Nagpur",
    "circlename": "Maharashtra",
    "Taluk": "Gadchiroli",
    "Districtname": "Gadchiroli",
    "statename": "MAHARASHTRA"
  },
  {
    "pincode": "442605",
    "officename": "Nagrinavegaon B.O",
    "officeType": "B.O",
    "Deliverystatus": "Delivery",
    "divisionname": "Chandrapur",
    "regionname": "Nagpur",
    "circlename": "Maharashtra",
    "Taluk": "Gadchiroli",
    "Districtname": "Gadchiroli",
    "statename": "MAHARASHTRA"
  },
  {
    "pincode": "442605",
    "officename": "Pardikupi B.O",
    "officeType": "B.O",
    "Deliverystatus": "Delivery",
    "divisionname": "Chandrapur",
    "regionname": "Nagpur",
    "circlename": "Maharashtra",
    "Taluk": "Gadchiroli",
    "Districtname": "Gadchiroli",
    "statename": "MAHARASHTRA"
  },
  {
    "pincode": "442605",
    "officename": "Porla B.O",
    "officeType": "B.O",
    "Deliverystatus": "Delivery",
    "divisionname": "Chandrapur",
    "regionname": "Nagpur",
    "circlename": "Maharashtra",
    "Taluk": "Gadchiroli",
    "Districtname": "Gadchiroli",
    "statename": "MAHARASHTRA"
  },
  {
    "pincode": "442605",
    "officename": "Sakhara B.O",
    "officeType": "B.O",
    "Deliverystatus": "Delivery",
    "divisionname": "Chandrapur",
    "regionname": "Nagpur",
    "circlename": "Maharashtra",
    "Taluk": "Gadchiroli",
    "Districtname": "Gadchiroli",
    "statename": "MAHARASHTRA"
  },
  {
    "pincode": "442605",
    "officename": "Wadadha B.O",
    "officeType": "B.O",
    "Deliverystatus": "Delivery",
    "divisionname": "Chandrapur",
    "regionname": "Nagpur",
    "circlename": "Maharashtra",
    "Taluk": "Gadchiroli",
    "Districtname": "Gadchiroli",
    "statename": "MAHARASHTRA"
  },
  {
    "pincode": "442605",
    "officename": "Wasa B.O",
    "officeType": "B.O",
    "Deliverystatus": "Delivery",
    "divisionname": "Chandrapur",
    "regionname": "Nagpur",
    "circlename": "Maharashtra",
    "Taluk": "Gadchiroli",
    "Districtname": "Gadchiroli",
    "statename": "MAHARASHTRA"
  },
  {
    "pincode": "442605",
    "officename": "Yeoli B.O",
    "officeType": "B.O",
    "Deliverystatus": "Delivery",
    "divisionname": "Chandrapur",
    "regionname": "Nagpur",
    "circlename": "Maharashtra",
    "Taluk": "Gadchiroli",
    "Districtname": "Gadchiroli",
    "statename": "MAHARASHTRA"
  }
]
