[
  {
    "pincode": "442702",
    "officename": "Aksapur B.O",
    "officeType": "B.O",
    "Deliverystatus": "Delivery",
    "divisionname": "Chandrapur",
    "regionname": "Nagpur",
    "circlename": "Maharashtra",
    "Taluk": "Gondipipri",
    "Districtname": "Chandrapur",
    "statename": "MAHARASHTRA"
  },
  {
    "pincode": "442702",
    "officename": "Borgaon B.O",
    "officeType": "B.O",
    "Deliverystatus": "Delivery",
    "divisionname": "Chandrapur",
    "regionname": "Nagpur",
    "circlename": "Maharashtra",
    "Taluk": "Gondipipri",
    "Districtname": "Chandrapur",
    "statename": "MAHARASHTRA"
  },
  {
    "pincode": "442702",
    "officename": "Chakdarur B.O",
    "officeType": "B.O",
    "Deliverystatus": "Delivery",
    "divisionname": "Chandrapur",
    "regionname": "Nagpur",
    "circlename": "Maharashtra",
    "Taluk": "Gondpipri",
    "Districtname": "Chandrapur",
    "statename": "MAHARASHTRA"
  },
  {
    "pincode": "442702",
    "officename": "Chintaldhaba B.O",
    "officeType": "B.O",
    "Deliverystatus": "Delivery",
    "divisionname": "Chandrapur",
    "regionname": "Nagpur",
    "circlename": "Maharashtra",
    "Taluk": "Gondipipri",
    "Districtname": "Chandrapur",
    "statename": "MAHARASHTRA"
  },
  {
    "pincode": "442702",
    "officename": "Dhaba B.O",
    "officeType": "B.O",
    "Deliverystatus": "Delivery",
    "divisionname": "Chandrapur",
    "regionname": "Nagpur",
    "circlename": "Maharashtra",
    "Taluk": "Gondpipri",
    "Districtname": "Chandrapur",
    "statename": "MAHARASHTRA"
  },
  {
    "pincode": "442702",
    "officename": "Dhamangaon B.O",
    "officeType": "B.O",
    "Deliverystatus": "Delivery",
    "divisionname": "Chandrapur",
    "regionname": "Nagpur",
    "circlename": "Maharashtra",
    "Taluk": "Gondipipri",
    "Districtname": "Chandrapur",
    "statename": "MAHARASHTRA"
  },
  {
    "pincode": "442702",
    "officename": "Ghatkul B.O",
    "officeType": "B.O",
    "Deliverystatus": "Delivery",
    "divisionname": "Chandrapur",
    "regionname": "Nagpur",
    "circlename": "Maharashtra",
    "Taluk": "Gondpipri",
    "Districtname": "Chandrapur",
    "statename": "MAHARASHTRA"
  },
  {
    "pincode": "442702",
    "officename": "Gojoli Maktha B.O",
    "officeType": "B.O",
    "Deliverystatus": "Delivery",
    "divisionname": "Chandrapur",
    "regionname": "Nagpur",
    "circlename": "Maharashtra",
    "Taluk": "Gondipipri",
    "Districtname": "Chandrapur",
    "statename": "MAHARASHTRA"
  },
  {
    "pincode": "442702",
    "officename": "Gondpipri S.O",
    "officeType": "S.O",
    "Deliverystatus": "Delivery",
    "divisionname": "Chandrapur",
    "regionname": "Nagpur",
    "circlename": "Maharashtra",
    "Taluk": "Gondpipri",
    "Districtname": "Chandrapur",
    "statename": "MAHARASHTRA"
  },
  {
    "pincode": "442702",
    "officename": "Karanji B.O",
    "officeType": "B.O",
    "Deliverystatus": "Delivery",
    "divisionname": "Chandrapur",
    "regionname": "Nagpur",
    "circlename": "Maharashtra",
    "Taluk": "Gondpipri",
    "Districtname": "Chandrapur",
    "statename": "MAHARASHTRA"
  },
  {
    "pincode": "442702",
    "officename": "Lathi B.O",
    "officeType": "B.O",
    "Deliverystatus": "Delivery",
    "divisionname": "Chandrapur",
    "regionname": "Nagpur",
    "circlename": "Maharashtra",
    "Taluk": "Gondipipri",
    "Districtname": "Chandrapur",
    "statename": "MAHARASHTRA"
  },
  {
    "pincode": "442702",
    "officename": "Likithwada B.O",
    "officeType": "B.O",
    "Deliverystatus": "Delivery",
    "divisionname": "Chandrapur",
    "regionname": "Nagpur",
    "circlename": "Maharashtra",
    "Taluk": "Gondpipri",
    "Districtname": "Chandrapur",
    "statename": "MAHARASHTRA"
  },
  {
    "pincode": "442702",
    "officename": "Nawegaon More B.O",
    "officeType": "B.O",
    "Deliverystatus": "Delivery",
    "divisionname": "Chandrapur",
    "regionname": "Nagpur",
    "circlename": "Maharashtra",
    "Taluk": "Gondipipri",
    "Districtname": "Chandrapur",
    "statename": "MAHARASHTRA"
  },
  {
    "pincode": "442702",
    "officename": "Sonapur Deshpande B.O",
    "officeType": "B.O",
    "Deliverystatus": "Delivery",
    "divisionname": "Chandrapur",
    "regionname": "Nagpur",
    "circlename": "Maharashtra",
    "Taluk": "Gondpipri",
    "Districtname": "Chandrapur",
    "statename": "MAHARASHTRA"
  },
  {
    "pincode": "442702",
    "officename": "Talodhi Bhangaram B.O",
    "officeType": "B.O",
    "Deliverystatus": "Delivery",
    "divisionname": "Chandrapur",
    "regionname": "Nagpur",
    "circlename": "Maharashtra",
    "Taluk": "Gondpipri",
    "Districtname": "Chandrapur",
    "statename": "MAHARASHTRA"
  },
  {
    "pincode": "442702",
    "officename": "Vithalwada B.O",
    "officeType": "B.O",
    "Deliverystatus": "Delivery",
    "divisionname": "Chandrapur",
    "regionname": "Nagpur",
    "circlename": "Maharashtra",
    "Taluk": "Gondpipri",
    "Districtname": "Chandrapur",
    "statename": "MAHARASHTRA"
  },
  {
    "pincode": "442702",
    "officename": "Wadholi B.O",
    "officeType": "B.O",
    "Deliverystatus": "Delivery",
    "divisionname": "Chandrapur",
    "regionname": "Nagpur",
    "circlename": "Maharashtra",
    "Taluk": "Gondpipri",
    "Districtname": "Chandrapur",
    "statename": "MAHARASHTRA"
  },
  {
    "pincode": "442702",
    "officename": "Wadkuli B.O",
    "officeType": "B.O",
    "Deliverystatus": "Delivery",
    "divisionname": "Chandrapur",
    "regionname": "Nagpur",
    "circlename": "Maharashtra",
    "Taluk": "Gondpipri",
    "Districtname": "Chandrapur",
    "statename": "MAHARASHTRA"
  }
]
