[
  {
    "pincode": "442709",
    "officename": "Challewada B.O",
    "officeType": "B.O",
    "Deliverystatus": "Delivery",
    "divisionname": "Chandrapur",
    "regionname": "Nagpur",
    "circlename": "Maharashtra",
    "Taluk": "Aheri",
    "Districtname": "Gadchiroli",
    "statename": "MAHARASHTRA"
  },
  {
    "pincode": "442709",
    "officename": "Dechalipeta B.O",
    "officeType": "B.O",
    "Deliverystatus": "Delivery",
    "divisionname": "Chandrapur",
    "regionname": "Nagpur",
    "circlename": "Maharashtra",
    "Taluk": "Aheri",
    "Districtname": "Gadchiroli",
    "statename": "MAHARASHTRA"
  },
  {
    "pincode": "442709",
    "officename": "Dhamrancha B.O",
    "officeType": "B.O",
    "Deliverystatus": "Delivery",
    "divisionname": "Chandrapur",
    "regionname": "Nagpur",
    "circlename": "Maharashtra",
    "Taluk": "Aheri",
    "Districtname": "Gadchiroli",
    "statename": "MAHARASHTRA"
  },
  {
    "pincode": "442709",
    "officename": "Gudigudam B.O",
    "officeType": "B.O",
    "Deliverystatus": "Delivery",
    "divisionname": "Chandrapur",
    "regionname": "Nagpur",
    "circlename": "Maharashtra",
    "Taluk": "Aheri",
    "Districtname": "Gadchiroli",
    "statename": "MAHARASHTRA"
  },
  {
    "pincode": "442709",
    "officename": "Jimalgatta B.O",
    "officeType": "B.O",
    "Deliverystatus": "Delivery",
    "divisionname": "Chandrapur",
    "regionname": "Nagpur",
    "circlename": "Maharashtra",
    "Taluk": "Sironcha",
    "Districtname": "Gadchiroli",
    "statename": "MAHARASHTRA"
  },
  {
    "pincode": "442709",
    "officename": "Kamlapur S.O (Gadchiroli)",
    "officeType": "S.O",
    "Deliverystatus": "Delivery",
    "divisionname": "Chandrapur",
    "regionname": "Nagpur",
    "circlename": "Maharashtra",
    "Taluk": "Aheri",
    "Districtname": "Gadchiroli",
    "statename": "MAHARASHTRA"
  },
  {
    "pincode": "442709",
    "officename": "Marpalli B.O",
    "officeType": "B.O",
    "Deliverystatus": "Delivery",
    "divisionname": "Chandrapur",
    "regionname": "Nagpur",
    "circlename": "Maharashtra",
    "Taluk": "Aheri",
    "Districtname": "Gadchiroli",
    "statename": "MAHARASHTRA"
  },
  {
    "pincode": "442709",
    "officename": "Rajaram B.O",
    "officeType": "B.O",
    "Deliverystatus": "Delivery",
    "divisionname": "Chandrapur",
    "regionname": "Nagpur",
    "circlename": "Maharashtra",
    "Taluk": "Aheri",
    "Districtname": "Gadchiroli",
    "statename": "MAHARASHTRA"
  }
]
