[
  {
    "pincode": "442905",
    "officename": "Aheri B.O",
    "officeType": "B.O",
    "Deliverystatus": "Delivery",
    "divisionname": "Chandrapur",
    "regionname": "Nagpur",
    "circlename": "Maharashtra",
    "Taluk": "Rajura",
    "Districtname": "Chandrapur",
    "statename": "MAHARASHTRA"
  },
  {
    "pincode": "442905",
    "officename": "Arvi B.O",
    "officeType": "B.O",
    "Deliverystatus": "Delivery",
    "divisionname": "Chandrapur",
    "regionname": "Nagpur",
    "circlename": "Maharashtra",
    "Taluk": "Rajura",
    "Districtname": "Chandrapur",
    "statename": "MAHARASHTRA"
  },
  {
    "pincode": "442905",
    "officename": "Bhedoda B.O",
    "officeType": "B.O",
    "Deliverystatus": "Delivery",
    "divisionname": "Chandrapur",
    "regionname": "Nagpur",
    "circlename": "Maharashtra",
    "Taluk": "Rajura",
    "Districtname": "Chandrapur",
    "statename": "MAHARASHTRA"
  },
  {
    "pincode": "442905",
    "officename": "Chandanwahi B.O",
    "officeType": "B.O",
    "Deliverystatus": "Delivery",
    "divisionname": "Chandrapur",
    "regionname": "Nagpur",
    "circlename": "Maharashtra",
    "Taluk": "Rajura",
    "Districtname": "Chandrapur",
    "statename": "MAHARASHTRA"
  },
  {
    "pincode": "442905",
    "officename": "Charli B.O",
    "officeType": "B.O",
    "Deliverystatus": "Delivery",
    "divisionname": "Chandrapur",
    "regionname": "Nagpur",
    "circlename": "Maharashtra",
    "Taluk": "Rajura",
    "Districtname": "Chandrapur",
    "statename": "MAHARASHTRA"
  },
  {
    "pincode": "442905",
    "officename": "Chincholi B.O",
    "officeType": "B.O",
    "Deliverystatus": "Delivery",
    "divisionname": "Chandrapur",
    "regionname": "Nagpur",
    "circlename": "Maharashtra",
    "Taluk": "Rajura",
    "Districtname": "Chandrapur",
    "statename": "MAHARASHTRA"
  },
  {
    "pincode": "442905",
    "officename": "Chunala B.O",
    "officeType": "B.O",
    "Deliverystatus": "Delivery",
    "divisionname": "Chandrapur",
    "regionname": "Nagpur",
    "circlename": "Maharashtra",
    "Taluk": "Rajura",
    "Districtname": "Chandrapur",
    "statename": "MAHARASHTRA"
  },
  {
    "pincode": "442905",
    "officename": "Dewada B.O",
    "officeType": "B.O",
    "Deliverystatus": "Delivery",
    "divisionname": "Chandrapur",
    "regionname": "Nagpur",
    "circlename": "Maharashtra",
    "Taluk": "Rajura",
    "Districtname": "Chandrapur",
    "statename": "MAHARASHTRA"
  },
  {
    "pincode": "442905",
    "officename": "Gowari B.O",
    "officeType": "B.O",
    "Deliverystatus": "Delivery",
    "divisionname": "Chandrapur",
    "regionname": "Nagpur",
    "circlename": "Maharashtra",
    "Taluk": "Rajura",
    "Districtname": "Chandrapur",
    "statename": "MAHARASHTRA"
  },
  {
    "pincode": "442905",
    "officename": "Kadholi B.O",
    "officeType": "B.O",
    "Deliverystatus": "Delivery",
    "divisionname": "Chandrapur",
    "regionname": "Nagpur",
    "circlename": "Maharashtra",
    "Taluk": "Rajura",
    "Districtname": "Chandrapur",
    "statename": "MAHARASHTRA"
  },
  {
    "pincode": "442905",
    "officename": "Lakhadkot B.O",
    "officeType": "B.O",
    "Deliverystatus": "Delivery",
    "divisionname": "Chandrapur",
    "regionname": "Nagpur",
    "circlename": "Maharashtra",
    "Taluk": "Rajura",
    "Districtname": "Chandrapur",
    "statename": "MAHARASHTRA"
  },
  {
    "pincode": "442905",
    "officename": "Nalfadi B.O",
    "officeType": "B.O",
    "Deliverystatus": "Delivery",
    "divisionname": "Chandrapur",
    "regionname": "Nagpur",
    "circlename": "Maharashtra",
    "Taluk": "Rajura",
    "Districtname": "Chandrapur",
    "statename": "MAHARASHTRA"
  },
  {
    "pincode": "442905",
    "officename": "Pachgaon B.O",
    "officeType": "B.O",
    "Deliverystatus": "Delivery",
    "divisionname": "Chandrapur",
    "regionname": "Nagpur",
    "circlename": "Maharashtra",
    "Taluk": "Rajura",
    "Districtname": "Chandrapur",
    "statename": "MAHARASHTRA"
  },
  {
    "pincode": "442905",
    "officename": "Pandharpauni B.O",
    "officeType": "B.O",
    "Deliverystatus": "Delivery",
    "divisionname": "Chandrapur",
    "regionname": "Nagpur",
    "circlename": "Maharashtra",
    "Taluk": "Rajura",
    "Districtname": "Chandrapur",
    "statename": "MAHARASHTRA"
  },
  {
    "pincode": "442905",
    "officename": "Rajura (M) S.O",
    "officeType": "S.O",
    "Deliverystatus": "Delivery",
    "divisionname": "Chandrapur",
    "regionname": "Nagpur",
    "circlename": "Maharashtra",
    "Taluk": "Rajura",
    "Districtname": "Chandrapur",
    "statename": "MAHARASHTRA"
  },
  {
    "pincode": "442905",
    "officename": "Sakhari B.O",
    "officeType": "B.O",
    "Deliverystatus": "Delivery",
    "divisionname": "Chandrapur",
    "regionname": "Nagpur",
    "circlename": "Maharashtra",
    "Taluk": "Rajura",
    "Districtname": "Chandrapur",
    "statename": "MAHARASHTRA"
  },
  {
    "pincode": "442905",
    "officename": "Sasti B.O",
    "officeType": "B.O",
    "Deliverystatus": "Delivery",
    "divisionname": "Chandrapur",
    "regionname": "Nagpur",
    "circlename": "Maharashtra",
    "Taluk": "Rajura",
    "Districtname": "Chandrapur",
    "statename": "MAHARASHTRA"
  },
  {
    "pincode": "442905",
    "officename": "Sindhi B.O",
    "officeType": "B.O",
    "Deliverystatus": "Delivery",
    "divisionname": "Chandrapur",
    "regionname": "Nagpur",
    "circlename": "Maharashtra",
    "Taluk": "Rajura",
    "Districtname": "Chandrapur",
    "statename": "MAHARASHTRA"
  },
  {
    "pincode": "442905",
    "officename": "Sondo B.O",
    "officeType": "B.O",
    "Deliverystatus": "Delivery",
    "divisionname": "Chandrapur",
    "regionname": "Nagpur",
    "circlename": "Maharashtra",
    "Taluk": "Rajura",
    "Districtname": "Chandrapur",
    "statename": "MAHARASHTRA"
  },
  {
    "pincode": "442905",
    "officename": "Subai B.O",
    "officeType": "B.O",
    "Deliverystatus": "Delivery",
    "divisionname": "Chandrapur",
    "regionname": "Nagpur",
    "circlename": "Maharashtra",
    "Taluk": "Rajura",
    "Districtname": "Chandrapur",
    "statename": "MAHARASHTRA"
  },
  {
    "pincode": "442905",
    "officename": "Tembhuwahi B.O",
    "officeType": "B.O",
    "Deliverystatus": "Delivery",
    "divisionname": "Chandrapur",
    "regionname": "Nagpur",
    "circlename": "Maharashtra",
    "Taluk": "Rajura",
    "Districtname": "Chandrapur",
    "statename": "MAHARASHTRA"
  },
  {
    "pincode": "442905",
    "officename": "Vihirgaon B.O",
    "officeType": "B.O",
    "Deliverystatus": "Delivery",
    "divisionname": "Chandrapur",
    "regionname": "Nagpur",
    "circlename": "Maharashtra",
    "Taluk": "Rajura",
    "Districtname": "Chandrapur",
    "statename": "MAHARASHTRA"
  },
  {
    "pincode": "442905",
    "officename": "Vir R.S. B.O",
    "officeType": "B.O",
    "Deliverystatus": "Delivery",
    "divisionname": "Chandrapur",
    "regionname": "Nagpur",
    "circlename": "Maharashtra",
    "Taluk": "Rajura",
    "Districtname": "Chandrapur",
    "statename": "MAHARASHTRA"
  },
  {
    "pincode": "442905",
    "officename": "Warud Road B.O",
    "officeType": "B.O",
    "Deliverystatus": "Delivery",
    "divisionname": "Chandrapur",
    "regionname": "Nagpur",
    "circlename": "Maharashtra",
    "Taluk": "Rajura",
    "Districtname": "Chandrapur",
    "statename": "MAHARASHTRA"
  },
  {
    "pincode": "442905",
    "officename": "Yergawhan (Dewada) B.O",
    "officeType": "B.O",
    "Deliverystatus": "Delivery",
    "divisionname": "Chandrapur",
    "regionname": "Nagpur",
    "circlename": "Maharashtra",
    "Taluk": "Rajura",
    "Districtname": "Chandrapur",
    "statename": "MAHARASHTRA"
  }
]
