[
  {
    "pincode": "443103",
    "officename": "Advihir B.O",
    "officeType": "B.O",
    "Deliverystatus": "Delivery",
    "divisionname": "Buldana",
    "regionname": "Nagpur",
    "circlename": "Maharashtra",
    "Taluk": "Motala",
    "Districtname": "Buldhana",
    "statename": "MAHARASHTRA"
  },
  {
    "pincode": "443103",
    "officename": "Borakhedi B.O",
    "officeType": "B.O",
    "Deliverystatus": "Delivery",
    "divisionname": "Buldana",
    "regionname": "Nagpur",
    "circlename": "Maharashtra",
    "Taluk": "Motala",
    "Districtname": "Buldhana",
    "statename": "MAHARASHTRA"
  },
  {
    "pincode": "443103",
    "officename": "Jaipur B.O",
    "officeType": "B.O",
    "Deliverystatus": "Delivery",
    "divisionname": "Buldana",
    "regionname": "Nagpur",
    "circlename": "Maharashtra",
    "Taluk": "Motala",
    "Districtname": "Buldhana",
    "statename": "MAHARASHTRA"
  },
  {
    "pincode": "443103",
    "officename": "Khaira B.O",
    "officeType": "B.O",
    "Deliverystatus": "Delivery",
    "divisionname": "Buldana",
    "regionname": "Nagpur",
    "circlename": "Maharashtra",
    "Taluk": "Motala",
    "Districtname": "Buldhana",
    "statename": "MAHARASHTRA"
  },
  {
    "pincode": "443103",
    "officename": "Kharbadi B.O",
    "officeType": "B.O",
    "Deliverystatus": "Delivery",
    "divisionname": "Buldana",
    "regionname": "Nagpur",
    "circlename": "Maharashtra",
    "Taluk": "Motala",
    "Districtname": "Buldhana",
    "statename": "MAHARASHTRA"
  },
  {
    "pincode": "443103",
    "officename": "Kothali B.O",
    "officeType": "B.O",
    "Deliverystatus": "Delivery",
    "divisionname": "Buldana",
    "regionname": "Nagpur",
    "circlename": "Maharashtra",
    "Taluk": "Motala",
    "Districtname": "Buldhana",
    "statename": "MAHARASHTRA"
  },
  {
    "pincode": "443103",
    "officename": "Motala S.O",
    "officeType": "S.O",
    "Deliverystatus": "Delivery",
    "divisionname": "Buldana",
    "regionname": "Nagpur",
    "circlename": "Maharashtra",
    "Taluk": "Motala",
    "Districtname": "Buldhana",
    "statename": "MAHARASHTRA"
  },
  {
    "pincode": "443103",
    "officename": "Nimkhed B.O",
    "officeType": "B.O",
    "Deliverystatus": "Delivery",
    "divisionname": "Buldana",
    "regionname": "Nagpur",
    "circlename": "Maharashtra",
    "Taluk": "Motala",
    "Districtname": "Buldhana",
    "statename": "MAHARASHTRA"
  },
  {
    "pincode": "443103",
    "officename": "Rajur B.O",
    "officeType": "B.O",
    "Deliverystatus": "Delivery",
    "divisionname": "Buldana",
    "regionname": "Nagpur",
    "circlename": "Maharashtra",
    "Taluk": "Motala",
    "Districtname": "Buldhana",
    "statename": "MAHARASHTRA"
  },
  {
    "pincode": "443103",
    "officename": "Rohinkhed B.O",
    "officeType": "B.O",
    "Deliverystatus": "Delivery",
    "divisionname": "Buldana",
    "regionname": "Nagpur",
    "circlename": "Maharashtra",
    "Taluk": "",
    "Districtname": "Buldhana",
    "statename": "MAHARASHTRA"
  },
  {
    "pincode": "443103",
    "officename": "Shemba B.O",
    "officeType": "B.O",
    "Deliverystatus": "Delivery",
    "divisionname": "Buldana",
    "regionname": "Nagpur",
    "circlename": "Maharashtra",
    "Taluk": "Motala",
    "Districtname": "Buldhana",
    "statename": "MAHARASHTRA"
  },
  {
    "pincode": "443103",
    "officename": "Takarkhed B.O",
    "officeType": "B.O",
    "Deliverystatus": "Delivery",
    "divisionname": "Buldana",
    "regionname": "Nagpur",
    "circlename": "Maharashtra",
    "Taluk": "Motala",
    "Districtname": "Buldhana",
    "statename": "MAHARASHTRA"
  }
]
