[
  {
    "pincode": "443201",
    "officename": "Ambashi B.O",
    "officeType": "B.O",
    "Deliverystatus": "Delivery",
    "divisionname": "Buldana",
    "regionname": "Nagpur",
    "circlename": "Maharashtra",
    "Taluk": "Deulgaon Raja",
    "Districtname": "Buldhana",
    "statename": "MAHARASHTRA"
  },
  {
    "pincode": "443201",
    "officename": "Ancharwadi B.O",
    "officeType": "B.O",
    "Deliverystatus": "Delivery",
    "divisionname": "Buldana",
    "regionname": "Nagpur",
    "circlename": "Maharashtra",
    "Taluk": "Deulgaon Raja",
    "Districtname": "Buldhana",
    "statename": "MAHARASHTRA"
  },
  {
    "pincode": "443201",
    "officename": "Andhera B.O",
    "officeType": "B.O",
    "Deliverystatus": "Delivery",
    "divisionname": "Buldana",
    "regionname": "Nagpur",
    "circlename": "Maharashtra",
    "Taluk": "Deulgaon Raja",
    "Districtname": "Buldhana",
    "statename": "MAHARASHTRA"
  },
  {
    "pincode": "443201",
    "officename": "Antri Khedekar B.O",
    "officeType": "B.O",
    "Deliverystatus": "Delivery",
    "divisionname": "Buldana",
    "regionname": "Nagpur",
    "circlename": "Maharashtra",
    "Taluk": "Deulgaon Raja",
    "Districtname": "Buldhana",
    "statename": "MAHARASHTRA"
  },
  {
    "pincode": "443201",
    "officename": "Bharosa B.O",
    "officeType": "B.O",
    "Deliverystatus": "Delivery",
    "divisionname": "Buldana",
    "regionname": "Nagpur",
    "circlename": "Maharashtra",
    "Taluk": "Deulgaon Raja",
    "Districtname": "Buldhana",
    "statename": "MAHARASHTRA"
  },
  {
    "pincode": "443201",
    "officename": "Borgaon Kakde B.O",
    "officeType": "B.O",
    "Deliverystatus": "Delivery",
    "divisionname": "Buldana",
    "regionname": "Nagpur",
    "circlename": "Maharashtra",
    "Taluk": "Chikhli",
    "Districtname": "Buldhana",
    "statename": "MAHARASHTRA"
  },
  {
    "pincode": "443201",
    "officename": "Chikhli S.O (Buldhana)",
    "officeType": "S.O",
    "Deliverystatus": "Delivery",
    "divisionname": "Buldana",
    "regionname": "Nagpur",
    "circlename": "Maharashtra",
    "Taluk": "Chikhli",
    "Districtname": "Buldhana",
    "statename": "MAHARASHTRA"
  },
  {
    "pincode": "443201",
    "officename": "Cotton Market Chikhli S.O",
    "officeType": "S.O",
    "Deliverystatus": "Non-Delivery",
    "divisionname": "Buldana",
    "regionname": "Nagpur",
    "circlename": "Maharashtra",
    "Taluk": "Chikhli",
    "Districtname": "Buldhana",
    "statename": "MAHARASHTRA"
  },
  {
    "pincode": "443201",
    "officename": "Dahigaon B.O",
    "officeType": "B.O",
    "Deliverystatus": "Delivery",
    "divisionname": "Buldana",
    "regionname": "Nagpur",
    "circlename": "Maharashtra",
    "Taluk": "Chikhli",
    "Districtname": "Buldhana",
    "statename": "MAHARASHTRA"
  },
  {
    "pincode": "443201",
    "officename": "Deulgaon Dhangar B.O",
    "officeType": "B.O",
    "Deliverystatus": "Delivery",
    "divisionname": "Buldana",
    "regionname": "Nagpur",
    "circlename": "Maharashtra",
    "Taluk": "Deulgaon Raja",
    "Districtname": "Buldhana",
    "statename": "MAHARASHTRA"
  },
  {
    "pincode": "443201",
    "officename": "Eklara B.O",
    "officeType": "B.O",
    "Deliverystatus": "Delivery",
    "divisionname": "Buldana",
    "regionname": "Nagpur",
    "circlename": "Maharashtra",
    "Taluk": "Chikhli",
    "Districtname": "Buldhana",
    "statename": "MAHARASHTRA"
  },
  {
    "pincode": "443201",
    "officename": "Gangalgaon B.O",
    "officeType": "B.O",
    "Deliverystatus": "Delivery",
    "divisionname": "Buldana",
    "regionname": "Nagpur",
    "circlename": "Maharashtra",
    "Taluk": "Dulgaon Raja",
    "Districtname": "Buldhana",
    "statename": "MAHARASHTRA"
  },
  {
    "pincode": "443201",
    "officename": "Godri B.O",
    "officeType": "B.O",
    "Deliverystatus": "Delivery",
    "divisionname": "Buldana",
    "regionname": "Nagpur",
    "circlename": "Maharashtra",
    "Taluk": "Chikhli",
    "Districtname": "Buldhana",
    "statename": "MAHARASHTRA"
  },
  {
    "pincode": "443201",
    "officename": "Hatni B.O",
    "officeType": "B.O",
    "Deliverystatus": "Delivery",
    "divisionname": "Buldana",
    "regionname": "Nagpur",
    "circlename": "Maharashtra",
    "Taluk": "Chikhli",
    "Districtname": "Buldhana",
    "statename": "MAHARASHTRA"
  },
  {
    "pincode": "443201",
    "officename": "Isrul B.O",
    "officeType": "B.O",
    "Deliverystatus": "Delivery",
    "divisionname": "Buldana",
    "regionname": "Nagpur",
    "circlename": "Maharashtra",
    "Taluk": "Deulgaon Raja",
    "Districtname": "Buldhana",
    "statename": "MAHARASHTRA"
  },
  {
    "pincode": "443201",
    "officename": "Kawhala B.O",
    "officeType": "B.O",
    "Deliverystatus": "Delivery",
    "divisionname": "Buldana",
    "regionname": "Nagpur",
    "circlename": "Maharashtra",
    "Taluk": "Chikhli",
    "Districtname": "Buldhana",
    "statename": "MAHARASHTRA"
  },
  {
    "pincode": "443201",
    "officename": "Khandala Makardhwaj B.O",
    "officeType": "B.O",
    "Deliverystatus": "Delivery",
    "divisionname": "Buldana",
    "regionname": "Nagpur",
    "circlename": "Maharashtra",
    "Taluk": "Chikhli",
    "Districtname": "Buldhana",
    "statename": "MAHARASHTRA"
  },
  {
    "pincode": "443201",
    "officename": "Kolara B.O",
    "officeType": "B.O",
    "Deliverystatus": "Delivery",
    "divisionname": "Buldana",
    "regionname": "Nagpur",
    "circlename": "Maharashtra",
    "Taluk": "Deulgaon Raja",
    "Districtname": "Buldhana",
    "statename": "MAHARASHTRA"
  },
  {
    "pincode": "443201",
    "officename": "Mendgaon B.O",
    "officeType": "B.O",
    "Deliverystatus": "Delivery",
    "divisionname": "Buldana",
    "regionname": "Nagpur",
    "circlename": "Maharashtra",
    "Taluk": "Deulgaon Raja",
    "Districtname": "Buldhana",
    "statename": "MAHARASHTRA"
  },
  {
    "pincode": "443201",
    "officename": "Mera BK B.O",
    "officeType": "B.O",
    "Deliverystatus": "Delivery",
    "divisionname": "Buldana",
    "regionname": "Nagpur",
    "circlename": "Maharashtra",
    "Taluk": "Chikhli",
    "Districtname": "Buldhana",
    "statename": "MAHARASHTRA"
  },
  {
    "pincode": "443201",
    "officename": "Mera Khurd B.O",
    "officeType": "B.O",
    "Deliverystatus": "Delivery",
    "divisionname": "Buldana",
    "regionname": "Nagpur",
    "circlename": "Maharashtra",
    "Taluk": "Chikhli",
    "Districtname": "Buldhana",
    "statename": "MAHARASHTRA"
  },
  {
    "pincode": "443201",
    "officename": "Palaskhed Daulat B.O",
    "officeType": "B.O",
    "Deliverystatus": "Delivery",
    "divisionname": "Buldana",
    "regionname": "Nagpur",
    "circlename": "Maharashtra",
    "Taluk": "Chikhli",
    "Districtname": "Buldhana",
    "statename": "MAHARASHTRA"
  },
  {
    "pincode": "443201",
    "officename": "Peth B.O",
    "officeType": "B.O",
    "Deliverystatus": "Delivery",
    "divisionname": "Buldana",
    "regionname": "Nagpur",
    "circlename": "Maharashtra",
    "Taluk": "Chikhli",
    "Districtname": "Buldhana",
    "statename": "MAHARASHTRA"
  },
  {
    "pincode": "443201",
    "officename": "Sakegaon B.O",
    "officeType": "B.O",
    "Deliverystatus": "Delivery",
    "divisionname": "Buldana",
    "regionname": "Nagpur",
    "circlename": "Maharashtra",
    "Taluk": "Chikhli",
    "Districtname": "Buldhana",
    "statename": "MAHARASHTRA"
  },
  {
    "pincode": "443201",
    "officename": "Satgaon Bhusari B.O",
    "officeType": "B.O",
    "Deliverystatus": "Delivery",
    "divisionname": "Buldana",
    "regionname": "Nagpur",
    "circlename": "Maharashtra",
    "Taluk": "Chikhli",
    "Districtname": "Buldhana",
    "statename": "MAHARASHTRA"
  },
  {
    "pincode": "443201",
    "officename": "Savkhed Nagare B.O",
    "officeType": "B.O",
    "Deliverystatus": "Delivery",
    "divisionname": "Buldana",
    "regionname": "Nagpur",
    "circlename": "Maharashtra",
    "Taluk": "Chikhli",
    "Districtname": "Buldhana",
    "statename": "MAHARASHTRA"
  },
  {
    "pincode": "443201",
    "officename": "Sawana B.O",
    "officeType": "B.O",
    "Deliverystatus": "Delivery",
    "divisionname": "Buldana",
    "regionname": "Nagpur",
    "circlename": "Maharashtra",
    "Taluk": "Chikhli",
    "Districtname": "Buldhana",
    "statename": "MAHARASHTRA"
  },
  {
    "pincode": "443201",
    "officename": "Sawargaon Dukare B.O",
    "officeType": "B.O",
    "Deliverystatus": "Delivery",
    "divisionname": "Buldana",
    "regionname": "Nagpur",
    "circlename": "Maharashtra",
    "Taluk": "Chikhli",
    "Districtname": "Buldhana",
    "statename": "MAHARASHTRA"
  },
  {
    "pincode": "443201",
    "officename": "Shelgaon Atol B.O",
    "officeType": "B.O",
    "Deliverystatus": "Delivery",
    "divisionname": "Buldana",
    "regionname": "Nagpur",
    "circlename": "Maharashtra",
    "Taluk": "Deulgaon Raja",
    "Districtname": "Buldhana",
    "statename": "MAHARASHTRA"
  }
]
