[
  {
    "pincode": "443302",
    "officename": "Gandhari B.O",
    "officeType": "B.O",
    "Deliverystatus": "Delivery",
    "divisionname": "Buldana",
    "regionname": "Nagpur",
    "circlename": "Maharashtra",
    "Taluk": "Lonar",
    "Districtname": "Buldhana",
    "statename": "MAHARASHTRA"
  },
  {
    "pincode": "443302",
    "officename": "Hirdao B.O",
    "officeType": "B.O",
    "Deliverystatus": "Delivery",
    "divisionname": "Buldana",
    "regionname": "Nagpur",
    "circlename": "Maharashtra",
    "Taluk": "Lonar",
    "Districtname": "Buldhana",
    "statename": "MAHARASHTRA"
  },
  {
    "pincode": "443302",
    "officename": "Jambhul B.O",
    "officeType": "B.O",
    "Deliverystatus": "Delivery",
    "divisionname": "Buldana",
    "regionname": "Nagpur",
    "circlename": "Maharashtra",
    "Taluk": "Lonar",
    "Districtname": "Buldhana",
    "statename": "MAHARASHTRA"
  },
  {
    "pincode": "443302",
    "officename": "Lonar S.O",
    "officeType": "S.O",
    "Deliverystatus": "Delivery",
    "divisionname": "Buldana",
    "regionname": "Nagpur",
    "circlename": "Maharashtra",
    "Taluk": "Lonar",
    "Districtname": "Buldhana",
    "statename": "MAHARASHTRA"
  },
  {
    "pincode": "443302",
    "officename": "Naigaon B.O",
    "officeType": "B.O",
    "Deliverystatus": "Delivery",
    "divisionname": "Buldana",
    "regionname": "Nagpur",
    "circlename": "Maharashtra",
    "Taluk": "Mehkar",
    "Districtname": "Buldhana",
    "statename": "MAHARASHTRA"
  },
  {
    "pincode": "443302",
    "officename": "Nandra B.O",
    "officeType": "B.O",
    "Deliverystatus": "Delivery",
    "divisionname": "Buldana",
    "regionname": "Nagpur",
    "circlename": "Maharashtra",
    "Taluk": "Lonar",
    "Districtname": "Buldhana",
    "statename": "MAHARASHTRA"
  },
  {
    "pincode": "443302",
    "officename": "Pangra Dole B.O",
    "officeType": "B.O",
    "Deliverystatus": "Delivery",
    "divisionname": "Buldana",
    "regionname": "Nagpur",
    "circlename": "Maharashtra",
    "Taluk": "Lonar",
    "Districtname": "Buldhana",
    "statename": "MAHARASHTRA"
  },
  {
    "pincode": "443302",
    "officename": "Shara B.O",
    "officeType": "B.O",
    "Deliverystatus": "Delivery",
    "divisionname": "Buldana",
    "regionname": "Nagpur",
    "circlename": "Maharashtra",
    "Taluk": "Lonar",
    "Districtname": "Buldhana",
    "statename": "MAHARASHTRA"
  },
  {
    "pincode": "443302",
    "officename": "Sultanpur B.O",
    "officeType": "B.O",
    "Deliverystatus": "Delivery",
    "divisionname": "Buldana",
    "regionname": "Nagpur",
    "circlename": "Maharashtra",
    "Taluk": "Lonar",
    "Districtname": "Buldhana",
    "statename": "MAHARASHTRA"
  },
  {
    "pincode": "443302",
    "officename": "Tambola B.O",
    "officeType": "B.O",
    "Deliverystatus": "Delivery",
    "divisionname": "Buldana",
    "regionname": "Nagpur",
    "circlename": "Maharashtra",
    "Taluk": "Lonar",
    "Districtname": "Buldhana",
    "statename": "MAHARASHTRA"
  },
  {
    "pincode": "443302",
    "officename": "Tivtivi B.O",
    "officeType": "B.O",
    "Deliverystatus": "Delivery",
    "divisionname": "Buldana",
    "regionname": "Nagpur",
    "circlename": "Maharashtra",
    "Taluk": "Lonar",
    "Districtname": "Buldhana",
    "statename": "MAHARASHTRA"
  },
  {
    "pincode": "443302",
    "officename": "Veni B.O",
    "officeType": "B.O",
    "Deliverystatus": "Delivery",
    "divisionname": "Buldana",
    "regionname": "Nagpur",
    "circlename": "Maharashtra",
    "Taluk": "Loanr",
    "Districtname": "Buldhana",
    "statename": "MAHARASHTRA"
  },
  {
    "pincode": "443302",
    "officename": "Wadgaon Tejan B.O",
    "officeType": "B.O",
    "Deliverystatus": "Delivery",
    "divisionname": "Buldana",
    "regionname": "Nagpur",
    "circlename": "Maharashtra",
    "Taluk": "Lonar",
    "Districtname": "Buldhana",
    "statename": "MAHARASHTRA"
  },
  {
    "pincode": "443302",
    "officename": "Wadhao B.O",
    "officeType": "B.O",
    "Deliverystatus": "Delivery",
    "divisionname": "Buldana",
    "regionname": "Nagpur",
    "circlename": "Maharashtra",
    "Taluk": "Lonar",
    "Districtname": "Buldhana",
    "statename": "MAHARASHTRA"
  }
]
