[
  {
    "pincode": "444102",
    "officename": "Anvi B.O",
    "officeType": "B.O",
    "Deliverystatus": "Delivery",
    "divisionname": "Akola",
    "regionname": "Nagpur",
    "circlename": "Maharashtra",
    "Taluk": "",
    "Districtname": "Akola",
    "statename": "MAHARASHTRA"
  },
  {
    "pincode": "444102",
    "officename": "Borgaon Manju S.O",
    "officeType": "S.O",
    "Deliverystatus": "Delivery",
    "divisionname": "Akola",
    "regionname": "Nagpur",
    "circlename": "Maharashtra",
    "Taluk": "Akola",
    "Districtname": "Akola",
    "statename": "MAHARASHTRA"
  },
  {
    "pincode": "444102",
    "officename": "Dahigaon B.O",
    "officeType": "B.O",
    "Deliverystatus": "Delivery",
    "divisionname": "Akola",
    "regionname": "Nagpur",
    "circlename": "Maharashtra",
    "Taluk": "",
    "Districtname": "Akola",
    "statename": "MAHARASHTRA"
  },
  {
    "pincode": "444102",
    "officename": "Deoli B.O",
    "officeType": "B.O",
    "Deliverystatus": "Delivery",
    "divisionname": "Akola",
    "regionname": "Nagpur",
    "circlename": "Maharashtra",
    "Taluk": "",
    "Districtname": "Akola",
    "statename": "MAHARASHTRA"
  },
  {
    "pincode": "444102",
    "officename": "Dhotardi B.O",
    "officeType": "B.O",
    "Deliverystatus": "Delivery",
    "divisionname": "Akola",
    "regionname": "Nagpur",
    "circlename": "Maharashtra",
    "Taluk": "",
    "Districtname": "Akola",
    "statename": "MAHARASHTRA"
  },
  {
    "pincode": "444102",
    "officename": "Goregaon B.O",
    "officeType": "B.O",
    "Deliverystatus": "Delivery",
    "divisionname": "Akola",
    "regionname": "Nagpur",
    "circlename": "Maharashtra",
    "Taluk": "",
    "Districtname": "Akola",
    "statename": "MAHARASHTRA"
  },
  {
    "pincode": "444102",
    "officename": "Jambha B.O",
    "officeType": "B.O",
    "Deliverystatus": "Delivery",
    "divisionname": "Akola",
    "regionname": "Nagpur",
    "circlename": "Maharashtra",
    "Taluk": "",
    "Districtname": "Akola",
    "statename": "MAHARASHTRA"
  },
  {
    "pincode": "444102",
    "officename": "Kanshoni B.O",
    "officeType": "B.O",
    "Deliverystatus": "Delivery",
    "divisionname": "Akola",
    "regionname": "Nagpur",
    "circlename": "Maharashtra",
    "Taluk": "",
    "Districtname": "Akola",
    "statename": "MAHARASHTRA"
  },
  {
    "pincode": "444102",
    "officename": "Kaulkhed B.O",
    "officeType": "B.O",
    "Deliverystatus": "Delivery",
    "divisionname": "Akola",
    "regionname": "Nagpur",
    "circlename": "Maharashtra",
    "Taluk": "",
    "Districtname": "Akola",
    "statename": "MAHARASHTRA"
  },
  {
    "pincode": "444102",
    "officename": "Kolambi B.O",
    "officeType": "B.O",
    "Deliverystatus": "Delivery",
    "divisionname": "Akola",
    "regionname": "Nagpur",
    "circlename": "Maharashtra",
    "Taluk": "",
    "Districtname": "Akola",
    "statename": "MAHARASHTRA"
  },
  {
    "pincode": "444102",
    "officename": "Kurankhed B.O",
    "officeType": "B.O",
    "Deliverystatus": "Delivery",
    "divisionname": "Akola",
    "regionname": "Nagpur",
    "circlename": "Maharashtra",
    "Taluk": "",
    "Districtname": "Akola",
    "statename": "MAHARASHTRA"
  },
  {
    "pincode": "444102",
    "officename": "Morgaon Kakad B.O",
    "officeType": "B.O",
    "Deliverystatus": "Delivery",
    "divisionname": "Akola",
    "regionname": "Nagpur",
    "circlename": "Maharashtra",
    "Taluk": "",
    "Districtname": "Akola",
    "statename": "MAHARASHTRA"
  },
  {
    "pincode": "444102",
    "officename": "Nipana B.O",
    "officeType": "B.O",
    "Deliverystatus": "Delivery",
    "divisionname": "Akola",
    "regionname": "Nagpur",
    "circlename": "Maharashtra",
    "Taluk": "",
    "Districtname": "Akola",
    "statename": "MAHARASHTRA"
  },
  {
    "pincode": "444102",
    "officename": "Pailpada B.O",
    "officeType": "B.O",
    "Deliverystatus": "Delivery",
    "divisionname": "Akola",
    "regionname": "Nagpur",
    "circlename": "Maharashtra",
    "Taluk": "",
    "Districtname": "Akola",
    "statename": "MAHARASHTRA"
  },
  {
    "pincode": "444102",
    "officename": "Palso Badhe B.O",
    "officeType": "B.O",
    "Deliverystatus": "Delivery",
    "divisionname": "Akola",
    "regionname": "Nagpur",
    "circlename": "Maharashtra",
    "Taluk": "",
    "Districtname": "Akola",
    "statename": "MAHARASHTRA"
  },
  {
    "pincode": "444102",
    "officename": "Sanglood B.O",
    "officeType": "B.O",
    "Deliverystatus": "Delivery",
    "divisionname": "Akola",
    "regionname": "Nagpur",
    "circlename": "Maharashtra",
    "Taluk": "",
    "Districtname": "Akola",
    "statename": "MAHARASHTRA"
  }
]
