[
  {
    "pincode": "444109",
    "officename": "Gaigaon B.O",
    "officeType": "B.O",
    "Deliverystatus": "Delivery",
    "divisionname": "Akola",
    "regionname": "Nagpur",
    "circlename": "Maharashtra",
    "Taluk": "Akola",
    "Districtname": "Akola",
    "statename": "MAHARASHTRA"
  },
  {
    "pincode": "444109",
    "officename": "Hatrun B.O",
    "officeType": "B.O",
    "Deliverystatus": "Delivery",
    "divisionname": "Akola",
    "regionname": "Nagpur",
    "circlename": "Maharashtra",
    "Taluk": "Akola",
    "Districtname": "Akola",
    "statename": "MAHARASHTRA"
  },
  {
    "pincode": "444109",
    "officename": "Kalambi Mahagaon B.O",
    "officeType": "B.O",
    "Deliverystatus": "Delivery",
    "divisionname": "Akola",
    "regionname": "Nagpur",
    "circlename": "Maharashtra",
    "Taluk": "Akola",
    "Districtname": "Akola",
    "statename": "MAHARASHTRA"
  },
  {
    "pincode": "444109",
    "officename": "Kasura B.O",
    "officeType": "B.O",
    "Deliverystatus": "Delivery",
    "divisionname": "Akola",
    "regionname": "Nagpur",
    "circlename": "Maharashtra",
    "Taluk": "Akola",
    "Districtname": "Akola",
    "statename": "MAHARASHTRA"
  },
  {
    "pincode": "444109",
    "officename": "Khandala B.O",
    "officeType": "B.O",
    "Deliverystatus": "Delivery",
    "divisionname": "Akola",
    "regionname": "Nagpur",
    "circlename": "Maharashtra",
    "Taluk": "Akola",
    "Districtname": "Akola",
    "statename": "MAHARASHTRA"
  },
  {
    "pincode": "444109",
    "officename": "Manarkhed B.O",
    "officeType": "B.O",
    "Deliverystatus": "Delivery",
    "divisionname": "Akola",
    "regionname": "Nagpur",
    "circlename": "Maharashtra",
    "Taluk": "Akola",
    "Districtname": "Akola",
    "statename": "MAHARASHTRA"
  },
  {
    "pincode": "444109",
    "officename": "Manjari B.O",
    "officeType": "B.O",
    "Deliverystatus": "Delivery",
    "divisionname": "Akola",
    "regionname": "Nagpur",
    "circlename": "Maharashtra",
    "Taluk": "Akola",
    "Districtname": "Akola",
    "statename": "MAHARASHTRA"
  },
  {
    "pincode": "444109",
    "officename": "Morgaon Bhakre B.O",
    "officeType": "B.O",
    "Deliverystatus": "Delivery",
    "divisionname": "Akola",
    "regionname": "Nagpur",
    "circlename": "Maharashtra",
    "Taluk": "Akola",
    "Districtname": "Akola",
    "statename": "MAHARASHTRA"
  },
  {
    "pincode": "444109",
    "officename": "Morzadi B.O",
    "officeType": "B.O",
    "Deliverystatus": "Delivery",
    "divisionname": "Akola",
    "regionname": "Nagpur",
    "circlename": "Maharashtra",
    "Taluk": "Akola",
    "Districtname": "Akola",
    "statename": "MAHARASHTRA"
  },
  {
    "pincode": "444109",
    "officename": "Nimkarda B.O",
    "officeType": "B.O",
    "Deliverystatus": "Delivery",
    "divisionname": "Akola",
    "regionname": "Nagpur",
    "circlename": "Maharashtra",
    "Taluk": "Akola",
    "Districtname": "Akola",
    "statename": "MAHARASHTRA"
  },
  {
    "pincode": "444109",
    "officename": "Paras B.O",
    "officeType": "B.O",
    "Deliverystatus": "Delivery",
    "divisionname": "Akola",
    "regionname": "Nagpur",
    "circlename": "Maharashtra",
    "Taluk": "Akola",
    "Districtname": "Akola",
    "statename": "MAHARASHTRA"
  },
  {
    "pincode": "444109",
    "officename": "Vidyutnagar Paras S.O",
    "officeType": "S.O",
    "Deliverystatus": "Delivery",
    "divisionname": "Akola",
    "regionname": "Nagpur",
    "circlename": "Maharashtra",
    "Taluk": "Balapur",
    "Districtname": "Akola",
    "statename": "MAHARASHTRA"
  }
]
