[
  {
    "pincode": "444110",
    "officename": "Bembla B.O",
    "officeType": "B.O",
    "Deliverystatus": "Delivery",
    "divisionname": "Akola",
    "regionname": "Nagpur",
    "circlename": "Maharashtra",
    "Taluk": "",
    "Districtname": "Washim",
    "statename": "MAHARASHTRA"
  },
  {
    "pincode": "444110",
    "officename": "Bhamb B.O",
    "officeType": "B.O",
    "Deliverystatus": "Delivery",
    "divisionname": "Akola",
    "regionname": "Nagpur",
    "circlename": "Maharashtra",
    "Taluk": "",
    "Districtname": "Washim",
    "statename": "MAHARASHTRA"
  },
  {
    "pincode": "444110",
    "officename": "Dhanaj BK B.O",
    "officeType": "B.O",
    "Deliverystatus": "Delivery",
    "divisionname": "Akola",
    "regionname": "Nagpur",
    "circlename": "Maharashtra",
    "Taluk": "",
    "Districtname": "Washim",
    "statename": "MAHARASHTRA"
  },
  {
    "pincode": "444110",
    "officename": "Dhanaj KD B.O",
    "officeType": "B.O",
    "Deliverystatus": "Delivery",
    "divisionname": "Akola",
    "regionname": "Nagpur",
    "circlename": "Maharashtra",
    "Taluk": "",
    "Districtname": "Washim",
    "statename": "MAHARASHTRA"
  },
  {
    "pincode": "444110",
    "officename": "Hinganwadi B.O",
    "officeType": "B.O",
    "Deliverystatus": "Delivery",
    "divisionname": "Akola",
    "regionname": "Nagpur",
    "circlename": "Maharashtra",
    "Taluk": "",
    "Districtname": "Washim",
    "statename": "MAHARASHTRA"
  },
  {
    "pincode": "444110",
    "officename": "Kamargaon S.O (Washim)",
    "officeType": "S.O",
    "Deliverystatus": "Delivery",
    "divisionname": "Akola",
    "regionname": "Nagpur",
    "circlename": "Maharashtra",
    "Taluk": "Karanja",
    "Districtname": "Washim",
    "statename": "MAHARASHTRA"
  },
  {
    "pincode": "444110",
    "officename": "Ladegaon B.O",
    "officeType": "B.O",
    "Deliverystatus": "Delivery",
    "divisionname": "Akola",
    "regionname": "Nagpur",
    "circlename": "Maharashtra",
    "Taluk": "",
    "Districtname": "Washim",
    "statename": "MAHARASHTRA"
  },
  {
    "pincode": "444110",
    "officename": "Pimpri Modak B.O",
    "officeType": "B.O",
    "Deliverystatus": "Delivery",
    "divisionname": "Akola",
    "regionname": "Nagpur",
    "circlename": "Maharashtra",
    "Taluk": "",
    "Districtname": "Washim",
    "statename": "MAHARASHTRA"
  },
  {
    "pincode": "444110",
    "officename": "Vilegaon B.O",
    "officeType": "B.O",
    "Deliverystatus": "Delivery",
    "divisionname": "Akola",
    "regionname": "Nagpur",
    "circlename": "Maharashtra",
    "Taluk": "",
    "Districtname": "Washim",
    "statename": "MAHARASHTRA"
  }
]
