[
  {
    "pincode": "444101",
    "officename": "Akoli Jahangir B.O",
    "officeType": "B.O",
    "Deliverystatus": "Delivery",
    "divisionname": "Akola",
    "regionname": "Nagpur",
    "circlename": "Maharashtra",
    "Taluk": "",
    "Districtname": "Akola",
    "statename": "MAHARASHTRA"
  },
  {
    "pincode": "444101",
    "officename": "Akolkhed B.O",
    "officeType": "B.O",
    "Deliverystatus": "Delivery",
    "divisionname": "Akola",
    "regionname": "Nagpur",
    "circlename": "Maharashtra",
    "Taluk": "",
    "Districtname": "Akola",
    "statename": "MAHARASHTRA"
  },
  {
    "pincode": "444101",
    "officename": "Akot Kut S.O",
    "officeType": "S.O",
    "Deliverystatus": "Non-Delivery",
    "divisionname": "Akola",
    "regionname": "Nagpur",
    "circlename": "Maharashtra",
    "Taluk": "Akola",
    "Districtname": "Akola",
    "statename": "MAHARASHTRA"
  },
  {
    "pincode": "444101",
    "officename": "Akot S.O",
    "officeType": "S.O",
    "Deliverystatus": "Delivery",
    "divisionname": "Akola",
    "regionname": "Nagpur",
    "circlename": "Maharashtra",
    "Taluk": "Akot",
    "Districtname": "Akola",
    "statename": "MAHARASHTRA"
  },
  {
    "pincode": "444101",
    "officename": "Assegaon Bazar B.O",
    "officeType": "B.O",
    "Deliverystatus": "Delivery",
    "divisionname": "Akola",
    "regionname": "Nagpur",
    "circlename": "Maharashtra",
    "Taluk": "",
    "Districtname": "Akola",
    "statename": "MAHARASHTRA"
  },
  {
    "pincode": "444101",
    "officename": "Bordi B.O",
    "officeType": "B.O",
    "Deliverystatus": "Delivery",
    "divisionname": "Akola",
    "regionname": "Nagpur",
    "circlename": "Maharashtra",
    "Taluk": "",
    "Districtname": "Akola",
    "statename": "MAHARASHTRA"
  },
  {
    "pincode": "444101",
    "officename": "Chandikapur B.O",
    "officeType": "B.O",
    "Deliverystatus": "Delivery",
    "divisionname": "Akola",
    "regionname": "Nagpur",
    "circlename": "Maharashtra",
    "Taluk": "",
    "Districtname": "Akola",
    "statename": "MAHARASHTRA"
  },
  {
    "pincode": "444101",
    "officename": "Chohatta B.O",
    "officeType": "B.O",
    "Deliverystatus": "Delivery",
    "divisionname": "Akola",
    "regionname": "Nagpur",
    "circlename": "Maharashtra",
    "Taluk": "Akola",
    "Districtname": "Akola",
    "statename": "MAHARASHTRA"
  },
  {
    "pincode": "444101",
    "officename": "Danori Panori B.O",
    "officeType": "B.O",
    "Deliverystatus": "Delivery",
    "divisionname": "Akola",
    "regionname": "Nagpur",
    "circlename": "Maharashtra",
    "Taluk": "",
    "Districtname": "Akola",
    "statename": "MAHARASHTRA"
  },
  {
    "pincode": "444101",
    "officename": "Deori B.O",
    "officeType": "B.O",
    "Deliverystatus": "Delivery",
    "divisionname": "Akola",
    "regionname": "Nagpur",
    "circlename": "Maharashtra",
    "Taluk": "",
    "Districtname": "Akola",
    "statename": "MAHARASHTRA"
  },
  {
    "pincode": "444101",
    "officename": "Kalwadi B.O",
    "officeType": "B.O",
    "Deliverystatus": "Delivery",
    "divisionname": "Akola",
    "regionname": "Nagpur",
    "circlename": "Maharashtra",
    "Taluk": "",
    "Districtname": "Akola",
    "statename": "MAHARASHTRA"
  },
  {
    "pincode": "444101",
    "officename": "Kawasa B.O",
    "officeType": "B.O",
    "Deliverystatus": "Delivery",
    "divisionname": "Akola",
    "regionname": "Nagpur",
    "circlename": "Maharashtra",
    "Taluk": "",
    "Districtname": "Akola",
    "statename": "MAHARASHTRA"
  },
  {
    "pincode": "444101",
    "officename": "Khirkund B.O",
    "officeType": "B.O",
    "Deliverystatus": "Delivery",
    "divisionname": "Akola",
    "regionname": "Nagpur",
    "circlename": "Maharashtra",
    "Taluk": "",
    "Districtname": "Akola",
    "statename": "MAHARASHTRA"
  },
  {
    "pincode": "444101",
    "officename": "Kutasa B.O",
    "officeType": "B.O",
    "Deliverystatus": "Delivery",
    "divisionname": "Akola",
    "regionname": "Nagpur",
    "circlename": "Maharashtra",
    "Taluk": "",
    "Districtname": "Akola",
    "statename": "MAHARASHTRA"
  },
  {
    "pincode": "444101",
    "officename": "Mohala B.O",
    "officeType": "B.O",
    "Deliverystatus": "Delivery",
    "divisionname": "Akola",
    "regionname": "Nagpur",
    "circlename": "Maharashtra",
    "Taluk": "",
    "Districtname": "Akola",
    "statename": "MAHARASHTRA"
  },
  {
    "pincode": "444101",
    "officename": "Palsod B.O",
    "officeType": "B.O",
    "Deliverystatus": "Delivery",
    "divisionname": "Akola",
    "regionname": "Nagpur",
    "circlename": "Maharashtra",
    "Taluk": "",
    "Districtname": "Akola",
    "statename": "MAHARASHTRA"
  },
  {
    "pincode": "444101",
    "officename": "Panaj B.O",
    "officeType": "B.O",
    "Deliverystatus": "Delivery",
    "divisionname": "Akola",
    "regionname": "Nagpur",
    "circlename": "Maharashtra",
    "Taluk": "",
    "Districtname": "Akola",
    "statename": "MAHARASHTRA"
  },
  {
    "pincode": "444101",
    "officename": "Popatkheda B.O",
    "officeType": "B.O",
    "Deliverystatus": "Delivery",
    "divisionname": "Akola",
    "regionname": "Nagpur",
    "circlename": "Maharashtra",
    "Taluk": "",
    "Districtname": "Akola",
    "statename": "MAHARASHTRA"
  },
  {
    "pincode": "444101",
    "officename": "Punda B.O",
    "officeType": "B.O",
    "Deliverystatus": "Delivery",
    "divisionname": "Akola",
    "regionname": "Nagpur",
    "circlename": "Maharashtra",
    "Taluk": "",
    "Districtname": "Akola",
    "statename": "MAHARASHTRA"
  },
  {
    "pincode": "444101",
    "officename": "Ruikhed B.O",
    "officeType": "B.O",
    "Deliverystatus": "Delivery",
    "divisionname": "Akola",
    "regionname": "Nagpur",
    "circlename": "Maharashtra",
    "Taluk": "",
    "Districtname": "Akola",
    "statename": "MAHARASHTRA"
  },
  {
    "pincode": "444101",
    "officename": "Sawara B.O",
    "officeType": "B.O",
    "Deliverystatus": "Delivery",
    "divisionname": "Akola",
    "regionname": "Nagpur",
    "circlename": "Maharashtra",
    "Taluk": "",
    "Districtname": "Akola",
    "statename": "MAHARASHTRA"
  },
  {
    "pincode": "444101",
    "officename": "Umara B.O",
    "officeType": "B.O",
    "Deliverystatus": "Delivery",
    "divisionname": "Akola",
    "regionname": "Nagpur",
    "circlename": "Maharashtra",
    "Taluk": "",
    "Districtname": "Akola",
    "statename": "MAHARASHTRA"
  },
  {
    "pincode": "444101",
    "officename": "Vadali Deshmukh B.O",
    "officeType": "B.O",
    "Deliverystatus": "Delivery",
    "divisionname": "Akola",
    "regionname": "Nagpur",
    "circlename": "Maharashtra",
    "Taluk": "",
    "Districtname": "Akola",
    "statename": "MAHARASHTRA"
  },
  {
    "pincode": "444101",
    "officename": "Warudjaula B.O",
    "officeType": "B.O",
    "Deliverystatus": "Delivery",
    "divisionname": "Akola",
    "regionname": "Nagpur",
    "circlename": "Maharashtra",
    "Taluk": "",
    "Districtname": "Akola",
    "statename": "MAHARASHTRA"
  }
]
