[
  {
    "pincode": "444203",
    "officename": "Adsul B.O",
    "officeType": "B.O",
    "Deliverystatus": "Delivery",
    "divisionname": "Buldana",
    "regionname": "Nagpur",
    "circlename": "Maharashtra",
    "Taluk": "Shegaon",
    "Districtname": "Buldhana",
    "statename": "MAHARASHTRA"
  },
  {
    "pincode": "444203",
    "officename": "Alsana B.O",
    "officeType": "B.O",
    "Deliverystatus": "Delivery",
    "divisionname": "Buldana",
    "regionname": "Nagpur",
    "circlename": "Maharashtra",
    "Taluk": "Shegaon",
    "Districtname": "Buldhana",
    "statename": "MAHARASHTRA"
  },
  {
    "pincode": "444203",
    "officename": "Bhongaon B.O",
    "officeType": "B.O",
    "Deliverystatus": "Delivery",
    "divisionname": "Buldana",
    "regionname": "Nagpur",
    "circlename": "Maharashtra",
    "Taluk": "Shegaon",
    "Districtname": "Buldhana",
    "statename": "MAHARASHTRA"
  },
  {
    "pincode": "444203",
    "officename": "Chincholi Karfarma B.O",
    "officeType": "B.O",
    "Deliverystatus": "Delivery",
    "divisionname": "Buldana",
    "regionname": "Nagpur",
    "circlename": "Maharashtra",
    "Taluk": "Shegaon",
    "Districtname": "Buldhana",
    "statename": "MAHARASHTRA"
  },
  {
    "pincode": "444203",
    "officename": "Janori Nipana B.O",
    "officeType": "B.O",
    "Deliverystatus": "Delivery",
    "divisionname": "Buldana",
    "regionname": "Nagpur",
    "circlename": "Maharashtra",
    "Taluk": "Shegaon",
    "Districtname": "Buldhana",
    "statename": "MAHARASHTRA"
  },
  {
    "pincode": "444203",
    "officename": "Jawala BK B.O",
    "officeType": "B.O",
    "Deliverystatus": "Delivery",
    "divisionname": "Buldana",
    "regionname": "Nagpur",
    "circlename": "Maharashtra",
    "Taluk": "Shegan",
    "Districtname": "Buldhana",
    "statename": "MAHARASHTRA"
  },
  {
    "pincode": "444203",
    "officename": "Kherda B.O",
    "officeType": "B.O",
    "Deliverystatus": "Delivery",
    "divisionname": "Buldana",
    "regionname": "Nagpur",
    "circlename": "Maharashtra",
    "Taluk": "Shegaon",
    "Districtname": "Buldhana",
    "statename": "MAHARASHTRA"
  },
  {
    "pincode": "444203",
    "officename": "Manasgaon B.O",
    "officeType": "B.O",
    "Deliverystatus": "Delivery",
    "divisionname": "Buldana",
    "regionname": "Nagpur",
    "circlename": "Maharashtra",
    "Taluk": "Shegaon",
    "Districtname": "Buldhana",
    "statename": "MAHARASHTRA"
  },
  {
    "pincode": "444203",
    "officename": "Nagzari B.O",
    "officeType": "B.O",
    "Deliverystatus": "Delivery",
    "divisionname": "Buldana",
    "regionname": "Nagpur",
    "circlename": "Maharashtra",
    "Taluk": "Shegaon",
    "Districtname": "Buldhana",
    "statename": "MAHARASHTRA"
  },
  {
    "pincode": "444203",
    "officename": "Rokdiya Nagar B.O",
    "officeType": "B.O",
    "Deliverystatus": "Delivery",
    "divisionname": "Buldana",
    "regionname": "Nagpur",
    "circlename": "Maharashtra",
    "Taluk": "Shegaon",
    "Districtname": "Buldhana",
    "statename": "MAHARASHTRA"
  },
  {
    "pincode": "444203",
    "officename": "Sagoda B.O",
    "officeType": "B.O",
    "Deliverystatus": "Delivery",
    "divisionname": "Buldana",
    "regionname": "Nagpur",
    "circlename": "Maharashtra",
    "Taluk": "Shegaon",
    "Districtname": "Buldhana",
    "statename": "MAHARASHTRA"
  },
  {
    "pincode": "444203",
    "officename": "Shegaon S.O",
    "officeType": "S.O",
    "Deliverystatus": "Delivery",
    "divisionname": "Buldana",
    "regionname": "Nagpur",
    "circlename": "Maharashtra",
    "Taluk": "Shegaon",
    "Districtname": "Buldhana",
    "statename": "MAHARASHTRA"
  },
  {
    "pincode": "444203",
    "officename": "Takli Viro B.O",
    "officeType": "B.O",
    "Deliverystatus": "Delivery",
    "divisionname": "Buldana",
    "regionname": "Nagpur",
    "circlename": "Maharashtra",
    "Taluk": "Shegaon",
    "Districtname": "Buldhana",
    "statename": "MAHARASHTRA"
  },
  {
    "pincode": "444203",
    "officename": "Zadegaon B.O",
    "officeType": "B.O",
    "Deliverystatus": "Delivery",
    "divisionname": "Buldana",
    "regionname": "Nagpur",
    "circlename": "Maharashtra",
    "Taluk": "Shegaon",
    "Districtname": "Buldhana",
    "statename": "MAHARASHTRA"
  }
]
