[
  {
    "pincode": "444303",
    "officename": "Ambetakli B.O",
    "officeType": "B.O",
    "Deliverystatus": "Delivery",
    "divisionname": "Buldana",
    "regionname": "Nagpur",
    "circlename": "Maharashtra",
    "Taluk": "Khamgaon",
    "Districtname": "Buldhana",
    "statename": "MAHARASHTRA"
  },
  {
    "pincode": "444303",
    "officename": "Antraj B.O",
    "officeType": "B.O",
    "Deliverystatus": "Delivery",
    "divisionname": "Buldana",
    "regionname": "Nagpur",
    "circlename": "Maharashtra",
    "Taluk": "Khamgaon",
    "Districtname": "Buldhana",
    "statename": "MAHARASHTRA"
  },
  {
    "pincode": "444303",
    "officename": "Atali B.O",
    "officeType": "B.O",
    "Deliverystatus": "Delivery",
    "divisionname": "Buldana",
    "regionname": "Nagpur",
    "circlename": "Maharashtra",
    "Taluk": "Khamgaon",
    "Districtname": "Buldhana",
    "statename": "MAHARASHTRA"
  },
  {
    "pincode": "444303",
    "officename": "Awar B.O",
    "officeType": "B.O",
    "Deliverystatus": "Delivery",
    "divisionname": "Buldana",
    "regionname": "Nagpur",
    "circlename": "Maharashtra",
    "Taluk": "Khamgaon",
    "Districtname": "Buldhana",
    "statename": "MAHARASHTRA"
  },
  {
    "pincode": "444303",
    "officename": "Bori Adgaon B.O",
    "officeType": "B.O",
    "Deliverystatus": "Delivery",
    "divisionname": "Buldana",
    "regionname": "Nagpur",
    "circlename": "Maharashtra",
    "Taluk": "Khamgaon",
    "Districtname": "Buldhana",
    "statename": "MAHARASHTRA"
  },
  {
    "pincode": "444303",
    "officename": "Botha Kazi B.O",
    "officeType": "B.O",
    "Deliverystatus": "Delivery",
    "divisionname": "Buldana",
    "regionname": "Nagpur",
    "circlename": "Maharashtra",
    "Taluk": "Khamgaon",
    "Districtname": "Buldhana",
    "statename": "MAHARASHTRA"
  },
  {
    "pincode": "444303",
    "officename": "Chitoda B.O",
    "officeType": "B.O",
    "Deliverystatus": "Delivery",
    "divisionname": "Buldana",
    "regionname": "Nagpur",
    "circlename": "Maharashtra",
    "Taluk": "Khamgaon",
    "Districtname": "Buldhana",
    "statename": "MAHARASHTRA"
  },
  {
    "pincode": "444303",
    "officename": "Ganeshpur B.O",
    "officeType": "B.O",
    "Deliverystatus": "Delivery",
    "divisionname": "Buldana",
    "regionname": "Nagpur",
    "circlename": "Maharashtra",
    "Taluk": "Khamgaon",
    "Districtname": "Buldhana",
    "statename": "MAHARASHTRA"
  },
  {
    "pincode": "444303",
    "officename": "Garadgaon B.O",
    "officeType": "B.O",
    "Deliverystatus": "Delivery",
    "divisionname": "Buldana",
    "regionname": "Nagpur",
    "circlename": "Maharashtra",
    "Taluk": "Khamgoan",
    "Districtname": "Buldhana",
    "statename": "MAHARASHTRA"
  },
  {
    "pincode": "444303",
    "officename": "Gawhan B.O",
    "officeType": "B.O",
    "Deliverystatus": "Delivery",
    "divisionname": "Buldana",
    "regionname": "Nagpur",
    "circlename": "Maharashtra",
    "Taluk": "Shegaon",
    "Districtname": "Buldhana",
    "statename": "MAHARASHTRA"
  },
  {
    "pincode": "444303",
    "officename": "Gharod B.O",
    "officeType": "B.O",
    "Deliverystatus": "Delivery",
    "divisionname": "Buldana",
    "regionname": "Nagpur",
    "circlename": "Maharashtra",
    "Taluk": "Khamgaon",
    "Districtname": "Buldhana",
    "statename": "MAHARASHTRA"
  },
  {
    "pincode": "444303",
    "officename": "Gondhanapur B.O",
    "officeType": "B.O",
    "Deliverystatus": "Delivery",
    "divisionname": "Buldana",
    "regionname": "Nagpur",
    "circlename": "Maharashtra",
    "Taluk": "Khamgaon",
    "Districtname": "Buldhana",
    "statename": "MAHARASHTRA"
  },
  {
    "pincode": "444303",
    "officename": "Hingna Karegaon B.O",
    "officeType": "B.O",
    "Deliverystatus": "Delivery",
    "divisionname": "Buldana",
    "regionname": "Nagpur",
    "circlename": "Maharashtra",
    "Taluk": "Khamgaon",
    "Districtname": "Buldhana",
    "statename": "MAHARASHTRA"
  },
  {
    "pincode": "444303",
    "officename": "Hiwarkhed B.O",
    "officeType": "B.O",
    "Deliverystatus": "Delivery",
    "divisionname": "Buldana",
    "regionname": "Nagpur",
    "circlename": "Maharashtra",
    "Taluk": "Khamgaon",
    "Districtname": "Buldhana",
    "statename": "MAHARASHTRA"
  },
  {
    "pincode": "444303",
    "officename": "Jalamb B.O",
    "officeType": "B.O",
    "Deliverystatus": "Delivery",
    "divisionname": "Buldana",
    "regionname": "Nagpur",
    "circlename": "Maharashtra",
    "Taluk": "Shegaon",
    "Districtname": "Buldhana",
    "statename": "MAHARASHTRA"
  },
  {
    "pincode": "444303",
    "officename": "Kalegaon B.O",
    "officeType": "B.O",
    "Deliverystatus": "Delivery",
    "divisionname": "Buldana",
    "regionname": "Nagpur",
    "circlename": "Maharashtra",
    "Taluk": "Khamgaon",
    "Districtname": "Buldhana",
    "statename": "MAHARASHTRA"
  },
  {
    "pincode": "444303",
    "officename": "Kelanagar S.O",
    "officeType": "S.O",
    "Deliverystatus": "Non-Delivery",
    "divisionname": "Buldana",
    "regionname": "Nagpur",
    "circlename": "Maharashtra",
    "Taluk": "Khamgaon",
    "Districtname": "Buldhana",
    "statename": "MAHARASHTRA"
  },
  {
    "pincode": "444303",
    "officename": "Khamgaon H.O",
    "officeType": "H.O",
    "Deliverystatus": "Delivery",
    "divisionname": "Buldana",
    "regionname": "Nagpur",
    "circlename": "Maharashtra",
    "Taluk": "Khamgaon",
    "Districtname": "Buldhana",
    "statename": "MAHARASHTRA"
  },
  {
    "pincode": "444303",
    "officename": "Kinhi Mahadeo B.O",
    "officeType": "B.O",
    "Deliverystatus": "Delivery",
    "divisionname": "Buldana",
    "regionname": "Nagpur",
    "circlename": "Maharashtra",
    "Taluk": "Khamgaon",
    "Districtname": "Buldhana",
    "statename": "MAHARASHTRA"
  },
  {
    "pincode": "444303",
    "officename": "Lakhanwada B.O",
    "officeType": "B.O",
    "Deliverystatus": "Delivery",
    "divisionname": "Buldana",
    "regionname": "Nagpur",
    "circlename": "Maharashtra",
    "Taluk": "Khamgaon",
    "Districtname": "Buldhana",
    "statename": "MAHARASHTRA"
  },
  {
    "pincode": "444303",
    "officename": "Lasura Khurd B.O",
    "officeType": "B.O",
    "Deliverystatus": "Delivery",
    "divisionname": "Buldana",
    "regionname": "Nagpur",
    "circlename": "Maharashtra",
    "Taluk": "Khamgaon",
    "Districtname": "Buldhana",
    "statename": "MAHARASHTRA"
  },
  {
    "pincode": "444303",
    "officename": "Lokhanda B.O",
    "officeType": "B.O",
    "Deliverystatus": "Delivery",
    "divisionname": "Buldana",
    "regionname": "Nagpur",
    "circlename": "Maharashtra",
    "Taluk": "Khamgaon",
    "Districtname": "Buldhana",
    "statename": "MAHARASHTRA"
  },
  {
    "pincode": "444303",
    "officename": "Loni Gurao B.O",
    "officeType": "B.O",
    "Deliverystatus": "Delivery",
    "divisionname": "Buldana",
    "regionname": "Nagpur",
    "circlename": "Maharashtra",
    "Taluk": "Khamgaon",
    "Districtname": "Buldhana",
    "statename": "MAHARASHTRA"
  },
  {
    "pincode": "444303",
    "officename": "Palshi BK B.O",
    "officeType": "B.O",
    "Deliverystatus": "Delivery",
    "divisionname": "Buldana",
    "regionname": "Nagpur",
    "circlename": "Maharashtra",
    "Taluk": "Khamgaon",
    "Districtname": "Buldhana",
    "statename": "MAHARASHTRA"
  },
  {
    "pincode": "444303",
    "officename": "Pimpri Gaoli B.O",
    "officeType": "B.O",
    "Deliverystatus": "Delivery",
    "divisionname": "Buldana",
    "regionname": "Nagpur",
    "circlename": "Maharashtra",
    "Taluk": "Khamgaon",
    "Districtname": "Buldhana",
    "statename": "MAHARASHTRA"
  },
  {
    "pincode": "444303",
    "officename": "Rohana B.O",
    "officeType": "B.O",
    "Deliverystatus": "Delivery",
    "divisionname": "Buldana",
    "regionname": "Nagpur",
    "circlename": "Maharashtra",
    "Taluk": "Khamgaon",
    "Districtname": "Buldhana",
    "statename": "MAHARASHTRA"
  },
  {
    "pincode": "444303",
    "officename": "Sarafa Khamgaon S.O",
    "officeType": "S.O",
    "Deliverystatus": "Non-Delivery",
    "divisionname": "Buldana",
    "regionname": "Nagpur",
    "circlename": "Maharashtra",
    "Taluk": "Khamgaon",
    "Districtname": "Buldhana",
    "statename": "MAHARASHTRA"
  },
  {
    "pincode": "444303",
    "officename": "Shahapur B.O",
    "officeType": "B.O",
    "Deliverystatus": "Delivery",
    "divisionname": "Buldana",
    "regionname": "Nagpur",
    "circlename": "Maharashtra",
    "Taluk": "Khamgaon",
    "Districtname": "Buldhana",
    "statename": "MAHARASHTRA"
  },
  {
    "pincode": "444303",
    "officename": "Shirala Nemane B.O",
    "officeType": "B.O",
    "Deliverystatus": "Delivery",
    "divisionname": "Buldana",
    "regionname": "Nagpur",
    "circlename": "Maharashtra",
    "Taluk": "Khamgaon",
    "Districtname": "Buldhana",
    "statename": "MAHARASHTRA"
  },
  {
    "pincode": "444303",
    "officename": "Tembhurna B.O",
    "officeType": "B.O",
    "Deliverystatus": "Delivery",
    "divisionname": "Buldana",
    "regionname": "Nagpur",
    "circlename": "Maharashtra",
    "Taluk": "Khamgaon",
    "Districtname": "Buldhana",
    "statename": "MAHARASHTRA"
  },
  {
    "pincode": "444303",
    "officename": "Undri B.O",
    "officeType": "B.O",
    "Deliverystatus": "Delivery",
    "divisionname": "Buldana",
    "regionname": "Nagpur",
    "circlename": "Maharashtra",
    "Taluk": "",
    "Districtname": "Buldhana",
    "statename": "MAHARASHTRA"
  },
  {
    "pincode": "444303",
    "officename": "Vihigaon B.O",
    "officeType": "B.O",
    "Deliverystatus": "Delivery",
    "divisionname": "Buldana",
    "regionname": "Nagpur",
    "circlename": "Maharashtra",
    "Taluk": "Khamgaon",
    "Districtname": "Buldhana",
    "statename": "MAHARASHTRA"
  },
  {
    "pincode": "444303",
    "officename": "Warna B.O",
    "officeType": "B.O",
    "Deliverystatus": "Delivery",
    "divisionname": "Buldana",
    "regionname": "Nagpur",
    "circlename": "Maharashtra",
    "Taluk": "Khamgaon",
    "Districtname": "Buldhana",
    "statename": "MAHARASHTRA"
  },
  {
    "pincode": "444303",
    "officename": "Wazar B.O",
    "officeType": "B.O",
    "Deliverystatus": "Delivery",
    "divisionname": "Buldana",
    "regionname": "Nagpur",
    "circlename": "Maharashtra",
    "Taluk": "Khamgaon",
    "Districtname": "Buldhana",
    "statename": "MAHARASHTRA"
  }
]
