[
  {
    "pincode": "444311",
    "officename": "Andura B.O",
    "officeType": "B.O",
    "Deliverystatus": "Delivery",
    "divisionname": "Akola",
    "regionname": "Nagpur",
    "circlename": "Maharashtra",
    "Taluk": "Akola",
    "Districtname": "Akola",
    "statename": "MAHARASHTRA"
  },
  {
    "pincode": "444311",
    "officename": "Bahadura B.O",
    "officeType": "B.O",
    "Deliverystatus": "Delivery",
    "divisionname": "Akola",
    "regionname": "Nagpur",
    "circlename": "Maharashtra",
    "Taluk": "Akola",
    "Districtname": "Akola",
    "statename": "MAHARASHTRA"
  },
  {
    "pincode": "444311",
    "officename": "Dongargaon B.O",
    "officeType": "B.O",
    "Deliverystatus": "Delivery",
    "divisionname": "Akola",
    "regionname": "Nagpur",
    "circlename": "Maharashtra",
    "Taluk": "Akola",
    "Districtname": "Akola",
    "statename": "MAHARASHTRA"
  },
  {
    "pincode": "444311",
    "officename": "Hata B.O",
    "officeType": "B.O",
    "Deliverystatus": "Delivery",
    "divisionname": "Akola",
    "regionname": "Nagpur",
    "circlename": "Maharashtra",
    "Taluk": "Akola",
    "Districtname": "Akola",
    "statename": "MAHARASHTRA"
  },
  {
    "pincode": "444311",
    "officename": "Karanja Ramzanpur B.O",
    "officeType": "B.O",
    "Deliverystatus": "Delivery",
    "divisionname": "Akola",
    "regionname": "Nagpur",
    "circlename": "Maharashtra",
    "Taluk": "Akola",
    "Districtname": "Akola",
    "statename": "MAHARASHTRA"
  },
  {
    "pincode": "444311",
    "officename": "Kazikhed B.O",
    "officeType": "B.O",
    "Deliverystatus": "Delivery",
    "divisionname": "Akola",
    "regionname": "Nagpur",
    "circlename": "Maharashtra",
    "Taluk": "Akola",
    "Districtname": "Akola",
    "statename": "MAHARASHTRA"
  },
  {
    "pincode": "444311",
    "officename": "Lohara B.O",
    "officeType": "B.O",
    "Deliverystatus": "Delivery",
    "divisionname": "Akola",
    "regionname": "Nagpur",
    "circlename": "Maharashtra",
    "Taluk": "Akola",
    "Districtname": "Akola",
    "statename": "MAHARASHTRA"
  },
  {
    "pincode": "444311",
    "officename": "Mokha B.O",
    "officeType": "B.O",
    "Deliverystatus": "Delivery",
    "divisionname": "Akola",
    "regionname": "Nagpur",
    "circlename": "Maharashtra",
    "Taluk": "Akola",
    "Districtname": "Akola",
    "statename": "MAHARASHTRA"
  },
  {
    "pincode": "444311",
    "officename": "Morgaon Sadijan B.O",
    "officeType": "B.O",
    "Deliverystatus": "Delivery",
    "divisionname": "Akola",
    "regionname": "Nagpur",
    "circlename": "Maharashtra",
    "Taluk": "Akola",
    "Districtname": "Akola",
    "statename": "MAHARASHTRA"
  },
  {
    "pincode": "444311",
    "officename": "Nimba S.O",
    "officeType": "S.O",
    "Deliverystatus": "Delivery",
    "divisionname": "Akola",
    "regionname": "Nagpur",
    "circlename": "Maharashtra",
    "Taluk": "Akola",
    "Districtname": "Akola",
    "statename": "MAHARASHTRA"
  },
  {
    "pincode": "444311",
    "officename": "Ural B.O",
    "officeType": "B.O",
    "Deliverystatus": "Delivery",
    "divisionname": "Akola",
    "regionname": "Nagpur",
    "circlename": "Maharashtra",
    "Taluk": "Akola",
    "Districtname": "Akola",
    "statename": "MAHARASHTRA"
  }
]
