[
  {
    "pincode": "444505",
    "officename": "Bhatumra B.O",
    "officeType": "B.O",
    "Deliverystatus": "Delivery",
    "divisionname": "Akola",
    "regionname": "Nagpur",
    "circlename": "Maharashtra",
    "Taluk": "Washim",
    "Districtname": "Washim",
    "statename": "MAHARASHTRA"
  },
  {
    "pincode": "444505",
    "officename": "Chivara B.O",
    "officeType": "B.O",
    "Deliverystatus": "Delivery",
    "divisionname": "Akola",
    "regionname": "Nagpur",
    "circlename": "Maharashtra",
    "Taluk": "Washim",
    "Districtname": "Washim",
    "statename": "MAHARASHTRA"
  },
  {
    "pincode": "444505",
    "officename": "Dhumka B.O",
    "officeType": "B.O",
    "Deliverystatus": "Delivery",
    "divisionname": "Akola",
    "regionname": "Nagpur",
    "circlename": "Maharashtra",
    "Taluk": "Washim",
    "Districtname": "Washim",
    "statename": "MAHARASHTRA"
  },
  {
    "pincode": "444505",
    "officename": "Kajalamba B.O",
    "officeType": "B.O",
    "Deliverystatus": "Delivery",
    "divisionname": "Akola",
    "regionname": "Nagpur",
    "circlename": "Maharashtra",
    "Taluk": "Washim",
    "Districtname": "Washim",
    "statename": "MAHARASHTRA"
  },
  {
    "pincode": "444505",
    "officename": "Kalamba Mahali B.O",
    "officeType": "B.O",
    "Deliverystatus": "Delivery",
    "divisionname": "Akola",
    "regionname": "Nagpur",
    "circlename": "Maharashtra",
    "Taluk": "Washim",
    "Districtname": "Washim",
    "statename": "MAHARASHTRA"
  },
  {
    "pincode": "444505",
    "officename": "Karli B.O",
    "officeType": "B.O",
    "Deliverystatus": "Delivery",
    "divisionname": "Akola",
    "regionname": "Nagpur",
    "circlename": "Maharashtra",
    "Taluk": "Washim",
    "Districtname": "Washim",
    "statename": "MAHARASHTRA"
  },
  {
    "pincode": "444505",
    "officename": "Kata B.O",
    "officeType": "B.O",
    "Deliverystatus": "Delivery",
    "divisionname": "Akola",
    "regionname": "Nagpur",
    "circlename": "Maharashtra",
    "Taluk": "Washim",
    "Districtname": "Washim",
    "statename": "MAHARASHTRA"
  },
  {
    "pincode": "444505",
    "officename": "Kekatumara B.O",
    "officeType": "B.O",
    "Deliverystatus": "Delivery",
    "divisionname": "Akola",
    "regionname": "Nagpur",
    "circlename": "Maharashtra",
    "Taluk": "Washim",
    "Districtname": "Washim",
    "statename": "MAHARASHTRA"
  },
  {
    "pincode": "444505",
    "officename": "Kokalgaon B.O",
    "officeType": "B.O",
    "Deliverystatus": "Delivery",
    "divisionname": "Akola",
    "regionname": "Nagpur",
    "circlename": "Maharashtra",
    "Taluk": "Washim",
    "Districtname": "Washim",
    "statename": "MAHARASHTRA"
  },
  {
    "pincode": "444505",
    "officename": "Mohoja B.O",
    "officeType": "B.O",
    "Deliverystatus": "Delivery",
    "divisionname": "Akola",
    "regionname": "Nagpur",
    "circlename": "Maharashtra",
    "Taluk": "Washim",
    "Districtname": "Washim",
    "statename": "MAHARASHTRA"
  },
  {
    "pincode": "444505",
    "officename": "Pardi Takmore B.O",
    "officeType": "B.O",
    "Deliverystatus": "Delivery",
    "divisionname": "Akola",
    "regionname": "Nagpur",
    "circlename": "Maharashtra",
    "Taluk": "Washim",
    "Districtname": "Washim",
    "statename": "MAHARASHTRA"
  },
  {
    "pincode": "444505",
    "officename": "Soyata B.O",
    "officeType": "B.O",
    "Deliverystatus": "Delivery",
    "divisionname": "Akola",
    "regionname": "Nagpur",
    "circlename": "Maharashtra",
    "Taluk": "Washim",
    "Districtname": "Washim",
    "statename": "MAHARASHTRA"
  },
  {
    "pincode": "444505",
    "officename": "Tamsi B.O",
    "officeType": "B.O",
    "Deliverystatus": "Delivery",
    "divisionname": "Akola",
    "regionname": "Nagpur",
    "circlename": "Maharashtra",
    "Taluk": "Washim",
    "Districtname": "Washim",
    "statename": "MAHARASHTRA"
  },
  {
    "pincode": "444505",
    "officename": "Tandali BK B.O",
    "officeType": "B.O",
    "Deliverystatus": "Delivery",
    "divisionname": "Akola",
    "regionname": "Nagpur",
    "circlename": "Maharashtra",
    "Taluk": "Washim",
    "Districtname": "Washim",
    "statename": "MAHARASHTRA"
  },
  {
    "pincode": "444505",
    "officename": "Tandali Shewai B.O",
    "officeType": "B.O",
    "Deliverystatus": "Delivery",
    "divisionname": "Akola",
    "regionname": "Nagpur",
    "circlename": "Maharashtra",
    "Taluk": "Washim",
    "Districtname": "Washim",
    "statename": "MAHARASHTRA"
  },
  {
    "pincode": "444505",
    "officename": "Tondgaon B.O",
    "officeType": "B.O",
    "Deliverystatus": "Delivery",
    "divisionname": "Akola",
    "regionname": "Nagpur",
    "circlename": "Maharashtra",
    "Taluk": "Washim",
    "Districtname": "Washim",
    "statename": "MAHARASHTRA"
  },
  {
    "pincode": "444505",
    "officename": "Tornala B.O",
    "officeType": "B.O",
    "Deliverystatus": "Delivery",
    "divisionname": "Akola",
    "regionname": "Nagpur",
    "circlename": "Maharashtra",
    "Taluk": "Washim",
    "Districtname": "Washim",
    "statename": "MAHARASHTRA"
  },
  {
    "pincode": "444505",
    "officename": "Ukali Jahangir B.O",
    "officeType": "B.O",
    "Deliverystatus": "Delivery",
    "divisionname": "Akola",
    "regionname": "Nagpur",
    "circlename": "Maharashtra",
    "Taluk": "Washim",
    "Districtname": "Washim",
    "statename": "MAHARASHTRA"
  },
  {
    "pincode": "444505",
    "officename": "Washim City S.O",
    "officeType": "S.O",
    "Deliverystatus": "Non-Delivery",
    "divisionname": "Akola",
    "regionname": "Nagpur",
    "circlename": "Maharashtra",
    "Taluk": "Washim",
    "Districtname": "Washim",
    "statename": "MAHARASHTRA"
  },
  {
    "pincode": "444505",
    "officename": "Washim S.O",
    "officeType": "S.O",
    "Deliverystatus": "Delivery",
    "divisionname": "Akola",
    "regionname": "Nagpur",
    "circlename": "Maharashtra",
    "Taluk": "Washim",
    "Districtname": "Washim",
    "statename": "MAHARASHTRA"
  },
  {
    "pincode": "444505",
    "officename": "Yeranda B.O",
    "officeType": "B.O",
    "Deliverystatus": "Delivery",
    "divisionname": "Akola",
    "regionname": "Nagpur",
    "circlename": "Maharashtra",
    "Taluk": "Washim",
    "Districtname": "Washim",
    "statename": "MAHARASHTRA"
  }
]
