[
  {
    "pincode": "444510",
    "officename": "Adoli B.O",
    "officeType": "B.O",
    "Deliverystatus": "Delivery",
    "divisionname": "Akola",
    "regionname": "Nagpur",
    "circlename": "Maharashtra",
    "Taluk": "Washim",
    "Districtname": "Washim",
    "statename": "MAHARASHTRA"
  },
  {
    "pincode": "444510",
    "officename": "Assegaon Pen B.O",
    "officeType": "B.O",
    "Deliverystatus": "Delivery",
    "divisionname": "Akola",
    "regionname": "Nagpur",
    "circlename": "Maharashtra",
    "Taluk": "Washim",
    "Districtname": "Washim",
    "statename": "MAHARASHTRA"
  },
  {
    "pincode": "444510",
    "officename": "Chikhali B.O",
    "officeType": "B.O",
    "Deliverystatus": "Delivery",
    "divisionname": "Akola",
    "regionname": "Nagpur",
    "circlename": "Maharashtra",
    "Taluk": "Washim",
    "Districtname": "Washim",
    "statename": "MAHARASHTRA"
  },
  {
    "pincode": "444510",
    "officename": "Haral B.O",
    "officeType": "B.O",
    "Deliverystatus": "Delivery",
    "divisionname": "Akola",
    "regionname": "Nagpur",
    "circlename": "Maharashtra",
    "Taluk": "Washim",
    "Districtname": "Washim",
    "statename": "MAHARASHTRA"
  },
  {
    "pincode": "444510",
    "officename": "Hivara Rohila B.O",
    "officeType": "B.O",
    "Deliverystatus": "Delivery",
    "divisionname": "Akola",
    "regionname": "Nagpur",
    "circlename": "Maharashtra",
    "Taluk": "Washim",
    "Districtname": "Washim",
    "statename": "MAHARASHTRA"
  },
  {
    "pincode": "444510",
    "officename": "Koyali B.O",
    "officeType": "B.O",
    "Deliverystatus": "Delivery",
    "divisionname": "Akola",
    "regionname": "Nagpur",
    "circlename": "Maharashtra",
    "Taluk": "Washim",
    "Districtname": "Washim",
    "statename": "MAHARASHTRA"
  },
  {
    "pincode": "444510",
    "officename": "Nagthana B.O",
    "officeType": "B.O",
    "Deliverystatus": "Delivery",
    "divisionname": "Akola",
    "regionname": "Nagpur",
    "circlename": "Maharashtra",
    "Taluk": "Washim",
    "Districtname": "Washim",
    "statename": "MAHARASHTRA"
  },
  {
    "pincode": "444510",
    "officename": "Rithad S.O",
    "officeType": "S.O",
    "Deliverystatus": "Delivery",
    "divisionname": "Akola",
    "regionname": "Nagpur",
    "circlename": "Maharashtra",
    "Taluk": "Washim",
    "Districtname": "Washim",
    "statename": "MAHARASHTRA"
  },
  {
    "pincode": "444510",
    "officename": "Sawargaon Jire B.O",
    "officeType": "B.O",
    "Deliverystatus": "Delivery",
    "divisionname": "Akola",
    "regionname": "Nagpur",
    "circlename": "Maharashtra",
    "Taluk": "Washim",
    "Districtname": "Washim",
    "statename": "MAHARASHTRA"
  },
  {
    "pincode": "444510",
    "officename": "Vyad B.O",
    "officeType": "B.O",
    "Deliverystatus": "Delivery",
    "divisionname": "Akola",
    "regionname": "Nagpur",
    "circlename": "Maharashtra",
    "Taluk": "Washim",
    "Districtname": "Washim",
    "statename": "MAHARASHTRA"
  },
  {
    "pincode": "444510",
    "officename": "Yeoti B.O",
    "officeType": "B.O",
    "Deliverystatus": "Delivery",
    "divisionname": "Akola",
    "regionname": "Nagpur",
    "circlename": "Maharashtra",
    "Taluk": "Washim",
    "Districtname": "Washim",
    "statename": "MAHARASHTRA"
  }
]
