[
  {
    "pincode": "444506",
    "officename": "Bhar B.O",
    "officeType": "B.O",
    "Deliverystatus": "Delivery",
    "divisionname": "Akola",
    "regionname": "Nagpur",
    "circlename": "Maharashtra",
    "Taluk": "Akola",
    "Districtname": "Akola",
    "statename": "MAHARASHTRA"
  },
  {
    "pincode": "444506",
    "officename": "Chinchamba Bhar B.O",
    "officeType": "B.O",
    "Deliverystatus": "Delivery",
    "divisionname": "Akola",
    "regionname": "Nagpur",
    "circlename": "Maharashtra",
    "Taluk": "Washim",
    "Districtname": "Washim",
    "statename": "MAHARASHTRA"
  },
  {
    "pincode": "444506",
    "officename": "Kawatha Naik B.O",
    "officeType": "B.O",
    "Deliverystatus": "Delivery",
    "divisionname": "Akola",
    "regionname": "Nagpur",
    "circlename": "Maharashtra",
    "Taluk": "Washim",
    "Districtname": "Washim",
    "statename": "MAHARASHTRA"
  },
  {
    "pincode": "444506",
    "officename": "Loni Sm B.O",
    "officeType": "B.O",
    "Deliverystatus": "Delivery",
    "divisionname": "Akola",
    "regionname": "Nagpur",
    "circlename": "Maharashtra",
    "Taluk": "Washim",
    "Districtname": "Washim",
    "statename": "MAHARASHTRA"
  },
  {
    "pincode": "444506",
    "officename": "Mahagaon B.O",
    "officeType": "B.O",
    "Deliverystatus": "Delivery",
    "divisionname": "Akola",
    "regionname": "Nagpur",
    "circlename": "Maharashtra",
    "Taluk": "Washim",
    "Districtname": "Washim",
    "statename": "MAHARASHTRA"
  },
  {
    "pincode": "444506",
    "officename": "Mandwa B.O",
    "officeType": "B.O",
    "Deliverystatus": "Delivery",
    "divisionname": "Akola",
    "regionname": "Nagpur",
    "circlename": "Maharashtra",
    "Taluk": "Washim",
    "Districtname": "Washim",
    "statename": "MAHARASHTRA"
  },
  {
    "pincode": "444506",
    "officename": "Mop B.O",
    "officeType": "B.O",
    "Deliverystatus": "Delivery",
    "divisionname": "Akola",
    "regionname": "Nagpur",
    "circlename": "Maharashtra",
    "Taluk": "Washim",
    "Districtname": "Washim",
    "statename": "MAHARASHTRA"
  },
  {
    "pincode": "444506",
    "officename": "Mothegaon B.O",
    "officeType": "B.O",
    "Deliverystatus": "Delivery",
    "divisionname": "Akola",
    "regionname": "Nagpur",
    "circlename": "Maharashtra",
    "Taluk": "Washim",
    "Districtname": "Washim",
    "statename": "MAHARASHTRA"
  },
  {
    "pincode": "444506",
    "officename": "Risod S.O",
    "officeType": "S.O",
    "Deliverystatus": "Delivery",
    "divisionname": "Akola",
    "regionname": "Nagpur",
    "circlename": "Maharashtra",
    "Taluk": "Washim",
    "Districtname": "Washim",
    "statename": "MAHARASHTRA"
  },
  {
    "pincode": "444506",
    "officename": "Sawad B.O",
    "officeType": "B.O",
    "Deliverystatus": "Delivery",
    "divisionname": "Akola",
    "regionname": "Nagpur",
    "circlename": "Maharashtra",
    "Taluk": "Washim",
    "Districtname": "Washim",
    "statename": "MAHARASHTRA"
  },
  {
    "pincode": "444506",
    "officename": "Shelukhadse B.O",
    "officeType": "B.O",
    "Deliverystatus": "Delivery",
    "divisionname": "Akola",
    "regionname": "Nagpur",
    "circlename": "Maharashtra",
    "Taluk": "Washim",
    "Districtname": "Washim",
    "statename": "MAHARASHTRA"
  },
  {
    "pincode": "444506",
    "officename": "Wakad B.O",
    "officeType": "B.O",
    "Deliverystatus": "Delivery",
    "divisionname": "Akola",
    "regionname": "Nagpur",
    "circlename": "Maharashtra",
    "Taluk": "Washim",
    "Districtname": "Washim",
    "statename": "MAHARASHTRA"
  }
]
