[
  {
    "pincode": "444719",
    "officename": "Bhokarbardi B.O",
    "officeType": "B.O",
    "Deliverystatus": "Delivery",
    "divisionname": "Amaravati",
    "regionname": "Nagpur",
    "circlename": "Maharashtra",
    "Taluk": "",
    "Districtname": "Amravati",
    "statename": "MAHARASHTRA"
  },
  {
    "pincode": "444719",
    "officename": "Dabida B.O",
    "officeType": "B.O",
    "Deliverystatus": "Delivery",
    "divisionname": "Amaravati",
    "regionname": "Nagpur",
    "circlename": "Maharashtra",
    "Taluk": "",
    "Districtname": "Amravati",
    "statename": "MAHARASHTRA"
  },
  {
    "pincode": "444719",
    "officename": "Dabka B.O",
    "officeType": "B.O",
    "Deliverystatus": "Delivery",
    "divisionname": "Amaravati",
    "regionname": "Nagpur",
    "circlename": "Maharashtra",
    "Taluk": "",
    "Districtname": "Amravati",
    "statename": "MAHARASHTRA"
  },
  {
    "pincode": "444719",
    "officename": "Dhulghat Rly B.O",
    "officeType": "B.O",
    "Deliverystatus": "Delivery",
    "divisionname": "Amaravati",
    "regionname": "Nagpur",
    "circlename": "Maharashtra",
    "Taluk": "",
    "Districtname": "Amravati",
    "statename": "MAHARASHTRA"
  },
  {
    "pincode": "444719",
    "officename": "Dhulghat Road B.O",
    "officeType": "B.O",
    "Deliverystatus": "Delivery",
    "divisionname": "Amaravati",
    "regionname": "Nagpur",
    "circlename": "Maharashtra",
    "Taluk": "",
    "Districtname": "Amravati",
    "statename": "MAHARASHTRA"
  },
  {
    "pincode": "444719",
    "officename": "Kalamkhar S.O",
    "officeType": "S.O",
    "Deliverystatus": "Delivery",
    "divisionname": "Amaravati",
    "regionname": "Nagpur",
    "circlename": "Maharashtra",
    "Taluk": "Dharni",
    "Districtname": "Amravati",
    "statename": "MAHARASHTRA"
  },
  {
    "pincode": "444719",
    "officename": "Khaparkheda B.O",
    "officeType": "B.O",
    "Deliverystatus": "Delivery",
    "divisionname": "Amaravati",
    "regionname": "Nagpur",
    "circlename": "Maharashtra",
    "Taluk": "",
    "Districtname": "Amravati",
    "statename": "MAHARASHTRA"
  },
  {
    "pincode": "444719",
    "officename": "Sadrabadi B.O",
    "officeType": "B.O",
    "Deliverystatus": "Delivery",
    "divisionname": "Amaravati",
    "regionname": "Nagpur",
    "circlename": "Maharashtra",
    "Taluk": "",
    "Districtname": "Amravati",
    "statename": "MAHARASHTRA"
  },
  {
    "pincode": "444719",
    "officename": "Sawalikheda B.O",
    "officeType": "B.O",
    "Deliverystatus": "Delivery",
    "divisionname": "Amaravati",
    "regionname": "Nagpur",
    "circlename": "Maharashtra",
    "Taluk": "",
    "Districtname": "Amravati",
    "statename": "MAHARASHTRA"
  },
  {
    "pincode": "444719",
    "officename": "Susarda B.O",
    "officeType": "B.O",
    "Deliverystatus": "Delivery",
    "divisionname": "Amaravati",
    "regionname": "Nagpur",
    "circlename": "Maharashtra",
    "Taluk": "",
    "Districtname": "Amravati",
    "statename": "MAHARASHTRA"
  },
  {
    "pincode": "444719",
    "officename": "Zilpi B.O",
    "officeType": "B.O",
    "Deliverystatus": "Delivery",
    "divisionname": "Amaravati",
    "regionname": "Nagpur",
    "circlename": "Maharashtra",
    "Taluk": "",
    "Districtname": "Amravati",
    "statename": "MAHARASHTRA"
  }
]
