[
  {
    "pincode": "444709",
    "officename": "Anjansingi B.O",
    "officeType": "B.O",
    "Deliverystatus": "Delivery",
    "divisionname": "Amaravati",
    "regionname": "Nagpur",
    "circlename": "Maharashtra",
    "Taluk": "",
    "Districtname": "Amravati",
    "statename": "MAHARASHTRA"
  },
  {
    "pincode": "444709",
    "officename": "Anjanwati B.O",
    "officeType": "B.O",
    "Deliverystatus": "Delivery",
    "divisionname": "Amaravati",
    "regionname": "Nagpur",
    "circlename": "Maharashtra",
    "Taluk": "",
    "Districtname": "Amravati",
    "statename": "MAHARASHTRA"
  },
  {
    "pincode": "444709",
    "officename": "Ashoknagar B.O",
    "officeType": "B.O",
    "Deliverystatus": "Delivery",
    "divisionname": "Amaravati",
    "regionname": "Nagpur",
    "circlename": "Maharashtra",
    "Taluk": "",
    "Districtname": "Amravati",
    "statename": "MAHARASHTRA"
  },
  {
    "pincode": "444709",
    "officename": "Bhatkkuli Ranak B.O",
    "officeType": "B.O",
    "Deliverystatus": "Delivery",
    "divisionname": "Amaravati",
    "regionname": "Nagpur",
    "circlename": "Maharashtra",
    "Taluk": "",
    "Districtname": "Amravati",
    "statename": "MAHARASHTRA"
  },
  {
    "pincode": "444709",
    "officename": "Borda B.O",
    "officeType": "B.O",
    "Deliverystatus": "Delivery",
    "divisionname": "Amaravati",
    "regionname": "Nagpur",
    "circlename": "Maharashtra",
    "Taluk": "",
    "Districtname": "Amravati",
    "statename": "MAHARASHTRA"
  },
  {
    "pincode": "444709",
    "officename": "Borgaon Dhande B.O",
    "officeType": "B.O",
    "Deliverystatus": "Delivery",
    "divisionname": "Amaravati",
    "regionname": "Nagpur",
    "circlename": "Maharashtra",
    "Taluk": "",
    "Districtname": "Amravati",
    "statename": "MAHARASHTRA"
  },
  {
    "pincode": "444709",
    "officename": "Chinchpur B.O",
    "officeType": "B.O",
    "Deliverystatus": "Delivery",
    "divisionname": "Amaravati",
    "regionname": "Nagpur",
    "circlename": "Maharashtra",
    "Taluk": "",
    "Districtname": "Amravati",
    "statename": "MAHARASHTRA"
  },
  {
    "pincode": "444709",
    "officename": "Dabhada B.O",
    "officeType": "B.O",
    "Deliverystatus": "Delivery",
    "divisionname": "Amaravati",
    "regionname": "Nagpur",
    "circlename": "Maharashtra",
    "Taluk": "",
    "Districtname": "Amravati",
    "statename": "MAHARASHTRA"
  },
  {
    "pincode": "444709",
    "officename": "Deogaon B.O",
    "officeType": "B.O",
    "Deliverystatus": "Delivery",
    "divisionname": "Amaravati",
    "regionname": "Nagpur",
    "circlename": "Maharashtra",
    "Taluk": "",
    "Districtname": "Amravati",
    "statename": "MAHARASHTRA"
  },
  {
    "pincode": "444709",
    "officename": "Dhamangaon R.S. S.O",
    "officeType": "S.O",
    "Deliverystatus": "Delivery",
    "divisionname": "Amaravati",
    "regionname": "Nagpur",
    "circlename": "Maharashtra",
    "Taluk": "Dhamangaon R.s.",
    "Districtname": "Amravati",
    "statename": "MAHARASHTRA"
  },
  {
    "pincode": "444709",
    "officename": "Dhamangaon Town S.O",
    "officeType": "S.O",
    "Deliverystatus": "Non-Delivery",
    "divisionname": "Amaravati",
    "regionname": "Nagpur",
    "circlename": "Maharashtra",
    "Taluk": "Dhamangaon",
    "Districtname": "Amravati",
    "statename": "MAHARASHTRA"
  },
  {
    "pincode": "444709",
    "officename": "Hirpur B.O",
    "officeType": "B.O",
    "Deliverystatus": "Delivery",
    "divisionname": "Amaravati",
    "regionname": "Nagpur",
    "circlename": "Maharashtra",
    "Taluk": "",
    "Districtname": "Amravati",
    "statename": "MAHARASHTRA"
  },
  {
    "pincode": "444709",
    "officename": "Jalka Patache B.O",
    "officeType": "B.O",
    "Deliverystatus": "Delivery",
    "divisionname": "Amaravati",
    "regionname": "Nagpur",
    "circlename": "Maharashtra",
    "Taluk": "",
    "Districtname": "Amravati",
    "statename": "MAHARASHTRA"
  },
  {
    "pincode": "444709",
    "officename": "Juna Dhamangaon B.O",
    "officeType": "B.O",
    "Deliverystatus": "Delivery",
    "divisionname": "Amaravati",
    "regionname": "Nagpur",
    "circlename": "Maharashtra",
    "Taluk": "",
    "Districtname": "Amravati",
    "statename": "MAHARASHTRA"
  },
  {
    "pincode": "444709",
    "officename": "Kamnapur Ghusal B.O",
    "officeType": "B.O",
    "Deliverystatus": "Delivery",
    "divisionname": "Amaravati",
    "regionname": "Nagpur",
    "circlename": "Maharashtra",
    "Taluk": "",
    "Districtname": "Amravati",
    "statename": "MAHARASHTRA"
  },
  {
    "pincode": "444709",
    "officename": "Kasarkheda B.O",
    "officeType": "B.O",
    "Deliverystatus": "Delivery",
    "divisionname": "Amaravati",
    "regionname": "Nagpur",
    "circlename": "Maharashtra",
    "Taluk": "",
    "Districtname": "Amravati",
    "statename": "MAHARASHTRA"
  },
  {
    "pincode": "444709",
    "officename": "Kawali B.O",
    "officeType": "B.O",
    "Deliverystatus": "Delivery",
    "divisionname": "Amaravati",
    "regionname": "Nagpur",
    "circlename": "Maharashtra",
    "Taluk": "",
    "Districtname": "Amravati",
    "statename": "MAHARASHTRA"
  },
  {
    "pincode": "444709",
    "officename": "Kurha B.O",
    "officeType": "B.O",
    "Deliverystatus": "Delivery",
    "divisionname": "Amaravati",
    "regionname": "Nagpur",
    "circlename": "Maharashtra",
    "Taluk": "Chandur Rly",
    "Districtname": "Amravati",
    "statename": "MAHARASHTRA"
  },
  {
    "pincode": "444709",
    "officename": "Marda B.O",
    "officeType": "B.O",
    "Deliverystatus": "Delivery",
    "divisionname": "Amaravati",
    "regionname": "Nagpur",
    "circlename": "Maharashtra",
    "Taluk": "",
    "Districtname": "Amravati",
    "statename": "MAHARASHTRA"
  },
  {
    "pincode": "444709",
    "officename": "Murtizapur Taro B.O",
    "officeType": "B.O",
    "Deliverystatus": "Delivery",
    "divisionname": "Amaravati",
    "regionname": "Nagpur",
    "circlename": "Maharashtra",
    "Taluk": "",
    "Districtname": "Amravati",
    "statename": "MAHARASHTRA"
  },
  {
    "pincode": "444709",
    "officename": "Pimpalkhuta B.O",
    "officeType": "B.O",
    "Deliverystatus": "Delivery",
    "divisionname": "Amaravati",
    "regionname": "Nagpur",
    "circlename": "Maharashtra",
    "Taluk": "",
    "Districtname": "Amravati",
    "statename": "MAHARASHTRA"
  },
  {
    "pincode": "444709",
    "officename": "Tiwara B.O",
    "officeType": "B.O",
    "Deliverystatus": "Delivery",
    "divisionname": "Amaravati",
    "regionname": "Nagpur",
    "circlename": "Maharashtra",
    "Taluk": "",
    "Districtname": "Amravati",
    "statename": "MAHARASHTRA"
  },
  {
    "pincode": "444709",
    "officename": "Virul Ronghe B.O",
    "officeType": "B.O",
    "Deliverystatus": "Delivery",
    "divisionname": "Amaravati",
    "regionname": "Nagpur",
    "circlename": "Maharashtra",
    "Taluk": "",
    "Districtname": "Amravati",
    "statename": "MAHARASHTRA"
  },
  {
    "pincode": "444709",
    "officename": "Wadgaon Rajdi B.O",
    "officeType": "B.O",
    "Deliverystatus": "Delivery",
    "divisionname": "Amaravati",
    "regionname": "Nagpur",
    "circlename": "Maharashtra",
    "Taluk": "",
    "Districtname": "Amravati",
    "statename": "MAHARASHTRA"
  }
]
