[
  {
    "pincode": "444717",
    "officename": "Ambapati B.O",
    "officeType": "B.O",
    "Deliverystatus": "Delivery",
    "divisionname": "Amaravati",
    "regionname": "Nagpur",
    "circlename": "Maharashtra",
    "Taluk": "",
    "Districtname": "Amravati",
    "statename": "MAHARASHTRA"
  },
  {
    "pincode": "444717",
    "officename": "Badnapur B.O",
    "officeType": "B.O",
    "Deliverystatus": "Delivery",
    "divisionname": "Amaravati",
    "regionname": "Nagpur",
    "circlename": "Maharashtra",
    "Taluk": "",
    "Districtname": "Amravati",
    "statename": "MAHARASHTRA"
  },
  {
    "pincode": "444717",
    "officename": "Dhamangaon Gadhi S.O",
    "officeType": "S.O",
    "Deliverystatus": "Delivery",
    "divisionname": "Amaravati",
    "regionname": "Nagpur",
    "circlename": "Maharashtra",
    "Taluk": "Achalpur City",
    "Districtname": "Amravati",
    "statename": "MAHARASHTRA"
  },
  {
    "pincode": "444717",
    "officename": "Gaurkheda Bazar B.O",
    "officeType": "B.O",
    "Deliverystatus": "Delivery",
    "divisionname": "Amaravati",
    "regionname": "Nagpur",
    "circlename": "Maharashtra",
    "Taluk": "",
    "Districtname": "Amravati",
    "statename": "MAHARASHTRA"
  },
  {
    "pincode": "444717",
    "officename": "Jamli B.O",
    "officeType": "B.O",
    "Deliverystatus": "Delivery",
    "divisionname": "Amaravati",
    "regionname": "Nagpur",
    "circlename": "Maharashtra",
    "Taluk": "",
    "Districtname": "Amravati",
    "statename": "MAHARASHTRA"
  },
  {
    "pincode": "444717",
    "officename": "Kulangana B.O",
    "officeType": "B.O",
    "Deliverystatus": "Delivery",
    "divisionname": "Amaravati",
    "regionname": "Nagpur",
    "circlename": "Maharashtra",
    "Taluk": "",
    "Districtname": "Amravati",
    "statename": "MAHARASHTRA"
  },
  {
    "pincode": "444717",
    "officename": "Tambursonda B.O",
    "officeType": "B.O",
    "Deliverystatus": "Delivery",
    "divisionname": "Amaravati",
    "regionname": "Nagpur",
    "circlename": "Maharashtra",
    "Taluk": "",
    "Districtname": "Amravati",
    "statename": "MAHARASHTRA"
  },
  {
    "pincode": "444717",
    "officename": "Tolkhari B.O",
    "officeType": "B.O",
    "Deliverystatus": "Delivery",
    "divisionname": "Amaravati",
    "regionname": "Nagpur",
    "circlename": "Maharashtra",
    "Taluk": "",
    "Districtname": "Amravati",
    "statename": "MAHARASHTRA"
  },
  {
    "pincode": "444717",
    "officename": "Wastapur B.O",
    "officeType": "B.O",
    "Deliverystatus": "Delivery",
    "divisionname": "Amaravati",
    "regionname": "Nagpur",
    "circlename": "Maharashtra",
    "Taluk": "",
    "Districtname": "Amravati",
    "statename": "MAHARASHTRA"
  }
]
