[
  {
    "pincode": "444723",
    "officename": "Belaj B.O",
    "officeType": "B.O",
    "Deliverystatus": "Delivery",
    "divisionname": "Amaravati",
    "regionname": "Nagpur",
    "circlename": "Maharashtra",
    "Taluk": "",
    "Districtname": "Amravati",
    "statename": "MAHARASHTRA"
  },
  {
    "pincode": "444723",
    "officename": "Kawitha B.O",
    "officeType": "B.O",
    "Deliverystatus": "Delivery",
    "divisionname": "Amaravati",
    "regionname": "Nagpur",
    "circlename": "Maharashtra",
    "Taluk": "",
    "Districtname": "Amravati",
    "statename": "MAHARASHTRA"
  },
  {
    "pincode": "444723",
    "officename": "Kural B.O",
    "officeType": "B.O",
    "Deliverystatus": "Delivery",
    "divisionname": "Amaravati",
    "regionname": "Nagpur",
    "circlename": "Maharashtra",
    "Taluk": "",
    "Districtname": "Amravati",
    "statename": "MAHARASHTRA"
  },
  {
    "pincode": "444723",
    "officename": "Pimpri B.O",
    "officeType": "B.O",
    "Deliverystatus": "Delivery",
    "divisionname": "Amaravati",
    "regionname": "Nagpur",
    "circlename": "Maharashtra",
    "Taluk": "",
    "Districtname": "Amravati",
    "statename": "MAHARASHTRA"
  },
  {
    "pincode": "444723",
    "officename": "Sirajgaon Band S.O",
    "officeType": "S.O",
    "Deliverystatus": "Delivery",
    "divisionname": "Amaravati",
    "regionname": "Nagpur",
    "circlename": "Maharashtra",
    "Taluk": "Chandur Bazar",
    "Districtname": "Amravati",
    "statename": "MAHARASHTRA"
  },
  {
    "pincode": "444723",
    "officename": "Talegaon Mohana B.O",
    "officeType": "B.O",
    "Deliverystatus": "Delivery",
    "divisionname": "Amaravati",
    "regionname": "Nagpur",
    "circlename": "Maharashtra",
    "Taluk": "",
    "Districtname": "Amravati",
    "statename": "MAHARASHTRA"
  },
  {
    "pincode": "444723",
    "officename": "Tondgaon B.O",
    "officeType": "B.O",
    "Deliverystatus": "Delivery",
    "divisionname": "Amaravati",
    "regionname": "Nagpur",
    "circlename": "Maharashtra",
    "Taluk": "",
    "Districtname": "Amravati",
    "statename": "MAHARASHTRA"
  },
  {
    "pincode": "444723",
    "officename": "Tuljapur Gadhi B.O",
    "officeType": "B.O",
    "Deliverystatus": "Delivery",
    "divisionname": "Amaravati",
    "regionname": "Nagpur",
    "circlename": "Maharashtra",
    "Taluk": "",
    "Districtname": "Amravati",
    "statename": "MAHARASHTRA"
  }
]
