[
  {
    "pincode": "444808",
    "officename": "Borala B.O",
    "officeType": "B.O",
    "Deliverystatus": "Delivery",
    "divisionname": "Amaravati",
    "regionname": "Nagpur",
    "circlename": "Maharashtra",
    "Taluk": "",
    "Districtname": "Amravati",
    "statename": "MAHARASHTRA"
  },
  {
    "pincode": "444808",
    "officename": "Kakda B.O",
    "officeType": "B.O",
    "Deliverystatus": "Delivery",
    "divisionname": "Amaravati",
    "regionname": "Nagpur",
    "circlename": "Maharashtra",
    "Taluk": "",
    "Districtname": "Amravati",
    "statename": "MAHARASHTRA"
  },
  {
    "pincode": "444808",
    "officename": "Kolha B.O",
    "officeType": "B.O",
    "Deliverystatus": "Delivery",
    "divisionname": "Amaravati",
    "regionname": "Nagpur",
    "circlename": "Maharashtra",
    "Taluk": "",
    "Districtname": "Amravati",
    "statename": "MAHARASHTRA"
  },
  {
    "pincode": "444808",
    "officename": "Kushta BK B.O",
    "officeType": "B.O",
    "Deliverystatus": "Delivery",
    "divisionname": "Amaravati",
    "regionname": "Nagpur",
    "circlename": "Maharashtra",
    "Taluk": "",
    "Districtname": "Amravati",
    "statename": "MAHARASHTRA"
  },
  {
    "pincode": "444808",
    "officename": "Morgad B.O",
    "officeType": "B.O",
    "Deliverystatus": "Delivery",
    "divisionname": "Amaravati",
    "regionname": "Nagpur",
    "circlename": "Maharashtra",
    "Taluk": "",
    "Districtname": "Amravati",
    "statename": "MAHARASHTRA"
  },
  {
    "pincode": "444808",
    "officename": "Pandhari B.O",
    "officeType": "B.O",
    "Deliverystatus": "Delivery",
    "divisionname": "Amaravati",
    "regionname": "Nagpur",
    "circlename": "Maharashtra",
    "Taluk": "",
    "Districtname": "Amravati",
    "statename": "MAHARASHTRA"
  },
  {
    "pincode": "444808",
    "officename": "Parasapur B.O",
    "officeType": "B.O",
    "Deliverystatus": "Delivery",
    "divisionname": "Amaravati",
    "regionname": "Nagpur",
    "circlename": "Maharashtra",
    "Taluk": "",
    "Districtname": "Amravati",
    "statename": "MAHARASHTRA"
  },
  {
    "pincode": "444808",
    "officename": "Pathrot S.O",
    "officeType": "S.O",
    "Deliverystatus": "Delivery",
    "divisionname": "Amaravati",
    "regionname": "Nagpur",
    "circlename": "Maharashtra",
    "Taluk": "Achalpur City",
    "Districtname": "Amravati",
    "statename": "MAHARASHTRA"
  },
  {
    "pincode": "444808",
    "officename": "Sindi BK B.O",
    "officeType": "B.O",
    "Deliverystatus": "Delivery",
    "divisionname": "Amaravati",
    "regionname": "Nagpur",
    "circlename": "Maharashtra",
    "Taluk": "",
    "Districtname": "Amravati",
    "statename": "MAHARASHTRA"
  },
  {
    "pincode": "444808",
    "officename": "Sonapur B.O",
    "officeType": "B.O",
    "Deliverystatus": "Delivery",
    "divisionname": "Amaravati",
    "regionname": "Nagpur",
    "circlename": "Maharashtra",
    "Taluk": "",
    "Districtname": "Amravati",
    "statename": "MAHARASHTRA"
  },
  {
    "pincode": "444808",
    "officename": "Tawlar B.O",
    "officeType": "B.O",
    "Deliverystatus": "Delivery",
    "divisionname": "Amaravati",
    "regionname": "Nagpur",
    "circlename": "Maharashtra",
    "Taluk": "",
    "Districtname": "Amravati",
    "statename": "MAHARASHTRA"
  },
  {
    "pincode": "444808",
    "officename": "Wadgaon Fatepur B.O",
    "officeType": "B.O",
    "Deliverystatus": "Delivery",
    "divisionname": "Amaravati",
    "regionname": "Nagpur",
    "circlename": "Maharashtra",
    "Taluk": "",
    "Districtname": "Amravati",
    "statename": "MAHARASHTRA"
  }
]
