[
  {
    "pincode": "445001",
    "officename": "Asegaon Devi B.O",
    "officeType": "B.O",
    "Deliverystatus": "Delivery",
    "divisionname": "Yeotmal",
    "regionname": "Nagpur",
    "circlename": "Maharashtra",
    "Taluk": "Yavatmal",
    "Districtname": "Yavatmal",
    "statename": "MAHARASHTRA"
  },
  {
    "pincode": "445001",
    "officename": "Asola B.O",
    "officeType": "B.O",
    "Deliverystatus": "Delivery",
    "divisionname": "Yeotmal",
    "regionname": "Nagpur",
    "circlename": "Maharashtra",
    "Taluk": "Yavatmal",
    "Districtname": "Yavatmal",
    "statename": "MAHARASHTRA"
  },
  {
    "pincode": "445001",
    "officename": "Awdhutwadi (Yavatma)l S.O",
    "officeType": "S.O",
    "Deliverystatus": "Non-Delivery",
    "divisionname": "Yeotmal",
    "regionname": "Nagpur",
    "circlename": "Maharashtra",
    "Taluk": "Yavatmal",
    "Districtname": "Yavatmal",
    "statename": "MAHARASHTRA"
  },
  {
    "pincode": "445001",
    "officename": "Chhoti Gujri (Yavatmal) S.O",
    "officeType": "S.O",
    "Deliverystatus": "Non-Delivery",
    "divisionname": "Yeotmal",
    "regionname": "Nagpur",
    "circlename": "Maharashtra",
    "Taluk": "Yavatmal",
    "Districtname": "Yavatmal",
    "statename": "MAHARASHTRA"
  },
  {
    "pincode": "445001",
    "officename": "Govt Poly (Yavatmal) S.O",
    "officeType": "S.O",
    "Deliverystatus": "Non-Delivery",
    "divisionname": "Yeotmal",
    "regionname": "Nagpur",
    "circlename": "Maharashtra",
    "Taluk": "Yavatmal",
    "Districtname": "Yavatmal",
    "statename": "MAHARASHTRA"
  },
  {
    "pincode": "445001",
    "officename": "Kapra Methad B.O",
    "officeType": "B.O",
    "Deliverystatus": "Delivery",
    "divisionname": "Yeotmal",
    "regionname": "Nagpur",
    "circlename": "Maharashtra",
    "Taluk": "Yavatmal",
    "Districtname": "Yavatmal",
    "statename": "MAHARASHTRA"
  },
  {
    "pincode": "445001",
    "officename": "Karalgaon B.O",
    "officeType": "B.O",
    "Deliverystatus": "Delivery",
    "divisionname": "Yeotmal",
    "regionname": "Nagpur",
    "circlename": "Maharashtra",
    "Taluk": "Yavatmal",
    "Districtname": "Yavatmal",
    "statename": "MAHARASHTRA"
  },
  {
    "pincode": "445001",
    "officename": "Moha B.O",
    "officeType": "B.O",
    "Deliverystatus": "Delivery",
    "divisionname": "Yeotmal",
    "regionname": "Nagpur",
    "circlename": "Maharashtra",
    "Taluk": "Yavatmal",
    "Districtname": "Yavatmal",
    "statename": "MAHARASHTRA"
  },
  {
    "pincode": "445001",
    "officename": "Postal Colony (Yavatmal) S.O",
    "officeType": "S.O",
    "Deliverystatus": "Non-Delivery",
    "divisionname": "Yeotmal",
    "regionname": "Nagpur",
    "circlename": "Maharashtra",
    "Taluk": "Yavatmal",
    "Districtname": "Yavatmal",
    "statename": "MAHARASHTRA"
  },
  {
    "pincode": "445001",
    "officename": "Sawar B.O",
    "officeType": "B.O",
    "Deliverystatus": "Delivery",
    "divisionname": "Yeotmal",
    "regionname": "Nagpur",
    "circlename": "Maharashtra",
    "Taluk": "Yavatmal",
    "Districtname": "Yavatmal",
    "statename": "MAHARASHTRA"
  },
  {
    "pincode": "445001",
    "officename": "Tilakwadi (Yavatmal) S.O",
    "officeType": "S.O",
    "Deliverystatus": "Non-Delivery",
    "divisionname": "Yeotmal",
    "regionname": "Nagpur",
    "circlename": "Maharashtra",
    "Taluk": "Yavatmal",
    "Districtname": "Yavatmal",
    "statename": "MAHARASHTRA"
  },
  {
    "pincode": "445001",
    "officename": "Yavatmal H.O",
    "officeType": "H.O",
    "Deliverystatus": "Delivery",
    "divisionname": "Yeotmal",
    "regionname": "Nagpur",
    "circlename": "Maharashtra",
    "Taluk": "Yavatmal",
    "Districtname": "Yavatmal",
    "statename": "MAHARASHTRA"
  },
  {
    "pincode": "445001",
    "officename": "Yavatmal Town S.O",
    "officeType": "S.O",
    "Deliverystatus": "Non-Delivery",
    "divisionname": "Yeotmal",
    "regionname": "Nagpur",
    "circlename": "Maharashtra",
    "Taluk": "Yavatmal",
    "Districtname": "Yavatmal",
    "statename": "MAHARASHTRA"
  }
]
