[
  {
    "pincode": "445101",
    "officename": "Ashti B.O",
    "officeType": "B.O",
    "Deliverystatus": "Delivery",
    "divisionname": "Yeotmal",
    "regionname": "Nagpur",
    "circlename": "Maharashtra",
    "Taluk": "Kalamb",
    "Districtname": "Yavatmal",
    "statename": "MAHARASHTRA"
  },
  {
    "pincode": "445101",
    "officename": "Babhulgaon S.O",
    "officeType": "S.O",
    "Deliverystatus": "Delivery",
    "divisionname": "Yeotmal",
    "regionname": "Nagpur",
    "circlename": "Maharashtra",
    "Taluk": "Babhulgaon",
    "Districtname": "Yavatmal",
    "statename": "MAHARASHTRA"
  },
  {
    "pincode": "445101",
    "officename": "Dabha (Pahur) B.O",
    "officeType": "B.O",
    "Deliverystatus": "Delivery",
    "divisionname": "Yeotmal",
    "regionname": "Nagpur",
    "circlename": "Maharashtra",
    "Taluk": "Babhulgaon",
    "Districtname": "Yavatmal",
    "statename": "MAHARASHTRA"
  },
  {
    "pincode": "445101",
    "officename": "Dighi B.O",
    "officeType": "B.O",
    "Deliverystatus": "Delivery",
    "divisionname": "Yeotmal",
    "regionname": "Nagpur",
    "circlename": "Maharashtra",
    "Taluk": "Babhulgaon",
    "Districtname": "Yavatmal",
    "statename": "MAHARASHTRA"
  },
  {
    "pincode": "445101",
    "officename": "Falegaon B.O",
    "officeType": "B.O",
    "Deliverystatus": "Delivery",
    "divisionname": "Yeotmal",
    "regionname": "Nagpur",
    "circlename": "Maharashtra",
    "Taluk": "Babhulgaon",
    "Districtname": "Yavatmal",
    "statename": "MAHARASHTRA"
  },
  {
    "pincode": "445101",
    "officename": "Ganori B.O",
    "officeType": "B.O",
    "Deliverystatus": "Delivery",
    "divisionname": "Yeotmal",
    "regionname": "Nagpur",
    "circlename": "Maharashtra",
    "Taluk": "Babhulgaon",
    "Districtname": "Yavatmal",
    "statename": "MAHARASHTRA"
  },
  {
    "pincode": "445101",
    "officename": "Gharfal B.O",
    "officeType": "B.O",
    "Deliverystatus": "Delivery",
    "divisionname": "Yeotmal",
    "regionname": "Nagpur",
    "circlename": "Maharashtra",
    "Taluk": "Babhulgaon",
    "Districtname": "Yavatmal",
    "statename": "MAHARASHTRA"
  },
  {
    "pincode": "445101",
    "officename": "Kharda B.O",
    "officeType": "B.O",
    "Deliverystatus": "Delivery",
    "divisionname": "Yeotmal",
    "regionname": "Nagpur",
    "circlename": "Maharashtra",
    "Taluk": "Babhulgaon",
    "Districtname": "Yavatmal",
    "statename": "MAHARASHTRA"
  },
  {
    "pincode": "445101",
    "officename": "Kotamba B.O",
    "officeType": "B.O",
    "Deliverystatus": "Delivery",
    "divisionname": "Yeotmal",
    "regionname": "Nagpur",
    "circlename": "Maharashtra",
    "Taluk": "Babhulgaon",
    "Districtname": "Yavatmal",
    "statename": "MAHARASHTRA"
  },
  {
    "pincode": "445101",
    "officename": "Naigaon B.O",
    "officeType": "B.O",
    "Deliverystatus": "Delivery",
    "divisionname": "Yeotmal",
    "regionname": "Nagpur",
    "circlename": "Maharashtra",
    "Taluk": "Babhulgaon",
    "Districtname": "Yavatmal",
    "statename": "MAHARASHTRA"
  },
  {
    "pincode": "445101",
    "officename": "Pachkhed B.O",
    "officeType": "B.O",
    "Deliverystatus": "Delivery",
    "divisionname": "Yeotmal",
    "regionname": "Nagpur",
    "circlename": "Maharashtra",
    "Taluk": "Babhulgaon",
    "Districtname": "Yavatmal",
    "statename": "MAHARASHTRA"
  },
  {
    "pincode": "445101",
    "officename": "Pahur (Dabha) B.O",
    "officeType": "B.O",
    "Deliverystatus": "Delivery",
    "divisionname": "Yeotmal",
    "regionname": "Nagpur",
    "circlename": "Maharashtra",
    "Taluk": "Babhulgaon",
    "Districtname": "Yavatmal",
    "statename": "MAHARASHTRA"
  },
  {
    "pincode": "445101",
    "officename": "Pardi (Sawlapur) B.O",
    "officeType": "B.O",
    "Deliverystatus": "Delivery",
    "divisionname": "Yeotmal",
    "regionname": "Nagpur",
    "circlename": "Maharashtra",
    "Taluk": "Kalamb",
    "Districtname": "Yavatmal",
    "statename": "MAHARASHTRA"
  },
  {
    "pincode": "445101",
    "officename": "Pimpalkhuta B.O",
    "officeType": "B.O",
    "Deliverystatus": "Delivery",
    "divisionname": "Yeotmal",
    "regionname": "Nagpur",
    "circlename": "Maharashtra",
    "Taluk": "Babhulgaon",
    "Districtname": "Yavatmal",
    "statename": "MAHARASHTRA"
  },
  {
    "pincode": "445101",
    "officename": "Rani Amravati B.O",
    "officeType": "B.O",
    "Deliverystatus": "Delivery",
    "divisionname": "Yeotmal",
    "regionname": "Nagpur",
    "circlename": "Maharashtra",
    "Taluk": "Babhulgaon",
    "Districtname": "Yavatmal",
    "statename": "MAHARASHTRA"
  },
  {
    "pincode": "445101",
    "officename": "Sarul B.O",
    "officeType": "B.O",
    "Deliverystatus": "Delivery",
    "divisionname": "Yeotmal",
    "regionname": "Nagpur",
    "circlename": "Maharashtra",
    "Taluk": "Babhulgaon",
    "Districtname": "Yavatmal",
    "statename": "MAHARASHTRA"
  },
  {
    "pincode": "445101",
    "officename": "Veni (Kotha) B.O",
    "officeType": "B.O",
    "Deliverystatus": "Delivery",
    "divisionname": "Yeotmal",
    "regionname": "Nagpur",
    "circlename": "Maharashtra",
    "Taluk": "Kalamb",
    "Districtname": "Yavatmal",
    "statename": "MAHARASHTRA"
  },
  {
    "pincode": "445101",
    "officename": "Veni Kasba B.O",
    "officeType": "B.O",
    "Deliverystatus": "Delivery",
    "divisionname": "Yeotmal",
    "regionname": "Nagpur",
    "circlename": "Maharashtra",
    "Taluk": "Babhulgaon",
    "Districtname": "Yavatmal",
    "statename": "MAHARASHTRA"
  },
  {
    "pincode": "445101",
    "officename": "Watkhed B.O",
    "officeType": "B.O",
    "Deliverystatus": "Delivery",
    "divisionname": "Yeotmal",
    "regionname": "Nagpur",
    "circlename": "Maharashtra",
    "Taluk": "Babhulgaon",
    "Districtname": "Yavatmal",
    "statename": "MAHARASHTRA"
  }
]
