[
  {
    "pincode": "445204",
    "officename": "Bansi B.O",
    "officeType": "B.O",
    "Deliverystatus": "Delivery",
    "divisionname": "Yeotmal",
    "regionname": "Nagpur",
    "circlename": "Maharashtra",
    "Taluk": "Pusad",
    "Districtname": "Yavatmal",
    "statename": "MAHARASHTRA"
  },
  {
    "pincode": "445204",
    "officename": "Bhandari B.O",
    "officeType": "B.O",
    "Deliverystatus": "Delivery",
    "divisionname": "Yeotmal",
    "regionname": "Nagpur",
    "circlename": "Maharashtra",
    "Taluk": "Pusad",
    "Districtname": "Yavatmal",
    "statename": "MAHARASHTRA"
  },
  {
    "pincode": "445204",
    "officename": "Bhojla B.O",
    "officeType": "B.O",
    "Deliverystatus": "Delivery",
    "divisionname": "Yeotmal",
    "regionname": "Nagpur",
    "circlename": "Maharashtra",
    "Taluk": "Pusad",
    "Districtname": "Yavatmal",
    "statename": "MAHARASHTRA"
  },
  {
    "pincode": "445204",
    "officename": "Brahmangaon B.O",
    "officeType": "B.O",
    "Deliverystatus": "Delivery",
    "divisionname": "Yeotmal",
    "regionname": "Nagpur",
    "circlename": "Maharashtra",
    "Taluk": "Pusad",
    "Districtname": "Yavatmal",
    "statename": "MAHARASHTRA"
  },
  {
    "pincode": "445204",
    "officename": "Chikhali Camp B.O",
    "officeType": "B.O",
    "Deliverystatus": "Delivery",
    "divisionname": "Yeotmal",
    "regionname": "Nagpur",
    "circlename": "Maharashtra",
    "Taluk": "Pusad",
    "Districtname": "Yavatmal",
    "statename": "MAHARASHTRA"
  },
  {
    "pincode": "445204",
    "officename": "Gahuli B.O",
    "officeType": "B.O",
    "Deliverystatus": "Delivery",
    "divisionname": "Yeotmal",
    "regionname": "Nagpur",
    "circlename": "Maharashtra",
    "Taluk": "Pusad",
    "Districtname": "Yavatmal",
    "statename": "MAHARASHTRA"
  },
  {
    "pincode": "445204",
    "officename": "Hiwara B.O",
    "officeType": "B.O",
    "Deliverystatus": "Delivery",
    "divisionname": "Yeotmal",
    "regionname": "Nagpur",
    "circlename": "Maharashtra",
    "Taluk": "Mahagaon",
    "Districtname": "Yavatmal",
    "statename": "MAHARASHTRA"
  },
  {
    "pincode": "445204",
    "officename": "Jamb Bazar B.O",
    "officeType": "B.O",
    "Deliverystatus": "Delivery",
    "divisionname": "Yeotmal",
    "regionname": "Nagpur",
    "circlename": "Maharashtra",
    "Taluk": "Pusad",
    "Districtname": "Yavatmal",
    "statename": "MAHARASHTRA"
  },
  {
    "pincode": "445204",
    "officename": "Jamni Dhundi B.O",
    "officeType": "B.O",
    "Deliverystatus": "Delivery",
    "divisionname": "Yeotmal",
    "regionname": "Nagpur",
    "circlename": "Maharashtra",
    "Taluk": "Pusad",
    "Districtname": "Yavatmal",
    "statename": "MAHARASHTRA"
  },
  {
    "pincode": "445204",
    "officename": "Kali Daulat Khan B.O",
    "officeType": "B.O",
    "Deliverystatus": "Delivery",
    "divisionname": "Yeotmal",
    "regionname": "Nagpur",
    "circlename": "Maharashtra",
    "Taluk": "Pusad",
    "Districtname": "Yavatmal",
    "statename": "MAHARASHTRA"
  },
  {
    "pincode": "445204",
    "officename": "Kasola B.O",
    "officeType": "B.O",
    "Deliverystatus": "Delivery",
    "divisionname": "Yeotmal",
    "regionname": "Nagpur",
    "circlename": "Maharashtra",
    "Taluk": "Mahagaon",
    "Districtname": "Yavatmal",
    "statename": "MAHARASHTRA"
  },
  {
    "pincode": "445204",
    "officename": "Kondri B.O",
    "officeType": "B.O",
    "Deliverystatus": "Delivery",
    "divisionname": "Yeotmal",
    "regionname": "Nagpur",
    "circlename": "Maharashtra",
    "Taluk": "Mahagaon",
    "Districtname": "Yavatmal",
    "statename": "MAHARASHTRA"
  },
  {
    "pincode": "445204",
    "officename": "Lewa B.O",
    "officeType": "B.O",
    "Deliverystatus": "Delivery",
    "divisionname": "Yeotmal",
    "regionname": "Nagpur",
    "circlename": "Maharashtra",
    "Taluk": "Pusad",
    "Districtname": "Yavatmal",
    "statename": "MAHARASHTRA"
  },
  {
    "pincode": "445204",
    "officename": "Moha B.O",
    "officeType": "B.O",
    "Deliverystatus": "Delivery",
    "divisionname": "Yeotmal",
    "regionname": "Nagpur",
    "circlename": "Maharashtra",
    "Taluk": "Pusad",
    "Districtname": "Yavatmal",
    "statename": "MAHARASHTRA"
  },
  {
    "pincode": "445204",
    "officename": "Mohadi B.O",
    "officeType": "B.O",
    "Deliverystatus": "Delivery",
    "divisionname": "Yeotmal",
    "regionname": "Nagpur",
    "circlename": "Maharashtra",
    "Taluk": "Mahagaon",
    "Districtname": "Yavatmal",
    "statename": "MAHARASHTRA"
  },
  {
    "pincode": "445204",
    "officename": "Mokhad B.O",
    "officeType": "B.O",
    "Deliverystatus": "Delivery",
    "divisionname": "Yeotmal",
    "regionname": "Nagpur",
    "circlename": "Maharashtra",
    "Taluk": "Pusad",
    "Districtname": "Yavatmal",
    "statename": "MAHARASHTRA"
  },
  {
    "pincode": "445204",
    "officename": "Parwa B.O",
    "officeType": "B.O",
    "Deliverystatus": "Delivery",
    "divisionname": "Yeotmal",
    "regionname": "Nagpur",
    "circlename": "Maharashtra",
    "Taluk": "Pusad",
    "Districtname": "Yavatmal",
    "statename": "MAHARASHTRA"
  },
  {
    "pincode": "445204",
    "officename": "Pedhi B.O",
    "officeType": "B.O",
    "Deliverystatus": "Delivery",
    "divisionname": "Yeotmal",
    "regionname": "Nagpur",
    "circlename": "Maharashtra",
    "Taluk": "Mahagaon",
    "Districtname": "Yavatmal",
    "statename": "MAHARASHTRA"
  },
  {
    "pincode": "445204",
    "officename": "Pohandul B.O",
    "officeType": "B.O",
    "Deliverystatus": "Delivery",
    "divisionname": "Yeotmal",
    "regionname": "Nagpur",
    "circlename": "Maharashtra",
    "Taluk": "Mahagaon",
    "Districtname": "Yavatmal",
    "statename": "MAHARASHTRA"
  },
  {
    "pincode": "445204",
    "officename": "Pophali B.O",
    "officeType": "B.O",
    "Deliverystatus": "Delivery",
    "divisionname": "Yeotmal",
    "regionname": "Nagpur",
    "circlename": "Maharashtra",
    "Taluk": "Pusad",
    "Districtname": "Yavatmal",
    "statename": "MAHARASHTRA"
  },
  {
    "pincode": "445204",
    "officename": "Pusad S.O",
    "officeType": "S.O",
    "Deliverystatus": "Delivery",
    "divisionname": "Yeotmal",
    "regionname": "Nagpur",
    "circlename": "Maharashtra",
    "Taluk": "Pusad",
    "Districtname": "Yavatmal",
    "statename": "MAHARASHTRA"
  },
  {
    "pincode": "445204",
    "officename": "Pusad Town ( Pusad) S.O",
    "officeType": "S.O",
    "Deliverystatus": "Non-Delivery",
    "divisionname": "Yeotmal",
    "regionname": "Nagpur",
    "circlename": "Maharashtra",
    "Taluk": "Pusad",
    "Districtname": "Yavatmal",
    "statename": "MAHARASHTRA"
  },
  {
    "pincode": "445204",
    "officename": "Wanwarla B.O",
    "officeType": "B.O",
    "Deliverystatus": "Delivery",
    "divisionname": "Yeotmal",
    "regionname": "Nagpur",
    "circlename": "Maharashtra",
    "Taluk": "Pusad",
    "Districtname": "Yavatmal",
    "statename": "MAHARASHTRA"
  }
]
