[
  {
    "pincode": "445301",
    "officename": "Akpuri B.O",
    "officeType": "B.O",
    "Deliverystatus": "Delivery",
    "divisionname": "Yeotmal",
    "regionname": "Nagpur",
    "circlename": "Maharashtra",
    "Taluk": "Yavatmal",
    "Districtname": "Yavatmal",
    "statename": "MAHARASHTRA"
  },
  {
    "pincode": "445301",
    "officename": "Anji (Nrusinha) B.O",
    "officeType": "B.O",
    "Deliverystatus": "Delivery",
    "divisionname": "Yeotmal",
    "regionname": "Nagpur",
    "circlename": "Maharashtra",
    "Taluk": "Ghatanji",
    "Districtname": "Yavatmal",
    "statename": "MAHARASHTRA"
  },
  {
    "pincode": "445301",
    "officename": "Ghatanji S.O",
    "officeType": "S.O",
    "Deliverystatus": "Delivery",
    "divisionname": "Yeotmal",
    "regionname": "Nagpur",
    "circlename": "Maharashtra",
    "Taluk": "Ghatanji",
    "Districtname": "Yavatmal",
    "statename": "MAHARASHTRA"
  },
  {
    "pincode": "445301",
    "officename": "Ghoti B.O",
    "officeType": "B.O",
    "Deliverystatus": "Delivery",
    "divisionname": "Yeotmal",
    "regionname": "Nagpur",
    "circlename": "Maharashtra",
    "Taluk": "Ghatanji",
    "Districtname": "Yavatmal",
    "statename": "MAHARASHTRA"
  },
  {
    "pincode": "445301",
    "officename": "Mowada B.O",
    "officeType": "B.O",
    "Deliverystatus": "Delivery",
    "divisionname": "Yeotmal",
    "regionname": "Nagpur",
    "circlename": "Maharashtra",
    "Taluk": "Ghatanji",
    "Districtname": "Yavatmal",
    "statename": "MAHARASHTRA"
  },
  {
    "pincode": "445301",
    "officename": "Pandhurna Khurd B.O",
    "officeType": "B.O",
    "Deliverystatus": "Delivery",
    "divisionname": "Yeotmal",
    "regionname": "Nagpur",
    "circlename": "Maharashtra",
    "Taluk": "Ghatanji",
    "Districtname": "Yavatmal",
    "statename": "MAHARASHTRA"
  },
  {
    "pincode": "445301",
    "officename": "Patapangra B.O",
    "officeType": "B.O",
    "Deliverystatus": "Delivery",
    "divisionname": "Yeotmal",
    "regionname": "Nagpur",
    "circlename": "Maharashtra",
    "Taluk": "Ghatanji",
    "Districtname": "Yavatmal",
    "statename": "MAHARASHTRA"
  },
  {
    "pincode": "445301",
    "officename": "Rajurwadi B.O",
    "officeType": "B.O",
    "Deliverystatus": "Delivery",
    "divisionname": "Yeotmal",
    "regionname": "Nagpur",
    "circlename": "Maharashtra",
    "Taluk": "Ghatanji",
    "Districtname": "Yavatmal",
    "statename": "MAHARASHTRA"
  },
  {
    "pincode": "445301",
    "officename": "Saikhada BK B.O",
    "officeType": "B.O",
    "Deliverystatus": "Delivery",
    "divisionname": "Yeotmal",
    "regionname": "Nagpur",
    "circlename": "Maharashtra",
    "Taluk": "Ghatanji",
    "Districtname": "Yavatmal",
    "statename": "MAHARASHTRA"
  },
  {
    "pincode": "445301",
    "officename": "Sakhra Khurd B.O",
    "officeType": "B.O",
    "Deliverystatus": "Delivery",
    "divisionname": "Yeotmal",
    "regionname": "Nagpur",
    "circlename": "Maharashtra",
    "Taluk": "Ghatanji",
    "Districtname": "Yavatmal",
    "statename": "MAHARASHTRA"
  },
  {
    "pincode": "445301",
    "officename": "Sayat Kharda B.O",
    "officeType": "B.O",
    "Deliverystatus": "Delivery",
    "divisionname": "Yeotmal",
    "regionname": "Nagpur",
    "circlename": "Maharashtra",
    "Taluk": "Ghatanji",
    "Districtname": "Yavatmal",
    "statename": "MAHARASHTRA"
  },
  {
    "pincode": "445301",
    "officename": "Shiroli B.O",
    "officeType": "B.O",
    "Deliverystatus": "Delivery",
    "divisionname": "Yeotmal",
    "regionname": "Nagpur",
    "circlename": "Maharashtra",
    "Taluk": "Ghatanji",
    "Districtname": "Yavatmal",
    "statename": "MAHARASHTRA"
  },
  {
    "pincode": "445301",
    "officename": "Shivani B.O",
    "officeType": "B.O",
    "Deliverystatus": "Delivery",
    "divisionname": "Yeotmal",
    "regionname": "Nagpur",
    "circlename": "Maharashtra",
    "Taluk": "Ghatanji",
    "Districtname": "Yavatmal",
    "statename": "MAHARASHTRA"
  },
  {
    "pincode": "445301",
    "officename": "Yelabara B.O",
    "officeType": "B.O",
    "Deliverystatus": "Delivery",
    "divisionname": "Yeotmal",
    "regionname": "Nagpur",
    "circlename": "Maharashtra",
    "Taluk": "Ghatanji",
    "Districtname": "Yavatmal",
    "statename": "MAHARASHTRA"
  }
]
