[
  {
    "pincode": "445323",
    "officename": "Dabha B.O",
    "officeType": "B.O",
    "Deliverystatus": "Delivery",
    "divisionname": "Yeotmal",
    "regionname": "Nagpur",
    "circlename": "Maharashtra",
    "Taluk": "Kelapur",
    "Districtname": "Yavatmal",
    "statename": "MAHARASHTRA"
  },
  {
    "pincode": "445323",
    "officename": "Dongarkharda B.O",
    "officeType": "B.O",
    "Deliverystatus": "Delivery",
    "divisionname": "Yeotmal",
    "regionname": "Nagpur",
    "circlename": "Maharashtra",
    "Taluk": "Kalamb",
    "Districtname": "Yavatmal",
    "statename": "MAHARASHTRA"
  },
  {
    "pincode": "445323",
    "officename": "Loni B.O",
    "officeType": "B.O",
    "Deliverystatus": "Delivery",
    "divisionname": "Yeotmal",
    "regionname": "Nagpur",
    "circlename": "Maharashtra",
    "Taluk": "Ralegaon",
    "Districtname": "Yavatmal",
    "statename": "MAHARASHTRA"
  },
  {
    "pincode": "445323",
    "officename": "Metikheda B.O",
    "officeType": "B.O",
    "Deliverystatus": "Delivery",
    "divisionname": "Yeotmal",
    "regionname": "Nagpur",
    "circlename": "Maharashtra",
    "Taluk": "Yavatmal",
    "Districtname": "Yavatmal",
    "statename": "MAHARASHTRA"
  },
  {
    "pincode": "445323",
    "officename": "Mohda S.O",
    "officeType": "S.O",
    "Deliverystatus": "Delivery",
    "divisionname": "Yeotmal",
    "regionname": "Nagpur",
    "circlename": "Maharashtra",
    "Taluk": "Kelapur",
    "Districtname": "Yavatmal",
    "statename": "MAHARASHTRA"
  },
  {
    "pincode": "445323",
    "officename": "Pahur Izara B.O",
    "officeType": "B.O",
    "Deliverystatus": "Delivery",
    "divisionname": "Yeotmal",
    "regionname": "Nagpur",
    "circlename": "Maharashtra",
    "Taluk": "Kalamb",
    "Districtname": "Yavatmal",
    "statename": "MAHARASHTRA"
  },
  {
    "pincode": "445323",
    "officename": "Runza B.O",
    "officeType": "B.O",
    "Deliverystatus": "Delivery",
    "divisionname": "Yeotmal",
    "regionname": "Nagpur",
    "circlename": "Maharashtra",
    "Taluk": "Kelapur",
    "Districtname": "Yavatmal",
    "statename": "MAHARASHTRA"
  },
  {
    "pincode": "445323",
    "officename": "Sawarkheda B.O",
    "officeType": "B.O",
    "Deliverystatus": "Delivery",
    "divisionname": "Yeotmal",
    "regionname": "Nagpur",
    "circlename": "Maharashtra",
    "Taluk": "Ralegaon",
    "Districtname": "Yavatmal",
    "statename": "MAHARASHTRA"
  },
  {
    "pincode": "445323",
    "officename": "Wardh B.O",
    "officeType": "B.O",
    "Deliverystatus": "Delivery",
    "divisionname": "Yeotmal",
    "regionname": "Nagpur",
    "circlename": "Maharashtra",
    "Taluk": "Ralegaon",
    "Districtname": "Yavatmal",
    "statename": "MAHARASHTRA"
  }
]
