[
  {
    "pincode": "450991",
    "officename": "Bhakrada B.O",
    "officeType": "B.O",
    "Deliverystatus": "Delivery",
    "divisionname": "Khandwa",
    "regionname": "Indore",
    "circlename": "Madhya Pradesh",
    "Taluk": "Khandwa",
    "Districtname": "East Nimar",
    "statename": "MADHYA PRADESH"
  },
  {
    "pincode": "450991",
    "officename": "Jawar S.O (East Nimar)",
    "officeType": "S.O",
    "Deliverystatus": "Delivery",
    "divisionname": "Khandwa",
    "regionname": "Indore",
    "circlename": "Madhya Pradesh",
    "Taluk": "Khandwa",
    "Districtname": "East Nimar",
    "statename": "MADHYA PRADESH"
  },
  {
    "pincode": "450991",
    "officename": "Kehlari B.O",
    "officeType": "B.O",
    "Deliverystatus": "Delivery",
    "divisionname": "Khandwa",
    "regionname": "Indore",
    "circlename": "Madhya Pradesh",
    "Taluk": "Khandwa",
    "Districtname": "East Nimar",
    "statename": "MADHYA PRADESH"
  },
  {
    "pincode": "450991",
    "officename": "Kolgaon B.O",
    "officeType": "B.O",
    "Deliverystatus": "Delivery",
    "divisionname": "Khandwa",
    "regionname": "Indore",
    "circlename": "Madhya Pradesh",
    "Taluk": "Khandwa",
    "Districtname": "East Nimar",
    "statename": "MADHYA PRADESH"
  },
  {
    "pincode": "450991",
    "officename": "Mandla B.O",
    "officeType": "B.O",
    "Deliverystatus": "Delivery",
    "divisionname": "Khandwa",
    "regionname": "Indore",
    "circlename": "Madhya Pradesh",
    "Taluk": "Naya Harsud",
    "Districtname": "East Nimar",
    "statename": "MADHYA PRADESH"
  },
  {
    "pincode": "450991",
    "officename": "Rangaon B.O",
    "officeType": "B.O",
    "Deliverystatus": "Delivery",
    "divisionname": "Khandwa",
    "regionname": "Indore",
    "circlename": "Madhya Pradesh",
    "Taluk": "Khandwa",
    "Districtname": "East Nimar",
    "statename": "MADHYA PRADESH"
  },
  {
    "pincode": "450991",
    "officename": "Rohini B.O",
    "officeType": "B.O",
    "Deliverystatus": "Delivery",
    "divisionname": "Khandwa",
    "regionname": "Indore",
    "circlename": "Madhya Pradesh",
    "Taluk": "Khandwa",
    "Districtname": "East Nimar",
    "statename": "MADHYA PRADESH"
  },
  {
    "pincode": "450991",
    "officename": "Sahejla B.O",
    "officeType": "B.O",
    "Deliverystatus": "Delivery",
    "divisionname": "Khandwa",
    "regionname": "Indore",
    "circlename": "Madhya Pradesh",
    "Taluk": "Khandwa",
    "Districtname": "East Nimar",
    "statename": "MADHYA PRADESH"
  },
  {
    "pincode": "450991",
    "officename": "Sanvkheda B.O",
    "officeType": "B.O",
    "Deliverystatus": "Delivery",
    "divisionname": "Khandwa",
    "regionname": "Indore",
    "circlename": "Madhya Pradesh",
    "Taluk": "Khandwa",
    "Districtname": "East Nimar",
    "statename": "MADHYA PRADESH"
  },
  {
    "pincode": "450991",
    "officename": "Selda B.O",
    "officeType": "B.O",
    "Deliverystatus": "Delivery",
    "divisionname": "Khandwa",
    "regionname": "Indore",
    "circlename": "Madhya Pradesh",
    "Taluk": "Naya Harsud",
    "Districtname": "East Nimar",
    "statename": "MADHYA PRADESH"
  }
]
