[
  {
    "pincode": "451115",
    "officename": "Badel B.O",
    "officeType": "B.O",
    "Deliverystatus": "Delivery",
    "divisionname": "Khandwa",
    "regionname": "Indore",
    "circlename": "Madhya Pradesh",
    "Taluk": "Barwaha",
    "Districtname": "West Nimar",
    "statename": "MADHYA PRADESH"
  },
  {
    "pincode": "451115",
    "officename": "Balwada B.O",
    "officeType": "B.O",
    "Deliverystatus": "Delivery",
    "divisionname": "Khandwa",
    "regionname": "Indore",
    "circlename": "Madhya Pradesh",
    "Taluk": "Barwaha",
    "Districtname": "West Nimar",
    "statename": "MADHYA PRADESH"
  },
  {
    "pincode": "451115",
    "officename": "Barjhar B.O",
    "officeType": "B.O",
    "Deliverystatus": "Delivery",
    "divisionname": "Khandwa",
    "regionname": "Indore",
    "circlename": "Madhya Pradesh",
    "Taluk": "Barwaha",
    "Districtname": "West Nimar",
    "statename": "MADHYA PRADESH"
  },
  {
    "pincode": "451115",
    "officename": "Barwaha S.O",
    "officeType": "S.O",
    "Deliverystatus": "Delivery",
    "divisionname": "Khandwa",
    "regionname": "Indore",
    "circlename": "Madhya Pradesh",
    "Taluk": "Barwaha",
    "Districtname": "West Nimar",
    "statename": "MADHYA PRADESH"
  },
  {
    "pincode": "451115",
    "officename": "Dariya Mahal S.O",
    "officeType": "S.O",
    "Deliverystatus": "Non-Delivery",
    "divisionname": "Khandwa",
    "regionname": "Indore",
    "circlename": "Madhya Pradesh",
    "Taluk": "Barwaha",
    "Districtname": "West Nimar",
    "statename": "MADHYA PRADESH"
  },
  {
    "pincode": "451115",
    "officename": "Jagatpura B.O",
    "officeType": "B.O",
    "Deliverystatus": "Delivery",
    "divisionname": "Khandwa",
    "regionname": "Indore",
    "circlename": "Madhya Pradesh",
    "Taluk": "Barwaha",
    "Districtname": "West Nimar",
    "statename": "MADHYA PRADESH"
  },
  {
    "pincode": "451115",
    "officename": "Jethway B.O",
    "officeType": "B.O",
    "Deliverystatus": "Delivery",
    "divisionname": "Khandwa",
    "regionname": "Indore",
    "circlename": "Madhya Pradesh",
    "Taluk": "Barwaha",
    "Districtname": "West Nimar",
    "statename": "MADHYA PRADESH"
  },
  {
    "pincode": "451115",
    "officename": "Jhigadi B.O",
    "officeType": "B.O",
    "Deliverystatus": "Delivery",
    "divisionname": "Khandwa",
    "regionname": "Indore",
    "circlename": "Madhya Pradesh",
    "Taluk": "Barwaha",
    "Districtname": "West Nimar",
    "statename": "MADHYA PRADESH"
  },
  {
    "pincode": "451115",
    "officename": "Katkut B.O",
    "officeType": "B.O",
    "Deliverystatus": "Delivery",
    "divisionname": "Khandwa",
    "regionname": "Indore",
    "circlename": "Madhya Pradesh",
    "Taluk": "Barwaha",
    "Districtname": "West Nimar",
    "statename": "MADHYA PRADESH"
  },
  {
    "pincode": "451115",
    "officename": "Kithud B.O",
    "officeType": "B.O",
    "Deliverystatus": "Delivery",
    "divisionname": "Khandwa",
    "regionname": "Indore",
    "circlename": "Madhya Pradesh",
    "Taluk": "Barwaha",
    "Districtname": "West Nimar",
    "statename": "MADHYA PRADESH"
  },
  {
    "pincode": "451115",
    "officename": "Mukhatyra B.O",
    "officeType": "B.O",
    "Deliverystatus": "Delivery",
    "divisionname": "Khandwa",
    "regionname": "Indore",
    "circlename": "Madhya Pradesh",
    "Taluk": "Barwaha",
    "Districtname": "West Nimar",
    "statename": "MADHYA PRADESH"
  },
  {
    "pincode": "451115",
    "officename": "Nandia B.O",
    "officeType": "B.O",
    "Deliverystatus": "Delivery",
    "divisionname": "Khandwa",
    "regionname": "Indore",
    "circlename": "Madhya Pradesh",
    "Taluk": "Barwaha",
    "Districtname": "West Nimar",
    "statename": "MADHYA PRADESH"
  },
  {
    "pincode": "451115",
    "officename": "Navghatkhedi B.O",
    "officeType": "B.O",
    "Deliverystatus": "Delivery",
    "divisionname": "Khandwa",
    "regionname": "Indore",
    "circlename": "Madhya Pradesh",
    "Taluk": "Barwaha",
    "Districtname": "West Nimar",
    "statename": "MADHYA PRADESH"
  },
  {
    "pincode": "451115",
    "officename": "Naya B.O",
    "officeType": "B.O",
    "Deliverystatus": "Delivery",
    "divisionname": "Khandwa",
    "regionname": "Indore",
    "circlename": "Madhya Pradesh",
    "Taluk": "Barwaha",
    "Districtname": "West Nimar",
    "statename": "MADHYA PRADESH"
  },
  {
    "pincode": "451115",
    "officename": "Padawa Khandwa B.O",
    "officeType": "B.O",
    "Deliverystatus": "Non-Delivery",
    "divisionname": "Khandwa",
    "regionname": "Indore",
    "circlename": "Madhya Pradesh",
    "Taluk": "Khandwa",
    "Districtname": "East Nimar",
    "statename": "MADHYA PRADESH"
  },
  {
    "pincode": "451115",
    "officename": "Ratanpur B.O",
    "officeType": "B.O",
    "Deliverystatus": "Delivery",
    "divisionname": "Khandwa",
    "regionname": "Indore",
    "circlename": "Madhya Pradesh",
    "Taluk": "Barwaha",
    "Districtname": "West Nimar",
    "statename": "MADHYA PRADESH"
  },
  {
    "pincode": "451115",
    "officename": "Tharwar B.O",
    "officeType": "B.O",
    "Deliverystatus": "Delivery",
    "divisionname": "Khandwa",
    "regionname": "Indore",
    "circlename": "Madhya Pradesh",
    "Taluk": "Barwaha",
    "Districtname": "West Nimar",
    "statename": "MADHYA PRADESH"
  },
  {
    "pincode": "451115",
    "officename": "Umaria Chowki B.O",
    "officeType": "B.O",
    "Deliverystatus": "Delivery",
    "divisionname": "Khandwa",
    "regionname": "Indore",
    "circlename": "Madhya Pradesh",
    "Taluk": "Barwaha",
    "Districtname": "West Nimar",
    "statename": "MADHYA PRADESH"
  }
]
