[
  {
    "pincode": "451221",
    "officename": "Bablai B.O",
    "officeType": "B.O",
    "Deliverystatus": "Delivery",
    "divisionname": "Khandwa",
    "regionname": "Indore",
    "circlename": "Madhya Pradesh",
    "Taluk": "Maheshwar",
    "Districtname": "West Nimar",
    "statename": "MADHYA PRADESH"
  },
  {
    "pincode": "451221",
    "officename": "Choli B.O",
    "officeType": "B.O",
    "Deliverystatus": "Delivery",
    "divisionname": "Khandwa",
    "regionname": "Indore",
    "circlename": "Madhya Pradesh",
    "Taluk": "Maheshwar",
    "Districtname": "West Nimar",
    "statename": "MADHYA PRADESH"
  },
  {
    "pincode": "451221",
    "officename": "Choti Khargone B.O",
    "officeType": "B.O",
    "Deliverystatus": "Delivery",
    "divisionname": "Khandwa",
    "regionname": "Indore",
    "circlename": "Madhya Pradesh",
    "Taluk": "Maheshwar",
    "Districtname": "West Nimar",
    "statename": "MADHYA PRADESH"
  },
  {
    "pincode": "451221",
    "officename": "Dhargaon B.O",
    "officeType": "B.O",
    "Deliverystatus": "Delivery",
    "divisionname": "Khandwa",
    "regionname": "Indore",
    "circlename": "Madhya Pradesh",
    "Taluk": "Maheshwar",
    "Districtname": "West Nimar",
    "statename": "MADHYA PRADESH"
  },
  {
    "pincode": "451221",
    "officename": "Karondiya B.O",
    "officeType": "B.O",
    "Deliverystatus": "Delivery",
    "divisionname": "Khandwa",
    "regionname": "Indore",
    "circlename": "Madhya Pradesh",
    "Taluk": "Maheshwar",
    "Districtname": "West Nimar",
    "statename": "MADHYA PRADESH"
  },
  {
    "pincode": "451221",
    "officename": "Kavdiya B.O",
    "officeType": "B.O",
    "Deliverystatus": "Delivery",
    "divisionname": "Khandwa",
    "regionname": "Indore",
    "circlename": "Madhya Pradesh",
    "Taluk": "Maheshwar",
    "Districtname": "West Nimar",
    "statename": "MADHYA PRADESH"
  },
  {
    "pincode": "451221",
    "officename": "Mandleshwar S.O",
    "officeType": "S.O",
    "Deliverystatus": "Delivery",
    "divisionname": "Khandwa",
    "regionname": "Indore",
    "circlename": "Madhya Pradesh",
    "Taluk": "Maheshwar",
    "Districtname": "West Nimar",
    "statename": "MADHYA PRADESH"
  },
  {
    "pincode": "451221",
    "officename": "Somakhedi B.O",
    "officeType": "B.O",
    "Deliverystatus": "Delivery",
    "divisionname": "Khandwa",
    "regionname": "Indore",
    "circlename": "Madhya Pradesh",
    "Taluk": "Maheshwar",
    "Districtname": "West Nimar",
    "statename": "MADHYA PRADESH"
  },
  {
    "pincode": "451221",
    "officename": "Thangaon B.O",
    "officeType": "B.O",
    "Deliverystatus": "Delivery",
    "divisionname": "Khandwa",
    "regionname": "Indore",
    "circlename": "Madhya Pradesh",
    "Taluk": "Maheshwar",
    "Districtname": "West Nimar",
    "statename": "MADHYA PRADESH"
  }
]
