[
  {
    "pincode": "451335",
    "officename": "Andad B.O",
    "officeType": "B.O",
    "Deliverystatus": "Delivery",
    "divisionname": "Khandwa",
    "regionname": "Indore",
    "circlename": "Madhya Pradesh",
    "Taluk": "Bhikangaon",
    "Districtname": "West Nimar",
    "statename": "MADHYA PRADESH"
  },
  {
    "pincode": "451335",
    "officename": "Dasnawal B.O",
    "officeType": "B.O",
    "Deliverystatus": "Delivery",
    "divisionname": "Khandwa",
    "regionname": "Indore",
    "circlename": "Madhya Pradesh",
    "Taluk": "Khargone",
    "Districtname": "West Nimar",
    "statename": "MADHYA PRADESH"
  },
  {
    "pincode": "451335",
    "officename": "Dayalpura B.O",
    "officeType": "B.O",
    "Deliverystatus": "Delivery",
    "divisionname": "Khandwa",
    "regionname": "Indore",
    "circlename": "Madhya Pradesh",
    "Taluk": "Khargone",
    "Districtname": "West Nimar",
    "statename": "MADHYA PRADESH"
  },
  {
    "pincode": "451335",
    "officename": "Ghugharya Khedi B.O",
    "officeType": "B.O",
    "Deliverystatus": "Delivery",
    "divisionname": "Khandwa",
    "regionname": "Indore",
    "circlename": "Madhya Pradesh",
    "Taluk": "Khargone",
    "Districtname": "West Nimar",
    "statename": "MADHYA PRADESH"
  },
  {
    "pincode": "451335",
    "officename": "Gogawa S.O",
    "officeType": "S.O",
    "Deliverystatus": "Delivery",
    "divisionname": "Khandwa",
    "regionname": "Indore",
    "circlename": "Madhya Pradesh",
    "Taluk": "Khargone",
    "Districtname": "West Nimar",
    "statename": "MADHYA PRADESH"
  },
  {
    "pincode": "451335",
    "officename": "Kamodwada B.O",
    "officeType": "B.O",
    "Deliverystatus": "Delivery",
    "divisionname": "Khandwa",
    "regionname": "Indore",
    "circlename": "Madhya Pradesh",
    "Taluk": "Kasarawad",
    "Districtname": "West Nimar",
    "statename": "MADHYA PRADESH"
  },
  {
    "pincode": "451335",
    "officename": "Khamkheda B.O",
    "officeType": "B.O",
    "Deliverystatus": "Delivery",
    "divisionname": "Khandwa",
    "regionname": "Indore",
    "circlename": "Madhya Pradesh",
    "Taluk": "Kasarawad",
    "Districtname": "West Nimar",
    "statename": "MADHYA PRADESH"
  },
  {
    "pincode": "451335",
    "officename": "Mohammadpur B.O",
    "officeType": "B.O",
    "Deliverystatus": "Delivery",
    "divisionname": "Khandwa",
    "regionname": "Indore",
    "circlename": "Madhya Pradesh",
    "Taluk": "Khargone",
    "Districtname": "West Nimar",
    "statename": "MADHYA PRADESH"
  },
  {
    "pincode": "451335",
    "officename": "Multhan B.O",
    "officeType": "B.O",
    "Deliverystatus": "Delivery",
    "divisionname": "Khandwa",
    "regionname": "Indore",
    "circlename": "Madhya Pradesh",
    "Taluk": "Kasrawad",
    "Districtname": "West Nimar",
    "statename": "MADHYA PRADESH"
  },
  {
    "pincode": "451335",
    "officename": "Rehgaon B.O",
    "officeType": "B.O",
    "Deliverystatus": "Delivery",
    "divisionname": "Khandwa",
    "regionname": "Indore",
    "circlename": "Madhya Pradesh",
    "Taluk": "Bhikangaon",
    "Districtname": "West Nimar",
    "statename": "MADHYA PRADESH"
  },
  {
    "pincode": "451335",
    "officename": "Thibgaon B.O",
    "officeType": "B.O",
    "Deliverystatus": "Delivery",
    "divisionname": "Khandwa",
    "regionname": "Indore",
    "circlename": "Madhya Pradesh",
    "Taluk": "Khargone",
    "Districtname": "West Nimar",
    "statename": "MADHYA PRADESH"
  },
  {
    "pincode": "451335",
    "officename": "Vithnera B.O",
    "officeType": "B.O",
    "Deliverystatus": "Delivery",
    "divisionname": "Khandwa",
    "regionname": "Indore",
    "circlename": "Madhya Pradesh",
    "Taluk": "Bhikangaon",
    "Districtname": "West Nimar",
    "statename": "MADHYA PRADESH"
  }
]
