[
  {
    "pincode": "451331",
    "officename": "Bamnala B.O",
    "officeType": "B.O",
    "Deliverystatus": "Delivery",
    "divisionname": "Khandwa",
    "regionname": "Indore",
    "circlename": "Madhya Pradesh",
    "Taluk": "Bhikangaon",
    "Districtname": "West Nimar",
    "statename": "MADHYA PRADESH"
  },
  {
    "pincode": "451331",
    "officename": "Banjhar B.O",
    "officeType": "B.O",
    "Deliverystatus": "Delivery",
    "divisionname": "Khandwa",
    "regionname": "Indore",
    "circlename": "Madhya Pradesh",
    "Taluk": "Bhikangaon",
    "Districtname": "West Nimar",
    "statename": "MADHYA PRADESH"
  },
  {
    "pincode": "451331",
    "officename": "Behrampur B.O",
    "officeType": "B.O",
    "Deliverystatus": "Delivery",
    "divisionname": "Khandwa",
    "regionname": "Indore",
    "circlename": "Madhya Pradesh",
    "Taluk": "Bhikangaon",
    "Districtname": "West Nimar",
    "statename": "MADHYA PRADESH"
  },
  {
    "pincode": "451331",
    "officename": "Bhatalpura B.O",
    "officeType": "B.O",
    "Deliverystatus": "Delivery",
    "divisionname": "Khandwa",
    "regionname": "Indore",
    "circlename": "Madhya Pradesh",
    "Taluk": "Bhikangaon",
    "Districtname": "West Nimar",
    "statename": "MADHYA PRADESH"
  },
  {
    "pincode": "451331",
    "officename": "Bhikangaon S.O",
    "officeType": "S.O",
    "Deliverystatus": "Delivery",
    "divisionname": "Khandwa",
    "regionname": "Indore",
    "circlename": "Madhya Pradesh",
    "Taluk": "Bhikangaon",
    "Districtname": "West Nimar",
    "statename": "MADHYA PRADESH"
  },
  {
    "pincode": "451331",
    "officename": "Birul B.O",
    "officeType": "B.O",
    "Deliverystatus": "Delivery",
    "divisionname": "Khandwa",
    "regionname": "Indore",
    "circlename": "Madhya Pradesh",
    "Taluk": "Bhikangaon",
    "Districtname": "West Nimar",
    "statename": "MADHYA PRADESH"
  },
  {
    "pincode": "451331",
    "officename": "Deola B.O",
    "officeType": "B.O",
    "Deliverystatus": "Delivery",
    "divisionname": "Khandwa",
    "regionname": "Indore",
    "circlename": "Madhya Pradesh",
    "Taluk": "Bhikangaon",
    "Districtname": "West Nimar",
    "statename": "MADHYA PRADESH"
  },
  {
    "pincode": "451331",
    "officename": "Kaldha B.O",
    "officeType": "B.O",
    "Deliverystatus": "Delivery",
    "divisionname": "Khandwa",
    "regionname": "Indore",
    "circlename": "Madhya Pradesh",
    "Taluk": "Bhikangaon",
    "Districtname": "West Nimar",
    "statename": "MADHYA PRADESH"
  },
  {
    "pincode": "451331",
    "officename": "Kanjhar B.O",
    "officeType": "B.O",
    "Deliverystatus": "Delivery",
    "divisionname": "Khandwa",
    "regionname": "Indore",
    "circlename": "Madhya Pradesh",
    "Taluk": "Bhikangaon",
    "Districtname": "West Nimar",
    "statename": "MADHYA PRADESH"
  },
  {
    "pincode": "451331",
    "officename": "Lalkheda B.O",
    "officeType": "B.O",
    "Deliverystatus": "Delivery",
    "divisionname": "Khandwa",
    "regionname": "Indore",
    "circlename": "Madhya Pradesh",
    "Taluk": "Bhikangaon",
    "Districtname": "West Nimar",
    "statename": "MADHYA PRADESH"
  },
  {
    "pincode": "451331",
    "officename": "Nargaon B.O",
    "officeType": "B.O",
    "Deliverystatus": "Delivery",
    "divisionname": "Khandwa",
    "regionname": "Indore",
    "circlename": "Madhya Pradesh",
    "Taluk": "Bhikangaon",
    "Districtname": "West Nimar",
    "statename": "MADHYA PRADESH"
  },
  {
    "pincode": "451331",
    "officename": "Piprad B.O",
    "officeType": "B.O",
    "Deliverystatus": "Delivery",
    "divisionname": "Khandwa",
    "regionname": "Indore",
    "circlename": "Madhya Pradesh",
    "Taluk": "Bhikangaon",
    "Districtname": "West Nimar",
    "statename": "MADHYA PRADESH"
  },
  {
    "pincode": "451331",
    "officename": "Sagur Bhagur B.O",
    "officeType": "B.O",
    "Deliverystatus": "Delivery",
    "divisionname": "Khandwa",
    "regionname": "Indore",
    "circlename": "Madhya Pradesh",
    "Taluk": "Bhikangaon",
    "Districtname": "West Nimar",
    "statename": "MADHYA PRADESH"
  },
  {
    "pincode": "451331",
    "officename": "Saikhedi B.O",
    "officeType": "B.O",
    "Deliverystatus": "Delivery",
    "divisionname": "Khandwa",
    "regionname": "Indore",
    "circlename": "Madhya Pradesh",
    "Taluk": "Bhikangaon",
    "Districtname": "West Nimar",
    "statename": "MADHYA PRADESH"
  },
  {
    "pincode": "451331",
    "officename": "Sangrampur B.O",
    "officeType": "B.O",
    "Deliverystatus": "Delivery",
    "divisionname": "Khandwa",
    "regionname": "Indore",
    "circlename": "Madhya Pradesh",
    "Taluk": "Bhikangaon",
    "Districtname": "East Nimar",
    "statename": "MADHYA PRADESH"
  },
  {
    "pincode": "451331",
    "officename": "Selda B.O",
    "officeType": "B.O",
    "Deliverystatus": "Delivery",
    "divisionname": "Khandwa",
    "regionname": "Indore",
    "circlename": "Madhya Pradesh",
    "Taluk": "Bhikangaon",
    "Districtname": "West Nimar",
    "statename": "MADHYA PRADESH"
  },
  {
    "pincode": "451331",
    "officename": "Shakargaon B.O",
    "officeType": "B.O",
    "Deliverystatus": "Delivery",
    "divisionname": "Khandwa",
    "regionname": "Indore",
    "circlename": "Madhya Pradesh",
    "Taluk": "Bhikangaon",
    "Districtname": "West Nimar",
    "statename": "MADHYA PRADESH"
  },
  {
    "pincode": "451331",
    "officename": "Sundrel B.O",
    "officeType": "B.O",
    "Deliverystatus": "Delivery",
    "divisionname": "Khandwa",
    "regionname": "Indore",
    "circlename": "Madhya Pradesh",
    "Taluk": "Bhikangaon",
    "Districtname": "West Nimar",
    "statename": "MADHYA PRADESH"
  },
  {
    "pincode": "451331",
    "officename": "Tinsya B.O",
    "officeType": "B.O",
    "Deliverystatus": "Delivery",
    "divisionname": "Khandwa",
    "regionname": "Indore",
    "circlename": "Madhya Pradesh",
    "Taluk": "Jhirniya",
    "Districtname": "West Nimar",
    "statename": "MADHYA PRADESH"
  }
]
