[
  {
    "pincode": "451442",
    "officename": "Chitawal B.O",
    "officeType": "B.O",
    "Deliverystatus": "Delivery",
    "divisionname": "Khandwa",
    "regionname": "Indore",
    "circlename": "Madhya Pradesh",
    "Taluk": "Rajpur",
    "Districtname": "Barwani",
    "statename": "MADHYA PRADESH"
  },
  {
    "pincode": "451442",
    "officename": "Dasnawal B.O",
    "officeType": "B.O",
    "Deliverystatus": "Delivery",
    "divisionname": "Khandwa",
    "regionname": "Indore",
    "circlename": "Madhya Pradesh",
    "Taluk": "Segaon",
    "Districtname": "West Nimar",
    "statename": "MADHYA PRADESH"
  },
  {
    "pincode": "451442",
    "officename": "Dongargaon B.O",
    "officeType": "B.O",
    "Deliverystatus": "Delivery",
    "divisionname": "Khandwa",
    "regionname": "Indore",
    "circlename": "Madhya Pradesh",
    "Taluk": "Khargone",
    "Districtname": "West Nimar",
    "statename": "MADHYA PRADESH"
  },
  {
    "pincode": "451442",
    "officename": "Ghegaon B.O",
    "officeType": "B.O",
    "Deliverystatus": "Delivery",
    "divisionname": "Khandwa",
    "regionname": "Indore",
    "circlename": "Madhya Pradesh",
    "Taluk": "Khargone",
    "Districtname": "West Nimar",
    "statename": "MADHYA PRADESH"
  },
  {
    "pincode": "451442",
    "officename": "Golwadi B.O",
    "officeType": "B.O",
    "Deliverystatus": "Delivery",
    "divisionname": "Khandwa",
    "regionname": "Indore",
    "circlename": "Madhya Pradesh",
    "Taluk": "Segaon",
    "Districtname": "West Nimar",
    "statename": "MADHYA PRADESH"
  },
  {
    "pincode": "451442",
    "officename": "Keli B.O",
    "officeType": "B.O",
    "Deliverystatus": "Delivery",
    "divisionname": "Khandwa",
    "regionname": "Indore",
    "circlename": "Madhya Pradesh",
    "Taluk": "Segaon",
    "Districtname": "West Nimar",
    "statename": "MADHYA PRADESH"
  },
  {
    "pincode": "451442",
    "officename": "Lehaku B.O",
    "officeType": "B.O",
    "Deliverystatus": "Delivery",
    "divisionname": "Khandwa",
    "regionname": "Indore",
    "circlename": "Madhya Pradesh",
    "Taluk": "Segaon",
    "Districtname": "West Nimar",
    "statename": "MADHYA PRADESH"
  },
  {
    "pincode": "451442",
    "officename": "Lonara B.O",
    "officeType": "B.O",
    "Deliverystatus": "Delivery",
    "divisionname": "Khandwa",
    "regionname": "Indore",
    "circlename": "Madhya Pradesh",
    "Taluk": "Khargone",
    "Districtname": "West Nimar",
    "statename": "MADHYA PRADESH"
  },
  {
    "pincode": "451442",
    "officename": "Rasgaon B.O",
    "officeType": "B.O",
    "Deliverystatus": "Delivery",
    "divisionname": "Khandwa",
    "regionname": "Indore",
    "circlename": "Madhya Pradesh",
    "Taluk": "Segaon",
    "Districtname": "West Nimar",
    "statename": "MADHYA PRADESH"
  },
  {
    "pincode": "451442",
    "officename": "Segaon S.O (West Nimar)",
    "officeType": "S.O",
    "Deliverystatus": "Delivery",
    "divisionname": "Khandwa",
    "regionname": "Indore",
    "circlename": "Madhya Pradesh",
    "Taluk": "Segaon",
    "Districtname": "West Nimar",
    "statename": "MADHYA PRADESH"
  }
]
