[
  {
    "pincode": "451556",
    "officename": "Anjad S.O",
    "officeType": "S.O",
    "Deliverystatus": "Delivery",
    "divisionname": "Khandwa",
    "regionname": "Indore",
    "circlename": "Madhya Pradesh",
    "Taluk": "Anjad",
    "Districtname": "Barwani",
    "statename": "MADHYA PRADESH"
  },
  {
    "pincode": "451556",
    "officename": "Balkuwan B.O",
    "officeType": "B.O",
    "Deliverystatus": "Delivery",
    "divisionname": "Khandwa",
    "regionname": "Indore",
    "circlename": "Madhya Pradesh",
    "Taluk": "Barwani",
    "Districtname": "Barwani",
    "statename": "MADHYA PRADESH"
  },
  {
    "pincode": "451556",
    "officename": "Barda B.O",
    "officeType": "B.O",
    "Deliverystatus": "Delivery",
    "divisionname": "Khandwa",
    "regionname": "Indore",
    "circlename": "Madhya Pradesh",
    "Taluk": "Barwani",
    "Districtname": "Barwani",
    "statename": "MADHYA PRADESH"
  },
  {
    "pincode": "451556",
    "officename": "Bilwa Road B.O",
    "officeType": "B.O",
    "Deliverystatus": "Delivery",
    "divisionname": "Khandwa",
    "regionname": "Indore",
    "circlename": "Madhya Pradesh",
    "Taluk": "Rajpur",
    "Districtname": "Barwani",
    "statename": "MADHYA PRADESH"
  },
  {
    "pincode": "451556",
    "officename": "Fatyapur B.O",
    "officeType": "B.O",
    "Deliverystatus": "Delivery",
    "divisionname": "Khandwa",
    "regionname": "Indore",
    "circlename": "Madhya Pradesh",
    "Taluk": "Thikari",
    "Districtname": "Barwani",
    "statename": "MADHYA PRADESH"
  },
  {
    "pincode": "451556",
    "officename": "Koradiya B.O",
    "officeType": "B.O",
    "Deliverystatus": "Delivery",
    "divisionname": "Khandwa",
    "regionname": "Indore",
    "circlename": "Madhya Pradesh",
    "Taluk": "Thikari",
    "Districtname": "Barwani",
    "statename": "MADHYA PRADESH"
  },
  {
    "pincode": "451556",
    "officename": "Lonsara Khurd B.O",
    "officeType": "B.O",
    "Deliverystatus": "Delivery",
    "divisionname": "Khandwa",
    "regionname": "Indore",
    "circlename": "Madhya Pradesh",
    "Taluk": "Barwani",
    "Districtname": "Barwani",
    "statename": "MADHYA PRADESH"
  },
  {
    "pincode": "451556",
    "officename": "Mandwada B.O",
    "officeType": "B.O",
    "Deliverystatus": "Delivery",
    "divisionname": "Khandwa",
    "regionname": "Indore",
    "circlename": "Madhya Pradesh",
    "Taluk": "Thikari",
    "Districtname": "Barwani",
    "statename": "MADHYA PRADESH"
  },
  {
    "pincode": "451556",
    "officename": "Mohipura B.O",
    "officeType": "B.O",
    "Deliverystatus": "Delivery",
    "divisionname": "Khandwa",
    "regionname": "Indore",
    "circlename": "Madhya Pradesh",
    "Taluk": "Thikari",
    "Districtname": "Barwani",
    "statename": "MADHYA PRADESH"
  },
  {
    "pincode": "451556",
    "officename": "Sali B.O",
    "officeType": "B.O",
    "Deliverystatus": "Delivery",
    "divisionname": "Khandwa",
    "regionname": "Indore",
    "circlename": "Madhya Pradesh",
    "Taluk": "Rajpur",
    "Districtname": "Barwani",
    "statename": "MADHYA PRADESH"
  },
  {
    "pincode": "451556",
    "officename": "Talwada Bujurg B.O",
    "officeType": "B.O",
    "Deliverystatus": "Delivery",
    "divisionname": "Khandwa",
    "regionname": "Indore",
    "circlename": "Madhya Pradesh",
    "Taluk": "Barwani",
    "Districtname": "Barwani",
    "statename": "MADHYA PRADESH"
  },
  {
    "pincode": "451556",
    "officename": "Talwada Deb B.O",
    "officeType": "B.O",
    "Deliverystatus": "Delivery",
    "divisionname": "Khandwa",
    "regionname": "Indore",
    "circlename": "Madhya Pradesh",
    "Taluk": "Thikari",
    "Districtname": "Barwani",
    "statename": "MADHYA PRADESH"
  },
  {
    "pincode": "451556",
    "officename": "Uchawad B.O",
    "officeType": "B.O",
    "Deliverystatus": "Delivery",
    "divisionname": "Khandwa",
    "regionname": "Indore",
    "circlename": "Madhya Pradesh",
    "Taluk": "Thikari",
    "Districtname": "Barwani",
    "statename": "MADHYA PRADESH"
  }
]
