[
  {
    "pincode": "451666",
    "officename": "Achli B.O",
    "officeType": "B.O",
    "Deliverystatus": "Delivery",
    "divisionname": "Khandwa",
    "regionname": "Indore",
    "circlename": "Madhya Pradesh",
    "Taluk": "Sendhwa",
    "Districtname": "Barwani",
    "statename": "MADHYA PRADESH"
  },
  {
    "pincode": "451666",
    "officename": "Balwadi B.O",
    "officeType": "B.O",
    "Deliverystatus": "Delivery",
    "divisionname": "Khandwa",
    "regionname": "Indore",
    "circlename": "Madhya Pradesh",
    "Taluk": "Sendhwa",
    "Districtname": "Barwani",
    "statename": "MADHYA PRADESH"
  },
  {
    "pincode": "451666",
    "officename": "Bawdad B.O",
    "officeType": "B.O",
    "Deliverystatus": "Delivery",
    "divisionname": "Khandwa",
    "regionname": "Indore",
    "circlename": "Madhya Pradesh",
    "Taluk": "Sendhwa",
    "Districtname": "Barwani",
    "statename": "MADHYA PRADESH"
  },
  {
    "pincode": "451666",
    "officename": "Bhakarli B.O",
    "officeType": "B.O",
    "Deliverystatus": "Delivery",
    "divisionname": "Khandwa",
    "regionname": "Indore",
    "circlename": "Madhya Pradesh",
    "Taluk": "Sendhwa",
    "Districtname": "Barwani",
    "statename": "MADHYA PRADESH"
  },
  {
    "pincode": "451666",
    "officename": "Chachariya B.O",
    "officeType": "B.O",
    "Deliverystatus": "Delivery",
    "divisionname": "Khandwa",
    "regionname": "Indore",
    "circlename": "Madhya Pradesh",
    "Taluk": "Sendhwa",
    "Districtname": "Barwani",
    "statename": "MADHYA PRADESH"
  },
  {
    "pincode": "451666",
    "officename": "Chatli B.O",
    "officeType": "B.O",
    "Deliverystatus": "Delivery",
    "divisionname": "Khandwa",
    "regionname": "Indore",
    "circlename": "Madhya Pradesh",
    "Taluk": "Niwali",
    "Districtname": "Barwani",
    "statename": "MADHYA PRADESH"
  },
  {
    "pincode": "451666",
    "officename": "Dhanora B.O",
    "officeType": "B.O",
    "Deliverystatus": "Delivery",
    "divisionname": "Khandwa",
    "regionname": "Indore",
    "circlename": "Madhya Pradesh",
    "Taluk": "Sendhwa",
    "Districtname": "Barwani",
    "statename": "MADHYA PRADESH"
  },
  {
    "pincode": "451666",
    "officename": "Dhawali B.O",
    "officeType": "B.O",
    "Deliverystatus": "Delivery",
    "divisionname": "Khandwa",
    "regionname": "Indore",
    "circlename": "Madhya Pradesh",
    "Taluk": "Sendhwa",
    "Districtname": "Barwani",
    "statename": "MADHYA PRADESH"
  },
  {
    "pincode": "451666",
    "officename": "Diwaniya B.O",
    "officeType": "B.O",
    "Deliverystatus": "Delivery",
    "divisionname": "Khandwa",
    "regionname": "Indore",
    "circlename": "Madhya Pradesh",
    "Taluk": "Niwali",
    "Districtname": "Barwani",
    "statename": "MADHYA PRADESH"
  },
  {
    "pincode": "451666",
    "officename": "Dugani B.O",
    "officeType": "B.O",
    "Deliverystatus": "Delivery",
    "divisionname": "Khandwa",
    "regionname": "Indore",
    "circlename": "Madhya Pradesh",
    "Taluk": "Sendhwa",
    "Districtname": "Barwani",
    "statename": "MADHYA PRADESH"
  },
  {
    "pincode": "451666",
    "officename": "Goi B.O",
    "officeType": "B.O",
    "Deliverystatus": "Delivery",
    "divisionname": "Khandwa",
    "regionname": "Indore",
    "circlename": "Madhya Pradesh",
    "Taluk": "Sendhwa",
    "Districtname": "Barwani",
    "statename": "MADHYA PRADESH"
  },
  {
    "pincode": "451666",
    "officename": "Jamathi B.O",
    "officeType": "B.O",
    "Deliverystatus": "Delivery",
    "divisionname": "Khandwa",
    "regionname": "Indore",
    "circlename": "Madhya Pradesh",
    "Taluk": "Sendhwa",
    "Districtname": "Barwani",
    "statename": "MADHYA PRADESH"
  },
  {
    "pincode": "451666",
    "officename": "Jhopali B.O",
    "officeType": "B.O",
    "Deliverystatus": "Delivery",
    "divisionname": "Khandwa",
    "regionname": "Indore",
    "circlename": "Madhya Pradesh",
    "Taluk": "Sendhwa",
    "Districtname": "Barwani",
    "statename": "MADHYA PRADESH"
  },
  {
    "pincode": "451666",
    "officename": "Jogwada B.O",
    "officeType": "B.O",
    "Deliverystatus": "Delivery",
    "divisionname": "Khandwa",
    "regionname": "Indore",
    "circlename": "Madhya Pradesh",
    "Taluk": "Niwali",
    "Districtname": "Barwani",
    "statename": "MADHYA PRADESH"
  },
  {
    "pincode": "451666",
    "officename": "Kunjari B.O",
    "officeType": "B.O",
    "Deliverystatus": "Delivery",
    "divisionname": "Khandwa",
    "regionname": "Indore",
    "circlename": "Madhya Pradesh",
    "Taluk": "Niwali",
    "Districtname": "Barwani",
    "statename": "MADHYA PRADESH"
  },
  {
    "pincode": "451666",
    "officename": "Mahitgaon B.O",
    "officeType": "B.O",
    "Deliverystatus": "Delivery",
    "divisionname": "Khandwa",
    "regionname": "Indore",
    "circlename": "Madhya Pradesh",
    "Taluk": "Sendhwa",
    "Districtname": "Barwani",
    "statename": "MADHYA PRADESH"
  },
  {
    "pincode": "451666",
    "officename": "Malwan B.O",
    "officeType": "B.O",
    "Deliverystatus": "Delivery",
    "divisionname": "Khandwa",
    "regionname": "Indore",
    "circlename": "Madhya Pradesh",
    "Taluk": "Sendhwa",
    "Districtname": "Barwani",
    "statename": "MADHYA PRADESH"
  },
  {
    "pincode": "451666",
    "officename": "Nawalpura B.O",
    "officeType": "B.O",
    "Deliverystatus": "Delivery",
    "divisionname": "Khandwa",
    "regionname": "Indore",
    "circlename": "Madhya Pradesh",
    "Taluk": "Sendhwa",
    "Districtname": "Barwani",
    "statename": "MADHYA PRADESH"
  },
  {
    "pincode": "451666",
    "officename": "Sendhwa S.O",
    "officeType": "S.O",
    "Deliverystatus": "Delivery",
    "divisionname": "Khandwa",
    "regionname": "Indore",
    "circlename": "Madhya Pradesh",
    "Taluk": "Sendhwa",
    "Districtname": "Barwani",
    "statename": "MADHYA PRADESH"
  },
  {
    "pincode": "451666",
    "officename": "Shahpura B.O",
    "officeType": "B.O",
    "Deliverystatus": "Delivery",
    "divisionname": "Khandwa",
    "regionname": "Indore",
    "circlename": "Madhya Pradesh",
    "Taluk": "Sendhwa",
    "Districtname": "Barwani",
    "statename": "MADHYA PRADESH"
  },
  {
    "pincode": "451666",
    "officename": "Solwan B.O",
    "officeType": "B.O",
    "Deliverystatus": "Delivery",
    "divisionname": "Khandwa",
    "regionname": "Indore",
    "circlename": "Madhya Pradesh",
    "Taluk": "Sendhwa",
    "Districtname": "Barwani",
    "statename": "MADHYA PRADESH"
  },
  {
    "pincode": "451666",
    "officename": "Warla B.O",
    "officeType": "B.O",
    "Deliverystatus": "Delivery",
    "divisionname": "Khandwa",
    "regionname": "Indore",
    "circlename": "Madhya Pradesh",
    "Taluk": "Sendhwa",
    "Districtname": "Barwani",
    "statename": "MADHYA PRADESH"
  }
]
