[
  {
    "pincode": "451660",
    "officename": "Bhoinda B.O",
    "officeType": "B.O",
    "Deliverystatus": "Delivery",
    "divisionname": "Khandwa",
    "regionname": "Indore",
    "circlename": "Madhya Pradesh",
    "Taluk": "Kasrawad",
    "Districtname": "West Nimar",
    "statename": "MADHYA PRADESH"
  },
  {
    "pincode": "451660",
    "officename": "Brahamngaon B.O",
    "officeType": "B.O",
    "Deliverystatus": "Delivery",
    "divisionname": "Khandwa",
    "regionname": "Indore",
    "circlename": "Madhya Pradesh",
    "Taluk": "Thikari",
    "Districtname": "Barwani",
    "statename": "MADHYA PRADESH"
  },
  {
    "pincode": "451660",
    "officename": "Chichali (D) B.O",
    "officeType": "B.O",
    "Deliverystatus": "Delivery",
    "divisionname": "Khandwa",
    "regionname": "Indore",
    "circlename": "Madhya Pradesh",
    "Taluk": "Thikari",
    "Districtname": "Barwani",
    "statename": "MADHYA PRADESH"
  },
  {
    "pincode": "451660",
    "officename": "Chichali (N) B.O",
    "officeType": "B.O",
    "Deliverystatus": "Delivery",
    "divisionname": "Khandwa",
    "regionname": "Indore",
    "circlename": "Madhya Pradesh",
    "Taluk": "Kasrawad",
    "Districtname": "West Nimar",
    "statename": "MADHYA PRADESH"
  },
  {
    "pincode": "451660",
    "officename": "Dawana B.O",
    "officeType": "B.O",
    "Deliverystatus": "Delivery",
    "divisionname": "Khandwa",
    "regionname": "Indore",
    "circlename": "Madhya Pradesh",
    "Taluk": "Thikari",
    "Districtname": "Barwani",
    "statename": "MADHYA PRADESH"
  },
  {
    "pincode": "451660",
    "officename": "Deola B.O",
    "officeType": "B.O",
    "Deliverystatus": "Delivery",
    "divisionname": "Khandwa",
    "regionname": "Indore",
    "circlename": "Madhya Pradesh",
    "Taluk": "Thikari",
    "Districtname": "Barwani",
    "statename": "MADHYA PRADESH"
  },
  {
    "pincode": "451660",
    "officename": "Ghatwa B.O",
    "officeType": "B.O",
    "Deliverystatus": "Delivery",
    "divisionname": "Khandwa",
    "regionname": "Indore",
    "circlename": "Madhya Pradesh",
    "Taluk": "Thikari",
    "Districtname": "Barwani",
    "statename": "MADHYA PRADESH"
  },
  {
    "pincode": "451660",
    "officename": "Khadakwani B.O",
    "officeType": "B.O",
    "Deliverystatus": "Delivery",
    "divisionname": "Khandwa",
    "regionname": "Indore",
    "circlename": "Madhya Pradesh",
    "Taluk": "Kasrawad",
    "Districtname": "West Nimar",
    "statename": "MADHYA PRADESH"
  },
  {
    "pincode": "451660",
    "officename": "Khal Bujurg B.O",
    "officeType": "B.O",
    "Deliverystatus": "Delivery",
    "divisionname": "Khandwa",
    "regionname": "Indore",
    "circlename": "Madhya Pradesh",
    "Taluk": "Kasrawad",
    "Districtname": "West Nimar",
    "statename": "MADHYA PRADESH"
  },
  {
    "pincode": "451660",
    "officename": "Khurrampura B.O",
    "officeType": "B.O",
    "Deliverystatus": "Delivery",
    "divisionname": "Khandwa",
    "regionname": "Indore",
    "circlename": "Madhya Pradesh",
    "Taluk": "Thikari",
    "Districtname": "Barwani",
    "statename": "MADHYA PRADESH"
  },
  {
    "pincode": "451660",
    "officename": "Kuwan B.O",
    "officeType": "B.O",
    "Deliverystatus": "Delivery",
    "divisionname": "Khandwa",
    "regionname": "Indore",
    "circlename": "Madhya Pradesh",
    "Taluk": "Thikari",
    "Districtname": "Barwani",
    "statename": "MADHYA PRADESH"
  },
  {
    "pincode": "451660",
    "officename": "Lakhangaon B.O",
    "officeType": "B.O",
    "Deliverystatus": "Delivery",
    "divisionname": "Khandwa",
    "regionname": "Indore",
    "circlename": "Madhya Pradesh",
    "Taluk": "Thikari",
    "Districtname": "Barwani",
    "statename": "MADHYA PRADESH"
  },
  {
    "pincode": "451660",
    "officename": "Maltar B.O",
    "officeType": "B.O",
    "Deliverystatus": "Delivery",
    "divisionname": "Khandwa",
    "regionname": "Indore",
    "circlename": "Madhya Pradesh",
    "Taluk": "Kasrawad",
    "Districtname": "West Nimar",
    "statename": "MADHYA PRADESH"
  },
  {
    "pincode": "451660",
    "officename": "Maral Sarovar B.O",
    "officeType": "B.O",
    "Deliverystatus": "Delivery",
    "divisionname": "Khandwa",
    "regionname": "Indore",
    "circlename": "Madhya Pradesh",
    "Taluk": "Kasrawad",
    "Districtname": "Khargone",
    "statename": "MADHYA PRADESH"
  },
  {
    "pincode": "451660",
    "officename": "Mehgaon Deb B.O",
    "officeType": "B.O",
    "Deliverystatus": "Delivery",
    "divisionname": "Khandwa",
    "regionname": "Indore",
    "circlename": "Madhya Pradesh",
    "Taluk": "Thikari",
    "Districtname": "Barwani",
    "statename": "MADHYA PRADESH"
  },
  {
    "pincode": "451660",
    "officename": "Nimarani B.O",
    "officeType": "B.O",
    "Deliverystatus": "Delivery",
    "divisionname": "Khandwa",
    "regionname": "Indore",
    "circlename": "Madhya Pradesh",
    "Taluk": "Kasrawad",
    "Districtname": "West Nimar",
    "statename": "MADHYA PRADESH"
  },
  {
    "pincode": "451660",
    "officename": "Satrati B.O",
    "officeType": "B.O",
    "Deliverystatus": "Delivery",
    "divisionname": "Khandwa",
    "regionname": "Indore",
    "circlename": "Madhya Pradesh",
    "Taluk": "Kasrawad",
    "Districtname": "West Nimar",
    "statename": "MADHYA PRADESH"
  },
  {
    "pincode": "451660",
    "officename": "Segwal B.O",
    "officeType": "B.O",
    "Deliverystatus": "Delivery",
    "divisionname": "Khandwa",
    "regionname": "Indore",
    "circlename": "Madhya Pradesh",
    "Taluk": "Thikari",
    "Districtname": "Barwani",
    "statename": "MADHYA PRADESH"
  },
  {
    "pincode": "451660",
    "officename": "Thikari S.O",
    "officeType": "S.O",
    "Deliverystatus": "Delivery",
    "divisionname": "Khandwa",
    "regionname": "Indore",
    "circlename": "Madhya Pradesh",
    "Taluk": "Thikari",
    "Districtname": "Barwani",
    "statename": "MADHYA PRADESH"
  }
]
