[
  {
    "pincode": "451881",
    "officename": "Bhatki B.O",
    "officeType": "B.O",
    "Deliverystatus": "Delivery",
    "divisionname": "Khandwa",
    "regionname": "Indore",
    "circlename": "Madhya Pradesh",
    "Taluk": "Pansemal",
    "Districtname": "Barwani",
    "statename": "MADHYA PRADESH"
  },
  {
    "pincode": "451881",
    "officename": "Jahur B.O",
    "officeType": "B.O",
    "Deliverystatus": "Delivery",
    "divisionname": "Khandwa",
    "regionname": "Indore",
    "circlename": "Madhya Pradesh",
    "Taluk": "Pansemal",
    "Districtname": "Barwani",
    "statename": "MADHYA PRADESH"
  },
  {
    "pincode": "451881",
    "officename": "Khetia S.O",
    "officeType": "S.O",
    "Deliverystatus": "Delivery",
    "divisionname": "Khandwa",
    "regionname": "Indore",
    "circlename": "Madhya Pradesh",
    "Taluk": "Sendhawa",
    "Districtname": "Barwani",
    "statename": "MADHYA PRADESH"
  },
  {
    "pincode": "451881",
    "officename": "Malfa B.O",
    "officeType": "B.O",
    "Deliverystatus": "Delivery",
    "divisionname": "Khandwa",
    "regionname": "Indore",
    "circlename": "Madhya Pradesh",
    "Taluk": "Pansemal",
    "Districtname": "Barwani",
    "statename": "MADHYA PRADESH"
  },
  {
    "pincode": "451881",
    "officename": "Mortalai B.O",
    "officeType": "B.O",
    "Deliverystatus": "Delivery",
    "divisionname": "Khandwa",
    "regionname": "Indore",
    "circlename": "Madhya Pradesh",
    "Taluk": "Pansemal",
    "Districtname": "Barwani",
    "statename": "MADHYA PRADESH"
  },
  {
    "pincode": "451881",
    "officename": "Nisarpur B.O",
    "officeType": "B.O",
    "Deliverystatus": "Delivery",
    "divisionname": "Khandwa",
    "regionname": "Indore",
    "circlename": "Madhya Pradesh",
    "Taluk": "Pansemal",
    "Districtname": "Barwani",
    "statename": "MADHYA PRADESH"
  },
  {
    "pincode": "451881",
    "officename": "Rakhibujurg B.O",
    "officeType": "B.O",
    "Deliverystatus": "Delivery",
    "divisionname": "Khandwa",
    "regionname": "Indore",
    "circlename": "Madhya Pradesh",
    "Taluk": "Pansemal",
    "Districtname": "Barwani",
    "statename": "MADHYA PRADESH"
  },
  {
    "pincode": "451881",
    "officename": "Temala B.O",
    "officeType": "B.O",
    "Deliverystatus": "Delivery",
    "divisionname": "Khandwa",
    "regionname": "Indore",
    "circlename": "Madhya Pradesh",
    "Taluk": "Pansemal",
    "Districtname": "Barwani",
    "statename": "MADHYA PRADESH"
  }
]
