[
  {
    "pincode": "452007",
    "officename": "Gurunanak Chauk S.O",
    "officeType": "S.O",
    "Deliverystatus": "Non-Delivery",
    "divisionname": "Indore City",
    "regionname": "Indore",
    "circlename": "Madhya Pradesh",
    "Taluk": "Indore",
    "Districtname": "Indore",
    "statename": "MADHYA PRADESH"
  },
  {
    "pincode": "452007",
    "officename": "Indore Collectorate S.O",
    "officeType": "S.O",
    "Deliverystatus": "Non-Delivery",
    "divisionname": "Indore City",
    "regionname": "Indore",
    "circlename": "Madhya Pradesh",
    "Taluk": "Indore",
    "Districtname": "Indore",
    "statename": "MADHYA PRADESH"
  },
  {
    "pincode": "452007",
    "officename": "Indore Courts S.O",
    "officeType": "S.O",
    "Deliverystatus": "Non-Delivery",
    "divisionname": "Indore City",
    "regionname": "Indore",
    "circlename": "Madhya Pradesh",
    "Taluk": "Indore",
    "Districtname": "Indore",
    "statename": "MADHYA PRADESH"
  },
  {
    "pincode": "452007",
    "officename": "Indore Nagar H.O",
    "officeType": "H.O",
    "Deliverystatus": "Delivery",
    "divisionname": "Indore City",
    "regionname": "Indore",
    "circlename": "Madhya Pradesh",
    "Taluk": "Indore",
    "Districtname": "Indore",
    "statename": "MADHYA PRADESH"
  },
  {
    "pincode": "452007",
    "officename": "Indore Ram Bagh S.O",
    "officeType": "S.O",
    "Deliverystatus": "Non-Delivery",
    "divisionname": "Indore City",
    "regionname": "Indore",
    "circlename": "Madhya Pradesh",
    "Taluk": "Indore",
    "Districtname": "Indore",
    "statename": "MADHYA PRADESH"
  },
  {
    "pincode": "452007",
    "officename": "Indore Siyaganj S.O",
    "officeType": "S.O",
    "Deliverystatus": "Non-Delivery",
    "divisionname": "Indore City",
    "regionname": "Indore",
    "circlename": "Madhya Pradesh",
    "Taluk": "Indore",
    "Districtname": "Indore",
    "statename": "MADHYA PRADESH"
  },
  {
    "pincode": "452007",
    "officename": "Juni Indore S.O",
    "officeType": "S.O",
    "Deliverystatus": "Non-Delivery",
    "divisionname": "Indore City",
    "regionname": "Indore",
    "circlename": "Madhya Pradesh",
    "Taluk": "Indore",
    "Districtname": "Indore",
    "statename": "MADHYA PRADESH"
  },
  {
    "pincode": "452007",
    "officename": "Pagnispaga Indore S.O",
    "officeType": "S.O",
    "Deliverystatus": "Non-Delivery",
    "divisionname": "Indore City",
    "regionname": "Indore",
    "circlename": "Madhya Pradesh",
    "Taluk": "Indore",
    "Districtname": "Indore",
    "statename": "MADHYA PRADESH"
  }
]
