[
  {
    "pincode": "452020",
    "officename": "Datoda B.O",
    "officeType": "B.O",
    "Deliverystatus": "Delivery",
    "divisionname": "Indore Moffusil",
    "regionname": "Indore",
    "circlename": "Madhya Pradesh",
    "Taluk": "Indore",
    "Districtname": "Indore",
    "statename": "MADHYA PRADESH"
  },
  {
    "pincode": "452020",
    "officename": "Joshiguradia B.O",
    "officeType": "B.O",
    "Deliverystatus": "Delivery",
    "divisionname": "Indore Moffusil",
    "regionname": "Indore",
    "circlename": "Madhya Pradesh",
    "Taluk": "Indore",
    "Districtname": "Indore",
    "statename": "MADHYA PRADESH"
  },
  {
    "pincode": "452020",
    "officename": "Kampel B.O",
    "officeType": "B.O",
    "Deliverystatus": "Delivery",
    "divisionname": "Indore Moffusil",
    "regionname": "Indore",
    "circlename": "Madhya Pradesh",
    "Taluk": "Indore",
    "Districtname": "Indore",
    "statename": "MADHYA PRADESH"
  },
  {
    "pincode": "452020",
    "officename": "Kasturbagram S.O",
    "officeType": "S.O",
    "Deliverystatus": "Delivery",
    "divisionname": "Indore Moffusil",
    "regionname": "Indore",
    "circlename": "Madhya Pradesh",
    "Taluk": "Indore",
    "Districtname": "Indore",
    "statename": "MADHYA PRADESH"
  },
  {
    "pincode": "452020",
    "officename": "Kelodkartal B.O",
    "officeType": "B.O",
    "Deliverystatus": "Delivery",
    "divisionname": "Indore Moffusil",
    "regionname": "Indore",
    "circlename": "Madhya Pradesh",
    "Taluk": "Indore",
    "Districtname": "Indore",
    "statename": "MADHYA PRADESH"
  },
  {
    "pincode": "452020",
    "officename": "Machla B.O",
    "officeType": "B.O",
    "Deliverystatus": "Delivery",
    "divisionname": "Indore Moffusil",
    "regionname": "Indore",
    "circlename": "Madhya Pradesh",
    "Taluk": "Indore",
    "Districtname": "Indore",
    "statename": "MADHYA PRADESH"
  },
  {
    "pincode": "452020",
    "officename": "Palda B.O",
    "officeType": "B.O",
    "Deliverystatus": "Delivery",
    "divisionname": "Indore Moffusil",
    "regionname": "Indore",
    "circlename": "Madhya Pradesh",
    "Taluk": "Indore",
    "Districtname": "Indore",
    "statename": "MADHYA PRADESH"
  },
  {
    "pincode": "452020",
    "officename": "Pedmi B.O",
    "officeType": "B.O",
    "Deliverystatus": "Delivery",
    "divisionname": "Indore Moffusil",
    "regionname": "Indore",
    "circlename": "Madhya Pradesh",
    "Taluk": "Indore",
    "Districtname": "Indore",
    "statename": "MADHYA PRADESH"
  },
  {
    "pincode": "452020",
    "officename": "Pipalda B.O",
    "officeType": "B.O",
    "Deliverystatus": "Delivery",
    "divisionname": "Indore Moffusil",
    "regionname": "Indore",
    "circlename": "Madhya Pradesh",
    "Taluk": "Indore",
    "Districtname": "Indore",
    "statename": "MADHYA PRADESH"
  },
  {
    "pincode": "452020",
    "officename": "Piwdai B.O",
    "officeType": "B.O",
    "Deliverystatus": "Delivery",
    "divisionname": "Indore Moffusil",
    "regionname": "Indore",
    "circlename": "Madhya Pradesh",
    "Taluk": "Indore",
    "Districtname": "Indore",
    "statename": "MADHYA PRADESH"
  },
  {
    "pincode": "452020",
    "officename": "Simrol B.O",
    "officeType": "B.O",
    "Deliverystatus": "Delivery",
    "divisionname": "Indore Moffusil",
    "regionname": "Indore",
    "circlename": "Madhya Pradesh",
    "Taluk": "Indore",
    "Districtname": "Indore",
    "statename": "MADHYA PRADESH"
  },
  {
    "pincode": "452020",
    "officename": "Tillorbujurg B.O",
    "officeType": "B.O",
    "Deliverystatus": "Delivery",
    "divisionname": "Indore Moffusil",
    "regionname": "Indore",
    "circlename": "Madhya Pradesh",
    "Taluk": "Indore",
    "Districtname": "Indore",
    "statename": "MADHYA PRADESH"
  },
  {
    "pincode": "452020",
    "officename": "Tillorkhurd B.O",
    "officeType": "B.O",
    "Deliverystatus": "Delivery",
    "divisionname": "Indore Moffusil",
    "regionname": "Indore",
    "circlename": "Madhya Pradesh",
    "Taluk": "Indore",
    "Districtname": "Indore",
    "statename": "MADHYA PRADESH"
  }
]
