[
  {
    "pincode": "453001",
    "officename": "Atwada B.O",
    "officeType": "B.O",
    "Deliverystatus": "Delivery",
    "divisionname": "Indore Moffusil",
    "regionname": "Indore",
    "circlename": "Madhya Pradesh",
    "Taluk": "Depalpur",
    "Districtname": "Indore",
    "statename": "MADHYA PRADESH"
  },
  {
    "pincode": "453001",
    "officename": "Aurangpura B.O",
    "officeType": "B.O",
    "Deliverystatus": "Delivery",
    "divisionname": "Indore Moffusil",
    "regionname": "Indore",
    "circlename": "Madhya Pradesh",
    "Taluk": "Depalpur",
    "Districtname": "Indore",
    "statename": "MADHYA PRADESH"
  },
  {
    "pincode": "453001",
    "officename": "Betma S.O",
    "officeType": "S.O",
    "Deliverystatus": "Delivery",
    "divisionname": "Indore Moffusil",
    "regionname": "Indore",
    "circlename": "Madhya Pradesh",
    "Taluk": "Depalpur",
    "Districtname": "Indore",
    "statename": "MADHYA PRADESH"
  },
  {
    "pincode": "453001",
    "officename": "Binawda B.O",
    "officeType": "B.O",
    "Deliverystatus": "Delivery",
    "divisionname": "Indore Moffusil",
    "regionname": "Indore",
    "circlename": "Madhya Pradesh",
    "Taluk": "Depalpur",
    "Districtname": "Indore",
    "statename": "MADHYA PRADESH"
  },
  {
    "pincode": "453001",
    "officename": "Dhannad B.O",
    "officeType": "B.O",
    "Deliverystatus": "Delivery",
    "divisionname": "Indore Moffusil",
    "regionname": "Indore",
    "circlename": "Madhya Pradesh",
    "Taluk": "Depalpur",
    "Districtname": "Indore",
    "statename": "MADHYA PRADESH"
  },
  {
    "pincode": "453001",
    "officename": "Kalaria B.O",
    "officeType": "B.O",
    "Deliverystatus": "Delivery",
    "divisionname": "Indore Moffusil",
    "regionname": "Indore",
    "circlename": "Madhya Pradesh",
    "Taluk": "Depalpur",
    "Districtname": "Indore",
    "statename": "MADHYA PRADESH"
  },
  {
    "pincode": "453001",
    "officename": "Kallibillod B.O",
    "officeType": "B.O",
    "Deliverystatus": "Delivery",
    "divisionname": "Indore Moffusil",
    "regionname": "Indore",
    "circlename": "Madhya Pradesh",
    "Taluk": "Depalpur",
    "Districtname": "Indore",
    "statename": "MADHYA PRADESH"
  },
  {
    "pincode": "453001",
    "officename": "Karadia B.O",
    "officeType": "B.O",
    "Deliverystatus": "Delivery",
    "divisionname": "Indore Moffusil",
    "regionname": "Indore",
    "circlename": "Madhya Pradesh",
    "Taluk": "Depalpur",
    "Districtname": "Indore",
    "statename": "MADHYA PRADESH"
  },
  {
    "pincode": "453001",
    "officename": "Machal B.O",
    "officeType": "B.O",
    "Deliverystatus": "Delivery",
    "divisionname": "Indore Moffusil",
    "regionname": "Indore",
    "circlename": "Madhya Pradesh",
    "Taluk": "Depalpur",
    "Districtname": "Indore",
    "statename": "MADHYA PRADESH"
  },
  {
    "pincode": "453001",
    "officename": "Maithwada B.O",
    "officeType": "B.O",
    "Deliverystatus": "Delivery",
    "divisionname": "Indore Moffusil",
    "regionname": "Indore",
    "circlename": "Madhya Pradesh",
    "Taluk": "Depalpur",
    "Districtname": "Indore",
    "statename": "MADHYA PRADESH"
  },
  {
    "pincode": "453001",
    "officename": "Rangwasa B.O",
    "officeType": "B.O",
    "Deliverystatus": "Delivery",
    "divisionname": "Indore Moffusil",
    "regionname": "Indore",
    "circlename": "Madhya Pradesh",
    "Taluk": "Depalpur",
    "Districtname": "Indore",
    "statename": "MADHYA PRADESH"
  },
  {
    "pincode": "453001",
    "officename": "Rolai B.O",
    "officeType": "B.O",
    "Deliverystatus": "Delivery",
    "divisionname": "Indore Moffusil",
    "regionname": "Indore",
    "circlename": "Madhya Pradesh",
    "Taluk": "Depalpur",
    "Districtname": "Indore",
    "statename": "MADHYA PRADESH"
  },
  {
    "pincode": "453001",
    "officename": "Sagdod B.O",
    "officeType": "B.O",
    "Deliverystatus": "Delivery",
    "divisionname": "Indore Moffusil",
    "regionname": "Indore",
    "circlename": "Madhya Pradesh",
    "Taluk": "Depalpur",
    "Districtname": "Indore",
    "statename": "MADHYA PRADESH"
  }
]
