[
  {
    "pincode": "453551",
    "officename": "Ajnod B.O",
    "officeType": "B.O",
    "Deliverystatus": "Delivery",
    "divisionname": "Indore Moffusil",
    "regionname": "Indore",
    "circlename": "Madhya Pradesh",
    "Taluk": "Sanwer",
    "Districtname": "Indore",
    "statename": "MADHYA PRADESH"
  },
  {
    "pincode": "453551",
    "officename": "Badodia Khan B.O",
    "officeType": "B.O",
    "Deliverystatus": "Delivery",
    "divisionname": "Indore Moffusil",
    "regionname": "Indore",
    "circlename": "Madhya Pradesh",
    "Taluk": "Sanwer",
    "Districtname": "Indore",
    "statename": "MADHYA PRADESH"
  },
  {
    "pincode": "453551",
    "officename": "Baloda Tkun B.O",
    "officeType": "B.O",
    "Deliverystatus": "Delivery",
    "divisionname": "Indore Moffusil",
    "regionname": "Indore",
    "circlename": "Madhya Pradesh",
    "Taluk": "Sanwer",
    "Districtname": "Indore",
    "statename": "MADHYA PRADESH"
  },
  {
    "pincode": "453551",
    "officename": "Chittoda B.O",
    "officeType": "B.O",
    "Deliverystatus": "Delivery",
    "divisionname": "Indore Moffusil",
    "regionname": "Indore",
    "circlename": "Madhya Pradesh",
    "Taluk": "Sanwer",
    "Districtname": "Indore",
    "statename": "MADHYA PRADESH"
  },
  {
    "pincode": "453551",
    "officename": "FC Ganj B.O",
    "officeType": "B.O",
    "Deliverystatus": "Delivery",
    "divisionname": "Indore Moffusil",
    "regionname": "Indore",
    "circlename": "Madhya Pradesh",
    "Taluk": "Sanwer",
    "Districtname": "Indore",
    "statename": "MADHYA PRADESH"
  },
  {
    "pincode": "453551",
    "officename": "Guran B.O",
    "officeType": "B.O",
    "Deliverystatus": "Delivery",
    "divisionname": "Indore Moffusil",
    "regionname": "Indore",
    "circlename": "Madhya Pradesh",
    "Taluk": "Sanwer",
    "Districtname": "Indore",
    "statename": "MADHYA PRADESH"
  },
  {
    "pincode": "453551",
    "officename": "Jindakheda B.O",
    "officeType": "B.O",
    "Deliverystatus": "Delivery",
    "divisionname": "Indore Moffusil",
    "regionname": "Indore",
    "circlename": "Madhya Pradesh",
    "Taluk": "Sanwer",
    "Districtname": "Indore",
    "statename": "MADHYA PRADESH"
  },
  {
    "pincode": "453551",
    "officename": "Kachalia B.O",
    "officeType": "B.O",
    "Deliverystatus": "Delivery",
    "divisionname": "Indore Moffusil",
    "regionname": "Indore",
    "circlename": "Madhya Pradesh",
    "Taluk": "Sanwer",
    "Districtname": "Indore",
    "statename": "MADHYA PRADESH"
  },
  {
    "pincode": "453551",
    "officename": "Kankariapal B.O",
    "officeType": "B.O",
    "Deliverystatus": "Delivery",
    "divisionname": "Indore Moffusil",
    "regionname": "Indore",
    "circlename": "Madhya Pradesh",
    "Taluk": "Sanwer",
    "Districtname": "Indore",
    "statename": "MADHYA PRADESH"
  },
  {
    "pincode": "453551",
    "officename": "Kudana B.O",
    "officeType": "B.O",
    "Deliverystatus": "Delivery",
    "divisionname": "Indore Moffusil",
    "regionname": "Indore",
    "circlename": "Madhya Pradesh",
    "Taluk": "Sanwer",
    "Districtname": "Indore",
    "statename": "MADHYA PRADESH"
  },
  {
    "pincode": "453551",
    "officename": "Rajoda B.O",
    "officeType": "B.O",
    "Deliverystatus": "Delivery",
    "divisionname": "Indore Moffusil",
    "regionname": "Indore",
    "circlename": "Madhya Pradesh",
    "Taluk": "Sanwer",
    "Districtname": "Indore",
    "statename": "MADHYA PRADESH"
  },
  {
    "pincode": "453551",
    "officename": "Sanwer S.O",
    "officeType": "S.O",
    "Deliverystatus": "Delivery",
    "divisionname": "Indore Moffusil",
    "regionname": "Indore",
    "circlename": "Madhya Pradesh",
    "Taluk": "Sanwer",
    "Districtname": "Indore",
    "statename": "MADHYA PRADESH"
  },
  {
    "pincode": "453551",
    "officename": "Solsinda B.O",
    "officeType": "B.O",
    "Deliverystatus": "Delivery",
    "divisionname": "Indore Moffusil",
    "regionname": "Indore",
    "circlename": "Madhya Pradesh",
    "Taluk": "Sanwer",
    "Districtname": "Indore",
    "statename": "MADHYA PRADESH"
  }
]
