[
  {
    "pincode": "454001",
    "officename": "Ahu B.O",
    "officeType": "B.O",
    "Deliverystatus": "Delivery",
    "divisionname": "Indore Moffusil",
    "regionname": "Indore",
    "circlename": "Madhya Pradesh",
    "Taluk": "Dhar",
    "Districtname": "Dhar",
    "statename": "MADHYA PRADESH"
  },
  {
    "pincode": "454001",
    "officename": "Anarad B.O",
    "officeType": "B.O",
    "Deliverystatus": "Delivery",
    "divisionname": "Indore Moffusil",
    "regionname": "Indore",
    "circlename": "Madhya Pradesh",
    "Taluk": "Dhar",
    "Districtname": "Dhar",
    "statename": "MADHYA PRADESH"
  },
  {
    "pincode": "454001",
    "officename": "Bagdi B.O",
    "officeType": "B.O",
    "Deliverystatus": "Delivery",
    "divisionname": "Indore Moffusil",
    "regionname": "Indore",
    "circlename": "Madhya Pradesh",
    "Taluk": "Dhar",
    "Districtname": "Dhar",
    "statename": "MADHYA PRADESH"
  },
  {
    "pincode": "454001",
    "officename": "Bijur B.O",
    "officeType": "B.O",
    "Deliverystatus": "Delivery",
    "divisionname": "Indore Moffusil",
    "regionname": "Indore",
    "circlename": "Madhya Pradesh",
    "Taluk": "Dhar",
    "Districtname": "Dhar",
    "statename": "MADHYA PRADESH"
  },
  {
    "pincode": "454001",
    "officename": "Biloda B.O",
    "officeType": "B.O",
    "Deliverystatus": "Delivery",
    "divisionname": "Indore Moffusil",
    "regionname": "Indore",
    "circlename": "Madhya Pradesh",
    "Taluk": "Dhar",
    "Districtname": "Dhar",
    "statename": "MADHYA PRADESH"
  },
  {
    "pincode": "454001",
    "officename": "Chikhliya B.O",
    "officeType": "B.O",
    "Deliverystatus": "Delivery",
    "divisionname": "Indore Moffusil",
    "regionname": "Indore",
    "circlename": "Madhya Pradesh",
    "Taluk": "Dhar",
    "Districtname": "Dhar",
    "statename": "MADHYA PRADESH"
  },
  {
    "pincode": "454001",
    "officename": "Chilur B.O",
    "officeType": "B.O",
    "Deliverystatus": "Delivery",
    "divisionname": "Indore Moffusil",
    "regionname": "Indore",
    "circlename": "Madhya Pradesh",
    "Taluk": "Dhar",
    "Districtname": "Dhar",
    "statename": "MADHYA PRADESH"
  },
  {
    "pincode": "454001",
    "officename": "Dedla B.O",
    "officeType": "B.O",
    "Deliverystatus": "Delivery",
    "divisionname": "Indore Moffusil",
    "regionname": "Indore",
    "circlename": "Madhya Pradesh",
    "Taluk": "Dhar",
    "Districtname": "Dhar",
    "statename": "MADHYA PRADESH"
  },
  {
    "pincode": "454001",
    "officename": "Dhar Collectorate S.O",
    "officeType": "S.O",
    "Deliverystatus": "Non-Delivery",
    "divisionname": "Indore Moffusil",
    "regionname": "Indore",
    "circlename": "Madhya Pradesh",
    "Taluk": "Dhar",
    "Districtname": "Dhar",
    "statename": "MADHYA PRADESH"
  },
  {
    "pincode": "454001",
    "officename": "Dhar H.O",
    "officeType": "H.O",
    "Deliverystatus": "Delivery",
    "divisionname": "Indore Moffusil",
    "regionname": "Indore",
    "circlename": "Madhya Pradesh",
    "Taluk": "Dhar",
    "Districtname": "Dhar",
    "statename": "MADHYA PRADESH"
  },
  {
    "pincode": "454001",
    "officename": "Gardawad B.O",
    "officeType": "B.O",
    "Deliverystatus": "Delivery",
    "divisionname": "Indore Moffusil",
    "regionname": "Indore",
    "circlename": "Madhya Pradesh",
    "Taluk": "Dhar",
    "Districtname": "Dhar",
    "statename": "MADHYA PRADESH"
  },
  {
    "pincode": "454001",
    "officename": "Gulwa B.O",
    "officeType": "B.O",
    "Deliverystatus": "Delivery",
    "divisionname": "Indore Moffusil",
    "regionname": "Indore",
    "circlename": "Madhya Pradesh",
    "Taluk": "Dhar",
    "Districtname": "Dhar",
    "statename": "MADHYA PRADESH"
  },
  {
    "pincode": "454001",
    "officename": "Gunawad B.O",
    "officeType": "B.O",
    "Deliverystatus": "Delivery",
    "divisionname": "Indore Moffusil",
    "regionname": "Indore",
    "circlename": "Madhya Pradesh",
    "Taluk": "Dhar",
    "Districtname": "Dhar",
    "statename": "MADHYA PRADESH"
  },
  {
    "pincode": "454001",
    "officename": "Jetpura B.O",
    "officeType": "B.O",
    "Deliverystatus": "Delivery",
    "divisionname": "Indore Moffusil",
    "regionname": "Indore",
    "circlename": "Madhya Pradesh",
    "Taluk": "Dhar",
    "Districtname": "Dhar",
    "statename": "MADHYA PRADESH"
  },
  {
    "pincode": "454001",
    "officename": "Kachorada B.O",
    "officeType": "B.O",
    "Deliverystatus": "Delivery",
    "divisionname": "Indore Moffusil",
    "regionname": "Indore",
    "circlename": "Madhya Pradesh",
    "Taluk": "Dhar",
    "Districtname": "Dhar",
    "statename": "MADHYA PRADESH"
  },
  {
    "pincode": "454001",
    "officename": "Kalsada B.O",
    "officeType": "B.O",
    "Deliverystatus": "Delivery",
    "divisionname": "Indore Moffusil",
    "regionname": "Indore",
    "circlename": "Madhya Pradesh",
    "Taluk": "Dhar",
    "Districtname": "Dhar",
    "statename": "MADHYA PRADESH"
  },
  {
    "pincode": "454001",
    "officename": "Kesur B.O",
    "officeType": "B.O",
    "Deliverystatus": "Delivery",
    "divisionname": "Indore Moffusil",
    "regionname": "Indore",
    "circlename": "Madhya Pradesh",
    "Taluk": "Dhar",
    "Districtname": "Dhar",
    "statename": "MADHYA PRADESH"
  },
  {
    "pincode": "454001",
    "officename": "Kherod B.O",
    "officeType": "B.O",
    "Deliverystatus": "Delivery",
    "divisionname": "Indore Moffusil",
    "regionname": "Indore",
    "circlename": "Madhya Pradesh",
    "Taluk": "Dhar",
    "Districtname": "Dhar",
    "statename": "MADHYA PRADESH"
  },
  {
    "pincode": "454001",
    "officename": "Kotbidhota B.O",
    "officeType": "B.O",
    "Deliverystatus": "Delivery",
    "divisionname": "Indore Moffusil",
    "regionname": "Indore",
    "circlename": "Madhya Pradesh",
    "Taluk": "Dhar",
    "Districtname": "Dhar",
    "statename": "MADHYA PRADESH"
  },
  {
    "pincode": "454001",
    "officename": "Labrawda B.O",
    "officeType": "B.O",
    "Deliverystatus": "Delivery",
    "divisionname": "Indore Moffusil",
    "regionname": "Indore",
    "circlename": "Madhya Pradesh",
    "Taluk": "Dhar",
    "Districtname": "Dhar",
    "statename": "MADHYA PRADESH"
  },
  {
    "pincode": "454001",
    "officename": "Manasa B.O",
    "officeType": "B.O",
    "Deliverystatus": "Delivery",
    "divisionname": "Indore Moffusil",
    "regionname": "Indore",
    "circlename": "Madhya Pradesh",
    "Taluk": "Dhar",
    "Districtname": "Dhar",
    "statename": "MADHYA PRADESH"
  },
  {
    "pincode": "454001",
    "officename": "Mohanpura B.O",
    "officeType": "B.O",
    "Deliverystatus": "Delivery",
    "divisionname": "Indore Moffusil",
    "regionname": "Indore",
    "circlename": "Madhya Pradesh",
    "Taluk": "Dhar",
    "Districtname": "Dhar",
    "statename": "MADHYA PRADESH"
  },
  {
    "pincode": "454001",
    "officename": "Nagda B.O",
    "officeType": "B.O",
    "Deliverystatus": "Delivery",
    "divisionname": "Indore Moffusil",
    "regionname": "Indore",
    "circlename": "Madhya Pradesh",
    "Taluk": "Dhar",
    "Districtname": "Dhar",
    "statename": "MADHYA PRADESH"
  },
  {
    "pincode": "454001",
    "officename": "Nagora B.O",
    "officeType": "B.O",
    "Deliverystatus": "Delivery",
    "divisionname": "Indore Moffusil",
    "regionname": "Indore",
    "circlename": "Madhya Pradesh",
    "Taluk": "Dhar",
    "Districtname": "Dhar",
    "statename": "MADHYA PRADESH"
  },
  {
    "pincode": "454001",
    "officename": "Nalcha B.O",
    "officeType": "B.O",
    "Deliverystatus": "Delivery",
    "divisionname": "Indore Moffusil",
    "regionname": "Indore",
    "circlename": "Madhya Pradesh",
    "Taluk": "Dhar",
    "Districtname": "Dhar",
    "statename": "MADHYA PRADESH"
  },
  {
    "pincode": "454001",
    "officename": "Padlia B.O",
    "officeType": "B.O",
    "Deliverystatus": "Delivery",
    "divisionname": "Indore Moffusil",
    "regionname": "Indore",
    "circlename": "Madhya Pradesh",
    "Taluk": "Dhar",
    "Districtname": "Dhar",
    "statename": "MADHYA PRADESH"
  },
  {
    "pincode": "454001",
    "officename": "Palwada B.O",
    "officeType": "B.O",
    "Deliverystatus": "Delivery",
    "divisionname": "Indore Moffusil",
    "regionname": "Indore",
    "circlename": "Madhya Pradesh",
    "Taluk": "Dhar",
    "Districtname": "Dhar",
    "statename": "MADHYA PRADESH"
  },
  {
    "pincode": "454001",
    "officename": "Sadalpur B.O",
    "officeType": "B.O",
    "Deliverystatus": "Delivery",
    "divisionname": "Indore Moffusil",
    "regionname": "Indore",
    "circlename": "Madhya Pradesh",
    "Taluk": "Dhar",
    "Districtname": "Dhar",
    "statename": "MADHYA PRADESH"
  },
  {
    "pincode": "454001",
    "officename": "Salkanpur B.O",
    "officeType": "B.O",
    "Deliverystatus": "Delivery",
    "divisionname": "Indore Moffusil",
    "regionname": "Indore",
    "circlename": "Madhya Pradesh",
    "Taluk": "Dhar",
    "Districtname": "Dhar",
    "statename": "MADHYA PRADESH"
  },
  {
    "pincode": "454001",
    "officename": "Sultanpur B.O",
    "officeType": "B.O",
    "Deliverystatus": "Delivery",
    "divisionname": "Indore Moffusil",
    "regionname": "Indore",
    "circlename": "Madhya Pradesh",
    "Taluk": "Dhar",
    "Districtname": "Dhar",
    "statename": "MADHYA PRADESH"
  },
  {
    "pincode": "454001",
    "officename": "Teesgaon B.O",
    "officeType": "B.O",
    "Deliverystatus": "Delivery",
    "divisionname": "Indore Moffusil",
    "regionname": "Indore",
    "circlename": "Madhya Pradesh",
    "Taluk": "Dhar",
    "Districtname": "Dhar",
    "statename": "MADHYA PRADESH"
  },
  {
    "pincode": "454001",
    "officename": "Tirla B.O",
    "officeType": "B.O",
    "Deliverystatus": "Delivery",
    "divisionname": "Indore Moffusil",
    "regionname": "Indore",
    "circlename": "Madhya Pradesh",
    "Taluk": "Dhar",
    "Districtname": "Dhar",
    "statename": "MADHYA PRADESH"
  },
  {
    "pincode": "454001",
    "officename": "Tornod B.O",
    "officeType": "B.O",
    "Deliverystatus": "Delivery",
    "divisionname": "Indore Moffusil",
    "regionname": "Indore",
    "circlename": "Madhya Pradesh",
    "Taluk": "Dhar",
    "Districtname": "Dhar",
    "statename": "MADHYA PRADESH"
  },
  {
    "pincode": "454001",
    "officename": "Utawad B.O",
    "officeType": "B.O",
    "Deliverystatus": "Delivery",
    "divisionname": "Indore Moffusil",
    "regionname": "Indore",
    "circlename": "Madhya Pradesh",
    "Taluk": "Dhar",
    "Districtname": "Dhar",
    "statename": "MADHYA PRADESH"
  }
]
