[
  {
    "pincode": "454111",
    "officename": "Badodiya B.O",
    "officeType": "B.O",
    "Deliverystatus": "Delivery",
    "divisionname": "Indore Moffusil",
    "regionname": "Indore",
    "circlename": "Madhya Pradesh",
    "Taluk": "Sardarpur",
    "Districtname": "Dhar",
    "statename": "MADHYA PRADESH"
  },
  {
    "pincode": "454111",
    "officename": "Barkheda B.O",
    "officeType": "B.O",
    "Deliverystatus": "Delivery",
    "divisionname": "Indore Moffusil",
    "regionname": "Indore",
    "circlename": "Madhya Pradesh",
    "Taluk": "Sardarpur",
    "Districtname": "Dhar",
    "statename": "MADHYA PRADESH"
  },
  {
    "pincode": "454111",
    "officename": "Barmandal B.O",
    "officeType": "B.O",
    "Deliverystatus": "Delivery",
    "divisionname": "Indore Moffusil",
    "regionname": "Indore",
    "circlename": "Madhya Pradesh",
    "Taluk": "Sardarpur",
    "Districtname": "Dhar",
    "statename": "MADHYA PRADESH"
  },
  {
    "pincode": "454111",
    "officename": "Bhopawar B.O",
    "officeType": "B.O",
    "Deliverystatus": "Delivery",
    "divisionname": "Indore Moffusil",
    "regionname": "Indore",
    "circlename": "Madhya Pradesh",
    "Taluk": "Sardarpur",
    "Districtname": "Dhar",
    "statename": "MADHYA PRADESH"
  },
  {
    "pincode": "454111",
    "officename": "Bola B.O",
    "officeType": "B.O",
    "Deliverystatus": "Delivery",
    "divisionname": "Indore Moffusil",
    "regionname": "Indore",
    "circlename": "Madhya Pradesh",
    "Taluk": "Sardarpur",
    "Districtname": "Dhar",
    "statename": "MADHYA PRADESH"
  },
  {
    "pincode": "454111",
    "officename": "Jolana B.O",
    "officeType": "B.O",
    "Deliverystatus": "Delivery",
    "divisionname": "Indore Moffusil",
    "regionname": "Indore",
    "circlename": "Madhya Pradesh",
    "Taluk": "Sardarpur",
    "Districtname": "Dhar",
    "statename": "MADHYA PRADESH"
  },
  {
    "pincode": "454111",
    "officename": "Khareli B.O",
    "officeType": "B.O",
    "Deliverystatus": "Delivery",
    "divisionname": "Indore Moffusil",
    "regionname": "Indore",
    "circlename": "Madhya Pradesh",
    "Taluk": "Sardarpur",
    "Districtname": "Dhar",
    "statename": "MADHYA PRADESH"
  },
  {
    "pincode": "454111",
    "officename": "Khutpala B.O",
    "officeType": "B.O",
    "Deliverystatus": "Delivery",
    "divisionname": "Indore Moffusil",
    "regionname": "Indore",
    "circlename": "Madhya Pradesh",
    "Taluk": "Sardarpur",
    "Districtname": "Dhar",
    "statename": "MADHYA PRADESH"
  },
  {
    "pincode": "454111",
    "officename": "Labriya B.O",
    "officeType": "B.O",
    "Deliverystatus": "Delivery",
    "divisionname": "Indore Moffusil",
    "regionname": "Indore",
    "circlename": "Madhya Pradesh",
    "Taluk": "Sardarpur",
    "Districtname": "Dhar",
    "statename": "MADHYA PRADESH"
  },
  {
    "pincode": "454111",
    "officename": "Ledgaon B.O",
    "officeType": "B.O",
    "Deliverystatus": "Delivery",
    "divisionname": "Indore Moffusil",
    "regionname": "Indore",
    "circlename": "Madhya Pradesh",
    "Taluk": "Sardarpur",
    "Districtname": "Dhar",
    "statename": "MADHYA PRADESH"
  },
  {
    "pincode": "454111",
    "officename": "Phulgawdi B.O",
    "officeType": "B.O",
    "Deliverystatus": "Delivery",
    "divisionname": "Indore Moffusil",
    "regionname": "Indore",
    "circlename": "Madhya Pradesh",
    "Taluk": "Sardarpur",
    "Districtname": "Dhar",
    "statename": "MADHYA PRADESH"
  },
  {
    "pincode": "454111",
    "officename": "Salwa B.O",
    "officeType": "B.O",
    "Deliverystatus": "Delivery",
    "divisionname": "Indore Moffusil",
    "regionname": "Indore",
    "circlename": "Madhya Pradesh",
    "Taluk": "Sardarpur",
    "Districtname": "Dhar",
    "statename": "MADHYA PRADESH"
  },
  {
    "pincode": "454111",
    "officename": "Sardarpur S.O (Dhar)",
    "officeType": "S.O",
    "Deliverystatus": "Delivery",
    "divisionname": "Indore Moffusil",
    "regionname": "Indore",
    "circlename": "Madhya Pradesh",
    "Taluk": "Sardarpur",
    "Districtname": "Dhar",
    "statename": "MADHYA PRADESH"
  }
]
