[
  {
    "pincode": "454116",
    "officename": "Bhangarh B.O",
    "officeType": "B.O",
    "Deliverystatus": "Delivery",
    "divisionname": "Indore Moffusil",
    "regionname": "Indore",
    "circlename": "Madhya Pradesh",
    "Taluk": "Sardarpur",
    "Districtname": "Dhar",
    "statename": "MADHYA PRADESH"
  },
  {
    "pincode": "454116",
    "officename": "Bimrod B.O",
    "officeType": "B.O",
    "Deliverystatus": "Delivery",
    "divisionname": "Indore Moffusil",
    "regionname": "Indore",
    "circlename": "Madhya Pradesh",
    "Taluk": "Sardarpur",
    "Districtname": "Dhar",
    "statename": "MADHYA PRADESH"
  },
  {
    "pincode": "454116",
    "officename": "Chalnimata B.O",
    "officeType": "B.O",
    "Deliverystatus": "Delivery",
    "divisionname": "Indore Moffusil",
    "regionname": "Indore",
    "circlename": "Madhya Pradesh",
    "Taluk": "Sardarpur",
    "Districtname": "Dhar",
    "statename": "MADHYA PRADESH"
  },
  {
    "pincode": "454116",
    "officename": "Chhadawad B.O",
    "officeType": "B.O",
    "Deliverystatus": "Delivery",
    "divisionname": "Indore Moffusil",
    "regionname": "Indore",
    "circlename": "Madhya Pradesh",
    "Taluk": "Sardarpur",
    "Districtname": "Dhar",
    "statename": "MADHYA PRADESH"
  },
  {
    "pincode": "454116",
    "officename": "Dattigaon B.O",
    "officeType": "B.O",
    "Deliverystatus": "Delivery",
    "divisionname": "Indore Moffusil",
    "regionname": "Indore",
    "circlename": "Madhya Pradesh",
    "Taluk": "Sardarpur",
    "Districtname": "Dhar",
    "statename": "MADHYA PRADESH"
  },
  {
    "pincode": "454116",
    "officename": "Dhulet B.O",
    "officeType": "B.O",
    "Deliverystatus": "Delivery",
    "divisionname": "Indore Moffusil",
    "regionname": "Indore",
    "circlename": "Madhya Pradesh",
    "Taluk": "Sardarpur",
    "Districtname": "Dhar",
    "statename": "MADHYA PRADESH"
  },
  {
    "pincode": "454116",
    "officename": "Gumanpura B.O",
    "officeType": "B.O",
    "Deliverystatus": "Delivery",
    "divisionname": "Indore Moffusil",
    "regionname": "Indore",
    "circlename": "Madhya Pradesh",
    "Taluk": "Sardarpur",
    "Districtname": "Dhar",
    "statename": "MADHYA PRADESH"
  },
  {
    "pincode": "454116",
    "officename": "Kunjrota B.O",
    "officeType": "B.O",
    "Deliverystatus": "Delivery",
    "divisionname": "Indore Moffusil",
    "regionname": "Indore",
    "circlename": "Madhya Pradesh",
    "Taluk": "Sardarpur",
    "Districtname": "Dhar",
    "statename": "MADHYA PRADESH"
  },
  {
    "pincode": "454116",
    "officename": "Mohankheda B.O",
    "officeType": "B.O",
    "Deliverystatus": "Delivery",
    "divisionname": "Indore Moffusil",
    "regionname": "Indore",
    "circlename": "Madhya Pradesh",
    "Taluk": "Sardarpur",
    "Districtname": "Dhar",
    "statename": "MADHYA PRADESH"
  },
  {
    "pincode": "454116",
    "officename": "Narwali B.O",
    "officeType": "B.O",
    "Deliverystatus": "Delivery",
    "divisionname": "Indore Moffusil",
    "regionname": "Indore",
    "circlename": "Madhya Pradesh",
    "Taluk": "Sardarpur",
    "Districtname": "Dhar",
    "statename": "MADHYA PRADESH"
  },
  {
    "pincode": "454116",
    "officename": "Piparani B.O",
    "officeType": "B.O",
    "Deliverystatus": "Delivery",
    "divisionname": "Indore Moffusil",
    "regionname": "Indore",
    "circlename": "Madhya Pradesh",
    "Taluk": "Sardarpur",
    "Districtname": "Dhar",
    "statename": "MADHYA PRADESH"
  },
  {
    "pincode": "454116",
    "officename": "Rajgarh (Dhar) S.O",
    "officeType": "S.O",
    "Deliverystatus": "Delivery",
    "divisionname": "Indore Moffusil",
    "regionname": "Indore",
    "circlename": "Madhya Pradesh",
    "Taluk": "Sardarpur",
    "Districtname": "Dhar",
    "statename": "MADHYA PRADESH"
  },
  {
    "pincode": "454116",
    "officename": "Ringnod B.O",
    "officeType": "B.O",
    "Deliverystatus": "Delivery",
    "divisionname": "Indore Moffusil",
    "regionname": "Indore",
    "circlename": "Madhya Pradesh",
    "Taluk": "Sardarpur",
    "Districtname": "Dhar",
    "statename": "MADHYA PRADESH"
  },
  {
    "pincode": "454116",
    "officename": "Timaichi B.O",
    "officeType": "B.O",
    "Deliverystatus": "Delivery",
    "divisionname": "Indore Moffusil",
    "regionname": "Indore",
    "circlename": "Madhya Pradesh",
    "Taluk": "Sardarpur",
    "Districtname": "Dhar",
    "statename": "MADHYA PRADESH"
  },
  {
    "pincode": "454116",
    "officename": "Tirla B.O",
    "officeType": "B.O",
    "Deliverystatus": "Delivery",
    "divisionname": "Indore Moffusil",
    "regionname": "Indore",
    "circlename": "Madhya Pradesh",
    "Taluk": "Sardarpur",
    "Districtname": "Dhar",
    "statename": "MADHYA PRADESH"
  }
]
