[
  {
    "pincode": "454335",
    "officename": "Bhavria B.O",
    "officeType": "B.O",
    "Deliverystatus": "Delivery",
    "divisionname": "Indore Moffusil",
    "regionname": "Indore",
    "circlename": "Madhya Pradesh",
    "Taluk": "Kukshi",
    "Districtname": "Dhar",
    "statename": "MADHYA PRADESH"
  },
  {
    "pincode": "454335",
    "officename": "Chikhalda B.O",
    "officeType": "B.O",
    "Deliverystatus": "Delivery",
    "divisionname": "Indore Moffusil",
    "regionname": "Indore",
    "circlename": "Madhya Pradesh",
    "Taluk": "Kukshi",
    "Districtname": "Dhar",
    "statename": "MADHYA PRADESH"
  },
  {
    "pincode": "454335",
    "officename": "Deshwalia B.O",
    "officeType": "B.O",
    "Deliverystatus": "Delivery",
    "divisionname": "Indore Moffusil",
    "regionname": "Indore",
    "circlename": "Madhya Pradesh",
    "Taluk": "Kukshi",
    "Districtname": "Dhar",
    "statename": "MADHYA PRADESH"
  },
  {
    "pincode": "454335",
    "officename": "Kadmal B.O",
    "officeType": "B.O",
    "Deliverystatus": "Delivery",
    "divisionname": "Indore Moffusil",
    "regionname": "Indore",
    "circlename": "Madhya Pradesh",
    "Taluk": "Kukshi",
    "Districtname": "Dhar",
    "statename": "MADHYA PRADESH"
  },
  {
    "pincode": "454335",
    "officename": "Konda B.O",
    "officeType": "B.O",
    "Deliverystatus": "Delivery",
    "divisionname": "Indore Moffusil",
    "regionname": "Indore",
    "circlename": "Madhya Pradesh",
    "Taluk": "Kukshi",
    "Districtname": "Dhar",
    "statename": "MADHYA PRADESH"
  },
  {
    "pincode": "454335",
    "officename": "Limbol B.O",
    "officeType": "B.O",
    "Deliverystatus": "Delivery",
    "divisionname": "Indore Moffusil",
    "regionname": "Indore",
    "circlename": "Madhya Pradesh",
    "Taluk": "Manawar",
    "Districtname": "Dhar",
    "statename": "MADHYA PRADESH"
  },
  {
    "pincode": "454335",
    "officename": "Lingwa B.O",
    "officeType": "B.O",
    "Deliverystatus": "Delivery",
    "divisionname": "Indore Moffusil",
    "regionname": "Indore",
    "circlename": "Madhya Pradesh",
    "Taluk": "Kukshi",
    "Districtname": "Dhar",
    "statename": "MADHYA PRADESH"
  },
  {
    "pincode": "454335",
    "officename": "Lohari B.O",
    "officeType": "B.O",
    "Deliverystatus": "Delivery",
    "divisionname": "Indore Moffusil",
    "regionname": "Indore",
    "circlename": "Madhya Pradesh",
    "Taluk": "Kukshi",
    "Districtname": "Dhar",
    "statename": "MADHYA PRADESH"
  },
  {
    "pincode": "454335",
    "officename": "Mandvi B.O",
    "officeType": "B.O",
    "Deliverystatus": "Delivery",
    "divisionname": "Indore Moffusil",
    "regionname": "Indore",
    "circlename": "Madhya Pradesh",
    "Taluk": "Kukshi",
    "Districtname": "Dhar",
    "statename": "MADHYA PRADESH"
  },
  {
    "pincode": "454335",
    "officename": "Nanoda B.O",
    "officeType": "B.O",
    "Deliverystatus": "Delivery",
    "divisionname": "Indore Moffusil",
    "regionname": "Indore",
    "circlename": "Madhya Pradesh",
    "Taluk": "Kukshi",
    "Districtname": "Dhar",
    "statename": "MADHYA PRADESH"
  },
  {
    "pincode": "454335",
    "officename": "Narmadanagar B.O",
    "officeType": "B.O",
    "Deliverystatus": "Delivery",
    "divisionname": "Indore Moffusil",
    "regionname": "Indore",
    "circlename": "Madhya Pradesh",
    "Taluk": "Kukshi",
    "Districtname": "Dhar",
    "statename": "MADHYA PRADESH"
  },
  {
    "pincode": "454335",
    "officename": "Nisarpur S.O",
    "officeType": "S.O",
    "Deliverystatus": "Delivery",
    "divisionname": "Indore Moffusil",
    "regionname": "Indore",
    "circlename": "Madhya Pradesh",
    "Taluk": "Kukshi",
    "Districtname": "Dhar",
    "statename": "MADHYA PRADESH"
  },
  {
    "pincode": "454335",
    "officename": "Piplia B.O",
    "officeType": "B.O",
    "Deliverystatus": "Delivery",
    "divisionname": "Indore Moffusil",
    "regionname": "Indore",
    "circlename": "Madhya Pradesh",
    "Taluk": "Kukshi",
    "Districtname": "Dhar",
    "statename": "MADHYA PRADESH"
  },
  {
    "pincode": "454335",
    "officename": "Sirsi B.O",
    "officeType": "B.O",
    "Deliverystatus": "Delivery",
    "divisionname": "Indore Moffusil",
    "regionname": "Indore",
    "circlename": "Madhya Pradesh",
    "Taluk": "Kukshi",
    "Districtname": "Dhar",
    "statename": "MADHYA PRADESH"
  }
]
