[
  {
    "pincode": "454665",
    "officename": "Bamandakalan B.O",
    "officeType": "B.O",
    "Deliverystatus": "Delivery",
    "divisionname": "Indore Moffusil",
    "regionname": "Indore",
    "circlename": "Madhya Pradesh",
    "Taluk": "Badnawar",
    "Districtname": "Dhar",
    "statename": "MADHYA PRADESH"
  },
  {
    "pincode": "454665",
    "officename": "Bhatbamanda B.O",
    "officeType": "B.O",
    "Deliverystatus": "Delivery",
    "divisionname": "Indore Moffusil",
    "regionname": "Indore",
    "circlename": "Madhya Pradesh",
    "Taluk": "Badnawar",
    "Districtname": "Dhar",
    "statename": "MADHYA PRADESH"
  },
  {
    "pincode": "454665",
    "officename": "Bidwal B.O",
    "officeType": "B.O",
    "Deliverystatus": "Delivery",
    "divisionname": "Indore Moffusil",
    "regionname": "Indore",
    "circlename": "Madhya Pradesh",
    "Taluk": "Badnawar",
    "Districtname": "Dhar",
    "statename": "MADHYA PRADESH"
  },
  {
    "pincode": "454665",
    "officename": "Chhokla B.O",
    "officeType": "B.O",
    "Deliverystatus": "Delivery",
    "divisionname": "Indore Moffusil",
    "regionname": "Indore",
    "circlename": "Madhya Pradesh",
    "Taluk": "Badnawar",
    "Districtname": "Dhar",
    "statename": "MADHYA PRADESH"
  },
  {
    "pincode": "454665",
    "officename": "Gajnod B.O",
    "officeType": "B.O",
    "Deliverystatus": "Delivery",
    "divisionname": "Indore Moffusil",
    "regionname": "Indore",
    "circlename": "Madhya Pradesh",
    "Taluk": "Badnawar",
    "Districtname": "Dhar",
    "statename": "MADHYA PRADESH"
  },
  {
    "pincode": "454665",
    "officename": "Kadod B.O",
    "officeType": "B.O",
    "Deliverystatus": "Delivery",
    "divisionname": "Indore Moffusil",
    "regionname": "Indore",
    "circlename": "Madhya Pradesh",
    "Taluk": "Badnawar",
    "Districtname": "Dhar",
    "statename": "MADHYA PRADESH"
  },
  {
    "pincode": "454665",
    "officename": "Kanwan S.O",
    "officeType": "S.O",
    "Deliverystatus": "Delivery",
    "divisionname": "Indore Moffusil",
    "regionname": "Indore",
    "circlename": "Madhya Pradesh",
    "Taluk": "Badnawar",
    "Districtname": "Dhar",
    "statename": "MADHYA PRADESH"
  },
  {
    "pincode": "454665",
    "officename": "Khandigara B.O",
    "officeType": "B.O",
    "Deliverystatus": "Delivery",
    "divisionname": "Indore Moffusil",
    "regionname": "Indore",
    "circlename": "Madhya Pradesh",
    "Taluk": "Badnawar",
    "Districtname": "Dhar",
    "statename": "MADHYA PRADESH"
  },
  {
    "pincode": "454665",
    "officename": "Kod B.O",
    "officeType": "B.O",
    "Deliverystatus": "Delivery",
    "divisionname": "Indore Moffusil",
    "regionname": "Indore",
    "circlename": "Madhya Pradesh",
    "Taluk": "Badnawar",
    "Districtname": "Dhar",
    "statename": "MADHYA PRADESH"
  },
  {
    "pincode": "454665",
    "officename": "Semlia B.O",
    "officeType": "B.O",
    "Deliverystatus": "Delivery",
    "divisionname": "Indore Moffusil",
    "regionname": "Indore",
    "circlename": "Madhya Pradesh",
    "Taluk": "Badnawar",
    "Districtname": "Dhar",
    "statename": "MADHYA PRADESH"
  },
  {
    "pincode": "454665",
    "officename": "Shergarh B.O",
    "officeType": "B.O",
    "Deliverystatus": "Delivery",
    "divisionname": "Indore Moffusil",
    "regionname": "Indore",
    "circlename": "Madhya Pradesh",
    "Taluk": "Badnawar",
    "Districtname": "Dhar",
    "statename": "MADHYA PRADESH"
  }
]
