[
  {
    "pincode": "455001",
    "officename": "Agrod B.O",
    "officeType": "B.O",
    "Deliverystatus": "Delivery",
    "divisionname": "Indore Moffusil",
    "regionname": "Indore",
    "circlename": "Madhya Pradesh",
    "Taluk": "Dewas",
    "Districtname": "Dewas",
    "statename": "MADHYA PRADESH"
  },
  {
    "pincode": "455001",
    "officename": "Alri B.O",
    "officeType": "B.O",
    "Deliverystatus": "Delivery",
    "divisionname": "Indore Moffusil",
    "regionname": "Indore",
    "circlename": "Madhya Pradesh",
    "Taluk": "Dewas",
    "Districtname": "Dewas",
    "statename": "MADHYA PRADESH"
  },
  {
    "pincode": "455001",
    "officename": "Bairagarh B.O",
    "officeType": "B.O",
    "Deliverystatus": "Delivery",
    "divisionname": "Indore Moffusil",
    "regionname": "Indore",
    "circlename": "Madhya Pradesh",
    "Taluk": "Dewas",
    "Districtname": "Dewas",
    "statename": "MADHYA PRADESH"
  },
  {
    "pincode": "455001",
    "officename": "Bangar B.O",
    "officeType": "B.O",
    "Deliverystatus": "Delivery",
    "divisionname": "Indore Moffusil",
    "regionname": "Indore",
    "circlename": "Madhya Pradesh",
    "Taluk": "Dewas",
    "Districtname": "Dewas",
    "statename": "MADHYA PRADESH"
  },
  {
    "pincode": "455001",
    "officename": "Bangarda B.O",
    "officeType": "B.O",
    "Deliverystatus": "Delivery",
    "divisionname": "Indore Moffusil",
    "regionname": "Indore",
    "circlename": "Madhya Pradesh",
    "Taluk": "Dewas",
    "Districtname": "Dewas",
    "statename": "MADHYA PRADESH"
  },
  {
    "pincode": "455001",
    "officename": "Barotha B.O",
    "officeType": "B.O",
    "Deliverystatus": "Delivery",
    "divisionname": "Indore Moffusil",
    "regionname": "Indore",
    "circlename": "Madhya Pradesh",
    "Taluk": "Dewas",
    "Districtname": "Dewas",
    "statename": "MADHYA PRADESH"
  },
  {
    "pincode": "455001",
    "officename": "Bilawli B.O",
    "officeType": "B.O",
    "Deliverystatus": "Delivery",
    "divisionname": "Indore Moffusil",
    "regionname": "Indore",
    "circlename": "Madhya Pradesh",
    "Taluk": "Dewas",
    "Districtname": "Dewas",
    "statename": "MADHYA PRADESH"
  },
  {
    "pincode": "455001",
    "officename": "Binjana B.O",
    "officeType": "B.O",
    "Deliverystatus": "Delivery",
    "divisionname": "Indore Moffusil",
    "regionname": "Indore",
    "circlename": "Madhya Pradesh",
    "Taluk": "Dewas",
    "Districtname": "Dewas",
    "statename": "MADHYA PRADESH"
  },
  {
    "pincode": "455001",
    "officename": "Chidawad B.O",
    "officeType": "B.O",
    "Deliverystatus": "Delivery",
    "divisionname": "Indore Moffusil",
    "regionname": "Indore",
    "circlename": "Madhya Pradesh",
    "Taluk": "Dewas",
    "Districtname": "Dewas",
    "statename": "MADHYA PRADESH"
  },
  {
    "pincode": "455001",
    "officename": "Dattotar Mandi B.O",
    "officeType": "B.O",
    "Deliverystatus": "Delivery",
    "divisionname": "Indore Moffusil",
    "regionname": "Indore",
    "circlename": "Madhya Pradesh",
    "Taluk": "Dewas",
    "Districtname": "Dewas",
    "statename": "MADHYA PRADESH"
  },
  {
    "pincode": "455001",
    "officename": "Dewas Bada Bazar S.O",
    "officeType": "S.O",
    "Deliverystatus": "Non-Delivery",
    "divisionname": "Indore Moffusil",
    "regionname": "Indore",
    "circlename": "Madhya Pradesh",
    "Taluk": "Dewas",
    "Districtname": "Dewas",
    "statename": "MADHYA PRADESH"
  },
  {
    "pincode": "455001",
    "officename": "Dewas Bank Note Press S.O",
    "officeType": "S.O",
    "Deliverystatus": "Non-Delivery",
    "divisionname": "Indore Moffusil",
    "regionname": "Indore",
    "circlename": "Madhya Pradesh",
    "Taluk": "Dewas",
    "Districtname": "Dewas",
    "statename": "MADHYA PRADESH"
  },
  {
    "pincode": "455001",
    "officename": "Dewas Bhavanisagar S.O",
    "officeType": "S.O",
    "Deliverystatus": "Non-Delivery",
    "divisionname": "Indore Moffusil",
    "regionname": "Indore",
    "circlename": "Madhya Pradesh",
    "Taluk": "Dewas",
    "Districtname": "Dewas",
    "statename": "MADHYA PRADESH"
  },
  {
    "pincode": "455001",
    "officename": "Dewas H.O",
    "officeType": "H.O",
    "Deliverystatus": "Delivery",
    "divisionname": "Indore Moffusil",
    "regionname": "Indore",
    "circlename": "Madhya Pradesh",
    "Taluk": "Dewas",
    "Districtname": "Dewas",
    "statename": "MADHYA PRADESH"
  },
  {
    "pincode": "455001",
    "officename": "Dewas Industrial Estate S.O",
    "officeType": "S.O",
    "Deliverystatus": "Non-Delivery",
    "divisionname": "Indore Moffusil",
    "regionname": "Indore",
    "circlename": "Madhya Pradesh",
    "Taluk": "Dewas",
    "Districtname": "Dewas",
    "statename": "MADHYA PRADESH"
  },
  {
    "pincode": "455001",
    "officename": "Dewas Radhaganj S.O",
    "officeType": "S.O",
    "Deliverystatus": "Non-Delivery",
    "divisionname": "Indore Moffusil",
    "regionname": "Indore",
    "circlename": "Madhya Pradesh",
    "Taluk": "Dewas",
    "Districtname": "Dewas",
    "statename": "MADHYA PRADESH"
  },
  {
    "pincode": "455001",
    "officename": "Dewas Vijayganjmandi B.O",
    "officeType": "B.O",
    "Deliverystatus": "Delivery",
    "divisionname": "Indore Moffusil",
    "regionname": "Indore",
    "circlename": "Madhya Pradesh",
    "Taluk": "Dewas",
    "Districtname": "Dewas",
    "statename": "MADHYA PRADESH"
  },
  {
    "pincode": "455001",
    "officename": "Kalma B.O",
    "officeType": "B.O",
    "Deliverystatus": "Delivery",
    "divisionname": "Indore Moffusil",
    "regionname": "Indore",
    "circlename": "Madhya Pradesh",
    "Taluk": "Dewas",
    "Districtname": "Dewas",
    "statename": "MADHYA PRADESH"
  },
  {
    "pincode": "455001",
    "officename": "Kelod B.O",
    "officeType": "B.O",
    "Deliverystatus": "Delivery",
    "divisionname": "Indore Moffusil",
    "regionname": "Indore",
    "circlename": "Madhya Pradesh",
    "Taluk": "Dewas",
    "Districtname": "Dewas",
    "statename": "MADHYA PRADESH"
  },
  {
    "pincode": "455001",
    "officename": "Khareli B.O",
    "officeType": "B.O",
    "Deliverystatus": "Delivery",
    "divisionname": "Indore Moffusil",
    "regionname": "Indore",
    "circlename": "Madhya Pradesh",
    "Taluk": "Dewas",
    "Districtname": "Dewas",
    "statename": "MADHYA PRADESH"
  },
  {
    "pincode": "455001",
    "officename": "Kshipra B.O",
    "officeType": "B.O",
    "Deliverystatus": "Delivery",
    "divisionname": "Indore Moffusil",
    "regionname": "Indore",
    "circlename": "Madhya Pradesh",
    "Taluk": "Dewas",
    "Districtname": "Dewas",
    "statename": "MADHYA PRADESH"
  },
  {
    "pincode": "455001",
    "officename": "Mundheda B.O",
    "officeType": "B.O",
    "Deliverystatus": "Delivery",
    "divisionname": "Indore Moffusil",
    "regionname": "Indore",
    "circlename": "Madhya Pradesh",
    "Taluk": "Dewas",
    "Districtname": "Dewas",
    "statename": "MADHYA PRADESH"
  },
  {
    "pincode": "455001",
    "officename": "Nipania B.O",
    "officeType": "B.O",
    "Deliverystatus": "Delivery",
    "divisionname": "Indore Moffusil",
    "regionname": "Indore",
    "circlename": "Madhya Pradesh",
    "Taluk": "Dewas",
    "Districtname": "Dewas",
    "statename": "MADHYA PRADESH"
  },
  {
    "pincode": "455001",
    "officename": "Padliya B.O",
    "officeType": "B.O",
    "Deliverystatus": "Delivery",
    "divisionname": "Indore Moffusil",
    "regionname": "Indore",
    "circlename": "Madhya Pradesh",
    "Taluk": "Dewas",
    "Districtname": "Dewas",
    "statename": "MADHYA PRADESH"
  },
  {
    "pincode": "455001",
    "officename": "Patlawada B.O",
    "officeType": "B.O",
    "Deliverystatus": "Delivery",
    "divisionname": "Indore Moffusil",
    "regionname": "Indore",
    "circlename": "Madhya Pradesh",
    "Taluk": "Dewas",
    "Districtname": "Dewas",
    "statename": "MADHYA PRADESH"
  },
  {
    "pincode": "455001",
    "officename": "Rajoda B.O",
    "officeType": "B.O",
    "Deliverystatus": "Delivery",
    "divisionname": "Indore Moffusil",
    "regionname": "Indore",
    "circlename": "Madhya Pradesh",
    "Taluk": "Dewas",
    "Districtname": "Dewas",
    "statename": "MADHYA PRADESH"
  },
  {
    "pincode": "455001",
    "officename": "Randankhedi B.O",
    "officeType": "B.O",
    "Deliverystatus": "Delivery",
    "divisionname": "Indore Moffusil",
    "regionname": "Indore",
    "circlename": "Madhya Pradesh",
    "Taluk": "Dewas",
    "Districtname": "Dewas",
    "statename": "MADHYA PRADESH"
  },
  {
    "pincode": "455001",
    "officename": "Salamkhedi B.O",
    "officeType": "B.O",
    "Deliverystatus": "Delivery",
    "divisionname": "Indore Moffusil",
    "regionname": "Indore",
    "circlename": "Madhya Pradesh",
    "Taluk": "Dewas",
    "Districtname": "Dewas",
    "statename": "MADHYA PRADESH"
  },
  {
    "pincode": "455001",
    "officename": "Singawada B.O",
    "officeType": "B.O",
    "Deliverystatus": "Delivery",
    "divisionname": "Indore Moffusil",
    "regionname": "Indore",
    "circlename": "Madhya Pradesh",
    "Taluk": "Dewas",
    "Districtname": "Dewas",
    "statename": "MADHYA PRADESH"
  },
  {
    "pincode": "455001",
    "officename": "Siroliya B.O",
    "officeType": "B.O",
    "Deliverystatus": "Delivery",
    "divisionname": "Indore Moffusil",
    "regionname": "Indore",
    "circlename": "Madhya Pradesh",
    "Taluk": "Dewas",
    "Districtname": "Dewas",
    "statename": "MADHYA PRADESH"
  },
  {
    "pincode": "455001",
    "officename": "Siya B.O",
    "officeType": "B.O",
    "Deliverystatus": "Delivery",
    "divisionname": "Indore Moffusil",
    "regionname": "Indore",
    "circlename": "Madhya Pradesh",
    "Taluk": "Dewas",
    "Districtname": "Dewas",
    "statename": "MADHYA PRADESH"
  },
  {
    "pincode": "455001",
    "officename": "Sunwanigopal B.O",
    "officeType": "B.O",
    "Deliverystatus": "Delivery",
    "divisionname": "Indore Moffusil",
    "regionname": "Indore",
    "circlename": "Madhya Pradesh",
    "Taluk": "Dewas",
    "Districtname": "Dewas",
    "statename": "MADHYA PRADESH"
  },
  {
    "pincode": "455001",
    "officename": "Tonkkalan B.O",
    "officeType": "B.O",
    "Deliverystatus": "Delivery",
    "divisionname": "Indore Moffusil",
    "regionname": "Indore",
    "circlename": "Madhya Pradesh",
    "Taluk": "Dewas",
    "Districtname": "Dewas",
    "statename": "MADHYA PRADESH"
  }
]
