[
  {
    "pincode": "455116",
    "officename": "Agrod B.O",
    "officeType": "B.O",
    "Deliverystatus": "Delivery",
    "divisionname": "Indore Moffusil",
    "regionname": "Indore",
    "circlename": "Madhya Pradesh",
    "Taluk": "Sonkutch",
    "Districtname": "Dewas",
    "statename": "MADHYA PRADESH"
  },
  {
    "pincode": "455116",
    "officename": "Amona B.O",
    "officeType": "B.O",
    "Deliverystatus": "Delivery",
    "divisionname": "Indore Moffusil",
    "regionname": "Indore",
    "circlename": "Madhya Pradesh",
    "Taluk": "Sonkutch",
    "Districtname": "Dewas",
    "statename": "MADHYA PRADESH"
  },
  {
    "pincode": "455116",
    "officename": "Balon B.O",
    "officeType": "B.O",
    "Deliverystatus": "Delivery",
    "divisionname": "Indore Moffusil",
    "regionname": "Indore",
    "circlename": "Madhya Pradesh",
    "Taluk": "Sonkutch",
    "Districtname": "Dewas",
    "statename": "MADHYA PRADESH"
  },
  {
    "pincode": "455116",
    "officename": "Bhutiyabujurg B.O",
    "officeType": "B.O",
    "Deliverystatus": "Delivery",
    "divisionname": "Indore Moffusil",
    "regionname": "Indore",
    "circlename": "Madhya Pradesh",
    "Taluk": "Sonkutch",
    "Districtname": "Dewas",
    "statename": "MADHYA PRADESH"
  },
  {
    "pincode": "455116",
    "officename": "Chobaradhira B.O",
    "officeType": "B.O",
    "Deliverystatus": "Delivery",
    "divisionname": "Indore Moffusil",
    "regionname": "Indore",
    "circlename": "Madhya Pradesh",
    "Taluk": "Sonkutch",
    "Districtname": "Dewas",
    "statename": "MADHYA PRADESH"
  },
  {
    "pincode": "455116",
    "officename": "Eklera Mataji B.O",
    "officeType": "B.O",
    "Deliverystatus": "Delivery",
    "divisionname": "Indore Moffusil",
    "regionname": "Indore",
    "circlename": "Madhya Pradesh",
    "Taluk": "Sonkutch",
    "Districtname": "Dewas",
    "statename": "MADHYA PRADESH"
  },
  {
    "pincode": "455116",
    "officename": "Gorba B.O",
    "officeType": "B.O",
    "Deliverystatus": "Delivery",
    "divisionname": "Indore Moffusil",
    "regionname": "Indore",
    "circlename": "Madhya Pradesh",
    "Taluk": "Sonkutch",
    "Districtname": "Dewas",
    "statename": "MADHYA PRADESH"
  },
  {
    "pincode": "455116",
    "officename": "Harnoada B.O",
    "officeType": "B.O",
    "Deliverystatus": "Delivery",
    "divisionname": "Indore Moffusil",
    "regionname": "Indore",
    "circlename": "Madhya Pradesh",
    "Taluk": "Sonkutch",
    "Districtname": "Dewas",
    "statename": "MADHYA PRADESH"
  },
  {
    "pincode": "455116",
    "officename": "Jamoniya B.O",
    "officeType": "B.O",
    "Deliverystatus": "Delivery",
    "divisionname": "Indore Moffusil",
    "regionname": "Indore",
    "circlename": "Madhya Pradesh",
    "Taluk": "Sonkutch",
    "Districtname": "Dewas",
    "statename": "MADHYA PRADESH"
  },
  {
    "pincode": "455116",
    "officename": "Jiyagarh B.O",
    "officeType": "B.O",
    "Deliverystatus": "Delivery",
    "divisionname": "Indore Moffusil",
    "regionname": "Indore",
    "circlename": "Madhya Pradesh",
    "Taluk": "Sonkutch",
    "Districtname": "Dewas",
    "statename": "MADHYA PRADESH"
  },
  {
    "pincode": "455116",
    "officename": "Lasudiya Brahaman B.O",
    "officeType": "B.O",
    "Deliverystatus": "Delivery",
    "divisionname": "Indore Moffusil",
    "regionname": "Indore",
    "circlename": "Madhya Pradesh",
    "Taluk": "Sonkutch",
    "Districtname": "Dewas",
    "statename": "MADHYA PRADESH"
  },
  {
    "pincode": "455116",
    "officename": "Lasudiya Kulmi B.O",
    "officeType": "B.O",
    "Deliverystatus": "Delivery",
    "divisionname": "Indore Moffusil",
    "regionname": "Indore",
    "circlename": "Madhya Pradesh",
    "Taluk": "Sonkutch",
    "Districtname": "Dewas",
    "statename": "MADHYA PRADESH"
  },
  {
    "pincode": "455116",
    "officename": "Mundladangi B.O",
    "officeType": "B.O",
    "Deliverystatus": "Delivery",
    "divisionname": "Indore Moffusil",
    "regionname": "Indore",
    "circlename": "Madhya Pradesh",
    "Taluk": "Sonkutch",
    "Districtname": "Dewas",
    "statename": "MADHYA PRADESH"
  },
  {
    "pincode": "455116",
    "officename": "Nandal B.O",
    "officeType": "B.O",
    "Deliverystatus": "Delivery",
    "divisionname": "Indore Moffusil",
    "regionname": "Indore",
    "circlename": "Madhya Pradesh",
    "Taluk": "Sonkutch",
    "Districtname": "Dewas",
    "statename": "MADHYA PRADESH"
  },
  {
    "pincode": "455116",
    "officename": "Ranayal Kalan B.O",
    "officeType": "B.O",
    "Deliverystatus": "Delivery",
    "divisionname": "Indore Moffusil",
    "regionname": "Indore",
    "circlename": "Madhya Pradesh",
    "Taluk": "Sonkutch",
    "Districtname": "Dewas",
    "statename": "MADHYA PRADESH"
  },
  {
    "pincode": "455116",
    "officename": "Tonkhurd S.O",
    "officeType": "S.O",
    "Deliverystatus": "Delivery",
    "divisionname": "Indore Moffusil",
    "regionname": "Indore",
    "circlename": "Madhya Pradesh",
    "Taluk": "Sonkutch",
    "Districtname": "Dewas",
    "statename": "MADHYA PRADESH"
  }
]
