[
  {
    "pincode": "455221",
    "officename": "Barkhedasoma B.O",
    "officeType": "B.O",
    "Deliverystatus": "Delivery",
    "divisionname": "Indore Moffusil",
    "regionname": "Indore",
    "circlename": "Madhya Pradesh",
    "Taluk": "Bagli",
    "Districtname": "Dewas",
    "statename": "MADHYA PRADESH"
  },
  {
    "pincode": "455221",
    "officename": "Chaubapipliya B.O",
    "officeType": "B.O",
    "Deliverystatus": "Delivery",
    "divisionname": "Indore Moffusil",
    "regionname": "Indore",
    "circlename": "Madhya Pradesh",
    "Taluk": "Bagli",
    "Districtname": "Dewas",
    "statename": "MADHYA PRADESH"
  },
  {
    "pincode": "455221",
    "officename": "Dehri Sahu B.O",
    "officeType": "B.O",
    "Deliverystatus": "Delivery",
    "divisionname": "Indore Moffusil",
    "regionname": "Indore",
    "circlename": "Madhya Pradesh",
    "Taluk": "Bagli",
    "Districtname": "Dewas",
    "statename": "MADHYA PRADESH"
  },
  {
    "pincode": "455221",
    "officename": "Double Chowki B.O",
    "officeType": "B.O",
    "Deliverystatus": "Delivery",
    "divisionname": "Indore Moffusil",
    "regionname": "Indore",
    "circlename": "Madhya Pradesh",
    "Taluk": "Bagli",
    "Districtname": "Dewas",
    "statename": "MADHYA PRADESH"
  },
  {
    "pincode": "455221",
    "officename": "Karnawad S.O",
    "officeType": "S.O",
    "Deliverystatus": "Delivery",
    "divisionname": "Indore Moffusil",
    "regionname": "Indore",
    "circlename": "Madhya Pradesh",
    "Taluk": "Bagli",
    "Districtname": "Dewas",
    "statename": "MADHYA PRADESH"
  },
  {
    "pincode": "455221",
    "officename": "Patadi B.O",
    "officeType": "B.O",
    "Deliverystatus": "Delivery",
    "divisionname": "Indore Moffusil",
    "regionname": "Indore",
    "circlename": "Madhya Pradesh",
    "Taluk": "Bagli",
    "Districtname": "Dewas",
    "statename": "MADHYA PRADESH"
  },
  {
    "pincode": "455221",
    "officename": "Raghogarh B.O",
    "officeType": "B.O",
    "Deliverystatus": "Delivery",
    "divisionname": "Indore Moffusil",
    "regionname": "Indore",
    "circlename": "Madhya Pradesh",
    "Taluk": "Bagli",
    "Districtname": "Dewas",
    "statename": "MADHYA PRADESH"
  },
  {
    "pincode": "455221",
    "officename": "Sannod B.O",
    "officeType": "B.O",
    "Deliverystatus": "Delivery",
    "divisionname": "Indore Moffusil",
    "regionname": "Indore",
    "circlename": "Madhya Pradesh",
    "Taluk": "Bagli",
    "Districtname": "Dewas",
    "statename": "MADHYA PRADESH"
  },
  {
    "pincode": "455221",
    "officename": "Zikrakheda B.O",
    "officeType": "B.O",
    "Deliverystatus": "Delivery",
    "divisionname": "Indore Moffusil",
    "regionname": "Indore",
    "circlename": "Madhya Pradesh",
    "Taluk": "Bagli",
    "Districtname": "Dewas",
    "statename": "MADHYA PRADESH"
  }
]
