[
  {
    "pincode": "455332",
    "officename": "Amla B.O",
    "officeType": "B.O",
    "Deliverystatus": "Delivery",
    "divisionname": "Indore Moffusil",
    "regionname": "Indore",
    "circlename": "Madhya Pradesh",
    "Taluk": "Kannod",
    "Districtname": "Dewas",
    "statename": "MADHYA PRADESH"
  },
  {
    "pincode": "455332",
    "officename": "Bagankheda B.O",
    "officeType": "B.O",
    "Deliverystatus": "Delivery",
    "divisionname": "Indore Moffusil",
    "regionname": "Indore",
    "circlename": "Madhya Pradesh",
    "Taluk": "Kannod",
    "Districtname": "Dewas",
    "statename": "MADHYA PRADESH"
  },
  {
    "pincode": "455332",
    "officename": "Bahirawad B.O",
    "officeType": "B.O",
    "Deliverystatus": "Delivery",
    "divisionname": "Indore Moffusil",
    "regionname": "Indore",
    "circlename": "Madhya Pradesh",
    "Taluk": "Kannod",
    "Districtname": "Dewas",
    "statename": "MADHYA PRADESH"
  },
  {
    "pincode": "455332",
    "officename": "Bamnikhurd B.O",
    "officeType": "B.O",
    "Deliverystatus": "Delivery",
    "divisionname": "Indore Moffusil",
    "regionname": "Indore",
    "circlename": "Madhya Pradesh",
    "Taluk": "Kannod",
    "Districtname": "Dewas",
    "statename": "MADHYA PRADESH"
  },
  {
    "pincode": "455332",
    "officename": "Baodi Kheda B.O",
    "officeType": "B.O",
    "Deliverystatus": "Delivery",
    "divisionname": "Indore Moffusil",
    "regionname": "Indore",
    "circlename": "Madhya Pradesh",
    "Taluk": "Kannod",
    "Districtname": "Dewas",
    "statename": "MADHYA PRADESH"
  },
  {
    "pincode": "455332",
    "officename": "Dokakui B.O",
    "officeType": "B.O",
    "Deliverystatus": "Delivery",
    "divisionname": "Indore Moffusil",
    "regionname": "Indore",
    "circlename": "Madhya Pradesh",
    "Taluk": "Kannod",
    "Districtname": "Dewas",
    "statename": "MADHYA PRADESH"
  },
  {
    "pincode": "455332",
    "officename": "Kalwar B.O",
    "officeType": "B.O",
    "Deliverystatus": "Delivery",
    "divisionname": "Indore Moffusil",
    "regionname": "Indore",
    "circlename": "Madhya Pradesh",
    "Taluk": "Kannod",
    "Districtname": "Dewas",
    "statename": "MADHYA PRADESH"
  },
  {
    "pincode": "455332",
    "officename": "Kannod S.O",
    "officeType": "S.O",
    "Deliverystatus": "Delivery",
    "divisionname": "Indore Moffusil",
    "regionname": "Indore",
    "circlename": "Madhya Pradesh",
    "Taluk": "Kannod",
    "Districtname": "Dewas",
    "statename": "MADHYA PRADESH"
  },
  {
    "pincode": "455332",
    "officename": "Katkut B.O",
    "officeType": "B.O",
    "Deliverystatus": "Delivery",
    "divisionname": "Indore Moffusil",
    "regionname": "Indore",
    "circlename": "Madhya Pradesh",
    "Taluk": "Kannod",
    "Districtname": "Dewas",
    "statename": "MADHYA PRADESH"
  },
  {
    "pincode": "455332",
    "officename": "Kusmania B.O",
    "officeType": "B.O",
    "Deliverystatus": "Delivery",
    "divisionname": "Indore Moffusil",
    "regionname": "Indore",
    "circlename": "Madhya Pradesh",
    "Taluk": "Kannod",
    "Districtname": "Dewas",
    "statename": "MADHYA PRADESH"
  },
  {
    "pincode": "455332",
    "officename": "Omkara B.O",
    "officeType": "B.O",
    "Deliverystatus": "Delivery",
    "divisionname": "Indore Moffusil",
    "regionname": "Indore",
    "circlename": "Madhya Pradesh",
    "Taluk": "Kannod",
    "Districtname": "Dewas",
    "statename": "MADHYA PRADESH"
  },
  {
    "pincode": "455332",
    "officename": "Patrani B.O",
    "officeType": "B.O",
    "Deliverystatus": "Delivery",
    "divisionname": "Indore Moffusil",
    "regionname": "Indore",
    "circlename": "Madhya Pradesh",
    "Taluk": "Kannod",
    "Districtname": "Dewas",
    "statename": "MADHYA PRADESH"
  },
  {
    "pincode": "455332",
    "officename": "Piplani B.O",
    "officeType": "B.O",
    "Deliverystatus": "Delivery",
    "divisionname": "Indore Moffusil",
    "regionname": "Indore",
    "circlename": "Madhya Pradesh",
    "Taluk": "Kannod",
    "Districtname": "Dewas",
    "statename": "MADHYA PRADESH"
  },
  {
    "pincode": "455332",
    "officename": "Sonkhedi B.O",
    "officeType": "B.O",
    "Deliverystatus": "Delivery",
    "divisionname": "Indore Moffusil",
    "regionname": "Indore",
    "circlename": "Madhya Pradesh",
    "Taluk": "Kannod",
    "Districtname": "Dewas",
    "statename": "MADHYA PRADESH"
  },
  {
    "pincode": "455332",
    "officename": "Thuria B.O",
    "officeType": "B.O",
    "Deliverystatus": "Delivery",
    "divisionname": "Indore Moffusil",
    "regionname": "Indore",
    "circlename": "Madhya Pradesh",
    "Taluk": "Kannod",
    "Districtname": "Dewas",
    "statename": "MADHYA PRADESH"
  },
  {
    "pincode": "455332",
    "officename": "Vikrampur B.O",
    "officeType": "B.O",
    "Deliverystatus": "Delivery",
    "divisionname": "Indore Moffusil",
    "regionname": "Indore",
    "circlename": "Madhya Pradesh",
    "Taluk": "Kannod",
    "Districtname": "Dewas",
    "statename": "MADHYA PRADESH"
  }
]
