[
  {
    "pincode": "455336",
    "officename": "Ajnas B.O",
    "officeType": "B.O",
    "Deliverystatus": "Delivery",
    "divisionname": "Indore Moffusil",
    "regionname": "Indore",
    "circlename": "Madhya Pradesh",
    "Taluk": "Khategaon",
    "Districtname": "Dewas",
    "statename": "MADHYA PRADESH"
  },
  {
    "pincode": "455336",
    "officename": "Bhandaria B.O",
    "officeType": "B.O",
    "Deliverystatus": "Delivery",
    "divisionname": "Indore Moffusil",
    "regionname": "Indore",
    "circlename": "Madhya Pradesh",
    "Taluk": "Khategaon",
    "Districtname": "Dewas",
    "statename": "MADHYA PRADESH"
  },
  {
    "pincode": "455336",
    "officename": "Chandwana B.O",
    "officeType": "B.O",
    "Deliverystatus": "Delivery",
    "divisionname": "Indore Moffusil",
    "regionname": "Indore",
    "circlename": "Madhya Pradesh",
    "Taluk": "Khategaon",
    "Districtname": "Dewas",
    "statename": "MADHYA PRADESH"
  },
  {
    "pincode": "455336",
    "officename": "Chichli Rajor B.O",
    "officeType": "B.O",
    "Deliverystatus": "Delivery",
    "divisionname": "Indore Moffusil",
    "regionname": "Indore",
    "circlename": "Madhya Pradesh",
    "Taluk": "Khategaon",
    "Districtname": "Dewas",
    "statename": "MADHYA PRADESH"
  },
  {
    "pincode": "455336",
    "officename": "Ganora B.O",
    "officeType": "B.O",
    "Deliverystatus": "Delivery",
    "divisionname": "Indore Moffusil",
    "regionname": "Indore",
    "circlename": "Madhya Pradesh",
    "Taluk": "Khategaon",
    "Districtname": "Dewas",
    "statename": "MADHYA PRADESH"
  },
  {
    "pincode": "455336",
    "officename": "Harangaon B.O",
    "officeType": "B.O",
    "Deliverystatus": "Delivery",
    "divisionname": "Indore Moffusil",
    "regionname": "Indore",
    "circlename": "Madhya Pradesh",
    "Taluk": "Khategaon",
    "Districtname": "Dewas",
    "statename": "MADHYA PRADESH"
  },
  {
    "pincode": "455336",
    "officename": "Jiyagaon B.O",
    "officeType": "B.O",
    "Deliverystatus": "Delivery",
    "divisionname": "Indore Moffusil",
    "regionname": "Indore",
    "circlename": "Madhya Pradesh",
    "Taluk": "Khategaon",
    "Districtname": "Dewas",
    "statename": "MADHYA PRADESH"
  },
  {
    "pincode": "455336",
    "officename": "Kankariya B.O",
    "officeType": "B.O",
    "Deliverystatus": "Delivery",
    "divisionname": "Indore Moffusil",
    "regionname": "Indore",
    "circlename": "Madhya Pradesh",
    "Taluk": "Khategaon",
    "Districtname": "Dewas",
    "statename": "MADHYA PRADESH"
  },
  {
    "pincode": "455336",
    "officename": "Khategaon S.O",
    "officeType": "S.O",
    "Deliverystatus": "Delivery",
    "divisionname": "Indore Moffusil",
    "regionname": "Indore",
    "circlename": "Madhya Pradesh",
    "Taluk": "Khategaon",
    "Districtname": "Dewas",
    "statename": "MADHYA PRADESH"
  },
  {
    "pincode": "455336",
    "officename": "Nanasa B.O",
    "officeType": "B.O",
    "Deliverystatus": "Delivery",
    "divisionname": "Indore Moffusil",
    "regionname": "Indore",
    "circlename": "Madhya Pradesh",
    "Taluk": "Khategaon",
    "Districtname": "Dewas",
    "statename": "MADHYA PRADESH"
  },
  {
    "pincode": "455336",
    "officename": "Pipalkota B.O",
    "officeType": "B.O",
    "Deliverystatus": "Delivery",
    "divisionname": "Indore Moffusil",
    "regionname": "Indore",
    "circlename": "Madhya Pradesh",
    "Taluk": "Khategaon",
    "Districtname": "Dewas",
    "statename": "MADHYA PRADESH"
  },
  {
    "pincode": "455336",
    "officename": "Richi B.O",
    "officeType": "B.O",
    "Deliverystatus": "Delivery",
    "divisionname": "Indore Moffusil",
    "regionname": "Indore",
    "circlename": "Madhya Pradesh",
    "Taluk": "Khategaon",
    "Districtname": "Dewas",
    "statename": "MADHYA PRADESH"
  },
  {
    "pincode": "455336",
    "officename": "Sukardi B.O",
    "officeType": "B.O",
    "Deliverystatus": "Delivery",
    "divisionname": "Indore Moffusil",
    "regionname": "Indore",
    "circlename": "Madhya Pradesh",
    "Taluk": "Khategaon",
    "Districtname": "Dewas",
    "statename": "MADHYA PRADESH"
  },
  {
    "pincode": "455336",
    "officename": "Sulgaon B.O",
    "officeType": "B.O",
    "Deliverystatus": "Delivery",
    "divisionname": "Indore Moffusil",
    "regionname": "Indore",
    "circlename": "Madhya Pradesh",
    "Taluk": "Khategaon",
    "Districtname": "Dewas",
    "statename": "MADHYA PRADESH"
  },
  {
    "pincode": "455336",
    "officename": "Tiwdiya B.O",
    "officeType": "B.O",
    "Deliverystatus": "Delivery",
    "divisionname": "Indore Moffusil",
    "regionname": "Indore",
    "circlename": "Madhya Pradesh",
    "Taluk": "Khategaon",
    "Districtname": "Dewas",
    "statename": "MADHYA PRADESH"
  },
  {
    "pincode": "455336",
    "officename": "Umaria B.O",
    "officeType": "B.O",
    "Deliverystatus": "Delivery",
    "divisionname": "Indore Moffusil",
    "regionname": "Indore",
    "circlename": "Madhya Pradesh",
    "Taluk": "Khategaon",
    "Districtname": "Dewas",
    "statename": "MADHYA PRADESH"
  }
]
