[
  {
    "pincode": "456771",
    "officename": "Amla B.O",
    "officeType": "B.O",
    "Deliverystatus": "Delivery",
    "divisionname": "Ujjain",
    "regionname": "Indore",
    "circlename": "Madhya Pradesh",
    "Taluk": "Badnagar",
    "Districtname": "Ujjain",
    "statename": "MADHYA PRADESH"
  },
  {
    "pincode": "456771",
    "officename": "Asawata B.O",
    "officeType": "B.O",
    "Deliverystatus": "Delivery",
    "divisionname": "Ujjain",
    "regionname": "Indore",
    "circlename": "Madhya Pradesh",
    "Taluk": "Barnagar",
    "Districtname": "Ujjain",
    "statename": "MADHYA PRADESH"
  },
  {
    "pincode": "456771",
    "officename": "Bangred B.O",
    "officeType": "B.O",
    "Deliverystatus": "Delivery",
    "divisionname": "Ujjain",
    "regionname": "Indore",
    "circlename": "Madhya Pradesh",
    "Taluk": "Barnagar",
    "Districtname": "Ujjain",
    "statename": "MADHYA PRADESH"
  },
  {
    "pincode": "456771",
    "officename": "Barnagar  Bunglow B.O",
    "officeType": "B.O",
    "Deliverystatus": "Non-Delivery",
    "divisionname": "Ujjain",
    "regionname": "Indore",
    "circlename": "Madhya Pradesh",
    "Taluk": "Barnagar",
    "Districtname": "Ujjain",
    "statename": "MADHYA PRADESH"
  },
  {
    "pincode": "456771",
    "officename": "Barnagar S.O",
    "officeType": "S.O",
    "Deliverystatus": "Delivery",
    "divisionname": "Ujjain",
    "regionname": "Indore",
    "circlename": "Madhya Pradesh",
    "Taluk": "Barnagar",
    "Districtname": "Ujjain",
    "statename": "MADHYA PRADESH"
  },
  {
    "pincode": "456771",
    "officename": "Barnagar Town S.O",
    "officeType": "S.O",
    "Deliverystatus": "Non-Delivery",
    "divisionname": "Ujjain",
    "regionname": "Indore",
    "circlename": "Madhya Pradesh",
    "Taluk": "Barnagar",
    "Districtname": "Ujjain",
    "statename": "MADHYA PRADESH"
  },
  {
    "pincode": "456771",
    "officename": "Birakhedi B.O",
    "officeType": "B.O",
    "Deliverystatus": "Delivery",
    "divisionname": "Ujjain",
    "regionname": "Indore",
    "circlename": "Madhya Pradesh",
    "Taluk": "Barnagar",
    "Districtname": "Ujjain",
    "statename": "MADHYA PRADESH"
  },
  {
    "pincode": "456771",
    "officename": "Jalodia B.O",
    "officeType": "B.O",
    "Deliverystatus": "Delivery",
    "divisionname": "Ujjain",
    "regionname": "Indore",
    "circlename": "Madhya Pradesh",
    "Taluk": "Barnagar",
    "Districtname": "Ujjain",
    "statename": "MADHYA PRADESH"
  },
  {
    "pincode": "456771",
    "officename": "Lohana B.O",
    "officeType": "B.O",
    "Deliverystatus": "Delivery",
    "divisionname": "Ujjain",
    "regionname": "Indore",
    "circlename": "Madhya Pradesh",
    "Taluk": "Badnagar",
    "Districtname": "Ujjain",
    "statename": "MADHYA PRADESH"
  },
  {
    "pincode": "456771",
    "officename": "Molana B.O",
    "officeType": "B.O",
    "Deliverystatus": "Delivery",
    "divisionname": "Ujjain",
    "regionname": "Indore",
    "circlename": "Madhya Pradesh",
    "Taluk": "Barnagar",
    "Districtname": "Ujjain",
    "statename": "MADHYA PRADESH"
  },
  {
    "pincode": "456771",
    "officename": "Palduna B.O",
    "officeType": "B.O",
    "Deliverystatus": "Delivery",
    "divisionname": "Ujjain",
    "regionname": "Indore",
    "circlename": "Madhya Pradesh",
    "Taluk": "Barnagar",
    "Districtname": "Ujjain",
    "statename": "MADHYA PRADESH"
  },
  {
    "pincode": "456771",
    "officename": "Peerjhalar B.O",
    "officeType": "B.O",
    "Deliverystatus": "Delivery",
    "divisionname": "Ujjain",
    "regionname": "Indore",
    "circlename": "Madhya Pradesh",
    "Taluk": "Barnagar",
    "Districtname": "Ujjain",
    "statename": "MADHYA PRADESH"
  },
  {
    "pincode": "456771",
    "officename": "Piplu B.O",
    "officeType": "B.O",
    "Deliverystatus": "Delivery",
    "divisionname": "Ujjain",
    "regionname": "Indore",
    "circlename": "Madhya Pradesh",
    "Taluk": "Badnagar",
    "Districtname": "Ujjain",
    "statename": "MADHYA PRADESH"
  }
]
