[
  {
    "pincode": "457001",
    "officename": "Bangrod B.O",
    "officeType": "B.O",
    "Deliverystatus": "Delivery",
    "divisionname": "Ratlam",
    "regionname": "Indore",
    "circlename": "Madhya Pradesh",
    "Taluk": "Ratlam",
    "Districtname": "Ratlam",
    "statename": "MADHYA PRADESH"
  },
  {
    "pincode": "457001",
    "officename": "Banjali B.O",
    "officeType": "B.O",
    "Deliverystatus": "Delivery",
    "divisionname": "Ratlam",
    "regionname": "Indore",
    "circlename": "Madhya Pradesh",
    "Taluk": "Ratlam",
    "Districtname": "Ratlam",
    "statename": "MADHYA PRADESH"
  },
  {
    "pincode": "457001",
    "officename": "Basindra B.O",
    "officeType": "B.O",
    "Deliverystatus": "Delivery",
    "divisionname": "Ratlam",
    "regionname": "Indore",
    "circlename": "Madhya Pradesh",
    "Taluk": "Ratlam",
    "Districtname": "Ratlam",
    "statename": "MADHYA PRADESH"
  },
  {
    "pincode": "457001",
    "officename": "Bhatibarodia B.O",
    "officeType": "B.O",
    "Deliverystatus": "Delivery",
    "divisionname": "Ratlam",
    "regionname": "Indore",
    "circlename": "Madhya Pradesh",
    "Taluk": "Ratlam",
    "Districtname": "Ratlam",
    "statename": "MADHYA PRADESH"
  },
  {
    "pincode": "457001",
    "officename": "Bibrod B.O",
    "officeType": "B.O",
    "Deliverystatus": "Delivery",
    "divisionname": "Ratlam",
    "regionname": "Indore",
    "circlename": "Madhya Pradesh",
    "Taluk": "Ratlam",
    "Districtname": "Ratlam",
    "statename": "MADHYA PRADESH"
  },
  {
    "pincode": "457001",
    "officename": "Bildi B.O",
    "officeType": "B.O",
    "Deliverystatus": "Delivery",
    "divisionname": "Ratlam",
    "regionname": "Indore",
    "circlename": "Madhya Pradesh",
    "Taluk": "Ratlam",
    "Districtname": "Ratlam",
    "statename": "MADHYA PRADESH"
  },
  {
    "pincode": "457001",
    "officename": "Devla B.O",
    "officeType": "B.O",
    "Deliverystatus": "Delivery",
    "divisionname": "Ratlam",
    "regionname": "Indore",
    "circlename": "Madhya Pradesh",
    "Taluk": "Ratlam",
    "Districtname": "Ratlam",
    "statename": "MADHYA PRADESH"
  },
  {
    "pincode": "457001",
    "officename": "Dhamnod B.O",
    "officeType": "B.O",
    "Deliverystatus": "Delivery",
    "divisionname": "Ratlam",
    "regionname": "Indore",
    "circlename": "Madhya Pradesh",
    "Taluk": "Ratlam",
    "Districtname": "Ratlam",
    "statename": "MADHYA PRADESH"
  },
  {
    "pincode": "457001",
    "officename": "Dhanasuta B.O",
    "officeType": "B.O",
    "Deliverystatus": "Delivery",
    "divisionname": "Ratlam",
    "regionname": "Indore",
    "circlename": "Madhya Pradesh",
    "Taluk": "Ratlam",
    "Districtname": "Ratlam",
    "statename": "MADHYA PRADESH"
  },
  {
    "pincode": "457001",
    "officename": "Dilipnagar B.O",
    "officeType": "B.O",
    "Deliverystatus": "Delivery",
    "divisionname": "Ratlam",
    "regionname": "Indore",
    "circlename": "Madhya Pradesh",
    "Taluk": "Ratlam",
    "Districtname": "Ratlam",
    "statename": "MADHYA PRADESH"
  },
  {
    "pincode": "457001",
    "officename": "Ghatalia B.O",
    "officeType": "B.O",
    "Deliverystatus": "Delivery",
    "divisionname": "Ratlam",
    "regionname": "Indore",
    "circlename": "Madhya Pradesh",
    "Taluk": "Bajna",
    "Districtname": "Ratlam",
    "statename": "MADHYA PRADESH"
  },
  {
    "pincode": "457001",
    "officename": "Harthali B.O",
    "officeType": "B.O",
    "Deliverystatus": "Delivery",
    "divisionname": "Ratlam",
    "regionname": "Indore",
    "circlename": "Madhya Pradesh",
    "Taluk": "Ratlam",
    "Districtname": "Ratlam",
    "statename": "MADHYA PRADESH"
  },
  {
    "pincode": "457001",
    "officename": "Isarthuni B.O",
    "officeType": "B.O",
    "Deliverystatus": "Delivery",
    "divisionname": "Ratlam",
    "regionname": "Indore",
    "circlename": "Madhya Pradesh",
    "Taluk": "Ratlam",
    "Districtname": "Ratlam",
    "statename": "MADHYA PRADESH"
  },
  {
    "pincode": "457001",
    "officename": "Itawakhurd B.O",
    "officeType": "B.O",
    "Deliverystatus": "Delivery",
    "divisionname": "Ratlam",
    "regionname": "Indore",
    "circlename": "Madhya Pradesh",
    "Taluk": "Ratlam",
    "Districtname": "Ratlam",
    "statename": "MADHYA PRADESH"
  },
  {
    "pincode": "457001",
    "officename": "Jadwasakalan B.O",
    "officeType": "B.O",
    "Deliverystatus": "Delivery",
    "divisionname": "Ratlam",
    "regionname": "Indore",
    "circlename": "Madhya Pradesh",
    "Taluk": "Ratlam",
    "Districtname": "Ratlam",
    "statename": "MADHYA PRADESH"
  },
  {
    "pincode": "457001",
    "officename": "Kaneri B.O",
    "officeType": "B.O",
    "Deliverystatus": "Delivery",
    "divisionname": "Ratlam",
    "regionname": "Indore",
    "circlename": "Madhya Pradesh",
    "Taluk": "Ratlam",
    "Districtname": "Ratlam",
    "statename": "MADHYA PRADESH"
  },
  {
    "pincode": "457001",
    "officename": "Kangsi B.O",
    "officeType": "B.O",
    "Deliverystatus": "Delivery",
    "divisionname": "Ratlam",
    "regionname": "Indore",
    "circlename": "Madhya Pradesh",
    "Taluk": "Ratlam",
    "Districtname": "Ratlam",
    "statename": "MADHYA PRADESH"
  },
  {
    "pincode": "457001",
    "officename": "Lunera B.O",
    "officeType": "B.O",
    "Deliverystatus": "Delivery",
    "divisionname": "Ratlam",
    "regionname": "Indore",
    "circlename": "Madhya Pradesh",
    "Taluk": "Ratlam",
    "Districtname": "Ratlam",
    "statename": "MADHYA PRADESH"
  },
  {
    "pincode": "457001",
    "officename": "Malwasa B.O",
    "officeType": "B.O",
    "Deliverystatus": "Delivery",
    "divisionname": "Ratlam",
    "regionname": "Indore",
    "circlename": "Madhya Pradesh",
    "Taluk": "Ratlam",
    "Districtname": "Ratlam",
    "statename": "MADHYA PRADESH"
  },
  {
    "pincode": "457001",
    "officename": "Malwasi B.O",
    "officeType": "B.O",
    "Deliverystatus": "Delivery",
    "divisionname": "Ratlam",
    "regionname": "Indore",
    "circlename": "Madhya Pradesh",
    "Taluk": "Ratlam",
    "Districtname": "Ratlam",
    "statename": "MADHYA PRADESH"
  },
  {
    "pincode": "457001",
    "officename": "Mundri B.O",
    "officeType": "B.O",
    "Deliverystatus": "Delivery",
    "divisionname": "Ratlam",
    "regionname": "Indore",
    "circlename": "Madhya Pradesh",
    "Taluk": "Ratlam",
    "Districtname": "Ratlam",
    "statename": "MADHYA PRADESH"
  },
  {
    "pincode": "457001",
    "officename": "Nagra B.O",
    "officeType": "B.O",
    "Deliverystatus": "Delivery",
    "divisionname": "Ratlam",
    "regionname": "Indore",
    "circlename": "Madhya Pradesh",
    "Taluk": "Ratlam",
    "Districtname": "Ratlam",
    "statename": "MADHYA PRADESH"
  },
  {
    "pincode": "457001",
    "officename": "Naugawa B.O",
    "officeType": "B.O",
    "Deliverystatus": "Delivery",
    "divisionname": "Ratlam",
    "regionname": "Indore",
    "circlename": "Madhya Pradesh",
    "Taluk": "Ratlam",
    "Districtname": "Ratlam",
    "statename": "MADHYA PRADESH"
  },
  {
    "pincode": "457001",
    "officename": "Nayan B.O",
    "officeType": "B.O",
    "Deliverystatus": "Delivery",
    "divisionname": "Ratlam",
    "regionname": "Indore",
    "circlename": "Madhya Pradesh",
    "Taluk": "Ratlam",
    "Districtname": "Ratlam",
    "statename": "MADHYA PRADESH"
  },
  {
    "pincode": "457001",
    "officename": "Palas B.O",
    "officeType": "B.O",
    "Deliverystatus": "Delivery",
    "divisionname": "Ratlam",
    "regionname": "Indore",
    "circlename": "Madhya Pradesh",
    "Taluk": "Ratlam",
    "Districtname": "Ratlam",
    "statename": "MADHYA PRADESH"
  },
  {
    "pincode": "457001",
    "officename": "Palsoda B.O",
    "officeType": "B.O",
    "Deliverystatus": "Delivery",
    "divisionname": "Ratlam",
    "regionname": "Indore",
    "circlename": "Madhya Pradesh",
    "Taluk": "Ratlam",
    "Districtname": "Ratlam",
    "statename": "MADHYA PRADESH"
  },
  {
    "pincode": "457001",
    "officename": "Palsodi B.O",
    "officeType": "B.O",
    "Deliverystatus": "Delivery",
    "divisionname": "Ratlam",
    "regionname": "Indore",
    "circlename": "Madhya Pradesh",
    "Taluk": "Ratlam",
    "Districtname": "Ratlam",
    "statename": "MADHYA PRADESH"
  },
  {
    "pincode": "457001",
    "officename": "Pipalkhunta B.O",
    "officeType": "B.O",
    "Deliverystatus": "Delivery",
    "divisionname": "Ratlam",
    "regionname": "Indore",
    "circlename": "Madhya Pradesh",
    "Taluk": "Ratlam",
    "Districtname": "Ratlam",
    "statename": "MADHYA PRADESH"
  },
  {
    "pincode": "457001",
    "officename": "Ranisingh B.O",
    "officeType": "B.O",
    "Deliverystatus": "Delivery",
    "divisionname": "Ratlam",
    "regionname": "Indore",
    "circlename": "Madhya Pradesh",
    "Taluk": "Ratlam",
    "Districtname": "Ratlam",
    "statename": "MADHYA PRADESH"
  },
  {
    "pincode": "457001",
    "officename": "Raoti B.O",
    "officeType": "B.O",
    "Deliverystatus": "Delivery",
    "divisionname": "Ratlam",
    "regionname": "Indore",
    "circlename": "Madhya Pradesh",
    "Taluk": "Ratlam",
    "Districtname": "Ratlam",
    "statename": "MADHYA PRADESH"
  },
  {
    "pincode": "457001",
    "officename": "Ratlam City S.O",
    "officeType": "S.O",
    "Deliverystatus": "Non-Delivery",
    "divisionname": "Ratlam",
    "regionname": "Indore",
    "circlename": "Madhya Pradesh",
    "Taluk": "Ratlam",
    "Districtname": "Ratlam",
    "statename": "MADHYA PRADESH"
  },
  {
    "pincode": "457001",
    "officename": "Ratlam Collectorate S.O",
    "officeType": "S.O",
    "Deliverystatus": "Non-Delivery",
    "divisionname": "Ratlam",
    "regionname": "Indore",
    "circlename": "Madhya Pradesh",
    "Taluk": "Sailana",
    "Districtname": "Ratlam",
    "statename": "MADHYA PRADESH"
  },
  {
    "pincode": "457001",
    "officename": "Ratlam Ghatla Colony S.O",
    "officeType": "S.O",
    "Deliverystatus": "Non-Delivery",
    "divisionname": "Ratlam",
    "regionname": "Indore",
    "circlename": "Madhya Pradesh",
    "Taluk": "Ratlam",
    "Districtname": "Ratlam",
    "statename": "MADHYA PRADESH"
  },
  {
    "pincode": "457001",
    "officename": "Ratlam H.O",
    "officeType": "H.O",
    "Deliverystatus": "Delivery",
    "divisionname": "Ratlam",
    "regionname": "Indore",
    "circlename": "Madhya Pradesh",
    "Taluk": "Ratlam",
    "Districtname": "Ratlam",
    "statename": "MADHYA PRADESH"
  },
  {
    "pincode": "457001",
    "officename": "Ratlam Ind.Area S.O",
    "officeType": "S.O",
    "Deliverystatus": "Non-Delivery",
    "divisionname": "Ratlam",
    "regionname": "Indore",
    "circlename": "Madhya Pradesh",
    "Taluk": "Ratlam",
    "Districtname": "Ratlam",
    "statename": "MADHYA PRADESH"
  },
  {
    "pincode": "457001",
    "officename": "Ratlam Jawahar Nagar S.O",
    "officeType": "S.O",
    "Deliverystatus": "Non-Delivery",
    "divisionname": "Ratlam",
    "regionname": "Indore",
    "circlename": "Madhya Pradesh",
    "Taluk": "Ratlam",
    "Districtname": "Ratlam",
    "statename": "MADHYA PRADESH"
  },
  {
    "pincode": "457001",
    "officename": "Ratlam Kasara Bazar S.O",
    "officeType": "S.O",
    "Deliverystatus": "Non-Delivery",
    "divisionname": "Ratlam",
    "regionname": "Indore",
    "circlename": "Madhya Pradesh",
    "Taluk": "Ratlam",
    "Districtname": "Ratlam",
    "statename": "MADHYA PRADESH"
  },
  {
    "pincode": "457001",
    "officename": "Ratlam Naharpura S.O",
    "officeType": "S.O",
    "Deliverystatus": "Non-Delivery",
    "divisionname": "Ratlam",
    "regionname": "Indore",
    "circlename": "Madhya Pradesh",
    "Taluk": "Ratlam",
    "Districtname": "Ratlam",
    "statename": "MADHYA PRADESH"
  },
  {
    "pincode": "457001",
    "officename": "Ratlam Rly Colony S.O",
    "officeType": "S.O",
    "Deliverystatus": "Non-Delivery",
    "divisionname": "Ratlam",
    "regionname": "Indore",
    "circlename": "Madhya Pradesh",
    "Taluk": "Ratlam",
    "Districtname": "Ratlam",
    "statename": "MADHYA PRADESH"
  },
  {
    "pincode": "457001",
    "officename": "Ratlam Stn.Road S.O",
    "officeType": "S.O",
    "Deliverystatus": "Non-Delivery",
    "divisionname": "Ratlam",
    "regionname": "Indore",
    "circlename": "Madhya Pradesh",
    "Taluk": "Ratlam",
    "Districtname": "Ratlam",
    "statename": "MADHYA PRADESH"
  },
  {
    "pincode": "457001",
    "officename": "Ratlam Surajpole S.O",
    "officeType": "S.O",
    "Deliverystatus": "Non-Delivery",
    "divisionname": "Ratlam",
    "regionname": "Indore",
    "circlename": "Madhya Pradesh",
    "Taluk": "Ratlam",
    "Districtname": "Ratlam",
    "statename": "MADHYA PRADESH"
  },
  {
    "pincode": "457001",
    "officename": "Sejawata B.O",
    "officeType": "B.O",
    "Deliverystatus": "Delivery",
    "divisionname": "Ratlam",
    "regionname": "Indore",
    "circlename": "Madhya Pradesh",
    "Taluk": "Ratlam",
    "Districtname": "Ratlam",
    "statename": "MADHYA PRADESH"
  },
  {
    "pincode": "457001",
    "officename": "Shivgarh B.O",
    "officeType": "B.O",
    "Deliverystatus": "Delivery",
    "divisionname": "Ratlam",
    "regionname": "Indore",
    "circlename": "Madhya Pradesh",
    "Taluk": "Ratlam",
    "Districtname": "Ratlam",
    "statename": "MADHYA PRADESH"
  },
  {
    "pincode": "457001",
    "officename": "Shivpur B.O",
    "officeType": "B.O",
    "Deliverystatus": "Delivery",
    "divisionname": "Ratlam",
    "regionname": "Indore",
    "circlename": "Madhya Pradesh",
    "Taluk": "Ratlam",
    "Districtname": "Ratlam",
    "statename": "MADHYA PRADESH"
  },
  {
    "pincode": "457001",
    "officename": "Tambolia B.O",
    "officeType": "B.O",
    "Deliverystatus": "Delivery",
    "divisionname": "Ratlam",
    "regionname": "Indore",
    "circlename": "Madhya Pradesh",
    "Taluk": "Ratlam",
    "Districtname": "Ratlam",
    "statename": "MADHYA PRADESH"
  },
  {
    "pincode": "457001",
    "officename": "Titari B.O",
    "officeType": "B.O",
    "Deliverystatus": "Delivery",
    "divisionname": "Ratlam",
    "regionname": "Indore",
    "circlename": "Madhya Pradesh",
    "Taluk": "Ratlam",
    "Districtname": "Ratlam",
    "statename": "MADHYA PRADESH"
  },
  {
    "pincode": "457001",
    "officename": "Umar B.O",
    "officeType": "B.O",
    "Deliverystatus": "Delivery",
    "divisionname": "Ratlam",
    "regionname": "Indore",
    "circlename": "Madhya Pradesh",
    "Taluk": "Ratlam",
    "Districtname": "Ratlam",
    "statename": "MADHYA PRADESH"
  }
]
