[
  {
    "pincode": "457118",
    "officename": "Bardiagoyal B.O",
    "officeType": "B.O",
    "Deliverystatus": "Delivery",
    "divisionname": "Ratlam",
    "regionname": "Indore",
    "circlename": "Madhya Pradesh",
    "Taluk": "Ratlam",
    "Districtname": "Ratlam",
    "statename": "MADHYA PRADESH"
  },
  {
    "pincode": "457118",
    "officename": "Bhutia B.O",
    "officeType": "B.O",
    "Deliverystatus": "Delivery",
    "divisionname": "Ratlam",
    "regionname": "Indore",
    "circlename": "Madhya Pradesh",
    "Taluk": "Alot",
    "Districtname": "Ratlam",
    "statename": "MADHYA PRADESH"
  },
  {
    "pincode": "457118",
    "officename": "Gulbalod B.O",
    "officeType": "B.O",
    "Deliverystatus": "Delivery",
    "divisionname": "Ratlam",
    "regionname": "Indore",
    "circlename": "Madhya Pradesh",
    "Taluk": "Ratlam",
    "Districtname": "Ratlam",
    "statename": "MADHYA PRADESH"
  },
  {
    "pincode": "457118",
    "officename": "Hatpiplia B.O",
    "officeType": "B.O",
    "Deliverystatus": "Delivery",
    "divisionname": "Ratlam",
    "regionname": "Indore",
    "circlename": "Madhya Pradesh",
    "Taluk": "Ratlam",
    "Districtname": "Ratlam",
    "statename": "MADHYA PRADESH"
  },
  {
    "pincode": "457118",
    "officename": "Jamuniashankar B.O",
    "officeType": "B.O",
    "Deliverystatus": "Delivery",
    "divisionname": "Ratlam",
    "regionname": "Indore",
    "circlename": "Madhya Pradesh",
    "Taluk": "Ratlam",
    "Districtname": "Ratlam",
    "statename": "MADHYA PRADESH"
  },
  {
    "pincode": "457118",
    "officename": "Karadia B.O",
    "officeType": "B.O",
    "Deliverystatus": "Delivery",
    "divisionname": "Ratlam",
    "regionname": "Indore",
    "circlename": "Madhya Pradesh",
    "Taluk": "Ratlam",
    "Districtname": "Ratlam",
    "statename": "MADHYA PRADESH"
  },
  {
    "pincode": "457118",
    "officename": "Karwakhedi B.O",
    "officeType": "B.O",
    "Deliverystatus": "Delivery",
    "divisionname": "Ratlam",
    "regionname": "Indore",
    "circlename": "Madhya Pradesh",
    "Taluk": "Ratlam",
    "Districtname": "Ratlam",
    "statename": "MADHYA PRADESH"
  },
  {
    "pincode": "457118",
    "officename": "Kharuakhurd B.O",
    "officeType": "B.O",
    "Deliverystatus": "Delivery",
    "divisionname": "Ratlam",
    "regionname": "Indore",
    "circlename": "Madhya Pradesh",
    "Taluk": "Ratlam",
    "Districtname": "Ratlam",
    "statename": "MADHYA PRADESH"
  },
  {
    "pincode": "457118",
    "officename": "Lodh B.O",
    "officeType": "B.O",
    "Deliverystatus": "Delivery",
    "divisionname": "Ratlam",
    "regionname": "Indore",
    "circlename": "Madhya Pradesh",
    "Taluk": "Ratlam",
    "Districtname": "Ratlam",
    "statename": "MADHYA PRADESH"
  },
  {
    "pincode": "457118",
    "officename": "Madhopur B.O",
    "officeType": "B.O",
    "Deliverystatus": "Delivery",
    "divisionname": "Ratlam",
    "regionname": "Indore",
    "circlename": "Madhya Pradesh",
    "Taluk": "Alot",
    "Districtname": "Ratlam",
    "statename": "MADHYA PRADESH"
  },
  {
    "pincode": "457118",
    "officename": "Mundlakala B.O",
    "officeType": "B.O",
    "Deliverystatus": "Delivery",
    "divisionname": "Ratlam",
    "regionname": "Indore",
    "circlename": "Madhya Pradesh",
    "Taluk": "Ratlam",
    "Districtname": "Ratlam",
    "statename": "MADHYA PRADESH"
  },
  {
    "pincode": "457118",
    "officename": "PIR HINGORIYA B.O",
    "officeType": "B.O",
    "Deliverystatus": "Delivery",
    "divisionname": "Ratlam",
    "regionname": "Indore",
    "circlename": "Madhya Pradesh",
    "Taluk": "Ratlam",
    "Districtname": "Ratlam",
    "statename": "MADHYA PRADESH"
  },
  {
    "pincode": "457118",
    "officename": "Panthpiploda B.O",
    "officeType": "B.O",
    "Deliverystatus": "Delivery",
    "divisionname": "Ratlam",
    "regionname": "Indore",
    "circlename": "Madhya Pradesh",
    "Taluk": "Ratlam",
    "Districtname": "Ratlam",
    "statename": "MADHYA PRADESH"
  },
  {
    "pincode": "457118",
    "officename": "Tal S.O",
    "officeType": "S.O",
    "Deliverystatus": "Delivery",
    "divisionname": "Ratlam",
    "regionname": "Indore",
    "circlename": "Madhya Pradesh",
    "Taluk": "Ratlam",
    "Districtname": "Ratlam",
    "statename": "MADHYA PRADESH"
  },
  {
    "pincode": "457118",
    "officename": "UNI B.O",
    "officeType": "B.O",
    "Deliverystatus": "Delivery",
    "divisionname": "Ratlam",
    "regionname": "Indore",
    "circlename": "Madhya Pradesh",
    "Taluk": "Ratlam",
    "Districtname": "Ratlam",
    "statename": "MADHYA PRADESH"
  }
]
