[
  {
    "pincode": "457119",
    "officename": "Kasari B.O",
    "officeType": "B.O",
    "Deliverystatus": "Delivery",
    "divisionname": "Ratlam",
    "regionname": "Indore",
    "circlename": "Madhya Pradesh",
    "Taluk": "Alote",
    "Districtname": "Ratlam",
    "statename": "MADHYA PRADESH"
  },
  {
    "pincode": "457119",
    "officename": "Kharwa kalan S.O",
    "officeType": "S.O",
    "Deliverystatus": "Delivery",
    "divisionname": "Ratlam",
    "regionname": "Indore",
    "circlename": "Madhya Pradesh",
    "Taluk": "Alote",
    "Districtname": "Ratlam",
    "statename": "MADHYA PRADESH"
  },
  {
    "pincode": "457119",
    "officename": "Lasudiya Surajmal B.O",
    "officeType": "B.O",
    "Deliverystatus": "Delivery",
    "divisionname": "Ratlam",
    "regionname": "Indore",
    "circlename": "Madhya Pradesh",
    "Taluk": "Alote",
    "Districtname": "Ratlam",
    "statename": "MADHYA PRADESH"
  },
  {
    "pincode": "457119",
    "officename": "Luni B.O",
    "officeType": "B.O",
    "Deliverystatus": "Delivery",
    "divisionname": "Ratlam",
    "regionname": "Indore",
    "circlename": "Madhya Pradesh",
    "Taluk": "Alote",
    "Districtname": "Ratlam",
    "statename": "MADHYA PRADESH"
  },
  {
    "pincode": "457119",
    "officename": "Mandawal B.O",
    "officeType": "B.O",
    "Deliverystatus": "Delivery",
    "divisionname": "Ratlam",
    "regionname": "Indore",
    "circlename": "Madhya Pradesh",
    "Taluk": "Alote",
    "Districtname": "Ratlam",
    "statename": "MADHYA PRADESH"
  },
  {
    "pincode": "457119",
    "officename": "Minawada B.O",
    "officeType": "B.O",
    "Deliverystatus": "Delivery",
    "divisionname": "Ratlam",
    "regionname": "Indore",
    "circlename": "Madhya Pradesh",
    "Taluk": "Alote",
    "Districtname": "Ratlam",
    "statename": "MADHYA PRADESH"
  },
  {
    "pincode": "457119",
    "officename": "Nipania Leela B.O",
    "officeType": "B.O",
    "Deliverystatus": "Delivery",
    "divisionname": "Ratlam",
    "regionname": "Indore",
    "circlename": "Madhya Pradesh",
    "Taluk": "Alote",
    "Districtname": "Ratlam",
    "statename": "MADHYA PRADESH"
  },
  {
    "pincode": "457119",
    "officename": "Thambguradiya B.O",
    "officeType": "B.O",
    "Deliverystatus": "Delivery",
    "divisionname": "Ratlam",
    "regionname": "Indore",
    "circlename": "Madhya Pradesh",
    "Taluk": "Alote",
    "Districtname": "Ratlam",
    "statename": "MADHYA PRADESH"
  }
]
