[
  {
    "pincode": "457336",
    "officename": "Asawati B.O",
    "officeType": "B.O",
    "Deliverystatus": "Delivery",
    "divisionname": "Ratlam",
    "regionname": "Indore",
    "circlename": "Madhya Pradesh",
    "Taluk": "Ratlam",
    "Districtname": "Ratlam",
    "statename": "MADHYA PRADESH"
  },
  {
    "pincode": "457336",
    "officename": "Banwada B.O",
    "officeType": "B.O",
    "Deliverystatus": "Delivery",
    "divisionname": "Ratlam",
    "regionname": "Indore",
    "circlename": "Madhya Pradesh",
    "Taluk": "Ratlam",
    "Districtname": "Ratlam",
    "statename": "MADHYA PRADESH"
  },
  {
    "pincode": "457336",
    "officename": "Gondishankar B.O",
    "officeType": "B.O",
    "Deliverystatus": "Delivery",
    "divisionname": "Ratlam",
    "regionname": "Indore",
    "circlename": "Madhya Pradesh",
    "Taluk": "Ratlam",
    "Districtname": "Ratlam",
    "statename": "MADHYA PRADESH"
  },
  {
    "pincode": "457336",
    "officename": "Kalalia B.O",
    "officeType": "B.O",
    "Deliverystatus": "Delivery",
    "divisionname": "Ratlam",
    "regionname": "Indore",
    "circlename": "Madhya Pradesh",
    "Taluk": "Piploda",
    "Districtname": "Ratlam",
    "statename": "MADHYA PRADESH"
  },
  {
    "pincode": "457336",
    "officename": "Mandvi B.O",
    "officeType": "B.O",
    "Deliverystatus": "Delivery",
    "divisionname": "Ratlam",
    "regionname": "Indore",
    "circlename": "Madhya Pradesh",
    "Taluk": "Ratlam",
    "Districtname": "Ratlam",
    "statename": "MADHYA PRADESH"
  },
  {
    "pincode": "457336",
    "officename": "Martandganj B.O",
    "officeType": "B.O",
    "Deliverystatus": "Delivery",
    "divisionname": "Ratlam",
    "regionname": "Indore",
    "circlename": "Madhya Pradesh",
    "Taluk": "Jaora",
    "Districtname": "Ratlam",
    "statename": "MADHYA PRADESH"
  },
  {
    "pincode": "457336",
    "officename": "Ringnod S.O",
    "officeType": "S.O",
    "Deliverystatus": "Delivery",
    "divisionname": "Ratlam",
    "regionname": "Indore",
    "circlename": "Madhya Pradesh",
    "Taluk": "Ratlam",
    "Districtname": "Ratlam",
    "statename": "MADHYA PRADESH"
  },
  {
    "pincode": "457336",
    "officename": "Rola B.O",
    "officeType": "B.O",
    "Deliverystatus": "Delivery",
    "divisionname": "Ratlam",
    "regionname": "Indore",
    "circlename": "Madhya Pradesh",
    "Taluk": "Jaora",
    "Districtname": "Ratlam",
    "statename": "MADHYA PRADESH"
  }
]
