[
  {
    "pincode": "457555",
    "officename": "Amarpurkala B.O",
    "officeType": "B.O",
    "Deliverystatus": "Delivery",
    "divisionname": "Ratlam",
    "regionname": "Indore",
    "circlename": "Madhya Pradesh",
    "Taluk": "Ratlam",
    "Districtname": "Ratlam",
    "statename": "MADHYA PRADESH"
  },
  {
    "pincode": "457555",
    "officename": "Bajna S.O (Ratlam)",
    "officeType": "S.O",
    "Deliverystatus": "Delivery",
    "divisionname": "Ratlam",
    "regionname": "Indore",
    "circlename": "Madhya Pradesh",
    "Taluk": "Bajna",
    "Districtname": "Ratlam",
    "statename": "MADHYA PRADESH"
  },
  {
    "pincode": "457555",
    "officename": "Bajranggarh B.O",
    "officeType": "B.O",
    "Deliverystatus": "Delivery",
    "divisionname": "Ratlam",
    "regionname": "Indore",
    "circlename": "Madhya Pradesh",
    "Taluk": "Ratlam",
    "Districtname": "Ratlam",
    "statename": "MADHYA PRADESH"
  },
  {
    "pincode": "457555",
    "officename": "Bhadankala B.O",
    "officeType": "B.O",
    "Deliverystatus": "Delivery",
    "divisionname": "Ratlam",
    "regionname": "Indore",
    "circlename": "Madhya Pradesh",
    "Taluk": "Ratlam",
    "Districtname": "Ratlam",
    "statename": "MADHYA PRADESH"
  },
  {
    "pincode": "457555",
    "officename": "Chandragarh B.O",
    "officeType": "B.O",
    "Deliverystatus": "Delivery",
    "divisionname": "Ratlam",
    "regionname": "Indore",
    "circlename": "Madhya Pradesh",
    "Taluk": "Ratlam",
    "Districtname": "Ratlam",
    "statename": "MADHYA PRADESH"
  },
  {
    "pincode": "457555",
    "officename": "Chhaoni Dodia B.O",
    "officeType": "B.O",
    "Deliverystatus": "Delivery",
    "divisionname": "Ratlam",
    "regionname": "Indore",
    "circlename": "Madhya Pradesh",
    "Taluk": "Ratlam",
    "Districtname": "Ratlam",
    "statename": "MADHYA PRADESH"
  },
  {
    "pincode": "457555",
    "officename": "Devli B.O",
    "officeType": "B.O",
    "Deliverystatus": "Delivery",
    "divisionname": "Ratlam",
    "regionname": "Indore",
    "circlename": "Madhya Pradesh",
    "Taluk": "Ratlam",
    "Districtname": "Ratlam",
    "statename": "MADHYA PRADESH"
  },
  {
    "pincode": "457555",
    "officename": "Gadhigamna B.O",
    "officeType": "B.O",
    "Deliverystatus": "Delivery",
    "divisionname": "Ratlam",
    "regionname": "Indore",
    "circlename": "Madhya Pradesh",
    "Taluk": "Ratlam",
    "Districtname": "Ratlam",
    "statename": "MADHYA PRADESH"
  },
  {
    "pincode": "457555",
    "officename": "Jambukhadan B.O",
    "officeType": "B.O",
    "Deliverystatus": "Delivery",
    "divisionname": "Ratlam",
    "regionname": "Indore",
    "circlename": "Madhya Pradesh",
    "Taluk": "Ratlam",
    "Districtname": "Ratlam",
    "statename": "MADHYA PRADESH"
  },
  {
    "pincode": "457555",
    "officename": "Kelkachh B.O",
    "officeType": "B.O",
    "Deliverystatus": "Delivery",
    "divisionname": "Ratlam",
    "regionname": "Indore",
    "circlename": "Madhya Pradesh",
    "Taluk": "Ratlam",
    "Districtname": "Ratlam",
    "statename": "MADHYA PRADESH"
  },
  {
    "pincode": "457555",
    "officename": "Kherda B.O",
    "officeType": "B.O",
    "Deliverystatus": "Delivery",
    "divisionname": "Ratlam",
    "regionname": "Indore",
    "circlename": "Madhya Pradesh",
    "Taluk": "Ratlam",
    "Districtname": "Ratlam",
    "statename": "MADHYA PRADESH"
  },
  {
    "pincode": "457555",
    "officename": "Kundanpur B.O",
    "officeType": "B.O",
    "Deliverystatus": "Delivery",
    "divisionname": "Ratlam",
    "regionname": "Indore",
    "circlename": "Madhya Pradesh",
    "Taluk": "Ratlam",
    "Districtname": "Ratlam",
    "statename": "MADHYA PRADESH"
  },
  {
    "pincode": "457555",
    "officename": "Thikria B.O",
    "officeType": "B.O",
    "Deliverystatus": "Delivery",
    "divisionname": "Ratlam",
    "regionname": "Indore",
    "circlename": "Madhya Pradesh",
    "Taluk": "Ratlam",
    "Districtname": "Ratlam",
    "statename": "MADHYA PRADESH"
  }
]
