[
  {
    "pincode": "457661",
    "officename": "Baodibadi B.O",
    "officeType": "B.O",
    "Deliverystatus": "Delivery",
    "divisionname": "Ratlam",
    "regionname": "Indore",
    "circlename": "Madhya Pradesh",
    "Taluk": "Jhabua",
    "Districtname": "Jhabua",
    "statename": "MADHYA PRADESH"
  },
  {
    "pincode": "457661",
    "officename": "Bhimfalia B.O",
    "officeType": "B.O",
    "Deliverystatus": "Delivery",
    "divisionname": "Ratlam",
    "regionname": "Indore",
    "circlename": "Madhya Pradesh",
    "Taluk": "Jhabua",
    "Districtname": "Jhabua",
    "statename": "MADHYA PRADESH"
  },
  {
    "pincode": "457661",
    "officename": "Devjhiri Panda B.O",
    "officeType": "B.O",
    "Deliverystatus": "Delivery",
    "divisionname": "Ratlam",
    "regionname": "Indore",
    "circlename": "Madhya Pradesh",
    "Taluk": "Jhabua",
    "Districtname": "Jhabua",
    "statename": "MADHYA PRADESH"
  },
  {
    "pincode": "457661",
    "officename": "Dhekal B.O",
    "officeType": "B.O",
    "Deliverystatus": "Delivery",
    "divisionname": "Ratlam",
    "regionname": "Indore",
    "circlename": "Madhya Pradesh",
    "Taluk": "Jhabua",
    "Districtname": "Jhabua",
    "statename": "MADHYA PRADESH"
  },
  {
    "pincode": "457661",
    "officename": "Jhabua Collectorate S.O",
    "officeType": "S.O",
    "Deliverystatus": "Non-Delivery",
    "divisionname": "Ratlam",
    "regionname": "Indore",
    "circlename": "Madhya Pradesh",
    "Taluk": "Jhabua",
    "Districtname": "Jhabua",
    "statename": "MADHYA PRADESH"
  },
  {
    "pincode": "457661",
    "officename": "Jhabua Gailtownship S.O",
    "officeType": "S.O",
    "Deliverystatus": "Non-Delivery",
    "divisionname": "Ratlam",
    "regionname": "Indore",
    "circlename": "Madhya Pradesh",
    "Taluk": "Jhabua",
    "Districtname": "Jhabua",
    "statename": "MADHYA PRADESH"
  },
  {
    "pincode": "457661",
    "officename": "Jhabua H.O",
    "officeType": "H.O",
    "Deliverystatus": "Delivery",
    "divisionname": "Ratlam",
    "regionname": "Indore",
    "circlename": "Madhya Pradesh",
    "Taluk": "Jhabua",
    "Districtname": "Jhabua",
    "statename": "MADHYA PRADESH"
  },
  {
    "pincode": "457661",
    "officename": "Kalmoda B.O",
    "officeType": "B.O",
    "Deliverystatus": "Delivery",
    "divisionname": "Ratlam",
    "regionname": "Indore",
    "circlename": "Madhya Pradesh",
    "Taluk": "Jhabua",
    "Districtname": "Jhabua",
    "statename": "MADHYA PRADESH"
  },
  {
    "pincode": "457661",
    "officename": "Kardawad Badi B.O",
    "officeType": "B.O",
    "Deliverystatus": "Delivery",
    "divisionname": "Ratlam",
    "regionname": "Indore",
    "circlename": "Madhya Pradesh",
    "Taluk": "Jhabua",
    "Districtname": "Jhabua",
    "statename": "MADHYA PRADESH"
  },
  {
    "pincode": "457661",
    "officename": "Khardubadi B.O",
    "officeType": "B.O",
    "Deliverystatus": "Delivery",
    "divisionname": "Ratlam",
    "regionname": "Indore",
    "circlename": "Madhya Pradesh",
    "Taluk": "Jhabua",
    "Districtname": "Jhabua",
    "statename": "MADHYA PRADESH"
  },
  {
    "pincode": "457661",
    "officename": "Khedi B.O",
    "officeType": "B.O",
    "Deliverystatus": "Delivery",
    "divisionname": "Ratlam",
    "regionname": "Indore",
    "circlename": "Madhya Pradesh",
    "Taluk": "Jhabua",
    "Districtname": "Jhabua",
    "statename": "MADHYA PRADESH"
  },
  {
    "pincode": "457661",
    "officename": "Kundanpur B.O",
    "officeType": "B.O",
    "Deliverystatus": "Delivery",
    "divisionname": "Ratlam",
    "regionname": "Indore",
    "circlename": "Madhya Pradesh",
    "Taluk": "Jhabua",
    "Districtname": "Jhabua",
    "statename": "MADHYA PRADESH"
  },
  {
    "pincode": "457661",
    "officename": "Machhlia B.O",
    "officeType": "B.O",
    "Deliverystatus": "Delivery",
    "divisionname": "Ratlam",
    "regionname": "Indore",
    "circlename": "Madhya Pradesh",
    "Taluk": "Jhabua",
    "Districtname": "Jhabua",
    "statename": "MADHYA PRADESH"
  },
  {
    "pincode": "457661",
    "officename": "Para B.O",
    "officeType": "B.O",
    "Deliverystatus": "Delivery",
    "divisionname": "Ratlam",
    "regionname": "Indore",
    "circlename": "Madhya Pradesh",
    "Taluk": "Jhabua",
    "Districtname": "Jhabua",
    "statename": "MADHYA PRADESH"
  },
  {
    "pincode": "457661",
    "officename": "Piplia B.O",
    "officeType": "B.O",
    "Deliverystatus": "Delivery",
    "divisionname": "Ratlam",
    "regionname": "Indore",
    "circlename": "Madhya Pradesh",
    "Taluk": "Jhabua",
    "Districtname": "Jhabua",
    "statename": "MADHYA PRADESH"
  },
  {
    "pincode": "457661",
    "officename": "Pithanpur B.O",
    "officeType": "B.O",
    "Deliverystatus": "Delivery",
    "divisionname": "Ratlam",
    "regionname": "Indore",
    "circlename": "Madhya Pradesh",
    "Taluk": "Jhabua",
    "Districtname": "Jhabua",
    "statename": "MADHYA PRADESH"
  },
  {
    "pincode": "457661",
    "officename": "Pitol B.O",
    "officeType": "B.O",
    "Deliverystatus": "Delivery",
    "divisionname": "Ratlam",
    "regionname": "Indore",
    "circlename": "Madhya Pradesh",
    "Taluk": "Jhabua",
    "Districtname": "Jhabua",
    "statename": "MADHYA PRADESH"
  },
  {
    "pincode": "457661",
    "officename": "Rajla B.O",
    "officeType": "B.O",
    "Deliverystatus": "Delivery",
    "divisionname": "Ratlam",
    "regionname": "Indore",
    "circlename": "Madhya Pradesh",
    "Taluk": "Jhabua",
    "Districtname": "Jhabua",
    "statename": "MADHYA PRADESH"
  },
  {
    "pincode": "457661",
    "officename": "Rama B.O",
    "officeType": "B.O",
    "Deliverystatus": "Delivery",
    "divisionname": "Ratlam",
    "regionname": "Indore",
    "circlename": "Madhya Pradesh",
    "Taluk": "Jhabua",
    "Districtname": "Jhabua",
    "statename": "MADHYA PRADESH"
  },
  {
    "pincode": "457661",
    "officename": "Rehanda B.O",
    "officeType": "B.O",
    "Deliverystatus": "Delivery",
    "divisionname": "Ratlam",
    "regionname": "Indore",
    "circlename": "Madhya Pradesh",
    "Taluk": "Jhabua",
    "Districtname": "Jhabua",
    "statename": "MADHYA PRADESH"
  },
  {
    "pincode": "457661",
    "officename": "Rotla B.O",
    "officeType": "B.O",
    "Deliverystatus": "Delivery",
    "divisionname": "Ratlam",
    "regionname": "Indore",
    "circlename": "Madhya Pradesh",
    "Taluk": "Jhabua",
    "Districtname": "Jhabua",
    "statename": "MADHYA PRADESH"
  }
]
