[
  {
    "pincode": "457773",
    "officename": "Anantkhedi B.O",
    "officeType": "B.O",
    "Deliverystatus": "Delivery",
    "divisionname": "Ratlam",
    "regionname": "Indore",
    "circlename": "Madhya Pradesh",
    "Taluk": "Jhabua",
    "Districtname": "Jhabua",
    "statename": "MADHYA PRADESH"
  },
  {
    "pincode": "457773",
    "officename": "Baodi B.O",
    "officeType": "B.O",
    "Deliverystatus": "Delivery",
    "divisionname": "Ratlam",
    "regionname": "Indore",
    "circlename": "Madhya Pradesh",
    "Taluk": "Jhabua",
    "Districtname": "Jhabua",
    "statename": "MADHYA PRADESH"
  },
  {
    "pincode": "457773",
    "officename": "Barwet B.O",
    "officeType": "B.O",
    "Deliverystatus": "Delivery",
    "divisionname": "Ratlam",
    "regionname": "Indore",
    "circlename": "Madhya Pradesh",
    "Taluk": "Jhabua",
    "Districtname": "Jhabua",
    "statename": "MADHYA PRADESH"
  },
  {
    "pincode": "457773",
    "officename": "Dehndi Chhoti B.O",
    "officeType": "B.O",
    "Deliverystatus": "Delivery",
    "divisionname": "Ratlam",
    "regionname": "Indore",
    "circlename": "Madhya Pradesh",
    "Taluk": "Petlawad",
    "Districtname": "Jhabua",
    "statename": "MADHYA PRADESH"
  },
  {
    "pincode": "457773",
    "officename": "Kardawad B.O",
    "officeType": "B.O",
    "Deliverystatus": "Delivery",
    "divisionname": "Ratlam",
    "regionname": "Indore",
    "circlename": "Madhya Pradesh",
    "Taluk": "Petlawad",
    "Districtname": "Jhabua",
    "statename": "MADHYA PRADESH"
  },
  {
    "pincode": "457773",
    "officename": "Kodli B.O",
    "officeType": "B.O",
    "Deliverystatus": "Delivery",
    "divisionname": "Ratlam",
    "regionname": "Indore",
    "circlename": "Madhya Pradesh",
    "Taluk": "Jhabua",
    "Districtname": "Jhabua",
    "statename": "MADHYA PRADESH"
  },
  {
    "pincode": "457773",
    "officename": "Petlawad S.O",
    "officeType": "S.O",
    "Deliverystatus": "Delivery",
    "divisionname": "Ratlam",
    "regionname": "Indore",
    "circlename": "Madhya Pradesh",
    "Taluk": "Petlawad",
    "Districtname": "Jhabua",
    "statename": "MADHYA PRADESH"
  },
  {
    "pincode": "457773",
    "officename": "Ramgarh B.O",
    "officeType": "B.O",
    "Deliverystatus": "Delivery",
    "divisionname": "Ratlam",
    "regionname": "Indore",
    "circlename": "Madhya Pradesh",
    "Taluk": "Petlawad",
    "Districtname": "Jhabua",
    "statename": "MADHYA PRADESH"
  },
  {
    "pincode": "457773",
    "officename": "Rupgarh B.O",
    "officeType": "B.O",
    "Deliverystatus": "Delivery",
    "divisionname": "Ratlam",
    "regionname": "Indore",
    "circlename": "Madhya Pradesh",
    "Taluk": "Jhabua",
    "Districtname": "Jhabua",
    "statename": "MADHYA PRADESH"
  },
  {
    "pincode": "457773",
    "officename": "Temria B.O",
    "officeType": "B.O",
    "Deliverystatus": "Delivery",
    "divisionname": "Ratlam",
    "regionname": "Indore",
    "circlename": "Madhya Pradesh",
    "Taluk": "Petlawad",
    "Districtname": "Jhabua",
    "statename": "MADHYA PRADESH"
  }
]
