[
  {
    "pincode": "457882",
    "officename": "Amankunwa B.O",
    "officeType": "B.O",
    "Deliverystatus": "Delivery",
    "divisionname": "Ratlam",
    "regionname": "Indore",
    "circlename": "Madhya Pradesh",
    "Taluk": "Jhabua",
    "Districtname": "Jhabua",
    "statename": "MADHYA PRADESH"
  },
  {
    "pincode": "457882",
    "officename": "Badakhuntaja B.O",
    "officeType": "B.O",
    "Deliverystatus": "Delivery",
    "divisionname": "Ratlam",
    "regionname": "Indore",
    "circlename": "Madhya Pradesh",
    "Taluk": "Jhabua",
    "Districtname": "Jhabua",
    "statename": "MADHYA PRADESH"
  },
  {
    "pincode": "457882",
    "officename": "Barzar B.O",
    "officeType": "B.O",
    "Deliverystatus": "Delivery",
    "divisionname": "Ratlam",
    "regionname": "Indore",
    "circlename": "Madhya Pradesh",
    "Taluk": "Bhavra",
    "Districtname": "Jhabua",
    "statename": "MADHYA PRADESH"
  },
  {
    "pincode": "457882",
    "officename": "Bhabhra S.O",
    "officeType": "S.O",
    "Deliverystatus": "Delivery",
    "divisionname": "Ratlam",
    "regionname": "Indore",
    "circlename": "Madhya Pradesh",
    "Taluk": "Jhabua",
    "Districtname": "Jhabua",
    "statename": "MADHYA PRADESH"
  },
  {
    "pincode": "457882",
    "officename": "Ghodamandan B.O",
    "officeType": "B.O",
    "Deliverystatus": "Delivery",
    "divisionname": "Ratlam",
    "regionname": "Indore",
    "circlename": "Madhya Pradesh",
    "Taluk": "Bhavra",
    "Districtname": "Jhabua",
    "statename": "MADHYA PRADESH"
  },
  {
    "pincode": "457882",
    "officename": "Jheeran B.O",
    "officeType": "B.O",
    "Deliverystatus": "Delivery",
    "divisionname": "Ratlam",
    "regionname": "Indore",
    "circlename": "Madhya Pradesh",
    "Taluk": "Bhavra",
    "Districtname": "Jhabua",
    "statename": "MADHYA PRADESH"
  },
  {
    "pincode": "457882",
    "officename": "Mathna B.O",
    "officeType": "B.O",
    "Deliverystatus": "Delivery",
    "divisionname": "Ratlam",
    "regionname": "Indore",
    "circlename": "Madhya Pradesh",
    "Taluk": "Jhabua",
    "Districtname": "Jhabua",
    "statename": "MADHYA PRADESH"
  },
  {
    "pincode": "457882",
    "officename": "Megha B.O",
    "officeType": "B.O",
    "Deliverystatus": "Delivery",
    "divisionname": "Ratlam",
    "regionname": "Indore",
    "circlename": "Madhya Pradesh",
    "Taluk": "Bhavra",
    "Districtname": "Jhabua",
    "statename": "MADHYA PRADESH"
  },
  {
    "pincode": "457882",
    "officename": "Ringol B.O",
    "officeType": "B.O",
    "Deliverystatus": "Delivery",
    "divisionname": "Ratlam",
    "regionname": "Indore",
    "circlename": "Madhya Pradesh",
    "Taluk": "Jhabua",
    "Districtname": "Jhabua",
    "statename": "MADHYA PRADESH"
  },
  {
    "pincode": "457882",
    "officename": "Sejawad B.O",
    "officeType": "B.O",
    "Deliverystatus": "Delivery",
    "divisionname": "Ratlam",
    "regionname": "Indore",
    "circlename": "Madhya Pradesh",
    "Taluk": "Jhabua",
    "Districtname": "Jhabua",
    "statename": "MADHYA PRADESH"
  }
]
