[
  {
    "pincode": "457887",
    "officename": "Ajanda B.O",
    "officeType": "B.O",
    "Deliverystatus": "Delivery",
    "divisionname": "Ratlam",
    "regionname": "Indore",
    "circlename": "Madhya Pradesh",
    "Taluk": "Jhabua",
    "Districtname": "Jhabua",
    "statename": "MADHYA PRADESH"
  },
  {
    "pincode": "457887",
    "officename": "Alirajpur Bazar S.O",
    "officeType": "S.O",
    "Deliverystatus": "Non-Delivery",
    "divisionname": "Ratlam",
    "regionname": "Indore",
    "circlename": "Madhya Pradesh",
    "Taluk": "Meghnagar",
    "Districtname": "Jhabua",
    "statename": "MADHYA PRADESH"
  },
  {
    "pincode": "457887",
    "officename": "Alirajpur S.O",
    "officeType": "S.O",
    "Deliverystatus": "Delivery",
    "divisionname": "Ratlam",
    "regionname": "Indore",
    "circlename": "Madhya Pradesh",
    "Taluk": "Alirajpur",
    "Districtname": "Alirajpur",
    "statename": "MADHYA PRADESH"
  },
  {
    "pincode": "457887",
    "officename": "Ambadaberi B.O",
    "officeType": "B.O",
    "Deliverystatus": "Delivery",
    "divisionname": "Ratlam",
    "regionname": "Indore",
    "circlename": "Madhya Pradesh",
    "Taluk": "Jhabua",
    "Districtname": "Jhabua",
    "statename": "MADHYA PRADESH"
  },
  {
    "pincode": "457887",
    "officename": "Ambari B.O",
    "officeType": "B.O",
    "Deliverystatus": "Delivery",
    "divisionname": "Ratlam",
    "regionname": "Indore",
    "circlename": "Madhya Pradesh",
    "Taluk": "Jhabua",
    "Districtname": "Jhabua",
    "statename": "MADHYA PRADESH"
  },
  {
    "pincode": "457887",
    "officename": "Amkhut B.O",
    "officeType": "B.O",
    "Deliverystatus": "Delivery",
    "divisionname": "Ratlam",
    "regionname": "Indore",
    "circlename": "Madhya Pradesh",
    "Taluk": "Jhabua",
    "Districtname": "Jhabua",
    "statename": "MADHYA PRADESH"
  },
  {
    "pincode": "457887",
    "officename": "Badaundwa B.O",
    "officeType": "B.O",
    "Deliverystatus": "Delivery",
    "divisionname": "Ratlam",
    "regionname": "Indore",
    "circlename": "Madhya Pradesh",
    "Taluk": "Alirajpur",
    "Districtname": "Jhabua",
    "statename": "MADHYA PRADESH"
  },
  {
    "pincode": "457887",
    "officename": "Badi B.O",
    "officeType": "B.O",
    "Deliverystatus": "Delivery",
    "divisionname": "Ratlam",
    "regionname": "Indore",
    "circlename": "Madhya Pradesh",
    "Taluk": "Alirajpur",
    "Districtname": "Jhabua",
    "statename": "MADHYA PRADESH"
  },
  {
    "pincode": "457887",
    "officename": "Badisardi B.O",
    "officeType": "B.O",
    "Deliverystatus": "Delivery",
    "divisionname": "Ratlam",
    "regionname": "Indore",
    "circlename": "Madhya Pradesh",
    "Taluk": "Jhabua",
    "Districtname": "Jhabua",
    "statename": "MADHYA PRADESH"
  },
  {
    "pincode": "457887",
    "officename": "Bardala B.O",
    "officeType": "B.O",
    "Deliverystatus": "Delivery",
    "divisionname": "Ratlam",
    "regionname": "Indore",
    "circlename": "Madhya Pradesh",
    "Taluk": "Jhabua",
    "Districtname": "Jhabua",
    "statename": "MADHYA PRADESH"
  },
  {
    "pincode": "457887",
    "officename": "Bokadia B.O",
    "officeType": "B.O",
    "Deliverystatus": "Delivery",
    "divisionname": "Ratlam",
    "regionname": "Indore",
    "circlename": "Madhya Pradesh",
    "Taluk": "Jhabua",
    "Districtname": "Jhabua",
    "statename": "MADHYA PRADESH"
  },
  {
    "pincode": "457887",
    "officename": "Borkua B.O",
    "officeType": "B.O",
    "Deliverystatus": "Delivery",
    "divisionname": "Ratlam",
    "regionname": "Indore",
    "circlename": "Madhya Pradesh",
    "Taluk": "Jhabua",
    "Districtname": "Jhabua",
    "statename": "MADHYA PRADESH"
  },
  {
    "pincode": "457887",
    "officename": "Chandpur B.O",
    "officeType": "B.O",
    "Deliverystatus": "Delivery",
    "divisionname": "Ratlam",
    "regionname": "Indore",
    "circlename": "Madhya Pradesh",
    "Taluk": "Jhabua",
    "Districtname": "Jhabua",
    "statename": "MADHYA PRADESH"
  },
  {
    "pincode": "457887",
    "officename": "Chhotamaota B.O",
    "officeType": "B.O",
    "Deliverystatus": "Delivery",
    "divisionname": "Ratlam",
    "regionname": "Indore",
    "circlename": "Madhya Pradesh",
    "Taluk": "Alirajpur",
    "Districtname": "Jhabua",
    "statename": "MADHYA PRADESH"
  },
  {
    "pincode": "457887",
    "officename": "Fata B.O",
    "officeType": "B.O",
    "Deliverystatus": "Delivery",
    "divisionname": "Ratlam",
    "regionname": "Indore",
    "circlename": "Madhya Pradesh",
    "Taluk": "Jhabua",
    "Districtname": "Jhabua",
    "statename": "MADHYA PRADESH"
  },
  {
    "pincode": "457887",
    "officename": "Haraswat B.O",
    "officeType": "B.O",
    "Deliverystatus": "Delivery",
    "divisionname": "Ratlam",
    "regionname": "Indore",
    "circlename": "Madhya Pradesh",
    "Taluk": "",
    "Districtname": "Jhabua",
    "statename": "MADHYA PRADESH"
  },
  {
    "pincode": "457887",
    "officename": "Laxmani B.O",
    "officeType": "B.O",
    "Deliverystatus": "Delivery",
    "divisionname": "Ratlam",
    "regionname": "Indore",
    "circlename": "Madhya Pradesh",
    "Taluk": "Jhabua",
    "Districtname": "Jhabua",
    "statename": "MADHYA PRADESH"
  },
  {
    "pincode": "457887",
    "officename": "Nanpur B.O",
    "officeType": "B.O",
    "Deliverystatus": "Delivery",
    "divisionname": "Ratlam",
    "regionname": "Indore",
    "circlename": "Madhya Pradesh",
    "Taluk": "Jhabua",
    "Districtname": "Jhabua",
    "statename": "MADHYA PRADESH"
  },
  {
    "pincode": "457887",
    "officename": "Sejgaon B.O",
    "officeType": "B.O",
    "Deliverystatus": "Delivery",
    "divisionname": "Ratlam",
    "regionname": "Indore",
    "circlename": "Madhya Pradesh",
    "Taluk": "Jhabua",
    "Districtname": "Jhabua",
    "statename": "MADHYA PRADESH"
  },
  {
    "pincode": "457887",
    "officename": "Sorwa B.O",
    "officeType": "B.O",
    "Deliverystatus": "Delivery",
    "divisionname": "Ratlam",
    "regionname": "Indore",
    "circlename": "Madhya Pradesh",
    "Taluk": "Jhabua",
    "Districtname": "Jhabua",
    "statename": "MADHYA PRADESH"
  },
  {
    "pincode": "457887",
    "officename": "Titi B.O",
    "officeType": "B.O",
    "Deliverystatus": "Delivery",
    "divisionname": "Ratlam",
    "regionname": "Indore",
    "circlename": "Madhya Pradesh",
    "Taluk": "Jhabua",
    "Districtname": "Jhabua",
    "statename": "MADHYA PRADESH"
  },
  {
    "pincode": "457887",
    "officename": "Walwai B.O",
    "officeType": "B.O",
    "Deliverystatus": "Delivery",
    "divisionname": "Ratlam",
    "regionname": "Indore",
    "circlename": "Madhya Pradesh",
    "Taluk": "Jhabua",
    "Districtname": "Jhabua",
    "statename": "MADHYA PRADESH"
  }
]
