[
  {
    "pincode": "457990",
    "officename": "Badaguda B.O",
    "officeType": "B.O",
    "Deliverystatus": "Delivery",
    "divisionname": "Ratlam",
    "regionname": "Indore",
    "circlename": "Madhya Pradesh",
    "Taluk": "Jhabua",
    "Districtname": "Jhabua",
    "statename": "MADHYA PRADESH"
  },
  {
    "pincode": "457990",
    "officename": "Bhilkhedi B.O",
    "officeType": "B.O",
    "Deliverystatus": "Delivery",
    "divisionname": "Ratlam",
    "regionname": "Indore",
    "circlename": "Madhya Pradesh",
    "Taluk": "Jhabua",
    "Districtname": "Jhabua",
    "statename": "MADHYA PRADESH"
  },
  {
    "pincode": "457990",
    "officename": "Bori B.O",
    "officeType": "B.O",
    "Deliverystatus": "Delivery",
    "divisionname": "Ratlam",
    "regionname": "Indore",
    "circlename": "Madhya Pradesh",
    "Taluk": "Jhabua",
    "Districtname": "Jhabua",
    "statename": "MADHYA PRADESH"
  },
  {
    "pincode": "457990",
    "officename": "Borjhad B.O",
    "officeType": "B.O",
    "Deliverystatus": "Delivery",
    "divisionname": "Ratlam",
    "regionname": "Indore",
    "circlename": "Madhya Pradesh",
    "Taluk": "Jhabua",
    "Districtname": "Jhabua",
    "statename": "MADHYA PRADESH"
  },
  {
    "pincode": "457990",
    "officename": "Chhotaitara B.O",
    "officeType": "B.O",
    "Deliverystatus": "Delivery",
    "divisionname": "Ratlam",
    "regionname": "Indore",
    "circlename": "Madhya Pradesh",
    "Taluk": "Jhabua",
    "Districtname": "Jhabua",
    "statename": "MADHYA PRADESH"
  },
  {
    "pincode": "457990",
    "officename": "Dabdi B.O",
    "officeType": "B.O",
    "Deliverystatus": "Delivery",
    "divisionname": "Ratlam",
    "regionname": "Indore",
    "circlename": "Madhya Pradesh",
    "Taluk": "Jhabua",
    "Districtname": "Jhabua",
    "statename": "MADHYA PRADESH"
  },
  {
    "pincode": "457990",
    "officename": "Jobat S.O",
    "officeType": "S.O",
    "Deliverystatus": "Delivery",
    "divisionname": "Ratlam",
    "regionname": "Indore",
    "circlename": "Madhya Pradesh",
    "Taluk": "Jhabua",
    "Districtname": "Jhabua",
    "statename": "MADHYA PRADESH"
  },
  {
    "pincode": "457990",
    "officename": "Kanwada B.O",
    "officeType": "B.O",
    "Deliverystatus": "Delivery",
    "divisionname": "Ratlam",
    "regionname": "Indore",
    "circlename": "Madhya Pradesh",
    "Taluk": "Jhabua",
    "Districtname": "Jhabua",
    "statename": "MADHYA PRADESH"
  },
  {
    "pincode": "457990",
    "officename": "Khandala B.O",
    "officeType": "B.O",
    "Deliverystatus": "Delivery",
    "divisionname": "Ratlam",
    "regionname": "Indore",
    "circlename": "Madhya Pradesh",
    "Taluk": "Alirajpur",
    "Districtname": "Jhabua",
    "statename": "MADHYA PRADESH"
  },
  {
    "pincode": "457990",
    "officename": "Khattali B.O",
    "officeType": "B.O",
    "Deliverystatus": "Delivery",
    "divisionname": "Ratlam",
    "regionname": "Indore",
    "circlename": "Madhya Pradesh",
    "Taluk": "Jhabua",
    "Districtname": "Jhabua",
    "statename": "MADHYA PRADESH"
  },
  {
    "pincode": "457990",
    "officename": "Kolyabardi B.O",
    "officeType": "B.O",
    "Deliverystatus": "Delivery",
    "divisionname": "Ratlam",
    "regionname": "Indore",
    "circlename": "Madhya Pradesh",
    "Taluk": "Jhabua",
    "Districtname": "Jhabua",
    "statename": "MADHYA PRADESH"
  },
  {
    "pincode": "457990",
    "officename": "Kundalwasa B.O",
    "officeType": "B.O",
    "Deliverystatus": "Delivery",
    "divisionname": "Ratlam",
    "regionname": "Indore",
    "circlename": "Madhya Pradesh",
    "Taluk": "Jhabua",
    "Districtname": "Jhabua",
    "statename": "MADHYA PRADESH"
  },
  {
    "pincode": "457990",
    "officename": "Thandla B.O",
    "officeType": "B.O",
    "Deliverystatus": "Delivery",
    "divisionname": "Ratlam",
    "regionname": "Indore",
    "circlename": "Madhya Pradesh",
    "Taluk": "Jhabua",
    "Districtname": "Jhabua",
    "statename": "MADHYA PRADESH"
  },
  {
    "pincode": "457990",
    "officename": "Ublet B.O",
    "officeType": "B.O",
    "Deliverystatus": "Delivery",
    "divisionname": "Ratlam",
    "regionname": "Indore",
    "circlename": "Madhya Pradesh",
    "Taluk": "Jhabua",
    "Districtname": "Jhabua",
    "statename": "MADHYA PRADESH"
  },
  {
    "pincode": "457990",
    "officename": "Udaygarh Kanas B.O",
    "officeType": "B.O",
    "Deliverystatus": "Delivery",
    "divisionname": "Ratlam",
    "regionname": "Indore",
    "circlename": "Madhya Pradesh",
    "Taluk": "Jhabua",
    "Districtname": "Jhabua",
    "statename": "MADHYA PRADESH"
  },
  {
    "pincode": "457990",
    "officename": "Umda B.O",
    "officeType": "B.O",
    "Deliverystatus": "Delivery",
    "divisionname": "Ratlam",
    "regionname": "Indore",
    "circlename": "Madhya Pradesh",
    "Taluk": "Jhabua",
    "Districtname": "Jhabua",
    "statename": "MADHYA PRADESH"
  },
  {
    "pincode": "457990",
    "officename": "Undari B.O",
    "officeType": "B.O",
    "Deliverystatus": "Delivery",
    "divisionname": "Ratlam",
    "regionname": "Indore",
    "circlename": "Madhya Pradesh",
    "Taluk": "Jhabua",
    "Districtname": "Jhabua",
    "statename": "MADHYA PRADESH"
  }
]
