[
  {
    "pincode": "458002",
    "officename": "Amlawad B.O",
    "officeType": "B.O",
    "Deliverystatus": "Delivery",
    "divisionname": "Mandsaur",
    "regionname": "Indore",
    "circlename": "Madhya Pradesh",
    "Taluk": "Mandsaur",
    "Districtname": "Mandsaur",
    "statename": "MADHYA PRADESH"
  },
  {
    "pincode": "458002",
    "officename": "Bhalot B.O",
    "officeType": "B.O",
    "Deliverystatus": "Delivery",
    "divisionname": "Mandsaur",
    "regionname": "Indore",
    "circlename": "Madhya Pradesh",
    "Taluk": "Mandsaur",
    "Districtname": "Mandsaur",
    "statename": "MADHYA PRADESH"
  },
  {
    "pincode": "458002",
    "officename": "Bhardawad B.O",
    "officeType": "B.O",
    "Deliverystatus": "Delivery",
    "divisionname": "Mandsaur",
    "regionname": "Indore",
    "circlename": "Madhya Pradesh",
    "Taluk": "Mandsaur",
    "Districtname": "Mandsaur",
    "statename": "MADHYA PRADESH"
  },
  {
    "pincode": "458002",
    "officename": "Dhariya Khedi B.O",
    "officeType": "B.O",
    "Deliverystatus": "Delivery",
    "divisionname": "Mandsaur",
    "regionname": "Indore",
    "circlename": "Madhya Pradesh",
    "Taluk": "Mandsaur",
    "Districtname": "Mandsaur",
    "statename": "MADHYA PRADESH"
  },
  {
    "pincode": "458002",
    "officename": "Dhikola B.O",
    "officeType": "B.O",
    "Deliverystatus": "Delivery",
    "divisionname": "Mandsaur",
    "regionname": "Indore",
    "circlename": "Madhya Pradesh",
    "Taluk": "Mandsaur",
    "Districtname": "Mandsaur",
    "statename": "MADHYA PRADESH"
  },
  {
    "pincode": "458002",
    "officename": "Gogarpura B.O",
    "officeType": "B.O",
    "Deliverystatus": "Delivery",
    "divisionname": "Mandsaur",
    "regionname": "Indore",
    "circlename": "Madhya Pradesh",
    "Taluk": "Mandsaur",
    "Districtname": "Mandsaur",
    "statename": "MADHYA PRADESH"
  },
  {
    "pincode": "458002",
    "officename": "Gujarda B.O",
    "officeType": "B.O",
    "Deliverystatus": "Delivery",
    "divisionname": "Mandsaur",
    "regionname": "Indore",
    "circlename": "Madhya Pradesh",
    "Taluk": "Mandsaur",
    "Districtname": "Mandsaur",
    "statename": "MADHYA PRADESH"
  },
  {
    "pincode": "458002",
    "officename": "Guradia Deda B.O",
    "officeType": "B.O",
    "Deliverystatus": "Delivery",
    "divisionname": "Mandsaur",
    "regionname": "Indore",
    "circlename": "Madhya Pradesh",
    "Taluk": "Mandsaur",
    "Districtname": "Mandsaur",
    "statename": "MADHYA PRADESH"
  },
  {
    "pincode": "458002",
    "officename": "Guradia Lalmuha B.O",
    "officeType": "B.O",
    "Deliverystatus": "Delivery",
    "divisionname": "Mandsaur",
    "regionname": "Indore",
    "circlename": "Madhya Pradesh",
    "Taluk": "Mandsaur",
    "Districtname": "Mandsaur",
    "statename": "MADHYA PRADESH"
  },
  {
    "pincode": "458002",
    "officename": "Jawasia B.O",
    "officeType": "B.O",
    "Deliverystatus": "Delivery",
    "divisionname": "Mandsaur",
    "regionname": "Indore",
    "circlename": "Madhya Pradesh",
    "Taluk": "Mandsaur",
    "Districtname": "Mandsaur",
    "statename": "MADHYA PRADESH"
  },
  {
    "pincode": "458002",
    "officename": "Khilchipura B.O",
    "officeType": "B.O",
    "Deliverystatus": "Delivery",
    "divisionname": "Mandsaur",
    "regionname": "Indore",
    "circlename": "Madhya Pradesh",
    "Taluk": "Mandsaur",
    "Districtname": "Mandsaur",
    "statename": "MADHYA PRADESH"
  },
  {
    "pincode": "458002",
    "officename": "Mandsaur City S.O",
    "officeType": "S.O",
    "Deliverystatus": "Delivery",
    "divisionname": "Mandsaur",
    "regionname": "Indore",
    "circlename": "Madhya Pradesh",
    "Taluk": "Mandsaur",
    "Districtname": "Mandsaur",
    "statename": "MADHYA PRADESH"
  },
  {
    "pincode": "458002",
    "officename": "Mandsaur Fort S.O",
    "officeType": "S.O",
    "Deliverystatus": "Non-Delivery",
    "divisionname": "Mandsaur",
    "regionname": "Indore",
    "circlename": "Madhya Pradesh",
    "Taluk": "Mandsaur",
    "Districtname": "Mandsaur",
    "statename": "MADHYA PRADESH"
  },
  {
    "pincode": "458002",
    "officename": "Mandsaur Jankupura B.O",
    "officeType": "B.O",
    "Deliverystatus": "Non-Delivery",
    "divisionname": "Mandsaur",
    "regionname": "Indore",
    "circlename": "Madhya Pradesh",
    "Taluk": "Mandsaur",
    "Districtname": "Mandsaur",
    "statename": "MADHYA PRADESH"
  },
  {
    "pincode": "458002",
    "officename": "Multanpura B.O",
    "officeType": "B.O",
    "Deliverystatus": "Delivery",
    "divisionname": "Mandsaur",
    "regionname": "Indore",
    "circlename": "Madhya Pradesh",
    "Taluk": "Mandsaur",
    "Districtname": "Mandsaur",
    "statename": "MADHYA PRADESH"
  },
  {
    "pincode": "458002",
    "officename": "Rewas Devra B.O",
    "officeType": "B.O",
    "Deliverystatus": "Delivery",
    "divisionname": "Mandsaur",
    "regionname": "Indore",
    "circlename": "Madhya Pradesh",
    "Taluk": "Mandsaur",
    "Districtname": "Mandsaur",
    "statename": "MADHYA PRADESH"
  },
  {
    "pincode": "458002",
    "officename": "Sabakheda B.O",
    "officeType": "B.O",
    "Deliverystatus": "Delivery",
    "divisionname": "Mandsaur",
    "regionname": "Indore",
    "circlename": "Madhya Pradesh",
    "Taluk": "Mandsaur",
    "Districtname": "Mandsaur",
    "statename": "MADHYA PRADESH"
  },
  {
    "pincode": "458002",
    "officename": "Sarafa Mandsaur S.O",
    "officeType": "S.O",
    "Deliverystatus": "Non-Delivery",
    "divisionname": "Mandsaur",
    "regionname": "Indore",
    "circlename": "Madhya Pradesh",
    "Taluk": "Mandsaur",
    "Districtname": "Mandsaur",
    "statename": "MADHYA PRADESH"
  }
]
