[
  {
    "pincode": "458110",
    "officename": "Alheda Jagir B.O",
    "officeType": "B.O",
    "Deliverystatus": "Delivery",
    "divisionname": "Mandsaur",
    "regionname": "Indore",
    "circlename": "Madhya Pradesh",
    "Taluk": "Manasa",
    "Districtname": "Neemuch",
    "statename": "MADHYA PRADESH"
  },
  {
    "pincode": "458110",
    "officename": "Bardia B.O",
    "officeType": "B.O",
    "Deliverystatus": "Delivery",
    "divisionname": "Mandsaur",
    "regionname": "Indore",
    "circlename": "Madhya Pradesh",
    "Taluk": "Manasa",
    "Districtname": "Neemuch",
    "statename": "MADHYA PRADESH"
  },
  {
    "pincode": "458110",
    "officename": "Bhatkhedi B.O",
    "officeType": "B.O",
    "Deliverystatus": "Delivery",
    "divisionname": "Mandsaur",
    "regionname": "Indore",
    "circlename": "Madhya Pradesh",
    "Taluk": "Manasa",
    "Districtname": "Neemuch",
    "statename": "MADHYA PRADESH"
  },
  {
    "pincode": "458110",
    "officename": "Chokadi B.O",
    "officeType": "B.O",
    "Deliverystatus": "Delivery",
    "divisionname": "Mandsaur",
    "regionname": "Indore",
    "circlename": "Madhya Pradesh",
    "Taluk": "Manasa",
    "Districtname": "Neemuch",
    "statename": "MADHYA PRADESH"
  },
  {
    "pincode": "458110",
    "officename": "Chukani B.O",
    "officeType": "B.O",
    "Deliverystatus": "Delivery",
    "divisionname": "Mandsaur",
    "regionname": "Indore",
    "circlename": "Madhya Pradesh",
    "Taluk": "Manasa",
    "Districtname": "Neemuch",
    "statename": "MADHYA PRADESH"
  },
  {
    "pincode": "458110",
    "officename": "Hadi Piplia B.O",
    "officeType": "B.O",
    "Deliverystatus": "Delivery",
    "divisionname": "Mandsaur",
    "regionname": "Indore",
    "circlename": "Madhya Pradesh",
    "Taluk": "Manasa",
    "Districtname": "Neemuch",
    "statename": "MADHYA PRADESH"
  },
  {
    "pincode": "458110",
    "officename": "Hanspur B.O",
    "officeType": "B.O",
    "Deliverystatus": "Delivery",
    "divisionname": "Mandsaur",
    "regionname": "Indore",
    "circlename": "Madhya Pradesh",
    "Taluk": "Manasa",
    "Districtname": "Neemuch",
    "statename": "MADHYA PRADESH"
  },
  {
    "pincode": "458110",
    "officename": "Jaliner B.O",
    "officeType": "B.O",
    "Deliverystatus": "Delivery",
    "divisionname": "Mandsaur",
    "regionname": "Indore",
    "circlename": "Madhya Pradesh",
    "Taluk": "Manasa",
    "Districtname": "Neemuch",
    "statename": "MADHYA PRADESH"
  },
  {
    "pincode": "458110",
    "officename": "Jamunia B.O",
    "officeType": "B.O",
    "Deliverystatus": "Delivery",
    "divisionname": "Mandsaur",
    "regionname": "Indore",
    "circlename": "Madhya Pradesh",
    "Taluk": "Manasa",
    "Districtname": "Neemuch",
    "statename": "MADHYA PRADESH"
  },
  {
    "pincode": "458110",
    "officename": "Kanjarda B.O",
    "officeType": "B.O",
    "Deliverystatus": "Delivery",
    "divisionname": "Mandsaur",
    "regionname": "Indore",
    "circlename": "Madhya Pradesh",
    "Taluk": "Manasa",
    "Districtname": "Neemuch",
    "statename": "MADHYA PRADESH"
  },
  {
    "pincode": "458110",
    "officename": "Khadali B.O",
    "officeType": "B.O",
    "Deliverystatus": "Delivery",
    "divisionname": "Mandsaur",
    "regionname": "Indore",
    "circlename": "Madhya Pradesh",
    "Taluk": "Manasa",
    "Districtname": "Neemuch",
    "statename": "MADHYA PRADESH"
  },
  {
    "pincode": "458110",
    "officename": "Manasa S.O",
    "officeType": "S.O",
    "Deliverystatus": "Delivery",
    "divisionname": "Mandsaur",
    "regionname": "Indore",
    "circlename": "Madhya Pradesh",
    "Taluk": "Manasa",
    "Districtname": "Neemuch",
    "statename": "MADHYA PRADESH"
  },
  {
    "pincode": "458110",
    "officename": "Naya Malaheda B.O",
    "officeType": "B.O",
    "Deliverystatus": "Delivery",
    "divisionname": "Mandsaur",
    "regionname": "Indore",
    "circlename": "Madhya Pradesh",
    "Taluk": "Manasa",
    "Districtname": "Neemuch",
    "statename": "MADHYA PRADESH"
  },
  {
    "pincode": "458110",
    "officename": "Parda B.O",
    "officeType": "B.O",
    "Deliverystatus": "Delivery",
    "divisionname": "Mandsaur",
    "regionname": "Indore",
    "circlename": "Madhya Pradesh",
    "Taluk": "Manasa",
    "Districtname": "Neemuch",
    "statename": "MADHYA PRADESH"
  },
  {
    "pincode": "458110",
    "officename": "Piplia Raoji B.O",
    "officeType": "B.O",
    "Deliverystatus": "Delivery",
    "divisionname": "Mandsaur",
    "regionname": "Indore",
    "circlename": "Madhya Pradesh",
    "Taluk": "Manasa",
    "Districtname": "Neemuch",
    "statename": "MADHYA PRADESH"
  }
]
