[
  {
    "pincode": "458118",
    "officename": "Baisala B.O",
    "officeType": "B.O",
    "Deliverystatus": "Delivery",
    "divisionname": "Mandsaur",
    "regionname": "Indore",
    "circlename": "Madhya Pradesh",
    "Taluk": "Manasa",
    "Districtname": "Neemuch",
    "statename": "MADHYA PRADESH"
  },
  {
    "pincode": "458118",
    "officename": "Bhadana B.O",
    "officeType": "B.O",
    "Deliverystatus": "Delivery",
    "divisionname": "Mandsaur",
    "regionname": "Indore",
    "circlename": "Madhya Pradesh",
    "Taluk": "Manasa",
    "Districtname": "Neemuch",
    "statename": "MADHYA PRADESH"
  },
  {
    "pincode": "458118",
    "officename": "Bhamesar B.O",
    "officeType": "B.O",
    "Deliverystatus": "Delivery",
    "divisionname": "Mandsaur",
    "regionname": "Indore",
    "circlename": "Madhya Pradesh",
    "Taluk": "Manasa",
    "Districtname": "Neemuch",
    "statename": "MADHYA PRADESH"
  },
  {
    "pincode": "458118",
    "officename": "Booj B.O",
    "officeType": "B.O",
    "Deliverystatus": "Delivery",
    "divisionname": "Mandsaur",
    "regionname": "Indore",
    "circlename": "Madhya Pradesh",
    "Taluk": "Manasa",
    "Districtname": "Neemuch",
    "statename": "MADHYA PRADESH"
  },
  {
    "pincode": "458118",
    "officename": "Chandrapura B.O",
    "officeType": "B.O",
    "Deliverystatus": "Delivery",
    "divisionname": "Mandsaur",
    "regionname": "Indore",
    "circlename": "Madhya Pradesh",
    "Taluk": "Manasa",
    "Districtname": "Neemuch",
    "statename": "MADHYA PRADESH"
  },
  {
    "pincode": "458118",
    "officename": "Devran B.O",
    "officeType": "B.O",
    "Deliverystatus": "Delivery",
    "divisionname": "Mandsaur",
    "regionname": "Indore",
    "circlename": "Madhya Pradesh",
    "Taluk": "Manasa",
    "Districtname": "Neemuch",
    "statename": "MADHYA PRADESH"
  },
  {
    "pincode": "458118",
    "officename": "Dudhlai B.O",
    "officeType": "B.O",
    "Deliverystatus": "Delivery",
    "divisionname": "Mandsaur",
    "regionname": "Indore",
    "circlename": "Madhya Pradesh",
    "Taluk": "Manasa",
    "Districtname": "Neemuch",
    "statename": "MADHYA PRADESH"
  },
  {
    "pincode": "458118",
    "officename": "Jannod B.O",
    "officeType": "B.O",
    "Deliverystatus": "Delivery",
    "divisionname": "Mandsaur",
    "regionname": "Indore",
    "circlename": "Madhya Pradesh",
    "Taluk": "Manasa",
    "Districtname": "Neemuch",
    "statename": "MADHYA PRADESH"
  },
  {
    "pincode": "458118",
    "officename": "Lasudia B.O",
    "officeType": "B.O",
    "Deliverystatus": "Delivery",
    "divisionname": "Mandsaur",
    "regionname": "Indore",
    "circlename": "Madhya Pradesh",
    "Taluk": "Manasa",
    "Districtname": "Neemuch",
    "statename": "MADHYA PRADESH"
  },
  {
    "pincode": "458118",
    "officename": "Majiria B.O",
    "officeType": "B.O",
    "Deliverystatus": "Delivery",
    "divisionname": "Mandsaur",
    "regionname": "Indore",
    "circlename": "Madhya Pradesh",
    "Taluk": "Manasa",
    "Districtname": "Neemuch",
    "statename": "MADHYA PRADESH"
  },
  {
    "pincode": "458118",
    "officename": "Rampura S.O (Neemuch)",
    "officeType": "S.O",
    "Deliverystatus": "Delivery",
    "divisionname": "Mandsaur",
    "regionname": "Indore",
    "circlename": "Madhya Pradesh",
    "Taluk": "Manasa",
    "Districtname": "Neemuch",
    "statename": "MADHYA PRADESH"
  }
]
