[
  {
    "pincode": "458226",
    "officename": "Athva B.O",
    "officeType": "B.O",
    "Deliverystatus": "Delivery",
    "divisionname": "Mandsaur",
    "regionname": "Indore",
    "circlename": "Madhya Pradesh",
    "Taluk": "Jawad",
    "Districtname": "Neemuch",
    "statename": "MADHYA PRADESH"
  },
  {
    "pincode": "458226",
    "officename": "Deeken B.O",
    "officeType": "B.O",
    "Deliverystatus": "Delivery",
    "divisionname": "Mandsaur",
    "regionname": "Indore",
    "circlename": "Madhya Pradesh",
    "Taluk": "Jawad",
    "Districtname": "Neemuch",
    "statename": "MADHYA PRADESH"
  },
  {
    "pincode": "458226",
    "officename": "Dorai B.O",
    "officeType": "B.O",
    "Deliverystatus": "Delivery",
    "divisionname": "Mandsaur",
    "regionname": "Indore",
    "circlename": "Madhya Pradesh",
    "Taluk": "Jawad",
    "Districtname": "Neemuch",
    "statename": "MADHYA PRADESH"
  },
  {
    "pincode": "458226",
    "officename": "Garwada Alori B.O",
    "officeType": "B.O",
    "Deliverystatus": "Delivery",
    "divisionname": "Mandsaur",
    "regionname": "Indore",
    "circlename": "Madhya Pradesh",
    "Taluk": "Jawad",
    "Districtname": "Neemuch",
    "statename": "MADHYA PRADESH"
  },
  {
    "pincode": "458226",
    "officename": "Jat B.O",
    "officeType": "B.O",
    "Deliverystatus": "Delivery",
    "divisionname": "Mandsaur",
    "regionname": "Indore",
    "circlename": "Madhya Pradesh",
    "Taluk": "Jawad",
    "Districtname": "Neemuch",
    "statename": "MADHYA PRADESH"
  },
  {
    "pincode": "458226",
    "officename": "Kankria Talai B.O",
    "officeType": "B.O",
    "Deliverystatus": "Delivery",
    "divisionname": "Mandsaur",
    "regionname": "Indore",
    "circlename": "Madhya Pradesh",
    "Taluk": "Jawad",
    "Districtname": "Neemuch",
    "statename": "MADHYA PRADESH"
  },
  {
    "pincode": "458226",
    "officename": "Loharia B.O",
    "officeType": "B.O",
    "Deliverystatus": "Delivery",
    "divisionname": "Mandsaur",
    "regionname": "Indore",
    "circlename": "Madhya Pradesh",
    "Taluk": "Jawad",
    "Districtname": "Neemuch",
    "statename": "MADHYA PRADESH"
  },
  {
    "pincode": "458226",
    "officename": "Ratangarh S.O",
    "officeType": "S.O",
    "Deliverystatus": "Delivery",
    "divisionname": "Mandsaur",
    "regionname": "Indore",
    "circlename": "Madhya Pradesh",
    "Taluk": "Jawad",
    "Districtname": "Neemuch",
    "statename": "MADHYA PRADESH"
  },
  {
    "pincode": "458226",
    "officename": "Umar B.O",
    "officeType": "B.O",
    "Deliverystatus": "Delivery",
    "divisionname": "Mandsaur",
    "regionname": "Indore",
    "circlename": "Madhya Pradesh",
    "Taluk": "Jawad",
    "Districtname": "Neemuch",
    "statename": "MADHYA PRADESH"
  }
]
