[
  {
    "pincode": "458441",
    "officename": "Amawali Jagir B.O",
    "officeType": "B.O",
    "Deliverystatus": "Delivery",
    "divisionname": "Mandsaur",
    "regionname": "Indore",
    "circlename": "Madhya Pradesh",
    "Taluk": "Neemuch",
    "Districtname": "Neemuch",
    "statename": "MADHYA PRADESH"
  },
  {
    "pincode": "458441",
    "officename": "Baghana Neemuch S.O",
    "officeType": "S.O",
    "Deliverystatus": "Non-Delivery",
    "divisionname": "Mandsaur",
    "regionname": "Indore",
    "circlename": "Madhya Pradesh",
    "Taluk": "Neemuch",
    "Districtname": "Neemuch",
    "statename": "MADHYA PRADESH"
  },
  {
    "pincode": "458441",
    "officename": "Bhadwamata B.O",
    "officeType": "B.O",
    "Deliverystatus": "Delivery",
    "divisionname": "Mandsaur",
    "regionname": "Indore",
    "circlename": "Madhya Pradesh",
    "Taluk": "Neemuch",
    "Districtname": "Neemuch",
    "statename": "MADHYA PRADESH"
  },
  {
    "pincode": "458441",
    "officename": "Bharbhadia B.O",
    "officeType": "B.O",
    "Deliverystatus": "Delivery",
    "divisionname": "Mandsaur",
    "regionname": "Indore",
    "circlename": "Madhya Pradesh",
    "Taluk": "Neemuch",
    "Districtname": "Neemuch",
    "statename": "MADHYA PRADESH"
  },
  {
    "pincode": "458441",
    "officename": "Bhatkheda B.O",
    "officeType": "B.O",
    "Deliverystatus": "Delivery",
    "divisionname": "Mandsaur",
    "regionname": "Indore",
    "circlename": "Madhya Pradesh",
    "Taluk": "Neemuch",
    "Districtname": "Neemuch",
    "statename": "MADHYA PRADESH"
  },
  {
    "pincode": "458441",
    "officename": "Bisalwasa Kalan B.O",
    "officeType": "B.O",
    "Deliverystatus": "Delivery",
    "divisionname": "Mandsaur",
    "regionname": "Indore",
    "circlename": "Madhya Pradesh",
    "Taluk": "Neemuch",
    "Districtname": "Neemuch",
    "statename": "MADHYA PRADESH"
  },
  {
    "pincode": "458441",
    "officename": "Borkhedi Panedi B.O",
    "officeType": "B.O",
    "Deliverystatus": "Delivery",
    "divisionname": "Mandsaur",
    "regionname": "Indore",
    "circlename": "Madhya Pradesh",
    "Taluk": "Neemuch",
    "Districtname": "Neemuch",
    "statename": "MADHYA PRADESH"
  },
  {
    "pincode": "458441",
    "officename": "Chayan B.O",
    "officeType": "B.O",
    "Deliverystatus": "Delivery",
    "divisionname": "Mandsaur",
    "regionname": "Indore",
    "circlename": "Madhya Pradesh",
    "Taluk": "Neemuch",
    "Districtname": "Neemuch",
    "statename": "MADHYA PRADESH"
  },
  {
    "pincode": "458441",
    "officename": "Chitakheda B.O",
    "officeType": "B.O",
    "Deliverystatus": "Delivery",
    "divisionname": "Mandsaur",
    "regionname": "Indore",
    "circlename": "Madhya Pradesh",
    "Taluk": "Neemuch",
    "Districtname": "Neemuch",
    "statename": "MADHYA PRADESH"
  },
  {
    "pincode": "458441",
    "officename": "Daroo B.O",
    "officeType": "B.O",
    "Deliverystatus": "Delivery",
    "divisionname": "Mandsaur",
    "regionname": "Indore",
    "circlename": "Madhya Pradesh",
    "Taluk": "Neemuch",
    "Districtname": "Neemuch",
    "statename": "MADHYA PRADESH"
  },
  {
    "pincode": "458441",
    "officename": "Jamunia Kalan B.O",
    "officeType": "B.O",
    "Deliverystatus": "Delivery",
    "divisionname": "Mandsaur",
    "regionname": "Indore",
    "circlename": "Madhya Pradesh",
    "Taluk": "Neemuch",
    "Districtname": "Neemuch",
    "statename": "MADHYA PRADESH"
  },
  {
    "pincode": "458441",
    "officename": "Javi B.O",
    "officeType": "B.O",
    "Deliverystatus": "Delivery",
    "divisionname": "Mandsaur",
    "regionname": "Indore",
    "circlename": "Madhya Pradesh",
    "Taluk": "Neemuch",
    "Districtname": "Neemuch",
    "statename": "MADHYA PRADESH"
  },
  {
    "pincode": "458441",
    "officename": "Kanakheda B.O",
    "officeType": "B.O",
    "Deliverystatus": "Delivery",
    "divisionname": "Mandsaur",
    "regionname": "Indore",
    "circlename": "Madhya Pradesh",
    "Taluk": "Neemuch",
    "Districtname": "Neemuch",
    "statename": "MADHYA PRADESH"
  },
  {
    "pincode": "458441",
    "officename": "Kanawati B.O",
    "officeType": "B.O",
    "Deliverystatus": "Delivery",
    "divisionname": "Mandsaur",
    "regionname": "Indore",
    "circlename": "Madhya Pradesh",
    "Taluk": "Neemuch",
    "Districtname": "Neemuch",
    "statename": "MADHYA PRADESH"
  },
  {
    "pincode": "458441",
    "officename": "Karadia Maharaj B.O",
    "officeType": "B.O",
    "Deliverystatus": "Delivery",
    "divisionname": "Mandsaur",
    "regionname": "Indore",
    "circlename": "Madhya Pradesh",
    "Taluk": "Neemuch",
    "Districtname": "Neemuch",
    "statename": "MADHYA PRADESH"
  },
  {
    "pincode": "458441",
    "officename": "Malkheda B.O",
    "officeType": "B.O",
    "Deliverystatus": "Delivery",
    "divisionname": "Mandsaur",
    "regionname": "Indore",
    "circlename": "Madhya Pradesh",
    "Taluk": "Neemuch",
    "Districtname": "Neemuch",
    "statename": "MADHYA PRADESH"
  },
  {
    "pincode": "458441",
    "officename": "Neemuch City S.O",
    "officeType": "S.O",
    "Deliverystatus": "Non-Delivery",
    "divisionname": "Mandsaur",
    "regionname": "Indore",
    "circlename": "Madhya Pradesh",
    "Taluk": "Neemuch",
    "Districtname": "Neemuch",
    "statename": "MADHYA PRADESH"
  },
  {
    "pincode": "458441",
    "officename": "Neemuch Ghanta Ghar S.O",
    "officeType": "S.O",
    "Deliverystatus": "Non-Delivery",
    "divisionname": "Mandsaur",
    "regionname": "Indore",
    "circlename": "Madhya Pradesh",
    "Taluk": "Neemuch",
    "Districtname": "Neemuch",
    "statename": "MADHYA PRADESH"
  },
  {
    "pincode": "458441",
    "officename": "Neemuch H.O",
    "officeType": "H.O",
    "Deliverystatus": "Delivery",
    "divisionname": "Mandsaur",
    "regionname": "Indore",
    "circlename": "Madhya Pradesh",
    "Taluk": "Neemuch",
    "Districtname": "Neemuch",
    "statename": "MADHYA PRADESH"
  },
  {
    "pincode": "458441",
    "officename": "Neemuch Jawahar Nagar B.O",
    "officeType": "B.O",
    "Deliverystatus": "Non-Delivery",
    "divisionname": "Mandsaur",
    "regionname": "Indore",
    "circlename": "Madhya Pradesh",
    "Taluk": "Neemuch",
    "Districtname": "Neemuch",
    "statename": "MADHYA PRADESH"
  },
  {
    "pincode": "458441",
    "officename": "Neemuch R.S. B.O",
    "officeType": "B.O",
    "Deliverystatus": "Non-Delivery",
    "divisionname": "Mandsaur",
    "regionname": "Indore",
    "circlename": "Madhya Pradesh",
    "Taluk": "Neemuch",
    "Districtname": "Neemuch",
    "statename": "MADHYA PRADESH"
  },
  {
    "pincode": "458441",
    "officename": "Neemuch Victoria Barracks S.O",
    "officeType": "S.O",
    "Deliverystatus": "Non-Delivery",
    "divisionname": "Mandsaur",
    "regionname": "Indore",
    "circlename": "Madhya Pradesh",
    "Taluk": "Neemuch",
    "Districtname": "Neemuch",
    "statename": "MADHYA PRADESH"
  },
  {
    "pincode": "458441",
    "officename": "Newad B.O",
    "officeType": "B.O",
    "Deliverystatus": "Delivery",
    "divisionname": "Mandsaur",
    "regionname": "Indore",
    "circlename": "Madhya Pradesh",
    "Taluk": "Neemuch",
    "Districtname": "Neemuch",
    "statename": "MADHYA PRADESH"
  },
  {
    "pincode": "458441",
    "officename": "Palsoda B.O",
    "officeType": "B.O",
    "Deliverystatus": "Delivery",
    "divisionname": "Mandsaur",
    "regionname": "Indore",
    "circlename": "Madhya Pradesh",
    "Taluk": "Neemuch",
    "Districtname": "Neemuch",
    "statename": "MADHYA PRADESH"
  },
  {
    "pincode": "458441",
    "officename": "Piplone B.O",
    "officeType": "B.O",
    "Deliverystatus": "Delivery",
    "divisionname": "Mandsaur",
    "regionname": "Indore",
    "circlename": "Madhya Pradesh",
    "Taluk": "Neemuch",
    "Districtname": "Neemuch",
    "statename": "MADHYA PRADESH"
  },
  {
    "pincode": "458441",
    "officename": "Rabdia B.O",
    "officeType": "B.O",
    "Deliverystatus": "Delivery",
    "divisionname": "Mandsaur",
    "regionname": "Indore",
    "circlename": "Madhya Pradesh",
    "Taluk": "Neemuch",
    "Districtname": "Neemuch",
    "statename": "MADHYA PRADESH"
  },
  {
    "pincode": "458441",
    "officename": "Revali Devali B.O",
    "officeType": "B.O",
    "Deliverystatus": "Delivery",
    "divisionname": "Mandsaur",
    "regionname": "Indore",
    "circlename": "Madhya Pradesh",
    "Taluk": "Neemuch",
    "Districtname": "Neemuch",
    "statename": "MADHYA PRADESH"
  },
  {
    "pincode": "458441",
    "officename": "Sawan B.O",
    "officeType": "B.O",
    "Deliverystatus": "Delivery",
    "divisionname": "Mandsaur",
    "regionname": "Indore",
    "circlename": "Madhya Pradesh",
    "Taluk": "Neemuch",
    "Districtname": "Neemuch",
    "statename": "MADHYA PRADESH"
  },
  {
    "pincode": "458441",
    "officename": "Sirkheda B.O",
    "officeType": "B.O",
    "Deliverystatus": "Delivery",
    "divisionname": "Mandsaur",
    "regionname": "Indore",
    "circlename": "Madhya Pradesh",
    "Taluk": "Neemuch",
    "Districtname": "Neemuch",
    "statename": "MADHYA PRADESH"
  },
  {
    "pincode": "458441",
    "officename": "Thdoli B.O",
    "officeType": "B.O",
    "Deliverystatus": "Delivery",
    "divisionname": "Mandsaur",
    "regionname": "Indore",
    "circlename": "Madhya Pradesh",
    "Taluk": "Neemuch",
    "Districtname": "Neemuch",
    "statename": "MADHYA PRADESH"
  }
]
