[
  {
    "pincode": "458558",
    "officename": "Bajkhedi B.O",
    "officeType": "B.O",
    "Deliverystatus": "Delivery",
    "divisionname": "Mandsaur",
    "regionname": "Indore",
    "circlename": "Madhya Pradesh",
    "Taluk": "Sitamau",
    "Districtname": "Mandsaur",
    "statename": "MADHYA PRADESH"
  },
  {
    "pincode": "458558",
    "officename": "Era B.O",
    "officeType": "B.O",
    "Deliverystatus": "Delivery",
    "divisionname": "Mandsaur",
    "regionname": "Indore",
    "circlename": "Madhya Pradesh",
    "Taluk": "Sitamau",
    "Districtname": "Mandsaur",
    "statename": "MADHYA PRADESH"
  },
  {
    "pincode": "458558",
    "officename": "Jhalara B.O",
    "officeType": "B.O",
    "Deliverystatus": "Delivery",
    "divisionname": "Mandsaur",
    "regionname": "Indore",
    "circlename": "Madhya Pradesh",
    "Taluk": "Sitamau",
    "Districtname": "Mandsaur",
    "statename": "MADHYA PRADESH"
  },
  {
    "pincode": "458558",
    "officename": "Kachnara B.O",
    "officeType": "B.O",
    "Deliverystatus": "Delivery",
    "divisionname": "Mandsaur",
    "regionname": "Indore",
    "circlename": "Madhya Pradesh",
    "Taluk": "Sitamau",
    "Districtname": "Mandsaur",
    "statename": "MADHYA PRADESH"
  },
  {
    "pincode": "458558",
    "officename": "Kayampur  B.O",
    "officeType": "B.O",
    "Deliverystatus": "Delivery",
    "divisionname": "Mandsaur",
    "regionname": "Indore",
    "circlename": "Madhya Pradesh",
    "Taluk": "Sitamau",
    "Districtname": "Mandsaur",
    "statename": "MADHYA PRADESH"
  },
  {
    "pincode": "458558",
    "officename": "Khajuri Goud B.O",
    "officeType": "B.O",
    "Deliverystatus": "Delivery",
    "divisionname": "Mandsaur",
    "regionname": "Indore",
    "circlename": "Madhya Pradesh",
    "Taluk": "Sitamau",
    "Districtname": "Mandsaur",
    "statename": "MADHYA PRADESH"
  },
  {
    "pincode": "458558",
    "officename": "Khanderia Kachar B.O",
    "officeType": "B.O",
    "Deliverystatus": "Delivery",
    "divisionname": "Mandsaur",
    "regionname": "Indore",
    "circlename": "Madhya Pradesh",
    "Taluk": "Sitamau",
    "Districtname": "Mandsaur",
    "statename": "MADHYA PRADESH"
  },
  {
    "pincode": "458558",
    "officename": "Khatia Khedi B.O",
    "officeType": "B.O",
    "Deliverystatus": "Delivery",
    "divisionname": "Mandsaur",
    "regionname": "Indore",
    "circlename": "Madhya Pradesh",
    "Taluk": "Sitamau",
    "Districtname": "Mandsaur",
    "statename": "MADHYA PRADESH"
  },
  {
    "pincode": "458558",
    "officename": "Kotda Bahadur B.O",
    "officeType": "B.O",
    "Deliverystatus": "Delivery",
    "divisionname": "Mandsaur",
    "regionname": "Indore",
    "circlename": "Madhya Pradesh",
    "Taluk": "Sitamau",
    "Districtname": "Mandsaur",
    "statename": "MADHYA PRADESH"
  },
  {
    "pincode": "458558",
    "officename": "Motipura B.O",
    "officeType": "B.O",
    "Deliverystatus": "Delivery",
    "divisionname": "Mandsaur",
    "regionname": "Indore",
    "circlename": "Madhya Pradesh",
    "Taluk": "Sitamau",
    "Districtname": "Mandsaur",
    "statename": "MADHYA PRADESH"
  },
  {
    "pincode": "458558",
    "officename": "Nahargarh S.O",
    "officeType": "S.O",
    "Deliverystatus": "Delivery",
    "divisionname": "Mandsaur",
    "regionname": "Indore",
    "circlename": "Madhya Pradesh",
    "Taluk": "Sitamau",
    "Districtname": "Mandsaur",
    "statename": "MADHYA PRADESH"
  },
  {
    "pincode": "458558",
    "officename": "Nataram B.O",
    "officeType": "B.O",
    "Deliverystatus": "Delivery",
    "divisionname": "Mandsaur",
    "regionname": "Indore",
    "circlename": "Madhya Pradesh",
    "Taluk": "Sitamau",
    "Districtname": "Mandsaur",
    "statename": "MADHYA PRADESH"
  },
  {
    "pincode": "458558",
    "officename": "Ranayara B.O",
    "officeType": "B.O",
    "Deliverystatus": "Delivery",
    "divisionname": "Mandsaur",
    "regionname": "Indore",
    "circlename": "Madhya Pradesh",
    "Taluk": "Sitamau",
    "Districtname": "Mandsaur",
    "statename": "MADHYA PRADESH"
  },
  {
    "pincode": "458558",
    "officename": "Sunthi B.O",
    "officeType": "B.O",
    "Deliverystatus": "Delivery",
    "divisionname": "Mandsaur",
    "regionname": "Indore",
    "circlename": "Madhya Pradesh",
    "Taluk": "Sitamau",
    "Districtname": "Mandsaur",
    "statename": "MADHYA PRADESH"
  },
  {
    "pincode": "458558",
    "officename": "Vishnia Dak Bunglow B.O",
    "officeType": "B.O",
    "Deliverystatus": "Delivery",
    "divisionname": "Mandsaur",
    "regionname": "Indore",
    "circlename": "Madhya Pradesh",
    "Taluk": "Sitamau",
    "Districtname": "Mandsaur",
    "statename": "MADHYA PRADESH"
  }
]
