[
  {
    "pincode": "458895",
    "officename": "Afzalpur B.O",
    "officeType": "B.O",
    "Deliverystatus": "Delivery",
    "divisionname": "Mandsaur",
    "regionname": "Indore",
    "circlename": "Madhya Pradesh",
    "Taluk": "Mandsaur",
    "Districtname": "Mandsaur",
    "statename": "MADHYA PRADESH"
  },
  {
    "pincode": "458895",
    "officename": "Degaon Mali S.O",
    "officeType": "S.O",
    "Deliverystatus": "Delivery",
    "divisionname": "Mandsaur",
    "regionname": "Indore",
    "circlename": "Madhya Pradesh",
    "Taluk": "Mandsaur",
    "Districtname": "Mandsaur",
    "statename": "MADHYA PRADESH"
  },
  {
    "pincode": "458895",
    "officename": "Gujar Bardia B.O",
    "officeType": "B.O",
    "Deliverystatus": "Delivery",
    "divisionname": "Mandsaur",
    "regionname": "Indore",
    "circlename": "Madhya Pradesh",
    "Taluk": "Mandsaur",
    "Districtname": "Mandsaur",
    "statename": "MADHYA PRADESH"
  },
  {
    "pincode": "458895",
    "officename": "Jaggakhedi B.O",
    "officeType": "B.O",
    "Deliverystatus": "Delivery",
    "divisionname": "Mandsaur",
    "regionname": "Indore",
    "circlename": "Madhya Pradesh",
    "Taluk": "Mandsaur",
    "Districtname": "Mandsaur",
    "statename": "MADHYA PRADESH"
  },
  {
    "pincode": "458895",
    "officename": "Jhawal B.O",
    "officeType": "B.O",
    "Deliverystatus": "Delivery",
    "divisionname": "Mandsaur",
    "regionname": "Indore",
    "circlename": "Madhya Pradesh",
    "Taluk": "Mandsaur",
    "Districtname": "Mandsaur",
    "statename": "MADHYA PRADESH"
  },
  {
    "pincode": "458895",
    "officename": "Kunchrod B.O",
    "officeType": "B.O",
    "Deliverystatus": "Delivery",
    "divisionname": "Mandsaur",
    "regionname": "Indore",
    "circlename": "Madhya Pradesh",
    "Taluk": "Mandsaur",
    "Districtname": "Mandsaur",
    "statename": "MADHYA PRADESH"
  },
  {
    "pincode": "458895",
    "officename": "Lodh B.O",
    "officeType": "B.O",
    "Deliverystatus": "Delivery",
    "divisionname": "Mandsaur",
    "regionname": "Indore",
    "circlename": "Madhya Pradesh",
    "Taluk": "Mandsaur",
    "Districtname": "Mandsaur",
    "statename": "MADHYA PRADESH"
  },
  {
    "pincode": "458895",
    "officename": "Maliya Kherkheda B.O",
    "officeType": "B.O",
    "Deliverystatus": "Delivery",
    "divisionname": "Mandsaur",
    "regionname": "Indore",
    "circlename": "Madhya Pradesh",
    "Taluk": "Mandsaur",
    "Districtname": "Mandsaur",
    "statename": "MADHYA PRADESH"
  },
  {
    "pincode": "458895",
    "officename": "Panpur B.O",
    "officeType": "B.O",
    "Deliverystatus": "Delivery",
    "divisionname": "Mandsaur",
    "regionname": "Indore",
    "circlename": "Madhya Pradesh",
    "Taluk": "Mandsaur",
    "Districtname": "Mandsaur",
    "statename": "MADHYA PRADESH"
  },
  {
    "pincode": "458895",
    "officename": "Piplia Karadia B.O",
    "officeType": "B.O",
    "Deliverystatus": "Delivery",
    "divisionname": "Mandsaur",
    "regionname": "Indore",
    "circlename": "Madhya Pradesh",
    "Taluk": "Mandsaur",
    "Districtname": "Mandsaur",
    "statename": "MADHYA PRADESH"
  },
  {
    "pincode": "458895",
    "officename": "Sehore B.O",
    "officeType": "B.O",
    "Deliverystatus": "Delivery",
    "divisionname": "Mandsaur",
    "regionname": "Indore",
    "circlename": "Madhya Pradesh",
    "Taluk": "Mandsaur",
    "Districtname": "Mandsaur",
    "statename": "MADHYA PRADESH"
  },
  {
    "pincode": "458895",
    "officename": "Udpura B.O",
    "officeType": "B.O",
    "Deliverystatus": "Delivery",
    "divisionname": "Mandsaur",
    "regionname": "Indore",
    "circlename": "Madhya Pradesh",
    "Taluk": "Mandsaur",
    "Districtname": "Mandsaur",
    "statename": "MADHYA PRADESH"
  }
]
