[
  {
    "pincode": "458883",
    "officename": "Aankali Deewan B.O",
    "officeType": "B.O",
    "Deliverystatus": "Delivery",
    "divisionname": "Mandsaur",
    "regionname": "Indore",
    "circlename": "Madhya Pradesh",
    "Taluk": "Garoth",
    "Districtname": "Mandsaur",
    "statename": "MADHYA PRADESH"
  },
  {
    "pincode": "458883",
    "officename": "Asawati B.O",
    "officeType": "B.O",
    "Deliverystatus": "Delivery",
    "divisionname": "Mandsaur",
    "regionname": "Indore",
    "circlename": "Madhya Pradesh",
    "Taluk": "Garoth",
    "Districtname": "Mandsaur",
    "statename": "MADHYA PRADESH"
  },
  {
    "pincode": "458883",
    "officename": "Baghunia B.O",
    "officeType": "B.O",
    "Deliverystatus": "Delivery",
    "divisionname": "Mandsaur",
    "regionname": "Indore",
    "circlename": "Madhya Pradesh",
    "Taluk": "Garoth",
    "Districtname": "Mandsaur",
    "statename": "MADHYA PRADESH"
  },
  {
    "pincode": "458883",
    "officename": "Barkehda Nayak B.O",
    "officeType": "B.O",
    "Deliverystatus": "Delivery",
    "divisionname": "Mandsaur",
    "regionname": "Indore",
    "circlename": "Madhya Pradesh",
    "Taluk": "Garoth",
    "Districtname": "Mandsaur",
    "statename": "MADHYA PRADESH"
  },
  {
    "pincode": "458883",
    "officename": "Bhundia B.O",
    "officeType": "B.O",
    "Deliverystatus": "Delivery",
    "divisionname": "Mandsaur",
    "regionname": "Indore",
    "circlename": "Madhya Pradesh",
    "Taluk": "Garoth",
    "Districtname": "Mandsaur",
    "statename": "MADHYA PRADESH"
  },
  {
    "pincode": "458883",
    "officename": "Chandwasa B.O",
    "officeType": "B.O",
    "Deliverystatus": "Delivery",
    "divisionname": "Mandsaur",
    "regionname": "Indore",
    "circlename": "Madhya Pradesh",
    "Taluk": "Garoth",
    "Districtname": "Mandsaur",
    "statename": "MADHYA PRADESH"
  },
  {
    "pincode": "458883",
    "officename": "Dhabla Deval B.O",
    "officeType": "B.O",
    "Deliverystatus": "Delivery",
    "divisionname": "Mandsaur",
    "regionname": "Indore",
    "circlename": "Madhya Pradesh",
    "Taluk": "Garoth",
    "Districtname": "Mandsaur",
    "statename": "MADHYA PRADESH"
  },
  {
    "pincode": "458883",
    "officename": "Dhabla Gujar B.O",
    "officeType": "B.O",
    "Deliverystatus": "Delivery",
    "divisionname": "Mandsaur",
    "regionname": "Indore",
    "circlename": "Madhya Pradesh",
    "Taluk": "Garoth",
    "Districtname": "Mandsaur",
    "statename": "MADHYA PRADESH"
  },
  {
    "pincode": "458883",
    "officename": "Dhabla Mohan B.O",
    "officeType": "B.O",
    "Deliverystatus": "Delivery",
    "divisionname": "Mandsaur",
    "regionname": "Indore",
    "circlename": "Madhya Pradesh",
    "Taluk": "Garoth",
    "Districtname": "Mandsaur",
    "statename": "MADHYA PRADESH"
  },
  {
    "pincode": "458883",
    "officename": "Hatunia B.O",
    "officeType": "B.O",
    "Deliverystatus": "Delivery",
    "divisionname": "Mandsaur",
    "regionname": "Indore",
    "circlename": "Madhya Pradesh",
    "Taluk": "Garoth",
    "Districtname": "Mandsaur",
    "statename": "MADHYA PRADESH"
  },
  {
    "pincode": "458883",
    "officename": "Khajuri Panth B.O",
    "officeType": "B.O",
    "Deliverystatus": "Delivery",
    "divisionname": "Mandsaur",
    "regionname": "Indore",
    "circlename": "Madhya Pradesh",
    "Taluk": "Garoth",
    "Districtname": "Mandsaur",
    "statename": "MADHYA PRADESH"
  },
  {
    "pincode": "458883",
    "officename": "Lasudia B.O",
    "officeType": "B.O",
    "Deliverystatus": "Delivery",
    "divisionname": "Mandsaur",
    "regionname": "Indore",
    "circlename": "Madhya Pradesh",
    "Taluk": "Garoth",
    "Districtname": "Mandsaur",
    "statename": "MADHYA PRADESH"
  },
  {
    "pincode": "458883",
    "officename": "Melkheda B.O",
    "officeType": "B.O",
    "Deliverystatus": "Delivery",
    "divisionname": "Mandsaur",
    "regionname": "Indore",
    "circlename": "Madhya Pradesh",
    "Taluk": "Garoth",
    "Districtname": "Mandsaur",
    "statename": "MADHYA PRADESH"
  },
  {
    "pincode": "458883",
    "officename": "Parasali Ghata B.O",
    "officeType": "B.O",
    "Deliverystatus": "Delivery",
    "divisionname": "Mandsaur",
    "regionname": "Indore",
    "circlename": "Madhya Pradesh",
    "Taluk": "Garoth",
    "Districtname": "Mandsaur",
    "statename": "MADHYA PRADESH"
  },
  {
    "pincode": "458883",
    "officename": "Parasali Tirth B.O",
    "officeType": "B.O",
    "Deliverystatus": "Delivery",
    "divisionname": "Mandsaur",
    "regionname": "Indore",
    "circlename": "Madhya Pradesh",
    "Taluk": "Garoth",
    "Districtname": "Mandsaur",
    "statename": "MADHYA PRADESH"
  },
  {
    "pincode": "458883",
    "officename": "Sagoria B.O",
    "officeType": "B.O",
    "Deliverystatus": "Delivery",
    "divisionname": "Mandsaur",
    "regionname": "Indore",
    "circlename": "Madhya Pradesh",
    "Taluk": "Garoth",
    "Districtname": "Mandsaur",
    "statename": "MADHYA PRADESH"
  },
  {
    "pincode": "458883",
    "officename": "Shamgarh Gaon B.O",
    "officeType": "B.O",
    "Deliverystatus": "Delivery",
    "divisionname": "Mandsaur",
    "regionname": "Indore",
    "circlename": "Madhya Pradesh",
    "Taluk": "Garoth",
    "Districtname": "Mandsaur",
    "statename": "MADHYA PRADESH"
  },
  {
    "pincode": "458883",
    "officename": "Shamgarh S.O",
    "officeType": "S.O",
    "Deliverystatus": "Delivery",
    "divisionname": "Mandsaur",
    "regionname": "Indore",
    "circlename": "Madhya Pradesh",
    "Taluk": "Garoth",
    "Districtname": "Mandsaur",
    "statename": "MADHYA PRADESH"
  },
  {
    "pincode": "458883",
    "officename": "Tolakhedi B.O",
    "officeType": "B.O",
    "Deliverystatus": "Delivery",
    "divisionname": "Mandsaur",
    "regionname": "Indore",
    "circlename": "Madhya Pradesh",
    "Taluk": "Garoth",
    "Districtname": "Mandsaur",
    "statename": "MADHYA PRADESH"
  },
  {
    "pincode": "458883",
    "officename": "Umria Baloda B.O",
    "officeType": "B.O",
    "Deliverystatus": "Delivery",
    "divisionname": "Mandsaur",
    "regionname": "Indore",
    "circlename": "Madhya Pradesh",
    "Taluk": "Garoth",
    "Districtname": "Mandsaur",
    "statename": "MADHYA PRADESH"
  }
]
