[
  {
    "pincode": "460330",
    "officename": "Awaria B.O",
    "officeType": "B.O",
    "Deliverystatus": "Delivery",
    "divisionname": "Chhindwara",
    "regionname": "Bhopal HQ",
    "circlename": "Madhya Pradesh",
    "Taluk": "Betul",
    "Districtname": "Betul",
    "statename": "MADHYA PRADESH"
  },
  {
    "pincode": "460330",
    "officename": "Bhimpur B.O",
    "officeType": "B.O",
    "Deliverystatus": "Delivery",
    "divisionname": "Chhindwara",
    "regionname": "Bhopal HQ",
    "circlename": "Madhya Pradesh",
    "Taluk": "Bhainsdehi",
    "Districtname": "Betul",
    "statename": "MADHYA PRADESH"
  },
  {
    "pincode": "460330",
    "officename": "Bijadehi B.O",
    "officeType": "B.O",
    "Deliverystatus": "Delivery",
    "divisionname": "Chhindwara",
    "regionname": "Bhopal HQ",
    "circlename": "Madhya Pradesh",
    "Taluk": "Betul",
    "Districtname": "Betul",
    "statename": "MADHYA PRADESH"
  },
  {
    "pincode": "460330",
    "officename": "Chicholi S.O",
    "officeType": "S.O",
    "Deliverystatus": "Delivery",
    "divisionname": "Chhindwara",
    "regionname": "Bhopal HQ",
    "circlename": "Madhya Pradesh",
    "Taluk": "Betul",
    "Districtname": "Betul",
    "statename": "MADHYA PRADESH"
  },
  {
    "pincode": "460330",
    "officename": "Chikhali B.O",
    "officeType": "B.O",
    "Deliverystatus": "Delivery",
    "divisionname": "Chhindwara",
    "regionname": "Bhopal HQ",
    "circlename": "Madhya Pradesh",
    "Taluk": "Betul",
    "Districtname": "Betul",
    "statename": "MADHYA PRADESH"
  },
  {
    "pincode": "460330",
    "officename": "Chirapatla B.O",
    "officeType": "B.O",
    "Deliverystatus": "Delivery",
    "divisionname": "Chhindwara",
    "regionname": "Bhopal HQ",
    "circlename": "Madhya Pradesh",
    "Taluk": "Betul",
    "Districtname": "Betul",
    "statename": "MADHYA PRADESH"
  },
  {
    "pincode": "460330",
    "officename": "Chudia B.O",
    "officeType": "B.O",
    "Deliverystatus": "Delivery",
    "divisionname": "Chhindwara",
    "regionname": "Bhopal HQ",
    "circlename": "Madhya Pradesh",
    "Taluk": "Amal",
    "Districtname": "Betul",
    "statename": "MADHYA PRADESH"
  },
  {
    "pincode": "460330",
    "officename": "Chunahajuri B.O",
    "officeType": "B.O",
    "Deliverystatus": "Delivery",
    "divisionname": "Chhindwara",
    "regionname": "Bhopal HQ",
    "circlename": "Madhya Pradesh",
    "Taluk": "Betul",
    "Districtname": "Betul",
    "statename": "MADHYA PRADESH"
  },
  {
    "pincode": "460330",
    "officename": "Dhanora Adarsh B.O",
    "officeType": "B.O",
    "Deliverystatus": "Delivery",
    "divisionname": "Chhindwara",
    "regionname": "Bhopal HQ",
    "circlename": "Madhya Pradesh",
    "Taluk": "Betul",
    "Districtname": "Betul",
    "statename": "MADHYA PRADESH"
  },
  {
    "pincode": "460330",
    "officename": "Dudhiya B.O",
    "officeType": "B.O",
    "Deliverystatus": "Delivery",
    "divisionname": "Chhindwara",
    "regionname": "Bhopal HQ",
    "circlename": "Madhya Pradesh",
    "Taluk": "Betul",
    "Districtname": "Betul",
    "statename": "MADHYA PRADESH"
  },
  {
    "pincode": "460330",
    "officename": "Ghisibagla B.O",
    "officeType": "B.O",
    "Deliverystatus": "Delivery",
    "divisionname": "Chhindwara",
    "regionname": "Bhopal HQ",
    "circlename": "Madhya Pradesh",
    "Taluk": "Betul",
    "Districtname": "Betul",
    "statename": "MADHYA PRADESH"
  },
  {
    "pincode": "460330",
    "officename": "Godhna B.O",
    "officeType": "B.O",
    "Deliverystatus": "Delivery",
    "divisionname": "Chhindwara",
    "regionname": "Bhopal HQ",
    "circlename": "Madhya Pradesh",
    "Taluk": "Betul",
    "Districtname": "Betul",
    "statename": "MADHYA PRADESH"
  },
  {
    "pincode": "460330",
    "officename": "Jhapal B.O",
    "officeType": "B.O",
    "Deliverystatus": "Delivery",
    "divisionname": "Chhindwara",
    "regionname": "Bhopal HQ",
    "circlename": "Madhya Pradesh",
    "Taluk": "Betul",
    "Districtname": "Betul",
    "statename": "MADHYA PRADESH"
  },
  {
    "pincode": "460330",
    "officename": "Kesia B.O",
    "officeType": "B.O",
    "Deliverystatus": "Delivery",
    "divisionname": "Chhindwara",
    "regionname": "Bhopal HQ",
    "circlename": "Madhya Pradesh",
    "Taluk": "Betul",
    "Districtname": "Betul",
    "statename": "MADHYA PRADESH"
  },
  {
    "pincode": "460330",
    "officename": "Kurasna B.O",
    "officeType": "B.O",
    "Deliverystatus": "Delivery",
    "divisionname": "Chhindwara",
    "regionname": "Bhopal HQ",
    "circlename": "Madhya Pradesh",
    "Taluk": "Betul",
    "Districtname": "Betul",
    "statename": "MADHYA PRADESH"
  },
  {
    "pincode": "460330",
    "officename": "Malajpur B.O",
    "officeType": "B.O",
    "Deliverystatus": "Delivery",
    "divisionname": "Chhindwara",
    "regionname": "Bhopal HQ",
    "circlename": "Madhya Pradesh",
    "Taluk": "Betul",
    "Districtname": "Betul",
    "statename": "MADHYA PRADESH"
  },
  {
    "pincode": "460330",
    "officename": "Mohda B.O",
    "officeType": "B.O",
    "Deliverystatus": "Delivery",
    "divisionname": "Chhindwara",
    "regionname": "Bhopal HQ",
    "circlename": "Madhya Pradesh",
    "Taluk": "Betul",
    "Districtname": "Betul",
    "statename": "MADHYA PRADESH"
  },
  {
    "pincode": "460330",
    "officename": "Path B.O",
    "officeType": "B.O",
    "Deliverystatus": "Delivery",
    "divisionname": "Chhindwara",
    "regionname": "Bhopal HQ",
    "circlename": "Madhya Pradesh",
    "Taluk": "Shahpur",
    "Districtname": "Betul",
    "statename": "MADHYA PRADESH"
  },
  {
    "pincode": "460330",
    "officename": "Pathakheda B.O",
    "officeType": "B.O",
    "Deliverystatus": "Delivery",
    "divisionname": "Chhindwara",
    "regionname": "Bhopal HQ",
    "circlename": "Madhya Pradesh",
    "Taluk": "Bhainsdehi",
    "Districtname": "Betul",
    "statename": "MADHYA PRADESH"
  },
  {
    "pincode": "460330",
    "officename": "Patri B.O",
    "officeType": "B.O",
    "Deliverystatus": "Delivery",
    "divisionname": "Chhindwara",
    "regionname": "Bhopal HQ",
    "circlename": "Madhya Pradesh",
    "Taluk": "Betul",
    "Districtname": "Betul",
    "statename": "MADHYA PRADESH"
  },
  {
    "pincode": "460330",
    "officename": "Pipariyagurwa B.O",
    "officeType": "B.O",
    "Deliverystatus": "Delivery",
    "divisionname": "Chhindwara",
    "regionname": "Bhopal HQ",
    "circlename": "Madhya Pradesh",
    "Taluk": "Bhainsdehi",
    "Districtname": "Betul",
    "statename": "MADHYA PRADESH"
  },
  {
    "pincode": "460330",
    "officename": "Ratanpur B.O",
    "officeType": "B.O",
    "Deliverystatus": "Delivery",
    "divisionname": "Chhindwara",
    "regionname": "Bhopal HQ",
    "circlename": "Madhya Pradesh",
    "Taluk": "Betul",
    "Districtname": "Betul",
    "statename": "MADHYA PRADESH"
  }
]
