[
  {
    "pincode": "460440",
    "officename": "Badalpur B.O",
    "officeType": "B.O",
    "Deliverystatus": "Delivery",
    "divisionname": "Chhindwara",
    "regionname": "Bhopal HQ",
    "circlename": "Madhya Pradesh",
    "Taluk": "Shahpur",
    "Districtname": "Betul",
    "statename": "MADHYA PRADESH"
  },
  {
    "pincode": "460440",
    "officename": "Batkidoh B.O",
    "officeType": "B.O",
    "Deliverystatus": "Delivery",
    "divisionname": "Chhindwara",
    "regionname": "Bhopal HQ",
    "circlename": "Madhya Pradesh",
    "Taluk": "Shahpur",
    "Districtname": "Betul",
    "statename": "MADHYA PRADESH"
  },
  {
    "pincode": "460440",
    "officename": "Bhaiyawari B.O",
    "officeType": "B.O",
    "Deliverystatus": "Delivery",
    "divisionname": "Chhindwara",
    "regionname": "Bhopal HQ",
    "circlename": "Madhya Pradesh",
    "Taluk": "Shahpur",
    "Districtname": "Betul",
    "statename": "MADHYA PRADESH"
  },
  {
    "pincode": "460440",
    "officename": "Bhoura B.O",
    "officeType": "B.O",
    "Deliverystatus": "Delivery",
    "divisionname": "Chhindwara",
    "regionname": "Bhopal HQ",
    "circlename": "Madhya Pradesh",
    "Taluk": "Shahpur",
    "Districtname": "Betul",
    "statename": "MADHYA PRADESH"
  },
  {
    "pincode": "460440",
    "officename": "Chikhalpati B.O",
    "officeType": "B.O",
    "Deliverystatus": "Delivery",
    "divisionname": "Chhindwara",
    "regionname": "Bhopal HQ",
    "circlename": "Madhya Pradesh",
    "Taluk": "Shahpur",
    "Districtname": "Betul",
    "statename": "MADHYA PRADESH"
  },
  {
    "pincode": "460440",
    "officename": "Chopna B.O",
    "officeType": "B.O",
    "Deliverystatus": "Delivery",
    "divisionname": "Chhindwara",
    "regionname": "Bhopal HQ",
    "circlename": "Madhya Pradesh",
    "Taluk": "Shahpur",
    "Districtname": "Betul",
    "statename": "MADHYA PRADESH"
  },
  {
    "pincode": "460440",
    "officename": "Desawari B.O",
    "officeType": "B.O",
    "Deliverystatus": "Delivery",
    "divisionname": "Chhindwara",
    "regionname": "Bhopal HQ",
    "circlename": "Madhya Pradesh",
    "Taluk": "Shahpur",
    "Districtname": "Betul",
    "statename": "MADHYA PRADESH"
  },
  {
    "pincode": "460440",
    "officename": "Dhapoda B.O",
    "officeType": "B.O",
    "Deliverystatus": "Delivery",
    "divisionname": "Chhindwara",
    "regionname": "Bhopal HQ",
    "circlename": "Madhya Pradesh",
    "Taluk": "Shahpur",
    "Districtname": "Betul",
    "statename": "MADHYA PRADESH"
  },
  {
    "pincode": "460440",
    "officename": "Hirapur B.O",
    "officeType": "B.O",
    "Deliverystatus": "Delivery",
    "divisionname": "Chhindwara",
    "regionname": "Bhopal HQ",
    "circlename": "Madhya Pradesh",
    "Taluk": "Shahpur",
    "Districtname": "Betul",
    "statename": "MADHYA PRADESH"
  },
  {
    "pincode": "460440",
    "officename": "Kachhar B.O",
    "officeType": "B.O",
    "Deliverystatus": "Delivery",
    "divisionname": "Chhindwara",
    "regionname": "Bhopal HQ",
    "circlename": "Madhya Pradesh",
    "Taluk": "Shahpur",
    "Districtname": "Betul",
    "statename": "MADHYA PRADESH"
  },
  {
    "pincode": "460440",
    "officename": "Kundi B.O",
    "officeType": "B.O",
    "Deliverystatus": "Delivery",
    "divisionname": "Chhindwara",
    "regionname": "Bhopal HQ",
    "circlename": "Madhya Pradesh",
    "Taluk": "Shahpur",
    "Districtname": "Betul",
    "statename": "MADHYA PRADESH"
  },
  {
    "pincode": "460440",
    "officename": "Pahawari B.O",
    "officeType": "B.O",
    "Deliverystatus": "Delivery",
    "divisionname": "Chhindwara",
    "regionname": "Bhopal HQ",
    "circlename": "Madhya Pradesh",
    "Taluk": "Shahpur",
    "Districtname": "Betul",
    "statename": "MADHYA PRADESH"
  },
  {
    "pincode": "460440",
    "officename": "Pathai B.O",
    "officeType": "B.O",
    "Deliverystatus": "Delivery",
    "divisionname": "Chhindwara",
    "regionname": "Bhopal HQ",
    "circlename": "Madhya Pradesh",
    "Taluk": "Shahpur",
    "Districtname": "Betul",
    "statename": "MADHYA PRADESH"
  },
  {
    "pincode": "460440",
    "officename": "Salimet B.O",
    "officeType": "B.O",
    "Deliverystatus": "Delivery",
    "divisionname": "Chhindwara",
    "regionname": "Bhopal HQ",
    "circlename": "Madhya Pradesh",
    "Taluk": "Shahpur",
    "Districtname": "Betul",
    "statename": "MADHYA PRADESH"
  },
  {
    "pincode": "460440",
    "officename": "Shahpur S.O (Betul)",
    "officeType": "S.O",
    "Deliverystatus": "Delivery",
    "divisionname": "Chhindwara",
    "regionname": "Bhopal HQ",
    "circlename": "Madhya Pradesh",
    "Taluk": "Shahpur",
    "Districtname": "Betul",
    "statename": "MADHYA PRADESH"
  },
  {
    "pincode": "460440",
    "officename": "Silpati B.O",
    "officeType": "B.O",
    "Deliverystatus": "Delivery",
    "divisionname": "Chhindwara",
    "regionname": "Bhopal HQ",
    "circlename": "Madhya Pradesh",
    "Taluk": "Shahpur",
    "Districtname": "Betul",
    "statename": "MADHYA PRADESH"
  },
  {
    "pincode": "460440",
    "officename": "Temru B.O",
    "officeType": "B.O",
    "Deliverystatus": "Delivery",
    "divisionname": "Chhindwara",
    "regionname": "Bhopal HQ",
    "circlename": "Madhya Pradesh",
    "Taluk": "Shahpur",
    "Districtname": "Betul",
    "statename": "MADHYA PRADESH"
  }
]
