[
  {
    "pincode": "460661",
    "officename": "Barai B.O",
    "officeType": "B.O",
    "Deliverystatus": "Delivery",
    "divisionname": "Chhindwara",
    "regionname": "Bhopal HQ",
    "circlename": "Madhya Pradesh",
    "Taluk": "Multai",
    "Districtname": "Betul",
    "statename": "MADHYA PRADESH"
  },
  {
    "pincode": "460661",
    "officename": "Chandora Khurad B.O",
    "officeType": "B.O",
    "Deliverystatus": "Delivery",
    "divisionname": "Chhindwara",
    "regionname": "Bhopal HQ",
    "circlename": "Madhya Pradesh",
    "Taluk": "Multai",
    "Districtname": "Betul",
    "statename": "MADHYA PRADESH"
  },
  {
    "pincode": "460661",
    "officename": "Chichanda B.O",
    "officeType": "B.O",
    "Deliverystatus": "Delivery",
    "divisionname": "Chhindwara",
    "regionname": "Bhopal HQ",
    "circlename": "Madhya Pradesh",
    "Taluk": "Multai",
    "Districtname": "Betul",
    "statename": "MADHYA PRADESH"
  },
  {
    "pincode": "460661",
    "officename": "Chilhati B.O",
    "officeType": "B.O",
    "Deliverystatus": "Delivery",
    "divisionname": "Chhindwara",
    "regionname": "Bhopal HQ",
    "circlename": "Madhya Pradesh",
    "Taluk": "Multai",
    "Districtname": "Betul",
    "statename": "MADHYA PRADESH"
  },
  {
    "pincode": "460661",
    "officename": "Chouthia B.O",
    "officeType": "B.O",
    "Deliverystatus": "Delivery",
    "divisionname": "Chhindwara",
    "regionname": "Bhopal HQ",
    "circlename": "Madhya Pradesh",
    "Taluk": "Multai",
    "Districtname": "Betul",
    "statename": "MADHYA PRADESH"
  },
  {
    "pincode": "460661",
    "officename": "Hathanapur B.O",
    "officeType": "B.O",
    "Deliverystatus": "Delivery",
    "divisionname": "Chhindwara",
    "regionname": "Bhopal HQ",
    "circlename": "Madhya Pradesh",
    "Taluk": "Multai",
    "Districtname": "Betul",
    "statename": "MADHYA PRADESH"
  },
  {
    "pincode": "460661",
    "officename": "Joulkheda B.O",
    "officeType": "B.O",
    "Deliverystatus": "Delivery",
    "divisionname": "Chhindwara",
    "regionname": "Bhopal HQ",
    "circlename": "Madhya Pradesh",
    "Taluk": "Multai",
    "Districtname": "Betul",
    "statename": "MADHYA PRADESH"
  },
  {
    "pincode": "460661",
    "officename": "Karpa B.O",
    "officeType": "B.O",
    "Deliverystatus": "Delivery",
    "divisionname": "Chhindwara",
    "regionname": "Bhopal HQ",
    "circlename": "Madhya Pradesh",
    "Taluk": "Multai",
    "Districtname": "Betul",
    "statename": "MADHYA PRADESH"
  },
  {
    "pincode": "460661",
    "officename": "Khedlibazar B.O",
    "officeType": "B.O",
    "Deliverystatus": "Delivery",
    "divisionname": "Chhindwara",
    "regionname": "Bhopal HQ",
    "circlename": "Madhya Pradesh",
    "Taluk": "Multai",
    "Districtname": "Betul",
    "statename": "MADHYA PRADESH"
  },
  {
    "pincode": "460661",
    "officename": "Kujba B.O",
    "officeType": "B.O",
    "Deliverystatus": "Delivery",
    "divisionname": "Chhindwara",
    "regionname": "Bhopal HQ",
    "circlename": "Madhya Pradesh",
    "Taluk": "Amla",
    "Districtname": "Betul",
    "statename": "MADHYA PRADESH"
  },
  {
    "pincode": "460661",
    "officename": "Mahatpur B.O",
    "officeType": "B.O",
    "Deliverystatus": "Delivery",
    "divisionname": "Chhindwara",
    "regionname": "Bhopal HQ",
    "circlename": "Madhya Pradesh",
    "Taluk": "Multai",
    "Districtname": "Betul",
    "statename": "MADHYA PRADESH"
  },
  {
    "pincode": "460661",
    "officename": "Mathani B.O",
    "officeType": "B.O",
    "Deliverystatus": "Delivery",
    "divisionname": "Chhindwara",
    "regionname": "Bhopal HQ",
    "circlename": "Madhya Pradesh",
    "Taluk": "Multai",
    "Districtname": "Betul",
    "statename": "MADHYA PRADESH"
  },
  {
    "pincode": "460661",
    "officename": "Mohi B.O",
    "officeType": "B.O",
    "Deliverystatus": "Delivery",
    "divisionname": "Chhindwara",
    "regionname": "Bhopal HQ",
    "circlename": "Madhya Pradesh",
    "Taluk": "Multai",
    "Districtname": "Betul",
    "statename": "MADHYA PRADESH"
  },
  {
    "pincode": "460661",
    "officename": "Morkha B.O",
    "officeType": "B.O",
    "Deliverystatus": "Delivery",
    "divisionname": "Chhindwara",
    "regionname": "Bhopal HQ",
    "circlename": "Madhya Pradesh",
    "Taluk": "Amla",
    "Districtname": "Betul",
    "statename": "MADHYA PRADESH"
  },
  {
    "pincode": "460661",
    "officename": "Multai Bazaar S.O",
    "officeType": "S.O",
    "Deliverystatus": "Non-Delivery",
    "divisionname": "Chhindwara",
    "regionname": "Bhopal HQ",
    "circlename": "Madhya Pradesh",
    "Taluk": "Multai",
    "Districtname": "Betul",
    "statename": "MADHYA PRADESH"
  },
  {
    "pincode": "460661",
    "officename": "Multai S.O",
    "officeType": "S.O",
    "Deliverystatus": "Delivery",
    "divisionname": "Chhindwara",
    "regionname": "Bhopal HQ",
    "circlename": "Madhya Pradesh",
    "Taluk": "Multai",
    "Districtname": "Betul",
    "statename": "MADHYA PRADESH"
  },
  {
    "pincode": "460661",
    "officename": "Narkhed B.O",
    "officeType": "B.O",
    "Deliverystatus": "Delivery",
    "divisionname": "Chhindwara",
    "regionname": "Bhopal HQ",
    "circlename": "Madhya Pradesh",
    "Taluk": "Multai",
    "Districtname": "Betul",
    "statename": "MADHYA PRADESH"
  },
  {
    "pincode": "460661",
    "officename": "Paradsinga B.O",
    "officeType": "B.O",
    "Deliverystatus": "Delivery",
    "divisionname": "Chhindwara",
    "regionname": "Bhopal HQ",
    "circlename": "Madhya Pradesh",
    "Taluk": "Multai",
    "Districtname": "Betul",
    "statename": "MADHYA PRADESH"
  },
  {
    "pincode": "460661",
    "officename": "Parmandal B.O",
    "officeType": "B.O",
    "Deliverystatus": "Delivery",
    "divisionname": "Chhindwara",
    "regionname": "Bhopal HQ",
    "circlename": "Madhya Pradesh",
    "Taluk": "Multai",
    "Districtname": "Betul",
    "statename": "MADHYA PRADESH"
  },
  {
    "pincode": "460661",
    "officename": "Sandia B.O",
    "officeType": "B.O",
    "Deliverystatus": "Delivery",
    "divisionname": "Chhindwara",
    "regionname": "Bhopal HQ",
    "circlename": "Madhya Pradesh",
    "Taluk": "Multai",
    "Districtname": "Betul",
    "statename": "MADHYA PRADESH"
  },
  {
    "pincode": "460661",
    "officename": "Sarra B.O",
    "officeType": "B.O",
    "Deliverystatus": "Delivery",
    "divisionname": "Chhindwara",
    "regionname": "Bhopal HQ",
    "circlename": "Madhya Pradesh",
    "Taluk": "Multai",
    "Districtname": "Betul",
    "statename": "MADHYA PRADESH"
  },
  {
    "pincode": "460661",
    "officename": "Sonegaon B.O",
    "officeType": "B.O",
    "Deliverystatus": "Delivery",
    "divisionname": "Chhindwara",
    "regionname": "Bhopal HQ",
    "circlename": "Madhya Pradesh",
    "Taluk": "Multai",
    "Districtname": "Betul",
    "statename": "MADHYA PRADESH"
  },
  {
    "pincode": "460661",
    "officename": "Sonora B.O",
    "officeType": "B.O",
    "Deliverystatus": "Delivery",
    "divisionname": "Chhindwara",
    "regionname": "Bhopal HQ",
    "circlename": "Madhya Pradesh",
    "Taluk": "Multai",
    "Districtname": "Betul",
    "statename": "MADHYA PRADESH"
  },
  {
    "pincode": "460661",
    "officename": "Yenus B.O",
    "officeType": "B.O",
    "Deliverystatus": "Delivery",
    "divisionname": "Chhindwara",
    "regionname": "Bhopal HQ",
    "circlename": "Madhya Pradesh",
    "Taluk": "Multai",
    "Districtname": "Betul",
    "statename": "MADHYA PRADESH"
  }
]
