[
  {
    "pincode": "461001",
    "officename": "Baikhedi B.O",
    "officeType": "B.O",
    "Deliverystatus": "Delivery",
    "divisionname": "Hoshangabad",
    "regionname": "Bhopal HQ",
    "circlename": "Madhya Pradesh",
    "Taluk": "Hoshangabad",
    "Districtname": "Hoshangabad",
    "statename": "MADHYA PRADESH"
  },
  {
    "pincode": "461001",
    "officename": "Chaplasar B.O",
    "officeType": "B.O",
    "Deliverystatus": "Delivery",
    "divisionname": "Hoshangabad",
    "regionname": "Bhopal HQ",
    "circlename": "Madhya Pradesh",
    "Taluk": "",
    "Districtname": "Hoshangabad",
    "statename": "MADHYA PRADESH"
  },
  {
    "pincode": "461001",
    "officename": "Goura B.O",
    "officeType": "B.O",
    "Deliverystatus": "Delivery",
    "divisionname": "Hoshangabad",
    "regionname": "Bhopal HQ",
    "circlename": "Madhya Pradesh",
    "Taluk": "",
    "Districtname": "Hoshangabad",
    "statename": "MADHYA PRADESH"
  },
  {
    "pincode": "461001",
    "officename": "Gunora B.O",
    "officeType": "B.O",
    "Deliverystatus": "Delivery",
    "divisionname": "Hoshangabad",
    "regionname": "Bhopal HQ",
    "circlename": "Madhya Pradesh",
    "Taluk": "",
    "Districtname": "Hoshangabad",
    "statename": "MADHYA PRADESH"
  },
  {
    "pincode": "461001",
    "officename": "Hasalpur B.O",
    "officeType": "B.O",
    "Deliverystatus": "Delivery",
    "divisionname": "Hoshangabad",
    "regionname": "Bhopal HQ",
    "circlename": "Madhya Pradesh",
    "Taluk": "",
    "Districtname": "Hoshangabad",
    "statename": "MADHYA PRADESH"
  },
  {
    "pincode": "461001",
    "officename": "Hoshangabad City S.O",
    "officeType": "S.O",
    "Deliverystatus": "Non-Delivery",
    "divisionname": "Hoshangabad",
    "regionname": "Bhopal HQ",
    "circlename": "Madhya Pradesh",
    "Taluk": "Hoshangabad",
    "Districtname": "Hoshangabad",
    "statename": "MADHYA PRADESH"
  },
  {
    "pincode": "461001",
    "officename": "Hoshangabad H.O",
    "officeType": "H.O",
    "Deliverystatus": "Delivery",
    "divisionname": "Hoshangabad",
    "regionname": "Bhopal HQ",
    "circlename": "Madhya Pradesh",
    "Taluk": "Hoshangabad",
    "Districtname": "Hoshangabad",
    "statename": "MADHYA PRADESH"
  },
  {
    "pincode": "461001",
    "officename": "Jasalapur B.O",
    "officeType": "B.O",
    "Deliverystatus": "Delivery",
    "divisionname": "Hoshangabad",
    "regionname": "Bhopal HQ",
    "circlename": "Madhya Pradesh",
    "Taluk": "",
    "Districtname": "Hoshangabad",
    "statename": "MADHYA PRADESH"
  },
  {
    "pincode": "461001",
    "officename": "Magrol B.O",
    "officeType": "B.O",
    "Deliverystatus": "Delivery",
    "divisionname": "Hoshangabad",
    "regionname": "Bhopal HQ",
    "circlename": "Madhya Pradesh",
    "Taluk": "",
    "Districtname": "Hoshangabad",
    "statename": "MADHYA PRADESH"
  },
  {
    "pincode": "461001",
    "officename": "N.S.Hoshangabad B.O",
    "officeType": "B.O",
    "Deliverystatus": "Delivery",
    "divisionname": "Hoshangabad",
    "regionname": "Bhopal HQ",
    "circlename": "Madhya Pradesh",
    "Taluk": "Hoshangabad",
    "Districtname": "Hoshangabad",
    "statename": "MADHYA PRADESH"
  },
  {
    "pincode": "461001",
    "officename": "Nimsadia B.O",
    "officeType": "B.O",
    "Deliverystatus": "Delivery",
    "divisionname": "Hoshangabad",
    "regionname": "Bhopal HQ",
    "circlename": "Madhya Pradesh",
    "Taluk": "",
    "Districtname": "Hoshangabad",
    "statename": "MADHYA PRADESH"
  },
  {
    "pincode": "461001",
    "officename": "Panjara Kala B.O",
    "officeType": "B.O",
    "Deliverystatus": "Delivery",
    "divisionname": "Hoshangabad",
    "regionname": "Bhopal HQ",
    "circlename": "Madhya Pradesh",
    "Taluk": "",
    "Districtname": "Hoshangabad",
    "statename": "MADHYA PRADESH"
  },
  {
    "pincode": "461001",
    "officename": "Raipur B.O",
    "officeType": "B.O",
    "Deliverystatus": "Delivery",
    "divisionname": "Hoshangabad",
    "regionname": "Bhopal HQ",
    "circlename": "Madhya Pradesh",
    "Taluk": "",
    "Districtname": "Hoshangabad",
    "statename": "MADHYA PRADESH"
  },
  {
    "pincode": "461001",
    "officename": "Rohna B.O",
    "officeType": "B.O",
    "Deliverystatus": "Delivery",
    "divisionname": "Hoshangabad",
    "regionname": "Bhopal HQ",
    "circlename": "Madhya Pradesh",
    "Taluk": "Hoshangabad",
    "Districtname": "Hoshangabad",
    "statename": "MADHYA PRADESH"
  },
  {
    "pincode": "461001",
    "officename": "Sangakheda Kala B.O",
    "officeType": "B.O",
    "Deliverystatus": "Delivery",
    "divisionname": "Hoshangabad",
    "regionname": "Bhopal HQ",
    "circlename": "Madhya Pradesh",
    "Taluk": "Babai",
    "Districtname": "Hoshangabad",
    "statename": "MADHYA PRADESH"
  },
  {
    "pincode": "461001",
    "officename": "Sawalkheda B.O",
    "officeType": "B.O",
    "Deliverystatus": "Delivery",
    "divisionname": "Hoshangabad",
    "regionname": "Bhopal HQ",
    "circlename": "Madhya Pradesh",
    "Taluk": "",
    "Districtname": "Hoshangabad",
    "statename": "MADHYA PRADESH"
  },
  {
    "pincode": "461001",
    "officename": "Shukkarwara B.O",
    "officeType": "B.O",
    "Deliverystatus": "Delivery",
    "divisionname": "Hoshangabad",
    "regionname": "Bhopal HQ",
    "circlename": "Madhya Pradesh",
    "Taluk": "",
    "Districtname": "Hoshangabad",
    "statename": "MADHYA PRADESH"
  }
]
