[
  {
    "pincode": "461111",
    "officename": "Bagda Tawa B.O",
    "officeType": "B.O",
    "Deliverystatus": "Delivery",
    "divisionname": "Hoshangabad",
    "regionname": "Bhopal HQ",
    "circlename": "Madhya Pradesh",
    "Taluk": "Itarsi",
    "Districtname": "Hoshangabad",
    "statename": "MADHYA PRADESH"
  },
  {
    "pincode": "461111",
    "officename": "Bichuwa B.O",
    "officeType": "B.O",
    "Deliverystatus": "Delivery",
    "divisionname": "Hoshangabad",
    "regionname": "Bhopal HQ",
    "circlename": "Madhya Pradesh",
    "Taluk": "",
    "Districtname": "Hoshangabad",
    "statename": "MADHYA PRADESH"
  },
  {
    "pincode": "461111",
    "officename": "Chandon B.O",
    "officeType": "B.O",
    "Deliverystatus": "Delivery",
    "divisionname": "Hoshangabad",
    "regionname": "Bhopal HQ",
    "circlename": "Madhya Pradesh",
    "Taluk": "",
    "Districtname": "Hoshangabad",
    "statename": "MADHYA PRADESH"
  },
  {
    "pincode": "461111",
    "officename": "Dabri B.O",
    "officeType": "B.O",
    "Deliverystatus": "Delivery",
    "divisionname": "Hoshangabad",
    "regionname": "Bhopal HQ",
    "circlename": "Madhya Pradesh",
    "Taluk": "Shahpur",
    "Districtname": "Betul",
    "statename": "MADHYA PRADESH"
  },
  {
    "pincode": "461111",
    "officename": "Dandiwada B.O",
    "officeType": "B.O",
    "Deliverystatus": "Delivery",
    "divisionname": "Hoshangabad",
    "regionname": "Bhopal HQ",
    "circlename": "Madhya Pradesh",
    "Taluk": "Itarsi",
    "Districtname": "Hoshangabad",
    "statename": "MADHYA PRADESH"
  },
  {
    "pincode": "461111",
    "officename": "Dodhra Mardu B.O",
    "officeType": "B.O",
    "Deliverystatus": "Delivery",
    "divisionname": "Hoshangabad",
    "regionname": "Bhopal HQ",
    "circlename": "Madhya Pradesh",
    "Taluk": "Shahpur",
    "Districtname": "Betul",
    "statename": "MADHYA PRADESH"
  },
  {
    "pincode": "461111",
    "officename": "Gajpur B.O",
    "officeType": "B.O",
    "Deliverystatus": "Delivery",
    "divisionname": "Hoshangabad",
    "regionname": "Bhopal HQ",
    "circlename": "Madhya Pradesh",
    "Taluk": "",
    "Districtname": "Hoshangabad",
    "statename": "MADHYA PRADESH"
  },
  {
    "pincode": "461111",
    "officename": "Ghatli B.O",
    "officeType": "B.O",
    "Deliverystatus": "Delivery",
    "divisionname": "Hoshangabad",
    "regionname": "Bhopal HQ",
    "circlename": "Madhya Pradesh",
    "Taluk": "",
    "Districtname": "Hoshangabad",
    "statename": "MADHYA PRADESH"
  },
  {
    "pincode": "461111",
    "officename": "Gurra B.O",
    "officeType": "B.O",
    "Deliverystatus": "Delivery",
    "divisionname": "Hoshangabad",
    "regionname": "Bhopal HQ",
    "circlename": "Madhya Pradesh",
    "Taluk": "",
    "Districtname": "Hoshangabad",
    "statename": "MADHYA PRADESH"
  },
  {
    "pincode": "461111",
    "officename": "Itarsi S.O",
    "officeType": "S.O",
    "Deliverystatus": "Delivery",
    "divisionname": "Hoshangabad",
    "regionname": "Bhopal HQ",
    "circlename": "Madhya Pradesh",
    "Taluk": "Itarsi",
    "Districtname": "Hoshangabad",
    "statename": "MADHYA PRADESH"
  },
  {
    "pincode": "461111",
    "officename": "Jujharpur B.O",
    "officeType": "B.O",
    "Deliverystatus": "Delivery",
    "divisionname": "Hoshangabad",
    "regionname": "Bhopal HQ",
    "circlename": "Madhya Pradesh",
    "Taluk": "",
    "Districtname": "Hoshangabad",
    "statename": "MADHYA PRADESH"
  },
  {
    "pincode": "461111",
    "officename": "Kala Akhar B.O",
    "officeType": "B.O",
    "Deliverystatus": "Delivery",
    "divisionname": "Hoshangabad",
    "regionname": "Bhopal HQ",
    "circlename": "Madhya Pradesh",
    "Taluk": "",
    "Districtname": "Hoshangabad",
    "statename": "MADHYA PRADESH"
  },
  {
    "pincode": "461111",
    "officename": "Kesla B.O",
    "officeType": "B.O",
    "Deliverystatus": "Delivery",
    "divisionname": "Hoshangabad",
    "regionname": "Bhopal HQ",
    "circlename": "Madhya Pradesh",
    "Taluk": "",
    "Districtname": "Hoshangabad",
    "statename": "MADHYA PRADESH"
  },
  {
    "pincode": "461111",
    "officename": "Kheda B.O",
    "officeType": "B.O",
    "Deliverystatus": "Delivery",
    "divisionname": "Hoshangabad",
    "regionname": "Bhopal HQ",
    "circlename": "Madhya Pradesh",
    "Taluk": "Timarni",
    "Districtname": "Harda",
    "statename": "MADHYA PRADESH"
  },
  {
    "pincode": "461111",
    "officename": "Luharia B.O",
    "officeType": "B.O",
    "Deliverystatus": "Delivery",
    "divisionname": "Hoshangabad",
    "regionname": "Bhopal HQ",
    "circlename": "Madhya Pradesh",
    "Taluk": "",
    "Districtname": "Hoshangabad",
    "statename": "MADHYA PRADESH"
  },
  {
    "pincode": "461111",
    "officename": "Managaon B.O",
    "officeType": "B.O",
    "Deliverystatus": "Delivery",
    "divisionname": "Hoshangabad",
    "regionname": "Bhopal HQ",
    "circlename": "Madhya Pradesh",
    "Taluk": "",
    "Districtname": "Hoshangabad",
    "statename": "MADHYA PRADESH"
  },
  {
    "pincode": "461111",
    "officename": "PB Itarsi S.O",
    "officeType": "S.O",
    "Deliverystatus": "Non-Delivery",
    "divisionname": "Hoshangabad",
    "regionname": "Bhopal HQ",
    "circlename": "Madhya Pradesh",
    "Taluk": "Itarsi",
    "Districtname": "Hoshangabad",
    "statename": "MADHYA PRADESH"
  },
  {
    "pincode": "461111",
    "officename": "PRtaku B.O",
    "officeType": "B.O",
    "Deliverystatus": "Delivery",
    "divisionname": "Hoshangabad",
    "regionname": "Bhopal HQ",
    "circlename": "Madhya Pradesh",
    "Taluk": "Itarsi",
    "Districtname": "Hoshangabad",
    "statename": "MADHYA PRADESH"
  },
  {
    "pincode": "461111",
    "officename": "Pathrota B.O",
    "officeType": "B.O",
    "Deliverystatus": "Delivery",
    "divisionname": "Hoshangabad",
    "regionname": "Bhopal HQ",
    "circlename": "Madhya Pradesh",
    "Taluk": "",
    "Districtname": "Hoshangabad",
    "statename": "MADHYA PRADESH"
  },
  {
    "pincode": "461111",
    "officename": "Rampur B.O",
    "officeType": "B.O",
    "Deliverystatus": "Delivery",
    "divisionname": "Hoshangabad",
    "regionname": "Bhopal HQ",
    "circlename": "Madhya Pradesh",
    "Taluk": "",
    "Districtname": "Hoshangabad",
    "statename": "MADHYA PRADESH"
  },
  {
    "pincode": "461111",
    "officename": "Sadhpura B.O",
    "officeType": "B.O",
    "Deliverystatus": "Delivery",
    "divisionname": "Hoshangabad",
    "regionname": "Bhopal HQ",
    "circlename": "Madhya Pradesh",
    "Taluk": "",
    "Districtname": "Hoshangabad",
    "statename": "MADHYA PRADESH"
  },
  {
    "pincode": "461111",
    "officename": "Saheli B.O",
    "officeType": "B.O",
    "Deliverystatus": "Delivery",
    "divisionname": "Hoshangabad",
    "regionname": "Bhopal HQ",
    "circlename": "Madhya Pradesh",
    "Taluk": "",
    "Districtname": "Hoshangabad",
    "statename": "MADHYA PRADESH"
  },
  {
    "pincode": "461111",
    "officename": "Saket B.O",
    "officeType": "B.O",
    "Deliverystatus": "Delivery",
    "divisionname": "Hoshangabad",
    "regionname": "Bhopal HQ",
    "circlename": "Madhya Pradesh",
    "Taluk": "",
    "Districtname": "Hoshangabad",
    "statename": "MADHYA PRADESH"
  },
  {
    "pincode": "461111",
    "officename": "Sankheda B.O",
    "officeType": "B.O",
    "Deliverystatus": "Delivery",
    "divisionname": "Hoshangabad",
    "regionname": "Bhopal HQ",
    "circlename": "Madhya Pradesh",
    "Taluk": "",
    "Districtname": "Hoshangabad",
    "statename": "MADHYA PRADESH"
  },
  {
    "pincode": "461111",
    "officename": "Silwani B.O",
    "officeType": "B.O",
    "Deliverystatus": "Delivery",
    "divisionname": "Hoshangabad",
    "regionname": "Bhopal HQ",
    "circlename": "Madhya Pradesh",
    "Taluk": "",
    "Districtname": "Hoshangabad",
    "statename": "MADHYA PRADESH"
  },
  {
    "pincode": "461111",
    "officename": "Son Talai B.O",
    "officeType": "B.O",
    "Deliverystatus": "Delivery",
    "divisionname": "Hoshangabad",
    "regionname": "Bhopal HQ",
    "circlename": "Madhya Pradesh",
    "Taluk": "",
    "Districtname": "Hoshangabad",
    "statename": "MADHYA PRADESH"
  },
  {
    "pincode": "461111",
    "officename": "Sukhtawa B.O",
    "officeType": "B.O",
    "Deliverystatus": "Delivery",
    "divisionname": "Hoshangabad",
    "regionname": "Bhopal HQ",
    "circlename": "Madhya Pradesh",
    "Taluk": "Itarsi",
    "Districtname": "Hoshangabad",
    "statename": "MADHYA PRADESH"
  },
  {
    "pincode": "461111",
    "officename": "Surajganj Itarsi S.O",
    "officeType": "S.O",
    "Deliverystatus": "Non-Delivery",
    "divisionname": "Hoshangabad",
    "regionname": "Bhopal HQ",
    "circlename": "Madhya Pradesh",
    "Taluk": "Itarsi",
    "Districtname": "Hoshangabad",
    "statename": "MADHYA PRADESH"
  },
  {
    "pincode": "461111",
    "officename": "Taku B.O",
    "officeType": "B.O",
    "Deliverystatus": "Delivery",
    "divisionname": "Hoshangabad",
    "regionname": "Bhopal HQ",
    "circlename": "Madhya Pradesh",
    "Taluk": "",
    "Districtname": "Hoshangabad",
    "statename": "MADHYA PRADESH"
  }
]
