[
  {
    "pincode": "461115",
    "officename": "Bhatti B.O",
    "officeType": "B.O",
    "Deliverystatus": "Delivery",
    "divisionname": "Hoshangabad",
    "regionname": "Bhopal HQ",
    "circlename": "Madhya Pradesh",
    "Taluk": "",
    "Districtname": "Hoshangabad",
    "statename": "MADHYA PRADESH"
  },
  {
    "pincode": "461115",
    "officename": "Bhilakhedi B.O",
    "officeType": "B.O",
    "Deliverystatus": "Delivery",
    "divisionname": "Hoshangabad",
    "regionname": "Bhopal HQ",
    "circlename": "Madhya Pradesh",
    "Taluk": "",
    "Districtname": "Hoshangabad",
    "statename": "MADHYA PRADESH"
  },
  {
    "pincode": "461115",
    "officename": "Jamani B.O",
    "officeType": "B.O",
    "Deliverystatus": "Delivery",
    "divisionname": "Hoshangabad",
    "regionname": "Bhopal HQ",
    "circlename": "Madhya Pradesh",
    "Taluk": "",
    "Districtname": "Hoshangabad",
    "statename": "MADHYA PRADESH"
  },
  {
    "pincode": "461115",
    "officename": "Malothar B.O",
    "officeType": "B.O",
    "Deliverystatus": "Delivery",
    "divisionname": "Hoshangabad",
    "regionname": "Bhopal HQ",
    "circlename": "Madhya Pradesh",
    "Taluk": "",
    "Districtname": "Hoshangabad",
    "statename": "MADHYA PRADESH"
  },
  {
    "pincode": "461115",
    "officename": "Mehragaon B.O",
    "officeType": "B.O",
    "Deliverystatus": "Delivery",
    "divisionname": "Hoshangabad",
    "regionname": "Bhopal HQ",
    "circlename": "Madhya Pradesh",
    "Taluk": "Itarsi",
    "Districtname": "Hoshangabad",
    "statename": "MADHYA PRADESH"
  },
  {
    "pincode": "461115",
    "officename": "NYC Itarsi S.O",
    "officeType": "S.O",
    "Deliverystatus": "Delivery",
    "divisionname": "Hoshangabad",
    "regionname": "Bhopal HQ",
    "circlename": "Madhya Pradesh",
    "Taluk": "Itarsi",
    "Districtname": "Hoshangabad",
    "statename": "MADHYA PRADESH"
  },
  {
    "pincode": "461115",
    "officename": "Tangna B.O",
    "officeType": "B.O",
    "Deliverystatus": "Delivery",
    "divisionname": "Hoshangabad",
    "regionname": "Bhopal HQ",
    "circlename": "Madhya Pradesh",
    "Taluk": "",
    "Districtname": "Hoshangabad",
    "statename": "MADHYA PRADESH"
  },
  {
    "pincode": "461115",
    "officename": "Teekhard B.O",
    "officeType": "B.O",
    "Deliverystatus": "Delivery",
    "divisionname": "Hoshangabad",
    "regionname": "Bhopal HQ",
    "circlename": "Madhya Pradesh",
    "Taluk": "",
    "Districtname": "Hoshangabad",
    "statename": "MADHYA PRADESH"
  }
]
