[
  {
    "pincode": "461221",
    "officename": "Babri B.O",
    "officeType": "B.O",
    "Deliverystatus": "Delivery",
    "divisionname": "Hoshangabad",
    "regionname": "Bhopal HQ",
    "circlename": "Madhya Pradesh",
    "Taluk": "",
    "Districtname": "Hoshangabad",
    "statename": "MADHYA PRADESH"
  },
  {
    "pincode": "461221",
    "officename": "Baghwara B.O",
    "officeType": "B.O",
    "Deliverystatus": "Delivery",
    "divisionname": "Hoshangabad",
    "regionname": "Bhopal HQ",
    "circlename": "Madhya Pradesh",
    "Taluk": "",
    "Districtname": "Hoshangabad",
    "statename": "MADHYA PRADESH"
  },
  {
    "pincode": "461221",
    "officename": "Banapura S.O",
    "officeType": "S.O",
    "Deliverystatus": "Delivery",
    "divisionname": "Hoshangabad",
    "regionname": "Bhopal HQ",
    "circlename": "Madhya Pradesh",
    "Taluk": "Seoni Malwa",
    "Districtname": "Hoshangabad",
    "statename": "MADHYA PRADESH"
  },
  {
    "pincode": "461221",
    "officename": "Bhamedi Dev B.O",
    "officeType": "B.O",
    "Deliverystatus": "Delivery",
    "divisionname": "Hoshangabad",
    "regionname": "Bhopal HQ",
    "circlename": "Madhya Pradesh",
    "Taluk": "",
    "Districtname": "Hoshangabad",
    "statename": "MADHYA PRADESH"
  },
  {
    "pincode": "461221",
    "officename": "Bhiladia B.O",
    "officeType": "B.O",
    "Deliverystatus": "Delivery",
    "divisionname": "Hoshangabad",
    "regionname": "Bhopal HQ",
    "circlename": "Madhya Pradesh",
    "Taluk": "",
    "Districtname": "Hoshangabad",
    "statename": "MADHYA PRADESH"
  },
  {
    "pincode": "461221",
    "officename": "Chatarkheda B.O",
    "officeType": "B.O",
    "Deliverystatus": "Delivery",
    "divisionname": "Hoshangabad",
    "regionname": "Bhopal HQ",
    "circlename": "Madhya Pradesh",
    "Taluk": "",
    "Districtname": "Hoshangabad",
    "statename": "MADHYA PRADESH"
  },
  {
    "pincode": "461221",
    "officename": "Chotlay B.O",
    "officeType": "B.O",
    "Deliverystatus": "Delivery",
    "divisionname": "Hoshangabad",
    "regionname": "Bhopal HQ",
    "circlename": "Madhya Pradesh",
    "Taluk": "",
    "Districtname": "Hoshangabad",
    "statename": "MADHYA PRADESH"
  },
  {
    "pincode": "461221",
    "officename": "Datwasa B.O",
    "officeType": "B.O",
    "Deliverystatus": "Delivery",
    "divisionname": "Hoshangabad",
    "regionname": "Bhopal HQ",
    "circlename": "Madhya Pradesh",
    "Taluk": "",
    "Districtname": "Hoshangabad",
    "statename": "MADHYA PRADESH"
  },
  {
    "pincode": "461221",
    "officename": "Hirankheda B.O",
    "officeType": "B.O",
    "Deliverystatus": "Delivery",
    "divisionname": "Hoshangabad",
    "regionname": "Bhopal HQ",
    "circlename": "Madhya Pradesh",
    "Taluk": "",
    "Districtname": "Hoshangabad",
    "statename": "MADHYA PRADESH"
  },
  {
    "pincode": "461221",
    "officename": "Khapriya B.O",
    "officeType": "B.O",
    "Deliverystatus": "Delivery",
    "divisionname": "Hoshangabad",
    "regionname": "Bhopal HQ",
    "circlename": "Madhya Pradesh",
    "Taluk": "",
    "Districtname": "Hoshangabad",
    "statename": "MADHYA PRADESH"
  },
  {
    "pincode": "461221",
    "officename": "Lodhdi B.O",
    "officeType": "B.O",
    "Deliverystatus": "Delivery",
    "divisionname": "Hoshangabad",
    "regionname": "Bhopal HQ",
    "circlename": "Madhya Pradesh",
    "Taluk": "",
    "Districtname": "Hoshangabad",
    "statename": "MADHYA PRADESH"
  },
  {
    "pincode": "461221",
    "officename": "Pathada B.O",
    "officeType": "B.O",
    "Deliverystatus": "Delivery",
    "divisionname": "Hoshangabad",
    "regionname": "Bhopal HQ",
    "circlename": "Madhya Pradesh",
    "Taluk": "",
    "Districtname": "Hoshangabad",
    "statename": "MADHYA PRADESH"
  },
  {
    "pincode": "461221",
    "officename": "Rehda B.O",
    "officeType": "B.O",
    "Deliverystatus": "Delivery",
    "divisionname": "Hoshangabad",
    "regionname": "Bhopal HQ",
    "circlename": "Madhya Pradesh",
    "Taluk": "",
    "Districtname": "Hoshangabad",
    "statename": "MADHYA PRADESH"
  },
  {
    "pincode": "461221",
    "officename": "Satwasa B.O",
    "officeType": "B.O",
    "Deliverystatus": "Delivery",
    "divisionname": "Hoshangabad",
    "regionname": "Bhopal HQ",
    "circlename": "Madhya Pradesh",
    "Taluk": "",
    "Districtname": "Hoshangabad",
    "statename": "MADHYA PRADESH"
  },
  {
    "pincode": "461221",
    "officename": "Somalwada B.O",
    "officeType": "B.O",
    "Deliverystatus": "Delivery",
    "divisionname": "Hoshangabad",
    "regionname": "Bhopal HQ",
    "circlename": "Madhya Pradesh",
    "Taluk": "",
    "Districtname": "Hoshangabad",
    "statename": "MADHYA PRADESH"
  },
  {
    "pincode": "461221",
    "officename": "Tili Awnali B.O",
    "officeType": "B.O",
    "Deliverystatus": "Delivery",
    "divisionname": "Hoshangabad",
    "regionname": "Bhopal HQ",
    "circlename": "Madhya Pradesh",
    "Taluk": "",
    "Districtname": "Hoshangabad",
    "statename": "MADHYA PRADESH"
  }
]
