[
  {
    "pincode": "461771",
    "officename": "Bankhedi Reva B.O",
    "officeType": "B.O",
    "Deliverystatus": "Delivery",
    "divisionname": "Hoshangabad",
    "regionname": "Bhopal HQ",
    "circlename": "Madhya Pradesh",
    "Taluk": "",
    "Districtname": "Hoshangabad",
    "statename": "MADHYA PRADESH"
  },
  {
    "pincode": "461771",
    "officename": "Bhatgaon B.O",
    "officeType": "B.O",
    "Deliverystatus": "Delivery",
    "divisionname": "Hoshangabad",
    "regionname": "Bhopal HQ",
    "circlename": "Madhya Pradesh",
    "Taluk": "",
    "Districtname": "Hoshangabad",
    "statename": "MADHYA PRADESH"
  },
  {
    "pincode": "461771",
    "officename": "Bhokhedi Kala B.O",
    "officeType": "B.O",
    "Deliverystatus": "Delivery",
    "divisionname": "Hoshangabad",
    "regionname": "Bhopal HQ",
    "circlename": "Madhya Pradesh",
    "Taluk": "",
    "Districtname": "Hoshangabad",
    "statename": "MADHYA PRADESH"
  },
  {
    "pincode": "461771",
    "officename": "Dhikwada B.O",
    "officeType": "B.O",
    "Deliverystatus": "Delivery",
    "divisionname": "Hoshangabad",
    "regionname": "Bhopal HQ",
    "circlename": "Madhya Pradesh",
    "Taluk": "",
    "Districtname": "Hoshangabad",
    "statename": "MADHYA PRADESH"
  },
  {
    "pincode": "461771",
    "officename": "Kalmeshra B.O",
    "officeType": "B.O",
    "Deliverystatus": "Delivery",
    "divisionname": "Hoshangabad",
    "regionname": "Bhopal HQ",
    "circlename": "Madhya Pradesh",
    "Taluk": "",
    "Districtname": "Hoshangabad",
    "statename": "MADHYA PRADESH"
  },
  {
    "pincode": "461771",
    "officename": "Kamtee B.O",
    "officeType": "B.O",
    "Deliverystatus": "Delivery",
    "divisionname": "Hoshangabad",
    "regionname": "Bhopal HQ",
    "circlename": "Madhya Pradesh",
    "Taluk": "Sohagpur",
    "Districtname": "Hoshangabad",
    "statename": "MADHYA PRADESH"
  },
  {
    "pincode": "461771",
    "officename": "Niwari B.O",
    "officeType": "B.O",
    "Deliverystatus": "Delivery",
    "divisionname": "Hoshangabad",
    "regionname": "Bhopal HQ",
    "circlename": "Madhya Pradesh",
    "Taluk": "Sohagpur",
    "Districtname": "Narsinghpur",
    "statename": "MADHYA PRADESH"
  },
  {
    "pincode": "461771",
    "officename": "Shobhapur B.O",
    "officeType": "B.O",
    "Deliverystatus": "Delivery",
    "divisionname": "Hoshangabad",
    "regionname": "Bhopal HQ",
    "circlename": "Madhya Pradesh",
    "Taluk": "Sohagpur",
    "Districtname": "Hoshangabad",
    "statename": "MADHYA PRADESH"
  },
  {
    "pincode": "461771",
    "officename": "Sohagpur R.S. S.O",
    "officeType": "S.O",
    "Deliverystatus": "Delivery",
    "divisionname": "Hoshangabad",
    "regionname": "Bhopal HQ",
    "circlename": "Madhya Pradesh",
    "Taluk": "Sohagpur",
    "Districtname": "Hoshangabad",
    "statename": "MADHYA PRADESH"
  }
]
