[
  {
    "pincode": "462001",
    "officename": "Bazaria Shahajahanabad S.O",
    "officeType": "S.O",
    "Deliverystatus": "Non-Delivery",
    "divisionname": "Bhopal",
    "regionname": "Bhopal HQ",
    "circlename": "Madhya Pradesh",
    "Taluk": "Huzur",
    "Districtname": "Bhopal",
    "statename": "MADHYA PRADESH"
  },
  {
    "pincode": "462001",
    "officename": "Berasia Road S.O",
    "officeType": "S.O",
    "Deliverystatus": "Non-Delivery",
    "divisionname": "Bhopal",
    "regionname": "Bhopal HQ",
    "circlename": "Madhya Pradesh",
    "Taluk": "Huzur",
    "Districtname": "Bhopal",
    "statename": "MADHYA PRADESH"
  },
  {
    "pincode": "462001",
    "officename": "Bhopal G.P.O.",
    "officeType": "H.O",
    "Deliverystatus": "Delivery",
    "divisionname": "Bhopal",
    "regionname": "Bhopal HQ",
    "circlename": "Madhya Pradesh",
    "Taluk": "Huzur",
    "Districtname": "Bhopal",
    "statename": "MADHYA PRADESH"
  },
  {
    "pincode": "462001",
    "officename": "Chhola Road S.O",
    "officeType": "S.O",
    "Deliverystatus": "Non-Delivery",
    "divisionname": "Bhopal",
    "regionname": "Bhopal HQ",
    "circlename": "Madhya Pradesh",
    "Taluk": "Huzur",
    "Districtname": "Bhopal",
    "statename": "MADHYA PRADESH"
  },
  {
    "pincode": "462001",
    "officename": "Chouk S.O",
    "officeType": "S.O",
    "Deliverystatus": "Non-Delivery",
    "divisionname": "Bhopal",
    "regionname": "Bhopal HQ",
    "circlename": "Madhya Pradesh",
    "Taluk": "Huzur",
    "Districtname": "Bhopal",
    "statename": "MADHYA PRADESH"
  },
  {
    "pincode": "462001",
    "officename": "Gandhi Medical College S.O",
    "officeType": "S.O",
    "Deliverystatus": "Non-Delivery",
    "divisionname": "Bhopal",
    "regionname": "Bhopal HQ",
    "circlename": "Madhya Pradesh",
    "Taluk": "Huzur",
    "Districtname": "Bhopal",
    "statename": "MADHYA PRADESH"
  },
  {
    "pincode": "462001",
    "officename": "Hamidia Road S.O",
    "officeType": "S.O",
    "Deliverystatus": "Non-Delivery",
    "divisionname": "Bhopal",
    "regionname": "Bhopal HQ",
    "circlename": "Madhya Pradesh",
    "Taluk": "Huzur",
    "Districtname": "Bhopal",
    "statename": "MADHYA PRADESH"
  },
  {
    "pincode": "462001",
    "officename": "Itwara S.O",
    "officeType": "S.O",
    "Deliverystatus": "Non-Delivery",
    "divisionname": "Bhopal",
    "regionname": "Bhopal HQ",
    "circlename": "Madhya Pradesh",
    "Taluk": "Huzur",
    "Districtname": "Bhopal",
    "statename": "MADHYA PRADESH"
  },
  {
    "pincode": "462001",
    "officename": "Jumerati S.O",
    "officeType": "S.O",
    "Deliverystatus": "Non-Delivery",
    "divisionname": "Bhopal",
    "regionname": "Bhopal HQ",
    "circlename": "Madhya Pradesh",
    "Taluk": "Huzur",
    "Districtname": "Bhopal",
    "statename": "MADHYA PRADESH"
  },
  {
    "pincode": "462001",
    "officename": "Old Secretriate S.O",
    "officeType": "S.O",
    "Deliverystatus": "Non-Delivery",
    "divisionname": "Bhopal",
    "regionname": "Bhopal HQ",
    "circlename": "Madhya Pradesh",
    "Taluk": "Huzur",
    "Districtname": "Bhopal",
    "statename": "MADHYA PRADESH"
  },
  {
    "pincode": "462001",
    "officename": "S.I. Line S.O",
    "officeType": "S.O",
    "Deliverystatus": "Non-Delivery",
    "divisionname": "Bhopal",
    "regionname": "Bhopal HQ",
    "circlename": "Madhya Pradesh",
    "Taluk": "Huzur",
    "Districtname": "Bhopal",
    "statename": "MADHYA PRADESH"
  },
  {
    "pincode": "462001",
    "officename": "Shahajahanabad S.O",
    "officeType": "S.O",
    "Deliverystatus": "Non-Delivery",
    "divisionname": "Bhopal",
    "regionname": "Bhopal HQ",
    "circlename": "Madhya Pradesh",
    "Taluk": "Huzur",
    "Districtname": "Bhopal",
    "statename": "MADHYA PRADESH"
  }
]
