[
  {
    "pincode": "463111",
    "officename": "Bawachiya B.O",
    "officeType": "B.O",
    "Deliverystatus": "Delivery",
    "divisionname": "Bhopal",
    "regionname": "Bhopal HQ",
    "circlename": "Madhya Pradesh",
    "Taluk": "Bhopal",
    "Districtname": "Bhopal",
    "statename": "MADHYA PRADESH"
  },
  {
    "pincode": "463111",
    "officename": "Dhaturiya B.O",
    "officeType": "B.O",
    "Deliverystatus": "Delivery",
    "divisionname": "Bhopal",
    "regionname": "Bhopal HQ",
    "circlename": "Madhya Pradesh",
    "Taluk": "Bhopal",
    "Districtname": "Bhopal",
    "statename": "MADHYA PRADESH"
  },
  {
    "pincode": "463111",
    "officename": "Dungariya B.O",
    "officeType": "B.O",
    "Deliverystatus": "Delivery",
    "divisionname": "Bhopal",
    "regionname": "Bhopal HQ",
    "circlename": "Madhya Pradesh",
    "Taluk": "Bhopal",
    "Districtname": "Bhopal",
    "statename": "MADHYA PRADESH"
  },
  {
    "pincode": "463111",
    "officename": "Jamusarkalan B.O",
    "officeType": "B.O",
    "Deliverystatus": "Delivery",
    "divisionname": "Bhopal",
    "regionname": "Bhopal HQ",
    "circlename": "Madhya Pradesh",
    "Taluk": "Bhopal",
    "Districtname": "Bhopal",
    "statename": "MADHYA PRADESH"
  },
  {
    "pincode": "463111",
    "officename": "Kulhoar B.O",
    "officeType": "B.O",
    "Deliverystatus": "Delivery",
    "divisionname": "Bhopal",
    "regionname": "Bhopal HQ",
    "circlename": "Madhya Pradesh",
    "Taluk": "Bhopal",
    "Districtname": "Bhopal",
    "statename": "MADHYA PRADESH"
  },
  {
    "pincode": "463111",
    "officename": "Lalariya S.O",
    "officeType": "S.O",
    "Deliverystatus": "Delivery",
    "divisionname": "Bhopal",
    "regionname": "Bhopal HQ",
    "circlename": "Madhya Pradesh",
    "Taluk": "Bhopal",
    "Districtname": "Bhopal",
    "statename": "MADHYA PRADESH"
  },
  {
    "pincode": "463111",
    "officename": "Meghra Kalan B.O",
    "officeType": "B.O",
    "Deliverystatus": "Delivery",
    "divisionname": "Bhopal",
    "regionname": "Bhopal HQ",
    "circlename": "Madhya Pradesh",
    "Taluk": "Bhopal",
    "Districtname": "Bhopal",
    "statename": "MADHYA PRADESH"
  },
  {
    "pincode": "463111",
    "officename": "Sohaya B.O",
    "officeType": "B.O",
    "Deliverystatus": "Delivery",
    "divisionname": "Bhopal",
    "regionname": "Bhopal HQ",
    "circlename": "Madhya Pradesh",
    "Taluk": "Bhopal",
    "Districtname": "Bhopal",
    "statename": "MADHYA PRADESH"
  }
]
