[
  {
    "pincode": "464001",
    "officename": "Ahmedpur B.O",
    "officeType": "B.O",
    "Deliverystatus": "Delivery",
    "divisionname": "Vidisha",
    "regionname": "Bhopal HQ",
    "circlename": "Madhya Pradesh",
    "Taluk": "",
    "Districtname": "Vidisha",
    "statename": "MADHYA PRADESH"
  },
  {
    "pincode": "464001",
    "officename": "Ambar B.O",
    "officeType": "B.O",
    "Deliverystatus": "Delivery",
    "divisionname": "Vidisha",
    "regionname": "Bhopal HQ",
    "circlename": "Madhya Pradesh",
    "Taluk": "",
    "Districtname": "Vidisha",
    "statename": "MADHYA PRADESH"
  },
  {
    "pincode": "464001",
    "officename": "Atarikhejda B.O",
    "officeType": "B.O",
    "Deliverystatus": "Delivery",
    "divisionname": "Vidisha",
    "regionname": "Bhopal HQ",
    "circlename": "Madhya Pradesh",
    "Taluk": "",
    "Districtname": "Vidisha",
    "statename": "MADHYA PRADESH"
  },
  {
    "pincode": "464001",
    "officename": "Bhadarbadagaon B.O",
    "officeType": "B.O",
    "Deliverystatus": "Delivery",
    "divisionname": "Vidisha",
    "regionname": "Bhopal HQ",
    "circlename": "Madhya Pradesh",
    "Taluk": "",
    "Districtname": "Vidisha",
    "statename": "MADHYA PRADESH"
  },
  {
    "pincode": "464001",
    "officename": "Chirodia B.O",
    "officeType": "B.O",
    "Deliverystatus": "Delivery",
    "divisionname": "Vidisha",
    "regionname": "Bhopal HQ",
    "circlename": "Madhya Pradesh",
    "Taluk": "Vidisha",
    "Districtname": "Vidisha",
    "statename": "MADHYA PRADESH"
  },
  {
    "pincode": "464001",
    "officename": "Hansua B.O",
    "officeType": "B.O",
    "Deliverystatus": "Delivery",
    "divisionname": "Vidisha",
    "regionname": "Bhopal HQ",
    "circlename": "Madhya Pradesh",
    "Taluk": "",
    "Districtname": "Vidisha",
    "statename": "MADHYA PRADESH"
  },
  {
    "pincode": "464001",
    "officename": "Imalia B.O",
    "officeType": "B.O",
    "Deliverystatus": "Delivery",
    "divisionname": "Vidisha",
    "regionname": "Bhopal HQ",
    "circlename": "Madhya Pradesh",
    "Taluk": "",
    "Districtname": "Vidisha",
    "statename": "MADHYA PRADESH"
  },
  {
    "pincode": "464001",
    "officename": "Khari B.O",
    "officeType": "B.O",
    "Deliverystatus": "Delivery",
    "divisionname": "Vidisha",
    "regionname": "Bhopal HQ",
    "circlename": "Madhya Pradesh",
    "Taluk": "",
    "Districtname": "Vidisha",
    "statename": "MADHYA PRADESH"
  },
  {
    "pincode": "464001",
    "officename": "Lashkarpur B.O",
    "officeType": "B.O",
    "Deliverystatus": "Delivery",
    "divisionname": "Vidisha",
    "regionname": "Bhopal HQ",
    "circlename": "Madhya Pradesh",
    "Taluk": "",
    "Districtname": "Vidisha",
    "statename": "MADHYA PRADESH"
  },
  {
    "pincode": "464001",
    "officename": "Mirzapur B.O",
    "officeType": "B.O",
    "Deliverystatus": "Delivery",
    "divisionname": "Vidisha",
    "regionname": "Bhopal HQ",
    "circlename": "Madhya Pradesh",
    "Taluk": "Vidisha",
    "Districtname": "Vidisha",
    "statename": "MADHYA PRADESH"
  },
  {
    "pincode": "464001",
    "officename": "Mohnakhejda B.O",
    "officeType": "B.O",
    "Deliverystatus": "Delivery",
    "divisionname": "Vidisha",
    "regionname": "Bhopal HQ",
    "circlename": "Madhya Pradesh",
    "Taluk": "",
    "Districtname": "Vidisha",
    "statename": "MADHYA PRADESH"
  },
  {
    "pincode": "464001",
    "officename": "Naulas B.O",
    "officeType": "B.O",
    "Deliverystatus": "Delivery",
    "divisionname": "Vidisha",
    "regionname": "Bhopal HQ",
    "circlename": "Madhya Pradesh",
    "Taluk": "",
    "Districtname": "Vidisha",
    "statename": "MADHYA PRADESH"
  },
  {
    "pincode": "464001",
    "officename": "Sehod B.O",
    "officeType": "B.O",
    "Deliverystatus": "Delivery",
    "divisionname": "Vidisha",
    "regionname": "Bhopal HQ",
    "circlename": "Madhya Pradesh",
    "Taluk": "",
    "Districtname": "Vidisha",
    "statename": "MADHYA PRADESH"
  },
  {
    "pincode": "464001",
    "officename": "Simarhar B.O",
    "officeType": "B.O",
    "Deliverystatus": "Delivery",
    "divisionname": "Vidisha",
    "regionname": "Bhopal HQ",
    "circlename": "Madhya Pradesh",
    "Taluk": "",
    "Districtname": "Vidisha",
    "statename": "MADHYA PRADESH"
  },
  {
    "pincode": "464001",
    "officename": "Sonther B.O",
    "officeType": "B.O",
    "Deliverystatus": "Delivery",
    "divisionname": "Vidisha",
    "regionname": "Bhopal HQ",
    "circlename": "Madhya Pradesh",
    "Taluk": "",
    "Districtname": "Vidisha",
    "statename": "MADHYA PRADESH"
  },
  {
    "pincode": "464001",
    "officename": "Tharr B.O",
    "officeType": "B.O",
    "Deliverystatus": "Delivery",
    "divisionname": "Vidisha",
    "regionname": "Bhopal HQ",
    "circlename": "Madhya Pradesh",
    "Taluk": "",
    "Districtname": "Vidisha",
    "statename": "MADHYA PRADESH"
  },
  {
    "pincode": "464001",
    "officename": "Uadigiri B.O",
    "officeType": "B.O",
    "Deliverystatus": "Delivery",
    "divisionname": "Vidisha",
    "regionname": "Bhopal HQ",
    "circlename": "Madhya Pradesh",
    "Taluk": "Vidisha",
    "Districtname": "Vidisha",
    "statename": "MADHYA PRADESH"
  },
  {
    "pincode": "464001",
    "officename": "Vidisha Collectorate S.O",
    "officeType": "S.O",
    "Deliverystatus": "Non-Delivery",
    "divisionname": "Vidisha",
    "regionname": "Bhopal HQ",
    "circlename": "Madhya Pradesh",
    "Taluk": "Vidisha",
    "Districtname": "Vidisha",
    "statename": "MADHYA PRADESH"
  },
  {
    "pincode": "464001",
    "officename": "Vidisha Fort S.O",
    "officeType": "S.O",
    "Deliverystatus": "Non-Delivery",
    "divisionname": "Vidisha",
    "regionname": "Bhopal HQ",
    "circlename": "Madhya Pradesh",
    "Taluk": "Vidisha",
    "Districtname": "Vidisha",
    "statename": "MADHYA PRADESH"
  },
  {
    "pincode": "464001",
    "officename": "Vidisha H.O",
    "officeType": "H.O",
    "Deliverystatus": "Delivery",
    "divisionname": "Vidisha",
    "regionname": "Bhopal HQ",
    "circlename": "Madhya Pradesh",
    "Taluk": "Vidisha",
    "Districtname": "Vidisha",
    "statename": "MADHYA PRADESH"
  },
  {
    "pincode": "464001",
    "officename": "Vidisha Mandi S.O",
    "officeType": "S.O",
    "Deliverystatus": "Non-Delivery",
    "divisionname": "Vidisha",
    "regionname": "Bhopal HQ",
    "circlename": "Madhya Pradesh",
    "Taluk": "Vidisha",
    "Districtname": "Vidisha",
    "statename": "MADHYA PRADESH"
  },
  {
    "pincode": "464001",
    "officename": "Vidisha S.A.T.I. S.O",
    "officeType": "S.O",
    "Deliverystatus": "Non-Delivery",
    "divisionname": "Vidisha",
    "regionname": "Bhopal HQ",
    "circlename": "Madhya Pradesh",
    "Taluk": "Vidisha",
    "Districtname": "Vidisha",
    "statename": "MADHYA PRADESH"
  }
]
