[
  {
    "pincode": "464113",
    "officename": "Ahemadnagar B.O",
    "officeType": "B.O",
    "Deliverystatus": "Delivery",
    "divisionname": "Vidisha",
    "regionname": "Bhopal HQ",
    "circlename": "Madhya Pradesh",
    "Taluk": "",
    "Districtname": "Vidisha",
    "statename": "MADHYA PRADESH"
  },
  {
    "pincode": "464113",
    "officename": "Beenjh B.O",
    "officeType": "B.O",
    "Deliverystatus": "Delivery",
    "divisionname": "Vidisha",
    "regionname": "Bhopal HQ",
    "circlename": "Madhya Pradesh",
    "Taluk": "",
    "Districtname": "Vidisha",
    "statename": "MADHYA PRADESH"
  },
  {
    "pincode": "464113",
    "officename": "Kothicharkalan B.O",
    "officeType": "B.O",
    "Deliverystatus": "Delivery",
    "divisionname": "Vidisha",
    "regionname": "Bhopal HQ",
    "circlename": "Madhya Pradesh",
    "Taluk": "",
    "Districtname": "Vidisha",
    "statename": "MADHYA PRADESH"
  },
  {
    "pincode": "464113",
    "officename": "Pipaldhar B.O",
    "officeType": "B.O",
    "Deliverystatus": "Delivery",
    "divisionname": "Vidisha",
    "regionname": "Bhopal HQ",
    "circlename": "Madhya Pradesh",
    "Taluk": "",
    "Districtname": "Vidisha",
    "statename": "MADHYA PRADESH"
  },
  {
    "pincode": "464113",
    "officename": "Pipalkheda S.O",
    "officeType": "S.O",
    "Deliverystatus": "Delivery",
    "divisionname": "Vidisha",
    "regionname": "Bhopal HQ",
    "circlename": "Madhya Pradesh",
    "Taluk": "Vidisha",
    "Districtname": "Vidisha",
    "statename": "MADHYA PRADESH"
  },
  {
    "pincode": "464113",
    "officename": "Sankalkheda B.O",
    "officeType": "B.O",
    "Deliverystatus": "Delivery",
    "divisionname": "Vidisha",
    "regionname": "Bhopal HQ",
    "circlename": "Madhya Pradesh",
    "Taluk": "",
    "Districtname": "Vidisha",
    "statename": "MADHYA PRADESH"
  },
  {
    "pincode": "464113",
    "officename": "Satpada B.O",
    "officeType": "B.O",
    "Deliverystatus": "Delivery",
    "divisionname": "Vidisha",
    "regionname": "Bhopal HQ",
    "circlename": "Madhya Pradesh",
    "Taluk": "Vidisha",
    "Districtname": "Vidisha",
    "statename": "MADHYA PRADESH"
  },
  {
    "pincode": "464113",
    "officename": "Thanner B.O",
    "officeType": "B.O",
    "Deliverystatus": "Delivery",
    "divisionname": "Vidisha",
    "regionname": "Bhopal HQ",
    "circlename": "Madhya Pradesh",
    "Taluk": "",
    "Districtname": "Vidisha",
    "statename": "MADHYA PRADESH"
  }
]
