[
  {
    "pincode": "464228",
    "officename": "Bamhori Shalla B.O",
    "officeType": "B.O",
    "Deliverystatus": "Delivery",
    "divisionname": "Vidisha",
    "regionname": "Bhopal HQ",
    "circlename": "Madhya Pradesh",
    "Taluk": "Sironj",
    "Districtname": "Vidisha",
    "statename": "MADHYA PRADESH"
  },
  {
    "pincode": "464228",
    "officename": "Banshkhedia. B.O",
    "officeType": "B.O",
    "Deliverystatus": "Delivery",
    "divisionname": "Vidisha",
    "regionname": "Bhopal HQ",
    "circlename": "Madhya Pradesh",
    "Taluk": "",
    "Districtname": "Vidisha",
    "statename": "MADHYA PRADESH"
  },
  {
    "pincode": "464228",
    "officename": "Bhagwantpur B.O",
    "officeType": "B.O",
    "Deliverystatus": "Delivery",
    "divisionname": "Vidisha",
    "regionname": "Bhopal HQ",
    "circlename": "Madhya Pradesh",
    "Taluk": "Sironj",
    "Districtname": "Vidisha",
    "statename": "MADHYA PRADESH"
  },
  {
    "pincode": "464228",
    "officename": "Bhonriya B.O",
    "officeType": "B.O",
    "Deliverystatus": "Delivery",
    "divisionname": "Vidisha",
    "regionname": "Bhopal HQ",
    "circlename": "Madhya Pradesh",
    "Taluk": "Sironj",
    "Districtname": "Vidisha",
    "statename": "MADHYA PRADESH"
  },
  {
    "pincode": "464228",
    "officename": "Chatholi B.O",
    "officeType": "B.O",
    "Deliverystatus": "Delivery",
    "divisionname": "Vidisha",
    "regionname": "Bhopal HQ",
    "circlename": "Madhya Pradesh",
    "Taluk": "Sironj",
    "Districtname": "Vidisha",
    "statename": "MADHYA PRADESH"
  },
  {
    "pincode": "464228",
    "officename": "Chitawar B.O",
    "officeType": "B.O",
    "Deliverystatus": "Delivery",
    "divisionname": "Vidisha",
    "regionname": "Bhopal HQ",
    "circlename": "Madhya Pradesh",
    "Taluk": "Sironj",
    "Districtname": "Vidisha",
    "statename": "MADHYA PRADESH"
  },
  {
    "pincode": "464228",
    "officename": "Deepankheda B.O",
    "officeType": "B.O",
    "Deliverystatus": "Delivery",
    "divisionname": "Vidisha",
    "regionname": "Bhopal HQ",
    "circlename": "Madhya Pradesh",
    "Taluk": "Sironj",
    "Districtname": "Vidisha",
    "statename": "MADHYA PRADESH"
  },
  {
    "pincode": "464228",
    "officename": "Dehri B.O",
    "officeType": "B.O",
    "Deliverystatus": "Delivery",
    "divisionname": "Vidisha",
    "regionname": "Bhopal HQ",
    "circlename": "Madhya Pradesh",
    "Taluk": "Sironj",
    "Districtname": "Vidisha",
    "statename": "MADHYA PRADESH"
  },
  {
    "pincode": "464228",
    "officename": "Garantha B.O",
    "officeType": "B.O",
    "Deliverystatus": "Delivery",
    "divisionname": "Vidisha",
    "regionname": "Bhopal HQ",
    "circlename": "Madhya Pradesh",
    "Taluk": "Sironj",
    "Districtname": "Vidisha",
    "statename": "MADHYA PRADESH"
  },
  {
    "pincode": "464228",
    "officename": "Ghatwar B.O",
    "officeType": "B.O",
    "Deliverystatus": "Delivery",
    "divisionname": "Vidisha",
    "regionname": "Bhopal HQ",
    "circlename": "Madhya Pradesh",
    "Taluk": "Sironj",
    "Districtname": "Vidisha",
    "statename": "MADHYA PRADESH"
  },
  {
    "pincode": "464228",
    "officename": "Jaitpur B.O",
    "officeType": "B.O",
    "Deliverystatus": "Delivery",
    "divisionname": "Vidisha",
    "regionname": "Bhopal HQ",
    "circlename": "Madhya Pradesh",
    "Taluk": "Sironj",
    "Districtname": "Vidisha",
    "statename": "MADHYA PRADESH"
  },
  {
    "pincode": "464228",
    "officename": "Jhandwa B.O",
    "officeType": "B.O",
    "Deliverystatus": "Delivery",
    "divisionname": "Vidisha",
    "regionname": "Bhopal HQ",
    "circlename": "Madhya Pradesh",
    "Taluk": "Sironj",
    "Districtname": "Vidisha",
    "statename": "MADHYA PRADESH"
  },
  {
    "pincode": "464228",
    "officename": "Jhukarhoj B.O",
    "officeType": "B.O",
    "Deliverystatus": "Delivery",
    "divisionname": "Vidisha",
    "regionname": "Bhopal HQ",
    "circlename": "Madhya Pradesh",
    "Taluk": "Sironj",
    "Districtname": "Vidisha",
    "statename": "MADHYA PRADESH"
  },
  {
    "pincode": "464228",
    "officename": "Karaiyahat B.O",
    "officeType": "B.O",
    "Deliverystatus": "Delivery",
    "divisionname": "Vidisha",
    "regionname": "Bhopal HQ",
    "circlename": "Madhya Pradesh",
    "Taluk": "Sironj",
    "Districtname": "Vidisha",
    "statename": "MADHYA PRADESH"
  },
  {
    "pincode": "464228",
    "officename": "Mugalsarai B.O",
    "officeType": "B.O",
    "Deliverystatus": "Delivery",
    "divisionname": "Vidisha",
    "regionname": "Bhopal HQ",
    "circlename": "Madhya Pradesh",
    "Taluk": "Sironj",
    "Districtname": "Vidisha",
    "statename": "MADHYA PRADESH"
  },
  {
    "pincode": "464228",
    "officename": "Parsora B.O",
    "officeType": "B.O",
    "Deliverystatus": "Delivery",
    "divisionname": "Vidisha",
    "regionname": "Bhopal HQ",
    "circlename": "Madhya Pradesh",
    "Taluk": "Sironj",
    "Districtname": "Vidisha",
    "statename": "MADHYA PRADESH"
  },
  {
    "pincode": "464228",
    "officename": "Rusalidama B.O",
    "officeType": "B.O",
    "Deliverystatus": "Delivery",
    "divisionname": "Vidisha",
    "regionname": "Bhopal HQ",
    "circlename": "Madhya Pradesh",
    "Taluk": "Sironj",
    "Districtname": "Vidisha",
    "statename": "MADHYA PRADESH"
  },
  {
    "pincode": "464228",
    "officename": "Semalkhedi(S) B.O",
    "officeType": "B.O",
    "Deliverystatus": "Delivery",
    "divisionname": "Vidisha",
    "regionname": "Bhopal HQ",
    "circlename": "Madhya Pradesh",
    "Taluk": "Sironj",
    "Districtname": "Vidisha",
    "statename": "MADHYA PRADESH"
  },
  {
    "pincode": "464228",
    "officename": "Sironj City S.O",
    "officeType": "S.O",
    "Deliverystatus": "Non-Delivery",
    "divisionname": "Vidisha",
    "regionname": "Bhopal HQ",
    "circlename": "Madhya Pradesh",
    "Taluk": "Sironj",
    "Districtname": "Vidisha",
    "statename": "MADHYA PRADESH"
  },
  {
    "pincode": "464228",
    "officename": "Sironj S.O",
    "officeType": "S.O",
    "Deliverystatus": "Delivery",
    "divisionname": "Vidisha",
    "regionname": "Bhopal HQ",
    "circlename": "Madhya Pradesh",
    "Taluk": "Sironj",
    "Districtname": "Vidisha",
    "statename": "MADHYA PRADESH"
  },
  {
    "pincode": "464228",
    "officename": "Siyalpur B.O",
    "officeType": "B.O",
    "Deliverystatus": "Delivery",
    "divisionname": "Vidisha",
    "regionname": "Bhopal HQ",
    "circlename": "Madhya Pradesh",
    "Taluk": "Sironj",
    "Districtname": "Vidisha",
    "statename": "MADHYA PRADESH"
  },
  {
    "pincode": "464228",
    "officename": "Tal B.O",
    "officeType": "B.O",
    "Deliverystatus": "Delivery",
    "divisionname": "Vidisha",
    "regionname": "Bhopal HQ",
    "circlename": "Madhya Pradesh",
    "Taluk": "Sironj",
    "Districtname": "Vidisha",
    "statename": "MADHYA PRADESH"
  },
  {
    "pincode": "464228",
    "officename": "Toribagrod B.O",
    "officeType": "B.O",
    "Deliverystatus": "Delivery",
    "divisionname": "Vidisha",
    "regionname": "Bhopal HQ",
    "circlename": "Madhya Pradesh",
    "Taluk": "Sironj",
    "Districtname": "Vidisha",
    "statename": "MADHYA PRADESH"
  },
  {
    "pincode": "464228",
    "officename": "Unarsikhurd B.O",
    "officeType": "B.O",
    "Deliverystatus": "Delivery",
    "divisionname": "Vidisha",
    "regionname": "Bhopal HQ",
    "circlename": "Madhya Pradesh",
    "Taluk": "",
    "Districtname": "Vidisha",
    "statename": "MADHYA PRADESH"
  }
]
