[
  {
    "pincode": "464671",
    "officename": "Bankhedi B.O",
    "officeType": "B.O",
    "Deliverystatus": "Delivery",
    "divisionname": "Vidisha",
    "regionname": "Bhopal HQ",
    "circlename": "Madhya Pradesh",
    "Taluk": "Udaipura",
    "Districtname": "Raisen",
    "statename": "MADHYA PRADESH"
  },
  {
    "pincode": "464671",
    "officename": "Begania B.O",
    "officeType": "B.O",
    "Deliverystatus": "Delivery",
    "divisionname": "Vidisha",
    "regionname": "Bhopal HQ",
    "circlename": "Madhya Pradesh",
    "Taluk": "",
    "Districtname": "Raisen",
    "statename": "MADHYA PRADESH"
  },
  {
    "pincode": "464671",
    "officename": "Bhondia B.O",
    "officeType": "B.O",
    "Deliverystatus": "Delivery",
    "divisionname": "Vidisha",
    "regionname": "Bhopal HQ",
    "circlename": "Madhya Pradesh",
    "Taluk": "Baraily",
    "Districtname": "Raisen",
    "statename": "MADHYA PRADESH"
  },
  {
    "pincode": "464671",
    "officename": "Chhabara B.O",
    "officeType": "B.O",
    "Deliverystatus": "Delivery",
    "divisionname": "Vidisha",
    "regionname": "Bhopal HQ",
    "circlename": "Madhya Pradesh",
    "Taluk": "Baraily",
    "Districtname": "Raisen",
    "statename": "MADHYA PRADESH"
  },
  {
    "pincode": "464671",
    "officename": "Jamgarh B.O",
    "officeType": "B.O",
    "Deliverystatus": "Delivery",
    "divisionname": "Vidisha",
    "regionname": "Bhopal HQ",
    "circlename": "Madhya Pradesh",
    "Taluk": "Baraily",
    "Districtname": "Raisen",
    "statename": "MADHYA PRADESH"
  },
  {
    "pincode": "464671",
    "officename": "Khargone S.O",
    "officeType": "S.O",
    "Deliverystatus": "Delivery",
    "divisionname": "Vidisha",
    "regionname": "Bhopal HQ",
    "circlename": "Madhya Pradesh",
    "Taluk": "Baraily",
    "Districtname": "Raisen",
    "statename": "MADHYA PRADESH"
  },
  {
    "pincode": "464671",
    "officename": "Noornagar B.O",
    "officeType": "B.O",
    "Deliverystatus": "Delivery",
    "divisionname": "Vidisha",
    "regionname": "Bhopal HQ",
    "circlename": "Madhya Pradesh",
    "Taluk": "Udaipura",
    "Districtname": "Raisen",
    "statename": "MADHYA PRADESH"
  },
  {
    "pincode": "464671",
    "officename": "Rajwada B.O",
    "officeType": "B.O",
    "Deliverystatus": "Delivery",
    "divisionname": "Vidisha",
    "regionname": "Bhopal HQ",
    "circlename": "Madhya Pradesh",
    "Taluk": "Baraily",
    "Districtname": "Raisen",
    "statename": "MADHYA PRADESH"
  }
]
