[
  {
    "pincode": "464651",
    "officename": "Barkhedi B.O",
    "officeType": "B.O",
    "Deliverystatus": "Delivery",
    "divisionname": "Vidisha",
    "regionname": "Bhopal HQ",
    "circlename": "Madhya Pradesh",
    "Taluk": "Raisen",
    "Districtname": "Raisen",
    "statename": "MADHYA PRADESH"
  },
  {
    "pincode": "464651",
    "officename": "Deewanganj B.O",
    "officeType": "B.O",
    "Deliverystatus": "Delivery",
    "divisionname": "Vidisha",
    "regionname": "Bhopal HQ",
    "circlename": "Madhya Pradesh",
    "Taluk": "",
    "Districtname": "Raisen",
    "statename": "MADHYA PRADESH"
  },
  {
    "pincode": "464651",
    "officename": "Jamunia B.O",
    "officeType": "B.O",
    "Deliverystatus": "Delivery",
    "divisionname": "Vidisha",
    "regionname": "Bhopal HQ",
    "circlename": "Madhya Pradesh",
    "Taluk": "Raisen",
    "Districtname": "Raisen",
    "statename": "MADHYA PRADESH"
  },
  {
    "pincode": "464651",
    "officename": "Mehgaon B.O",
    "officeType": "B.O",
    "Deliverystatus": "Delivery",
    "divisionname": "Vidisha",
    "regionname": "Bhopal HQ",
    "circlename": "Madhya Pradesh",
    "Taluk": "",
    "Districtname": "Raisen",
    "statename": "MADHYA PRADESH"
  },
  {
    "pincode": "464651",
    "officename": "Pagneshwar B.O",
    "officeType": "B.O",
    "Deliverystatus": "Delivery",
    "divisionname": "Vidisha",
    "regionname": "Bhopal HQ",
    "circlename": "Madhya Pradesh",
    "Taluk": "",
    "Districtname": "Raisen",
    "statename": "MADHYA PRADESH"
  },
  {
    "pincode": "464651",
    "officename": "Parwaria B.O",
    "officeType": "B.O",
    "Deliverystatus": "Delivery",
    "divisionname": "Vidisha",
    "regionname": "Bhopal HQ",
    "circlename": "Madhya Pradesh",
    "Taluk": "",
    "Districtname": "Raisen",
    "statename": "MADHYA PRADESH"
  },
  {
    "pincode": "464651",
    "officename": "Salamatpur S.O",
    "officeType": "S.O",
    "Deliverystatus": "Delivery",
    "divisionname": "Vidisha",
    "regionname": "Bhopal HQ",
    "circlename": "Madhya Pradesh",
    "Taluk": "Raisen",
    "Districtname": "Raisen",
    "statename": "MADHYA PRADESH"
  },
  {
    "pincode": "464651",
    "officename": "Samra B.O",
    "officeType": "B.O",
    "Deliverystatus": "Delivery",
    "divisionname": "Vidisha",
    "regionname": "Bhopal HQ",
    "circlename": "Madhya Pradesh",
    "Taluk": "Raisen",
    "Districtname": "Raisen",
    "statename": "MADHYA PRADESH"
  }
]
