[
  {
    "pincode": "464774",
    "officename": "Aliwada B.O",
    "officeType": "B.O",
    "Deliverystatus": "Delivery",
    "divisionname": "Vidisha",
    "regionname": "Bhopal HQ",
    "circlename": "Madhya Pradesh",
    "Taluk": "Udaipura",
    "Districtname": "Raisen",
    "statename": "MADHYA PRADESH"
  },
  {
    "pincode": "464774",
    "officename": "Barkhanda B.O",
    "officeType": "B.O",
    "Deliverystatus": "Delivery",
    "divisionname": "Vidisha",
    "regionname": "Bhopal HQ",
    "circlename": "Madhya Pradesh",
    "Taluk": "Udaipura",
    "Districtname": "Raisen",
    "statename": "MADHYA PRADESH"
  },
  {
    "pincode": "464774",
    "officename": "Berua B.O",
    "officeType": "B.O",
    "Deliverystatus": "Delivery",
    "divisionname": "Vidisha",
    "regionname": "Bhopal HQ",
    "circlename": "Madhya Pradesh",
    "Taluk": "Silwani",
    "Districtname": "Raisen",
    "statename": "MADHYA PRADESH"
  },
  {
    "pincode": "464774",
    "officename": "Bikalpur B.O",
    "officeType": "B.O",
    "Deliverystatus": "Delivery",
    "divisionname": "Vidisha",
    "regionname": "Bhopal HQ",
    "circlename": "Madhya Pradesh",
    "Taluk": "Silwani",
    "Districtname": "Raisen",
    "statename": "MADHYA PRADESH"
  },
  {
    "pincode": "464774",
    "officename": "Boorha B.O",
    "officeType": "B.O",
    "Deliverystatus": "Delivery",
    "divisionname": "Vidisha",
    "regionname": "Bhopal HQ",
    "circlename": "Madhya Pradesh",
    "Taluk": "Silwani",
    "Districtname": "Raisen",
    "statename": "MADHYA PRADESH"
  },
  {
    "pincode": "464774",
    "officename": "Chikli B.O",
    "officeType": "B.O",
    "Deliverystatus": "Delivery",
    "divisionname": "Vidisha",
    "regionname": "Bhopal HQ",
    "circlename": "Madhya Pradesh",
    "Taluk": "Udaipura",
    "Districtname": "Raisen",
    "statename": "MADHYA PRADESH"
  },
  {
    "pincode": "464774",
    "officename": "Deori S.O (Raisen)",
    "officeType": "S.O",
    "Deliverystatus": "Delivery",
    "divisionname": "Vidisha",
    "regionname": "Bhopal HQ",
    "circlename": "Madhya Pradesh",
    "Taluk": "Udaipura",
    "Districtname": "Raisen",
    "statename": "MADHYA PRADESH"
  },
  {
    "pincode": "464774",
    "officename": "Gorakhpur B.O",
    "officeType": "B.O",
    "Deliverystatus": "Delivery",
    "divisionname": "Vidisha",
    "regionname": "Bhopal HQ",
    "circlename": "Madhya Pradesh",
    "Taluk": "Udaipura",
    "Districtname": "Raisen",
    "statename": "MADHYA PRADESH"
  },
  {
    "pincode": "464774",
    "officename": "Jaithari B.O",
    "officeType": "B.O",
    "Deliverystatus": "Delivery",
    "divisionname": "Vidisha",
    "regionname": "Bhopal HQ",
    "circlename": "Madhya Pradesh",
    "Taluk": "Silwani",
    "Districtname": "Raisen",
    "statename": "MADHYA PRADESH"
  },
  {
    "pincode": "464774",
    "officename": "Katal B.O",
    "officeType": "B.O",
    "Deliverystatus": "Delivery",
    "divisionname": "Vidisha",
    "regionname": "Bhopal HQ",
    "circlename": "Madhya Pradesh",
    "Taluk": "Udaipura",
    "Districtname": "Raisen",
    "statename": "MADHYA PRADESH"
  },
  {
    "pincode": "464774",
    "officename": "Padraikalan B.O",
    "officeType": "B.O",
    "Deliverystatus": "Delivery",
    "divisionname": "Vidisha",
    "regionname": "Bhopal HQ",
    "circlename": "Madhya Pradesh",
    "Taluk": "Udaipura",
    "Districtname": "Raisen",
    "statename": "MADHYA PRADESH"
  },
  {
    "pincode": "464774",
    "officename": "Pratapgarh B.O",
    "officeType": "B.O",
    "Deliverystatus": "Delivery",
    "divisionname": "Vidisha",
    "regionname": "Bhopal HQ",
    "circlename": "Madhya Pradesh",
    "Taluk": "Silwani",
    "Districtname": "Raisen",
    "statename": "MADHYA PRADESH"
  },
  {
    "pincode": "464774",
    "officename": "Richhawar B.O",
    "officeType": "B.O",
    "Deliverystatus": "Delivery",
    "divisionname": "Vidisha",
    "regionname": "Bhopal HQ",
    "circlename": "Madhya Pradesh",
    "Taluk": "Udaipura",
    "Districtname": "Raisen",
    "statename": "MADHYA PRADESH"
  },
  {
    "pincode": "464774",
    "officename": "Timrawan B.O",
    "officeType": "B.O",
    "Deliverystatus": "Delivery",
    "divisionname": "Vidisha",
    "regionname": "Bhopal HQ",
    "circlename": "Madhya Pradesh",
    "Taluk": "Udaipura",
    "Districtname": "Raisen",
    "statename": "MADHYA PRADESH"
  }
]
