[
  {
    "pincode": "464886",
    "officename": "Amapani B.O",
    "officeType": "B.O",
    "Deliverystatus": "Delivery",
    "divisionname": "Vidisha",
    "regionname": "Bhopal HQ",
    "circlename": "Madhya Pradesh",
    "Taluk": "Silwani",
    "Districtname": "Raisen",
    "statename": "MADHYA PRADESH"
  },
  {
    "pincode": "464886",
    "officename": "Bamhoriwardha B.O",
    "officeType": "B.O",
    "Deliverystatus": "Delivery",
    "divisionname": "Vidisha",
    "regionname": "Bhopal HQ",
    "circlename": "Madhya Pradesh",
    "Taluk": "Silwani",
    "Districtname": "Raisen",
    "statename": "MADHYA PRADESH"
  },
  {
    "pincode": "464886",
    "officename": "Chicholi B.O",
    "officeType": "B.O",
    "Deliverystatus": "Delivery",
    "divisionname": "Vidisha",
    "regionname": "Bhopal HQ",
    "circlename": "Madhya Pradesh",
    "Taluk": "Silwani",
    "Districtname": "Raisen",
    "statename": "MADHYA PRADESH"
  },
  {
    "pincode": "464886",
    "officename": "Chunhetia B.O",
    "officeType": "B.O",
    "Deliverystatus": "Delivery",
    "divisionname": "Vidisha",
    "regionname": "Bhopal HQ",
    "circlename": "Madhya Pradesh",
    "Taluk": "Silwani",
    "Districtname": "Raisen",
    "statename": "MADHYA PRADESH"
  },
  {
    "pincode": "464886",
    "officename": "Kheri B.O",
    "officeType": "B.O",
    "Deliverystatus": "Delivery",
    "divisionname": "Vidisha",
    "regionname": "Bhopal HQ",
    "circlename": "Madhya Pradesh",
    "Taluk": "Silwani",
    "Districtname": "Raisen",
    "statename": "MADHYA PRADESH"
  },
  {
    "pincode": "464886",
    "officename": "Mehgaonkalan B.O",
    "officeType": "B.O",
    "Deliverystatus": "Delivery",
    "divisionname": "Vidisha",
    "regionname": "Bhopal HQ",
    "circlename": "Madhya Pradesh",
    "Taluk": "Silwani",
    "Districtname": "Raisen",
    "statename": "MADHYA PRADESH"
  },
  {
    "pincode": "464886",
    "officename": "Muar B.O",
    "officeType": "B.O",
    "Deliverystatus": "Delivery",
    "divisionname": "Vidisha",
    "regionname": "Bhopal HQ",
    "circlename": "Madhya Pradesh",
    "Taluk": "Silwani",
    "Districtname": "Raisen",
    "statename": "MADHYA PRADESH"
  },
  {
    "pincode": "464886",
    "officename": "Saikheda B.O",
    "officeType": "B.O",
    "Deliverystatus": "Delivery",
    "divisionname": "Vidisha",
    "regionname": "Bhopal HQ",
    "circlename": "Madhya Pradesh",
    "Taluk": "Silwani",
    "Districtname": "Raisen",
    "statename": "MADHYA PRADESH"
  },
  {
    "pincode": "464886",
    "officename": "Silwani S.O",
    "officeType": "S.O",
    "Deliverystatus": "Delivery",
    "divisionname": "Vidisha",
    "regionname": "Bhopal HQ",
    "circlename": "Madhya Pradesh",
    "Taluk": "Silwani",
    "Districtname": "Raisen",
    "statename": "MADHYA PRADESH"
  },
  {
    "pincode": "464886",
    "officename": "Siyarmau B.O",
    "officeType": "B.O",
    "Deliverystatus": "Delivery",
    "divisionname": "Vidisha",
    "regionname": "Bhopal HQ",
    "circlename": "Madhya Pradesh",
    "Taluk": "Silwani",
    "Districtname": "Raisen",
    "statename": "MADHYA PRADESH"
  },
  {
    "pincode": "464886",
    "officename": "Sodarpur B.O",
    "officeType": "B.O",
    "Deliverystatus": "Delivery",
    "divisionname": "Vidisha",
    "regionname": "Bhopal HQ",
    "circlename": "Madhya Pradesh",
    "Taluk": "Gairatganj",
    "Districtname": "Raisen",
    "statename": "MADHYA PRADESH"
  }
]
