[
  {
    "pincode": "464993",
    "officename": "Ankalpur B.O",
    "officeType": "B.O",
    "Deliverystatus": "Delivery",
    "divisionname": "Bhopal",
    "regionname": "Bhopal HQ",
    "circlename": "Madhya Pradesh",
    "Taluk": "",
    "Districtname": "Raisen",
    "statename": "MADHYA PRADESH"
  },
  {
    "pincode": "464993",
    "officename": "Ashapuri B.O",
    "officeType": "B.O",
    "Deliverystatus": "Delivery",
    "divisionname": "Bhopal",
    "regionname": "Bhopal HQ",
    "circlename": "Madhya Pradesh",
    "Taluk": "",
    "Districtname": "Raisen",
    "statename": "MADHYA PRADESH"
  },
  {
    "pincode": "464993",
    "officename": "Barkheda B.O",
    "officeType": "B.O",
    "Deliverystatus": "Delivery",
    "divisionname": "Bhopal",
    "regionname": "Bhopal HQ",
    "circlename": "Madhya Pradesh",
    "Taluk": "Goharganj",
    "Districtname": "Bhopal",
    "statename": "MADHYA PRADESH"
  },
  {
    "pincode": "464993",
    "officename": "Bhojpur B.O",
    "officeType": "B.O",
    "Deliverystatus": "Delivery",
    "divisionname": "Bhopal",
    "regionname": "Bhopal HQ",
    "circlename": "Madhya Pradesh",
    "Taluk": "",
    "Districtname": "Raisen",
    "statename": "MADHYA PRADESH"
  },
  {
    "pincode": "464993",
    "officename": "Bilakhedi B.O",
    "officeType": "B.O",
    "Deliverystatus": "Delivery",
    "divisionname": "Bhopal",
    "regionname": "Bhopal HQ",
    "circlename": "Madhya Pradesh",
    "Taluk": "",
    "Districtname": "Raisen",
    "statename": "MADHYA PRADESH"
  },
  {
    "pincode": "464993",
    "officename": "Bishankhedi B.O",
    "officeType": "B.O",
    "Deliverystatus": "Delivery",
    "divisionname": "Bhopal",
    "regionname": "Bhopal HQ",
    "circlename": "Madhya Pradesh",
    "Taluk": "",
    "Districtname": "Bhopal",
    "statename": "MADHYA PRADESH"
  },
  {
    "pincode": "464993",
    "officename": "Dahod B.O",
    "officeType": "B.O",
    "Deliverystatus": "Delivery",
    "divisionname": "Bhopal",
    "regionname": "Bhopal HQ",
    "circlename": "Madhya Pradesh",
    "Taluk": "",
    "Districtname": "Raisen",
    "statename": "MADHYA PRADESH"
  },
  {
    "pincode": "464993",
    "officename": "Dewatia B.O",
    "officeType": "B.O",
    "Deliverystatus": "Delivery",
    "divisionname": "Bhopal",
    "regionname": "Bhopal HQ",
    "circlename": "Madhya Pradesh",
    "Taluk": "",
    "Districtname": "Raisen",
    "statename": "MADHYA PRADESH"
  },
  {
    "pincode": "464993",
    "officename": "Iklama B.O",
    "officeType": "B.O",
    "Deliverystatus": "Delivery",
    "divisionname": "Bhopal",
    "regionname": "Bhopal HQ",
    "circlename": "Madhya Pradesh",
    "Taluk": "",
    "Districtname": "Raisen",
    "statename": "MADHYA PRADESH"
  },
  {
    "pincode": "464993",
    "officename": "Noorganj B.O",
    "officeType": "B.O",
    "Deliverystatus": "Delivery",
    "divisionname": "Bhopal",
    "regionname": "Bhopal HQ",
    "circlename": "Madhya Pradesh",
    "Taluk": "",
    "Districtname": "Raisen",
    "statename": "MADHYA PRADESH"
  },
  {
    "pincode": "464993",
    "officename": "Obedullaganj S.O",
    "officeType": "S.O",
    "Deliverystatus": "Delivery",
    "divisionname": "Bhopal",
    "regionname": "Bhopal HQ",
    "circlename": "Madhya Pradesh",
    "Taluk": "Huzur",
    "Districtname": "Bhopal",
    "statename": "MADHYA PRADESH"
  },
  {
    "pincode": "464993",
    "officename": "Premtalab B.O",
    "officeType": "B.O",
    "Deliverystatus": "Delivery",
    "divisionname": "Bhopal",
    "regionname": "Bhopal HQ",
    "circlename": "Madhya Pradesh",
    "Taluk": "",
    "Districtname": "Raisen",
    "statename": "MADHYA PRADESH"
  },
  {
    "pincode": "464993",
    "officename": "Salkani B.O",
    "officeType": "B.O",
    "Deliverystatus": "Delivery",
    "divisionname": "Bhopal",
    "regionname": "Bhopal HQ",
    "circlename": "Madhya Pradesh",
    "Taluk": "",
    "Districtname": "Raisen",
    "statename": "MADHYA PRADESH"
  }
]
