[
  {
    "pincode": "465001",
    "officename": "Abhaypur B.O",
    "officeType": "B.O",
    "Deliverystatus": "Delivery",
    "divisionname": "Ujjain",
    "regionname": "Indore",
    "circlename": "Madhya Pradesh",
    "Taluk": "Shajapur",
    "Districtname": "Shajapur",
    "statename": "MADHYA PRADESH"
  },
  {
    "pincode": "465001",
    "officename": "Ala Umrod B.O",
    "officeType": "B.O",
    "Deliverystatus": "Delivery",
    "divisionname": "Ujjain",
    "regionname": "Indore",
    "circlename": "Madhya Pradesh",
    "Taluk": "Shajapur",
    "Districtname": "Shajapur",
    "statename": "MADHYA PRADESH"
  },
  {
    "pincode": "465001",
    "officename": "Bharad B.O",
    "officeType": "B.O",
    "Deliverystatus": "Delivery",
    "divisionname": "Ujjain",
    "regionname": "Indore",
    "circlename": "Madhya Pradesh",
    "Taluk": "Shajapur",
    "Districtname": "Shajapur",
    "statename": "MADHYA PRADESH"
  },
  {
    "pincode": "465001",
    "officename": "Bijana B.O",
    "officeType": "B.O",
    "Deliverystatus": "Delivery",
    "divisionname": "Ujjain",
    "regionname": "Indore",
    "circlename": "Madhya Pradesh",
    "Taluk": "Shajapur",
    "Districtname": "Shajapur",
    "statename": "MADHYA PRADESH"
  },
  {
    "pincode": "465001",
    "officename": "Dhillod B.O",
    "officeType": "B.O",
    "Deliverystatus": "Delivery",
    "divisionname": "Ujjain",
    "regionname": "Indore",
    "circlename": "Madhya Pradesh",
    "Taluk": "Shajapur",
    "Districtname": "Shajapur",
    "statename": "MADHYA PRADESH"
  },
  {
    "pincode": "465001",
    "officename": "Dupada B.O",
    "officeType": "B.O",
    "Deliverystatus": "Delivery",
    "divisionname": "Ujjain",
    "regionname": "Indore",
    "circlename": "Madhya Pradesh",
    "Taluk": "Shajapur",
    "Districtname": "Shajapur",
    "statename": "MADHYA PRADESH"
  },
  {
    "pincode": "465001",
    "officename": "Gopipur B.O",
    "officeType": "B.O",
    "Deliverystatus": "Delivery",
    "divisionname": "Ujjain",
    "regionname": "Indore",
    "circlename": "Madhya Pradesh",
    "Taluk": "Shajapur",
    "Districtname": "Shajapur",
    "statename": "MADHYA PRADESH"
  },
  {
    "pincode": "465001",
    "officename": "Morta B.O",
    "officeType": "B.O",
    "Deliverystatus": "Delivery",
    "divisionname": "Ujjain",
    "regionname": "Indore",
    "circlename": "Madhya Pradesh",
    "Taluk": "Shajapur",
    "Districtname": "Shajapur",
    "statename": "MADHYA PRADESH"
  },
  {
    "pincode": "465001",
    "officename": "Panwadi B.O",
    "officeType": "B.O",
    "Deliverystatus": "Delivery",
    "divisionname": "Ujjain",
    "regionname": "Indore",
    "circlename": "Madhya Pradesh",
    "Taluk": "Shajapur",
    "Districtname": "Shajapur",
    "statename": "MADHYA PRADESH"
  },
  {
    "pincode": "465001",
    "officename": "Sajod B.O",
    "officeType": "B.O",
    "Deliverystatus": "Delivery",
    "divisionname": "Ujjain",
    "regionname": "Indore",
    "circlename": "Madhya Pradesh",
    "Taluk": "Shajapur",
    "Districtname": "Shajapur",
    "statename": "MADHYA PRADESH"
  },
  {
    "pincode": "465001",
    "officename": "Shajapur  Town S.O",
    "officeType": "S.O",
    "Deliverystatus": "Non-Delivery",
    "divisionname": "Ujjain",
    "regionname": "Indore",
    "circlename": "Madhya Pradesh",
    "Taluk": "Shajapur",
    "Districtname": "Shajapur",
    "statename": "MADHYA PRADESH"
  },
  {
    "pincode": "465001",
    "officename": "Shajapur H.O",
    "officeType": "H.O",
    "Deliverystatus": "Delivery",
    "divisionname": "Ujjain",
    "regionname": "Indore",
    "circlename": "Madhya Pradesh",
    "Taluk": "Shajapur",
    "Districtname": "Shajapur",
    "statename": "MADHYA PRADESH"
  },
  {
    "pincode": "465001",
    "officename": "Shajapur Kutchery S.O",
    "officeType": "S.O",
    "Deliverystatus": "Non-Delivery",
    "divisionname": "Ujjain",
    "regionname": "Indore",
    "circlename": "Madhya Pradesh",
    "Taluk": "Shajapur",
    "Districtname": "Shajapur",
    "statename": "MADHYA PRADESH"
  },
  {
    "pincode": "465001",
    "officename": "Sunhera B.O",
    "officeType": "B.O",
    "Deliverystatus": "Delivery",
    "divisionname": "Ujjain",
    "regionname": "Indore",
    "circlename": "Madhya Pradesh",
    "Taluk": "Shajapur",
    "Districtname": "Shajapur",
    "statename": "MADHYA PRADESH"
  }
]
