[
  {
    "pincode": "465337",
    "officename": "Behraval B.O",
    "officeType": "B.O",
    "Deliverystatus": "Delivery",
    "divisionname": "Ujjain",
    "regionname": "Indore",
    "circlename": "Madhya Pradesh",
    "Taluk": "Kalapipal",
    "Districtname": "Shajapur",
    "statename": "MADHYA PRADESH"
  },
  {
    "pincode": "465337",
    "officename": "Berchha Datar B.O",
    "officeType": "B.O",
    "Deliverystatus": "Delivery",
    "divisionname": "Ujjain",
    "regionname": "Indore",
    "circlename": "Madhya Pradesh",
    "Taluk": "Kalapipal",
    "Districtname": "Shajapur",
    "statename": "MADHYA PRADESH"
  },
  {
    "pincode": "465337",
    "officename": "Bhuria Khajuria B.O",
    "officeType": "B.O",
    "Deliverystatus": "Delivery",
    "divisionname": "Ujjain",
    "regionname": "Indore",
    "circlename": "Madhya Pradesh",
    "Taluk": "Kalapipal",
    "Districtname": "Shajapur",
    "statename": "MADHYA PRADESH"
  },
  {
    "pincode": "465337",
    "officename": "Dhabla Dheer B.O",
    "officeType": "B.O",
    "Deliverystatus": "Delivery",
    "divisionname": "Ujjain",
    "regionname": "Indore",
    "circlename": "Madhya Pradesh",
    "Taluk": "Kalapipal",
    "Districtname": "Shajapur",
    "statename": "MADHYA PRADESH"
  },
  {
    "pincode": "465337",
    "officename": "Farad B.O",
    "officeType": "B.O",
    "Deliverystatus": "Delivery",
    "divisionname": "Ujjain",
    "regionname": "Indore",
    "circlename": "Madhya Pradesh",
    "Taluk": "Kalapipal",
    "Districtname": "Shajapur",
    "statename": "MADHYA PRADESH"
  },
  {
    "pincode": "465337",
    "officename": "Jabdiya Bheel B.O",
    "officeType": "B.O",
    "Deliverystatus": "Delivery",
    "divisionname": "Ujjain",
    "regionname": "Indore",
    "circlename": "Madhya Pradesh",
    "Taluk": "Kalapipal",
    "Districtname": "Shajapur",
    "statename": "MADHYA PRADESH"
  },
  {
    "pincode": "465337",
    "officename": "Kalapipal Gaon B.O",
    "officeType": "B.O",
    "Deliverystatus": "Delivery",
    "divisionname": "Ujjain",
    "regionname": "Indore",
    "circlename": "Madhya Pradesh",
    "Taluk": "Kalapipal",
    "Districtname": "Shajapur",
    "statename": "MADHYA PRADESH"
  },
  {
    "pincode": "465337",
    "officename": "Kalapipal S.O",
    "officeType": "S.O",
    "Deliverystatus": "Delivery",
    "divisionname": "Ujjain",
    "regionname": "Indore",
    "circlename": "Madhya Pradesh",
    "Taluk": "Kalapipal",
    "Districtname": "Shajapur",
    "statename": "MADHYA PRADESH"
  },
  {
    "pincode": "465337",
    "officename": "Kamalpur B.O",
    "officeType": "B.O",
    "Deliverystatus": "Delivery",
    "divisionname": "Ujjain",
    "regionname": "Indore",
    "circlename": "Madhya Pradesh",
    "Taluk": "Kalapipal",
    "Districtname": "Shajapur",
    "statename": "MADHYA PRADESH"
  },
  {
    "pincode": "465337",
    "officename": "Khamlya B.O",
    "officeType": "B.O",
    "Deliverystatus": "Delivery",
    "divisionname": "Ujjain",
    "regionname": "Indore",
    "circlename": "Madhya Pradesh",
    "Taluk": "Kalapipal",
    "Districtname": "Shajapur",
    "statename": "MADHYA PRADESH"
  },
  {
    "pincode": "465337",
    "officename": "Lasuldiya Gori B.O",
    "officeType": "B.O",
    "Deliverystatus": "Delivery",
    "divisionname": "Ujjain",
    "regionname": "Indore",
    "circlename": "Madhya Pradesh",
    "Taluk": "Kalapipal",
    "Districtname": "Shajapur",
    "statename": "MADHYA PRADESH"
  },
  {
    "pincode": "465337",
    "officename": "Lasuldiya Malak B.O",
    "officeType": "B.O",
    "Deliverystatus": "Delivery",
    "divisionname": "Ujjain",
    "regionname": "Indore",
    "circlename": "Madhya Pradesh",
    "Taluk": "Kalapipal",
    "Districtname": "Shajapur",
    "statename": "MADHYA PRADESH"
  },
  {
    "pincode": "465337",
    "officename": "Mansaya B.O",
    "officeType": "B.O",
    "Deliverystatus": "Delivery",
    "divisionname": "Ujjain",
    "regionname": "Indore",
    "circlename": "Madhya Pradesh",
    "Taluk": "Kalapipal",
    "Districtname": "Shajapur",
    "statename": "MADHYA PRADESH"
  },
  {
    "pincode": "465337",
    "officename": "Nandni B.O",
    "officeType": "B.O",
    "Deliverystatus": "Delivery",
    "divisionname": "Ujjain",
    "regionname": "Indore",
    "circlename": "Madhya Pradesh",
    "Taluk": "Kalapipal",
    "Districtname": "Shajapur",
    "statename": "MADHYA PRADESH"
  },
  {
    "pincode": "465337",
    "officename": "Pipliyanagar B.O",
    "officeType": "B.O",
    "Deliverystatus": "Delivery",
    "divisionname": "Ujjain",
    "regionname": "Indore",
    "circlename": "Madhya Pradesh",
    "Taluk": "Kalapipal",
    "Districtname": "Shajapur",
    "statename": "MADHYA PRADESH"
  },
  {
    "pincode": "465337",
    "officename": "Pochaner B.O",
    "officeType": "B.O",
    "Deliverystatus": "Delivery",
    "divisionname": "Ujjain",
    "regionname": "Indore",
    "circlename": "Madhya Pradesh",
    "Taluk": "Kalapipal",
    "Districtname": "Shajapur",
    "statename": "MADHYA PRADESH"
  },
  {
    "pincode": "465337",
    "officename": "Ranayal B.O",
    "officeType": "B.O",
    "Deliverystatus": "Delivery",
    "divisionname": "Ujjain",
    "regionname": "Indore",
    "circlename": "Madhya Pradesh",
    "Taluk": "Kalapipal",
    "Districtname": "Shajapur",
    "statename": "MADHYA PRADESH"
  },
  {
    "pincode": "465337",
    "officename": "Ugli B.O",
    "officeType": "B.O",
    "Deliverystatus": "Delivery",
    "divisionname": "Ujjain",
    "regionname": "Indore",
    "circlename": "Madhya Pradesh",
    "Taluk": "Shujalpur",
    "Districtname": "Shajapur",
    "statename": "MADHYA PRADESH"
  }
]
