[
  {
    "pincode": "465679",
    "officename": "Barol B.O",
    "officeType": "B.O",
    "Deliverystatus": "Delivery",
    "divisionname": "Sehore",
    "regionname": "Indore",
    "circlename": "Madhya Pradesh",
    "Taluk": "Khilchipur",
    "Districtname": "Rajgarh",
    "statename": "MADHYA PRADESH"
  },
  {
    "pincode": "465679",
    "officename": "Bhojpur B.O",
    "officeType": "B.O",
    "Deliverystatus": "Delivery",
    "divisionname": "Sehore",
    "regionname": "Indore",
    "circlename": "Madhya Pradesh",
    "Taluk": "Khilchipur",
    "Districtname": "Rajgarh",
    "statename": "MADHYA PRADESH"
  },
  {
    "pincode": "465679",
    "officename": "Bhumariya B.O",
    "officeType": "B.O",
    "Deliverystatus": "Delivery",
    "divisionname": "Sehore",
    "regionname": "Indore",
    "circlename": "Madhya Pradesh",
    "Taluk": "Khilchipur",
    "Districtname": "Rajgarh",
    "statename": "MADHYA PRADESH"
  },
  {
    "pincode": "465679",
    "officename": "Dhablikalan B.O",
    "officeType": "B.O",
    "Deliverystatus": "Delivery",
    "divisionname": "Sehore",
    "regionname": "Indore",
    "circlename": "Madhya Pradesh",
    "Taluk": "Khilchipur",
    "Districtname": "Rajgarh",
    "statename": "MADHYA PRADESH"
  },
  {
    "pincode": "465679",
    "officename": "Dolaj B.O",
    "officeType": "B.O",
    "Deliverystatus": "Delivery",
    "divisionname": "Sehore",
    "regionname": "Indore",
    "circlename": "Madhya Pradesh",
    "Taluk": "Khilchipur",
    "Districtname": "Rajgarh",
    "statename": "MADHYA PRADESH"
  },
  {
    "pincode": "465679",
    "officename": "Hinotya B.O",
    "officeType": "B.O",
    "Deliverystatus": "Delivery",
    "divisionname": "Sehore",
    "regionname": "Indore",
    "circlename": "Madhya Pradesh",
    "Taluk": "Narsinghgarh",
    "Districtname": "Rajgarh",
    "statename": "MADHYA PRADESH"
  },
  {
    "pincode": "465679",
    "officename": "Jamoniya B.O",
    "officeType": "B.O",
    "Deliverystatus": "Delivery",
    "divisionname": "Sehore",
    "regionname": "Indore",
    "circlename": "Madhya Pradesh",
    "Taluk": "Khilchipur",
    "Districtname": "Rajgarh",
    "statename": "MADHYA PRADESH"
  },
  {
    "pincode": "465679",
    "officename": "Khilchipur S.O",
    "officeType": "S.O",
    "Deliverystatus": "Delivery",
    "divisionname": "Sehore",
    "regionname": "Indore",
    "circlename": "Madhya Pradesh",
    "Taluk": "Khilchipur",
    "Districtname": "Rajgarh",
    "statename": "MADHYA PRADESH"
  },
  {
    "pincode": "465679",
    "officename": "Khilchipur Town B.O",
    "officeType": "B.O",
    "Deliverystatus": "Non-Delivery",
    "divisionname": "Sehore",
    "regionname": "Indore",
    "circlename": "Madhya Pradesh",
    "Taluk": "Khilchipur",
    "Districtname": "Rajgarh",
    "statename": "MADHYA PRADESH"
  },
  {
    "pincode": "465679",
    "officename": "Kulikheda B.O",
    "officeType": "B.O",
    "Deliverystatus": "Delivery",
    "divisionname": "Sehore",
    "regionname": "Indore",
    "circlename": "Madhya Pradesh",
    "Taluk": "Khilchipur",
    "Districtname": "Rajgarh",
    "statename": "MADHYA PRADESH"
  },
  {
    "pincode": "465679",
    "officename": "Papdel B.O",
    "officeType": "B.O",
    "Deliverystatus": "Delivery",
    "divisionname": "Sehore",
    "regionname": "Indore",
    "circlename": "Madhya Pradesh",
    "Taluk": "Khilchipur",
    "Districtname": "Rajgarh",
    "statename": "MADHYA PRADESH"
  },
  {
    "pincode": "465679",
    "officename": "Sadiakunwa B.O",
    "officeType": "B.O",
    "Deliverystatus": "Delivery",
    "divisionname": "Sehore",
    "regionname": "Indore",
    "circlename": "Madhya Pradesh",
    "Taluk": "Khilchipur",
    "Districtname": "Rajgarh",
    "statename": "MADHYA PRADESH"
  },
  {
    "pincode": "465679",
    "officename": "Sameli B.O",
    "officeType": "B.O",
    "Deliverystatus": "Delivery",
    "divisionname": "Sehore",
    "regionname": "Indore",
    "circlename": "Madhya Pradesh",
    "Taluk": "Khilchipur",
    "Districtname": "Rajgarh",
    "statename": "MADHYA PRADESH"
  },
  {
    "pincode": "465679",
    "officename": "Semlikalan B.O",
    "officeType": "B.O",
    "Deliverystatus": "Delivery",
    "divisionname": "Sehore",
    "regionname": "Indore",
    "circlename": "Madhya Pradesh",
    "Taluk": "Khilchipur",
    "Districtname": "Rajgarh",
    "statename": "MADHYA PRADESH"
  }
]
