[
  {
    "pincode": "465677",
    "officename": "Amlaar B.O",
    "officeType": "B.O",
    "Deliverystatus": "Delivery",
    "divisionname": "Sehore",
    "regionname": "Indore",
    "circlename": "Madhya Pradesh",
    "Taluk": "Talen",
    "Districtname": "Rajgarh",
    "statename": "MADHYA PRADESH"
  },
  {
    "pincode": "465677",
    "officename": "Bailas B.O",
    "officeType": "B.O",
    "Deliverystatus": "Delivery",
    "divisionname": "Sehore",
    "regionname": "Indore",
    "circlename": "Madhya Pradesh",
    "Taluk": "Suthalia",
    "Districtname": "Rajgarh",
    "statename": "MADHYA PRADESH"
  },
  {
    "pincode": "465677",
    "officename": "Bisoniya B.O",
    "officeType": "B.O",
    "Deliverystatus": "Delivery",
    "divisionname": "Sehore",
    "regionname": "Indore",
    "circlename": "Madhya Pradesh",
    "Taluk": "Narsinghgarh",
    "Districtname": "Rajgarh",
    "statename": "MADHYA PRADESH"
  },
  {
    "pincode": "465677",
    "officename": "Gindorhaat B.O",
    "officeType": "B.O",
    "Deliverystatus": "Delivery",
    "divisionname": "Sehore",
    "regionname": "Indore",
    "circlename": "Madhya Pradesh",
    "Taluk": "Biaora",
    "Districtname": "Rajgarh",
    "statename": "MADHYA PRADESH"
  },
  {
    "pincode": "465677",
    "officename": "Haasrod B.O",
    "officeType": "B.O",
    "Deliverystatus": "Delivery",
    "divisionname": "Sehore",
    "regionname": "Indore",
    "circlename": "Madhya Pradesh",
    "Taluk": "Narsinghgarh",
    "Districtname": "Rajgarh",
    "statename": "MADHYA PRADESH"
  },
  {
    "pincode": "465677",
    "officename": "Kaaned B.O",
    "officeType": "B.O",
    "Deliverystatus": "Delivery",
    "divisionname": "Sehore",
    "regionname": "Indore",
    "circlename": "Madhya Pradesh",
    "Taluk": "Biaora",
    "Districtname": "Rajgarh",
    "statename": "MADHYA PRADESH"
  },
  {
    "pincode": "465677",
    "officename": "Mau B.O",
    "officeType": "B.O",
    "Deliverystatus": "Delivery",
    "divisionname": "Sehore",
    "regionname": "Indore",
    "circlename": "Madhya Pradesh",
    "Taluk": "Narsinghgarh",
    "Districtname": "Rajgarh",
    "statename": "MADHYA PRADESH"
  },
  {
    "pincode": "465677",
    "officename": "Napanera B.O",
    "officeType": "B.O",
    "Deliverystatus": "Delivery",
    "divisionname": "Sehore",
    "regionname": "Indore",
    "circlename": "Madhya Pradesh",
    "Taluk": "Narsinghgarh",
    "Districtname": "Rajgarh",
    "statename": "MADHYA PRADESH"
  },
  {
    "pincode": "465677",
    "officename": "Suthalia S.O",
    "officeType": "S.O",
    "Deliverystatus": "Delivery",
    "divisionname": "Sehore",
    "regionname": "Indore",
    "circlename": "Madhya Pradesh",
    "Taluk": "Narsinghgarh",
    "Districtname": "Rajgarh",
    "statename": "MADHYA PRADESH"
  },
  {
    "pincode": "465677",
    "officename": "Todi B.O",
    "officeType": "B.O",
    "Deliverystatus": "Delivery",
    "divisionname": "Sehore",
    "regionname": "Indore",
    "circlename": "Madhya Pradesh",
    "Taluk": "Narsinghgarh",
    "Districtname": "Rajgarh",
    "statename": "MADHYA PRADESH"
  }
]
