[
  {
    "pincode": "465683",
    "officename": "Baredi B.O",
    "officeType": "B.O",
    "Deliverystatus": "Delivery",
    "divisionname": "Sehore",
    "regionname": "Indore",
    "circlename": "Madhya Pradesh",
    "Taluk": "Pachore",
    "Districtname": "Rajgarh",
    "statename": "MADHYA PRADESH"
  },
  {
    "pincode": "465683",
    "officename": "Bhatkhedi B.O",
    "officeType": "B.O",
    "Deliverystatus": "Delivery",
    "divisionname": "Sehore",
    "regionname": "Indore",
    "circlename": "Madhya Pradesh",
    "Taluk": "Pachore",
    "Districtname": "Rajgarh",
    "statename": "MADHYA PRADESH"
  },
  {
    "pincode": "465683",
    "officename": "Bheelvadiya B.O",
    "officeType": "B.O",
    "Deliverystatus": "Delivery",
    "divisionname": "Sehore",
    "regionname": "Indore",
    "circlename": "Madhya Pradesh",
    "Taluk": "Sarangpur",
    "Districtname": "Rajgarh",
    "statename": "MADHYA PRADESH"
  },
  {
    "pincode": "465683",
    "officename": "Bokdi B.O",
    "officeType": "B.O",
    "Deliverystatus": "Delivery",
    "divisionname": "Sehore",
    "regionname": "Indore",
    "circlename": "Madhya Pradesh",
    "Taluk": "Narsinghgarh",
    "Districtname": "Rajgarh",
    "statename": "MADHYA PRADESH"
  },
  {
    "pincode": "465683",
    "officename": "Dehri Kalan B.O",
    "officeType": "B.O",
    "Deliverystatus": "Delivery",
    "divisionname": "Sehore",
    "regionname": "Indore",
    "circlename": "Madhya Pradesh",
    "Taluk": "Pachore",
    "Districtname": "Rajgarh",
    "statename": "MADHYA PRADESH"
  },
  {
    "pincode": "465683",
    "officename": "Haluhedikalan B.O",
    "officeType": "B.O",
    "Deliverystatus": "Delivery",
    "divisionname": "Sehore",
    "regionname": "Indore",
    "circlename": "Madhya Pradesh",
    "Taluk": "Pachore",
    "Districtname": "Rajgarh",
    "statename": "MADHYA PRADESH"
  },
  {
    "pincode": "465683",
    "officename": "Karanvas B.O",
    "officeType": "B.O",
    "Deliverystatus": "Delivery",
    "divisionname": "Sehore",
    "regionname": "Indore",
    "circlename": "Madhya Pradesh",
    "Taluk": "Sarangpur",
    "Districtname": "Rajgarh",
    "statename": "MADHYA PRADESH"
  },
  {
    "pincode": "465683",
    "officename": "Pachore S.O",
    "officeType": "S.O",
    "Deliverystatus": "Delivery",
    "divisionname": "Sehore",
    "regionname": "Indore",
    "circlename": "Madhya Pradesh",
    "Taluk": "Narsinghgarh",
    "Districtname": "Rajgarh",
    "statename": "MADHYA PRADESH"
  },
  {
    "pincode": "465683",
    "officename": "Padlyaanjna B.O",
    "officeType": "B.O",
    "Deliverystatus": "Delivery",
    "divisionname": "Sehore",
    "regionname": "Indore",
    "circlename": "Madhya Pradesh",
    "Taluk": "Pachore",
    "Districtname": "Rajgarh",
    "statename": "MADHYA PRADESH"
  },
  {
    "pincode": "465683",
    "officename": "Paniya B.O",
    "officeType": "B.O",
    "Deliverystatus": "Delivery",
    "divisionname": "Sehore",
    "regionname": "Indore",
    "circlename": "Madhya Pradesh",
    "Taluk": "Narsinghgarh",
    "Districtname": "Rajgarh",
    "statename": "MADHYA PRADESH"
  },
  {
    "pincode": "465683",
    "officename": "Piplyarasoda B.O",
    "officeType": "B.O",
    "Deliverystatus": "Delivery",
    "divisionname": "Sehore",
    "regionname": "Indore",
    "circlename": "Madhya Pradesh",
    "Taluk": "Narsinghgarh",
    "Districtname": "Rajgarh",
    "statename": "MADHYA PRADESH"
  },
  {
    "pincode": "465683",
    "officename": "Purankhedi B.O",
    "officeType": "B.O",
    "Deliverystatus": "Delivery",
    "divisionname": "Sehore",
    "regionname": "Indore",
    "circlename": "Madhya Pradesh",
    "Taluk": "Biaora",
    "Districtname": "Rajgarh",
    "statename": "MADHYA PRADESH"
  },
  {
    "pincode": "465683",
    "officename": "Sarali B.O",
    "officeType": "B.O",
    "Deliverystatus": "Delivery",
    "divisionname": "Sehore",
    "regionname": "Indore",
    "circlename": "Madhya Pradesh",
    "Taluk": "Pachore",
    "Districtname": "Rajgarh",
    "statename": "MADHYA PRADESH"
  },
  {
    "pincode": "465683",
    "officename": "Sultaniya B.O",
    "officeType": "B.O",
    "Deliverystatus": "Delivery",
    "divisionname": "Sehore",
    "regionname": "Indore",
    "circlename": "Madhya Pradesh",
    "Taluk": "Sarangpur",
    "Districtname": "Rajgarh",
    "statename": "MADHYA PRADESH"
  },
  {
    "pincode": "465683",
    "officename": "Sustani B.O",
    "officeType": "B.O",
    "Deliverystatus": "Delivery",
    "divisionname": "Sehore",
    "regionname": "Indore",
    "circlename": "Madhya Pradesh",
    "Taluk": "Narsinghgarh",
    "Districtname": "Rajgarh",
    "statename": "MADHYA PRADESH"
  },
  {
    "pincode": "465683",
    "officename": "Udankhedi B.O",
    "officeType": "B.O",
    "Deliverystatus": "Delivery",
    "divisionname": "Sehore",
    "regionname": "Indore",
    "circlename": "Madhya Pradesh",
    "Taluk": "Narsinghgarh",
    "Districtname": "Rajgarh",
    "statename": "MADHYA PRADESH"
  }
]
