[
  {
    "pincode": "465685",
    "officename": "Bhaisana B.O",
    "officeType": "B.O",
    "Deliverystatus": "Delivery",
    "divisionname": "Sehore",
    "regionname": "Indore",
    "circlename": "Madhya Pradesh",
    "Taluk": "Narsinghgarh",
    "Districtname": "Rajgarh",
    "statename": "MADHYA PRADESH"
  },
  {
    "pincode": "465685",
    "officename": "Boda S.O",
    "officeType": "S.O",
    "Deliverystatus": "Delivery",
    "divisionname": "Sehore",
    "regionname": "Indore",
    "circlename": "Madhya Pradesh",
    "Taluk": "Biaora",
    "Districtname": "Rajgarh",
    "statename": "MADHYA PRADESH"
  },
  {
    "pincode": "465685",
    "officename": "Dhabla B.O",
    "officeType": "B.O",
    "Deliverystatus": "Delivery",
    "divisionname": "Sehore",
    "regionname": "Indore",
    "circlename": "Madhya Pradesh",
    "Taluk": "Narsinghgarh",
    "Districtname": "Rajgarh",
    "statename": "MADHYA PRADESH"
  },
  {
    "pincode": "465685",
    "officename": "Hinotiya B.O",
    "officeType": "B.O",
    "Deliverystatus": "Delivery",
    "divisionname": "Sehore",
    "regionname": "Indore",
    "circlename": "Madhya Pradesh",
    "Taluk": "Boda",
    "Districtname": "Rajgarh",
    "statename": "MADHYA PRADESH"
  },
  {
    "pincode": "465685",
    "officename": "Kunwar Kotri B.O",
    "officeType": "B.O",
    "Deliverystatus": "Delivery",
    "divisionname": "Sehore",
    "regionname": "Indore",
    "circlename": "Madhya Pradesh",
    "Taluk": "Boda",
    "Districtname": "Rajgarh",
    "statename": "MADHYA PRADESH"
  },
  {
    "pincode": "465685",
    "officename": "Mandawar B.O",
    "officeType": "B.O",
    "Deliverystatus": "Delivery",
    "divisionname": "Sehore",
    "regionname": "Indore",
    "circlename": "Madhya Pradesh",
    "Taluk": "Narsinghgarh",
    "Districtname": "Rajgarh",
    "statename": "MADHYA PRADESH"
  },
  {
    "pincode": "465685",
    "officename": "Nipaniyagarhi B.O",
    "officeType": "B.O",
    "Deliverystatus": "Delivery",
    "divisionname": "Sehore",
    "regionname": "Indore",
    "circlename": "Madhya Pradesh",
    "Taluk": "Narsinghgarh",
    "Districtname": "Rajgarh",
    "statename": "MADHYA PRADESH"
  },
  {
    "pincode": "465685",
    "officename": "Rosala B.O",
    "officeType": "B.O",
    "Deliverystatus": "Delivery",
    "divisionname": "Sehore",
    "regionname": "Indore",
    "circlename": "Madhya Pradesh",
    "Taluk": "Narsinghgarh",
    "Districtname": "Rajgarh",
    "statename": "MADHYA PRADESH"
  }
]
