[
  {
    "pincode": "465667",
    "officename": "Badnagar B.O",
    "officeType": "B.O",
    "Deliverystatus": "Delivery",
    "divisionname": "Sehore",
    "regionname": "Indore",
    "circlename": "Madhya Pradesh",
    "Taluk": "Narsinghgarh",
    "Districtname": "Rajgarh",
    "statename": "MADHYA PRADESH"
  },
  {
    "pincode": "465667",
    "officename": "Borkheda Jageer B.O",
    "officeType": "B.O",
    "Deliverystatus": "Delivery",
    "divisionname": "Sehore",
    "regionname": "Indore",
    "circlename": "Madhya Pradesh",
    "Taluk": "Narsinghgarh",
    "Districtname": "Rajgarh",
    "statename": "MADHYA PRADESH"
  },
  {
    "pincode": "465667",
    "officename": "Geelakhedi B.O",
    "officeType": "B.O",
    "Deliverystatus": "Delivery",
    "divisionname": "Sehore",
    "regionname": "Indore",
    "circlename": "Madhya Pradesh",
    "Taluk": "Sarangpur",
    "Districtname": "Rajgarh",
    "statename": "MADHYA PRADESH"
  },
  {
    "pincode": "465667",
    "officename": "Jamoniyagop B.O",
    "officeType": "B.O",
    "Deliverystatus": "Delivery",
    "divisionname": "Sehore",
    "regionname": "Indore",
    "circlename": "Madhya Pradesh",
    "Taluk": "Narsinghgarh",
    "Districtname": "Rajgarh",
    "statename": "MADHYA PRADESH"
  },
  {
    "pincode": "465667",
    "officename": "Jamuniaganesh B.O",
    "officeType": "B.O",
    "Deliverystatus": "Delivery",
    "divisionname": "Sehore",
    "regionname": "Indore",
    "circlename": "Madhya Pradesh",
    "Taluk": "Narsinghgarh",
    "Districtname": "Rajgarh",
    "statename": "MADHYA PRADESH"
  },
  {
    "pincode": "465667",
    "officename": "Jhadla B.O",
    "officeType": "B.O",
    "Deliverystatus": "Delivery",
    "divisionname": "Sehore",
    "regionname": "Indore",
    "circlename": "Madhya Pradesh",
    "Taluk": "Kurawar",
    "Districtname": "Rajgarh",
    "statename": "MADHYA PRADESH"
  },
  {
    "pincode": "465667",
    "officename": "Kotrikalan B.O",
    "officeType": "B.O",
    "Deliverystatus": "Delivery",
    "divisionname": "Sehore",
    "regionname": "Indore",
    "circlename": "Madhya Pradesh",
    "Taluk": "Narsinghgarh",
    "Districtname": "Rajgarh",
    "statename": "MADHYA PRADESH"
  },
  {
    "pincode": "465667",
    "officename": "Kurawar S.O (Rajgarh)",
    "officeType": "S.O",
    "Deliverystatus": "Delivery",
    "divisionname": "Sehore",
    "regionname": "Indore",
    "circlename": "Madhya Pradesh",
    "Taluk": "Narsinghgarh",
    "Districtname": "Rajgarh",
    "statename": "MADHYA PRADESH"
  },
  {
    "pincode": "465667",
    "officename": "Mana B.O",
    "officeType": "B.O",
    "Deliverystatus": "Delivery",
    "divisionname": "Sehore",
    "regionname": "Indore",
    "circlename": "Madhya Pradesh",
    "Taluk": "Narsinghgarh",
    "Districtname": "Rajgarh",
    "statename": "MADHYA PRADESH"
  },
  {
    "pincode": "465667",
    "officename": "Mundlabarol B.O",
    "officeType": "B.O",
    "Deliverystatus": "Delivery",
    "divisionname": "Sehore",
    "regionname": "Indore",
    "circlename": "Madhya Pradesh",
    "Taluk": "Narsinghgarh",
    "Districtname": "Rajgarh",
    "statename": "MADHYA PRADESH"
  },
  {
    "pincode": "465667",
    "officename": "Pilukhedi B.O",
    "officeType": "B.O",
    "Deliverystatus": "Delivery",
    "divisionname": "Sehore",
    "regionname": "Indore",
    "circlename": "Madhya Pradesh",
    "Taluk": "Narsinghgarh",
    "Districtname": "Rajgarh",
    "statename": "MADHYA PRADESH"
  },
  {
    "pincode": "465667",
    "officename": "Tindoniya B.O",
    "officeType": "B.O",
    "Deliverystatus": "Delivery",
    "divisionname": "Sehore",
    "regionname": "Indore",
    "circlename": "Madhya Pradesh",
    "Taluk": "Narsinghgarh",
    "Districtname": "Rajgarh",
    "statename": "MADHYA PRADESH"
  }
]
