[
  {
    "pincode": "466111",
    "officename": "Aabidabad B.O",
    "officeType": "B.O",
    "Deliverystatus": "Delivery",
    "divisionname": "Sehore",
    "regionname": "Indore",
    "circlename": "Madhya Pradesh",
    "Taluk": "Bilkisganj",
    "Districtname": "Sehore",
    "statename": "MADHYA PRADESH"
  },
  {
    "pincode": "466111",
    "officename": "Bamulia B.O",
    "officeType": "B.O",
    "Deliverystatus": "Delivery",
    "divisionname": "Sehore",
    "regionname": "Indore",
    "circlename": "Madhya Pradesh",
    "Taluk": "Bilkisganj",
    "Districtname": "Sehore",
    "statename": "MADHYA PRADESH"
  },
  {
    "pincode": "466111",
    "officename": "Bilkisganj S.O",
    "officeType": "S.O",
    "Deliverystatus": "Delivery",
    "divisionname": "Sehore",
    "regionname": "Indore",
    "circlename": "Madhya Pradesh",
    "Taluk": "Sehore",
    "Districtname": "Sehore",
    "statename": "MADHYA PRADESH"
  },
  {
    "pincode": "466111",
    "officename": "Dhabla B.O",
    "officeType": "B.O",
    "Deliverystatus": "Delivery",
    "divisionname": "Sehore",
    "regionname": "Indore",
    "circlename": "Madhya Pradesh",
    "Taluk": "Bilkisganj",
    "Districtname": "Sehore",
    "statename": "MADHYA PRADESH"
  },
  {
    "pincode": "466111",
    "officename": "Heerapur B.O",
    "officeType": "B.O",
    "Deliverystatus": "Delivery",
    "divisionname": "Sehore",
    "regionname": "Indore",
    "circlename": "Madhya Pradesh",
    "Taluk": "Sehore",
    "Districtname": "Sehore",
    "statename": "MADHYA PRADESH"
  },
  {
    "pincode": "466111",
    "officename": "Kulaskalan B.O",
    "officeType": "B.O",
    "Deliverystatus": "Delivery",
    "divisionname": "Sehore",
    "regionname": "Indore",
    "circlename": "Madhya Pradesh",
    "Taluk": "Sehore",
    "Districtname": "Sehore",
    "statename": "MADHYA PRADESH"
  },
  {
    "pincode": "466111",
    "officename": "Uljhawan B.O",
    "officeType": "B.O",
    "Deliverystatus": "Delivery",
    "divisionname": "Sehore",
    "regionname": "Indore",
    "circlename": "Madhya Pradesh",
    "Taluk": "Sehore",
    "Districtname": "Sehore",
    "statename": "MADHYA PRADESH"
  },
  {
    "pincode": "466111",
    "officename": "Veerpur Kolardem B.O",
    "officeType": "B.O",
    "Deliverystatus": "Delivery",
    "divisionname": "Sehore",
    "regionname": "Indore",
    "circlename": "Madhya Pradesh",
    "Taluk": "Bilkisganj",
    "Districtname": "Sehore",
    "statename": "MADHYA PRADESH"
  }
]
