[
  {
    "pincode": "466445",
    "officename": "Bayan B.O",
    "officeType": "B.O",
    "Deliverystatus": "Delivery",
    "divisionname": "Sehore",
    "regionname": "Indore",
    "circlename": "Madhya Pradesh",
    "Taluk": "Budhni",
    "Districtname": "Sehore",
    "statename": "MADHYA PRADESH"
  },
  {
    "pincode": "466445",
    "officename": "Budhni T.N. S.O",
    "officeType": "S.O",
    "Deliverystatus": "Delivery",
    "divisionname": "Sehore",
    "regionname": "Indore",
    "circlename": "Madhya Pradesh",
    "Taluk": "Sehore",
    "Districtname": "Sehore",
    "statename": "MADHYA PRADESH"
  },
  {
    "pincode": "466445",
    "officename": "Budni Ghat B.O",
    "officeType": "B.O",
    "Deliverystatus": "Delivery",
    "divisionname": "Sehore",
    "regionname": "Indore",
    "circlename": "Madhya Pradesh",
    "Taluk": "Budni",
    "Districtname": "Sehore",
    "statename": "MADHYA PRADESH"
  },
  {
    "pincode": "466445",
    "officename": "Jahajpura B.O",
    "officeType": "B.O",
    "Deliverystatus": "Delivery",
    "divisionname": "Sehore",
    "regionname": "Indore",
    "circlename": "Madhya Pradesh",
    "Taluk": "Budhni",
    "Districtname": "Sehore",
    "statename": "MADHYA PRADESH"
  },
  {
    "pincode": "466445",
    "officename": "Joshipur B.O",
    "officeType": "B.O",
    "Deliverystatus": "Delivery",
    "divisionname": "Sehore",
    "regionname": "Indore",
    "circlename": "Madhya Pradesh",
    "Taluk": "Budhni",
    "Districtname": "Sehore",
    "statename": "MADHYA PRADESH"
  },
  {
    "pincode": "466445",
    "officename": "Khaikheda B.O",
    "officeType": "B.O",
    "Deliverystatus": "Delivery",
    "divisionname": "Sehore",
    "regionname": "Indore",
    "circlename": "Madhya Pradesh",
    "Taluk": "Doraha",
    "Districtname": "Sehore",
    "statename": "MADHYA PRADESH"
  },
  {
    "pincode": "466445",
    "officename": "Paatan B.O",
    "officeType": "B.O",
    "Deliverystatus": "Delivery",
    "divisionname": "Sehore",
    "regionname": "Indore",
    "circlename": "Madhya Pradesh",
    "Taluk": "Doraha",
    "Districtname": "Sehore",
    "statename": "MADHYA PRADESH"
  },
  {
    "pincode": "466445",
    "officename": "Panguradiya B.O",
    "officeType": "B.O",
    "Deliverystatus": "Delivery",
    "divisionname": "Sehore",
    "regionname": "Indore",
    "circlename": "Madhya Pradesh",
    "Taluk": "Budhni",
    "Districtname": "Sehore",
    "statename": "MADHYA PRADESH"
  },
  {
    "pincode": "466445",
    "officename": "Pilikarar B.O",
    "officeType": "B.O",
    "Deliverystatus": "Delivery",
    "divisionname": "Sehore",
    "regionname": "Indore",
    "circlename": "Madhya Pradesh",
    "Taluk": "Budhni",
    "Districtname": "Sehore",
    "statename": "MADHYA PRADESH"
  }
]
