[
  {
    "pincode": "466446",
    "officename": "Amirganj B.O",
    "officeType": "B.O",
    "Deliverystatus": "Delivery",
    "divisionname": "Sehore",
    "regionname": "Indore",
    "circlename": "Madhya Pradesh",
    "Taluk": "Rehti",
    "Districtname": "Sehore",
    "statename": "MADHYA PRADESH"
  },
  {
    "pincode": "466446",
    "officename": "Chakaldi B.O",
    "officeType": "B.O",
    "Deliverystatus": "Delivery",
    "divisionname": "Sehore",
    "regionname": "Indore",
    "circlename": "Madhya Pradesh",
    "Taluk": "Rehti",
    "Districtname": "Sehore",
    "statename": "MADHYA PRADESH"
  },
  {
    "pincode": "466446",
    "officename": "Khadli B.O",
    "officeType": "B.O",
    "Deliverystatus": "Delivery",
    "divisionname": "Sehore",
    "regionname": "Indore",
    "circlename": "Madhya Pradesh",
    "Taluk": "Rehti",
    "Districtname": "Sehore",
    "statename": "MADHYA PRADESH"
  },
  {
    "pincode": "466446",
    "officename": "Kheri B.O",
    "officeType": "B.O",
    "Deliverystatus": "Delivery",
    "divisionname": "Sehore",
    "regionname": "Indore",
    "circlename": "Madhya Pradesh",
    "Taluk": "Rehti",
    "Districtname": "Sehore",
    "statename": "MADHYA PRADESH"
  },
  {
    "pincode": "466446",
    "officename": "Manjharkui B.O",
    "officeType": "B.O",
    "Deliverystatus": "Delivery",
    "divisionname": "Sehore",
    "regionname": "Indore",
    "circlename": "Madhya Pradesh",
    "Taluk": "Rehti",
    "Districtname": "Sehore",
    "statename": "MADHYA PRADESH"
  },
  {
    "pincode": "466446",
    "officename": "Mardanpur B.O",
    "officeType": "B.O",
    "Deliverystatus": "Delivery",
    "divisionname": "Sehore",
    "regionname": "Indore",
    "circlename": "Madhya Pradesh",
    "Taluk": "Rehti",
    "Districtname": "Sehore",
    "statename": "MADHYA PRADESH"
  },
  {
    "pincode": "466446",
    "officename": "Rehti S.O",
    "officeType": "S.O",
    "Deliverystatus": "Delivery",
    "divisionname": "Sehore",
    "regionname": "Indore",
    "circlename": "Madhya Pradesh",
    "Taluk": "Budni",
    "Districtname": "Sehore",
    "statename": "MADHYA PRADESH"
  },
  {
    "pincode": "466446",
    "officename": "Salkanpur B.O",
    "officeType": "B.O",
    "Deliverystatus": "Delivery",
    "divisionname": "Sehore",
    "regionname": "Indore",
    "circlename": "Madhya Pradesh",
    "Taluk": "Budni",
    "Districtname": "Sehore",
    "statename": "MADHYA PRADESH"
  },
  {
    "pincode": "466446",
    "officename": "Semrikatkuna B.O",
    "officeType": "B.O",
    "Deliverystatus": "Delivery",
    "divisionname": "Sehore",
    "regionname": "Indore",
    "circlename": "Madhya Pradesh",
    "Taluk": "Budni",
    "Districtname": "Sehore",
    "statename": "MADHYA PRADESH"
  },
  {
    "pincode": "466446",
    "officename": "Soyat B.O",
    "officeType": "B.O",
    "Deliverystatus": "Delivery",
    "divisionname": "Sehore",
    "regionname": "Indore",
    "circlename": "Madhya Pradesh",
    "Taluk": "Rehti",
    "Districtname": "Sehore",
    "statename": "MADHYA PRADESH"
  }
]
