[
  {
    "pincode": "470125",
    "officename": "Agariya B.O",
    "officeType": "B.O",
    "Deliverystatus": "Delivery",
    "divisionname": "Sagar",
    "regionname": "Bhopal HQ",
    "circlename": "Madhya Pradesh",
    "Taluk": "Sagar",
    "Districtname": "Sagar",
    "statename": "MADHYA PRADESH"
  },
  {
    "pincode": "470125",
    "officename": "Bansa B.O",
    "officeType": "B.O",
    "Deliverystatus": "Delivery",
    "divisionname": "Sagar",
    "regionname": "Bhopal HQ",
    "circlename": "Madhya Pradesh",
    "Taluk": "Sagar",
    "Districtname": "Sagar",
    "statename": "MADHYA PRADESH"
  },
  {
    "pincode": "470125",
    "officename": "Dungariya B.O",
    "officeType": "B.O",
    "Deliverystatus": "Delivery",
    "divisionname": "Sagar",
    "regionname": "Bhopal HQ",
    "circlename": "Madhya Pradesh",
    "Taluk": "Sagar",
    "Districtname": "Sagar",
    "statename": "MADHYA PRADESH"
  },
  {
    "pincode": "470125",
    "officename": "Gehuras B.O",
    "officeType": "B.O",
    "Deliverystatus": "Delivery",
    "divisionname": "Sagar",
    "regionname": "Bhopal HQ",
    "circlename": "Madhya Pradesh",
    "Taluk": "Sagar",
    "Districtname": "Sagar",
    "statename": "MADHYA PRADESH"
  },
  {
    "pincode": "470125",
    "officename": "Jaisinagar S.O",
    "officeType": "S.O",
    "Deliverystatus": "Delivery",
    "divisionname": "Sagar",
    "regionname": "Bhopal HQ",
    "circlename": "Madhya Pradesh",
    "Taluk": "Sagar",
    "Districtname": "Sagar",
    "statename": "MADHYA PRADESH"
  },
  {
    "pincode": "470125",
    "officename": "Karaiya B.O",
    "officeType": "B.O",
    "Deliverystatus": "Delivery",
    "divisionname": "Sagar",
    "regionname": "Bhopal HQ",
    "circlename": "Madhya Pradesh",
    "Taluk": "Sagar",
    "Districtname": "Sagar",
    "statename": "MADHYA PRADESH"
  },
  {
    "pincode": "470125",
    "officename": "Padarai B.O",
    "officeType": "B.O",
    "Deliverystatus": "Delivery",
    "divisionname": "Sagar",
    "regionname": "Bhopal HQ",
    "circlename": "Madhya Pradesh",
    "Taluk": "Sagar",
    "Districtname": "Sagar",
    "statename": "MADHYA PRADESH"
  },
  {
    "pincode": "470125",
    "officename": "Sarkhadi B.O",
    "officeType": "B.O",
    "Deliverystatus": "Delivery",
    "divisionname": "Sagar",
    "regionname": "Bhopal HQ",
    "circlename": "Madhya Pradesh",
    "Taluk": "Sagar",
    "Districtname": "Sagar",
    "statename": "MADHYA PRADESH"
  },
  {
    "pincode": "470125",
    "officename": "Toda Tarafdar B.O",
    "officeType": "B.O",
    "Deliverystatus": "Delivery",
    "divisionname": "Sagar",
    "regionname": "Bhopal HQ",
    "circlename": "Madhya Pradesh",
    "Taluk": "Sagar",
    "Districtname": "Sagar",
    "statename": "MADHYA PRADESH"
  }
]
