[
  {
    "pincode": "470119",
    "officename": "Chandrapur B.O",
    "officeType": "B.O",
    "Deliverystatus": "Delivery",
    "divisionname": "Sagar",
    "regionname": "Bhopal HQ",
    "circlename": "Madhya Pradesh",
    "Taluk": "Sagar",
    "Districtname": "Sagar",
    "statename": "MADHYA PRADESH"
  },
  {
    "pincode": "470119",
    "officename": "Hirankheda B.O",
    "officeType": "B.O",
    "Deliverystatus": "Delivery",
    "divisionname": "Sagar",
    "regionname": "Bhopal HQ",
    "circlename": "Madhya Pradesh",
    "Taluk": "Sagar",
    "Districtname": "Sagar",
    "statename": "MADHYA PRADESH"
  },
  {
    "pincode": "470119",
    "officename": "Jhila B.O",
    "officeType": "B.O",
    "Deliverystatus": "Delivery",
    "divisionname": "Sagar",
    "regionname": "Bhopal HQ",
    "circlename": "Madhya Pradesh",
    "Taluk": "Sagar",
    "Districtname": "Sagar",
    "statename": "MADHYA PRADESH"
  },
  {
    "pincode": "470119",
    "officename": "Khaijra Mafi B.O",
    "officeType": "B.O",
    "Deliverystatus": "Delivery",
    "divisionname": "Sagar",
    "regionname": "Bhopal HQ",
    "circlename": "Madhya Pradesh",
    "Taluk": "Sagar",
    "Districtname": "Sagar",
    "statename": "MADHYA PRADESH"
  },
  {
    "pincode": "470119",
    "officename": "Mahuna Gujar B.O",
    "officeType": "B.O",
    "Deliverystatus": "Delivery",
    "divisionname": "Sagar",
    "regionname": "Bhopal HQ",
    "circlename": "Madhya Pradesh",
    "Taluk": "Sagar",
    "Districtname": "Sagar",
    "statename": "MADHYA PRADESH"
  },
  {
    "pincode": "470119",
    "officename": "Manki Salaiya B.O",
    "officeType": "B.O",
    "Deliverystatus": "Delivery",
    "divisionname": "Sagar",
    "regionname": "Bhopal HQ",
    "circlename": "Madhya Pradesh",
    "Taluk": "Sagar",
    "Districtname": "Sagar",
    "statename": "MADHYA PRADESH"
  },
  {
    "pincode": "470119",
    "officename": "Meerkhedi B.O",
    "officeType": "B.O",
    "Deliverystatus": "Delivery",
    "divisionname": "Sagar",
    "regionname": "Bhopal HQ",
    "circlename": "Madhya Pradesh",
    "Taluk": "Sagar",
    "Districtname": "Sagar",
    "statename": "MADHYA PRADESH"
  },
  {
    "pincode": "470119",
    "officename": "Parasari Kalan B.O",
    "officeType": "B.O",
    "Deliverystatus": "Delivery",
    "divisionname": "Sagar",
    "regionname": "Bhopal HQ",
    "circlename": "Madhya Pradesh",
    "Taluk": "Sagar",
    "Districtname": "Sagar",
    "statename": "MADHYA PRADESH"
  },
  {
    "pincode": "470119",
    "officename": "Rahatgarh S.O",
    "officeType": "S.O",
    "Deliverystatus": "Delivery",
    "divisionname": "Sagar",
    "regionname": "Bhopal HQ",
    "circlename": "Madhya Pradesh",
    "Taluk": "Sagar",
    "Districtname": "Sagar",
    "statename": "MADHYA PRADESH"
  }
]
