[
  {
    "pincode": "470120",
    "officename": "Bhaisa B.O",
    "officeType": "B.O",
    "Deliverystatus": "Delivery",
    "divisionname": "Sagar",
    "regionname": "Bhopal HQ",
    "circlename": "Madhya Pradesh",
    "Taluk": "Sagar",
    "Districtname": "Sagar",
    "statename": "MADHYA PRADESH"
  },
  {
    "pincode": "470120",
    "officename": "Bhapel B.O",
    "officeType": "B.O",
    "Deliverystatus": "Delivery",
    "divisionname": "Sagar",
    "regionname": "Bhopal HQ",
    "circlename": "Madhya Pradesh",
    "Taluk": "Sagar",
    "Districtname": "Sagar",
    "statename": "MADHYA PRADESH"
  },
  {
    "pincode": "470120",
    "officename": "Ghambhiriyahat B.O",
    "officeType": "B.O",
    "Deliverystatus": "Delivery",
    "divisionname": "Sagar",
    "regionname": "Bhopal HQ",
    "circlename": "Madhya Pradesh",
    "Taluk": "Sagar",
    "Districtname": "Sagar",
    "statename": "MADHYA PRADESH"
  },
  {
    "pincode": "470120",
    "officename": "Kanera Gaund B.O",
    "officeType": "B.O",
    "Deliverystatus": "Delivery",
    "divisionname": "Sagar",
    "regionname": "Bhopal HQ",
    "circlename": "Madhya Pradesh",
    "Taluk": "Sagar",
    "Districtname": "Sagar",
    "statename": "MADHYA PRADESH"
  },
  {
    "pincode": "470120",
    "officename": "Mardanpur B.O",
    "officeType": "B.O",
    "Deliverystatus": "Delivery",
    "divisionname": "Sagar",
    "regionname": "Bhopal HQ",
    "circlename": "Madhya Pradesh",
    "Taluk": "Sagar",
    "Districtname": "Sagar",
    "statename": "MADHYA PRADESH"
  },
  {
    "pincode": "470120",
    "officename": "Masurhai B.O",
    "officeType": "B.O",
    "Deliverystatus": "Delivery",
    "divisionname": "Sagar",
    "regionname": "Bhopal HQ",
    "circlename": "Madhya Pradesh",
    "Taluk": "Sagar",
    "Districtname": "Sagar",
    "statename": "MADHYA PRADESH"
  },
  {
    "pincode": "470120",
    "officename": "Sattadhana B.O",
    "officeType": "B.O",
    "Deliverystatus": "Delivery",
    "divisionname": "Sagar",
    "regionname": "Bhopal HQ",
    "circlename": "Madhya Pradesh",
    "Taluk": "Sagar",
    "Districtname": "Sagar",
    "statename": "MADHYA PRADESH"
  },
  {
    "pincode": "470120",
    "officename": "Sihora S.O (Sagar)",
    "officeType": "S.O",
    "Deliverystatus": "Delivery",
    "divisionname": "Sagar",
    "regionname": "Bhopal HQ",
    "circlename": "Madhya Pradesh",
    "Taluk": "Sagar",
    "Districtname": "Sagar",
    "statename": "MADHYA PRADESH"
  },
  {
    "pincode": "470120",
    "officename": "Thikari B.O",
    "officeType": "B.O",
    "Deliverystatus": "Delivery",
    "divisionname": "Sagar",
    "regionname": "Bhopal HQ",
    "circlename": "Madhya Pradesh",
    "Taluk": "Rahatgarh",
    "Districtname": "Sagar",
    "statename": "MADHYA PRADESH"
  },
  {
    "pincode": "470120",
    "officename": "Tila Buzurg B.O",
    "officeType": "B.O",
    "Deliverystatus": "Delivery",
    "divisionname": "Sagar",
    "regionname": "Bhopal HQ",
    "circlename": "Madhya Pradesh",
    "Taluk": "Rahatgarh",
    "Districtname": "Sagar",
    "statename": "MADHYA PRADESH"
  }
]
