[
  {
    "pincode": "470235",
    "officename": "Chauka B.O",
    "officeType": "B.O",
    "Deliverystatus": "Delivery",
    "divisionname": "Sagar",
    "regionname": "Bhopal HQ",
    "circlename": "Madhya Pradesh",
    "Taluk": "Kesli",
    "Districtname": "Sagar",
    "statename": "MADHYA PRADESH"
  },
  {
    "pincode": "470235",
    "officename": "Ghana B.O",
    "officeType": "B.O",
    "Deliverystatus": "Delivery",
    "divisionname": "Sagar",
    "regionname": "Bhopal HQ",
    "circlename": "Madhya Pradesh",
    "Taluk": "Garhakota",
    "Districtname": "Sagar",
    "statename": "MADHYA PRADESH"
  },
  {
    "pincode": "470235",
    "officename": "Gutori B.O",
    "officeType": "B.O",
    "Deliverystatus": "Delivery",
    "divisionname": "Sagar",
    "regionname": "Bhopal HQ",
    "circlename": "Madhya Pradesh",
    "Taluk": "Kesli",
    "Districtname": "Sagar",
    "statename": "MADHYA PRADESH"
  },
  {
    "pincode": "470235",
    "officename": "Gutori Pana B.O",
    "officeType": "B.O",
    "Deliverystatus": "Delivery",
    "divisionname": "Sagar",
    "regionname": "Bhopal HQ",
    "circlename": "Madhya Pradesh",
    "Taluk": "Kesli",
    "Districtname": "Sagar",
    "statename": "MADHYA PRADESH"
  },
  {
    "pincode": "470235",
    "officename": "Jhiriya Adharpur B.O",
    "officeType": "B.O",
    "Deliverystatus": "Delivery",
    "divisionname": "Sagar",
    "regionname": "Bhopal HQ",
    "circlename": "Madhya Pradesh",
    "Taluk": "Kesli",
    "Districtname": "Sagar",
    "statename": "MADHYA PRADESH"
  },
  {
    "pincode": "470235",
    "officename": "Kesli S.O",
    "officeType": "S.O",
    "Deliverystatus": "Delivery",
    "divisionname": "Sagar",
    "regionname": "Bhopal HQ",
    "circlename": "Madhya Pradesh",
    "Taluk": "Kesli",
    "Districtname": "Sagar",
    "statename": "MADHYA PRADESH"
  },
  {
    "pincode": "470235",
    "officename": "Kevlari Kalan B.O",
    "officeType": "B.O",
    "Deliverystatus": "Delivery",
    "divisionname": "Sagar",
    "regionname": "Bhopal HQ",
    "circlename": "Madhya Pradesh",
    "Taluk": "Kesli",
    "Districtname": "Sagar",
    "statename": "MADHYA PRADESH"
  },
  {
    "pincode": "470235",
    "officename": "Muhli B.O",
    "officeType": "B.O",
    "Deliverystatus": "Delivery",
    "divisionname": "Sagar",
    "regionname": "Bhopal HQ",
    "circlename": "Madhya Pradesh",
    "Taluk": "Rehli",
    "Districtname": "Sagar",
    "statename": "MADHYA PRADESH"
  },
  {
    "pincode": "470235",
    "officename": "Patha B.O",
    "officeType": "B.O",
    "Deliverystatus": "Delivery",
    "divisionname": "Sagar",
    "regionname": "Bhopal HQ",
    "circlename": "Madhya Pradesh",
    "Taluk": "Kesli",
    "Districtname": "Sagar",
    "statename": "MADHYA PRADESH"
  },
  {
    "pincode": "470235",
    "officename": "Sahajpur B.O",
    "officeType": "B.O",
    "Deliverystatus": "Delivery",
    "divisionname": "Sagar",
    "regionname": "Bhopal HQ",
    "circlename": "Madhya Pradesh",
    "Taluk": "Sagar",
    "Districtname": "Sagar",
    "statename": "MADHYA PRADESH"
  },
  {
    "pincode": "470235",
    "officename": "Tada B.O",
    "officeType": "B.O",
    "Deliverystatus": "Delivery",
    "divisionname": "Sagar",
    "regionname": "Bhopal HQ",
    "circlename": "Madhya Pradesh",
    "Taluk": "Kesli",
    "Districtname": "Sagar",
    "statename": "MADHYA PRADESH"
  }
]
