[
  {
    "pincode": "470442",
    "officename": "Bahrol B.O",
    "officeType": "B.O",
    "Deliverystatus": "Delivery",
    "divisionname": "Sagar",
    "regionname": "Bhopal HQ",
    "circlename": "Madhya Pradesh",
    "Taluk": "Sagar",
    "Districtname": "Sagar",
    "statename": "MADHYA PRADESH"
  },
  {
    "pincode": "470442",
    "officename": "Bandri S.O",
    "officeType": "S.O",
    "Deliverystatus": "Delivery",
    "divisionname": "Sagar",
    "regionname": "Bhopal HQ",
    "circlename": "Madhya Pradesh",
    "Taluk": "Sagar",
    "Districtname": "Sagar",
    "statename": "MADHYA PRADESH"
  },
  {
    "pincode": "470442",
    "officename": "Laloai B.O",
    "officeType": "B.O",
    "Deliverystatus": "Delivery",
    "divisionname": "Sagar",
    "regionname": "Bhopal HQ",
    "circlename": "Madhya Pradesh",
    "Taluk": "Sagar",
    "Districtname": "Sagar",
    "statename": "MADHYA PRADESH"
  },
  {
    "pincode": "470442",
    "officename": "Mehar B.O",
    "officeType": "B.O",
    "Deliverystatus": "Delivery",
    "divisionname": "Sagar",
    "regionname": "Bhopal HQ",
    "circlename": "Madhya Pradesh",
    "Taluk": "Sagar",
    "Districtname": "Sagar",
    "statename": "MADHYA PRADESH"
  },
  {
    "pincode": "470442",
    "officename": "Newtna B.O",
    "officeType": "B.O",
    "Deliverystatus": "Delivery",
    "divisionname": "Sagar",
    "regionname": "Bhopal HQ",
    "circlename": "Madhya Pradesh",
    "Taluk": "Sagar",
    "Districtname": "Sagar",
    "statename": "MADHYA PRADESH"
  },
  {
    "pincode": "470442",
    "officename": "Pidruya B.O",
    "officeType": "B.O",
    "Deliverystatus": "Delivery",
    "divisionname": "Sagar",
    "regionname": "Bhopal HQ",
    "circlename": "Madhya Pradesh",
    "Taluk": "Sagar",
    "Districtname": "Sagar",
    "statename": "MADHYA PRADESH"
  },
  {
    "pincode": "470442",
    "officename": "Pithoriya B.O",
    "officeType": "B.O",
    "Deliverystatus": "Delivery",
    "divisionname": "Sagar",
    "regionname": "Bhopal HQ",
    "circlename": "Madhya Pradesh",
    "Taluk": "Sagar",
    "Districtname": "Sagar",
    "statename": "MADHYA PRADESH"
  },
  {
    "pincode": "470442",
    "officename": "Rajwas B.O",
    "officeType": "B.O",
    "Deliverystatus": "Delivery",
    "divisionname": "Sagar",
    "regionname": "Bhopal HQ",
    "circlename": "Madhya Pradesh",
    "Taluk": "Sagar",
    "Districtname": "Sagar",
    "statename": "MADHYA PRADESH"
  },
  {
    "pincode": "470442",
    "officename": "Sagoni B.O",
    "officeType": "B.O",
    "Deliverystatus": "Delivery",
    "divisionname": "Sagar",
    "regionname": "Bhopal HQ",
    "circlename": "Madhya Pradesh",
    "Taluk": "Sagar",
    "Districtname": "Sagar",
    "statename": "MADHYA PRADESH"
  },
  {
    "pincode": "470442",
    "officename": "Semrahat B.O",
    "officeType": "B.O",
    "Deliverystatus": "Delivery",
    "divisionname": "Sagar",
    "regionname": "Bhopal HQ",
    "circlename": "Madhya Pradesh",
    "Taluk": "Khurai",
    "Districtname": "Sagar",
    "statename": "MADHYA PRADESH"
  }
]
