[
  {
    "pincode": "470663",
    "officename": "Bamorimala B.O",
    "officeType": "B.O",
    "Deliverystatus": "Delivery",
    "divisionname": "Sagar",
    "regionname": "Bhopal HQ",
    "circlename": "Madhya Pradesh",
    "Taluk": "Batiyagarh",
    "Districtname": "Damoh",
    "statename": "MADHYA PRADESH"
  },
  {
    "pincode": "470663",
    "officename": "Chaupra B.O",
    "officeType": "B.O",
    "Deliverystatus": "Delivery",
    "divisionname": "Sagar",
    "regionname": "Bhopal HQ",
    "circlename": "Madhya Pradesh",
    "Taluk": "Jabera",
    "Districtname": "Damoh",
    "statename": "MADHYA PRADESH"
  },
  {
    "pincode": "470663",
    "officename": "Harduya Sadak B.O",
    "officeType": "B.O",
    "Deliverystatus": "Delivery",
    "divisionname": "Sagar",
    "regionname": "Bhopal HQ",
    "circlename": "Madhya Pradesh",
    "Taluk": "Damoh",
    "Districtname": "Damoh",
    "statename": "MADHYA PRADESH"
  },
  {
    "pincode": "470663",
    "officename": "Kalehrakheda B.O",
    "officeType": "B.O",
    "Deliverystatus": "Delivery",
    "divisionname": "Sagar",
    "regionname": "Bhopal HQ",
    "circlename": "Madhya Pradesh",
    "Taluk": "Damoh",
    "Districtname": "Damoh",
    "statename": "MADHYA PRADESH"
  },
  {
    "pincode": "470663",
    "officename": "Lakhni B.O",
    "officeType": "B.O",
    "Deliverystatus": "Delivery",
    "divisionname": "Sagar",
    "regionname": "Bhopal HQ",
    "circlename": "Madhya Pradesh",
    "Taluk": "Damoh",
    "Districtname": "Damoh",
    "statename": "MADHYA PRADESH"
  },
  {
    "pincode": "470663",
    "officename": "Mojipura B.O",
    "officeType": "B.O",
    "Deliverystatus": "Delivery",
    "divisionname": "Sagar",
    "regionname": "Bhopal HQ",
    "circlename": "Madhya Pradesh",
    "Taluk": "Jabera",
    "Districtname": "Damoh",
    "statename": "MADHYA PRADESH"
  },
  {
    "pincode": "470663",
    "officename": "Nohata S.O",
    "officeType": "S.O",
    "Deliverystatus": "Delivery",
    "divisionname": "Sagar",
    "regionname": "Bhopal HQ",
    "circlename": "Madhya Pradesh",
    "Taluk": "Jabera",
    "Districtname": "Damoh",
    "statename": "MADHYA PRADESH"
  },
  {
    "pincode": "470663",
    "officename": "Road B.O",
    "officeType": "B.O",
    "Deliverystatus": "Delivery",
    "divisionname": "Sagar",
    "regionname": "Bhopal HQ",
    "circlename": "Madhya Pradesh",
    "Taluk": "Jabera",
    "Districtname": "Damoh",
    "statename": "MADHYA PRADESH"
  },
  {
    "pincode": "470663",
    "officename": "Sakha B.O",
    "officeType": "B.O",
    "Deliverystatus": "Delivery",
    "divisionname": "Sagar",
    "regionname": "Bhopal HQ",
    "circlename": "Madhya Pradesh",
    "Taluk": "Jabera",
    "Districtname": "Damoh",
    "statename": "MADHYA PRADESH"
  }
]
