[
  {
    "pincode": "470673",
    "officename": "Agara B.O",
    "officeType": "B.O",
    "Deliverystatus": "Delivery",
    "divisionname": "Sagar",
    "regionname": "Bhopal HQ",
    "circlename": "Madhya Pradesh",
    "Taluk": "Damoh",
    "Districtname": "Damoh",
    "statename": "MADHYA PRADESH"
  },
  {
    "pincode": "470673",
    "officename": "Ajni B.O",
    "officeType": "B.O",
    "Deliverystatus": "Delivery",
    "divisionname": "Sagar",
    "regionname": "Bhopal HQ",
    "circlename": "Madhya Pradesh",
    "Taluk": "Damoh",
    "Districtname": "Damoh",
    "statename": "MADHYA PRADESH"
  },
  {
    "pincode": "470673",
    "officename": "Bakayan B.O",
    "officeType": "B.O",
    "Deliverystatus": "Delivery",
    "divisionname": "Sagar",
    "regionname": "Bhopal HQ",
    "circlename": "Madhya Pradesh",
    "Taluk": "Damoh",
    "Districtname": "Damoh",
    "statename": "MADHYA PRADESH"
  },
  {
    "pincode": "470673",
    "officename": "Batiagarh S.O",
    "officeType": "S.O",
    "Deliverystatus": "Delivery",
    "divisionname": "Sagar",
    "regionname": "Bhopal HQ",
    "circlename": "Madhya Pradesh",
    "Taluk": "Batiyagarh",
    "Districtname": "Damoh",
    "statename": "MADHYA PRADESH"
  },
  {
    "pincode": "470673",
    "officename": "Kaithora B.O",
    "officeType": "B.O",
    "Deliverystatus": "Delivery",
    "divisionname": "Sagar",
    "regionname": "Bhopal HQ",
    "circlename": "Madhya Pradesh",
    "Taluk": "Damoh",
    "Districtname": "Damoh",
    "statename": "MADHYA PRADESH"
  },
  {
    "pincode": "470673",
    "officename": "Kerwana B.O",
    "officeType": "B.O",
    "Deliverystatus": "Delivery",
    "divisionname": "Sagar",
    "regionname": "Bhopal HQ",
    "circlename": "Madhya Pradesh",
    "Taluk": "Damoh",
    "Districtname": "Damoh",
    "statename": "MADHYA PRADESH"
  },
  {
    "pincode": "470673",
    "officename": "Khaderi B.O",
    "officeType": "B.O",
    "Deliverystatus": "Delivery",
    "divisionname": "Sagar",
    "regionname": "Bhopal HQ",
    "circlename": "Madhya Pradesh",
    "Taluk": "Damoh",
    "Districtname": "Damoh",
    "statename": "MADHYA PRADESH"
  },
  {
    "pincode": "470673",
    "officename": "Mangola B.O",
    "officeType": "B.O",
    "Deliverystatus": "Delivery",
    "divisionname": "Sagar",
    "regionname": "Bhopal HQ",
    "circlename": "Madhya Pradesh",
    "Taluk": "Damoh",
    "Districtname": "Damoh",
    "statename": "MADHYA PRADESH"
  },
  {
    "pincode": "470673",
    "officename": "Phutera Kalan B.O",
    "officeType": "B.O",
    "Deliverystatus": "Delivery",
    "divisionname": "Sagar",
    "regionname": "Bhopal HQ",
    "circlename": "Madhya Pradesh",
    "Taluk": "Batiyagarh",
    "Districtname": "Damoh",
    "statename": "MADHYA PRADESH"
  },
  {
    "pincode": "470673",
    "officename": "Tindua B.O",
    "officeType": "B.O",
    "Deliverystatus": "Delivery",
    "divisionname": "Sagar",
    "regionname": "Bhopal HQ",
    "circlename": "Madhya Pradesh",
    "Taluk": "Damoh",
    "Districtname": "Damoh",
    "statename": "MADHYA PRADESH"
  }
]
