[
  {
    "pincode": "470666",
    "officename": "Bilani B.O",
    "officeType": "B.O",
    "Deliverystatus": "Delivery",
    "divisionname": "Sagar",
    "regionname": "Bhopal HQ",
    "circlename": "Madhya Pradesh",
    "Taluk": "Pathariya",
    "Districtname": "Damoh",
    "statename": "MADHYA PRADESH"
  },
  {
    "pincode": "470666",
    "officename": "Botrai B.O",
    "officeType": "B.O",
    "Deliverystatus": "Delivery",
    "divisionname": "Sagar",
    "regionname": "Bhopal HQ",
    "circlename": "Madhya Pradesh",
    "Taluk": "Pathariya",
    "Districtname": "Damoh",
    "statename": "MADHYA PRADESH"
  },
  {
    "pincode": "470666",
    "officename": "Jerath B.O",
    "officeType": "B.O",
    "Deliverystatus": "Delivery",
    "divisionname": "Sagar",
    "regionname": "Bhopal HQ",
    "circlename": "Madhya Pradesh",
    "Taluk": "Pathariya",
    "Districtname": "Damoh",
    "statename": "MADHYA PRADESH"
  },
  {
    "pincode": "470666",
    "officename": "Kevlari B.O",
    "officeType": "B.O",
    "Deliverystatus": "Delivery",
    "divisionname": "Sagar",
    "regionname": "Bhopal HQ",
    "circlename": "Madhya Pradesh",
    "Taluk": "Pathariya",
    "Districtname": "Damoh",
    "statename": "MADHYA PRADESH"
  },
  {
    "pincode": "470666",
    "officename": "Kindroh B.O",
    "officeType": "B.O",
    "Deliverystatus": "Delivery",
    "divisionname": "Sagar",
    "regionname": "Bhopal HQ",
    "circlename": "Madhya Pradesh",
    "Taluk": "Pathariya",
    "Districtname": "Damoh",
    "statename": "MADHYA PRADESH"
  },
  {
    "pincode": "470666",
    "officename": "Lakhroni B.O",
    "officeType": "B.O",
    "Deliverystatus": "Delivery",
    "divisionname": "Sagar",
    "regionname": "Bhopal HQ",
    "circlename": "Madhya Pradesh",
    "Taluk": "Pathariya",
    "Districtname": "Damoh",
    "statename": "MADHYA PRADESH"
  },
  {
    "pincode": "470666",
    "officename": "Nandrai B.O",
    "officeType": "B.O",
    "Deliverystatus": "Delivery",
    "divisionname": "Sagar",
    "regionname": "Bhopal HQ",
    "circlename": "Madhya Pradesh",
    "Taluk": "Pathariya",
    "Districtname": "Damoh",
    "statename": "MADHYA PRADESH"
  },
  {
    "pincode": "470666",
    "officename": "Pathariya S.O",
    "officeType": "S.O",
    "Deliverystatus": "Delivery",
    "divisionname": "Sagar",
    "regionname": "Bhopal HQ",
    "circlename": "Madhya Pradesh",
    "Taluk": "Damoh",
    "Districtname": "Damoh",
    "statename": "MADHYA PRADESH"
  },
  {
    "pincode": "470666",
    "officename": "Satpara B.O",
    "officeType": "B.O",
    "Deliverystatus": "Delivery",
    "divisionname": "Sagar",
    "regionname": "Bhopal HQ",
    "circlename": "Madhya Pradesh",
    "Taluk": "Pathariya",
    "Districtname": "Damoh",
    "statename": "MADHYA PRADESH"
  },
  {
    "pincode": "470666",
    "officename": "Sukha B.O",
    "officeType": "B.O",
    "Deliverystatus": "Delivery",
    "divisionname": "Sagar",
    "regionname": "Bhopal HQ",
    "circlename": "Madhya Pradesh",
    "Taluk": "Pathariya",
    "Districtname": "Damoh",
    "statename": "MADHYA PRADESH"
  }
]
