[
  {
    "pincode": "470664",
    "officename": "Ballarpur B.O",
    "officeType": "B.O",
    "Deliverystatus": "Delivery",
    "divisionname": "Sagar",
    "regionname": "Bhopal HQ",
    "circlename": "Madhya Pradesh",
    "Taluk": "Damoh",
    "Districtname": "Damoh",
    "statename": "MADHYA PRADESH"
  },
  {
    "pincode": "470664",
    "officename": "Bandakpur S.O",
    "officeType": "S.O",
    "Deliverystatus": "Delivery",
    "divisionname": "Sagar",
    "regionname": "Bhopal HQ",
    "circlename": "Madhya Pradesh",
    "Taluk": "Damoh",
    "Districtname": "Damoh",
    "statename": "MADHYA PRADESH"
  },
  {
    "pincode": "470664",
    "officename": "Banwar B.O",
    "officeType": "B.O",
    "Deliverystatus": "Delivery",
    "divisionname": "Sagar",
    "regionname": "Bhopal HQ",
    "circlename": "Madhya Pradesh",
    "Taluk": "Jabera",
    "Districtname": "Damoh",
    "statename": "MADHYA PRADESH"
  },
  {
    "pincode": "470664",
    "officename": "Ghat Pipariya B.O",
    "officeType": "B.O",
    "Deliverystatus": "Delivery",
    "divisionname": "Sagar",
    "regionname": "Bhopal HQ",
    "circlename": "Madhya Pradesh",
    "Taluk": "Damoh",
    "Districtname": "Damoh",
    "statename": "MADHYA PRADESH"
  },
  {
    "pincode": "470664",
    "officename": "Ghatera B.O",
    "officeType": "B.O",
    "Deliverystatus": "Delivery",
    "divisionname": "Sagar",
    "regionname": "Bhopal HQ",
    "circlename": "Madhya Pradesh",
    "Taluk": "Jabera",
    "Districtname": "Damoh",
    "statename": "MADHYA PRADESH"
  },
  {
    "pincode": "470664",
    "officename": "Hardua Mangarh B.O",
    "officeType": "B.O",
    "Deliverystatus": "Delivery",
    "divisionname": "Sagar",
    "regionname": "Bhopal HQ",
    "circlename": "Madhya Pradesh",
    "Taluk": "Damoh",
    "Districtname": "Damoh",
    "statename": "MADHYA PRADESH"
  },
  {
    "pincode": "470664",
    "officename": "Jujhar B.O",
    "officeType": "B.O",
    "Deliverystatus": "Delivery",
    "divisionname": "Sagar",
    "regionname": "Bhopal HQ",
    "circlename": "Madhya Pradesh",
    "Taluk": "Damoh",
    "Districtname": "Damoh",
    "statename": "MADHYA PRADESH"
  },
  {
    "pincode": "470664",
    "officename": "Kumhari B.O",
    "officeType": "B.O",
    "Deliverystatus": "Delivery",
    "divisionname": "Sagar",
    "regionname": "Bhopal HQ",
    "circlename": "Madhya Pradesh",
    "Taluk": "Patera",
    "Districtname": "Damoh",
    "statename": "MADHYA PRADESH"
  },
  {
    "pincode": "470664",
    "officename": "Majhguya Hansraj B.O",
    "officeType": "B.O",
    "Deliverystatus": "Delivery",
    "divisionname": "Sagar",
    "regionname": "Bhopal HQ",
    "circlename": "Madhya Pradesh",
    "Taluk": "Patera",
    "Districtname": "Damoh",
    "statename": "MADHYA PRADESH"
  },
  {
    "pincode": "470664",
    "officename": "Pashwaha B.O",
    "officeType": "B.O",
    "Deliverystatus": "Delivery",
    "divisionname": "Sagar",
    "regionname": "Bhopal HQ",
    "circlename": "Madhya Pradesh",
    "Taluk": "Jabera",
    "Districtname": "Damoh",
    "statename": "MADHYA PRADESH"
  },
  {
    "pincode": "470664",
    "officename": "Pateriya B.O",
    "officeType": "B.O",
    "Deliverystatus": "Delivery",
    "divisionname": "Sagar",
    "regionname": "Bhopal HQ",
    "circlename": "Madhya Pradesh",
    "Taluk": "Damoh",
    "Districtname": "Damoh",
    "statename": "MADHYA PRADESH"
  },
  {
    "pincode": "470664",
    "officename": "Patna Bhangarh B.O",
    "officeType": "B.O",
    "Deliverystatus": "Delivery",
    "divisionname": "Sagar",
    "regionname": "Bhopal HQ",
    "circlename": "Madhya Pradesh",
    "Taluk": "Damoh",
    "Districtname": "Damoh",
    "statename": "MADHYA PRADESH"
  },
  {
    "pincode": "470664",
    "officename": "Pipariya Tikari B.O",
    "officeType": "B.O",
    "Deliverystatus": "Delivery",
    "divisionname": "Sagar",
    "regionname": "Bhopal HQ",
    "circlename": "Madhya Pradesh",
    "Taluk": "Jabera",
    "Districtname": "Damoh",
    "statename": "MADHYA PRADESH"
  },
  {
    "pincode": "470664",
    "officename": "Salaiya B.O",
    "officeType": "B.O",
    "Deliverystatus": "Delivery",
    "divisionname": "Sagar",
    "regionname": "Bhopal HQ",
    "circlename": "Madhya Pradesh",
    "Taluk": "Damoh",
    "Districtname": "Damoh",
    "statename": "MADHYA PRADESH"
  }
]
