[
  {
    "pincode": "470772",
    "officename": "Bamanpura B.O",
    "officeType": "B.O",
    "Deliverystatus": "Delivery",
    "divisionname": "Sagar",
    "regionname": "Bhopal HQ",
    "circlename": "Madhya Pradesh",
    "Taluk": "Patera",
    "Districtname": "Damoh",
    "statename": "MADHYA PRADESH"
  },
  {
    "pincode": "470772",
    "officename": "Barkhera Bais B.O",
    "officeType": "B.O",
    "Deliverystatus": "Delivery",
    "divisionname": "Sagar",
    "regionname": "Bhopal HQ",
    "circlename": "Madhya Pradesh",
    "Taluk": "Hatta",
    "Districtname": "Damoh",
    "statename": "MADHYA PRADESH"
  },
  {
    "pincode": "470772",
    "officename": "Bhartala B.O",
    "officeType": "B.O",
    "Deliverystatus": "Delivery",
    "divisionname": "Sagar",
    "regionname": "Bhopal HQ",
    "circlename": "Madhya Pradesh",
    "Taluk": "Hatta",
    "Districtname": "Damoh",
    "statename": "MADHYA PRADESH"
  },
  {
    "pincode": "470772",
    "officename": "Chewala B.O",
    "officeType": "B.O",
    "Deliverystatus": "Delivery",
    "divisionname": "Sagar",
    "regionname": "Bhopal HQ",
    "circlename": "Madhya Pradesh",
    "Taluk": "Damoh",
    "Districtname": "Damoh",
    "statename": "MADHYA PRADESH"
  },
  {
    "pincode": "470772",
    "officename": "Deodongra B.O",
    "officeType": "B.O",
    "Deliverystatus": "Delivery",
    "divisionname": "Sagar",
    "regionname": "Bhopal HQ",
    "circlename": "Madhya Pradesh",
    "Taluk": "Damoh",
    "Districtname": "Damoh",
    "statename": "MADHYA PRADESH"
  },
  {
    "pincode": "470772",
    "officename": "Kudai B.O",
    "officeType": "B.O",
    "Deliverystatus": "Delivery",
    "divisionname": "Sagar",
    "regionname": "Bhopal HQ",
    "circlename": "Madhya Pradesh",
    "Taluk": "Damoh",
    "Districtname": "Damoh",
    "statename": "MADHYA PRADESH"
  },
  {
    "pincode": "470772",
    "officename": "Kundalpur B.O",
    "officeType": "B.O",
    "Deliverystatus": "Delivery",
    "divisionname": "Sagar",
    "regionname": "Bhopal HQ",
    "circlename": "Madhya Pradesh",
    "Taluk": "Damoh",
    "Districtname": "Damoh",
    "statename": "MADHYA PRADESH"
  },
  {
    "pincode": "470772",
    "officename": "Padrai B.O",
    "officeType": "B.O",
    "Deliverystatus": "Delivery",
    "divisionname": "Sagar",
    "regionname": "Bhopal HQ",
    "circlename": "Madhya Pradesh",
    "Taluk": "Damoh",
    "Districtname": "Damoh",
    "statename": "MADHYA PRADESH"
  },
  {
    "pincode": "470772",
    "officename": "Patera S.O",
    "officeType": "S.O",
    "Deliverystatus": "Delivery",
    "divisionname": "Sagar",
    "regionname": "Bhopal HQ",
    "circlename": "Madhya Pradesh",
    "Taluk": "Hatta",
    "Districtname": "Damoh",
    "statename": "MADHYA PRADESH"
  }
]
