[
  {
    "pincode": "471105",
    "officename": "Bamitha S.O",
    "officeType": "S.O",
    "Deliverystatus": "Delivery",
    "divisionname": "Chhatarpur",
    "regionname": "Bhopal HQ",
    "circlename": "Madhya Pradesh",
    "Taluk": "Chhatarpur",
    "Districtname": "Chhatarpur",
    "statename": "MADHYA PRADESH"
  },
  {
    "pincode": "471105",
    "officename": "Basari B.O",
    "officeType": "B.O",
    "Deliverystatus": "Delivery",
    "divisionname": "Chhatarpur",
    "regionname": "Bhopal HQ",
    "circlename": "Madhya Pradesh",
    "Taluk": "Chhatarpur",
    "Districtname": "Chhatarpur",
    "statename": "MADHYA PRADESH"
  },
  {
    "pincode": "471105",
    "officename": "Ganj B.O",
    "officeType": "B.O",
    "Deliverystatus": "Delivery",
    "divisionname": "Chhatarpur",
    "regionname": "Bhopal HQ",
    "circlename": "Madhya Pradesh",
    "Taluk": "Chhatarpur",
    "Districtname": "Chhatarpur",
    "statename": "MADHYA PRADESH"
  },
  {
    "pincode": "471105",
    "officename": "Ghoora B.O",
    "officeType": "B.O",
    "Deliverystatus": "Delivery",
    "divisionname": "Chhatarpur",
    "regionname": "Bhopal HQ",
    "circlename": "Madhya Pradesh",
    "Taluk": "Chhatarpur",
    "Districtname": "Chhatarpur",
    "statename": "MADHYA PRADESH"
  },
  {
    "pincode": "471105",
    "officename": "Jamtuli B.O",
    "officeType": "B.O",
    "Deliverystatus": "Delivery",
    "divisionname": "Chhatarpur",
    "regionname": "Bhopal HQ",
    "circlename": "Madhya Pradesh",
    "Taluk": "Chhatarpur",
    "Districtname": "Chhatarpur",
    "statename": "MADHYA PRADESH"
  },
  {
    "pincode": "471105",
    "officename": "Karri B.O",
    "officeType": "B.O",
    "Deliverystatus": "Delivery",
    "divisionname": "Chhatarpur",
    "regionname": "Bhopal HQ",
    "circlename": "Madhya Pradesh",
    "Taluk": "Chhatarpur",
    "Districtname": "Chhatarpur",
    "statename": "MADHYA PRADESH"
  },
  {
    "pincode": "471105",
    "officename": "Kharrohi B.O",
    "officeType": "B.O",
    "Deliverystatus": "Delivery",
    "divisionname": "Chhatarpur",
    "regionname": "Bhopal HQ",
    "circlename": "Madhya Pradesh",
    "Taluk": "Chhatarpur",
    "Districtname": "Chhatarpur",
    "statename": "MADHYA PRADESH"
  },
  {
    "pincode": "471105",
    "officename": "Kheri B.O",
    "officeType": "B.O",
    "Deliverystatus": "Delivery",
    "divisionname": "Chhatarpur",
    "regionname": "Bhopal HQ",
    "circlename": "Madhya Pradesh",
    "Taluk": "Chhatarpur",
    "Districtname": "Chhatarpur",
    "statename": "MADHYA PRADESH"
  },
  {
    "pincode": "471105",
    "officename": "Otapurwa B.O",
    "officeType": "B.O",
    "Deliverystatus": "Delivery",
    "divisionname": "Chhatarpur",
    "regionname": "Bhopal HQ",
    "circlename": "Madhya Pradesh",
    "Taluk": "Chhatarpur",
    "Districtname": "Chhatarpur",
    "statename": "MADHYA PRADESH"
  },
  {
    "pincode": "471105",
    "officename": "Pahara B.O",
    "officeType": "B.O",
    "Deliverystatus": "Delivery",
    "divisionname": "Chhatarpur",
    "regionname": "Bhopal HQ",
    "circlename": "Madhya Pradesh",
    "Taluk": "Chhatarpur",
    "Districtname": "Chhatarpur",
    "statename": "MADHYA PRADESH"
  },
  {
    "pincode": "471105",
    "officename": "Salaiya B.O",
    "officeType": "B.O",
    "Deliverystatus": "Delivery",
    "divisionname": "Chhatarpur",
    "regionname": "Bhopal HQ",
    "circlename": "Madhya Pradesh",
    "Taluk": "Chhatarpur",
    "Districtname": "Chhatarpur",
    "statename": "MADHYA PRADESH"
  }
]
