[
  {
    "pincode": "471311",
    "officename": "Badamalehara S.O",
    "officeType": "S.O",
    "Deliverystatus": "Delivery",
    "divisionname": "Chhatarpur",
    "regionname": "Bhopal HQ",
    "circlename": "Madhya Pradesh",
    "Taluk": "Malehara",
    "Districtname": "Chhatarpur",
    "statename": "MADHYA PRADESH"
  },
  {
    "pincode": "471311",
    "officename": "Bajna B.O",
    "officeType": "B.O",
    "Deliverystatus": "Delivery",
    "divisionname": "Chhatarpur",
    "regionname": "Bhopal HQ",
    "circlename": "Madhya Pradesh",
    "Taluk": "Malehara",
    "Districtname": "Chhatarpur",
    "statename": "MADHYA PRADESH"
  },
  {
    "pincode": "471311",
    "officename": "Bamni B.O",
    "officeType": "B.O",
    "Deliverystatus": "Delivery",
    "divisionname": "Chhatarpur",
    "regionname": "Bhopal HQ",
    "circlename": "Madhya Pradesh",
    "Taluk": "Malehara",
    "Districtname": "Chhatarpur",
    "statename": "MADHYA PRADESH"
  },
  {
    "pincode": "471311",
    "officename": "Bandha B.O",
    "officeType": "B.O",
    "Deliverystatus": "Delivery",
    "divisionname": "Chhatarpur",
    "regionname": "Bhopal HQ",
    "circlename": "Madhya Pradesh",
    "Taluk": "Malehara",
    "Districtname": "Chhatarpur",
    "statename": "MADHYA PRADESH"
  },
  {
    "pincode": "471311",
    "officename": "Dargawan B.O",
    "officeType": "B.O",
    "Deliverystatus": "Delivery",
    "divisionname": "Chhatarpur",
    "regionname": "Bhopal HQ",
    "circlename": "Madhya Pradesh",
    "Taluk": "Malehara",
    "Districtname": "Chhatarpur",
    "statename": "MADHYA PRADESH"
  },
  {
    "pincode": "471311",
    "officename": "Deoran B.O",
    "officeType": "B.O",
    "Deliverystatus": "Delivery",
    "divisionname": "Chhatarpur",
    "regionname": "Bhopal HQ",
    "circlename": "Madhya Pradesh",
    "Taluk": "Malehara",
    "Districtname": "Chhatarpur",
    "statename": "MADHYA PRADESH"
  },
  {
    "pincode": "471311",
    "officename": "Dhangawan B.O",
    "officeType": "B.O",
    "Deliverystatus": "Delivery",
    "divisionname": "Chhatarpur",
    "regionname": "Bhopal HQ",
    "circlename": "Madhya Pradesh",
    "Taluk": "Malehara",
    "Districtname": "Chhatarpur",
    "statename": "MADHYA PRADESH"
  },
  {
    "pincode": "471311",
    "officename": "Dhimarwara B.O",
    "officeType": "B.O",
    "Deliverystatus": "Delivery",
    "divisionname": "Chhatarpur",
    "regionname": "Bhopal HQ",
    "circlename": "Madhya Pradesh",
    "Taluk": "Malehara",
    "Districtname": "Chhatarpur",
    "statename": "MADHYA PRADESH"
  },
  {
    "pincode": "471311",
    "officename": "Kayan B.O",
    "officeType": "B.O",
    "Deliverystatus": "Delivery",
    "divisionname": "Chhatarpur",
    "regionname": "Bhopal HQ",
    "circlename": "Madhya Pradesh",
    "Taluk": "Malehara",
    "Districtname": "Chhatarpur",
    "statename": "MADHYA PRADESH"
  },
  {
    "pincode": "471311",
    "officename": "Kharduti B.O",
    "officeType": "B.O",
    "Deliverystatus": "Delivery",
    "divisionname": "Chhatarpur",
    "regionname": "Bhopal HQ",
    "circlename": "Madhya Pradesh",
    "Taluk": "Malehara",
    "Districtname": "Chhatarpur",
    "statename": "MADHYA PRADESH"
  },
  {
    "pincode": "471311",
    "officename": "Maharajganj B.O",
    "officeType": "B.O",
    "Deliverystatus": "Delivery",
    "divisionname": "Chhatarpur",
    "regionname": "Bhopal HQ",
    "circlename": "Madhya Pradesh",
    "Taluk": "Malehara",
    "Districtname": "Chhatarpur",
    "statename": "MADHYA PRADESH"
  },
  {
    "pincode": "471311",
    "officename": "Melwar B.O",
    "officeType": "B.O",
    "Deliverystatus": "Delivery",
    "divisionname": "Chhatarpur",
    "regionname": "Bhopal HQ",
    "circlename": "Madhya Pradesh",
    "Taluk": "Malehara",
    "Districtname": "Chhatarpur",
    "statename": "MADHYA PRADESH"
  },
  {
    "pincode": "471311",
    "officename": "Sadawa B.O",
    "officeType": "B.O",
    "Deliverystatus": "Delivery",
    "divisionname": "Chhatarpur",
    "regionname": "Bhopal HQ",
    "circlename": "Madhya Pradesh",
    "Taluk": "Malehara",
    "Districtname": "Chhatarpur",
    "statename": "MADHYA PRADESH"
  },
  {
    "pincode": "471311",
    "officename": "Sendpa B.O",
    "officeType": "B.O",
    "Deliverystatus": "Delivery",
    "divisionname": "Chhatarpur",
    "regionname": "Bhopal HQ",
    "circlename": "Madhya Pradesh",
    "Taluk": "Malehara",
    "Districtname": "Chhatarpur",
    "statename": "MADHYA PRADESH"
  }
]
