[
  {
    "pincode": "471405",
    "officename": "Amronia B.O",
    "officeType": "B.O",
    "Deliverystatus": "Delivery",
    "divisionname": "Chhatarpur",
    "regionname": "Bhopal HQ",
    "circlename": "Madhya Pradesh",
    "Taluk": "Bijawar",
    "Districtname": "Chhatarpur",
    "statename": "MADHYA PRADESH"
  },
  {
    "pincode": "471405",
    "officename": "Badagaon B.O",
    "officeType": "B.O",
    "Deliverystatus": "Delivery",
    "divisionname": "Chhatarpur",
    "regionname": "Bhopal HQ",
    "circlename": "Madhya Pradesh",
    "Taluk": "Bijawar",
    "Districtname": "Chhatarpur",
    "statename": "MADHYA PRADESH"
  },
  {
    "pincode": "471405",
    "officename": "Bijawar S.O",
    "officeType": "S.O",
    "Deliverystatus": "Delivery",
    "divisionname": "Chhatarpur",
    "regionname": "Bhopal HQ",
    "circlename": "Madhya Pradesh",
    "Taluk": "Chhatarpur",
    "Districtname": "Chhatarpur",
    "statename": "MADHYA PRADESH"
  },
  {
    "pincode": "471405",
    "officename": "Deora B.O",
    "officeType": "B.O",
    "Deliverystatus": "Delivery",
    "divisionname": "Chhatarpur",
    "regionname": "Bhopal HQ",
    "circlename": "Madhya Pradesh",
    "Taluk": "Bijawar",
    "Districtname": "Chhatarpur",
    "statename": "MADHYA PRADESH"
  },
  {
    "pincode": "471405",
    "officename": "Dharampura B.O",
    "officeType": "B.O",
    "Deliverystatus": "Delivery",
    "divisionname": "Chhatarpur",
    "regionname": "Bhopal HQ",
    "circlename": "Madhya Pradesh",
    "Taluk": "Bijawar",
    "Districtname": "Chhatarpur",
    "statename": "MADHYA PRADESH"
  },
  {
    "pincode": "471405",
    "officename": "Hatawaha B.O",
    "officeType": "B.O",
    "Deliverystatus": "Delivery",
    "divisionname": "Chhatarpur",
    "regionname": "Bhopal HQ",
    "circlename": "Madhya Pradesh",
    "Taluk": "Bijawar",
    "Districtname": "Chhatarpur",
    "statename": "MADHYA PRADESH"
  },
  {
    "pincode": "471405",
    "officename": "Jatashankar B.O",
    "officeType": "B.O",
    "Deliverystatus": "Delivery",
    "divisionname": "Chhatarpur",
    "regionname": "Bhopal HQ",
    "circlename": "Madhya Pradesh",
    "Taluk": "Bijawar",
    "Districtname": "Chhatarpur",
    "statename": "MADHYA PRADESH"
  },
  {
    "pincode": "471405",
    "officename": "Jetpur B.O",
    "officeType": "B.O",
    "Deliverystatus": "Delivery",
    "divisionname": "Chhatarpur",
    "regionname": "Bhopal HQ",
    "circlename": "Madhya Pradesh",
    "Taluk": "Bijawar",
    "Districtname": "Chhatarpur",
    "statename": "MADHYA PRADESH"
  },
  {
    "pincode": "471405",
    "officename": "Khariyani B.O",
    "officeType": "B.O",
    "Deliverystatus": "Delivery",
    "divisionname": "Chhatarpur",
    "regionname": "Bhopal HQ",
    "circlename": "Madhya Pradesh",
    "Taluk": "Bijawar",
    "Districtname": "Chhatarpur",
    "statename": "MADHYA PRADESH"
  },
  {
    "pincode": "471405",
    "officename": "Kherakla B.O",
    "officeType": "B.O",
    "Deliverystatus": "Delivery",
    "divisionname": "Chhatarpur",
    "regionname": "Bhopal HQ",
    "circlename": "Madhya Pradesh",
    "Taluk": "Bijawar",
    "Districtname": "Chhatarpur",
    "statename": "MADHYA PRADESH"
  },
  {
    "pincode": "471405",
    "officename": "Kishangarh B.O",
    "officeType": "B.O",
    "Deliverystatus": "Delivery",
    "divisionname": "Chhatarpur",
    "regionname": "Bhopal HQ",
    "circlename": "Madhya Pradesh",
    "Taluk": "Bijawar",
    "Districtname": "Chhatarpur",
    "statename": "MADHYA PRADESH"
  },
  {
    "pincode": "471405",
    "officename": "Kupishahpur B.O",
    "officeType": "B.O",
    "Deliverystatus": "Delivery",
    "divisionname": "Chhatarpur",
    "regionname": "Bhopal HQ",
    "circlename": "Madhya Pradesh",
    "Taluk": "Bijawar",
    "Districtname": "Chhatarpur",
    "statename": "MADHYA PRADESH"
  },
  {
    "pincode": "471405",
    "officename": "Nayatal B.O",
    "officeType": "B.O",
    "Deliverystatus": "Delivery",
    "divisionname": "Chhatarpur",
    "regionname": "Bhopal HQ",
    "circlename": "Madhya Pradesh",
    "Taluk": "Bijawar",
    "Districtname": "Chhatarpur",
    "statename": "MADHYA PRADESH"
  },
  {
    "pincode": "471405",
    "officename": "Panagar B.O",
    "officeType": "B.O",
    "Deliverystatus": "Delivery",
    "divisionname": "Chhatarpur",
    "regionname": "Bhopal HQ",
    "circlename": "Madhya Pradesh",
    "Taluk": "Bijawar",
    "Districtname": "Chhatarpur",
    "statename": "MADHYA PRADESH"
  },
  {
    "pincode": "471405",
    "officename": "Pipat B.O",
    "officeType": "B.O",
    "Deliverystatus": "Delivery",
    "divisionname": "Chhatarpur",
    "regionname": "Bhopal HQ",
    "circlename": "Madhya Pradesh",
    "Taluk": "Bijawar",
    "Districtname": "Chhatarpur",
    "statename": "MADHYA PRADESH"
  },
  {
    "pincode": "471405",
    "officename": "Ranital B.O",
    "officeType": "B.O",
    "Deliverystatus": "Delivery",
    "divisionname": "Chhatarpur",
    "regionname": "Bhopal HQ",
    "circlename": "Madhya Pradesh",
    "Taluk": "Bijawar",
    "Districtname": "Chhatarpur",
    "statename": "MADHYA PRADESH"
  },
  {
    "pincode": "471405",
    "officename": "Shahgarh B.O",
    "officeType": "B.O",
    "Deliverystatus": "Delivery",
    "divisionname": "Chhatarpur",
    "regionname": "Bhopal HQ",
    "circlename": "Madhya Pradesh",
    "Taluk": "Bijawar",
    "Districtname": "Chhatarpur",
    "statename": "MADHYA PRADESH"
  },
  {
    "pincode": "471405",
    "officename": "Sunwani B.O",
    "officeType": "B.O",
    "Deliverystatus": "Delivery",
    "divisionname": "Chhatarpur",
    "regionname": "Bhopal HQ",
    "circlename": "Madhya Pradesh",
    "Taluk": "Bijawar",
    "Districtname": "Chhatarpur",
    "statename": "MADHYA PRADESH"
  },
  {
    "pincode": "471405",
    "officename": "Surajpurkala B.O",
    "officeType": "B.O",
    "Deliverystatus": "Delivery",
    "divisionname": "Chhatarpur",
    "regionname": "Bhopal HQ",
    "circlename": "Madhya Pradesh",
    "Taluk": "Bijawar",
    "Districtname": "Chhatarpur",
    "statename": "MADHYA PRADESH"
  }
]
