[
  {
    "pincode": "471525",
    "officename": "Bachhon B.O",
    "officeType": "B.O",
    "Deliverystatus": "Delivery",
    "divisionname": "Chhatarpur",
    "regionname": "Bhopal HQ",
    "circlename": "Madhya Pradesh",
    "Taluk": "Laundi",
    "Districtname": "Chhatarpur",
    "statename": "MADHYA PRADESH"
  },
  {
    "pincode": "471525",
    "officename": "Bakola B.O",
    "officeType": "B.O",
    "Deliverystatus": "Delivery",
    "divisionname": "Chhatarpur",
    "regionname": "Bhopal HQ",
    "circlename": "Madhya Pradesh",
    "Taluk": "Gaurihar",
    "Districtname": "Chhatarpur",
    "statename": "MADHYA PRADESH"
  },
  {
    "pincode": "471525",
    "officename": "Balkora B.O",
    "officeType": "B.O",
    "Deliverystatus": "Delivery",
    "divisionname": "Chhatarpur",
    "regionname": "Bhopal HQ",
    "circlename": "Madhya Pradesh",
    "Taluk": "Laundi",
    "Districtname": "Chhatarpur",
    "statename": "MADHYA PRADESH"
  },
  {
    "pincode": "471525",
    "officename": "Banjari B.O",
    "officeType": "B.O",
    "Deliverystatus": "Delivery",
    "divisionname": "Chhatarpur",
    "regionname": "Bhopal HQ",
    "circlename": "Madhya Pradesh",
    "Taluk": "Gaurihar",
    "Districtname": "Chhatarpur",
    "statename": "MADHYA PRADESH"
  },
  {
    "pincode": "471525",
    "officename": "Bansiya B.O",
    "officeType": "B.O",
    "Deliverystatus": "Delivery",
    "divisionname": "Chhatarpur",
    "regionname": "Bhopal HQ",
    "circlename": "Madhya Pradesh",
    "Taluk": "Laundi",
    "Districtname": "Chhatarpur",
    "statename": "MADHYA PRADESH"
  },
  {
    "pincode": "471525",
    "officename": "Belahari B.O",
    "officeType": "B.O",
    "Deliverystatus": "Delivery",
    "divisionname": "Chhatarpur",
    "regionname": "Bhopal HQ",
    "circlename": "Madhya Pradesh",
    "Taluk": "Laundi",
    "Districtname": "Chhatarpur",
    "statename": "MADHYA PRADESH"
  },
  {
    "pincode": "471525",
    "officename": "Bhawanipur B.O",
    "officeType": "B.O",
    "Deliverystatus": "Delivery",
    "divisionname": "Chhatarpur",
    "regionname": "Bhopal HQ",
    "circlename": "Madhya Pradesh",
    "Taluk": "Laundi",
    "Districtname": "Chhatarpur",
    "statename": "MADHYA PRADESH"
  },
  {
    "pincode": "471525",
    "officename": "Chandla S.O",
    "officeType": "S.O",
    "Deliverystatus": "Delivery",
    "divisionname": "Chhatarpur",
    "regionname": "Bhopal HQ",
    "circlename": "Madhya Pradesh",
    "Taluk": "Laundi",
    "Districtname": "Chhatarpur",
    "statename": "MADHYA PRADESH"
  },
  {
    "pincode": "471525",
    "officename": "Chhati Bamhori B.O",
    "officeType": "B.O",
    "Deliverystatus": "Delivery",
    "divisionname": "Chhatarpur",
    "regionname": "Bhopal HQ",
    "circlename": "Madhya Pradesh",
    "Taluk": "Laundi",
    "Districtname": "Chhatarpur",
    "statename": "MADHYA PRADESH"
  },
  {
    "pincode": "471525",
    "officename": "Churiyari B.O",
    "officeType": "B.O",
    "Deliverystatus": "Delivery",
    "divisionname": "Chhatarpur",
    "regionname": "Bhopal HQ",
    "circlename": "Madhya Pradesh",
    "Taluk": "Laundi",
    "Districtname": "Chhatarpur",
    "statename": "MADHYA PRADESH"
  },
  {
    "pincode": "471525",
    "officename": "Gohani B.O",
    "officeType": "B.O",
    "Deliverystatus": "Delivery",
    "divisionname": "Chhatarpur",
    "regionname": "Bhopal HQ",
    "circlename": "Madhya Pradesh",
    "Taluk": "Laundi",
    "Districtname": "Chhatarpur",
    "statename": "MADHYA PRADESH"
  },
  {
    "pincode": "471525",
    "officename": "Goyara B.O",
    "officeType": "B.O",
    "Deliverystatus": "Delivery",
    "divisionname": "Chhatarpur",
    "regionname": "Bhopal HQ",
    "circlename": "Madhya Pradesh",
    "Taluk": "Gaurihar",
    "Districtname": "Chhatarpur",
    "statename": "MADHYA PRADESH"
  },
  {
    "pincode": "471525",
    "officename": "Hathohan B.O",
    "officeType": "B.O",
    "Deliverystatus": "Delivery",
    "divisionname": "Chhatarpur",
    "regionname": "Bhopal HQ",
    "circlename": "Madhya Pradesh",
    "Taluk": "Gaurihar",
    "Districtname": "Chhatarpur",
    "statename": "MADHYA PRADESH"
  },
  {
    "pincode": "471525",
    "officename": "Hinota B.O",
    "officeType": "B.O",
    "Deliverystatus": "Delivery",
    "divisionname": "Chhatarpur",
    "regionname": "Bhopal HQ",
    "circlename": "Madhya Pradesh",
    "Taluk": "Laundi",
    "Districtname": "Chhatarpur",
    "statename": "MADHYA PRADESH"
  },
  {
    "pincode": "471525",
    "officename": "Katia B.O",
    "officeType": "B.O",
    "Deliverystatus": "Delivery",
    "divisionname": "Chhatarpur",
    "regionname": "Bhopal HQ",
    "circlename": "Madhya Pradesh",
    "Taluk": "Laundi",
    "Districtname": "Chhatarpur",
    "statename": "MADHYA PRADESH"
  },
  {
    "pincode": "471525",
    "officename": "Khadeha B.O",
    "officeType": "B.O",
    "Deliverystatus": "Delivery",
    "divisionname": "Chhatarpur",
    "regionname": "Bhopal HQ",
    "circlename": "Madhya Pradesh",
    "Taluk": "Laundi",
    "Districtname": "Chhatarpur",
    "statename": "MADHYA PRADESH"
  },
  {
    "pincode": "471525",
    "officename": "Khandela B.O",
    "officeType": "B.O",
    "Deliverystatus": "Delivery",
    "divisionname": "Chhatarpur",
    "regionname": "Bhopal HQ",
    "circlename": "Madhya Pradesh",
    "Taluk": "Gaurihar",
    "Districtname": "Chhatarpur",
    "statename": "MADHYA PRADESH"
  },
  {
    "pincode": "471525",
    "officename": "Kotheha B.O",
    "officeType": "B.O",
    "Deliverystatus": "Delivery",
    "divisionname": "Chhatarpur",
    "regionname": "Bhopal HQ",
    "circlename": "Madhya Pradesh",
    "Taluk": "Laundi",
    "Districtname": "Chhatarpur",
    "statename": "MADHYA PRADESH"
  },
  {
    "pincode": "471525",
    "officename": "Mahyawa B.O",
    "officeType": "B.O",
    "Deliverystatus": "Delivery",
    "divisionname": "Chhatarpur",
    "regionname": "Bhopal HQ",
    "circlename": "Madhya Pradesh",
    "Taluk": "Laundi",
    "Districtname": "Chhatarpur",
    "statename": "MADHYA PRADESH"
  },
  {
    "pincode": "471525",
    "officename": "Naharpur B.O",
    "officeType": "B.O",
    "Deliverystatus": "Delivery",
    "divisionname": "Chhatarpur",
    "regionname": "Bhopal HQ",
    "circlename": "Madhya Pradesh",
    "Taluk": "Laundi",
    "Districtname": "Chhatarpur",
    "statename": "MADHYA PRADESH"
  },
  {
    "pincode": "471525",
    "officename": "Ramjhala B.O",
    "officeType": "B.O",
    "Deliverystatus": "Delivery",
    "divisionname": "Chhatarpur",
    "regionname": "Bhopal HQ",
    "circlename": "Madhya Pradesh",
    "Taluk": "Laundi",
    "Districtname": "Chhatarpur",
    "statename": "MADHYA PRADESH"
  },
  {
    "pincode": "471525",
    "officename": "Sarwai B.O",
    "officeType": "B.O",
    "Deliverystatus": "Delivery",
    "divisionname": "Chhatarpur",
    "regionname": "Bhopal HQ",
    "circlename": "Madhya Pradesh",
    "Taluk": "Laundi",
    "Districtname": "Chhatarpur",
    "statename": "MADHYA PRADESH"
  },
  {
    "pincode": "471525",
    "officename": "Singhpur B.O",
    "officeType": "B.O",
    "Deliverystatus": "Delivery",
    "divisionname": "Chhatarpur",
    "regionname": "Bhopal HQ",
    "circlename": "Madhya Pradesh",
    "Taluk": "Laundi",
    "Districtname": "Chhatarpur",
    "statename": "MADHYA PRADESH"
  }
]
