[
  {
    "pincode": "472101",
    "officename": "Acharra B.O",
    "officeType": "B.O",
    "Deliverystatus": "Delivery",
    "divisionname": "Chhatarpur",
    "regionname": "Bhopal HQ",
    "circlename": "Madhya Pradesh",
    "Taluk": "Tikamgarh",
    "Districtname": "Tikamgarh",
    "statename": "MADHYA PRADESH"
  },
  {
    "pincode": "472101",
    "officename": "Bandha B.O",
    "officeType": "B.O",
    "Deliverystatus": "Delivery",
    "divisionname": "Chhatarpur",
    "regionname": "Bhopal HQ",
    "circlename": "Madhya Pradesh",
    "Taluk": "Tikamgarh",
    "Districtname": "Tikamgarh",
    "statename": "MADHYA PRADESH"
  },
  {
    "pincode": "472101",
    "officename": "Barethi Kala B.O",
    "officeType": "B.O",
    "Deliverystatus": "Delivery",
    "divisionname": "Chhatarpur",
    "regionname": "Bhopal HQ",
    "circlename": "Madhya Pradesh",
    "Taluk": "Jatara",
    "Districtname": "Tikamgarh",
    "statename": "MADHYA PRADESH"
  },
  {
    "pincode": "472101",
    "officename": "Barethikhas B.O",
    "officeType": "B.O",
    "Deliverystatus": "Delivery",
    "divisionname": "Chhatarpur",
    "regionname": "Bhopal HQ",
    "circlename": "Madhya Pradesh",
    "Taluk": "Tikamgarh",
    "Districtname": "Tikamgarh",
    "statename": "MADHYA PRADESH"
  },
  {
    "pincode": "472101",
    "officename": "Gor B.O",
    "officeType": "B.O",
    "Deliverystatus": "Delivery",
    "divisionname": "Chhatarpur",
    "regionname": "Bhopal HQ",
    "circlename": "Madhya Pradesh",
    "Taluk": "Tikamgarh",
    "Districtname": "Tikamgarh",
    "statename": "MADHYA PRADESH"
  },
  {
    "pincode": "472101",
    "officename": "Iqbal Pura B.O",
    "officeType": "B.O",
    "Deliverystatus": "Delivery",
    "divisionname": "Chhatarpur",
    "regionname": "Bhopal HQ",
    "circlename": "Madhya Pradesh",
    "Taluk": "Tikamgarh",
    "Districtname": "Tikamgarh",
    "statename": "MADHYA PRADESH"
  },
  {
    "pincode": "472101",
    "officename": "Master Mogna B.O",
    "officeType": "B.O",
    "Deliverystatus": "Delivery",
    "divisionname": "Chhatarpur",
    "regionname": "Bhopal HQ",
    "circlename": "Madhya Pradesh",
    "Taluk": "Tikamgarh",
    "Districtname": "Tikamgarh",
    "statename": "MADHYA PRADESH"
  },
  {
    "pincode": "472101",
    "officename": "Mogna B.O",
    "officeType": "B.O",
    "Deliverystatus": "Delivery",
    "divisionname": "Chhatarpur",
    "regionname": "Bhopal HQ",
    "circlename": "Madhya Pradesh",
    "Taluk": "Tikamgarh",
    "Districtname": "Tikamgarh",
    "statename": "MADHYA PRADESH"
  },
  {
    "pincode": "472101",
    "officename": "Mohangarh S.O (Tikamgarh)",
    "officeType": "S.O",
    "Deliverystatus": "Delivery",
    "divisionname": "Chhatarpur",
    "regionname": "Bhopal HQ",
    "circlename": "Madhya Pradesh",
    "Taluk": "Tikamgarh",
    "Districtname": "Tikamgarh",
    "statename": "MADHYA PRADESH"
  },
  {
    "pincode": "472101",
    "officename": "Nandanwara B.O",
    "officeType": "B.O",
    "Deliverystatus": "Delivery",
    "divisionname": "Chhatarpur",
    "regionname": "Bhopal HQ",
    "circlename": "Madhya Pradesh",
    "Taluk": "Tikamgarh",
    "Districtname": "Tikamgarh",
    "statename": "MADHYA PRADESH"
  }
]
