[
  {
    "pincode": "472118",
    "officename": "Bamhorikala B.O",
    "officeType": "B.O",
    "Deliverystatus": "Delivery",
    "divisionname": "Chhatarpur",
    "regionname": "Bhopal HQ",
    "circlename": "Madhya Pradesh",
    "Taluk": "Jatara",
    "Districtname": "Tikamgarh",
    "statename": "MADHYA PRADESH"
  },
  {
    "pincode": "472118",
    "officename": "Berwarkhas B.O",
    "officeType": "B.O",
    "Deliverystatus": "Delivery",
    "divisionname": "Chhatarpur",
    "regionname": "Bhopal HQ",
    "circlename": "Madhya Pradesh",
    "Taluk": "Jatara",
    "Districtname": "Tikamgarh",
    "statename": "MADHYA PRADESH"
  },
  {
    "pincode": "472118",
    "officename": "Chandera B.O",
    "officeType": "B.O",
    "Deliverystatus": "Delivery",
    "divisionname": "Chhatarpur",
    "regionname": "Bhopal HQ",
    "circlename": "Madhya Pradesh",
    "Taluk": "Jatara",
    "Districtname": "Tikamgarh",
    "statename": "MADHYA PRADESH"
  },
  {
    "pincode": "472118",
    "officename": "Jarua B.O",
    "officeType": "B.O",
    "Deliverystatus": "Delivery",
    "divisionname": "Chhatarpur",
    "regionname": "Bhopal HQ",
    "circlename": "Madhya Pradesh",
    "Taluk": "Jatara",
    "Districtname": "Tikamgarh",
    "statename": "MADHYA PRADESH"
  },
  {
    "pincode": "472118",
    "officename": "Jatara S.O",
    "officeType": "S.O",
    "Deliverystatus": "Delivery",
    "divisionname": "Chhatarpur",
    "regionname": "Bhopal HQ",
    "circlename": "Madhya Pradesh",
    "Taluk": "Jatara",
    "Districtname": "Tikamgarh",
    "statename": "MADHYA PRADESH"
  },
  {
    "pincode": "472118",
    "officename": "Kalera B.O",
    "officeType": "B.O",
    "Deliverystatus": "Delivery",
    "divisionname": "Chhatarpur",
    "regionname": "Bhopal HQ",
    "circlename": "Madhya Pradesh",
    "Taluk": "Jatara",
    "Districtname": "Tikamgarh",
    "statename": "MADHYA PRADESH"
  },
  {
    "pincode": "472118",
    "officename": "Kanera B.O",
    "officeType": "B.O",
    "Deliverystatus": "Delivery",
    "divisionname": "Chhatarpur",
    "regionname": "Bhopal HQ",
    "circlename": "Madhya Pradesh",
    "Taluk": "Jatara",
    "Districtname": "Tikamgarh",
    "statename": "MADHYA PRADESH"
  },
  {
    "pincode": "472118",
    "officename": "Karmora B.O",
    "officeType": "B.O",
    "Deliverystatus": "Delivery",
    "divisionname": "Chhatarpur",
    "regionname": "Bhopal HQ",
    "circlename": "Madhya Pradesh",
    "Taluk": "Jatara",
    "Districtname": "Tikamgarh",
    "statename": "MADHYA PRADESH"
  },
  {
    "pincode": "472118",
    "officename": "Muhara B.O",
    "officeType": "B.O",
    "Deliverystatus": "Delivery",
    "divisionname": "Chhatarpur",
    "regionname": "Bhopal HQ",
    "circlename": "Madhya Pradesh",
    "Taluk": "Jatara",
    "Districtname": "Tikamgarh",
    "statename": "MADHYA PRADESH"
  },
  {
    "pincode": "472118",
    "officename": "Nibora B.O",
    "officeType": "B.O",
    "Deliverystatus": "Delivery",
    "divisionname": "Chhatarpur",
    "regionname": "Bhopal HQ",
    "circlename": "Madhya Pradesh",
    "Taluk": "Jatara",
    "Districtname": "Tikamgarh",
    "statename": "MADHYA PRADESH"
  },
  {
    "pincode": "472118",
    "officename": "Pahadibujurg B.O",
    "officeType": "B.O",
    "Deliverystatus": "Delivery",
    "divisionname": "Chhatarpur",
    "regionname": "Bhopal HQ",
    "circlename": "Madhya Pradesh",
    "Taluk": "Jatara",
    "Districtname": "Tikamgarh",
    "statename": "MADHYA PRADESH"
  },
  {
    "pincode": "472118",
    "officename": "Paitpura B.O",
    "officeType": "B.O",
    "Deliverystatus": "Delivery",
    "divisionname": "Chhatarpur",
    "regionname": "Bhopal HQ",
    "circlename": "Madhya Pradesh",
    "Taluk": "Jatara",
    "Districtname": "Tikamgarh",
    "statename": "MADHYA PRADESH"
  },
  {
    "pincode": "472118",
    "officename": "Ramgarh B.O",
    "officeType": "B.O",
    "Deliverystatus": "Delivery",
    "divisionname": "Chhatarpur",
    "regionname": "Bhopal HQ",
    "circlename": "Madhya Pradesh",
    "Taluk": "Jatara",
    "Districtname": "Tikamgarh",
    "statename": "MADHYA PRADESH"
  },
  {
    "pincode": "472118",
    "officename": "Sagarwara B.O",
    "officeType": "B.O",
    "Deliverystatus": "Delivery",
    "divisionname": "Chhatarpur",
    "regionname": "Bhopal HQ",
    "circlename": "Madhya Pradesh",
    "Taluk": "",
    "Districtname": "Tikamgarh",
    "statename": "MADHYA PRADESH"
  },
  {
    "pincode": "472118",
    "officename": "Shah B.O",
    "officeType": "B.O",
    "Deliverystatus": "Delivery",
    "divisionname": "Chhatarpur",
    "regionname": "Bhopal HQ",
    "circlename": "Madhya Pradesh",
    "Taluk": "Jatara",
    "Districtname": "Tikamgarh",
    "statename": "MADHYA PRADESH"
  }
]
