[
  {
    "pincode": "472115",
    "officename": "Banne Bujraj B.O",
    "officeType": "B.O",
    "Deliverystatus": "Delivery",
    "divisionname": "Chhatarpur",
    "regionname": "Bhopal HQ",
    "circlename": "Madhya Pradesh",
    "Taluk": "Khargapur",
    "Districtname": "Tikamgarh",
    "statename": "MADHYA PRADESH"
  },
  {
    "pincode": "472115",
    "officename": "Bhanpura B.O",
    "officeType": "B.O",
    "Deliverystatus": "Delivery",
    "divisionname": "Chhatarpur",
    "regionname": "Bhopal HQ",
    "circlename": "Madhya Pradesh",
    "Taluk": "Khargapur",
    "Districtname": "Tikamgarh",
    "statename": "MADHYA PRADESH"
  },
  {
    "pincode": "472115",
    "officename": "Chandpura B.O",
    "officeType": "B.O",
    "Deliverystatus": "Delivery",
    "divisionname": "Chhatarpur",
    "regionname": "Bhopal HQ",
    "circlename": "Madhya Pradesh",
    "Taluk": "Khargapur",
    "Districtname": "Tikamgarh",
    "statename": "MADHYA PRADESH"
  },
  {
    "pincode": "472115",
    "officename": "Chaubara B.O",
    "officeType": "B.O",
    "Deliverystatus": "Delivery",
    "divisionname": "Chhatarpur",
    "regionname": "Bhopal HQ",
    "circlename": "Madhya Pradesh",
    "Taluk": "Khargapur",
    "Districtname": "Tikamgarh",
    "statename": "MADHYA PRADESH"
  },
  {
    "pincode": "472115",
    "officename": "Chhidari B.O",
    "officeType": "B.O",
    "Deliverystatus": "Delivery",
    "divisionname": "Chhatarpur",
    "regionname": "Bhopal HQ",
    "circlename": "Madhya Pradesh",
    "Taluk": "Khargapur",
    "Districtname": "Tikamgarh",
    "statename": "MADHYA PRADESH"
  },
  {
    "pincode": "472115",
    "officename": "Deri B.O",
    "officeType": "B.O",
    "Deliverystatus": "Delivery",
    "divisionname": "Chhatarpur",
    "regionname": "Bhopal HQ",
    "circlename": "Madhya Pradesh",
    "Taluk": "Khargapur",
    "Districtname": "Tikamgarh",
    "statename": "MADHYA PRADESH"
  },
  {
    "pincode": "472115",
    "officename": "Dohochak B.O",
    "officeType": "B.O",
    "Deliverystatus": "Delivery",
    "divisionname": "Chhatarpur",
    "regionname": "Bhopal HQ",
    "circlename": "Madhya Pradesh",
    "Taluk": "Baldeogarh",
    "Districtname": "Tikamgarh",
    "statename": "MADHYA PRADESH"
  },
  {
    "pincode": "472115",
    "officename": "Future B.O",
    "officeType": "B.O",
    "Deliverystatus": "Delivery",
    "divisionname": "Chhatarpur",
    "regionname": "Bhopal HQ",
    "circlename": "Madhya Pradesh",
    "Taluk": "Baldeogarh",
    "Districtname": "Tikamgarh",
    "statename": "MADHYA PRADESH"
  },
  {
    "pincode": "472115",
    "officename": "Gona B.O",
    "officeType": "B.O",
    "Deliverystatus": "Delivery",
    "divisionname": "Chhatarpur",
    "regionname": "Bhopal HQ",
    "circlename": "Madhya Pradesh",
    "Taluk": "Khargapur",
    "Districtname": "Tikamgarh",
    "statename": "MADHYA PRADESH"
  },
  {
    "pincode": "472115",
    "officename": "Gora B.O",
    "officeType": "B.O",
    "Deliverystatus": "Delivery",
    "divisionname": "Chhatarpur",
    "regionname": "Bhopal HQ",
    "circlename": "Madhya Pradesh",
    "Taluk": "Khargapur",
    "Districtname": "Tikamgarh",
    "statename": "MADHYA PRADESH"
  },
  {
    "pincode": "472115",
    "officename": "Hirapur B.O",
    "officeType": "B.O",
    "Deliverystatus": "Delivery",
    "divisionname": "Chhatarpur",
    "regionname": "Bhopal HQ",
    "circlename": "Madhya Pradesh",
    "Taluk": "Baldeogarh",
    "Districtname": "Tikamgarh",
    "statename": "MADHYA PRADESH"
  },
  {
    "pincode": "472115",
    "officename": "J.M. Khargapur B.O",
    "officeType": "B.O",
    "Deliverystatus": "Delivery",
    "divisionname": "Chhatarpur",
    "regionname": "Bhopal HQ",
    "circlename": "Madhya Pradesh",
    "Taluk": "Baldeogarh",
    "Districtname": "Tikamgarh",
    "statename": "MADHYA PRADESH"
  },
  {
    "pincode": "472115",
    "officename": "Khargapur S.O",
    "officeType": "S.O",
    "Deliverystatus": "Delivery",
    "divisionname": "Chhatarpur",
    "regionname": "Bhopal HQ",
    "circlename": "Madhya Pradesh",
    "Taluk": "Tikamgarh",
    "Districtname": "Tikamgarh",
    "statename": "MADHYA PRADESH"
  },
  {
    "pincode": "472115",
    "officename": "Kudila B.O",
    "officeType": "B.O",
    "Deliverystatus": "Delivery",
    "divisionname": "Chhatarpur",
    "regionname": "Bhopal HQ",
    "circlename": "Madhya Pradesh",
    "Taluk": "Khargapur",
    "Districtname": "Tikamgarh",
    "statename": "MADHYA PRADESH"
  },
  {
    "pincode": "472115",
    "officename": "Malguwn B.O",
    "officeType": "B.O",
    "Deliverystatus": "Delivery",
    "divisionname": "Chhatarpur",
    "regionname": "Bhopal HQ",
    "circlename": "Madhya Pradesh",
    "Taluk": "Khargapur",
    "Districtname": "Tikamgarh",
    "statename": "MADHYA PRADESH"
  },
  {
    "pincode": "472115",
    "officename": "Matol B.O",
    "officeType": "B.O",
    "Deliverystatus": "Delivery",
    "divisionname": "Chhatarpur",
    "regionname": "Bhopal HQ",
    "circlename": "Madhya Pradesh",
    "Taluk": "Khargapur",
    "Districtname": "Tikamgarh",
    "statename": "MADHYA PRADESH"
  },
  {
    "pincode": "472115",
    "officename": "Pathrguwa B.O",
    "officeType": "B.O",
    "Deliverystatus": "Delivery",
    "divisionname": "Chhatarpur",
    "regionname": "Bhopal HQ",
    "circlename": "Madhya Pradesh",
    "Taluk": "Khargapur",
    "Districtname": "Tikamgarh",
    "statename": "MADHYA PRADESH"
  },
  {
    "pincode": "472115",
    "officename": "Purenia B.O",
    "officeType": "B.O",
    "Deliverystatus": "Delivery",
    "divisionname": "Chhatarpur",
    "regionname": "Bhopal HQ",
    "circlename": "Madhya Pradesh",
    "Taluk": "Khargapur",
    "Districtname": "Tikamgarh",
    "statename": "MADHYA PRADESH"
  },
  {
    "pincode": "472115",
    "officename": "Ramnagar B.O",
    "officeType": "B.O",
    "Deliverystatus": "Delivery",
    "divisionname": "Chhatarpur",
    "regionname": "Bhopal HQ",
    "circlename": "Madhya Pradesh",
    "Taluk": "Khargapur",
    "Districtname": "Tikamgarh",
    "statename": "MADHYA PRADESH"
  },
  {
    "pincode": "472115",
    "officename": "Sarkanpur B.O",
    "officeType": "B.O",
    "Deliverystatus": "Delivery",
    "divisionname": "Chhatarpur",
    "regionname": "Bhopal HQ",
    "circlename": "Madhya Pradesh",
    "Taluk": "Khargapur",
    "Districtname": "Tikamgarh",
    "statename": "MADHYA PRADESH"
  },
  {
    "pincode": "472115",
    "officename": "Sijora B.O",
    "officeType": "B.O",
    "Deliverystatus": "Delivery",
    "divisionname": "Chhatarpur",
    "regionname": "Bhopal HQ",
    "circlename": "Madhya Pradesh",
    "Taluk": "Khargapur",
    "Districtname": "Tikamgarh",
    "statename": "MADHYA PRADESH"
  }
]
