[
  {
    "pincode": "472336",
    "officename": "Banjaripura B.O",
    "officeType": "B.O",
    "Deliverystatus": "Delivery",
    "divisionname": "Chhatarpur",
    "regionname": "Bhopal HQ",
    "circlename": "Madhya Pradesh",
    "Taluk": "Tikamgarh",
    "Districtname": "Tikamgarh",
    "statename": "MADHYA PRADESH"
  },
  {
    "pincode": "472336",
    "officename": "Birorakhet B.O",
    "officeType": "B.O",
    "Deliverystatus": "Delivery",
    "divisionname": "Chhatarpur",
    "regionname": "Bhopal HQ",
    "circlename": "Madhya Pradesh",
    "Taluk": "Tikamgarh",
    "Districtname": "Tikamgarh",
    "statename": "MADHYA PRADESH"
  },
  {
    "pincode": "472336",
    "officename": "Chomokhas B.O",
    "officeType": "B.O",
    "Deliverystatus": "Delivery",
    "divisionname": "Chhatarpur",
    "regionname": "Bhopal HQ",
    "circlename": "Madhya Pradesh",
    "Taluk": "Tikamgarh",
    "Districtname": "Tikamgarh",
    "statename": "MADHYA PRADESH"
  },
  {
    "pincode": "472336",
    "officename": "Daretha B.O",
    "officeType": "B.O",
    "Deliverystatus": "Delivery",
    "divisionname": "Chhatarpur",
    "regionname": "Bhopal HQ",
    "circlename": "Madhya Pradesh",
    "Taluk": "Tikamgarh",
    "Districtname": "Tikamgarh",
    "statename": "MADHYA PRADESH"
  },
  {
    "pincode": "472336",
    "officename": "Dumduma B.O",
    "officeType": "B.O",
    "Deliverystatus": "Delivery",
    "divisionname": "Chhatarpur",
    "regionname": "Bhopal HQ",
    "circlename": "Madhya Pradesh",
    "Taluk": "Prithvipur",
    "Districtname": "Tikamgarh",
    "statename": "MADHYA PRADESH"
  },
  {
    "pincode": "472336",
    "officename": "Jeoramora B.O",
    "officeType": "B.O",
    "Deliverystatus": "Delivery",
    "divisionname": "Chhatarpur",
    "regionname": "Bhopal HQ",
    "circlename": "Madhya Pradesh",
    "Taluk": "Tikamgarh",
    "Districtname": "Tikamgarh",
    "statename": "MADHYA PRADESH"
  },
  {
    "pincode": "472336",
    "officename": "Jer B.O",
    "officeType": "B.O",
    "Deliverystatus": "Delivery",
    "divisionname": "Chhatarpur",
    "regionname": "Bhopal HQ",
    "circlename": "Madhya Pradesh",
    "Taluk": "Tikamgarh",
    "Districtname": "Tikamgarh",
    "statename": "MADHYA PRADESH"
  },
  {
    "pincode": "472336",
    "officename": "Jewaha B.O",
    "officeType": "B.O",
    "Deliverystatus": "Delivery",
    "divisionname": "Chhatarpur",
    "regionname": "Bhopal HQ",
    "circlename": "Madhya Pradesh",
    "Taluk": "Prithvipur",
    "Districtname": "Tikamgarh",
    "statename": "MADHYA PRADESH"
  },
  {
    "pincode": "472336",
    "officename": "Khiston B.O",
    "officeType": "B.O",
    "Deliverystatus": "Delivery",
    "divisionname": "Chhatarpur",
    "regionname": "Bhopal HQ",
    "circlename": "Madhya Pradesh",
    "Taluk": "Prithvipur",
    "Districtname": "Tikamgarh",
    "statename": "MADHYA PRADESH"
  },
  {
    "pincode": "472336",
    "officename": "Ladwari B.O",
    "officeType": "B.O",
    "Deliverystatus": "Delivery",
    "divisionname": "Chhatarpur",
    "regionname": "Bhopal HQ",
    "circlename": "Madhya Pradesh",
    "Taluk": "Prithvipur",
    "Districtname": "Tikamgarh",
    "statename": "MADHYA PRADESH"
  },
  {
    "pincode": "472336",
    "officename": "Madia B.O",
    "officeType": "B.O",
    "Deliverystatus": "Delivery",
    "divisionname": "Chhatarpur",
    "regionname": "Bhopal HQ",
    "circlename": "Madhya Pradesh",
    "Taluk": "Tikamgarh",
    "Districtname": "Tikamgarh",
    "statename": "MADHYA PRADESH"
  },
  {
    "pincode": "472336",
    "officename": "Naguwan B.O",
    "officeType": "B.O",
    "Deliverystatus": "Delivery",
    "divisionname": "Chhatarpur",
    "regionname": "Bhopal HQ",
    "circlename": "Madhya Pradesh",
    "Taluk": "Tikamgarh",
    "Districtname": "Tikamgarh",
    "statename": "MADHYA PRADESH"
  },
  {
    "pincode": "472336",
    "officename": "Prithvipur S.O",
    "officeType": "S.O",
    "Deliverystatus": "Delivery",
    "divisionname": "Chhatarpur",
    "regionname": "Bhopal HQ",
    "circlename": "Madhya Pradesh",
    "Taluk": "Tikamgarh",
    "Districtname": "Tikamgarh",
    "statename": "MADHYA PRADESH"
  },
  {
    "pincode": "472336",
    "officename": "Sakerabhadaran B.O",
    "officeType": "B.O",
    "Deliverystatus": "Delivery",
    "divisionname": "Chhatarpur",
    "regionname": "Bhopal HQ",
    "circlename": "Madhya Pradesh",
    "Taluk": "Tikamgarh",
    "Districtname": "Tikamgarh",
    "statename": "MADHYA PRADESH"
  }
]
