[
  {
    "pincode": "473115",
    "officename": "Bapcha Lahriya B.O",
    "officeType": "B.O",
    "Deliverystatus": "Delivery",
    "divisionname": "Guna",
    "regionname": "Gwalior",
    "circlename": "Madhya Pradesh",
    "Taluk": "Chacauda",
    "Districtname": "Guna",
    "statename": "MADHYA PRADESH"
  },
  {
    "pincode": "473115",
    "officename": "Barkheda Khurd B.O",
    "officeType": "B.O",
    "Deliverystatus": "Delivery",
    "divisionname": "Guna",
    "regionname": "Gwalior",
    "circlename": "Madhya Pradesh",
    "Taluk": "Chacauda",
    "Districtname": "Guna",
    "statename": "MADHYA PRADESH"
  },
  {
    "pincode": "473115",
    "officename": "Binaganj S.O",
    "officeType": "S.O",
    "Deliverystatus": "Delivery",
    "divisionname": "Guna",
    "regionname": "Gwalior",
    "circlename": "Madhya Pradesh",
    "Taluk": "Chachoda",
    "Districtname": "Guna",
    "statename": "MADHYA PRADESH"
  },
  {
    "pincode": "473115",
    "officename": "Konya Kala B.O",
    "officeType": "B.O",
    "Deliverystatus": "Delivery",
    "divisionname": "Guna",
    "regionname": "Gwalior",
    "circlename": "Madhya Pradesh",
    "Taluk": "Chacauda",
    "Districtname": "Guna",
    "statename": "MADHYA PRADESH"
  },
  {
    "pincode": "473115",
    "officename": "Kotra B.O",
    "officeType": "B.O",
    "Deliverystatus": "Delivery",
    "divisionname": "Guna",
    "regionname": "Gwalior",
    "circlename": "Madhya Pradesh",
    "Taluk": "Chacauda",
    "Districtname": "Guna",
    "statename": "MADHYA PRADESH"
  },
  {
    "pincode": "473115",
    "officename": "Lakhanwas B.O",
    "officeType": "B.O",
    "Deliverystatus": "Delivery",
    "divisionname": "Guna",
    "regionname": "Gwalior",
    "circlename": "Madhya Pradesh",
    "Taluk": "Chacauda",
    "Districtname": "Guna",
    "statename": "MADHYA PRADESH"
  },
  {
    "pincode": "473115",
    "officename": "Murela B.O",
    "officeType": "B.O",
    "Deliverystatus": "Delivery",
    "divisionname": "Guna",
    "regionname": "Gwalior",
    "circlename": "Madhya Pradesh",
    "Taluk": "Chacauda",
    "Districtname": "Guna",
    "statename": "MADHYA PRADESH"
  },
  {
    "pincode": "473115",
    "officename": "Patondi B.O",
    "officeType": "B.O",
    "Deliverystatus": "Delivery",
    "divisionname": "Guna",
    "regionname": "Gwalior",
    "circlename": "Madhya Pradesh",
    "Taluk": "Chacauda",
    "Districtname": "Guna",
    "statename": "MADHYA PRADESH"
  },
  {
    "pincode": "473115",
    "officename": "Penchi B.O",
    "officeType": "B.O",
    "Deliverystatus": "Delivery",
    "divisionname": "Guna",
    "regionname": "Gwalior",
    "circlename": "Madhya Pradesh",
    "Taluk": "Chacauda",
    "Districtname": "Guna",
    "statename": "MADHYA PRADESH"
  },
  {
    "pincode": "473115",
    "officename": "Ramdi B.O",
    "officeType": "B.O",
    "Deliverystatus": "Delivery",
    "divisionname": "Guna",
    "regionname": "Gwalior",
    "circlename": "Madhya Pradesh",
    "Taluk": "Chacauda",
    "Districtname": "Guna",
    "statename": "MADHYA PRADESH"
  },
  {
    "pincode": "473115",
    "officename": "Rani Khejra B.O",
    "officeType": "B.O",
    "Deliverystatus": "Delivery",
    "divisionname": "Guna",
    "regionname": "Gwalior",
    "circlename": "Madhya Pradesh",
    "Taluk": "Chacauda",
    "Districtname": "Guna",
    "statename": "MADHYA PRADESH"
  },
  {
    "pincode": "473115",
    "officename": "Teligaon B.O",
    "officeType": "B.O",
    "Deliverystatus": "Delivery",
    "divisionname": "Guna",
    "regionname": "Gwalior",
    "circlename": "Madhya Pradesh",
    "Taluk": "Chacauda",
    "Districtname": "Guna",
    "statename": "MADHYA PRADESH"
  }
]
