[
  {
    "pincode": "473105",
    "officename": "Babrikheda B.O",
    "officeType": "B.O",
    "Deliverystatus": "Delivery",
    "divisionname": "Guna",
    "regionname": "Gwalior",
    "circlename": "Madhya Pradesh",
    "Taluk": "Bamori",
    "Districtname": "Guna",
    "statename": "MADHYA PRADESH"
  },
  {
    "pincode": "473105",
    "officename": "Bamori S.O",
    "officeType": "S.O",
    "Deliverystatus": "Delivery",
    "divisionname": "Guna",
    "regionname": "Gwalior",
    "circlename": "Madhya Pradesh",
    "Taluk": "Bamori",
    "Districtname": "Guna",
    "statename": "MADHYA PRADESH"
  },
  {
    "pincode": "473105",
    "officename": "Baneh B.O",
    "officeType": "B.O",
    "Deliverystatus": "Delivery",
    "divisionname": "Guna",
    "regionname": "Gwalior",
    "circlename": "Madhya Pradesh",
    "Taluk": "Bamori",
    "Districtname": "Guna",
    "statename": "MADHYA PRADESH"
  },
  {
    "pincode": "473105",
    "officename": "Bishanwada B.O",
    "officeType": "B.O",
    "Deliverystatus": "Delivery",
    "divisionname": "Guna",
    "regionname": "Gwalior",
    "circlename": "Madhya Pradesh",
    "Taluk": "Bamori",
    "Districtname": "Guna",
    "statename": "MADHYA PRADESH"
  },
  {
    "pincode": "473105",
    "officename": "Fatehgarh B.O",
    "officeType": "B.O",
    "Deliverystatus": "Delivery",
    "divisionname": "Guna",
    "regionname": "Gwalior",
    "circlename": "Madhya Pradesh",
    "Taluk": "Bamori",
    "Districtname": "Guna",
    "statename": "MADHYA PRADESH"
  },
  {
    "pincode": "473105",
    "officename": "Garha B.O",
    "officeType": "B.O",
    "Deliverystatus": "Delivery",
    "divisionname": "Guna",
    "regionname": "Gwalior",
    "circlename": "Madhya Pradesh",
    "Taluk": "Bamori",
    "Districtname": "Guna",
    "statename": "MADHYA PRADESH"
  },
  {
    "pincode": "473105",
    "officename": "Hamirpur B.O",
    "officeType": "B.O",
    "Deliverystatus": "Delivery",
    "divisionname": "Guna",
    "regionname": "Gwalior",
    "circlename": "Madhya Pradesh",
    "Taluk": "Bamori",
    "Districtname": "Guna",
    "statename": "MADHYA PRADESH"
  },
  {
    "pincode": "473105",
    "officename": "Jhagar B.O",
    "officeType": "B.O",
    "Deliverystatus": "Delivery",
    "divisionname": "Guna",
    "regionname": "Gwalior",
    "circlename": "Madhya Pradesh",
    "Taluk": "Bamori",
    "Districtname": "Guna",
    "statename": "MADHYA PRADESH"
  },
  {
    "pincode": "473105",
    "officename": "Johri B.O",
    "officeType": "B.O",
    "Deliverystatus": "Delivery",
    "divisionname": "Guna",
    "regionname": "Gwalior",
    "circlename": "Madhya Pradesh",
    "Taluk": "Bamori",
    "Districtname": "Guna",
    "statename": "MADHYA PRADESH"
  },
  {
    "pincode": "473105",
    "officename": "Kapasi B.O",
    "officeType": "B.O",
    "Deliverystatus": "Delivery",
    "divisionname": "Guna",
    "regionname": "Gwalior",
    "circlename": "Madhya Pradesh",
    "Taluk": "Bamori",
    "Districtname": "Guna",
    "statename": "MADHYA PRADESH"
  },
  {
    "pincode": "473105",
    "officename": "Kushepur B.O",
    "officeType": "B.O",
    "Deliverystatus": "Delivery",
    "divisionname": "Guna",
    "regionname": "Gwalior",
    "circlename": "Madhya Pradesh",
    "Taluk": "Bamori",
    "Districtname": "Guna",
    "statename": "MADHYA PRADESH"
  },
  {
    "pincode": "473105",
    "officename": "Magroda B.O",
    "officeType": "B.O",
    "Deliverystatus": "Delivery",
    "divisionname": "Guna",
    "regionname": "Gwalior",
    "circlename": "Madhya Pradesh",
    "Taluk": "Bamori",
    "Districtname": "Guna",
    "statename": "MADHYA PRADESH"
  },
  {
    "pincode": "473105",
    "officename": "Markimahu B.O",
    "officeType": "B.O",
    "Deliverystatus": "Delivery",
    "divisionname": "Guna",
    "regionname": "Gwalior",
    "circlename": "Madhya Pradesh",
    "Taluk": "Bamori",
    "Districtname": "Guna",
    "statename": "MADHYA PRADESH"
  },
  {
    "pincode": "473105",
    "officename": "Padon B.O",
    "officeType": "B.O",
    "Deliverystatus": "Delivery",
    "divisionname": "Guna",
    "regionname": "Gwalior",
    "circlename": "Madhya Pradesh",
    "Taluk": "Bamori",
    "Districtname": "Guna",
    "statename": "MADHYA PRADESH"
  },
  {
    "pincode": "473105",
    "officename": "Paranth B.O",
    "officeType": "B.O",
    "Deliverystatus": "Delivery",
    "divisionname": "Guna",
    "regionname": "Gwalior",
    "circlename": "Madhya Pradesh",
    "Taluk": "Bamori",
    "Districtname": "Guna",
    "statename": "MADHYA PRADESH"
  },
  {
    "pincode": "473105",
    "officename": "Parwah B.O",
    "officeType": "B.O",
    "Deliverystatus": "Delivery",
    "divisionname": "Guna",
    "regionname": "Gwalior",
    "circlename": "Madhya Pradesh",
    "Taluk": "Bamori",
    "Districtname": "Guna",
    "statename": "MADHYA PRADESH"
  },
  {
    "pincode": "473105",
    "officename": "Ramnagar B.O",
    "officeType": "B.O",
    "Deliverystatus": "Delivery",
    "divisionname": "Guna",
    "regionname": "Gwalior",
    "circlename": "Madhya Pradesh",
    "Taluk": "Bamori",
    "Districtname": "Guna",
    "statename": "MADHYA PRADESH"
  },
  {
    "pincode": "473105",
    "officename": "Rampur B.O",
    "officeType": "B.O",
    "Deliverystatus": "Delivery",
    "divisionname": "Guna",
    "regionname": "Gwalior",
    "circlename": "Madhya Pradesh",
    "Taluk": "Bamori",
    "Districtname": "Guna",
    "statename": "MADHYA PRADESH"
  },
  {
    "pincode": "473105",
    "officename": "Rampurcolony B.O",
    "officeType": "B.O",
    "Deliverystatus": "Delivery",
    "divisionname": "Guna",
    "regionname": "Gwalior",
    "circlename": "Madhya Pradesh",
    "Taluk": "Bamori",
    "Districtname": "Guna",
    "statename": "MADHYA PRADESH"
  },
  {
    "pincode": "473105",
    "officename": "Sirsi B.O",
    "officeType": "B.O",
    "Deliverystatus": "Delivery",
    "divisionname": "Guna",
    "regionname": "Gwalior",
    "circlename": "Madhya Pradesh",
    "Taluk": "Bamori",
    "Districtname": "Guna",
    "statename": "MADHYA PRADESH"
  },
  {
    "pincode": "473105",
    "officename": "Sonkhara B.O",
    "officeType": "B.O",
    "Deliverystatus": "Delivery",
    "divisionname": "Guna",
    "regionname": "Gwalior",
    "circlename": "Madhya Pradesh",
    "Taluk": "Bamori",
    "Districtname": "Guna",
    "statename": "MADHYA PRADESH"
  }
]
