[
  {
    "pincode": "473113",
    "officename": "Bhadora B.O",
    "officeType": "B.O",
    "Deliverystatus": "Delivery",
    "divisionname": "Guna",
    "regionname": "Gwalior",
    "circlename": "Madhya Pradesh",
    "Taluk": "Guna",
    "Districtname": "Guna",
    "statename": "MADHYA PRADESH"
  },
  {
    "pincode": "473113",
    "officename": "Dhamnar B.O",
    "officeType": "B.O",
    "Deliverystatus": "Delivery",
    "divisionname": "Guna",
    "regionname": "Gwalior",
    "circlename": "Madhya Pradesh",
    "Taluk": "Guna",
    "Districtname": "Guna",
    "statename": "MADHYA PRADESH"
  },
  {
    "pincode": "473113",
    "officename": "Hinotia B.O",
    "officeType": "B.O",
    "Deliverystatus": "Delivery",
    "divisionname": "Guna",
    "regionname": "Gwalior",
    "circlename": "Madhya Pradesh",
    "Taluk": "Guna",
    "Districtname": "Guna",
    "statename": "MADHYA PRADESH"
  },
  {
    "pincode": "473113",
    "officename": "Khutiyawad B.O",
    "officeType": "B.O",
    "Deliverystatus": "Delivery",
    "divisionname": "Guna",
    "regionname": "Gwalior",
    "circlename": "Madhya Pradesh",
    "Taluk": "Guna",
    "Districtname": "Guna",
    "statename": "MADHYA PRADESH"
  },
  {
    "pincode": "473113",
    "officename": "Magrana B.O",
    "officeType": "B.O",
    "Deliverystatus": "Delivery",
    "divisionname": "Guna",
    "regionname": "Gwalior",
    "circlename": "Madhya Pradesh",
    "Taluk": "Guna",
    "Districtname": "Guna",
    "statename": "MADHYA PRADESH"
  },
  {
    "pincode": "473113",
    "officename": "Myana S.O",
    "officeType": "S.O",
    "Deliverystatus": "Delivery",
    "divisionname": "Guna",
    "regionname": "Gwalior",
    "circlename": "Madhya Pradesh",
    "Taluk": "Guna",
    "Districtname": "Guna",
    "statename": "MADHYA PRADESH"
  },
  {
    "pincode": "473113",
    "officename": "Nehgawa B.O",
    "officeType": "B.O",
    "Deliverystatus": "Delivery",
    "divisionname": "Guna",
    "regionname": "Gwalior",
    "circlename": "Madhya Pradesh",
    "Taluk": "Guna",
    "Districtname": "Guna",
    "statename": "MADHYA PRADESH"
  },
  {
    "pincode": "473113",
    "officename": "Ukawad B.O",
    "officeType": "B.O",
    "Deliverystatus": "Delivery",
    "divisionname": "Guna",
    "regionname": "Gwalior",
    "circlename": "Madhya Pradesh",
    "Taluk": "Guna",
    "Districtname": "Guna",
    "statename": "MADHYA PRADESH"
  },
  {
    "pincode": "473113",
    "officename": "Umri B.O",
    "officeType": "B.O",
    "Deliverystatus": "Delivery",
    "divisionname": "Guna",
    "regionname": "Gwalior",
    "circlename": "Madhya Pradesh",
    "Taluk": "Guna",
    "Districtname": "Guna",
    "statename": "MADHYA PRADESH"
  }
]
