[
  {
    "pincode": "473330",
    "officename": "Bagulya B.O",
    "officeType": "B.O",
    "Deliverystatus": "Delivery",
    "divisionname": "Guna",
    "regionname": "Gwalior",
    "circlename": "Madhya Pradesh",
    "Taluk": "Ashoknagar",
    "Districtname": "Ashok Nagar",
    "statename": "MADHYA PRADESH"
  },
  {
    "pincode": "473330",
    "officename": "Jalalpur B.O",
    "officeType": "B.O",
    "Deliverystatus": "Delivery",
    "divisionname": "Guna",
    "regionname": "Gwalior",
    "circlename": "Madhya Pradesh",
    "Taluk": "Ashoknagar",
    "Districtname": "Ashok Nagar",
    "statename": "MADHYA PRADESH"
  },
  {
    "pincode": "473330",
    "officename": "Jheela B.O",
    "officeType": "B.O",
    "Deliverystatus": "Delivery",
    "divisionname": "Guna",
    "regionname": "Gwalior",
    "circlename": "Madhya Pradesh",
    "Taluk": "Ashoknagar",
    "Districtname": "Ashok Nagar",
    "statename": "MADHYA PRADESH"
  },
  {
    "pincode": "473330",
    "officename": "Mathner B.O",
    "officeType": "B.O",
    "Deliverystatus": "Delivery",
    "divisionname": "Guna",
    "regionname": "Gwalior",
    "circlename": "Madhya Pradesh",
    "Taluk": "Ashoknagar",
    "Districtname": "Ashok Nagar",
    "statename": "MADHYA PRADESH"
  },
  {
    "pincode": "473330",
    "officename": "Pilighata B.O",
    "officeType": "B.O",
    "Deliverystatus": "Delivery",
    "divisionname": "Guna",
    "regionname": "Gwalior",
    "circlename": "Madhya Pradesh",
    "Taluk": "Ashoknagar",
    "Districtname": "Ashok Nagar",
    "statename": "MADHYA PRADESH"
  },
  {
    "pincode": "473330",
    "officename": "Pipri B.O",
    "officeType": "B.O",
    "Deliverystatus": "Delivery",
    "divisionname": "Guna",
    "regionname": "Gwalior",
    "circlename": "Madhya Pradesh",
    "Taluk": "Ashoknagar",
    "Districtname": "Ashok Nagar",
    "statename": "MADHYA PRADESH"
  },
  {
    "pincode": "473330",
    "officename": "Raje Bamora B.O",
    "officeType": "B.O",
    "Deliverystatus": "Delivery",
    "divisionname": "Guna",
    "regionname": "Gwalior",
    "circlename": "Madhya Pradesh",
    "Taluk": "Ashoknagar",
    "Districtname": "Ashok Nagar",
    "statename": "MADHYA PRADESH"
  },
  {
    "pincode": "473330",
    "officename": "Renjha B.O",
    "officeType": "B.O",
    "Deliverystatus": "Delivery",
    "divisionname": "Guna",
    "regionname": "Gwalior",
    "circlename": "Madhya Pradesh",
    "Taluk": "Ashoknagar",
    "Districtname": "Ashok Nagar",
    "statename": "MADHYA PRADESH"
  },
  {
    "pincode": "473330",
    "officename": "Seji B.O",
    "officeType": "B.O",
    "Deliverystatus": "Delivery",
    "divisionname": "Guna",
    "regionname": "Gwalior",
    "circlename": "Madhya Pradesh",
    "Taluk": "Ashoknagar",
    "Districtname": "Ashok Nagar",
    "statename": "MADHYA PRADESH"
  },
  {
    "pincode": "473330",
    "officename": "Shadora S.O",
    "officeType": "S.O",
    "Deliverystatus": "Delivery",
    "divisionname": "Guna",
    "regionname": "Gwalior",
    "circlename": "Madhya Pradesh",
    "Taluk": "Ashoknagar",
    "Districtname": "Ashok Nagar",
    "statename": "MADHYA PRADESH"
  }
]
