[
  {
    "pincode": "473335",
    "officename": "Bamnawar B.O",
    "officeType": "B.O",
    "Deliverystatus": "Delivery",
    "divisionname": "Guna",
    "regionname": "Gwalior",
    "circlename": "Madhya Pradesh",
    "Taluk": "Esagarh",
    "Districtname": "Ashok Nagar",
    "statename": "MADHYA PRADESH"
  },
  {
    "pincode": "473335",
    "officename": "Chhapra B.O",
    "officeType": "B.O",
    "Deliverystatus": "Delivery",
    "divisionname": "Guna",
    "regionname": "Gwalior",
    "circlename": "Madhya Pradesh",
    "Taluk": "Esagarh",
    "Districtname": "Ashok Nagar",
    "statename": "MADHYA PRADESH"
  },
  {
    "pincode": "473335",
    "officename": "Derkha B.O",
    "officeType": "B.O",
    "Deliverystatus": "Delivery",
    "divisionname": "Guna",
    "regionname": "Gwalior",
    "circlename": "Madhya Pradesh",
    "Taluk": "Esagarh",
    "Districtname": "Ashok Nagar",
    "statename": "MADHYA PRADESH"
  },
  {
    "pincode": "473335",
    "officename": "Dhakoni B.O",
    "officeType": "B.O",
    "Deliverystatus": "Delivery",
    "divisionname": "Guna",
    "regionname": "Gwalior",
    "circlename": "Madhya Pradesh",
    "Taluk": "Esagarh",
    "Districtname": "Ashok Nagar",
    "statename": "MADHYA PRADESH"
  },
  {
    "pincode": "473335",
    "officename": "Dhurra B.O",
    "officeType": "B.O",
    "Deliverystatus": "Delivery",
    "divisionname": "Guna",
    "regionname": "Gwalior",
    "circlename": "Madhya Pradesh",
    "Taluk": "Esagarh",
    "Districtname": "Ashok Nagar",
    "statename": "MADHYA PRADESH"
  },
  {
    "pincode": "473335",
    "officename": "Endore B.O",
    "officeType": "B.O",
    "Deliverystatus": "Delivery",
    "divisionname": "Guna",
    "regionname": "Gwalior",
    "circlename": "Madhya Pradesh",
    "Taluk": "Esagarh",
    "Districtname": "Ashok Nagar",
    "statename": "MADHYA PRADESH"
  },
  {
    "pincode": "473335",
    "officename": "Esagarh S.O",
    "officeType": "S.O",
    "Deliverystatus": "Delivery",
    "divisionname": "Guna",
    "regionname": "Gwalior",
    "circlename": "Madhya Pradesh",
    "Taluk": "Esagarh",
    "Districtname": "Ashok Nagar",
    "statename": "MADHYA PRADESH"
  },
  {
    "pincode": "473335",
    "officename": "Gahora B.O",
    "officeType": "B.O",
    "Deliverystatus": "Delivery",
    "divisionname": "Guna",
    "regionname": "Gwalior",
    "circlename": "Madhya Pradesh",
    "Taluk": "Esagarh",
    "Districtname": "Ashok Nagar",
    "statename": "MADHYA PRADESH"
  },
  {
    "pincode": "473335",
    "officename": "Janghar B.O",
    "officeType": "B.O",
    "Deliverystatus": "Delivery",
    "divisionname": "Guna",
    "regionname": "Gwalior",
    "circlename": "Madhya Pradesh",
    "Taluk": "Esagarh",
    "Districtname": "Ashok Nagar",
    "statename": "MADHYA PRADESH"
  },
  {
    "pincode": "473335",
    "officename": "Kadwaya B.O",
    "officeType": "B.O",
    "Deliverystatus": "Delivery",
    "divisionname": "Guna",
    "regionname": "Gwalior",
    "circlename": "Madhya Pradesh",
    "Taluk": "Esagarh",
    "Districtname": "Ashok Nagar",
    "statename": "MADHYA PRADESH"
  },
  {
    "pincode": "473335",
    "officename": "Khiriyadewat B.O",
    "officeType": "B.O",
    "Deliverystatus": "Delivery",
    "divisionname": "Guna",
    "regionname": "Gwalior",
    "circlename": "Madhya Pradesh",
    "Taluk": "Esagarh",
    "Districtname": "Ashok Nagar",
    "statename": "MADHYA PRADESH"
  },
  {
    "pincode": "473335",
    "officename": "Mahidpur B.O",
    "officeType": "B.O",
    "Deliverystatus": "Delivery",
    "divisionname": "Guna",
    "regionname": "Gwalior",
    "circlename": "Madhya Pradesh",
    "Taluk": "Esagarh",
    "Districtname": "Ashok Nagar",
    "statename": "MADHYA PRADESH"
  },
  {
    "pincode": "473335",
    "officename": "Mahuan B.O",
    "officeType": "B.O",
    "Deliverystatus": "Delivery",
    "divisionname": "Guna",
    "regionname": "Gwalior",
    "circlename": "Madhya Pradesh",
    "Taluk": "Esagarh",
    "Districtname": "Ashok Nagar",
    "statename": "MADHYA PRADESH"
  },
  {
    "pincode": "473335",
    "officename": "Parsol B.O",
    "officeType": "B.O",
    "Deliverystatus": "Delivery",
    "divisionname": "Guna",
    "regionname": "Gwalior",
    "circlename": "Madhya Pradesh",
    "Taluk": "Esagarh",
    "Districtname": "Ashok Nagar",
    "statename": "MADHYA PRADESH"
  },
  {
    "pincode": "473335",
    "officename": "Pipresra B.O",
    "officeType": "B.O",
    "Deliverystatus": "Delivery",
    "divisionname": "Guna",
    "regionname": "Gwalior",
    "circlename": "Madhya Pradesh",
    "Taluk": "Esagarh",
    "Districtname": "Ashok Nagar",
    "statename": "MADHYA PRADESH"
  },
  {
    "pincode": "473335",
    "officename": "Rajtala B.O",
    "officeType": "B.O",
    "Deliverystatus": "Delivery",
    "divisionname": "Guna",
    "regionname": "Gwalior",
    "circlename": "Madhya Pradesh",
    "Taluk": "Esagarh",
    "Districtname": "Ashok Nagar",
    "statename": "MADHYA PRADESH"
  },
  {
    "pincode": "473335",
    "officename": "Saraskhedi B.O",
    "officeType": "B.O",
    "Deliverystatus": "Delivery",
    "divisionname": "Guna",
    "regionname": "Gwalior",
    "circlename": "Madhya Pradesh",
    "Taluk": "Esagarh",
    "Districtname": "Ashok Nagar",
    "statename": "MADHYA PRADESH"
  }
]
