[
  {
    "pincode": "473446",
    "officename": "Badera B.O",
    "officeType": "B.O",
    "Deliverystatus": "Delivery",
    "divisionname": "Guna",
    "regionname": "Gwalior",
    "circlename": "Madhya Pradesh",
    "Taluk": "Chanderi",
    "Districtname": "Ashok Nagar",
    "statename": "MADHYA PRADESH"
  },
  {
    "pincode": "473446",
    "officename": "Chanderi S.O",
    "officeType": "S.O",
    "Deliverystatus": "Delivery",
    "divisionname": "Guna",
    "regionname": "Gwalior",
    "circlename": "Madhya Pradesh",
    "Taluk": "Chanderi",
    "Districtname": "Ashok Nagar",
    "statename": "MADHYA PRADESH"
  },
  {
    "pincode": "473446",
    "officename": "Dungasara B.O",
    "officeType": "B.O",
    "Deliverystatus": "Delivery",
    "divisionname": "Guna",
    "regionname": "Gwalior",
    "circlename": "Madhya Pradesh",
    "Taluk": "Chanderi",
    "Districtname": "Ashok Nagar",
    "statename": "MADHYA PRADESH"
  },
  {
    "pincode": "473446",
    "officename": "Hansari B.O",
    "officeType": "B.O",
    "Deliverystatus": "Delivery",
    "divisionname": "Guna",
    "regionname": "Gwalior",
    "circlename": "Madhya Pradesh",
    "Taluk": "Chanderi",
    "Districtname": "Ashok Nagar",
    "statename": "MADHYA PRADESH"
  },
  {
    "pincode": "473446",
    "officename": "Khirkatanka B.O",
    "officeType": "B.O",
    "Deliverystatus": "Delivery",
    "divisionname": "Guna",
    "regionname": "Gwalior",
    "circlename": "Madhya Pradesh",
    "Taluk": "Chanderi",
    "Districtname": "Ashok Nagar",
    "statename": "MADHYA PRADESH"
  },
  {
    "pincode": "473446",
    "officename": "Maholi B.O",
    "officeType": "B.O",
    "Deliverystatus": "Delivery",
    "divisionname": "Guna",
    "regionname": "Gwalior",
    "circlename": "Madhya Pradesh",
    "Taluk": "Chanderi",
    "Districtname": "Ashok Nagar",
    "statename": "MADHYA PRADESH"
  },
  {
    "pincode": "473446",
    "officename": "Mohanpur B.O",
    "officeType": "B.O",
    "Deliverystatus": "Delivery",
    "divisionname": "Guna",
    "regionname": "Gwalior",
    "circlename": "Madhya Pradesh",
    "Taluk": "Chanderi",
    "Districtname": "Ashok Nagar",
    "statename": "MADHYA PRADESH"
  },
  {
    "pincode": "473446",
    "officename": "Naoli B.O",
    "officeType": "B.O",
    "Deliverystatus": "Delivery",
    "divisionname": "Guna",
    "regionname": "Gwalior",
    "circlename": "Madhya Pradesh",
    "Taluk": "Chanderi",
    "Districtname": "Ashok Nagar",
    "statename": "MADHYA PRADESH"
  },
  {
    "pincode": "473446",
    "officename": "Nayakheda B.O",
    "officeType": "B.O",
    "Deliverystatus": "Delivery",
    "divisionname": "Guna",
    "regionname": "Gwalior",
    "circlename": "Madhya Pradesh",
    "Taluk": "Chanderi",
    "Districtname": "Ashok Nagar",
    "statename": "MADHYA PRADESH"
  },
  {
    "pincode": "473446",
    "officename": "Pranpura B.O",
    "officeType": "B.O",
    "Deliverystatus": "Delivery",
    "divisionname": "Guna",
    "regionname": "Gwalior",
    "circlename": "Madhya Pradesh",
    "Taluk": "Chanderi",
    "Districtname": "Ashok Nagar",
    "statename": "MADHYA PRADESH"
  },
  {
    "pincode": "473446",
    "officename": "Tarai B.O",
    "officeType": "B.O",
    "Deliverystatus": "Delivery",
    "divisionname": "Guna",
    "regionname": "Gwalior",
    "circlename": "Madhya Pradesh",
    "Taluk": "Chanderi",
    "Districtname": "Ashok Nagar",
    "statename": "MADHYA PRADESH"
  },
  {
    "pincode": "473446",
    "officename": "Thubon B.O",
    "officeType": "B.O",
    "Deliverystatus": "Delivery",
    "divisionname": "Guna",
    "regionname": "Gwalior",
    "circlename": "Madhya Pradesh",
    "Taluk": "Chanderi",
    "Districtname": "Ashok Nagar",
    "statename": "MADHYA PRADESH"
  },
  {
    "pincode": "473446",
    "officename": "Vikrampur B.O",
    "officeType": "B.O",
    "Deliverystatus": "Delivery",
    "divisionname": "Guna",
    "regionname": "Gwalior",
    "circlename": "Madhya Pradesh",
    "Taluk": "Chanderi",
    "Districtname": "Ashok Nagar",
    "statename": "MADHYA PRADESH"
  }
]
