[
  {
    "pincode": "473443",
    "officename": "Babrod B.O",
    "officeType": "B.O",
    "Deliverystatus": "Delivery",
    "divisionname": "Guna",
    "regionname": "Gwalior",
    "circlename": "Madhya Pradesh",
    "Taluk": "Mungaoli",
    "Districtname": "Ashok Nagar",
    "statename": "MADHYA PRADESH"
  },
  {
    "pincode": "473443",
    "officename": "Bahadurpur B.O",
    "officeType": "B.O",
    "Deliverystatus": "Delivery",
    "divisionname": "Guna",
    "regionname": "Gwalior",
    "circlename": "Madhya Pradesh",
    "Taluk": "Mungaoli",
    "Districtname": "Ashok Nagar",
    "statename": "MADHYA PRADESH"
  },
  {
    "pincode": "473443",
    "officename": "Bilheru B.O",
    "officeType": "B.O",
    "Deliverystatus": "Delivery",
    "divisionname": "Guna",
    "regionname": "Gwalior",
    "circlename": "Madhya Pradesh",
    "Taluk": "Mungaoli",
    "Districtname": "Ashok Nagar",
    "statename": "MADHYA PRADESH"
  },
  {
    "pincode": "473443",
    "officename": "Damdama B.O",
    "officeType": "B.O",
    "Deliverystatus": "Delivery",
    "divisionname": "Guna",
    "regionname": "Gwalior",
    "circlename": "Madhya Pradesh",
    "Taluk": "Mungaoli",
    "Districtname": "Ashok Nagar",
    "statename": "MADHYA PRADESH"
  },
  {
    "pincode": "473443",
    "officename": "Gaduli B.O",
    "officeType": "B.O",
    "Deliverystatus": "Delivery",
    "divisionname": "Guna",
    "regionname": "Gwalior",
    "circlename": "Madhya Pradesh",
    "Taluk": "Mungaoli",
    "Districtname": "Guna",
    "statename": "MADHYA PRADESH"
  },
  {
    "pincode": "473443",
    "officename": "Gunheru B.O",
    "officeType": "B.O",
    "Deliverystatus": "Delivery",
    "divisionname": "Guna",
    "regionname": "Gwalior",
    "circlename": "Madhya Pradesh",
    "Taluk": "Mungaoli",
    "Districtname": "Guna",
    "statename": "MADHYA PRADESH"
  },
  {
    "pincode": "473443",
    "officename": "Kirola B.O",
    "officeType": "B.O",
    "Deliverystatus": "Delivery",
    "divisionname": "Guna",
    "regionname": "Gwalior",
    "circlename": "Madhya Pradesh",
    "Taluk": "Mungaoli",
    "Districtname": "Ashok Nagar",
    "statename": "MADHYA PRADESH"
  },
  {
    "pincode": "473443",
    "officename": "Madaukhedi B.O",
    "officeType": "B.O",
    "Deliverystatus": "Delivery",
    "divisionname": "Guna",
    "regionname": "Gwalior",
    "circlename": "Madhya Pradesh",
    "Taluk": "Mungaoli",
    "Districtname": "Ashok Nagar",
    "statename": "MADHYA PRADESH"
  },
  {
    "pincode": "473443",
    "officename": "Mungaoli S.O",
    "officeType": "S.O",
    "Deliverystatus": "Delivery",
    "divisionname": "Guna",
    "regionname": "Gwalior",
    "circlename": "Madhya Pradesh",
    "Taluk": "Mungaoli",
    "Districtname": "Ashok Nagar",
    "statename": "MADHYA PRADESH"
  },
  {
    "pincode": "473443",
    "officename": "Onder B.O",
    "officeType": "B.O",
    "Deliverystatus": "Delivery",
    "divisionname": "Guna",
    "regionname": "Gwalior",
    "circlename": "Madhya Pradesh",
    "Taluk": "Mungaoli",
    "Districtname": "Ashok Nagar",
    "statename": "MADHYA PRADESH"
  }
]
