[
  {
    "pincode": "473551",
    "officename": "Bamhari B.O",
    "officeType": "B.O",
    "Deliverystatus": "Delivery",
    "divisionname": "Guna",
    "regionname": "Gwalior",
    "circlename": "Madhya Pradesh",
    "Taluk": "Shivpuri",
    "Districtname": "Shivpuri",
    "statename": "MADHYA PRADESH"
  },
  {
    "pincode": "473551",
    "officename": "Bara B.O",
    "officeType": "B.O",
    "Deliverystatus": "Delivery",
    "divisionname": "Guna",
    "regionname": "Gwalior",
    "circlename": "Madhya Pradesh",
    "Taluk": "Shivpuri",
    "Districtname": "Shivpuri",
    "statename": "MADHYA PRADESH"
  },
  {
    "pincode": "473551",
    "officename": "Barodi Sadak B.O",
    "officeType": "B.O",
    "Deliverystatus": "Delivery",
    "divisionname": "Guna",
    "regionname": "Gwalior",
    "circlename": "Madhya Pradesh",
    "Taluk": "Shivpuri",
    "Districtname": "Shivpuri",
    "statename": "MADHYA PRADESH"
  },
  {
    "pincode": "473551",
    "officename": "Bhangarh B.O",
    "officeType": "B.O",
    "Deliverystatus": "Delivery",
    "divisionname": "Guna",
    "regionname": "Gwalior",
    "circlename": "Madhya Pradesh",
    "Taluk": "Shivpuri",
    "Districtname": "Shivpuri",
    "statename": "MADHYA PRADESH"
  },
  {
    "pincode": "473551",
    "officename": "Chak Kamalpur B.O",
    "officeType": "B.O",
    "Deliverystatus": "Delivery",
    "divisionname": "Guna",
    "regionname": "Gwalior",
    "circlename": "Madhya Pradesh",
    "Taluk": "Shivpuri",
    "Districtname": "Shivpuri",
    "statename": "MADHYA PRADESH"
  },
  {
    "pincode": "473551",
    "officename": "Collectorate Bhawan Shiv S.O",
    "officeType": "S.O",
    "Deliverystatus": "Non-Delivery",
    "divisionname": "Guna",
    "regionname": "Gwalior",
    "circlename": "Madhya Pradesh",
    "Taluk": "Shivpuri",
    "Districtname": "Shivpuri",
    "statename": "MADHYA PRADESH"
  },
  {
    "pincode": "473551",
    "officename": "Dholagarh B.O",
    "officeType": "B.O",
    "Deliverystatus": "Delivery",
    "divisionname": "Guna",
    "regionname": "Gwalior",
    "circlename": "Madhya Pradesh",
    "Taluk": "Shivpuri",
    "Districtname": "Shivpuri",
    "statename": "MADHYA PRADESH"
  },
  {
    "pincode": "473551",
    "officename": "Gangora B.O",
    "officeType": "B.O",
    "Deliverystatus": "Delivery",
    "divisionname": "Guna",
    "regionname": "Gwalior",
    "circlename": "Madhya Pradesh",
    "Taluk": "Shivpuri",
    "Districtname": "Shivpuri",
    "statename": "MADHYA PRADESH"
  },
  {
    "pincode": "473551",
    "officename": "Garibarod B.O",
    "officeType": "B.O",
    "Deliverystatus": "Delivery",
    "divisionname": "Guna",
    "regionname": "Gwalior",
    "circlename": "Madhya Pradesh",
    "Taluk": "Shivpuri",
    "Districtname": "Shivpuri",
    "statename": "MADHYA PRADESH"
  },
  {
    "pincode": "473551",
    "officename": "I.T.B.P Shivpuri S.O",
    "officeType": "S.O",
    "Deliverystatus": "Non-Delivery",
    "divisionname": "Guna",
    "regionname": "Gwalior",
    "circlename": "Madhya Pradesh",
    "Taluk": "Shivpuri",
    "Districtname": "Shivpuri",
    "statename": "MADHYA PRADESH"
  },
  {
    "pincode": "473551",
    "officename": "Kanker B.O",
    "officeType": "B.O",
    "Deliverystatus": "Delivery",
    "divisionname": "Guna",
    "regionname": "Gwalior",
    "circlename": "Madhya Pradesh",
    "Taluk": "Shivpuri",
    "Districtname": "Shivpuri",
    "statename": "MADHYA PRADESH"
  },
  {
    "pincode": "473551",
    "officename": "Karmaj Kalan B.O",
    "officeType": "B.O",
    "Deliverystatus": "Delivery",
    "divisionname": "Guna",
    "regionname": "Gwalior",
    "circlename": "Madhya Pradesh",
    "Taluk": "Shivpuri",
    "Districtname": "Shivpuri",
    "statename": "MADHYA PRADESH"
  },
  {
    "pincode": "473551",
    "officename": "Karsena B.O",
    "officeType": "B.O",
    "Deliverystatus": "Delivery",
    "divisionname": "Guna",
    "regionname": "Gwalior",
    "circlename": "Madhya Pradesh",
    "Taluk": "Shivpuri",
    "Districtname": "Shivpuri",
    "statename": "MADHYA PRADESH"
  },
  {
    "pincode": "473551",
    "officename": "Khandi B.O",
    "officeType": "B.O",
    "Deliverystatus": "Delivery",
    "divisionname": "Guna",
    "regionname": "Gwalior",
    "circlename": "Madhya Pradesh",
    "Taluk": "Shivpuri",
    "Districtname": "Shivpuri",
    "statename": "MADHYA PRADESH"
  },
  {
    "pincode": "473551",
    "officename": "Khorghar B.O",
    "officeType": "B.O",
    "Deliverystatus": "Delivery",
    "divisionname": "Guna",
    "regionname": "Gwalior",
    "circlename": "Madhya Pradesh",
    "Taluk": "Shivpuri",
    "Districtname": "Shivpuri",
    "statename": "MADHYA PRADESH"
  },
  {
    "pincode": "473551",
    "officename": "Kota B.O",
    "officeType": "B.O",
    "Deliverystatus": "Delivery",
    "divisionname": "Guna",
    "regionname": "Gwalior",
    "circlename": "Madhya Pradesh",
    "Taluk": "Shivpuri",
    "Districtname": "Shivpuri",
    "statename": "MADHYA PRADESH"
  },
  {
    "pincode": "473551",
    "officename": "Kunwarpur B.O",
    "officeType": "B.O",
    "Deliverystatus": "Delivery",
    "divisionname": "Guna",
    "regionname": "Gwalior",
    "circlename": "Madhya Pradesh",
    "Taluk": "Shivpuri",
    "Districtname": "Shivpuri",
    "statename": "MADHYA PRADESH"
  },
  {
    "pincode": "473551",
    "officename": "Munderi B.O",
    "officeType": "B.O",
    "Deliverystatus": "Delivery",
    "divisionname": "Guna",
    "regionname": "Gwalior",
    "circlename": "Madhya Pradesh",
    "Taluk": "Shivpuri",
    "Districtname": "Shivpuri",
    "statename": "MADHYA PRADESH"
  },
  {
    "pincode": "473551",
    "officename": "Piparsama B.O",
    "officeType": "B.O",
    "Deliverystatus": "Delivery",
    "divisionname": "Guna",
    "regionname": "Gwalior",
    "circlename": "Madhya Pradesh",
    "Taluk": "Shivpuri",
    "Districtname": "Shivpuri",
    "statename": "MADHYA PRADESH"
  },
  {
    "pincode": "473551",
    "officename": "Purani Basti B.O",
    "officeType": "B.O",
    "Deliverystatus": "Delivery",
    "divisionname": "Guna",
    "regionname": "Gwalior",
    "circlename": "Madhya Pradesh",
    "Taluk": "Shivpuri",
    "Districtname": "Shivpuri",
    "statename": "MADHYA PRADESH"
  },
  {
    "pincode": "473551",
    "officename": "Raishree B.O",
    "officeType": "B.O",
    "Deliverystatus": "Delivery",
    "divisionname": "Guna",
    "regionname": "Gwalior",
    "circlename": "Madhya Pradesh",
    "Taluk": "Shivpuri",
    "Districtname": "Shivpuri",
    "statename": "MADHYA PRADESH"
  },
  {
    "pincode": "473551",
    "officename": "Satanwada B.O",
    "officeType": "B.O",
    "Deliverystatus": "Delivery",
    "divisionname": "Guna",
    "regionname": "Gwalior",
    "circlename": "Madhya Pradesh",
    "Taluk": "Shivpuri",
    "Districtname": "Shivpuri",
    "statename": "MADHYA PRADESH"
  },
  {
    "pincode": "473551",
    "officename": "Shivprui City S.O",
    "officeType": "S.O",
    "Deliverystatus": "Non-Delivery",
    "divisionname": "Guna",
    "regionname": "Gwalior",
    "circlename": "Madhya Pradesh",
    "Taluk": "Shivpuri",
    "Districtname": "Shivpuri",
    "statename": "MADHYA PRADESH"
  },
  {
    "pincode": "473551",
    "officename": "Shivpuri H.O",
    "officeType": "H.O",
    "Deliverystatus": "Delivery",
    "divisionname": "Guna",
    "regionname": "Gwalior",
    "circlename": "Madhya Pradesh",
    "Taluk": "Shivpuri",
    "Districtname": "Shivpuri",
    "statename": "MADHYA PRADESH"
  },
  {
    "pincode": "473551",
    "officename": "Singhniwas B.O",
    "officeType": "B.O",
    "Deliverystatus": "Delivery",
    "divisionname": "Guna",
    "regionname": "Gwalior",
    "circlename": "Madhya Pradesh",
    "Taluk": "Shivpuri",
    "Districtname": "Shivpuri",
    "statename": "MADHYA PRADESH"
  },
  {
    "pincode": "473551",
    "officename": "Sirsaud B.O",
    "officeType": "B.O",
    "Deliverystatus": "Delivery",
    "divisionname": "Guna",
    "regionname": "Gwalior",
    "circlename": "Madhya Pradesh",
    "Taluk": "Shivpuri",
    "Districtname": "Shivpuri",
    "statename": "MADHYA PRADESH"
  },
  {
    "pincode": "473551",
    "officename": "Subhashpura B.O",
    "officeType": "B.O",
    "Deliverystatus": "Delivery",
    "divisionname": "Guna",
    "regionname": "Gwalior",
    "circlename": "Madhya Pradesh",
    "Taluk": "Shivpuri",
    "Districtname": "Shivpuri",
    "statename": "MADHYA PRADESH"
  },
  {
    "pincode": "473551",
    "officename": "Surwaya B.O",
    "officeType": "B.O",
    "Deliverystatus": "Delivery",
    "divisionname": "Guna",
    "regionname": "Gwalior",
    "circlename": "Madhya Pradesh",
    "Taluk": "Shivpuri",
    "Districtname": "Shivpuri",
    "statename": "MADHYA PRADESH"
  },
  {
    "pincode": "473551",
    "officename": "Tharra Darroni B.O",
    "officeType": "B.O",
    "Deliverystatus": "Delivery",
    "divisionname": "Guna",
    "regionname": "Gwalior",
    "circlename": "Madhya Pradesh",
    "Taluk": "Shivpuri",
    "Districtname": "Shivpuri",
    "statename": "MADHYA PRADESH"
  },
  {
    "pincode": "473551",
    "officename": "Theh B.O",
    "officeType": "B.O",
    "Deliverystatus": "Delivery",
    "divisionname": "Guna",
    "regionname": "Gwalior",
    "circlename": "Madhya Pradesh",
    "Taluk": "Shivpuri",
    "Districtname": "Shivpuri",
    "statename": "MADHYA PRADESH"
  },
  {
    "pincode": "473551",
    "officename": "Tongra B.O",
    "officeType": "B.O",
    "Deliverystatus": "Delivery",
    "divisionname": "Guna",
    "regionname": "Gwalior",
    "circlename": "Madhya Pradesh",
    "Taluk": "Shivpuri",
    "Districtname": "Shivpuri",
    "statename": "MADHYA PRADESH"
  },
  {
    "pincode": "473551",
    "officename": "V.R.Colony Shivpuri S.O",
    "officeType": "S.O",
    "Deliverystatus": "Non-Delivery",
    "divisionname": "Guna",
    "regionname": "Gwalior",
    "circlename": "Madhya Pradesh",
    "Taluk": "Shivpuri",
    "Districtname": "Shivpuri",
    "statename": "MADHYA PRADESH"
  }
]
