[
  {
    "pincode": "473670",
    "officename": "Badera B.O",
    "officeType": "B.O",
    "Deliverystatus": "Delivery",
    "divisionname": "Guna",
    "regionname": "Gwalior",
    "circlename": "Madhya Pradesh",
    "Taluk": "Pichhore",
    "Districtname": "Shivpuri",
    "statename": "MADHYA PRADESH"
  },
  {
    "pincode": "473670",
    "officename": "Bamore Damron B.O",
    "officeType": "B.O",
    "Deliverystatus": "Delivery",
    "divisionname": "Guna",
    "regionname": "Gwalior",
    "circlename": "Madhya Pradesh",
    "Taluk": "Pichhore",
    "Districtname": "Shivpuri",
    "statename": "MADHYA PRADESH"
  },
  {
    "pincode": "473670",
    "officename": "Bhonti B.O",
    "officeType": "B.O",
    "Deliverystatus": "Delivery",
    "divisionname": "Guna",
    "regionname": "Gwalior",
    "circlename": "Madhya Pradesh",
    "Taluk": "Pichhore",
    "Districtname": "Shivpuri",
    "statename": "MADHYA PRADESH"
  },
  {
    "pincode": "473670",
    "officename": "Chhirwaha B.O",
    "officeType": "B.O",
    "Deliverystatus": "Delivery",
    "divisionname": "Guna",
    "regionname": "Gwalior",
    "circlename": "Madhya Pradesh",
    "Taluk": "Pichhore",
    "Districtname": "Shivpuri",
    "statename": "MADHYA PRADESH"
  },
  {
    "pincode": "473670",
    "officename": "Dargawa B.O",
    "officeType": "B.O",
    "Deliverystatus": "Delivery",
    "divisionname": "Guna",
    "regionname": "Gwalior",
    "circlename": "Madhya Pradesh",
    "Taluk": "Pichhore",
    "Districtname": "Shivpuri",
    "statename": "MADHYA PRADESH"
  },
  {
    "pincode": "473670",
    "officename": "Dhala B.O",
    "officeType": "B.O",
    "Deliverystatus": "Delivery",
    "divisionname": "Guna",
    "regionname": "Gwalior",
    "circlename": "Madhya Pradesh",
    "Taluk": "Pichhore",
    "Districtname": "Shivpuri",
    "statename": "MADHYA PRADESH"
  },
  {
    "pincode": "473670",
    "officename": "Ganeshkheda B.O",
    "officeType": "B.O",
    "Deliverystatus": "Delivery",
    "divisionname": "Guna",
    "regionname": "Gwalior",
    "circlename": "Madhya Pradesh",
    "Taluk": "Pichhore",
    "Districtname": "Shivpuri",
    "statename": "MADHYA PRADESH"
  },
  {
    "pincode": "473670",
    "officename": "Kakraua Thuni B.O",
    "officeType": "B.O",
    "Deliverystatus": "Delivery",
    "divisionname": "Guna",
    "regionname": "Gwalior",
    "circlename": "Madhya Pradesh",
    "Taluk": "Pichhore",
    "Districtname": "Shivpuri",
    "statename": "MADHYA PRADESH"
  },
  {
    "pincode": "473670",
    "officename": "Khod B.O",
    "officeType": "B.O",
    "Deliverystatus": "Delivery",
    "divisionname": "Guna",
    "regionname": "Gwalior",
    "circlename": "Madhya Pradesh",
    "Taluk": "Pichhore",
    "Districtname": "Shivpuri",
    "statename": "MADHYA PRADESH"
  },
  {
    "pincode": "473670",
    "officename": "Manpura S.O",
    "officeType": "S.O",
    "Deliverystatus": "Delivery",
    "divisionname": "Guna",
    "regionname": "Gwalior",
    "circlename": "Madhya Pradesh",
    "Taluk": "Pichhore",
    "Districtname": "Shivpuri",
    "statename": "MADHYA PRADESH"
  },
  {
    "pincode": "473670",
    "officename": "Naoli B.O",
    "officeType": "B.O",
    "Deliverystatus": "Delivery",
    "divisionname": "Guna",
    "regionname": "Gwalior",
    "circlename": "Madhya Pradesh",
    "Taluk": "Pichhore",
    "Districtname": "Shivpuri",
    "statename": "MADHYA PRADESH"
  },
  {
    "pincode": "473670",
    "officename": "Pipra Pichhore B.O",
    "officeType": "B.O",
    "Deliverystatus": "Delivery",
    "divisionname": "Guna",
    "regionname": "Gwalior",
    "circlename": "Madhya Pradesh",
    "Taluk": "Pichhore",
    "Districtname": "Shivpuri",
    "statename": "MADHYA PRADESH"
  },
  {
    "pincode": "473670",
    "officename": "Sirsaud B.O",
    "officeType": "B.O",
    "Deliverystatus": "Delivery",
    "divisionname": "Guna",
    "regionname": "Gwalior",
    "circlename": "Madhya Pradesh",
    "Taluk": "Pichhore",
    "Districtname": "Shivpuri",
    "statename": "MADHYA PRADESH"
  },
  {
    "pincode": "473670",
    "officename": "Umri Kala B.O",
    "officeType": "B.O",
    "Deliverystatus": "Delivery",
    "divisionname": "Guna",
    "regionname": "Gwalior",
    "circlename": "Madhya Pradesh",
    "Taluk": "Pichhore",
    "Districtname": "Shivpuri",
    "statename": "MADHYA PRADESH"
  }
]
