[
  {
    "pincode": "473793",
    "officename": "Ainchwara B.O",
    "officeType": "B.O",
    "Deliverystatus": "Delivery",
    "divisionname": "Guna",
    "regionname": "Gwalior",
    "circlename": "Madhya Pradesh",
    "Taluk": "Pohri",
    "Districtname": "Shivpuri",
    "statename": "MADHYA PRADESH"
  },
  {
    "pincode": "473793",
    "officename": "Berad S.O",
    "officeType": "S.O",
    "Deliverystatus": "Delivery",
    "divisionname": "Guna",
    "regionname": "Gwalior",
    "circlename": "Madhya Pradesh",
    "Taluk": "Pohri",
    "Districtname": "Shivpuri",
    "statename": "MADHYA PRADESH"
  },
  {
    "pincode": "473793",
    "officename": "Bilwara Mata B.O",
    "officeType": "B.O",
    "Deliverystatus": "Delivery",
    "divisionname": "Guna",
    "regionname": "Gwalior",
    "circlename": "Madhya Pradesh",
    "Taluk": "Pohri",
    "Districtname": "Shivpuri",
    "statename": "MADHYA PRADESH"
  },
  {
    "pincode": "473793",
    "officename": "Burda B.O",
    "officeType": "B.O",
    "Deliverystatus": "Delivery",
    "divisionname": "Guna",
    "regionname": "Gwalior",
    "circlename": "Madhya Pradesh",
    "Taluk": "Pohri",
    "Districtname": "Shivpuri",
    "statename": "MADHYA PRADESH"
  },
  {
    "pincode": "473793",
    "officename": "Gajigarh B.O",
    "officeType": "B.O",
    "Deliverystatus": "Delivery",
    "divisionname": "Guna",
    "regionname": "Gwalior",
    "circlename": "Madhya Pradesh",
    "Taluk": "Pohri",
    "Districtname": "Shivpuri",
    "statename": "MADHYA PRADESH"
  },
  {
    "pincode": "473793",
    "officename": "Gondari B.O",
    "officeType": "B.O",
    "Deliverystatus": "Delivery",
    "divisionname": "Guna",
    "regionname": "Gwalior",
    "circlename": "Madhya Pradesh",
    "Taluk": "Pohri",
    "Districtname": "Shivpuri",
    "statename": "MADHYA PRADESH"
  },
  {
    "pincode": "473793",
    "officename": "Gopalpura B.O",
    "officeType": "B.O",
    "Deliverystatus": "Delivery",
    "divisionname": "Guna",
    "regionname": "Gwalior",
    "circlename": "Madhya Pradesh",
    "Taluk": "Pohri",
    "Districtname": "Shivpuri",
    "statename": "MADHYA PRADESH"
  },
  {
    "pincode": "473793",
    "officename": "Jorai B.O",
    "officeType": "B.O",
    "Deliverystatus": "Delivery",
    "divisionname": "Guna",
    "regionname": "Gwalior",
    "circlename": "Madhya Pradesh",
    "Taluk": "Pohri",
    "Districtname": "Shivpuri",
    "statename": "MADHYA PRADESH"
  },
  {
    "pincode": "473793",
    "officename": "Kakraua B.O",
    "officeType": "B.O",
    "Deliverystatus": "Delivery",
    "divisionname": "Guna",
    "regionname": "Gwalior",
    "circlename": "Madhya Pradesh",
    "Taluk": "Pohri",
    "Districtname": "Shivpuri",
    "statename": "MADHYA PRADESH"
  },
  {
    "pincode": "473793",
    "officename": "Kharai Jalim B.O",
    "officeType": "B.O",
    "Deliverystatus": "Delivery",
    "divisionname": "Guna",
    "regionname": "Gwalior",
    "circlename": "Madhya Pradesh",
    "Taluk": "Pohri",
    "Districtname": "Shivpuri",
    "statename": "MADHYA PRADESH"
  },
  {
    "pincode": "473793",
    "officename": "Khatka B.O",
    "officeType": "B.O",
    "Deliverystatus": "Delivery",
    "divisionname": "Guna",
    "regionname": "Gwalior",
    "circlename": "Madhya Pradesh",
    "Taluk": "Pohri",
    "Districtname": "Shivpuri",
    "statename": "MADHYA PRADESH"
  },
  {
    "pincode": "473793",
    "officename": "Nadora B.O",
    "officeType": "B.O",
    "Deliverystatus": "Delivery",
    "divisionname": "Guna",
    "regionname": "Gwalior",
    "circlename": "Madhya Pradesh",
    "Taluk": "Pohri",
    "Districtname": "Shivpuri",
    "statename": "MADHYA PRADESH"
  }
]
