[
  {
    "pincode": "473774",
    "officename": "Benhta B.O",
    "officeType": "B.O",
    "Deliverystatus": "Delivery",
    "divisionname": "Guna",
    "regionname": "Gwalior",
    "circlename": "Madhya Pradesh",
    "Taluk": "Kolaras",
    "Districtname": "Shivpuri",
    "statename": "MADHYA PRADESH"
  },
  {
    "pincode": "473774",
    "officename": "Deharwara B.O",
    "officeType": "B.O",
    "Deliverystatus": "Delivery",
    "divisionname": "Guna",
    "regionname": "Gwalior",
    "circlename": "Madhya Pradesh",
    "Taluk": "Kolaras",
    "Districtname": "Shivpuri",
    "statename": "MADHYA PRADESH"
  },
  {
    "pincode": "473774",
    "officename": "Dehrog B.O",
    "officeType": "B.O",
    "Deliverystatus": "Delivery",
    "divisionname": "Guna",
    "regionname": "Gwalior",
    "circlename": "Madhya Pradesh",
    "Taluk": "Kolaras",
    "Districtname": "Shivpuri",
    "statename": "MADHYA PRADESH"
  },
  {
    "pincode": "473774",
    "officename": "Ganeshkjeda B.O",
    "officeType": "B.O",
    "Deliverystatus": "Delivery",
    "divisionname": "Guna",
    "regionname": "Gwalior",
    "circlename": "Madhya Pradesh",
    "Taluk": "Kolaras",
    "Districtname": "Shivpuri",
    "statename": "MADHYA PRADESH"
  },
  {
    "pincode": "473774",
    "officename": "Jagatpur S.O (Shivpuri)",
    "officeType": "S.O",
    "Deliverystatus": "Delivery",
    "divisionname": "Guna",
    "regionname": "Gwalior",
    "circlename": "Madhya Pradesh",
    "Taluk": "Kolaras",
    "Districtname": "Shivpuri",
    "statename": "MADHYA PRADESH"
  },
  {
    "pincode": "473774",
    "officename": "Karya B.O",
    "officeType": "B.O",
    "Deliverystatus": "Delivery",
    "divisionname": "Guna",
    "regionname": "Gwalior",
    "circlename": "Madhya Pradesh",
    "Taluk": "Kolaras",
    "Districtname": "Shivpuri",
    "statename": "MADHYA PRADESH"
  },
  {
    "pincode": "473774",
    "officename": "Kharai B.O",
    "officeType": "B.O",
    "Deliverystatus": "Delivery",
    "divisionname": "Guna",
    "regionname": "Gwalior",
    "circlename": "Madhya Pradesh",
    "Taluk": "Kolaras",
    "Districtname": "Shivpuri",
    "statename": "MADHYA PRADESH"
  },
  {
    "pincode": "473774",
    "officename": "Kilawani B.O",
    "officeType": "B.O",
    "Deliverystatus": "Delivery",
    "divisionname": "Guna",
    "regionname": "Gwalior",
    "circlename": "Madhya Pradesh",
    "Taluk": "Kolaras",
    "Districtname": "Shivpuri",
    "statename": "MADHYA PRADESH"
  },
  {
    "pincode": "473774",
    "officename": "Lewa B.O",
    "officeType": "B.O",
    "Deliverystatus": "Delivery",
    "divisionname": "Guna",
    "regionname": "Gwalior",
    "circlename": "Madhya Pradesh",
    "Taluk": "Kolaras",
    "Districtname": "Shivpuri",
    "statename": "MADHYA PRADESH"
  },
  {
    "pincode": "473774",
    "officename": "Mohra B.O",
    "officeType": "B.O",
    "Deliverystatus": "Delivery",
    "divisionname": "Guna",
    "regionname": "Gwalior",
    "circlename": "Madhya Pradesh",
    "Taluk": "Kolaras",
    "Districtname": "Shivpuri",
    "statename": "MADHYA PRADESH"
  },
  {
    "pincode": "473774",
    "officename": "Rai B.O",
    "officeType": "B.O",
    "Deliverystatus": "Delivery",
    "divisionname": "Guna",
    "regionname": "Gwalior",
    "circlename": "Madhya Pradesh",
    "Taluk": "Kolaras",
    "Districtname": "Shivpuri",
    "statename": "MADHYA PRADESH"
  },
  {
    "pincode": "473774",
    "officename": "Rajgarh B.O",
    "officeType": "B.O",
    "Deliverystatus": "Delivery",
    "divisionname": "Guna",
    "regionname": "Gwalior",
    "circlename": "Madhya Pradesh",
    "Taluk": "Kolaras",
    "Districtname": "Shivpuri",
    "statename": "MADHYA PRADESH"
  },
  {
    "pincode": "473774",
    "officename": "Sakhnor B.O",
    "officeType": "B.O",
    "Deliverystatus": "Delivery",
    "divisionname": "Guna",
    "regionname": "Gwalior",
    "circlename": "Madhya Pradesh",
    "Taluk": "Kolaras",
    "Districtname": "Shivpuri",
    "statename": "MADHYA PRADESH"
  },
  {
    "pincode": "473774",
    "officename": "Sesai B.O",
    "officeType": "B.O",
    "Deliverystatus": "Delivery",
    "divisionname": "Guna",
    "regionname": "Gwalior",
    "circlename": "Madhya Pradesh",
    "Taluk": "Kolaras",
    "Districtname": "Shivpuri",
    "statename": "MADHYA PRADESH"
  }
]
