[
  {
    "pincode": "473770",
    "officename": "Aijwara B.O",
    "officeType": "B.O",
    "Deliverystatus": "Delivery",
    "divisionname": "Guna",
    "regionname": "Gwalior",
    "circlename": "Madhya Pradesh",
    "Taluk": "Kolaras",
    "Districtname": "Shivpuri",
    "statename": "MADHYA PRADESH"
  },
  {
    "pincode": "473770",
    "officename": "Barod B.O",
    "officeType": "B.O",
    "Deliverystatus": "Delivery",
    "divisionname": "Guna",
    "regionname": "Gwalior",
    "circlename": "Madhya Pradesh",
    "Taluk": "Kolaras",
    "Districtname": "Shivpuri",
    "statename": "MADHYA PRADESH"
  },
  {
    "pincode": "473770",
    "officename": "Bhadauta B.O",
    "officeType": "B.O",
    "Deliverystatus": "Delivery",
    "divisionname": "Guna",
    "regionname": "Gwalior",
    "circlename": "Madhya Pradesh",
    "Taluk": "Kolaras",
    "Districtname": "Shivpuri",
    "statename": "MADHYA PRADESH"
  },
  {
    "pincode": "473770",
    "officename": "Bijroni B.O",
    "officeType": "B.O",
    "Deliverystatus": "Delivery",
    "divisionname": "Guna",
    "regionname": "Gwalior",
    "circlename": "Madhya Pradesh",
    "Taluk": "Kolaras",
    "Districtname": "Shivpuri",
    "statename": "MADHYA PRADESH"
  },
  {
    "pincode": "473770",
    "officename": "Endar B.O",
    "officeType": "B.O",
    "Deliverystatus": "Delivery",
    "divisionname": "Guna",
    "regionname": "Gwalior",
    "circlename": "Madhya Pradesh",
    "Taluk": "Kolaras",
    "Districtname": "Shivpuri",
    "statename": "MADHYA PRADESH"
  },
  {
    "pincode": "473770",
    "officename": "Khatora B.O",
    "officeType": "B.O",
    "Deliverystatus": "Delivery",
    "divisionname": "Guna",
    "regionname": "Gwalior",
    "circlename": "Madhya Pradesh",
    "Taluk": "Kolaras",
    "Districtname": "Shivpuri",
    "statename": "MADHYA PRADESH"
  },
  {
    "pincode": "473770",
    "officename": "Kolaras S.O",
    "officeType": "S.O",
    "Deliverystatus": "Delivery",
    "divisionname": "Guna",
    "regionname": "Gwalior",
    "circlename": "Madhya Pradesh",
    "Taluk": "Kolaras",
    "Districtname": "Shivpuri",
    "statename": "MADHYA PRADESH"
  },
  {
    "pincode": "473770",
    "officename": "Madwasa B.O",
    "officeType": "B.O",
    "Deliverystatus": "Delivery",
    "divisionname": "Guna",
    "regionname": "Gwalior",
    "circlename": "Madhya Pradesh",
    "Taluk": "Kolaras",
    "Districtname": "Shivpuri",
    "statename": "MADHYA PRADESH"
  },
  {
    "pincode": "473770",
    "officename": "Peeronth B.O",
    "officeType": "B.O",
    "Deliverystatus": "Delivery",
    "divisionname": "Guna",
    "regionname": "Gwalior",
    "circlename": "Madhya Pradesh",
    "Taluk": "Kolaras",
    "Districtname": "Shivpuri",
    "statename": "MADHYA PRADESH"
  },
  {
    "pincode": "473770",
    "officename": "Ramgarh B.O",
    "officeType": "B.O",
    "Deliverystatus": "Delivery",
    "divisionname": "Guna",
    "regionname": "Gwalior",
    "circlename": "Madhya Pradesh",
    "Taluk": "Kolaras",
    "Districtname": "Shivpuri",
    "statename": "MADHYA PRADESH"
  }
]
