[
  {
    "pincode": "474001",
    "officename": "Ajaypur B.O",
    "officeType": "B.O",
    "Deliverystatus": "Delivery",
    "divisionname": "Gwalior",
    "regionname": "Gwalior",
    "circlename": "Madhya Pradesh",
    "Taluk": "Gwalior",
    "Districtname": "Gwalior",
    "statename": "MADHYA PRADESH"
  },
  {
    "pincode": "474001",
    "officename": "Collectorate S.O (Gwalior)",
    "officeType": "S.O",
    "Deliverystatus": "Non-Delivery",
    "divisionname": "Gwalior",
    "regionname": "Gwalior",
    "circlename": "Madhya Pradesh",
    "Taluk": "Gird",
    "Districtname": "Gwalior",
    "statename": "MADHYA PRADESH"
  },
  {
    "pincode": "474001",
    "officename": "I.P.S Gwalior B.O",
    "officeType": "B.O",
    "Deliverystatus": "Delivery",
    "divisionname": "Gwalior",
    "regionname": "Gwalior",
    "circlename": "Madhya Pradesh",
    "Taluk": "Gird",
    "Districtname": "Gwalior",
    "statename": "MADHYA PRADESH"
  },
  {
    "pincode": "474001",
    "officename": "Itm B.O",
    "officeType": "B.O",
    "Deliverystatus": "Delivery",
    "divisionname": "Gwalior",
    "regionname": "Gwalior",
    "circlename": "Madhya Pradesh",
    "Taluk": "Gird",
    "Districtname": "Gwalior",
    "statename": "MADHYA PRADESH"
  },
  {
    "pincode": "474001",
    "officename": "Janak Ganj S.O",
    "officeType": "S.O",
    "Deliverystatus": "Non-Delivery",
    "divisionname": "Gwalior",
    "regionname": "Gwalior",
    "circlename": "Madhya Pradesh",
    "Taluk": "Gird",
    "Districtname": "Gwalior",
    "statename": "MADHYA PRADESH"
  },
  {
    "pincode": "474001",
    "officename": "Janaktal B.O",
    "officeType": "B.O",
    "Deliverystatus": "Non-Delivery",
    "divisionname": "Gwalior",
    "regionname": "Gwalior",
    "circlename": "Madhya Pradesh",
    "Taluk": "Gird",
    "Districtname": "Gwalior",
    "statename": "MADHYA PRADESH"
  },
  {
    "pincode": "474001",
    "officename": "Jiwaji Ganj B.O",
    "officeType": "B.O",
    "Deliverystatus": "Non-Delivery",
    "divisionname": "Gwalior",
    "regionname": "Gwalior",
    "circlename": "Madhya Pradesh",
    "Taluk": "Gird",
    "Districtname": "Gwalior",
    "statename": "MADHYA PRADESH"
  },
  {
    "pincode": "474001",
    "officename": "Kampoo S.O",
    "officeType": "S.O",
    "Deliverystatus": "Non-Delivery",
    "divisionname": "Gwalior",
    "regionname": "Gwalior",
    "circlename": "Madhya Pradesh",
    "Taluk": "Gird",
    "Districtname": "Gwalior",
    "statename": "MADHYA PRADESH"
  },
  {
    "pincode": "474001",
    "officename": "Lala Ka Bazar B.O",
    "officeType": "B.O",
    "Deliverystatus": "Non-Delivery",
    "divisionname": "Gwalior",
    "regionname": "Gwalior",
    "circlename": "Madhya Pradesh",
    "Taluk": "Gird",
    "Districtname": "Gwalior",
    "statename": "MADHYA PRADESH"
  },
  {
    "pincode": "474001",
    "officename": "Lashkar H.O",
    "officeType": "H.O",
    "Deliverystatus": "Delivery",
    "divisionname": "Gwalior",
    "regionname": "Gwalior",
    "circlename": "Madhya Pradesh",
    "Taluk": "Gird",
    "Districtname": "Gwalior",
    "statename": "MADHYA PRADESH"
  },
  {
    "pincode": "474001",
    "officename": "Mudia Pahad B.O",
    "officeType": "B.O",
    "Deliverystatus": "Non-Delivery",
    "divisionname": "Gwalior",
    "regionname": "Gwalior",
    "circlename": "Madhya Pradesh",
    "Taluk": "Gird",
    "Districtname": "Gwalior",
    "statename": "MADHYA PRADESH"
  },
  {
    "pincode": "474001",
    "officename": "Naya Sarafa S.O",
    "officeType": "S.O",
    "Deliverystatus": "Non-Delivery",
    "divisionname": "Gwalior",
    "regionname": "Gwalior",
    "circlename": "Madhya Pradesh",
    "Taluk": "Gird",
    "Districtname": "Gwalior",
    "statename": "MADHYA PRADESH"
  },
  {
    "pincode": "474001",
    "officename": "Shinde Ki Chhawani S.O",
    "officeType": "S.O",
    "Deliverystatus": "Non-Delivery",
    "divisionname": "Gwalior",
    "regionname": "Gwalior",
    "circlename": "Madhya Pradesh",
    "Taluk": "Gird",
    "Districtname": "Gwalior",
    "statename": "MADHYA PRADESH"
  },
  {
    "pincode": "474001",
    "officename": "Tighra B.O",
    "officeType": "B.O",
    "Deliverystatus": "Non-Delivery",
    "divisionname": "Gwalior",
    "regionname": "Gwalior",
    "circlename": "Madhya Pradesh",
    "Taluk": "Gwalior",
    "Districtname": "Gwalior",
    "statename": "MADHYA PRADESH"
  },
  {
    "pincode": "474001",
    "officename": "Tilak Nagar B.O",
    "officeType": "B.O",
    "Deliverystatus": "Non-Delivery",
    "divisionname": "Gwalior",
    "regionname": "Gwalior",
    "circlename": "Madhya Pradesh",
    "Taluk": "Gird",
    "Districtname": "Gwalior",
    "statename": "MADHYA PRADESH"
  },
  {
    "pincode": "474001",
    "officename": "V.N. Marg S.O",
    "officeType": "S.O",
    "Deliverystatus": "Non-Delivery",
    "divisionname": "Gwalior",
    "regionname": "Gwalior",
    "circlename": "Madhya Pradesh",
    "Taluk": "Gird",
    "Districtname": "Gwalior",
    "statename": "MADHYA PRADESH"
  }
]
