[
  {
    "pincode": "474006",
    "officename": "Badagaon B.O",
    "officeType": "B.O",
    "Deliverystatus": "Delivery",
    "divisionname": "Gwalior",
    "regionname": "Gwalior",
    "circlename": "Madhya Pradesh",
    "Taluk": "Gwalior",
    "Districtname": "Gwalior",
    "statename": "MADHYA PRADESH"
  },
  {
    "pincode": "474006",
    "officename": "Bandholi B.O",
    "officeType": "B.O",
    "Deliverystatus": "Delivery",
    "divisionname": "Gwalior",
    "regionname": "Gwalior",
    "circlename": "Madhya Pradesh",
    "Taluk": "Gird",
    "Districtname": "Gwalior",
    "statename": "MADHYA PRADESH"
  },
  {
    "pincode": "474006",
    "officename": "Bijoli B.O",
    "officeType": "B.O",
    "Deliverystatus": "Delivery",
    "divisionname": "Gwalior",
    "regionname": "Gwalior",
    "circlename": "Madhya Pradesh",
    "Taluk": "Gwalior",
    "Districtname": "Gwalior",
    "statename": "MADHYA PRADESH"
  },
  {
    "pincode": "474006",
    "officename": "Bilhati Kalan B.O",
    "officeType": "B.O",
    "Deliverystatus": "Delivery",
    "divisionname": "Gwalior",
    "regionname": "Gwalior",
    "circlename": "Madhya Pradesh",
    "Taluk": "Gird",
    "Districtname": "Gwalior",
    "statename": "MADHYA PRADESH"
  },
  {
    "pincode": "474006",
    "officename": "Jaderuakalan B.O",
    "officeType": "B.O",
    "Deliverystatus": "Delivery",
    "divisionname": "Gwalior",
    "regionname": "Gwalior",
    "circlename": "Madhya Pradesh",
    "Taluk": "Gird",
    "Districtname": "Gwalior",
    "statename": "MADHYA PRADESH"
  },
  {
    "pincode": "474006",
    "officename": "Morar H.O",
    "officeType": "H.O",
    "Deliverystatus": "Delivery",
    "divisionname": "Gwalior",
    "regionname": "Gwalior",
    "circlename": "Madhya Pradesh",
    "Taluk": "Gird",
    "Districtname": "Gwalior",
    "statename": "MADHYA PRADESH"
  },
  {
    "pincode": "474006",
    "officename": "Morar Town S.O",
    "officeType": "S.O",
    "Deliverystatus": "Non-Delivery",
    "divisionname": "Gwalior",
    "regionname": "Gwalior",
    "circlename": "Madhya Pradesh",
    "Taluk": "Gird",
    "Districtname": "Gwalior",
    "statename": "MADHYA PRADESH"
  },
  {
    "pincode": "474006",
    "officename": "Parsen B.O",
    "officeType": "B.O",
    "Deliverystatus": "Delivery",
    "divisionname": "Gwalior",
    "regionname": "Gwalior",
    "circlename": "Madhya Pradesh",
    "Taluk": "Gwalior",
    "Districtname": "Gwalior",
    "statename": "MADHYA PRADESH"
  },
  {
    "pincode": "474006",
    "officename": "Ratwai B.O",
    "officeType": "B.O",
    "Deliverystatus": "Delivery",
    "divisionname": "Gwalior",
    "regionname": "Gwalior",
    "circlename": "Madhya Pradesh",
    "Taluk": "Gwalior",
    "Districtname": "Gwalior",
    "statename": "MADHYA PRADESH"
  },
  {
    "pincode": "474006",
    "officename": "Sirsod B.O",
    "officeType": "B.O",
    "Deliverystatus": "Delivery",
    "divisionname": "Gwalior",
    "regionname": "Gwalior",
    "circlename": "Madhya Pradesh",
    "Taluk": "Gwalior",
    "Districtname": "Gwalior",
    "statename": "MADHYA PRADESH"
  },
  {
    "pincode": "474006",
    "officename": "Supaoli B.O",
    "officeType": "B.O",
    "Deliverystatus": "Delivery",
    "divisionname": "Gwalior",
    "regionname": "Gwalior",
    "circlename": "Madhya Pradesh",
    "Taluk": "Gwalior",
    "Districtname": "Gwalior",
    "statename": "MADHYA PRADESH"
  },
  {
    "pincode": "474006",
    "officename": "Utila B.O",
    "officeType": "B.O",
    "Deliverystatus": "Delivery",
    "divisionname": "Gwalior",
    "regionname": "Gwalior",
    "circlename": "Madhya Pradesh",
    "Taluk": "Gwalior",
    "Districtname": "Gwalior",
    "statename": "MADHYA PRADESH"
  },
  {
    "pincode": "474006",
    "officename": "Wahangikhurd B.O",
    "officeType": "B.O",
    "Deliverystatus": "Delivery",
    "divisionname": "Gwalior",
    "regionname": "Gwalior",
    "circlename": "Madhya Pradesh",
    "Taluk": "",
    "Districtname": "Gwalior",
    "statename": "MADHYA PRADESH"
  }
]
