[
  {
    "pincode": "475115",
    "officename": "Badera Bujurg B.O",
    "officeType": "B.O",
    "Deliverystatus": "Delivery",
    "divisionname": "Gwalior",
    "regionname": "Gwalior",
    "circlename": "Madhya Pradesh",
    "Taluk": "Dabra",
    "Districtname": "Gwalior",
    "statename": "MADHYA PRADESH"
  },
  {
    "pincode": "475115",
    "officename": "Bhageh B.O",
    "officeType": "B.O",
    "Deliverystatus": "Delivery",
    "divisionname": "Gwalior",
    "regionname": "Gwalior",
    "circlename": "Madhya Pradesh",
    "Taluk": "Dabra",
    "Districtname": "Gwalior",
    "statename": "MADHYA PRADESH"
  },
  {
    "pincode": "475115",
    "officename": "Gijjora B.O",
    "officeType": "B.O",
    "Deliverystatus": "Delivery",
    "divisionname": "Gwalior",
    "regionname": "Gwalior",
    "circlename": "Madhya Pradesh",
    "Taluk": "Dabra",
    "Districtname": "Gwalior",
    "statename": "MADHYA PRADESH"
  },
  {
    "pincode": "475115",
    "officename": "Hathnora B.O",
    "officeType": "B.O",
    "Deliverystatus": "Delivery",
    "divisionname": "Gwalior",
    "regionname": "Gwalior",
    "circlename": "Madhya Pradesh",
    "Taluk": "Dabra",
    "Districtname": "Gwalior",
    "statename": "MADHYA PRADESH"
  },
  {
    "pincode": "475115",
    "officename": "Kethoda B.O",
    "officeType": "B.O",
    "Deliverystatus": "Delivery",
    "divisionname": "Gwalior",
    "regionname": "Gwalior",
    "circlename": "Madhya Pradesh",
    "Taluk": "Dabra",
    "Districtname": "Gwalior",
    "statename": "MADHYA PRADESH"
  },
  {
    "pincode": "475115",
    "officename": "Kitora B.O",
    "officeType": "B.O",
    "Deliverystatus": "Delivery",
    "divisionname": "Gwalior",
    "regionname": "Gwalior",
    "circlename": "Madhya Pradesh",
    "Taluk": "Dabra",
    "Districtname": "Gwalior",
    "statename": "MADHYA PRADESH"
  },
  {
    "pincode": "475115",
    "officename": "Mehgaon B.O",
    "officeType": "B.O",
    "Deliverystatus": "Delivery",
    "divisionname": "Gwalior",
    "regionname": "Gwalior",
    "circlename": "Madhya Pradesh",
    "Taluk": "Dabra",
    "Districtname": "Bhind",
    "statename": "MADHYA PRADESH"
  },
  {
    "pincode": "475115",
    "officename": "Pichhore Gird S.O",
    "officeType": "S.O",
    "Deliverystatus": "Delivery",
    "divisionname": "Gwalior",
    "regionname": "Gwalior",
    "circlename": "Madhya Pradesh",
    "Taluk": "Dabra",
    "Districtname": "Gwalior",
    "statename": "MADHYA PRADESH"
  },
  {
    "pincode": "475115",
    "officename": "Putti B.O",
    "officeType": "B.O",
    "Deliverystatus": "Delivery",
    "divisionname": "Gwalior",
    "regionname": "Gwalior",
    "circlename": "Madhya Pradesh",
    "Taluk": "Dabra",
    "Districtname": "Gwalior",
    "statename": "MADHYA PRADESH"
  },
  {
    "pincode": "475115",
    "officename": "Shukalhari B.O",
    "officeType": "B.O",
    "Deliverystatus": "Delivery",
    "divisionname": "Gwalior",
    "regionname": "Gwalior",
    "circlename": "Madhya Pradesh",
    "Taluk": "Dabra",
    "Districtname": "Gwalior",
    "statename": "MADHYA PRADESH"
  },
  {
    "pincode": "475115",
    "officename": "Sukhapatha B.O",
    "officeType": "B.O",
    "Deliverystatus": "Delivery",
    "divisionname": "Gwalior",
    "regionname": "Gwalior",
    "circlename": "Madhya Pradesh",
    "Taluk": "Dabra",
    "Districtname": "Gwalior",
    "statename": "MADHYA PRADESH"
  }
]
