[
  {
    "pincode": "475336",
    "officename": "Bhalka B.O",
    "officeType": "B.O",
    "Deliverystatus": "Delivery",
    "divisionname": "Gwalior",
    "regionname": "Gwalior",
    "circlename": "Madhya Pradesh",
    "Taluk": "Bhandair",
    "Districtname": "Datia",
    "statename": "MADHYA PRADESH"
  },
  {
    "pincode": "475336",
    "officename": "Bhitari B.O",
    "officeType": "B.O",
    "Deliverystatus": "Delivery",
    "divisionname": "Gwalior",
    "regionname": "Gwalior",
    "circlename": "Madhya Pradesh",
    "Taluk": "Bhandair",
    "Districtname": "Datia",
    "statename": "MADHYA PRADESH"
  },
  {
    "pincode": "475336",
    "officename": "Gondan B.O",
    "officeType": "B.O",
    "Deliverystatus": "Delivery",
    "divisionname": "Gwalior",
    "regionname": "Gwalior",
    "circlename": "Madhya Pradesh",
    "Taluk": "Bhandair",
    "Districtname": "Datia",
    "statename": "MADHYA PRADESH"
  },
  {
    "pincode": "475336",
    "officename": "Jouri B.O",
    "officeType": "B.O",
    "Deliverystatus": "Delivery",
    "divisionname": "Gwalior",
    "regionname": "Gwalior",
    "circlename": "Madhya Pradesh",
    "Taluk": "Bhandair",
    "Districtname": "Datia",
    "statename": "MADHYA PRADESH"
  },
  {
    "pincode": "475336",
    "officename": "Kamlapuri B.O",
    "officeType": "B.O",
    "Deliverystatus": "Delivery",
    "divisionname": "Gwalior",
    "regionname": "Gwalior",
    "circlename": "Madhya Pradesh",
    "Taluk": "Bhandair",
    "Districtname": "Datia",
    "statename": "MADHYA PRADESH"
  },
  {
    "pincode": "475336",
    "officename": "Khiria Alam B.O",
    "officeType": "B.O",
    "Deliverystatus": "Delivery",
    "divisionname": "Gwalior",
    "regionname": "Gwalior",
    "circlename": "Madhya Pradesh",
    "Taluk": "Bhandair",
    "Districtname": "Datia",
    "statename": "MADHYA PRADESH"
  },
  {
    "pincode": "475336",
    "officename": "Salon B. S.O",
    "officeType": "S.O",
    "Deliverystatus": "Delivery",
    "divisionname": "Gwalior",
    "regionname": "Gwalior",
    "circlename": "Madhya Pradesh",
    "Taluk": "Bhander",
    "Districtname": "Datia",
    "statename": "MADHYA PRADESH"
  },
  {
    "pincode": "475336",
    "officename": "Sohan B.O",
    "officeType": "B.O",
    "Deliverystatus": "Delivery",
    "divisionname": "Gwalior",
    "regionname": "Gwalior",
    "circlename": "Madhya Pradesh",
    "Taluk": "Bhandair",
    "Districtname": "Datia",
    "statename": "MADHYA PRADESH"
  },
  {
    "pincode": "475336",
    "officename": "Talgaon B.O",
    "officeType": "B.O",
    "Deliverystatus": "Delivery",
    "divisionname": "Gwalior",
    "regionname": "Gwalior",
    "circlename": "Madhya Pradesh",
    "Taluk": "Bhandair",
    "Districtname": "Datia",
    "statename": "MADHYA PRADESH"
  },
  {
    "pincode": "475336",
    "officename": "Tori B.O",
    "officeType": "B.O",
    "Deliverystatus": "Delivery",
    "divisionname": "Gwalior",
    "regionname": "Gwalior",
    "circlename": "Madhya Pradesh",
    "Taluk": "Bhandair",
    "Districtname": "Datia",
    "statename": "MADHYA PRADESH"
  },
  {
    "pincode": "475336",
    "officename": "Udi B.O",
    "officeType": "B.O",
    "Deliverystatus": "Delivery",
    "divisionname": "Gwalior",
    "regionname": "Gwalior",
    "circlename": "Madhya Pradesh",
    "Taluk": "Bhandair",
    "Districtname": "Datia",
    "statename": "MADHYA PRADESH"
  },
  {
    "pincode": "475336",
    "officename": "Udina B.O",
    "officeType": "B.O",
    "Deliverystatus": "Delivery",
    "divisionname": "Gwalior",
    "regionname": "Gwalior",
    "circlename": "Madhya Pradesh",
    "Taluk": "Bhandair",
    "Districtname": "Datia",
    "statename": "MADHYA PRADESH"
  }
]
