[
  {
    "pincode": "476224",
    "officename": "Ahroli B.O",
    "officeType": "B.O",
    "Deliverystatus": "Delivery",
    "divisionname": "Morena",
    "regionname": "Gwalior",
    "circlename": "Madhya Pradesh",
    "Taluk": "Kailaras",
    "Districtname": "Morena",
    "statename": "MADHYA PRADESH"
  },
  {
    "pincode": "476224",
    "officename": "Barrend B.O",
    "officeType": "B.O",
    "Deliverystatus": "Delivery",
    "divisionname": "Morena",
    "regionname": "Gwalior",
    "circlename": "Madhya Pradesh",
    "Taluk": "Kealras",
    "Districtname": "Morena",
    "statename": "MADHYA PRADESH"
  },
  {
    "pincode": "476224",
    "officename": "Bharra B.O",
    "officeType": "B.O",
    "Deliverystatus": "Delivery",
    "divisionname": "Morena",
    "regionname": "Gwalior",
    "circlename": "Madhya Pradesh",
    "Taluk": "Joura",
    "Districtname": "Morena",
    "statename": "MADHYA PRADESH"
  },
  {
    "pincode": "476224",
    "officename": "Chinnoni Chambal B.O",
    "officeType": "B.O",
    "Deliverystatus": "Delivery",
    "divisionname": "Morena",
    "regionname": "Gwalior",
    "circlename": "Madhya Pradesh",
    "Taluk": "Kealras",
    "Districtname": "Morena",
    "statename": "MADHYA PRADESH"
  },
  {
    "pincode": "476224",
    "officename": "Dipera B.O",
    "officeType": "B.O",
    "Deliverystatus": "Delivery",
    "divisionname": "Morena",
    "regionname": "Gwalior",
    "circlename": "Madhya Pradesh",
    "Taluk": "Kealras",
    "Districtname": "Morena",
    "statename": "MADHYA PRADESH"
  },
  {
    "pincode": "476224",
    "officename": "Jhundpura B.O",
    "officeType": "B.O",
    "Deliverystatus": "Delivery",
    "divisionname": "Morena",
    "regionname": "Gwalior",
    "circlename": "Madhya Pradesh",
    "Taluk": "Kealras",
    "Districtname": "Morena",
    "statename": "MADHYA PRADESH"
  },
  {
    "pincode": "476224",
    "officename": "Kelaras S.O",
    "officeType": "S.O",
    "Deliverystatus": "Delivery",
    "divisionname": "Morena",
    "regionname": "Gwalior",
    "circlename": "Madhya Pradesh",
    "Taluk": "Kelaras",
    "Districtname": "Morena",
    "statename": "MADHYA PRADESH"
  },
  {
    "pincode": "476224",
    "officename": "Khutiyanihar B.O",
    "officeType": "B.O",
    "Deliverystatus": "Delivery",
    "divisionname": "Morena",
    "regionname": "Gwalior",
    "circlename": "Madhya Pradesh",
    "Taluk": "Kealras",
    "Districtname": "Morena",
    "statename": "MADHYA PRADESH"
  },
  {
    "pincode": "476224",
    "officename": "Kondera B.O",
    "officeType": "B.O",
    "Deliverystatus": "Delivery",
    "divisionname": "Morena",
    "regionname": "Gwalior",
    "circlename": "Madhya Pradesh",
    "Taluk": "Kailaras",
    "Districtname": "Morena",
    "statename": "MADHYA PRADESH"
  },
  {
    "pincode": "476224",
    "officename": "Kurroli B.O",
    "officeType": "B.O",
    "Deliverystatus": "Delivery",
    "divisionname": "Morena",
    "regionname": "Gwalior",
    "circlename": "Madhya Pradesh",
    "Taluk": "Kealras",
    "Districtname": "Morena",
    "statename": "MADHYA PRADESH"
  },
  {
    "pincode": "476224",
    "officename": "Madhogarh B.O",
    "officeType": "B.O",
    "Deliverystatus": "Delivery",
    "divisionname": "Morena",
    "regionname": "Gwalior",
    "circlename": "Madhya Pradesh",
    "Taluk": "Kealras",
    "Districtname": "Morena",
    "statename": "MADHYA PRADESH"
  },
  {
    "pincode": "476224",
    "officename": "Nepari B.O",
    "officeType": "B.O",
    "Deliverystatus": "Delivery",
    "divisionname": "Morena",
    "regionname": "Gwalior",
    "circlename": "Madhya Pradesh",
    "Taluk": "Kealras",
    "Districtname": "Morena",
    "statename": "MADHYA PRADESH"
  },
  {
    "pincode": "476224",
    "officename": "Nirara B.O",
    "officeType": "B.O",
    "Deliverystatus": "Delivery",
    "divisionname": "Morena",
    "regionname": "Gwalior",
    "circlename": "Madhya Pradesh",
    "Taluk": "Kealras",
    "Districtname": "Morena",
    "statename": "MADHYA PRADESH"
  },
  {
    "pincode": "476224",
    "officename": "Pachokha B.O",
    "officeType": "B.O",
    "Deliverystatus": "Delivery",
    "divisionname": "Morena",
    "regionname": "Gwalior",
    "circlename": "Madhya Pradesh",
    "Taluk": "Kealras",
    "Districtname": "Morena",
    "statename": "MADHYA PRADESH"
  },
  {
    "pincode": "476224",
    "officename": "Rijhoni B.O",
    "officeType": "B.O",
    "Deliverystatus": "Delivery",
    "divisionname": "Morena",
    "regionname": "Gwalior",
    "circlename": "Madhya Pradesh",
    "Taluk": "Kealras",
    "Districtname": "Morena",
    "statename": "MADHYA PRADESH"
  },
  {
    "pincode": "476224",
    "officename": "Samai B.O",
    "officeType": "B.O",
    "Deliverystatus": "Delivery",
    "divisionname": "Morena",
    "regionname": "Gwalior",
    "circlename": "Madhya Pradesh",
    "Taluk": "Kealras",
    "Districtname": "Morena",
    "statename": "MADHYA PRADESH"
  },
  {
    "pincode": "476224",
    "officename": "Singroli B.O",
    "officeType": "B.O",
    "Deliverystatus": "Delivery",
    "divisionname": "Morena",
    "regionname": "Gwalior",
    "circlename": "Madhya Pradesh",
    "Taluk": "Kealras",
    "Districtname": "Morena",
    "statename": "MADHYA PRADESH"
  },
  {
    "pincode": "476224",
    "officename": "Sujangadi B.O",
    "officeType": "B.O",
    "Deliverystatus": "Delivery",
    "divisionname": "Morena",
    "regionname": "Gwalior",
    "circlename": "Madhya Pradesh",
    "Taluk": "Kealras",
    "Districtname": "Morena",
    "statename": "MADHYA PRADESH"
  },
  {
    "pincode": "476224",
    "officename": "Sujarma B.O",
    "officeType": "B.O",
    "Deliverystatus": "Delivery",
    "divisionname": "Morena",
    "regionname": "Gwalior",
    "circlename": "Madhya Pradesh",
    "Taluk": "Kealras",
    "Districtname": "Morena",
    "statename": "MADHYA PRADESH"
  },
  {
    "pincode": "476224",
    "officename": "Usainpur B.O",
    "officeType": "B.O",
    "Deliverystatus": "Delivery",
    "divisionname": "Morena",
    "regionname": "Gwalior",
    "circlename": "Madhya Pradesh",
    "Taluk": "Joura",
    "Districtname": "Morena",
    "statename": "MADHYA PRADESH"
  }
]
