[
  {
    "pincode": "476221",
    "officename": "Alapur B.O",
    "officeType": "B.O",
    "Deliverystatus": "Delivery",
    "divisionname": "Morena",
    "regionname": "Gwalior",
    "circlename": "Madhya Pradesh",
    "Taluk": "Joura",
    "Districtname": "Morena",
    "statename": "MADHYA PRADESH"
  },
  {
    "pincode": "476221",
    "officename": "Baghel B.O",
    "officeType": "B.O",
    "Deliverystatus": "Delivery",
    "divisionname": "Morena",
    "regionname": "Gwalior",
    "circlename": "Madhya Pradesh",
    "Taluk": "Joura",
    "Districtname": "Morena",
    "statename": "MADHYA PRADESH"
  },
  {
    "pincode": "476221",
    "officename": "Bilgoun B.O",
    "officeType": "B.O",
    "Deliverystatus": "Delivery",
    "divisionname": "Morena",
    "regionname": "Gwalior",
    "circlename": "Madhya Pradesh",
    "Taluk": "Joura",
    "Districtname": "Morena",
    "statename": "MADHYA PRADESH"
  },
  {
    "pincode": "476221",
    "officename": "Bisnori B.O",
    "officeType": "B.O",
    "Deliverystatus": "Delivery",
    "divisionname": "Morena",
    "regionname": "Gwalior",
    "circlename": "Madhya Pradesh",
    "Taluk": "Joura",
    "Districtname": "Morena",
    "statename": "MADHYA PRADESH"
  },
  {
    "pincode": "476221",
    "officename": "Chhajra B.O",
    "officeType": "B.O",
    "Deliverystatus": "Delivery",
    "divisionname": "Morena",
    "regionname": "Gwalior",
    "circlename": "Madhya Pradesh",
    "Taluk": "Joura",
    "Districtname": "Morena",
    "statename": "MADHYA PRADESH"
  },
  {
    "pincode": "476221",
    "officename": "Chinnnoni Karera B.O",
    "officeType": "B.O",
    "Deliverystatus": "Delivery",
    "divisionname": "Morena",
    "regionname": "Gwalior",
    "circlename": "Madhya Pradesh",
    "Taluk": "Joura",
    "Districtname": "Morena",
    "statename": "MADHYA PRADESH"
  },
  {
    "pincode": "476221",
    "officename": "Dhamkan B.O",
    "officeType": "B.O",
    "Deliverystatus": "Delivery",
    "divisionname": "Morena",
    "regionname": "Gwalior",
    "circlename": "Madhya Pradesh",
    "Taluk": "Joura",
    "Districtname": "Morena",
    "statename": "MADHYA PRADESH"
  },
  {
    "pincode": "476221",
    "officename": "Dhorera B.O",
    "officeType": "B.O",
    "Deliverystatus": "Delivery",
    "divisionname": "Morena",
    "regionname": "Gwalior",
    "circlename": "Madhya Pradesh",
    "Taluk": "Joura",
    "Districtname": "Morena",
    "statename": "MADHYA PRADESH"
  },
  {
    "pincode": "476221",
    "officename": "Ghuriya Basai B.O",
    "officeType": "B.O",
    "Deliverystatus": "Delivery",
    "divisionname": "Morena",
    "regionname": "Gwalior",
    "circlename": "Madhya Pradesh",
    "Taluk": "Joura",
    "Districtname": "Morena",
    "statename": "MADHYA PRADESH"
  },
  {
    "pincode": "476221",
    "officename": "Hathariya B.O",
    "officeType": "B.O",
    "Deliverystatus": "Delivery",
    "divisionname": "Morena",
    "regionname": "Gwalior",
    "circlename": "Madhya Pradesh",
    "Taluk": "Joura",
    "Districtname": "Morena",
    "statename": "MADHYA PRADESH"
  },
  {
    "pincode": "476221",
    "officename": "Imliya B.O",
    "officeType": "B.O",
    "Deliverystatus": "Delivery",
    "divisionname": "Morena",
    "regionname": "Gwalior",
    "circlename": "Madhya Pradesh",
    "Taluk": "Joura",
    "Districtname": "Morena",
    "statename": "MADHYA PRADESH"
  },
  {
    "pincode": "476221",
    "officename": "Itawali B.O",
    "officeType": "B.O",
    "Deliverystatus": "Delivery",
    "divisionname": "Morena",
    "regionname": "Gwalior",
    "circlename": "Madhya Pradesh",
    "Taluk": "Joura",
    "Districtname": "Morena",
    "statename": "MADHYA PRADESH"
  },
  {
    "pincode": "476221",
    "officename": "Joura S.O",
    "officeType": "S.O",
    "Deliverystatus": "Delivery",
    "divisionname": "Morena",
    "regionname": "Gwalior",
    "circlename": "Madhya Pradesh",
    "Taluk": "Joura",
    "Districtname": "Morena",
    "statename": "MADHYA PRADESH"
  },
  {
    "pincode": "476221",
    "officename": "Joura city B.O",
    "officeType": "B.O",
    "Deliverystatus": "Delivery",
    "divisionname": "Morena",
    "regionname": "Gwalior",
    "circlename": "Madhya Pradesh",
    "Taluk": "Joura",
    "Districtname": "Morena",
    "statename": "MADHYA PRADESH"
  },
  {
    "pincode": "476221",
    "officename": "Mundrawaja B.O",
    "officeType": "B.O",
    "Deliverystatus": "Delivery",
    "divisionname": "Morena",
    "regionname": "Gwalior",
    "circlename": "Madhya Pradesh",
    "Taluk": "Joura",
    "Districtname": "Morena",
    "statename": "MADHYA PRADESH"
  },
  {
    "pincode": "476221",
    "officename": "Narhela B.O",
    "officeType": "B.O",
    "Deliverystatus": "Delivery",
    "divisionname": "Morena",
    "regionname": "Gwalior",
    "circlename": "Madhya Pradesh",
    "Taluk": "Joura",
    "Districtname": "Morena",
    "statename": "MADHYA PRADESH"
  },
  {
    "pincode": "476221",
    "officename": "Nitehara B.O",
    "officeType": "B.O",
    "Deliverystatus": "Delivery",
    "divisionname": "Morena",
    "regionname": "Gwalior",
    "circlename": "Madhya Pradesh",
    "Taluk": "Joura",
    "Districtname": "Morena",
    "statename": "MADHYA PRADESH"
  },
  {
    "pincode": "476221",
    "officename": "Parsota B.O",
    "officeType": "B.O",
    "Deliverystatus": "Delivery",
    "divisionname": "Morena",
    "regionname": "Gwalior",
    "circlename": "Madhya Pradesh",
    "Taluk": "Joura",
    "Districtname": "Morena",
    "statename": "MADHYA PRADESH"
  },
  {
    "pincode": "476221",
    "officename": "Ruar Maina Basai B.O",
    "officeType": "B.O",
    "Deliverystatus": "Delivery",
    "divisionname": "Morena",
    "regionname": "Gwalior",
    "circlename": "Madhya Pradesh",
    "Taluk": "Joura",
    "Districtname": "Morena",
    "statename": "MADHYA PRADESH"
  },
  {
    "pincode": "476221",
    "officename": "Sumaoli B.O",
    "officeType": "B.O",
    "Deliverystatus": "Delivery",
    "divisionname": "Morena",
    "regionname": "Gwalior",
    "circlename": "Madhya Pradesh",
    "Taluk": "Joura",
    "Districtname": "Morena",
    "statename": "MADHYA PRADESH"
  },
  {
    "pincode": "476221",
    "officename": "Susani B.O",
    "officeType": "B.O",
    "Deliverystatus": "Delivery",
    "divisionname": "Morena",
    "regionname": "Gwalior",
    "circlename": "Madhya Pradesh",
    "Taluk": "Joura",
    "Districtname": "Morena",
    "statename": "MADHYA PRADESH"
  }
]
