[
  {
    "pincode": "476355",
    "officename": "Bargawan B.O",
    "officeType": "B.O",
    "Deliverystatus": "Delivery",
    "divisionname": "Morena",
    "regionname": "Gwalior",
    "circlename": "Madhya Pradesh",
    "Taluk": "Karahal",
    "Districtname": "Sheopur",
    "statename": "MADHYA PRADESH"
  },
  {
    "pincode": "476355",
    "officename": "Goras B.O",
    "officeType": "B.O",
    "Deliverystatus": "Delivery",
    "divisionname": "Morena",
    "regionname": "Gwalior",
    "circlename": "Madhya Pradesh",
    "Taluk": "Sheopur",
    "Districtname": "Sheopur",
    "statename": "MADHYA PRADESH"
  },
  {
    "pincode": "476355",
    "officename": "Karhal S.O (Sheopur)",
    "officeType": "S.O",
    "Deliverystatus": "Delivery",
    "divisionname": "Morena",
    "regionname": "Gwalior",
    "circlename": "Madhya Pradesh",
    "Taluk": "Sheopur",
    "Districtname": "Sheopur",
    "statename": "MADHYA PRADESH"
  },
  {
    "pincode": "476355",
    "officename": "Khirkhiri B.O",
    "officeType": "B.O",
    "Deliverystatus": "Delivery",
    "divisionname": "Morena",
    "regionname": "Gwalior",
    "circlename": "Madhya Pradesh",
    "Taluk": "Sheopur",
    "Districtname": "Sheopur",
    "statename": "MADHYA PRADESH"
  },
  {
    "pincode": "476355",
    "officename": "Pada B.O",
    "officeType": "B.O",
    "Deliverystatus": "Delivery",
    "divisionname": "Morena",
    "regionname": "Gwalior",
    "circlename": "Madhya Pradesh",
    "Taluk": "Karahal",
    "Districtname": "Sheopur",
    "statename": "MADHYA PRADESH"
  },
  {
    "pincode": "476355",
    "officename": "Sarsai B.O",
    "officeType": "B.O",
    "Deliverystatus": "Delivery",
    "divisionname": "Morena",
    "regionname": "Gwalior",
    "circlename": "Madhya Pradesh",
    "Taluk": "Sheopur",
    "Districtname": "Sheopur",
    "statename": "MADHYA PRADESH"
  },
  {
    "pincode": "476355",
    "officename": "Sasaipura B.O",
    "officeType": "B.O",
    "Deliverystatus": "Delivery",
    "divisionname": "Morena",
    "regionname": "Gwalior",
    "circlename": "Madhya Pradesh",
    "Taluk": "Karahal",
    "Districtname": "Sheopur",
    "statename": "MADHYA PRADESH"
  },
  {
    "pincode": "476355",
    "officename": "Silpuri B.O",
    "officeType": "B.O",
    "Deliverystatus": "Delivery",
    "divisionname": "Morena",
    "regionname": "Gwalior",
    "circlename": "Madhya Pradesh",
    "Taluk": "Sheopur",
    "Districtname": "Sheopur",
    "statename": "MADHYA PRADESH"
  },
  {
    "pincode": "476355",
    "officename": "Sunswada B.O",
    "officeType": "B.O",
    "Deliverystatus": "Delivery",
    "divisionname": "Morena",
    "regionname": "Gwalior",
    "circlename": "Madhya Pradesh",
    "Taluk": "Sheopur",
    "Districtname": "Sheopur",
    "statename": "MADHYA PRADESH"
  }
]
