[
  {
    "pincode": "476337",
    "officename": "Asida B.O",
    "officeType": "B.O",
    "Deliverystatus": "Delivery",
    "divisionname": "Morena",
    "regionname": "Gwalior",
    "circlename": "Madhya Pradesh",
    "Taluk": "Sheopur",
    "Districtname": "Sheopur",
    "statename": "MADHYA PRADESH"
  },
  {
    "pincode": "476337",
    "officename": "Bagadiya B.O",
    "officeType": "B.O",
    "Deliverystatus": "Delivery",
    "divisionname": "Morena",
    "regionname": "Gwalior",
    "circlename": "Madhya Pradesh",
    "Taluk": "Sheopur",
    "Districtname": "Sheopur",
    "statename": "MADHYA PRADESH"
  },
  {
    "pincode": "476337",
    "officename": "Chambal Colony Sheopur B.O",
    "officeType": "B.O",
    "Deliverystatus": "Delivery",
    "divisionname": "Morena",
    "regionname": "Gwalior",
    "circlename": "Madhya Pradesh",
    "Taluk": "Sheopur",
    "Districtname": "Sheopur",
    "statename": "MADHYA PRADESH"
  },
  {
    "pincode": "476337",
    "officename": "Dantarda Kalan B.O",
    "officeType": "B.O",
    "Deliverystatus": "Delivery",
    "divisionname": "Morena",
    "regionname": "Gwalior",
    "circlename": "Madhya Pradesh",
    "Taluk": "Sheopur",
    "Districtname": "Sheopur",
    "statename": "MADHYA PRADESH"
  },
  {
    "pincode": "476337",
    "officename": "Dhondhar B.O",
    "officeType": "B.O",
    "Deliverystatus": "Delivery",
    "divisionname": "Morena",
    "regionname": "Gwalior",
    "circlename": "Madhya Pradesh",
    "Taluk": "Sheopur",
    "Districtname": "Sheopur",
    "statename": "MADHYA PRADESH"
  },
  {
    "pincode": "476337",
    "officename": "Girdharpur B.O",
    "officeType": "B.O",
    "Deliverystatus": "Delivery",
    "divisionname": "Morena",
    "regionname": "Gwalior",
    "circlename": "Madhya Pradesh",
    "Taluk": "Sheopur",
    "Districtname": "Sheopur",
    "statename": "MADHYA PRADESH"
  },
  {
    "pincode": "476337",
    "officename": "Gurunaawda B.O",
    "officeType": "B.O",
    "Deliverystatus": "Delivery",
    "divisionname": "Morena",
    "regionname": "Gwalior",
    "circlename": "Madhya Pradesh",
    "Taluk": "Sheopur",
    "Districtname": "Sheopur",
    "statename": "MADHYA PRADESH"
  },
  {
    "pincode": "476337",
    "officename": "Jaida Mandi B.O",
    "officeType": "B.O",
    "Deliverystatus": "Delivery",
    "divisionname": "Morena",
    "regionname": "Gwalior",
    "circlename": "Madhya Pradesh",
    "Taluk": "Sheopur",
    "Districtname": "Sheopur",
    "statename": "MADHYA PRADESH"
  },
  {
    "pincode": "476337",
    "officename": "Jaini B.O",
    "officeType": "B.O",
    "Deliverystatus": "Delivery",
    "divisionname": "Morena",
    "regionname": "Gwalior",
    "circlename": "Madhya Pradesh",
    "Taluk": "Sheopur",
    "Districtname": "Sheopur",
    "statename": "MADHYA PRADESH"
  },
  {
    "pincode": "476337",
    "officename": "Jalalpura B.O",
    "officeType": "B.O",
    "Deliverystatus": "Delivery",
    "divisionname": "Morena",
    "regionname": "Gwalior",
    "circlename": "Madhya Pradesh",
    "Taluk": "Sheopur",
    "Districtname": "Sheopur",
    "statename": "MADHYA PRADESH"
  },
  {
    "pincode": "476337",
    "officename": "Javasa B.O",
    "officeType": "B.O",
    "Deliverystatus": "Delivery",
    "divisionname": "Morena",
    "regionname": "Gwalior",
    "circlename": "Madhya Pradesh",
    "Taluk": "Sheopur",
    "Districtname": "Sheopur",
    "statename": "MADHYA PRADESH"
  },
  {
    "pincode": "476337",
    "officename": "Javdeshwar B.O",
    "officeType": "B.O",
    "Deliverystatus": "Delivery",
    "divisionname": "Morena",
    "regionname": "Gwalior",
    "circlename": "Madhya Pradesh",
    "Taluk": "Sheopur",
    "Districtname": "Sheopur",
    "statename": "MADHYA PRADESH"
  },
  {
    "pincode": "476337",
    "officename": "Kalarna B.O",
    "officeType": "B.O",
    "Deliverystatus": "Delivery",
    "divisionname": "Morena",
    "regionname": "Gwalior",
    "circlename": "Madhya Pradesh",
    "Taluk": "Sheopur",
    "Districtname": "Sheopur",
    "statename": "MADHYA PRADESH"
  },
  {
    "pincode": "476337",
    "officename": "Kanapur B.O",
    "officeType": "B.O",
    "Deliverystatus": "Delivery",
    "divisionname": "Morena",
    "regionname": "Gwalior",
    "circlename": "Madhya Pradesh",
    "Taluk": "Sheopur",
    "Districtname": "Sheopur",
    "statename": "MADHYA PRADESH"
  },
  {
    "pincode": "476337",
    "officename": "Manpur B.O",
    "officeType": "B.O",
    "Deliverystatus": "Delivery",
    "divisionname": "Morena",
    "regionname": "Gwalior",
    "circlename": "Madhya Pradesh",
    "Taluk": "Sheopur",
    "Districtname": "Sheopur",
    "statename": "MADHYA PRADESH"
  },
  {
    "pincode": "476337",
    "officename": "Nagda B.O",
    "officeType": "B.O",
    "Deliverystatus": "Delivery",
    "divisionname": "Morena",
    "regionname": "Gwalior",
    "circlename": "Madhya Pradesh",
    "Taluk": "Sheopur",
    "Districtname": "Sheopur",
    "statename": "MADHYA PRADESH"
  },
  {
    "pincode": "476337",
    "officename": "Premsar B.O",
    "officeType": "B.O",
    "Deliverystatus": "Delivery",
    "divisionname": "Morena",
    "regionname": "Gwalior",
    "circlename": "Madhya Pradesh",
    "Taluk": "Sheopur",
    "Districtname": "Sheopur",
    "statename": "MADHYA PRADESH"
  },
  {
    "pincode": "476337",
    "officename": "Sheopur S.O",
    "officeType": "S.O",
    "Deliverystatus": "Delivery",
    "divisionname": "Morena",
    "regionname": "Gwalior",
    "circlename": "Madhya Pradesh",
    "Taluk": "Sheopur",
    "Districtname": "Sheopur",
    "statename": "MADHYA PRADESH"
  },
  {
    "pincode": "476337",
    "officename": "Soi Kalan B.O",
    "officeType": "B.O",
    "Deliverystatus": "Delivery",
    "divisionname": "Morena",
    "regionname": "Gwalior",
    "circlename": "Madhya Pradesh",
    "Taluk": "Sheopur",
    "Districtname": "Sheopur",
    "statename": "MADHYA PRADESH"
  },
  {
    "pincode": "476337",
    "officename": "Sonthwa B.O",
    "officeType": "B.O",
    "Deliverystatus": "Delivery",
    "divisionname": "Morena",
    "regionname": "Gwalior",
    "circlename": "Madhya Pradesh",
    "Taluk": "Sheopur",
    "Districtname": "Sheopur",
    "statename": "MADHYA PRADESH"
  },
  {
    "pincode": "476337",
    "officename": "Tillipur B.O",
    "officeType": "B.O",
    "Deliverystatus": "Delivery",
    "divisionname": "Morena",
    "regionname": "Gwalior",
    "circlename": "Madhya Pradesh",
    "Taluk": "Sheopur",
    "Districtname": "Sheopur",
    "statename": "MADHYA PRADESH"
  }
]
