[
  {
    "pincode": "476554",
    "officename": "Bhindosa B.O",
    "officeType": "B.O",
    "Deliverystatus": "Delivery",
    "divisionname": "Morena",
    "regionname": "Gwalior",
    "circlename": "Madhya Pradesh",
    "Taluk": "Ambah",
    "Districtname": "Morena",
    "statename": "MADHYA PRADESH"
  },
  {
    "pincode": "476554",
    "officename": "Chichawali B.O",
    "officeType": "B.O",
    "Deliverystatus": "Delivery",
    "divisionname": "Morena",
    "regionname": "Gwalior",
    "circlename": "Madhya Pradesh",
    "Taluk": "Ambah",
    "Districtname": "Morena",
    "statename": "MADHYA PRADESH"
  },
  {
    "pincode": "476554",
    "officename": "Datehara B.O",
    "officeType": "B.O",
    "Deliverystatus": "Delivery",
    "divisionname": "Morena",
    "regionname": "Gwalior",
    "circlename": "Madhya Pradesh",
    "Taluk": "Ambah",
    "Districtname": "Morena",
    "statename": "MADHYA PRADESH"
  },
  {
    "pincode": "476554",
    "officename": "Gopi B.O",
    "officeType": "B.O",
    "Deliverystatus": "Delivery",
    "divisionname": "Morena",
    "regionname": "Gwalior",
    "circlename": "Madhya Pradesh",
    "Taluk": "Ambah",
    "Districtname": "Morena",
    "statename": "MADHYA PRADESH"
  },
  {
    "pincode": "476554",
    "officename": "Khadiahar S.O",
    "officeType": "S.O",
    "Deliverystatus": "Delivery",
    "divisionname": "Morena",
    "regionname": "Gwalior",
    "circlename": "Madhya Pradesh",
    "Taluk": "Ambah",
    "Districtname": "Morena",
    "statename": "MADHYA PRADESH"
  },
  {
    "pincode": "476554",
    "officename": "Kolua B.O",
    "officeType": "B.O",
    "Deliverystatus": "Delivery",
    "divisionname": "Morena",
    "regionname": "Gwalior",
    "circlename": "Madhya Pradesh",
    "Taluk": "Ambah",
    "Districtname": "Morena",
    "statename": "MADHYA PRADESH"
  },
  {
    "pincode": "476554",
    "officename": "Lallu Basai B.O",
    "officeType": "B.O",
    "Deliverystatus": "Delivery",
    "divisionname": "Morena",
    "regionname": "Gwalior",
    "circlename": "Madhya Pradesh",
    "Taluk": "Ambah",
    "Districtname": "Morena",
    "statename": "MADHYA PRADESH"
  },
  {
    "pincode": "476554",
    "officename": "Manpur Rajpooti B.O",
    "officeType": "B.O",
    "Deliverystatus": "Delivery",
    "divisionname": "Morena",
    "regionname": "Gwalior",
    "circlename": "Madhya Pradesh",
    "Taluk": "Ambah",
    "Districtname": "Morena",
    "statename": "MADHYA PRADESH"
  },
  {
    "pincode": "476554",
    "officename": "Mirghan B.O",
    "officeType": "B.O",
    "Deliverystatus": "Delivery",
    "divisionname": "Morena",
    "regionname": "Gwalior",
    "circlename": "Madhya Pradesh",
    "Taluk": "Morena",
    "Districtname": "Morena",
    "statename": "MADHYA PRADESH"
  },
  {
    "pincode": "476554",
    "officename": "Navali Badagoun B.O",
    "officeType": "B.O",
    "Deliverystatus": "Delivery",
    "divisionname": "Morena",
    "regionname": "Gwalior",
    "circlename": "Madhya Pradesh",
    "Taluk": "Ambah",
    "Districtname": "Morena",
    "statename": "MADHYA PRADESH"
  },
  {
    "pincode": "476554",
    "officename": "Pariksha B.O",
    "officeType": "B.O",
    "Deliverystatus": "Delivery",
    "divisionname": "Morena",
    "regionname": "Gwalior",
    "circlename": "Madhya Pradesh",
    "Taluk": "Morena",
    "Districtname": "Morena",
    "statename": "MADHYA PRADESH"
  },
  {
    "pincode": "476554",
    "officename": "Purawas Khurd B.O",
    "officeType": "B.O",
    "Deliverystatus": "Delivery",
    "divisionname": "Morena",
    "regionname": "Gwalior",
    "circlename": "Madhya Pradesh",
    "Taluk": "Ambah",
    "Districtname": "Morena",
    "statename": "MADHYA PRADESH"
  },
  {
    "pincode": "476554",
    "officename": "Sihoniya B.O",
    "officeType": "B.O",
    "Deliverystatus": "Delivery",
    "divisionname": "Morena",
    "regionname": "Gwalior",
    "circlename": "Madhya Pradesh",
    "Taluk": "Ambah",
    "Districtname": "Morena",
    "statename": "MADHYA PRADESH"
  },
  {
    "pincode": "476554",
    "officename": "Sikorodi B.O",
    "officeType": "B.O",
    "Deliverystatus": "Delivery",
    "divisionname": "Morena",
    "regionname": "Gwalior",
    "circlename": "Madhya Pradesh",
    "Taluk": "Ambah",
    "Districtname": "Morena",
    "statename": "MADHYA PRADESH"
  }
]
