[
  {
    "pincode": "477105",
    "officename": "Babedi B.O",
    "officeType": "B.O",
    "Deliverystatus": "Delivery",
    "divisionname": "Morena",
    "regionname": "Gwalior",
    "circlename": "Madhya Pradesh",
    "Taluk": "Bhind",
    "Districtname": "Bhind",
    "statename": "MADHYA PRADESH"
  },
  {
    "pincode": "477105",
    "officename": "Bagulari B.O",
    "officeType": "B.O",
    "Deliverystatus": "Delivery",
    "divisionname": "Morena",
    "regionname": "Gwalior",
    "circlename": "Madhya Pradesh",
    "Taluk": "Bhind",
    "Districtname": "Bhind",
    "statename": "MADHYA PRADESH"
  },
  {
    "pincode": "477105",
    "officename": "Chatthar B.O",
    "officeType": "B.O",
    "Deliverystatus": "Delivery",
    "divisionname": "Morena",
    "regionname": "Gwalior",
    "circlename": "Madhya Pradesh",
    "Taluk": "Bhind",
    "Districtname": "Bhind",
    "statename": "MADHYA PRADESH"
  },
  {
    "pincode": "477105",
    "officename": "Didi B.O",
    "officeType": "B.O",
    "Deliverystatus": "Delivery",
    "divisionname": "Morena",
    "regionname": "Gwalior",
    "circlename": "Madhya Pradesh",
    "Taluk": "Bhind",
    "Districtname": "Bhind",
    "statename": "MADHYA PRADESH"
  },
  {
    "pincode": "477105",
    "officename": "Jampura B.O",
    "officeType": "B.O",
    "Deliverystatus": "Delivery",
    "divisionname": "Morena",
    "regionname": "Gwalior",
    "circlename": "Madhya Pradesh",
    "Taluk": "Bhind",
    "Districtname": "Bhind",
    "statename": "MADHYA PRADESH"
  },
  {
    "pincode": "477105",
    "officename": "Jari B.O",
    "officeType": "B.O",
    "Deliverystatus": "Delivery",
    "divisionname": "Morena",
    "regionname": "Gwalior",
    "circlename": "Madhya Pradesh",
    "Taluk": "Bhind",
    "Districtname": "Bhind",
    "statename": "MADHYA PRADESH"
  },
  {
    "pincode": "477105",
    "officename": "Jawasa B.O",
    "officeType": "B.O",
    "Deliverystatus": "Delivery",
    "divisionname": "Morena",
    "regionname": "Gwalior",
    "circlename": "Madhya Pradesh",
    "Taluk": "Bhind",
    "Districtname": "Bhind",
    "statename": "MADHYA PRADESH"
  },
  {
    "pincode": "477105",
    "officename": "Masuri B.O",
    "officeType": "B.O",
    "Deliverystatus": "Delivery",
    "divisionname": "Morena",
    "regionname": "Gwalior",
    "circlename": "Madhya Pradesh",
    "Taluk": "Bhind",
    "Districtname": "Bhind",
    "statename": "MADHYA PRADESH"
  },
  {
    "pincode": "477105",
    "officename": "Nai Zameen Bhind S.O",
    "officeType": "S.O",
    "Deliverystatus": "Delivery",
    "divisionname": "Morena",
    "regionname": "Gwalior",
    "circlename": "Madhya Pradesh",
    "Taluk": "Bhind",
    "Districtname": "Bhind",
    "statename": "MADHYA PRADESH"
  },
  {
    "pincode": "477105",
    "officename": "Paragoun B.O",
    "officeType": "B.O",
    "Deliverystatus": "Delivery",
    "divisionname": "Morena",
    "regionname": "Gwalior",
    "circlename": "Madhya Pradesh",
    "Taluk": "Ater",
    "Districtname": "Bhind",
    "statename": "MADHYA PRADESH"
  },
  {
    "pincode": "477105",
    "officename": "Simrao B.O",
    "officeType": "B.O",
    "Deliverystatus": "Delivery",
    "divisionname": "Morena",
    "regionname": "Gwalior",
    "circlename": "Madhya Pradesh",
    "Taluk": "Bhind",
    "Districtname": "Bhind",
    "statename": "MADHYA PRADESH"
  },
  {
    "pincode": "477105",
    "officename": "Siyawali B.O",
    "officeType": "B.O",
    "Deliverystatus": "Delivery",
    "divisionname": "Morena",
    "regionname": "Gwalior",
    "circlename": "Madhya Pradesh",
    "Taluk": "Bhind",
    "Districtname": "Bhind",
    "statename": "MADHYA PRADESH"
  },
  {
    "pincode": "477105",
    "officename": "Udhotpura B.O",
    "officeType": "B.O",
    "Deliverystatus": "Delivery",
    "divisionname": "Morena",
    "regionname": "Gwalior",
    "circlename": "Madhya Pradesh",
    "Taluk": "Bhind",
    "Districtname": "Bhind",
    "statename": "MADHYA PRADESH"
  }
]
