[
  {
    "pincode": "477222",
    "officename": "Baroli B.O",
    "officeType": "B.O",
    "Deliverystatus": "Delivery",
    "divisionname": "Morena",
    "regionname": "Gwalior",
    "circlename": "Madhya Pradesh",
    "Taluk": "Mehgoun",
    "Districtname": "Bhind",
    "statename": "MADHYA PRADESH"
  },
  {
    "pincode": "477222",
    "officename": "Buderabhuta B.O",
    "officeType": "B.O",
    "Deliverystatus": "Delivery",
    "divisionname": "Morena",
    "regionname": "Gwalior",
    "circlename": "Madhya Pradesh",
    "Taluk": "Gohad",
    "Districtname": "Bhind",
    "statename": "MADHYA PRADESH"
  },
  {
    "pincode": "477222",
    "officename": "Chhenkauri B.O",
    "officeType": "B.O",
    "Deliverystatus": "Delivery",
    "divisionname": "Morena",
    "regionname": "Gwalior",
    "circlename": "Madhya Pradesh",
    "Taluk": "Mehgoun",
    "Districtname": "Bhind",
    "statename": "MADHYA PRADESH"
  },
  {
    "pincode": "477222",
    "officename": "Dehgoun B.O",
    "officeType": "B.O",
    "Deliverystatus": "Delivery",
    "divisionname": "Morena",
    "regionname": "Gwalior",
    "circlename": "Madhya Pradesh",
    "Taluk": "Mehgoun",
    "Districtname": "Bhind",
    "statename": "MADHYA PRADESH"
  },
  {
    "pincode": "477222",
    "officename": "Ghamori B.O",
    "officeType": "B.O",
    "Deliverystatus": "Delivery",
    "divisionname": "Morena",
    "regionname": "Gwalior",
    "circlename": "Madhya Pradesh",
    "Taluk": "Mehgoun",
    "Districtname": "Bhind",
    "statename": "MADHYA PRADESH"
  },
  {
    "pincode": "477222",
    "officename": "Guhsar B.O",
    "officeType": "B.O",
    "Deliverystatus": "Delivery",
    "divisionname": "Morena",
    "regionname": "Gwalior",
    "circlename": "Madhya Pradesh",
    "Taluk": "Mehgoun",
    "Districtname": "Bhind",
    "statename": "MADHYA PRADESH"
  },
  {
    "pincode": "477222",
    "officename": "Jamdara B.O",
    "officeType": "B.O",
    "Deliverystatus": "Delivery",
    "divisionname": "Morena",
    "regionname": "Gwalior",
    "circlename": "Madhya Pradesh",
    "Taluk": "Mehgoun",
    "Districtname": "Bhind",
    "statename": "MADHYA PRADESH"
  },
  {
    "pincode": "477222",
    "officename": "Kiti B.O",
    "officeType": "B.O",
    "Deliverystatus": "Delivery",
    "divisionname": "Morena",
    "regionname": "Gwalior",
    "circlename": "Madhya Pradesh",
    "Taluk": "Mehgoun",
    "Districtname": "Bhind",
    "statename": "MADHYA PRADESH"
  },
  {
    "pincode": "477222",
    "officename": "Mau S.O",
    "officeType": "S.O",
    "Deliverystatus": "Delivery",
    "divisionname": "Morena",
    "regionname": "Gwalior",
    "circlename": "Madhya Pradesh",
    "Taluk": "Mehgoun",
    "Districtname": "Bhind",
    "statename": "MADHYA PRADESH"
  },
  {
    "pincode": "477222",
    "officename": "Ratwa B.O",
    "officeType": "B.O",
    "Deliverystatus": "Delivery",
    "divisionname": "Morena",
    "regionname": "Gwalior",
    "circlename": "Madhya Pradesh",
    "Taluk": "Mehgoun",
    "Districtname": "Bhind",
    "statename": "MADHYA PRADESH"
  },
  {
    "pincode": "477222",
    "officename": "Ujhaawl B.O",
    "officeType": "B.O",
    "Deliverystatus": "Delivery",
    "divisionname": "Morena",
    "regionname": "Gwalior",
    "circlename": "Madhya Pradesh",
    "Taluk": "Mehgoun",
    "Districtname": "Bhind",
    "statename": "MADHYA PRADESH"
  }
]
