[
  {
    "pincode": "477332",
    "officename": "Akoda S.O",
    "officeType": "S.O",
    "Deliverystatus": "Delivery",
    "divisionname": "Morena",
    "regionname": "Gwalior",
    "circlename": "Madhya Pradesh",
    "Taluk": "Bhind",
    "Districtname": "Bhind",
    "statename": "MADHYA PRADESH"
  },
  {
    "pincode": "477332",
    "officename": "Bara Kalan B.O",
    "officeType": "B.O",
    "Deliverystatus": "Delivery",
    "divisionname": "Morena",
    "regionname": "Gwalior",
    "circlename": "Madhya Pradesh",
    "Taluk": "Bhind",
    "Districtname": "Bhind",
    "statename": "MADHYA PRADESH"
  },
  {
    "pincode": "477332",
    "officename": "Baran Khurd B.O",
    "officeType": "B.O",
    "Deliverystatus": "Delivery",
    "divisionname": "Morena",
    "regionname": "Gwalior",
    "circlename": "Madhya Pradesh",
    "Taluk": "Bhind",
    "Districtname": "Bhind",
    "statename": "MADHYA PRADESH"
  },
  {
    "pincode": "477332",
    "officename": "Bharoli B.O",
    "officeType": "B.O",
    "Deliverystatus": "Delivery",
    "divisionname": "Morena",
    "regionname": "Gwalior",
    "circlename": "Madhya Pradesh",
    "Taluk": "Bhind",
    "Districtname": "Bhind",
    "statename": "MADHYA PRADESH"
  },
  {
    "pincode": "477332",
    "officename": "Heera Lalka Pura B.O",
    "officeType": "B.O",
    "Deliverystatus": "Delivery",
    "divisionname": "Morena",
    "regionname": "Gwalior",
    "circlename": "Madhya Pradesh",
    "Taluk": "Vijaypur",
    "Districtname": "Sheopur",
    "statename": "MADHYA PRADESH"
  },
  {
    "pincode": "477332",
    "officename": "Kachogra B.O",
    "officeType": "B.O",
    "Deliverystatus": "Delivery",
    "divisionname": "Morena",
    "regionname": "Gwalior",
    "circlename": "Madhya Pradesh",
    "Taluk": "Bhind",
    "Districtname": "Bhind",
    "statename": "MADHYA PRADESH"
  },
  {
    "pincode": "477332",
    "officename": "Nunheta B.O",
    "officeType": "B.O",
    "Deliverystatus": "Delivery",
    "divisionname": "Morena",
    "regionname": "Gwalior",
    "circlename": "Madhya Pradesh",
    "Taluk": "Bhind",
    "Districtname": "Bhind",
    "statename": "MADHYA PRADESH"
  },
  {
    "pincode": "477332",
    "officename": "Sihunda B.O",
    "officeType": "B.O",
    "Deliverystatus": "Delivery",
    "divisionname": "Morena",
    "regionname": "Gwalior",
    "circlename": "Madhya Pradesh",
    "Taluk": "Bhind",
    "Districtname": "Bhind",
    "statename": "MADHYA PRADESH"
  }
]
