[
  {
    "pincode": "477441",
    "officename": "Achalpura B.O",
    "officeType": "B.O",
    "Deliverystatus": "Delivery",
    "divisionname": "Morena",
    "regionname": "Gwalior",
    "circlename": "Madhya Pradesh",
    "Taluk": "Mihona",
    "Districtname": "Bhind",
    "statename": "MADHYA PRADESH"
  },
  {
    "pincode": "477441",
    "officename": "Asnet B.O",
    "officeType": "B.O",
    "Deliverystatus": "Delivery",
    "divisionname": "Morena",
    "regionname": "Gwalior",
    "circlename": "Madhya Pradesh",
    "Taluk": "Mihona",
    "Districtname": "Bhind",
    "statename": "MADHYA PRADESH"
  },
  {
    "pincode": "477441",
    "officename": "Bantharti B.O",
    "officeType": "B.O",
    "Deliverystatus": "Delivery",
    "divisionname": "Morena",
    "regionname": "Gwalior",
    "circlename": "Madhya Pradesh",
    "Taluk": "Mihona",
    "Districtname": "Bhind",
    "statename": "MADHYA PRADESH"
  },
  {
    "pincode": "477441",
    "officename": "Barahet B.O",
    "officeType": "B.O",
    "Deliverystatus": "Delivery",
    "divisionname": "Morena",
    "regionname": "Gwalior",
    "circlename": "Madhya Pradesh",
    "Taluk": "Mihona",
    "Districtname": "Bhind",
    "statename": "MADHYA PRADESH"
  },
  {
    "pincode": "477441",
    "officename": "Biswari B.O",
    "officeType": "B.O",
    "Deliverystatus": "Delivery",
    "divisionname": "Morena",
    "regionname": "Gwalior",
    "circlename": "Madhya Pradesh",
    "Taluk": "Mihona",
    "Districtname": "Bhind",
    "statename": "MADHYA PRADESH"
  },
  {
    "pincode": "477441",
    "officename": "Bohara B.O",
    "officeType": "B.O",
    "Deliverystatus": "Delivery",
    "divisionname": "Morena",
    "regionname": "Gwalior",
    "circlename": "Madhya Pradesh",
    "Taluk": "Mihona",
    "Districtname": "Bhind",
    "statename": "MADHYA PRADESH"
  },
  {
    "pincode": "477441",
    "officename": "Bonapura B.O",
    "officeType": "B.O",
    "Deliverystatus": "Delivery",
    "divisionname": "Morena",
    "regionname": "Gwalior",
    "circlename": "Madhya Pradesh",
    "Taluk": "Mihona",
    "Districtname": "Bhind",
    "statename": "MADHYA PRADESH"
  },
  {
    "pincode": "477441",
    "officename": "Chandokh B.O",
    "officeType": "B.O",
    "Deliverystatus": "Delivery",
    "divisionname": "Morena",
    "regionname": "Gwalior",
    "circlename": "Madhya Pradesh",
    "Taluk": "Mihona",
    "Districtname": "Bhind",
    "statename": "MADHYA PRADESH"
  },
  {
    "pincode": "477441",
    "officename": "Jaitpura Gudha B.O",
    "officeType": "B.O",
    "Deliverystatus": "Delivery",
    "divisionname": "Morena",
    "regionname": "Gwalior",
    "circlename": "Madhya Pradesh",
    "Taluk": "Mihona",
    "Districtname": "Bhind",
    "statename": "MADHYA PRADESH"
  },
  {
    "pincode": "477441",
    "officename": "Katha B.O",
    "officeType": "B.O",
    "Deliverystatus": "Delivery",
    "divisionname": "Morena",
    "regionname": "Gwalior",
    "circlename": "Madhya Pradesh",
    "Taluk": "Mihona",
    "Districtname": "Bhind",
    "statename": "MADHYA PRADESH"
  },
  {
    "pincode": "477441",
    "officename": "Lapwah B.O",
    "officeType": "B.O",
    "Deliverystatus": "Delivery",
    "divisionname": "Morena",
    "regionname": "Gwalior",
    "circlename": "Madhya Pradesh",
    "Taluk": "Mihona",
    "Districtname": "Bhind",
    "statename": "MADHYA PRADESH"
  },
  {
    "pincode": "477441",
    "officename": "Larol B.O",
    "officeType": "B.O",
    "Deliverystatus": "Delivery",
    "divisionname": "Morena",
    "regionname": "Gwalior",
    "circlename": "Madhya Pradesh",
    "Taluk": "Mihona",
    "Districtname": "Bhind",
    "statename": "MADHYA PRADESH"
  },
  {
    "pincode": "477441",
    "officename": "Machand B.O",
    "officeType": "B.O",
    "Deliverystatus": "Delivery",
    "divisionname": "Morena",
    "regionname": "Gwalior",
    "circlename": "Madhya Pradesh",
    "Taluk": "Mihona",
    "Districtname": "Bhind",
    "statename": "MADHYA PRADESH"
  },
  {
    "pincode": "477441",
    "officename": "Mihona S.O",
    "officeType": "S.O",
    "Deliverystatus": "Delivery",
    "divisionname": "Morena",
    "regionname": "Gwalior",
    "circlename": "Madhya Pradesh",
    "Taluk": "Mihona",
    "Districtname": "Bhind",
    "statename": "MADHYA PRADESH"
  },
  {
    "pincode": "477441",
    "officename": "Muratpura B.O",
    "officeType": "B.O",
    "Deliverystatus": "Delivery",
    "divisionname": "Morena",
    "regionname": "Gwalior",
    "circlename": "Madhya Pradesh",
    "Taluk": "Bhind",
    "Districtname": "Bhind",
    "statename": "MADHYA PRADESH"
  },
  {
    "pincode": "477441",
    "officename": "Pachokhara B.O",
    "officeType": "B.O",
    "Deliverystatus": "Delivery",
    "divisionname": "Morena",
    "regionname": "Gwalior",
    "circlename": "Madhya Pradesh",
    "Taluk": "Mihona",
    "Districtname": "Bhind",
    "statename": "MADHYA PRADESH"
  },
  {
    "pincode": "477441",
    "officename": "Raipura B.O",
    "officeType": "B.O",
    "Deliverystatus": "Delivery",
    "divisionname": "Morena",
    "regionname": "Gwalior",
    "circlename": "Madhya Pradesh",
    "Taluk": "Mihona",
    "Districtname": "Bhind",
    "statename": "MADHYA PRADESH"
  },
  {
    "pincode": "477441",
    "officename": "Rari B.O",
    "officeType": "B.O",
    "Deliverystatus": "Delivery",
    "divisionname": "Morena",
    "regionname": "Gwalior",
    "circlename": "Madhya Pradesh",
    "Taluk": "Mihona",
    "Districtname": "Bhind",
    "statename": "MADHYA PRADESH"
  }
]
