[
  {
    "pincode": "477447",
    "officename": "Amaha B.O",
    "officeType": "B.O",
    "Deliverystatus": "Delivery",
    "divisionname": "Morena",
    "regionname": "Gwalior",
    "circlename": "Madhya Pradesh",
    "Taluk": "Lahar",
    "Districtname": "Bhind",
    "statename": "MADHYA PRADESH"
  },
  {
    "pincode": "477447",
    "officename": "Andhiyari B.O",
    "officeType": "B.O",
    "Deliverystatus": "Delivery",
    "divisionname": "Morena",
    "regionname": "Gwalior",
    "circlename": "Madhya Pradesh",
    "Taluk": "Lahar",
    "Districtname": "Bhind",
    "statename": "MADHYA PRADESH"
  },
  {
    "pincode": "477447",
    "officename": "Baraua B.O",
    "officeType": "B.O",
    "Deliverystatus": "Delivery",
    "divisionname": "Morena",
    "regionname": "Gwalior",
    "circlename": "Madhya Pradesh",
    "Taluk": "Lahar",
    "Districtname": "Bhind",
    "statename": "MADHYA PRADESH"
  },
  {
    "pincode": "477447",
    "officename": "Barthara B.O",
    "officeType": "B.O",
    "Deliverystatus": "Delivery",
    "divisionname": "Morena",
    "regionname": "Gwalior",
    "circlename": "Madhya Pradesh",
    "Taluk": "Lahar",
    "Districtname": "Bhind",
    "statename": "MADHYA PRADESH"
  },
  {
    "pincode": "477447",
    "officename": "Bijpur B.O",
    "officeType": "B.O",
    "Deliverystatus": "Delivery",
    "divisionname": "Morena",
    "regionname": "Gwalior",
    "circlename": "Madhya Pradesh",
    "Taluk": "Lahar",
    "Districtname": "Bhind",
    "statename": "MADHYA PRADESH"
  },
  {
    "pincode": "477447",
    "officename": "Chhiwaoli B.O",
    "officeType": "B.O",
    "Deliverystatus": "Delivery",
    "divisionname": "Morena",
    "regionname": "Gwalior",
    "circlename": "Madhya Pradesh",
    "Taluk": "Lahar",
    "Districtname": "Bhind",
    "statename": "MADHYA PRADESH"
  },
  {
    "pincode": "477447",
    "officename": "Daboh S.O",
    "officeType": "S.O",
    "Deliverystatus": "Delivery",
    "divisionname": "Morena",
    "regionname": "Gwalior",
    "circlename": "Madhya Pradesh",
    "Taluk": "Lahar",
    "Districtname": "Bhind",
    "statename": "MADHYA PRADESH"
  },
  {
    "pincode": "477447",
    "officename": "Devari B.O",
    "officeType": "B.O",
    "Deliverystatus": "Delivery",
    "divisionname": "Morena",
    "regionname": "Gwalior",
    "circlename": "Madhya Pradesh",
    "Taluk": "Lahar",
    "Districtname": "Bhind",
    "statename": "MADHYA PRADESH"
  },
  {
    "pincode": "477447",
    "officename": "Dharampura B.O",
    "officeType": "B.O",
    "Deliverystatus": "Delivery",
    "divisionname": "Morena",
    "regionname": "Gwalior",
    "circlename": "Madhya Pradesh",
    "Taluk": "Lahar",
    "Districtname": "Bhind",
    "statename": "MADHYA PRADESH"
  },
  {
    "pincode": "477447",
    "officename": "Mihoni B.O",
    "officeType": "B.O",
    "Deliverystatus": "Delivery",
    "divisionname": "Morena",
    "regionname": "Gwalior",
    "circlename": "Madhya Pradesh",
    "Taluk": "Lahar",
    "Districtname": "Bhind",
    "statename": "MADHYA PRADESH"
  },
  {
    "pincode": "477447",
    "officename": "Muraoli B.O",
    "officeType": "B.O",
    "Deliverystatus": "Delivery",
    "divisionname": "Morena",
    "regionname": "Gwalior",
    "circlename": "Madhya Pradesh",
    "Taluk": "Lahar",
    "Districtname": "Bhind",
    "statename": "MADHYA PRADESH"
  },
  {
    "pincode": "477447",
    "officename": "Pariksha B.O",
    "officeType": "B.O",
    "Deliverystatus": "Delivery",
    "divisionname": "Morena",
    "regionname": "Gwalior",
    "circlename": "Madhya Pradesh",
    "Taluk": "Ater",
    "Districtname": "Bhind",
    "statename": "MADHYA PRADESH"
  },
  {
    "pincode": "477447",
    "officename": "Raipur Jakholi B.O",
    "officeType": "B.O",
    "Deliverystatus": "Delivery",
    "divisionname": "Morena",
    "regionname": "Gwalior",
    "circlename": "Madhya Pradesh",
    "Taluk": "Lahar",
    "Districtname": "Bhind",
    "statename": "MADHYA PRADESH"
  }
]
