[
  {
    "pincode": "480001",
    "officename": "Bankanaganpur B.O",
    "officeType": "B.O",
    "Deliverystatus": "Delivery",
    "divisionname": "Chhindwara",
    "regionname": "Bhopal HQ",
    "circlename": "Madhya Pradesh",
    "Taluk": "Chhindwara",
    "Districtname": "Chhindwara",
    "statename": "MADHYA PRADESH"
  },
  {
    "pincode": "480001",
    "officename": "Bisapur B.O",
    "officeType": "B.O",
    "Deliverystatus": "Delivery",
    "divisionname": "Chhindwara",
    "regionname": "Bhopal HQ",
    "circlename": "Madhya Pradesh",
    "Taluk": "Chhindwara",
    "Districtname": "Chhindwara",
    "statename": "MADHYA PRADESH"
  },
  {
    "pincode": "480001",
    "officename": "Bohnakheri B.O",
    "officeType": "B.O",
    "Deliverystatus": "Delivery",
    "divisionname": "Chhindwara",
    "regionname": "Bhopal HQ",
    "circlename": "Madhya Pradesh",
    "Taluk": "Chhindwara",
    "Districtname": "Chhindwara",
    "statename": "MADHYA PRADESH"
  },
  {
    "pincode": "480001",
    "officename": "Boria B.O",
    "officeType": "B.O",
    "Deliverystatus": "Delivery",
    "divisionname": "Chhindwara",
    "regionname": "Bhopal HQ",
    "circlename": "Madhya Pradesh",
    "Taluk": "Chhindwara",
    "Districtname": "Chhindwara",
    "statename": "MADHYA PRADESH"
  },
  {
    "pincode": "480001",
    "officename": "Chandangaon B.O",
    "officeType": "B.O",
    "Deliverystatus": "Delivery",
    "divisionname": "Chhindwara",
    "regionname": "Bhopal HQ",
    "circlename": "Madhya Pradesh",
    "Taluk": "Chhindwara",
    "Districtname": "Chhindwara",
    "statename": "MADHYA PRADESH"
  },
  {
    "pincode": "480001",
    "officename": "Chhindwara H.O",
    "officeType": "H.O",
    "Deliverystatus": "Delivery",
    "divisionname": "Chhindwara",
    "regionname": "Bhopal HQ",
    "circlename": "Madhya Pradesh",
    "Taluk": "Chhindwara",
    "Districtname": "Chhindwara",
    "statename": "MADHYA PRADESH"
  },
  {
    "pincode": "480001",
    "officename": "Chitanvisganj S.O",
    "officeType": "S.O",
    "Deliverystatus": "Non-Delivery",
    "divisionname": "Chhindwara",
    "regionname": "Bhopal HQ",
    "circlename": "Madhya Pradesh",
    "Taluk": "Chhindwara",
    "Districtname": "Chhindwara",
    "statename": "MADHYA PRADESH"
  },
  {
    "pincode": "480001",
    "officename": "Gangiwara B.O",
    "officeType": "B.O",
    "Deliverystatus": "Delivery",
    "divisionname": "Chhindwara",
    "regionname": "Bhopal HQ",
    "circlename": "Madhya Pradesh",
    "Taluk": "Chhindwara",
    "Districtname": "Chhindwara",
    "statename": "MADHYA PRADESH"
  },
  {
    "pincode": "480001",
    "officename": "Gualbra Chhindwara S.O",
    "officeType": "S.O",
    "Deliverystatus": "Non-Delivery",
    "divisionname": "Chhindwara",
    "regionname": "Bhopal HQ",
    "circlename": "Madhya Pradesh",
    "Taluk": "Chhindwara",
    "Districtname": "Chhindwara",
    "statename": "MADHYA PRADESH"
  },
  {
    "pincode": "480001",
    "officename": "Gurriya B.O",
    "officeType": "B.O",
    "Deliverystatus": "Delivery",
    "divisionname": "Chhindwara",
    "regionname": "Bhopal HQ",
    "circlename": "Madhya Pradesh",
    "Taluk": "Chhindwara",
    "Districtname": "Chhindwara",
    "statename": "MADHYA PRADESH"
  },
  {
    "pincode": "480001",
    "officename": "Imlikheda B.O",
    "officeType": "B.O",
    "Deliverystatus": "Delivery",
    "divisionname": "Chhindwara",
    "regionname": "Bhopal HQ",
    "circlename": "Madhya Pradesh",
    "Taluk": "Chhindwara",
    "Districtname": "Chhindwara",
    "statename": "MADHYA PRADESH"
  },
  {
    "pincode": "480001",
    "officename": "Jhilmili B.O",
    "officeType": "B.O",
    "Deliverystatus": "Delivery",
    "divisionname": "Chhindwara",
    "regionname": "Bhopal HQ",
    "circlename": "Madhya Pradesh",
    "Taluk": "Chhindwara",
    "Districtname": "Chhindwara",
    "statename": "MADHYA PRADESH"
  },
  {
    "pincode": "480001",
    "officename": "Khazari B.O",
    "officeType": "B.O",
    "Deliverystatus": "Delivery",
    "divisionname": "Chhindwara",
    "regionname": "Bhopal HQ",
    "circlename": "Madhya Pradesh",
    "Taluk": "Chhindwara",
    "Districtname": "Chhindwara",
    "statename": "MADHYA PRADESH"
  },
  {
    "pincode": "480001",
    "officename": "Kundalikalan B.O",
    "officeType": "B.O",
    "Deliverystatus": "Delivery",
    "divisionname": "Chhindwara",
    "regionname": "Bhopal HQ",
    "circlename": "Madhya Pradesh",
    "Taluk": "Parasia",
    "Districtname": "Chhindwara",
    "statename": "MADHYA PRADESH"
  },
  {
    "pincode": "480001",
    "officename": "Linga B.O",
    "officeType": "B.O",
    "Deliverystatus": "Delivery",
    "divisionname": "Chhindwara",
    "regionname": "Bhopal HQ",
    "circlename": "Madhya Pradesh",
    "Taluk": "Chhindwara",
    "Districtname": "Chhindwara",
    "statename": "MADHYA PRADESH"
  },
  {
    "pincode": "480001",
    "officename": "Machagora B.O",
    "officeType": "B.O",
    "Deliverystatus": "Delivery",
    "divisionname": "Chhindwara",
    "regionname": "Bhopal HQ",
    "circlename": "Madhya Pradesh",
    "Taluk": "Chhindwara",
    "Districtname": "Chhindwara",
    "statename": "MADHYA PRADESH"
  },
  {
    "pincode": "480001",
    "officename": "Mankadehi B.O",
    "officeType": "B.O",
    "Deliverystatus": "Delivery",
    "divisionname": "Chhindwara",
    "regionname": "Bhopal HQ",
    "circlename": "Madhya Pradesh",
    "Taluk": "Chhindwra",
    "Districtname": "Chhindwara",
    "statename": "MADHYA PRADESH"
  },
  {
    "pincode": "480001",
    "officename": "Markahandi B.O",
    "officeType": "B.O",
    "Deliverystatus": "Delivery",
    "divisionname": "Chhindwara",
    "regionname": "Bhopal HQ",
    "circlename": "Madhya Pradesh",
    "Taluk": "Chhindwara",
    "Districtname": "Chhindwara",
    "statename": "MADHYA PRADESH"
  },
  {
    "pincode": "480001",
    "officename": "Mothar B.O",
    "officeType": "B.O",
    "Deliverystatus": "Delivery",
    "divisionname": "Chhindwara",
    "regionname": "Bhopal HQ",
    "circlename": "Madhya Pradesh",
    "Taluk": "Chhindwar",
    "Districtname": "Chhindwara",
    "statename": "MADHYA PRADESH"
  },
  {
    "pincode": "480001",
    "officename": "Nonia Karbal B.O",
    "officeType": "B.O",
    "Deliverystatus": "Delivery",
    "divisionname": "Chhindwara",
    "regionname": "Bhopal HQ",
    "circlename": "Madhya Pradesh",
    "Taluk": "",
    "Districtname": "Chhindwara",
    "statename": "MADHYA PRADESH"
  },
  {
    "pincode": "480001",
    "officename": "Paladone B.O",
    "officeType": "B.O",
    "Deliverystatus": "Delivery",
    "divisionname": "Chhindwara",
    "regionname": "Bhopal HQ",
    "circlename": "Madhya Pradesh",
    "Taluk": "Chhindwara",
    "Districtname": "Chhindwara",
    "statename": "MADHYA PRADESH"
  },
  {
    "pincode": "480001",
    "officename": "Partala B.O",
    "officeType": "B.O",
    "Deliverystatus": "Delivery",
    "divisionname": "Chhindwara",
    "regionname": "Bhopal HQ",
    "circlename": "Madhya Pradesh",
    "Taluk": "Chhindwara",
    "Districtname": "Chhindwara",
    "statename": "MADHYA PRADESH"
  },
  {
    "pincode": "480001",
    "officename": "Pindraikalan B.O",
    "officeType": "B.O",
    "Deliverystatus": "Delivery",
    "divisionname": "Chhindwara",
    "regionname": "Bhopal HQ",
    "circlename": "Madhya Pradesh",
    "Taluk": "Chhindwara",
    "Districtname": "Chhindwara",
    "statename": "MADHYA PRADESH"
  },
  {
    "pincode": "480001",
    "officename": "Rohna B.O",
    "officeType": "B.O",
    "Deliverystatus": "Delivery",
    "divisionname": "Chhindwara",
    "regionname": "Bhopal HQ",
    "circlename": "Madhya Pradesh",
    "Taluk": "Chhindwara",
    "Districtname": "Chhindwara",
    "statename": "MADHYA PRADESH"
  },
  {
    "pincode": "480001",
    "officename": "Sonakhar B.O",
    "officeType": "B.O",
    "Deliverystatus": "Delivery",
    "divisionname": "Chhindwara",
    "regionname": "Bhopal HQ",
    "circlename": "Madhya Pradesh",
    "Taluk": "Chhindwara",
    "Districtname": "Chhindwara",
    "statename": "MADHYA PRADESH"
  },
  {
    "pincode": "480001",
    "officename": "TB Senetorium S.O",
    "officeType": "S.O",
    "Deliverystatus": "Non-Delivery",
    "divisionname": "Chhindwara",
    "regionname": "Bhopal HQ",
    "circlename": "Madhya Pradesh",
    "Taluk": "Chhindwara",
    "Districtname": "Chhindwara",
    "statename": "MADHYA PRADESH"
  },
  {
    "pincode": "480001",
    "officename": "Umaria Isra B.O",
    "officeType": "B.O",
    "Deliverystatus": "Delivery",
    "divisionname": "Chhindwara",
    "regionname": "Bhopal HQ",
    "circlename": "Madhya Pradesh",
    "Taluk": "Chhindwara",
    "Districtname": "Chhindwara",
    "statename": "MADHYA PRADESH"
  }
]
