[
  {
    "pincode": "480224",
    "officename": "Badsaliya B.O",
    "officeType": "B.O",
    "Deliverystatus": "Delivery",
    "divisionname": "Chhindwara",
    "regionname": "Bhopal HQ",
    "circlename": "Madhya Pradesh",
    "Taluk": "Amarwara",
    "Districtname": "Chhindwara",
    "statename": "MADHYA PRADESH"
  },
  {
    "pincode": "480224",
    "officename": "Banka B.O",
    "officeType": "B.O",
    "Deliverystatus": "Delivery",
    "divisionname": "Chhindwara",
    "regionname": "Bhopal HQ",
    "circlename": "Madhya Pradesh",
    "Taluk": "Harrai",
    "Districtname": "Chhindwara",
    "statename": "MADHYA PRADESH"
  },
  {
    "pincode": "480224",
    "officename": "Bargi B.O",
    "officeType": "B.O",
    "Deliverystatus": "Delivery",
    "divisionname": "Chhindwara",
    "regionname": "Bhopal HQ",
    "circlename": "Madhya Pradesh",
    "Taluk": "Harrai",
    "Districtname": "Chhindwara",
    "statename": "MADHYA PRADESH"
  },
  {
    "pincode": "480224",
    "officename": "Basuriya B.O",
    "officeType": "B.O",
    "Deliverystatus": "Delivery",
    "divisionname": "Chhindwara",
    "regionname": "Bhopal HQ",
    "circlename": "Madhya Pradesh",
    "Taluk": "Harrai",
    "Districtname": "Chhindwara",
    "statename": "MADHYA PRADESH"
  },
  {
    "pincode": "480224",
    "officename": "Batkakhapa B.O",
    "officeType": "B.O",
    "Deliverystatus": "Delivery",
    "divisionname": "Chhindwara",
    "regionname": "Bhopal HQ",
    "circlename": "Madhya Pradesh",
    "Taluk": "Harrai",
    "Districtname": "Chhindwara",
    "statename": "MADHYA PRADESH"
  },
  {
    "pincode": "480224",
    "officename": "Bheda B.O",
    "officeType": "B.O",
    "Deliverystatus": "Delivery",
    "divisionname": "Chhindwara",
    "regionname": "Bhopal HQ",
    "circlename": "Madhya Pradesh",
    "Taluk": "Harrai",
    "Districtname": "Chhindwara",
    "statename": "MADHYA PRADESH"
  },
  {
    "pincode": "480224",
    "officename": "Bhumka B.O",
    "officeType": "B.O",
    "Deliverystatus": "Delivery",
    "divisionname": "Chhindwara",
    "regionname": "Bhopal HQ",
    "circlename": "Madhya Pradesh",
    "Taluk": "Harrai",
    "Districtname": "Chhindwara",
    "statename": "MADHYA PRADESH"
  },
  {
    "pincode": "480224",
    "officename": "Dhanora Jagir B.O",
    "officeType": "B.O",
    "Deliverystatus": "Delivery",
    "divisionname": "Chhindwara",
    "regionname": "Bhopal HQ",
    "circlename": "Madhya Pradesh",
    "Taluk": "Amarwara",
    "Districtname": "Chhindwara",
    "statename": "MADHYA PRADESH"
  },
  {
    "pincode": "480224",
    "officename": "Gourpani B.O",
    "officeType": "B.O",
    "Deliverystatus": "Delivery",
    "divisionname": "Chhindwara",
    "regionname": "Bhopal HQ",
    "circlename": "Madhya Pradesh",
    "Taluk": "Harrai",
    "Districtname": "Chhindwara",
    "statename": "MADHYA PRADESH"
  },
  {
    "pincode": "480224",
    "officename": "Harrai S.O",
    "officeType": "S.O",
    "Deliverystatus": "Delivery",
    "divisionname": "Chhindwara",
    "regionname": "Bhopal HQ",
    "circlename": "Madhya Pradesh",
    "Taluk": "Parasia",
    "Districtname": "Chhindwara",
    "statename": "MADHYA PRADESH"
  },
  {
    "pincode": "480224",
    "officename": "Madai B.O",
    "officeType": "B.O",
    "Deliverystatus": "Delivery",
    "divisionname": "Chhindwara",
    "regionname": "Bhopal HQ",
    "circlename": "Madhya Pradesh",
    "Taluk": "Harrai",
    "Districtname": "Chhindwara",
    "statename": "MADHYA PRADESH"
  },
  {
    "pincode": "480224",
    "officename": "Partapur B.O",
    "officeType": "B.O",
    "Deliverystatus": "Delivery",
    "divisionname": "Chhindwara",
    "regionname": "Bhopal HQ",
    "circlename": "Madhya Pradesh",
    "Taluk": "Harrai",
    "Districtname": "Chhindwara",
    "statename": "MADHYA PRADESH"
  },
  {
    "pincode": "480224",
    "officename": "Ratamati B.O",
    "officeType": "B.O",
    "Deliverystatus": "Delivery",
    "divisionname": "Chhindwara",
    "regionname": "Bhopal HQ",
    "circlename": "Madhya Pradesh",
    "Taluk": "Harrai",
    "Districtname": "Chhindwara",
    "statename": "MADHYA PRADESH"
  },
  {
    "pincode": "480224",
    "officename": "Surlakhapa B.O",
    "officeType": "B.O",
    "Deliverystatus": "Delivery",
    "divisionname": "Chhindwara",
    "regionname": "Bhopal HQ",
    "circlename": "Madhya Pradesh",
    "Taluk": "Amarwara",
    "Districtname": "Chhindwara",
    "statename": "MADHYA PRADESH"
  }
]
