[
  {
    "pincode": "480337",
    "officename": "Anjangaon B.O",
    "officeType": "B.O",
    "Deliverystatus": "Delivery",
    "divisionname": "Chhindwara",
    "regionname": "Bhopal HQ",
    "circlename": "Madhya Pradesh",
    "Taluk": "Chhindwara",
    "Districtname": "Chhindwara",
    "statename": "MADHYA PRADESH"
  },
  {
    "pincode": "480337",
    "officename": "Chicholi Vad B.O",
    "officeType": "B.O",
    "Deliverystatus": "Delivery",
    "divisionname": "Chhindwara",
    "regionname": "Bhopal HQ",
    "circlename": "Madhya Pradesh",
    "Taluk": "Pandhurna",
    "Districtname": "Chhindwara",
    "statename": "MADHYA PRADESH"
  },
  {
    "pincode": "480337",
    "officename": "Ghoghari Sahani B.O",
    "officeType": "B.O",
    "Deliverystatus": "Delivery",
    "divisionname": "Chhindwara",
    "regionname": "Bhopal HQ",
    "circlename": "Madhya Pradesh",
    "Taluk": "Pandhurna",
    "Districtname": "Chhindwara",
    "statename": "MADHYA PRADESH"
  },
  {
    "pincode": "480337",
    "officename": "Hiwara Senadwar B.O",
    "officeType": "B.O",
    "Deliverystatus": "Delivery",
    "divisionname": "Chhindwara",
    "regionname": "Bhopal HQ",
    "circlename": "Madhya Pradesh",
    "Taluk": "Pandhurna",
    "Districtname": "Chhindwara",
    "statename": "MADHYA PRADESH"
  },
  {
    "pincode": "480337",
    "officename": "Langha B.O",
    "officeType": "B.O",
    "Deliverystatus": "Delivery",
    "divisionname": "Chhindwara",
    "regionname": "Bhopal HQ",
    "circlename": "Madhya Pradesh",
    "Taluk": "Pandhurna",
    "Districtname": "Chhindwara",
    "statename": "MADHYA PRADESH"
  },
  {
    "pincode": "480337",
    "officename": "Rajana B.O",
    "officeType": "B.O",
    "Deliverystatus": "Delivery",
    "divisionname": "Chhindwara",
    "regionname": "Bhopal HQ",
    "circlename": "Madhya Pradesh",
    "Taluk": "Pandhurna",
    "Districtname": "Chhindwara",
    "statename": "MADHYA PRADESH"
  },
  {
    "pincode": "480337",
    "officename": "Saikheda B.O",
    "officeType": "B.O",
    "Deliverystatus": "Delivery",
    "divisionname": "Chhindwara",
    "regionname": "Bhopal HQ",
    "circlename": "Madhya Pradesh",
    "Taluk": "Pandhurna",
    "Districtname": "Chhindwara",
    "statename": "MADHYA PRADESH"
  },
  {
    "pincode": "480337",
    "officename": "Seoni Sausar S.O",
    "officeType": "S.O",
    "Deliverystatus": "Delivery",
    "divisionname": "Chhindwara",
    "regionname": "Bhopal HQ",
    "circlename": "Madhya Pradesh",
    "Taluk": "Pandhurna",
    "Districtname": "Chhindwara",
    "statename": "MADHYA PRADESH"
  }
]
