[
  {
    "pincode": "480331",
    "officename": "Ambamali B.O",
    "officeType": "B.O",
    "Deliverystatus": "Delivery",
    "divisionname": "Chhindwara",
    "regionname": "Bhopal HQ",
    "circlename": "Madhya Pradesh",
    "Taluk": "Chhindwara",
    "Districtname": "Chhindwara",
    "statename": "MADHYA PRADESH"
  },
  {
    "pincode": "480331",
    "officename": "Badnoor B.O",
    "officeType": "B.O",
    "Deliverystatus": "Delivery",
    "divisionname": "Chhindwara",
    "regionname": "Bhopal HQ",
    "circlename": "Madhya Pradesh",
    "Taluk": "Chhindwara",
    "Districtname": "Chhindwara",
    "statename": "MADHYA PRADESH"
  },
  {
    "pincode": "480331",
    "officename": "Bhutai B.O",
    "officeType": "B.O",
    "Deliverystatus": "Delivery",
    "divisionname": "Chhindwara",
    "regionname": "Bhopal HQ",
    "circlename": "Madhya Pradesh",
    "Taluk": "Chhindwara",
    "Districtname": "Chhindwara",
    "statename": "MADHYA PRADESH"
  },
  {
    "pincode": "480331",
    "officename": "Kamthi B.O",
    "officeType": "B.O",
    "Deliverystatus": "Delivery",
    "divisionname": "Chhindwara",
    "regionname": "Bhopal HQ",
    "circlename": "Madhya Pradesh",
    "Taluk": "Chhindwara",
    "Districtname": "Chhindwara",
    "statename": "MADHYA PRADESH"
  },
  {
    "pincode": "480331",
    "officename": "Kanhargaon B.O",
    "officeType": "B.O",
    "Deliverystatus": "Delivery",
    "divisionname": "Chhindwara",
    "regionname": "Bhopal HQ",
    "circlename": "Madhya Pradesh",
    "Taluk": "Parasia",
    "Districtname": "Chhindwara",
    "statename": "MADHYA PRADESH"
  },
  {
    "pincode": "480331",
    "officename": "Karaghat Kamthi B.O",
    "officeType": "B.O",
    "Deliverystatus": "Delivery",
    "divisionname": "Chhindwara",
    "regionname": "Bhopal HQ",
    "circlename": "Madhya Pradesh",
    "Taluk": "Chhindwara",
    "Districtname": "Chhindwara",
    "statename": "MADHYA PRADESH"
  },
  {
    "pincode": "480331",
    "officename": "Kaudia B.O",
    "officeType": "B.O",
    "Deliverystatus": "Delivery",
    "divisionname": "Chhindwara",
    "regionname": "Bhopal HQ",
    "circlename": "Madhya Pradesh",
    "Taluk": "Pandhurna",
    "Districtname": "Chhindwara",
    "statename": "MADHYA PRADESH"
  },
  {
    "pincode": "480331",
    "officename": "Kohat B.O",
    "officeType": "B.O",
    "Deliverystatus": "Delivery",
    "divisionname": "Chhindwara",
    "regionname": "Bhopal HQ",
    "circlename": "Madhya Pradesh",
    "Taluk": "Chhindwara",
    "Districtname": "Chhindwara",
    "statename": "MADHYA PRADESH"
  },
  {
    "pincode": "480331",
    "officename": "Lawaghoghari B.O",
    "officeType": "B.O",
    "Deliverystatus": "Delivery",
    "divisionname": "Chhindwara",
    "regionname": "Bhopal HQ",
    "circlename": "Madhya Pradesh",
    "Taluk": "Chhindwara",
    "Districtname": "Chhindwara",
    "statename": "MADHYA PRADESH"
  },
  {
    "pincode": "480331",
    "officename": "Mainikhapa B.O",
    "officeType": "B.O",
    "Deliverystatus": "Delivery",
    "divisionname": "Chhindwara",
    "regionname": "Bhopal HQ",
    "circlename": "Madhya Pradesh",
    "Taluk": "Chhindwara",
    "Districtname": "Chhindwara",
    "statename": "MADHYA PRADESH"
  },
  {
    "pincode": "480331",
    "officename": "Mordongari B.O",
    "officeType": "B.O",
    "Deliverystatus": "Delivery",
    "divisionname": "Chhindwara",
    "regionname": "Bhopal HQ",
    "circlename": "Madhya Pradesh",
    "Taluk": "Chhindwara",
    "Districtname": "Chhindwara",
    "statename": "MADHYA PRADESH"
  },
  {
    "pincode": "480331",
    "officename": "Mujawar B.O",
    "officeType": "B.O",
    "Deliverystatus": "Delivery",
    "divisionname": "Chhindwara",
    "regionname": "Bhopal HQ",
    "circlename": "Madhya Pradesh",
    "Taluk": "Chhindwara",
    "Districtname": "Chhindwara",
    "statename": "MADHYA PRADESH"
  },
  {
    "pincode": "480331",
    "officename": "Palakhed B.O",
    "officeType": "B.O",
    "Deliverystatus": "Delivery",
    "divisionname": "Chhindwara",
    "regionname": "Bhopal HQ",
    "circlename": "Madhya Pradesh",
    "Taluk": "Chhindwara",
    "Districtname": "Chhindwara",
    "statename": "MADHYA PRADESH"
  },
  {
    "pincode": "480331",
    "officename": "Paunar B.O",
    "officeType": "B.O",
    "Deliverystatus": "Delivery",
    "divisionname": "Chhindwara",
    "regionname": "Bhopal HQ",
    "circlename": "Madhya Pradesh",
    "Taluk": "Pandhurna",
    "Districtname": "Chhindwara",
    "statename": "MADHYA PRADESH"
  },
  {
    "pincode": "480331",
    "officename": "Pradhan Ghoghari B.O",
    "officeType": "B.O",
    "Deliverystatus": "Delivery",
    "divisionname": "Chhindwara",
    "regionname": "Bhopal HQ",
    "circlename": "Madhya Pradesh",
    "Taluk": "Chhindwara",
    "Districtname": "Chhindwara",
    "statename": "MADHYA PRADESH"
  },
  {
    "pincode": "480331",
    "officename": "Rajada B.O",
    "officeType": "B.O",
    "Deliverystatus": "Delivery",
    "divisionname": "Chhindwara",
    "regionname": "Bhopal HQ",
    "circlename": "Madhya Pradesh",
    "Taluk": "Chhindwara",
    "Districtname": "Chhindwara",
    "statename": "MADHYA PRADESH"
  },
  {
    "pincode": "480331",
    "officename": "Saori Bazaar S.O",
    "officeType": "S.O",
    "Deliverystatus": "Delivery",
    "divisionname": "Chhindwara",
    "regionname": "Bhopal HQ",
    "circlename": "Madhya Pradesh",
    "Taluk": "Chhindwara",
    "Districtname": "Chhindwara",
    "statename": "MADHYA PRADESH"
  }
]
