[
  {
    "pincode": "480441",
    "officename": "Baghbardia B.O",
    "officeType": "B.O",
    "Deliverystatus": "Delivery",
    "divisionname": "Chhindwara",
    "regionname": "Bhopal HQ",
    "circlename": "Madhya Pradesh",
    "Taluk": "Parasia",
    "Districtname": "Chhindwara",
    "statename": "MADHYA PRADESH"
  },
  {
    "pincode": "480441",
    "officename": "Chhinda B.O",
    "officeType": "B.O",
    "Deliverystatus": "Delivery",
    "divisionname": "Chhindwara",
    "regionname": "Bhopal HQ",
    "circlename": "Madhya Pradesh",
    "Taluk": "Parasia",
    "Districtname": "Chhindwara",
    "statename": "MADHYA PRADESH"
  },
  {
    "pincode": "480441",
    "officename": "Dighawani B.O",
    "officeType": "B.O",
    "Deliverystatus": "Delivery",
    "divisionname": "Chhindwara",
    "regionname": "Bhopal HQ",
    "circlename": "Madhya Pradesh",
    "Taluk": "Amarwara",
    "Districtname": "Chhindwara",
    "statename": "MADHYA PRADESH"
  },
  {
    "pincode": "480441",
    "officename": "Gajandoha B.O",
    "officeType": "B.O",
    "Deliverystatus": "Delivery",
    "divisionname": "Chhindwara",
    "regionname": "Bhopal HQ",
    "circlename": "Madhya Pradesh",
    "Taluk": "Parasia",
    "Districtname": "Chhindwara",
    "statename": "MADHYA PRADESH"
  },
  {
    "pincode": "480441",
    "officename": "Jhurre Mines B.O",
    "officeType": "B.O",
    "Deliverystatus": "Delivery",
    "divisionname": "Chhindwara",
    "regionname": "Bhopal HQ",
    "circlename": "Madhya Pradesh",
    "Taluk": "Paraisa",
    "Districtname": "Chhindwara",
    "statename": "MADHYA PRADESH"
  },
  {
    "pincode": "480441",
    "officename": "Khirsadoha B.O",
    "officeType": "B.O",
    "Deliverystatus": "Delivery",
    "divisionname": "Chhindwara",
    "regionname": "Bhopal HQ",
    "circlename": "Madhya Pradesh",
    "Taluk": "Parasia",
    "Districtname": "Chhindwara",
    "statename": "MADHYA PRADESH"
  },
  {
    "pincode": "480441",
    "officename": "Palatwara B.O",
    "officeType": "B.O",
    "Deliverystatus": "Delivery",
    "divisionname": "Chhindwara",
    "regionname": "Bhopal HQ",
    "circlename": "Madhya Pradesh",
    "Taluk": "Parasia",
    "Districtname": "Chhindwara",
    "statename": "MADHYA PRADESH"
  },
  {
    "pincode": "480441",
    "officename": "Parasia S.O",
    "officeType": "S.O",
    "Deliverystatus": "Delivery",
    "divisionname": "Chhindwara",
    "regionname": "Bhopal HQ",
    "circlename": "Madhya Pradesh",
    "Taluk": "Amla",
    "Districtname": "Betul",
    "statename": "MADHYA PRADESH"
  },
  {
    "pincode": "480441",
    "officename": "Rawanwara B.O",
    "officeType": "B.O",
    "Deliverystatus": "Delivery",
    "divisionname": "Chhindwara",
    "regionname": "Bhopal HQ",
    "circlename": "Madhya Pradesh",
    "Taluk": "Parasia",
    "Districtname": "Chhindwara",
    "statename": "MADHYA PRADESH"
  },
  {
    "pincode": "480441",
    "officename": "Sirgora B.O",
    "officeType": "B.O",
    "Deliverystatus": "Delivery",
    "divisionname": "Chhindwara",
    "regionname": "Bhopal HQ",
    "circlename": "Madhya Pradesh",
    "Taluk": "Parasia",
    "Districtname": "Chhindwara",
    "statename": "MADHYA PRADESH"
  },
  {
    "pincode": "480441",
    "officename": "Umreth B.O",
    "officeType": "B.O",
    "Deliverystatus": "Delivery",
    "divisionname": "Chhindwara",
    "regionname": "Bhopal HQ",
    "circlename": "Madhya Pradesh",
    "Taluk": "Parasia",
    "Districtname": "Chhindwara",
    "statename": "MADHYA PRADESH"
  },
  {
    "pincode": "480441",
    "officename": "Urdhan B.O",
    "officeType": "B.O",
    "Deliverystatus": "Delivery",
    "divisionname": "Chhindwara",
    "regionname": "Bhopal HQ",
    "circlename": "Madhya Pradesh",
    "Taluk": "Parasia",
    "Districtname": "Chhindwara",
    "statename": "MADHYA PRADESH"
  }
]
