[
  {
    "pincode": "480661",
    "officename": "Amgaon B.O",
    "officeType": "B.O",
    "Deliverystatus": "Delivery",
    "divisionname": "Balaghat",
    "regionname": "Bhopal HQ",
    "circlename": "Madhya Pradesh",
    "Taluk": "Seoni",
    "Districtname": "Seoni",
    "statename": "MADHYA PRADESH"
  },
  {
    "pincode": "480661",
    "officename": "Babaira B.O",
    "officeType": "B.O",
    "Deliverystatus": "Delivery",
    "divisionname": "Balaghat",
    "regionname": "Bhopal HQ",
    "circlename": "Madhya Pradesh",
    "Taluk": "Seoni",
    "Districtname": "Seoni",
    "statename": "MADHYA PRADESH"
  },
  {
    "pincode": "480661",
    "officename": "Badalpar B.O",
    "officeType": "B.O",
    "Deliverystatus": "Delivery",
    "divisionname": "Balaghat",
    "regionname": "Bhopal HQ",
    "circlename": "Madhya Pradesh",
    "Taluk": "Seoni",
    "Districtname": "Seoni",
    "statename": "MADHYA PRADESH"
  },
  {
    "pincode": "480661",
    "officename": "Bamhodi B.O",
    "officeType": "B.O",
    "Deliverystatus": "Delivery",
    "divisionname": "Balaghat",
    "regionname": "Bhopal HQ",
    "circlename": "Madhya Pradesh",
    "Taluk": "Seoni",
    "Districtname": "Seoni",
    "statename": "MADHYA PRADESH"
  },
  {
    "pincode": "480661",
    "officename": "Belpeth B.O",
    "officeType": "B.O",
    "Deliverystatus": "Delivery",
    "divisionname": "Balaghat",
    "regionname": "Bhopal HQ",
    "circlename": "Madhya Pradesh",
    "Taluk": "Seoni",
    "Districtname": "Seoni",
    "statename": "MADHYA PRADESH"
  },
  {
    "pincode": "480661",
    "officename": "Binjhawada B.O",
    "officeType": "B.O",
    "Deliverystatus": "Delivery",
    "divisionname": "Balaghat",
    "regionname": "Bhopal HQ",
    "circlename": "Madhya Pradesh",
    "Taluk": "Seoni",
    "Districtname": "Seoni",
    "statename": "MADHYA PRADESH"
  },
  {
    "pincode": "480661",
    "officename": "Bordai B.O",
    "officeType": "B.O",
    "Deliverystatus": "Delivery",
    "divisionname": "Balaghat",
    "regionname": "Bhopal HQ",
    "circlename": "Madhya Pradesh",
    "Taluk": "Seoni",
    "Districtname": "Seoni",
    "statename": "MADHYA PRADESH"
  },
  {
    "pincode": "480661",
    "officename": "Chakki Khamariya B.O",
    "officeType": "B.O",
    "Deliverystatus": "Delivery",
    "divisionname": "Balaghat",
    "regionname": "Bhopal HQ",
    "circlename": "Madhya Pradesh",
    "Taluk": "Seoni",
    "Districtname": "Seoni",
    "statename": "MADHYA PRADESH"
  },
  {
    "pincode": "480661",
    "officename": "Chawadi B.O",
    "officeType": "B.O",
    "Deliverystatus": "Delivery",
    "divisionname": "Balaghat",
    "regionname": "Bhopal HQ",
    "circlename": "Madhya Pradesh",
    "Taluk": "Seoni",
    "Districtname": "Seoni",
    "statename": "MADHYA PRADESH"
  },
  {
    "pincode": "480661",
    "officename": "Dhobisarra B.O",
    "officeType": "B.O",
    "Deliverystatus": "Delivery",
    "divisionname": "Balaghat",
    "regionname": "Bhopal HQ",
    "circlename": "Madhya Pradesh",
    "Taluk": "Seoni",
    "Districtname": "Seoni",
    "statename": "MADHYA PRADESH"
  },
  {
    "pincode": "480661",
    "officename": "Fulara B.O",
    "officeType": "B.O",
    "Deliverystatus": "Delivery",
    "divisionname": "Balaghat",
    "regionname": "Bhopal HQ",
    "circlename": "Madhya Pradesh",
    "Taluk": "Seoni",
    "Districtname": "Seoni",
    "statename": "MADHYA PRADESH"
  },
  {
    "pincode": "480661",
    "officename": "Gopalganj B.O",
    "officeType": "B.O",
    "Deliverystatus": "Delivery",
    "divisionname": "Balaghat",
    "regionname": "Bhopal HQ",
    "circlename": "Madhya Pradesh",
    "Taluk": "Seoni",
    "Districtname": "Seoni",
    "statename": "MADHYA PRADESH"
  },
  {
    "pincode": "480661",
    "officename": "Hathnapur B.O",
    "officeType": "B.O",
    "Deliverystatus": "Delivery",
    "divisionname": "Balaghat",
    "regionname": "Bhopal HQ",
    "circlename": "Madhya Pradesh",
    "Taluk": "Seoni",
    "Districtname": "Seoni",
    "statename": "MADHYA PRADESH"
  },
  {
    "pincode": "480661",
    "officename": "Jaitpur Kala B.O",
    "officeType": "B.O",
    "Deliverystatus": "Delivery",
    "divisionname": "Balaghat",
    "regionname": "Bhopal HQ",
    "circlename": "Madhya Pradesh",
    "Taluk": "Seoni",
    "Districtname": "Seoni",
    "statename": "MADHYA PRADESH"
  },
  {
    "pincode": "480661",
    "officename": "Jam B.O",
    "officeType": "B.O",
    "Deliverystatus": "Delivery",
    "divisionname": "Balaghat",
    "regionname": "Bhopal HQ",
    "circlename": "Madhya Pradesh",
    "Taluk": "Seoni",
    "Districtname": "Seoni",
    "statename": "MADHYA PRADESH"
  },
  {
    "pincode": "480661",
    "officename": "Karirat B.O",
    "officeType": "B.O",
    "Deliverystatus": "Delivery",
    "divisionname": "Balaghat",
    "regionname": "Bhopal HQ",
    "circlename": "Madhya Pradesh",
    "Taluk": "Seoni",
    "Districtname": "Seoni",
    "statename": "MADHYA PRADESH"
  },
  {
    "pincode": "480661",
    "officename": "Marbodi B.O",
    "officeType": "B.O",
    "Deliverystatus": "Delivery",
    "divisionname": "Balaghat",
    "regionname": "Bhopal HQ",
    "circlename": "Madhya Pradesh",
    "Taluk": "Seoni",
    "Districtname": "Seoni",
    "statename": "MADHYA PRADESH"
  },
  {
    "pincode": "480661",
    "officename": "Mugwani Kala B.O",
    "officeType": "B.O",
    "Deliverystatus": "Delivery",
    "divisionname": "Balaghat",
    "regionname": "Bhopal HQ",
    "circlename": "Madhya Pradesh",
    "Taluk": "Seoni",
    "Districtname": "Seoni",
    "statename": "MADHYA PRADESH"
  },
  {
    "pincode": "480661",
    "officename": "Palari-chhidiya B.O",
    "officeType": "B.O",
    "Deliverystatus": "Delivery",
    "divisionname": "Balaghat",
    "regionname": "Bhopal HQ",
    "circlename": "Madhya Pradesh",
    "Taluk": "Seoni",
    "Districtname": "Seoni",
    "statename": "MADHYA PRADESH"
  },
  {
    "pincode": "480661",
    "officename": "Pipardahi B.O",
    "officeType": "B.O",
    "Deliverystatus": "Delivery",
    "divisionname": "Balaghat",
    "regionname": "Bhopal HQ",
    "circlename": "Madhya Pradesh",
    "Taluk": "Seoni",
    "Districtname": "Seoni",
    "statename": "MADHYA PRADESH"
  },
  {
    "pincode": "480661",
    "officename": "Rajola B.O",
    "officeType": "B.O",
    "Deliverystatus": "Delivery",
    "divisionname": "Balaghat",
    "regionname": "Bhopal HQ",
    "circlename": "Madhya Pradesh",
    "Taluk": "Seoni",
    "Districtname": "Seoni",
    "statename": "MADHYA PRADESH"
  },
  {
    "pincode": "480661",
    "officename": "Seoni Barapathar S.O",
    "officeType": "S.O",
    "Deliverystatus": "Non-Delivery",
    "divisionname": "Balaghat",
    "regionname": "Bhopal HQ",
    "circlename": "Madhya Pradesh",
    "Taluk": "Seoni",
    "Districtname": "Seoni",
    "statename": "MADHYA PRADESH"
  },
  {
    "pincode": "480661",
    "officename": "Seoni Budhwari Bazar S.O",
    "officeType": "S.O",
    "Deliverystatus": "Non-Delivery",
    "divisionname": "Balaghat",
    "regionname": "Bhopal HQ",
    "circlename": "Madhya Pradesh",
    "Taluk": "Seoni",
    "Districtname": "Seoni",
    "statename": "MADHYA PRADESH"
  },
  {
    "pincode": "480661",
    "officename": "Seoni City S.O",
    "officeType": "S.O",
    "Deliverystatus": "Non-Delivery",
    "divisionname": "Balaghat",
    "regionname": "Bhopal HQ",
    "circlename": "Madhya Pradesh",
    "Taluk": "Seoni",
    "Districtname": "Seoni",
    "statename": "MADHYA PRADESH"
  },
  {
    "pincode": "480661",
    "officename": "Seoni H.O",
    "officeType": "H.O",
    "Deliverystatus": "Delivery",
    "divisionname": "Balaghat",
    "regionname": "Bhopal HQ",
    "circlename": "Madhya Pradesh",
    "Taluk": "Seoni",
    "Districtname": "Seoni",
    "statename": "MADHYA PRADESH"
  },
  {
    "pincode": "480661",
    "officename": "Sillore B.O",
    "officeType": "B.O",
    "Deliverystatus": "Delivery",
    "divisionname": "Balaghat",
    "regionname": "Bhopal HQ",
    "circlename": "Madhya Pradesh",
    "Taluk": "Seoni",
    "Districtname": "Seoni",
    "statename": "MADHYA PRADESH"
  },
  {
    "pincode": "480661",
    "officename": "Sindaria B.O",
    "officeType": "B.O",
    "Deliverystatus": "Delivery",
    "divisionname": "Balaghat",
    "regionname": "Bhopal HQ",
    "circlename": "Madhya Pradesh",
    "Taluk": "Seoni",
    "Districtname": "Seoni",
    "statename": "MADHYA PRADESH"
  },
  {
    "pincode": "480661",
    "officename": "Suktara B.O",
    "officeType": "B.O",
    "Deliverystatus": "Delivery",
    "divisionname": "Balaghat",
    "regionname": "Bhopal HQ",
    "circlename": "Madhya Pradesh",
    "Taluk": "Seoni",
    "Districtname": "Seoni",
    "statename": "MADHYA PRADESH"
  },
  {
    "pincode": "480661",
    "officename": "Tighra B.O",
    "officeType": "B.O",
    "Deliverystatus": "Delivery",
    "divisionname": "Balaghat",
    "regionname": "Bhopal HQ",
    "circlename": "Madhya Pradesh",
    "Taluk": "Seoni",
    "Districtname": "Seoni",
    "statename": "MADHYA PRADESH"
  },
  {
    "pincode": "480661",
    "officename": "Vijaypani B.O",
    "officeType": "B.O",
    "Deliverystatus": "Delivery",
    "divisionname": "Balaghat",
    "regionname": "Bhopal HQ",
    "circlename": "Madhya Pradesh",
    "Taluk": "Seoni",
    "Districtname": "Seoni",
    "statename": "MADHYA PRADESH"
  }
]
