[
  {
    "pincode": "480771",
    "officename": "Amagarh B.O",
    "officeType": "B.O",
    "Deliverystatus": "Delivery",
    "divisionname": "Balaghat",
    "regionname": "Bhopal HQ",
    "circlename": "Madhya Pradesh",
    "Taluk": "Barghat",
    "Districtname": "Seoni",
    "statename": "MADHYA PRADESH"
  },
  {
    "pincode": "480771",
    "officename": "Ari S.O",
    "officeType": "S.O",
    "Deliverystatus": "Delivery",
    "divisionname": "Balaghat",
    "regionname": "Bhopal HQ",
    "circlename": "Madhya Pradesh",
    "Taluk": "Seoni",
    "Districtname": "Seoni",
    "statename": "MADHYA PRADESH"
  },
  {
    "pincode": "480771",
    "officename": "Birholi B.O",
    "officeType": "B.O",
    "Deliverystatus": "Delivery",
    "divisionname": "Balaghat",
    "regionname": "Bhopal HQ",
    "circlename": "Madhya Pradesh",
    "Taluk": "Barghat",
    "Districtname": "Seoni",
    "statename": "MADHYA PRADESH"
  },
  {
    "pincode": "480771",
    "officename": "Darasikala B.O",
    "officeType": "B.O",
    "Deliverystatus": "Delivery",
    "divisionname": "Balaghat",
    "regionname": "Bhopal HQ",
    "circlename": "Madhya Pradesh",
    "Taluk": "Barghat",
    "Districtname": "Seoni",
    "statename": "MADHYA PRADESH"
  },
  {
    "pincode": "480771",
    "officename": "Dhapara B.O",
    "officeType": "B.O",
    "Deliverystatus": "Delivery",
    "divisionname": "Balaghat",
    "regionname": "Bhopal HQ",
    "circlename": "Madhya Pradesh",
    "Taluk": "Barghat",
    "Districtname": "Seoni",
    "statename": "MADHYA PRADESH"
  },
  {
    "pincode": "480771",
    "officename": "Dondiwada B.O",
    "officeType": "B.O",
    "Deliverystatus": "Delivery",
    "divisionname": "Balaghat",
    "regionname": "Bhopal HQ",
    "circlename": "Madhya Pradesh",
    "Taluk": "Barghat",
    "Districtname": "Seoni",
    "statename": "MADHYA PRADESH"
  },
  {
    "pincode": "480771",
    "officename": "Gokalpur B.O",
    "officeType": "B.O",
    "Deliverystatus": "Delivery",
    "divisionname": "Balaghat",
    "regionname": "Bhopal HQ",
    "circlename": "Madhya Pradesh",
    "Taluk": "Barghat",
    "Districtname": "Seoni",
    "statename": "MADHYA PRADESH"
  },
  {
    "pincode": "480771",
    "officename": "Nayegaon B.O",
    "officeType": "B.O",
    "Deliverystatus": "Delivery",
    "divisionname": "Balaghat",
    "regionname": "Bhopal HQ",
    "circlename": "Madhya Pradesh",
    "Taluk": "Barghat",
    "Districtname": "Seoni",
    "statename": "MADHYA PRADESH"
  },
  {
    "pincode": "480771",
    "officename": "Neewari B.O",
    "officeType": "B.O",
    "Deliverystatus": "Delivery",
    "divisionname": "Balaghat",
    "regionname": "Bhopal HQ",
    "circlename": "Madhya Pradesh",
    "Taluk": "Barghat",
    "Districtname": "Seoni",
    "statename": "MADHYA PRADESH"
  },
  {
    "pincode": "480771",
    "officename": "Sukla B.O",
    "officeType": "B.O",
    "Deliverystatus": "Delivery",
    "divisionname": "Balaghat",
    "regionname": "Bhopal HQ",
    "circlename": "Madhya Pradesh",
    "Taluk": "Barghat",
    "Districtname": "Seoni",
    "statename": "MADHYA PRADESH"
  },
  {
    "pincode": "480771",
    "officename": "Takalakala B.O",
    "officeType": "B.O",
    "Deliverystatus": "Delivery",
    "divisionname": "Balaghat",
    "regionname": "Bhopal HQ",
    "circlename": "Madhya Pradesh",
    "Taluk": "Barghat",
    "Districtname": "Seoni",
    "statename": "MADHYA PRADESH"
  },
  {
    "pincode": "480771",
    "officename": "Tekari B.O",
    "officeType": "B.O",
    "Deliverystatus": "Delivery",
    "divisionname": "Balaghat",
    "regionname": "Bhopal HQ",
    "circlename": "Madhya Pradesh",
    "Taluk": "Barghat",
    "Districtname": "Seoni",
    "statename": "MADHYA PRADESH"
  }
]
