[
  {
    "pincode": "480888",
    "officename": "Baigapiparia B.O",
    "officeType": "B.O",
    "Deliverystatus": "Delivery",
    "divisionname": "Balaghat",
    "regionname": "Bhopal HQ",
    "circlename": "Madhya Pradesh",
    "Taluk": "Lakhanadon",
    "Districtname": "Seoni",
    "statename": "MADHYA PRADESH"
  },
  {
    "pincode": "480888",
    "officename": "Banjari B.O",
    "officeType": "B.O",
    "Deliverystatus": "Delivery",
    "divisionname": "Balaghat",
    "regionname": "Bhopal HQ",
    "circlename": "Madhya Pradesh",
    "Taluk": "Lakhnadon",
    "Districtname": "Seoni",
    "statename": "MADHYA PRADESH"
  },
  {
    "pincode": "480888",
    "officename": "Dankakadi B.O",
    "officeType": "B.O",
    "Deliverystatus": "Delivery",
    "divisionname": "Balaghat",
    "regionname": "Bhopal HQ",
    "circlename": "Madhya Pradesh",
    "Taluk": "Lakhnadon",
    "Districtname": "Seoni",
    "statename": "MADHYA PRADESH"
  },
  {
    "pincode": "480888",
    "officename": "Dargada B.O",
    "officeType": "B.O",
    "Deliverystatus": "Delivery",
    "divisionname": "Balaghat",
    "regionname": "Bhopal HQ",
    "circlename": "Madhya Pradesh",
    "Taluk": "Lakhnadon",
    "Districtname": "Seoni",
    "statename": "MADHYA PRADESH"
  },
  {
    "pincode": "480888",
    "officename": "Deori B.O",
    "officeType": "B.O",
    "Deliverystatus": "Delivery",
    "divisionname": "Balaghat",
    "regionname": "Bhopal HQ",
    "circlename": "Madhya Pradesh",
    "Taluk": "Lakhanadon",
    "Districtname": "Seoni",
    "statename": "MADHYA PRADESH"
  },
  {
    "pincode": "480888",
    "officename": "Dhuma S.O",
    "officeType": "S.O",
    "Deliverystatus": "Delivery",
    "divisionname": "Balaghat",
    "regionname": "Bhopal HQ",
    "circlename": "Madhya Pradesh",
    "Taluk": "Lakhnadon",
    "Districtname": "Seoni",
    "statename": "MADHYA PRADESH"
  },
  {
    "pincode": "480888",
    "officename": "Ghurwara B.O",
    "officeType": "B.O",
    "Deliverystatus": "Delivery",
    "divisionname": "Balaghat",
    "regionname": "Bhopal HQ",
    "circlename": "Madhya Pradesh",
    "Taluk": "Lakhanadon",
    "Districtname": "Seoni",
    "statename": "MADHYA PRADESH"
  },
  {
    "pincode": "480888",
    "officename": "Khairnara B.O",
    "officeType": "B.O",
    "Deliverystatus": "Delivery",
    "divisionname": "Balaghat",
    "regionname": "Bhopal HQ",
    "circlename": "Madhya Pradesh",
    "Taluk": "Lakhnadon",
    "Districtname": "Seoni",
    "statename": "MADHYA PRADESH"
  },
  {
    "pincode": "480888",
    "officename": "Khut-khamaria B.O",
    "officeType": "B.O",
    "Deliverystatus": "Delivery",
    "divisionname": "Balaghat",
    "regionname": "Bhopal HQ",
    "circlename": "Madhya Pradesh",
    "Taluk": "Lakhanadon",
    "Districtname": "Seoni",
    "statename": "MADHYA PRADESH"
  },
  {
    "pincode": "480888",
    "officename": "Nagandeori B.O",
    "officeType": "B.O",
    "Deliverystatus": "Delivery",
    "divisionname": "Balaghat",
    "regionname": "Bhopal HQ",
    "circlename": "Madhya Pradesh",
    "Taluk": "Lakhanadon",
    "Districtname": "Seoni",
    "statename": "MADHYA PRADESH"
  },
  {
    "pincode": "480888",
    "officename": "Pathadeori B.O",
    "officeType": "B.O",
    "Deliverystatus": "Delivery",
    "divisionname": "Balaghat",
    "regionname": "Bhopal HQ",
    "circlename": "Madhya Pradesh",
    "Taluk": "Lakhnadon",
    "Districtname": "Seoni",
    "statename": "MADHYA PRADESH"
  },
  {
    "pincode": "480888",
    "officename": "Sanaidongari B.O",
    "officeType": "B.O",
    "Deliverystatus": "Delivery",
    "divisionname": "Balaghat",
    "regionname": "Bhopal HQ",
    "circlename": "Madhya Pradesh",
    "Taluk": "Lakhanadon",
    "Districtname": "Seoni",
    "statename": "MADHYA PRADESH"
  }
]
