[
  {
    "pincode": "480997",
    "officename": "Ataria B.O",
    "officeType": "B.O",
    "Deliverystatus": "Delivery",
    "divisionname": "Balaghat",
    "regionname": "Bhopal HQ",
    "circlename": "Madhya Pradesh",
    "Taluk": "Ghansore",
    "Districtname": "Seoni",
    "statename": "MADHYA PRADESH"
  },
  {
    "pincode": "480997",
    "officename": "Balpur B.O",
    "officeType": "B.O",
    "Deliverystatus": "Delivery",
    "divisionname": "Balaghat",
    "regionname": "Bhopal HQ",
    "circlename": "Madhya Pradesh",
    "Taluk": "Ghansore",
    "Districtname": "Seoni",
    "statename": "MADHYA PRADESH"
  },
  {
    "pincode": "480997",
    "officename": "Barela B.O",
    "officeType": "B.O",
    "Deliverystatus": "Delivery",
    "divisionname": "Balaghat",
    "regionname": "Bhopal HQ",
    "circlename": "Madhya Pradesh",
    "Taluk": "Ghansore",
    "Districtname": "Seoni",
    "statename": "MADHYA PRADESH"
  },
  {
    "pincode": "480997",
    "officename": "Bewhari B.O",
    "officeType": "B.O",
    "Deliverystatus": "Delivery",
    "divisionname": "Balaghat",
    "regionname": "Bhopal HQ",
    "circlename": "Madhya Pradesh",
    "Taluk": "Ghansore",
    "Districtname": "Seoni",
    "statename": "MADHYA PRADESH"
  },
  {
    "pincode": "480997",
    "officename": "Diwari B.O",
    "officeType": "B.O",
    "Deliverystatus": "Delivery",
    "divisionname": "Balaghat",
    "regionname": "Bhopal HQ",
    "circlename": "Madhya Pradesh",
    "Taluk": "Ghansore",
    "Districtname": "Seoni",
    "statename": "MADHYA PRADESH"
  },
  {
    "pincode": "480997",
    "officename": "Ghansore S.O",
    "officeType": "S.O",
    "Deliverystatus": "Delivery",
    "divisionname": "Balaghat",
    "regionname": "Bhopal HQ",
    "circlename": "Madhya Pradesh",
    "Taluk": "Ghansore",
    "Districtname": "Seoni",
    "statename": "MADHYA PRADESH"
  },
  {
    "pincode": "480997",
    "officename": "Ghotkheda B.O",
    "officeType": "B.O",
    "Deliverystatus": "Delivery",
    "divisionname": "Balaghat",
    "regionname": "Bhopal HQ",
    "circlename": "Madhya Pradesh",
    "Taluk": "Ghansore",
    "Districtname": "Seoni",
    "statename": "MADHYA PRADESH"
  },
  {
    "pincode": "480997",
    "officename": "Jhurki B.O",
    "officeType": "B.O",
    "Deliverystatus": "Delivery",
    "divisionname": "Balaghat",
    "regionname": "Bhopal HQ",
    "circlename": "Madhya Pradesh",
    "Taluk": "Ghansore",
    "Districtname": "Seoni",
    "statename": "MADHYA PRADESH"
  },
  {
    "pincode": "480997",
    "officename": "Kedarpur B.O",
    "officeType": "B.O",
    "Deliverystatus": "Delivery",
    "divisionname": "Balaghat",
    "regionname": "Bhopal HQ",
    "circlename": "Madhya Pradesh",
    "Taluk": "Ghansore",
    "Districtname": "Seoni",
    "statename": "MADHYA PRADESH"
  },
  {
    "pincode": "480997",
    "officename": "Khamaria Bazar B.O",
    "officeType": "B.O",
    "Deliverystatus": "Delivery",
    "divisionname": "Balaghat",
    "regionname": "Bhopal HQ",
    "circlename": "Madhya Pradesh",
    "Taluk": "Ghansore",
    "Districtname": "Seoni",
    "statename": "MADHYA PRADESH"
  },
  {
    "pincode": "480997",
    "officename": "Khatiya B.O",
    "officeType": "B.O",
    "Deliverystatus": "Delivery",
    "divisionname": "Balaghat",
    "regionname": "Bhopal HQ",
    "circlename": "Madhya Pradesh",
    "Taluk": "Ghansore",
    "Districtname": "Seoni",
    "statename": "MADHYA PRADESH"
  },
  {
    "pincode": "480997",
    "officename": "Kindarai B.O",
    "officeType": "B.O",
    "Deliverystatus": "Delivery",
    "divisionname": "Balaghat",
    "regionname": "Bhopal HQ",
    "circlename": "Madhya Pradesh",
    "Taluk": "Ghansire",
    "Districtname": "Seoni",
    "statename": "MADHYA PRADESH"
  },
  {
    "pincode": "480997",
    "officename": "Manegaon B.O",
    "officeType": "B.O",
    "Deliverystatus": "Delivery",
    "divisionname": "Balaghat",
    "regionname": "Bhopal HQ",
    "circlename": "Madhya Pradesh",
    "Taluk": "Ghansore",
    "Districtname": "Seoni",
    "statename": "MADHYA PRADESH"
  },
  {
    "pincode": "480997",
    "officename": "Paddikona B.O",
    "officeType": "B.O",
    "Deliverystatus": "Delivery",
    "divisionname": "Balaghat",
    "regionname": "Bhopal HQ",
    "circlename": "Madhya Pradesh",
    "Taluk": "Ghansore",
    "Districtname": "Seoni",
    "statename": "MADHYA PRADESH"
  },
  {
    "pincode": "480997",
    "officename": "Pahadi B.O",
    "officeType": "B.O",
    "Deliverystatus": "Delivery",
    "divisionname": "Balaghat",
    "regionname": "Bhopal HQ",
    "circlename": "Madhya Pradesh",
    "Taluk": "Ghansore",
    "Districtname": "Seoni",
    "statename": "MADHYA PRADESH"
  },
  {
    "pincode": "480997",
    "officename": "Salhepani B.O",
    "officeType": "B.O",
    "Deliverystatus": "Delivery",
    "divisionname": "Balaghat",
    "regionname": "Bhopal HQ",
    "circlename": "Madhya Pradesh",
    "Taluk": "Ghansore",
    "Districtname": "Seoni",
    "statename": "MADHYA PRADESH"
  },
  {
    "pincode": "480997",
    "officename": "Sikara B.O",
    "officeType": "B.O",
    "Deliverystatus": "Delivery",
    "divisionname": "Balaghat",
    "regionname": "Bhopal HQ",
    "circlename": "Madhya Pradesh",
    "Taluk": "Ghansore",
    "Districtname": "Seoni",
    "statename": "MADHYA PRADESH"
  }
]
