[
  {
    "pincode": "480991",
    "officename": "Dhutera B.O",
    "officeType": "B.O",
    "Deliverystatus": "Delivery",
    "divisionname": "Balaghat",
    "regionname": "Bhopal HQ",
    "circlename": "Madhya Pradesh",
    "Taluk": "Keolari",
    "Districtname": "Seoni",
    "statename": "MADHYA PRADESH"
  },
  {
    "pincode": "480991",
    "officename": "Dokarranjhi B.O",
    "officeType": "B.O",
    "Deliverystatus": "Delivery",
    "divisionname": "Balaghat",
    "regionname": "Bhopal HQ",
    "circlename": "Madhya Pradesh",
    "Taluk": "Seoni",
    "Districtname": "Seoni",
    "statename": "MADHYA PRADESH"
  },
  {
    "pincode": "480991",
    "officename": "Khairapalari S.O",
    "officeType": "S.O",
    "Deliverystatus": "Delivery",
    "divisionname": "Balaghat",
    "regionname": "Bhopal HQ",
    "circlename": "Madhya Pradesh",
    "Taluk": "Keolari",
    "Districtname": "Seoni",
    "statename": "MADHYA PRADESH"
  },
  {
    "pincode": "480991",
    "officename": "Khapa Bazar B.O",
    "officeType": "B.O",
    "Deliverystatus": "Delivery",
    "divisionname": "Balaghat",
    "regionname": "Bhopal HQ",
    "circlename": "Madhya Pradesh",
    "Taluk": "Keolari",
    "Districtname": "Seoni",
    "statename": "MADHYA PRADESH"
  },
  {
    "pincode": "480991",
    "officename": "Kudari Maghgaon B.O",
    "officeType": "B.O",
    "Deliverystatus": "Delivery",
    "divisionname": "Balaghat",
    "regionname": "Bhopal HQ",
    "circlename": "Madhya Pradesh",
    "Taluk": "Ghansore",
    "Districtname": "Seoni",
    "statename": "MADHYA PRADESH"
  },
  {
    "pincode": "480991",
    "officename": "Lopa B.O",
    "officeType": "B.O",
    "Deliverystatus": "Delivery",
    "divisionname": "Balaghat",
    "regionname": "Bhopal HQ",
    "circlename": "Madhya Pradesh",
    "Taluk": "Keolari",
    "Districtname": "Seoni",
    "statename": "MADHYA PRADESH"
  },
  {
    "pincode": "480991",
    "officename": "Panjara B.O",
    "officeType": "B.O",
    "Deliverystatus": "Delivery",
    "divisionname": "Balaghat",
    "regionname": "Bhopal HQ",
    "circlename": "Madhya Pradesh",
    "Taluk": "Keolari",
    "Districtname": "Seoni",
    "statename": "MADHYA PRADESH"
  },
  {
    "pincode": "480991",
    "officename": "Pipariya Kala B.O",
    "officeType": "B.O",
    "Deliverystatus": "Delivery",
    "divisionname": "Balaghat",
    "regionname": "Bhopal HQ",
    "circlename": "Madhya Pradesh",
    "Taluk": "Keolari",
    "Districtname": "Seoni",
    "statename": "MADHYA PRADESH"
  },
  {
    "pincode": "480991",
    "officename": "Sarekha B.O",
    "officeType": "B.O",
    "Deliverystatus": "Delivery",
    "divisionname": "Balaghat",
    "regionname": "Bhopal HQ",
    "circlename": "Madhya Pradesh",
    "Taluk": "Keolari",
    "Districtname": "Seoni",
    "statename": "MADHYA PRADESH"
  }
]
