[
  {
    "pincode": "481105",
    "officename": "Bhanderi B.O",
    "officeType": "B.O",
    "Deliverystatus": "Delivery",
    "divisionname": "Balaghat",
    "regionname": "Bhopal HQ",
    "circlename": "Madhya Pradesh",
    "Taluk": "Baihar",
    "Districtname": "Balaghat",
    "statename": "MADHYA PRADESH"
  },
  {
    "pincode": "481105",
    "officename": "Dora B.O",
    "officeType": "B.O",
    "Deliverystatus": "Delivery",
    "divisionname": "Balaghat",
    "regionname": "Bhopal HQ",
    "circlename": "Madhya Pradesh",
    "Taluk": "Baihar",
    "Districtname": "Balaghat",
    "statename": "MADHYA PRADESH"
  },
  {
    "pincode": "481105",
    "officename": "Gudma B.O",
    "officeType": "B.O",
    "Deliverystatus": "Delivery",
    "divisionname": "Balaghat",
    "regionname": "Bhopal HQ",
    "circlename": "Madhya Pradesh",
    "Taluk": "Baihar",
    "Districtname": "Balaghat",
    "statename": "MADHYA PRADESH"
  },
  {
    "pincode": "481105",
    "officename": "Jatta B.O",
    "officeType": "B.O",
    "Deliverystatus": "Delivery",
    "divisionname": "Balaghat",
    "regionname": "Bhopal HQ",
    "circlename": "Madhya Pradesh",
    "Taluk": "Baihar",
    "Districtname": "Balaghat",
    "statename": "MADHYA PRADESH"
  },
  {
    "pincode": "481105",
    "officename": "Kiniya Kandai B.O",
    "officeType": "B.O",
    "Deliverystatus": "Delivery",
    "divisionname": "Balaghat",
    "regionname": "Bhopal HQ",
    "circlename": "Madhya Pradesh",
    "Taluk": "Baihar",
    "Districtname": "Balaghat",
    "statename": "MADHYA PRADESH"
  },
  {
    "pincode": "481105",
    "officename": "Lood B.O",
    "officeType": "B.O",
    "Deliverystatus": "Delivery",
    "divisionname": "Balaghat",
    "regionname": "Bhopal HQ",
    "circlename": "Madhya Pradesh",
    "Taluk": "Baihar",
    "Districtname": "Balaghat",
    "statename": "MADHYA PRADESH"
  },
  {
    "pincode": "481105",
    "officename": "Pondi B.O",
    "officeType": "B.O",
    "Deliverystatus": "Delivery",
    "divisionname": "Balaghat",
    "regionname": "Bhopal HQ",
    "circlename": "Madhya Pradesh",
    "Taluk": "Baihar",
    "Districtname": "Balaghat",
    "statename": "MADHYA PRADESH"
  },
  {
    "pincode": "481105",
    "officename": "Roopjhar B.O",
    "officeType": "B.O",
    "Deliverystatus": "Delivery",
    "divisionname": "Balaghat",
    "regionname": "Bhopal HQ",
    "circlename": "Madhya Pradesh",
    "Taluk": "Baihar",
    "Districtname": "Balaghat",
    "statename": "MADHYA PRADESH"
  },
  {
    "pincode": "481105",
    "officename": "Sonpur B.O",
    "officeType": "B.O",
    "Deliverystatus": "Delivery",
    "divisionname": "Balaghat",
    "regionname": "Bhopal HQ",
    "circlename": "Madhya Pradesh",
    "Taluk": "Baihar",
    "Districtname": "Balaghat",
    "statename": "MADHYA PRADESH"
  },
  {
    "pincode": "481105",
    "officename": "Ukwa S.O",
    "officeType": "S.O",
    "Deliverystatus": "Delivery",
    "divisionname": "Balaghat",
    "regionname": "Bhopal HQ",
    "circlename": "Madhya Pradesh",
    "Taluk": "Balaghat",
    "Districtname": "Balaghat",
    "statename": "MADHYA PRADESH"
  }
]
