[
  {
    "pincode": "481222",
    "officename": "Ameda B.O",
    "officeType": "B.O",
    "Deliverystatus": "Delivery",
    "divisionname": "Balaghat",
    "regionname": "Bhopal HQ",
    "circlename": "Madhya Pradesh",
    "Taluk": "Lanji",
    "Districtname": "Balaghat",
    "statename": "MADHYA PRADESH"
  },
  {
    "pincode": "481222",
    "officename": "Badgaon B.O",
    "officeType": "B.O",
    "Deliverystatus": "Delivery",
    "divisionname": "Balaghat",
    "regionname": "Bhopal HQ",
    "circlename": "Madhya Pradesh",
    "Taluk": "Lanji",
    "Districtname": "Balaghat",
    "statename": "MADHYA PRADESH"
  },
  {
    "pincode": "481222",
    "officename": "Bisoni B.O",
    "officeType": "B.O",
    "Deliverystatus": "Delivery",
    "divisionname": "Balaghat",
    "regionname": "Bhopal HQ",
    "circlename": "Madhya Pradesh",
    "Taluk": "Lanji",
    "Districtname": "Balaghat",
    "statename": "MADHYA PRADESH"
  },
  {
    "pincode": "481222",
    "officename": "Bolegaon B.O",
    "officeType": "B.O",
    "Deliverystatus": "Delivery",
    "divisionname": "Balaghat",
    "regionname": "Bhopal HQ",
    "circlename": "Madhya Pradesh",
    "Taluk": "Lanji",
    "Districtname": "Balaghat",
    "statename": "MADHYA PRADESH"
  },
  {
    "pincode": "481222",
    "officename": "Kalimati B.O",
    "officeType": "B.O",
    "Deliverystatus": "Delivery",
    "divisionname": "Balaghat",
    "regionname": "Bhopal HQ",
    "circlename": "Madhya Pradesh",
    "Taluk": "Lanji",
    "Districtname": "Balaghat",
    "statename": "MADHYA PRADESH"
  },
  {
    "pincode": "481222",
    "officename": "Lanji S.O",
    "officeType": "S.O",
    "Deliverystatus": "Delivery",
    "divisionname": "Balaghat",
    "regionname": "Bhopal HQ",
    "circlename": "Madhya Pradesh",
    "Taluk": "Lanji",
    "Districtname": "Balaghat",
    "statename": "MADHYA PRADESH"
  },
  {
    "pincode": "481222",
    "officename": "Maneri B.O",
    "officeType": "B.O",
    "Deliverystatus": "Delivery",
    "divisionname": "Balaghat",
    "regionname": "Bhopal HQ",
    "circlename": "Madhya Pradesh",
    "Taluk": "Lanji",
    "Districtname": "Balaghat",
    "statename": "MADHYA PRADESH"
  },
  {
    "pincode": "481222",
    "officename": "Nandora B.O",
    "officeType": "B.O",
    "Deliverystatus": "Delivery",
    "divisionname": "Balaghat",
    "regionname": "Bhopal HQ",
    "circlename": "Madhya Pradesh",
    "Taluk": "Lanji",
    "Districtname": "Balaghat",
    "statename": "MADHYA PRADESH"
  },
  {
    "pincode": "481222",
    "officename": "Newarwahi B.O",
    "officeType": "B.O",
    "Deliverystatus": "Delivery",
    "divisionname": "Balaghat",
    "regionname": "Bhopal HQ",
    "circlename": "Madhya Pradesh",
    "Taluk": "Lanji",
    "Districtname": "Balaghat",
    "statename": "MADHYA PRADESH"
  },
  {
    "pincode": "481222",
    "officename": "Pathargaon B.O",
    "officeType": "B.O",
    "Deliverystatus": "Delivery",
    "divisionname": "Balaghat",
    "regionname": "Bhopal HQ",
    "circlename": "Madhya Pradesh",
    "Taluk": "Lanji",
    "Districtname": "Balaghat",
    "statename": "MADHYA PRADESH"
  },
  {
    "pincode": "481222",
    "officename": "Risewara B.O",
    "officeType": "B.O",
    "Deliverystatus": "Delivery",
    "divisionname": "Balaghat",
    "regionname": "Bhopal HQ",
    "circlename": "Madhya Pradesh",
    "Taluk": "Lanji",
    "Districtname": "Balaghat",
    "statename": "MADHYA PRADESH"
  },
  {
    "pincode": "481222",
    "officename": "Sawari B.O",
    "officeType": "B.O",
    "Deliverystatus": "Delivery",
    "divisionname": "Balaghat",
    "regionname": "Bhopal HQ",
    "circlename": "Madhya Pradesh",
    "Taluk": "Lanji",
    "Districtname": "Balaghat",
    "statename": "MADHYA PRADESH"
  },
  {
    "pincode": "481222",
    "officename": "Sonarkakodi B.O",
    "officeType": "B.O",
    "Deliverystatus": "Delivery",
    "divisionname": "Balaghat",
    "regionname": "Bhopal HQ",
    "circlename": "Madhya Pradesh",
    "Taluk": "Lanji",
    "Districtname": "Balaghat",
    "statename": "MADHYA PRADESH"
  }
]
