[
  {
    "pincode": "481226",
    "officename": "Beni B.O",
    "officeType": "B.O",
    "Deliverystatus": "Delivery",
    "divisionname": "Balaghat",
    "regionname": "Bhopal HQ",
    "circlename": "Madhya Pradesh",
    "Taluk": "Khairlanji",
    "Districtname": "Balaghat",
    "statename": "MADHYA PRADESH"
  },
  {
    "pincode": "481226",
    "officename": "Budhi B.O",
    "officeType": "B.O",
    "Deliverystatus": "Delivery",
    "divisionname": "Balaghat",
    "regionname": "Bhopal HQ",
    "circlename": "Madhya Pradesh",
    "Taluk": "Kirnapur",
    "Districtname": "Balaghat",
    "statename": "MADHYA PRADESH"
  },
  {
    "pincode": "481226",
    "officename": "Chikhla B.O",
    "officeType": "B.O",
    "Deliverystatus": "Delivery",
    "divisionname": "Balaghat",
    "regionname": "Bhopal HQ",
    "circlename": "Madhya Pradesh",
    "Taluk": "Kirnapur",
    "Districtname": "Balaghat",
    "statename": "MADHYA PRADESH"
  },
  {
    "pincode": "481226",
    "officename": "Hatta Road B.O",
    "officeType": "B.O",
    "Deliverystatus": "Delivery",
    "divisionname": "Balaghat",
    "regionname": "Bhopal HQ",
    "circlename": "Madhya Pradesh",
    "Taluk": "Kirnapur",
    "Districtname": "Balaghat",
    "statename": "MADHYA PRADESH"
  },
  {
    "pincode": "481226",
    "officename": "Hatta S.O (Balaghat)",
    "officeType": "S.O",
    "Deliverystatus": "Delivery",
    "divisionname": "Balaghat",
    "regionname": "Bhopal HQ",
    "circlename": "Madhya Pradesh",
    "Taluk": "Kirnapur",
    "Districtname": "Balaghat",
    "statename": "MADHYA PRADESH"
  },
  {
    "pincode": "481226",
    "officename": "Kariadand B.O",
    "officeType": "B.O",
    "Deliverystatus": "Delivery",
    "divisionname": "Balaghat",
    "regionname": "Bhopal HQ",
    "circlename": "Madhya Pradesh",
    "Taluk": "Kirnapur",
    "Districtname": "Balaghat",
    "statename": "MADHYA PRADESH"
  },
  {
    "pincode": "481226",
    "officename": "Keshalewada B.O",
    "officeType": "B.O",
    "Deliverystatus": "Delivery",
    "divisionname": "Balaghat",
    "regionname": "Bhopal HQ",
    "circlename": "Madhya Pradesh",
    "Taluk": "Kirnapur",
    "Districtname": "Balaghat",
    "statename": "MADHYA PRADESH"
  },
  {
    "pincode": "481226",
    "officename": "Khara B.O",
    "officeType": "B.O",
    "Deliverystatus": "Delivery",
    "divisionname": "Balaghat",
    "regionname": "Bhopal HQ",
    "circlename": "Madhya Pradesh",
    "Taluk": "Kirnapur",
    "Districtname": "Balaghat",
    "statename": "MADHYA PRADESH"
  },
  {
    "pincode": "481226",
    "officename": "Mate B.O",
    "officeType": "B.O",
    "Deliverystatus": "Delivery",
    "divisionname": "Balaghat",
    "regionname": "Bhopal HQ",
    "circlename": "Madhya Pradesh",
    "Taluk": "Kirnapur",
    "Districtname": "Balaghat",
    "statename": "MADHYA PRADESH"
  },
  {
    "pincode": "481226",
    "officename": "Mauda B.O",
    "officeType": "B.O",
    "Deliverystatus": "Delivery",
    "divisionname": "Balaghat",
    "regionname": "Bhopal HQ",
    "circlename": "Madhya Pradesh",
    "Taluk": "Kirnapur",
    "Districtname": "Balaghat",
    "statename": "MADHYA PRADESH"
  },
  {
    "pincode": "481226",
    "officename": "Mohgaon-khurd B.O",
    "officeType": "B.O",
    "Deliverystatus": "Delivery",
    "divisionname": "Balaghat",
    "regionname": "Bhopal HQ",
    "circlename": "Madhya Pradesh",
    "Taluk": "Kirnapur",
    "Districtname": "Balaghat",
    "statename": "MADHYA PRADESH"
  },
  {
    "pincode": "481226",
    "officename": "Newargaon Kala B.O",
    "officeType": "B.O",
    "Deliverystatus": "Delivery",
    "divisionname": "Balaghat",
    "regionname": "Bhopal HQ",
    "circlename": "Madhya Pradesh",
    "Taluk": "Kirnapur",
    "Districtname": "Balaghat",
    "statename": "MADHYA PRADESH"
  },
  {
    "pincode": "481226",
    "officename": "Saleteka B.O",
    "officeType": "B.O",
    "Deliverystatus": "Delivery",
    "divisionname": "Balaghat",
    "regionname": "Bhopal HQ",
    "circlename": "Madhya Pradesh",
    "Taluk": "Kirnapur",
    "Districtname": "Balaghat",
    "statename": "MADHYA PRADESH"
  },
  {
    "pincode": "481226",
    "officename": "Seoni Sarad B.O",
    "officeType": "B.O",
    "Deliverystatus": "Delivery",
    "divisionname": "Balaghat",
    "regionname": "Bhopal HQ",
    "circlename": "Madhya Pradesh",
    "Taluk": "Seoni",
    "Districtname": "Seoni",
    "statename": "MADHYA PRADESH"
  }
]
