[
  {
    "pincode": "481335",
    "officename": "Amai B.O",
    "officeType": "B.O",
    "Deliverystatus": "Delivery",
    "divisionname": "Balaghat",
    "regionname": "Bhopal HQ",
    "circlename": "Madhya Pradesh",
    "Taluk": "Waraseoni",
    "Districtname": "Balaghat",
    "statename": "MADHYA PRADESH"
  },
  {
    "pincode": "481335",
    "officename": "Arambha B.O",
    "officeType": "B.O",
    "Deliverystatus": "Delivery",
    "divisionname": "Balaghat",
    "regionname": "Bhopal HQ",
    "circlename": "Madhya Pradesh",
    "Taluk": "Waraseoni",
    "Districtname": "Balaghat",
    "statename": "MADHYA PRADESH"
  },
  {
    "pincode": "481335",
    "officename": "Bakera B.O",
    "officeType": "B.O",
    "Deliverystatus": "Delivery",
    "divisionname": "Balaghat",
    "regionname": "Bhopal HQ",
    "circlename": "Madhya Pradesh",
    "Taluk": "Waraseoni",
    "Districtname": "Balaghat",
    "statename": "MADHYA PRADESH"
  },
  {
    "pincode": "481335",
    "officename": "Bhendara B.O",
    "officeType": "B.O",
    "Deliverystatus": "Delivery",
    "divisionname": "Balaghat",
    "regionname": "Bhopal HQ",
    "circlename": "Madhya Pradesh",
    "Taluk": "Waraseoni",
    "Districtname": "Balaghat",
    "statename": "MADHYA PRADESH"
  },
  {
    "pincode": "481335",
    "officename": "Chikhla Bandh B.O",
    "officeType": "B.O",
    "Deliverystatus": "Delivery",
    "divisionname": "Balaghat",
    "regionname": "Bhopal HQ",
    "circlename": "Madhya Pradesh",
    "Taluk": "Waraseoni",
    "Districtname": "Balaghat",
    "statename": "MADHYA PRADESH"
  },
  {
    "pincode": "481335",
    "officename": "Ghoti B.O",
    "officeType": "B.O",
    "Deliverystatus": "Delivery",
    "divisionname": "Balaghat",
    "regionname": "Bhopal HQ",
    "circlename": "Madhya Pradesh",
    "Taluk": "Waraseoni",
    "Districtname": "Balaghat",
    "statename": "MADHYA PRADESH"
  },
  {
    "pincode": "481335",
    "officename": "Khadkhadi B.O",
    "officeType": "B.O",
    "Deliverystatus": "Delivery",
    "divisionname": "Balaghat",
    "regionname": "Bhopal HQ",
    "circlename": "Madhya Pradesh",
    "Taluk": "Waraseoni",
    "Districtname": "Balaghat",
    "statename": "MADHYA PRADESH"
  },
  {
    "pincode": "481335",
    "officename": "Kothurna B.O",
    "officeType": "B.O",
    "Deliverystatus": "Delivery",
    "divisionname": "Balaghat",
    "regionname": "Bhopal HQ",
    "circlename": "Madhya Pradesh",
    "Taluk": "Waraseoni",
    "Districtname": "Balaghat",
    "statename": "MADHYA PRADESH"
  },
  {
    "pincode": "481335",
    "officename": "Lalpur B.O",
    "officeType": "B.O",
    "Deliverystatus": "Delivery",
    "divisionname": "Balaghat",
    "regionname": "Bhopal HQ",
    "circlename": "Madhya Pradesh",
    "Taluk": "Waraseoni",
    "Districtname": "Balaghat",
    "statename": "MADHYA PRADESH"
  },
  {
    "pincode": "481335",
    "officename": "Lawni B.O",
    "officeType": "B.O",
    "Deliverystatus": "Delivery",
    "divisionname": "Balaghat",
    "regionname": "Bhopal HQ",
    "circlename": "Madhya Pradesh",
    "Taluk": "Waraseoni",
    "Districtname": "Balaghat",
    "statename": "MADHYA PRADESH"
  },
  {
    "pincode": "481335",
    "officename": "Navegaon-3 B.O",
    "officeType": "B.O",
    "Deliverystatus": "Delivery",
    "divisionname": "Balaghat",
    "regionname": "Bhopal HQ",
    "circlename": "Madhya Pradesh",
    "Taluk": "Waraseoni",
    "Districtname": "Balaghat",
    "statename": "MADHYA PRADESH"
  },
  {
    "pincode": "481335",
    "officename": "Rampaily S.O",
    "officeType": "S.O",
    "Deliverystatus": "Delivery",
    "divisionname": "Balaghat",
    "regionname": "Bhopal HQ",
    "circlename": "Madhya Pradesh",
    "Taluk": "Waraseoni",
    "Districtname": "Balaghat",
    "statename": "MADHYA PRADESH"
  },
  {
    "pincode": "481335",
    "officename": "Salebardi B.O",
    "officeType": "B.O",
    "Deliverystatus": "Delivery",
    "divisionname": "Balaghat",
    "regionname": "Bhopal HQ",
    "circlename": "Madhya Pradesh",
    "Taluk": "Waraseoni",
    "Districtname": "Balaghat",
    "statename": "MADHYA PRADESH"
  }
]
