[
  {
    "pincode": "481332",
    "officename": "Agri B.O",
    "officeType": "B.O",
    "Deliverystatus": "Delivery",
    "divisionname": "Balaghat",
    "regionname": "Bhopal HQ",
    "circlename": "Madhya Pradesh",
    "Taluk": "Katangi",
    "Districtname": "Balaghat",
    "statename": "MADHYA PRADESH"
  },
  {
    "pincode": "481332",
    "officename": "Budbuda S.O",
    "officeType": "S.O",
    "Deliverystatus": "Delivery",
    "divisionname": "Balaghat",
    "regionname": "Bhopal HQ",
    "circlename": "Madhya Pradesh",
    "Taluk": "Waraseoni",
    "Districtname": "Balaghat",
    "statename": "MADHYA PRADESH"
  },
  {
    "pincode": "481332",
    "officename": "Jarah Mohgaon B.O",
    "officeType": "B.O",
    "Deliverystatus": "Delivery",
    "divisionname": "Balaghat",
    "regionname": "Bhopal HQ",
    "circlename": "Madhya Pradesh",
    "Taluk": "Katangi",
    "Districtname": "Balaghat",
    "statename": "MADHYA PRADESH"
  },
  {
    "pincode": "481332",
    "officename": "Katanjhari B.O",
    "officeType": "B.O",
    "Deliverystatus": "Delivery",
    "divisionname": "Balaghat",
    "regionname": "Bhopal HQ",
    "circlename": "Madhya Pradesh",
    "Taluk": "Lalbarra",
    "Districtname": "Balaghat",
    "statename": "MADHYA PRADESH"
  },
  {
    "pincode": "481332",
    "officename": "Kochewahi B.O",
    "officeType": "B.O",
    "Deliverystatus": "Delivery",
    "divisionname": "Balaghat",
    "regionname": "Bhopal HQ",
    "circlename": "Madhya Pradesh",
    "Taluk": "Waraseoni",
    "Districtname": "Balaghat",
    "statename": "MADHYA PRADESH"
  },
  {
    "pincode": "481332",
    "officename": "Ramrama B.O",
    "officeType": "B.O",
    "Deliverystatus": "Delivery",
    "divisionname": "Balaghat",
    "regionname": "Bhopal HQ",
    "circlename": "Madhya Pradesh",
    "Taluk": "Waraseoni",
    "Districtname": "Balaghat",
    "statename": "MADHYA PRADESH"
  },
  {
    "pincode": "481332",
    "officename": "Sawan R.S. B.O",
    "officeType": "B.O",
    "Deliverystatus": "Delivery",
    "divisionname": "Balaghat",
    "regionname": "Bhopal HQ",
    "circlename": "Madhya Pradesh",
    "Taluk": "Waraseoni",
    "Districtname": "Balaghat",
    "statename": "MADHYA PRADESH"
  },
  {
    "pincode": "481332",
    "officename": "Sirpur B.O",
    "officeType": "B.O",
    "Deliverystatus": "Delivery",
    "divisionname": "Balaghat",
    "regionname": "Bhopal HQ",
    "circlename": "Madhya Pradesh",
    "Taluk": "Katangi",
    "Districtname": "Balaghat",
    "statename": "MADHYA PRADESH"
  }
]
