[
  {
    "pincode": "481663",
    "officename": "Chubhawal B.O",
    "officeType": "B.O",
    "Deliverystatus": "Delivery",
    "divisionname": "Balaghat",
    "regionname": "Bhopal HQ",
    "circlename": "Madhya Pradesh",
    "Taluk": "Mandla",
    "Districtname": "Mandla",
    "statename": "MADHYA PRADESH"
  },
  {
    "pincode": "481663",
    "officename": "Deogaon B.O",
    "officeType": "B.O",
    "Deliverystatus": "Delivery",
    "divisionname": "Balaghat",
    "regionname": "Bhopal HQ",
    "circlename": "Madhya Pradesh",
    "Taluk": "Mandla",
    "Districtname": "Mandla",
    "statename": "MADHYA PRADESH"
  },
  {
    "pincode": "481663",
    "officename": "Kauwadongri B.O",
    "officeType": "B.O",
    "Deliverystatus": "Delivery",
    "divisionname": "Balaghat",
    "regionname": "Bhopal HQ",
    "circlename": "Madhya Pradesh",
    "Taluk": "Mandla",
    "Districtname": "Mandla",
    "statename": "MADHYA PRADESH"
  },
  {
    "pincode": "481663",
    "officename": "Machhala B.O",
    "officeType": "B.O",
    "Deliverystatus": "Delivery",
    "divisionname": "Balaghat",
    "regionname": "Bhopal HQ",
    "circlename": "Madhya Pradesh",
    "Taluk": "Mandla",
    "Districtname": "Mandla",
    "statename": "MADHYA PRADESH"
  },
  {
    "pincode": "481663",
    "officename": "Mohgaon S.O",
    "officeType": "S.O",
    "Deliverystatus": "Delivery",
    "divisionname": "Balaghat",
    "regionname": "Bhopal HQ",
    "circlename": "Madhya Pradesh",
    "Taluk": "Mandla",
    "Districtname": "Mandla",
    "statename": "MADHYA PRADESH"
  },
  {
    "pincode": "481663",
    "officename": "Munu B.O",
    "officeType": "B.O",
    "Deliverystatus": "Delivery",
    "divisionname": "Balaghat",
    "regionname": "Bhopal HQ",
    "circlename": "Madhya Pradesh",
    "Taluk": "Mandla",
    "Districtname": "Mandla",
    "statename": "MADHYA PRADESH"
  },
  {
    "pincode": "481663",
    "officename": "Singarpur B.O",
    "officeType": "B.O",
    "Deliverystatus": "Delivery",
    "divisionname": "Balaghat",
    "regionname": "Bhopal HQ",
    "circlename": "Madhya Pradesh",
    "Taluk": "Mandla",
    "Districtname": "Mandla",
    "statename": "MADHYA PRADESH"
  },
  {
    "pincode": "481663",
    "officename": "Umardih B.O",
    "officeType": "B.O",
    "Deliverystatus": "Delivery",
    "divisionname": "Balaghat",
    "regionname": "Bhopal HQ",
    "circlename": "Madhya Pradesh",
    "Taluk": "Mandla",
    "Districtname": "Mandla",
    "statename": "MADHYA PRADESH"
  }
]
