[
  {
    "pincode": "481662",
    "officename": "Bamnhi Bhawal B.O",
    "officeType": "B.O",
    "Deliverystatus": "Delivery",
    "divisionname": "Balaghat",
    "regionname": "Bhopal HQ",
    "circlename": "Madhya Pradesh",
    "Taluk": "Niwas",
    "Districtname": "Mandla",
    "statename": "MADHYA PRADESH"
  },
  {
    "pincode": "481662",
    "officename": "Barwahi B.O",
    "officeType": "B.O",
    "Deliverystatus": "Delivery",
    "divisionname": "Balaghat",
    "regionname": "Bhopal HQ",
    "circlename": "Madhya Pradesh",
    "Taluk": "Niwas",
    "Districtname": "Mandla",
    "statename": "MADHYA PRADESH"
  },
  {
    "pincode": "481662",
    "officename": "Bhartipur B.O",
    "officeType": "B.O",
    "Deliverystatus": "Delivery",
    "divisionname": "Balaghat",
    "regionname": "Bhopal HQ",
    "circlename": "Madhya Pradesh",
    "Taluk": "Niwas",
    "Districtname": "Mandla",
    "statename": "MADHYA PRADESH"
  },
  {
    "pincode": "481662",
    "officename": "Bijegaon B.O",
    "officeType": "B.O",
    "Deliverystatus": "Delivery",
    "divisionname": "Balaghat",
    "regionname": "Bhopal HQ",
    "circlename": "Madhya Pradesh",
    "Taluk": "Niwas",
    "Districtname": "Mandla",
    "statename": "MADHYA PRADESH"
  },
  {
    "pincode": "481662",
    "officename": "Borgaon B.O",
    "officeType": "B.O",
    "Deliverystatus": "Delivery",
    "divisionname": "Balaghat",
    "regionname": "Bhopal HQ",
    "circlename": "Madhya Pradesh",
    "Taluk": "Niwas",
    "Districtname": "Mandla",
    "statename": "MADHYA PRADESH"
  },
  {
    "pincode": "481662",
    "officename": "Chirai Dongri B.O",
    "officeType": "B.O",
    "Deliverystatus": "Delivery",
    "divisionname": "Balaghat",
    "regionname": "Bhopal HQ",
    "circlename": "Madhya Pradesh",
    "Taluk": "Niwas",
    "Districtname": "Mandla",
    "statename": "MADHYA PRADESH"
  },
  {
    "pincode": "481662",
    "officename": "Kalpi B.O",
    "officeType": "B.O",
    "Deliverystatus": "Delivery",
    "divisionname": "Balaghat",
    "regionname": "Bhopal HQ",
    "circlename": "Madhya Pradesh",
    "Taluk": "Niwas",
    "Districtname": "Mandla",
    "statename": "MADHYA PRADESH"
  },
  {
    "pincode": "481662",
    "officename": "Kudameli B.O",
    "officeType": "B.O",
    "Deliverystatus": "Delivery",
    "divisionname": "Balaghat",
    "regionname": "Bhopal HQ",
    "circlename": "Madhya Pradesh",
    "Taluk": "Niwas",
    "Districtname": "Mandla",
    "statename": "MADHYA PRADESH"
  },
  {
    "pincode": "481662",
    "officename": "Lawarmundia B.O",
    "officeType": "B.O",
    "Deliverystatus": "Delivery",
    "divisionname": "Balaghat",
    "regionname": "Bhopal HQ",
    "circlename": "Madhya Pradesh",
    "Taluk": "Niwas",
    "Districtname": "Mandla",
    "statename": "MADHYA PRADESH"
  },
  {
    "pincode": "481662",
    "officename": "Padariyanarayan Ganj S.O",
    "officeType": "S.O",
    "Deliverystatus": "Delivery",
    "divisionname": "Balaghat",
    "regionname": "Bhopal HQ",
    "circlename": "Madhya Pradesh",
    "Taluk": "Niwas",
    "Districtname": "Mandla",
    "statename": "MADHYA PRADESH"
  },
  {
    "pincode": "481662",
    "officename": "Pandiwada B.O",
    "officeType": "B.O",
    "Deliverystatus": "Delivery",
    "divisionname": "Balaghat",
    "regionname": "Bhopal HQ",
    "circlename": "Madhya Pradesh",
    "Taluk": "Niwas",
    "Districtname": "Mandla",
    "statename": "MADHYA PRADESH"
  },
  {
    "pincode": "481662",
    "officename": "Patha B.O",
    "officeType": "B.O",
    "Deliverystatus": "Delivery",
    "divisionname": "Balaghat",
    "regionname": "Bhopal HQ",
    "circlename": "Madhya Pradesh",
    "Taluk": "Niwas",
    "Districtname": "Mandla",
    "statename": "MADHYA PRADESH"
  },
  {
    "pincode": "481662",
    "officename": "Piparia (B) B.O",
    "officeType": "B.O",
    "Deliverystatus": "Delivery",
    "divisionname": "Balaghat",
    "regionname": "Bhopal HQ",
    "circlename": "Madhya Pradesh",
    "Taluk": "Niwas",
    "Districtname": "Mandla",
    "statename": "MADHYA PRADESH"
  },
  {
    "pincode": "481662",
    "officename": "Poninagrar B.O",
    "officeType": "B.O",
    "Deliverystatus": "Delivery",
    "divisionname": "Balaghat",
    "regionname": "Bhopal HQ",
    "circlename": "Madhya Pradesh",
    "Taluk": "Niwas",
    "Districtname": "Mandla",
    "statename": "MADHYA PRADESH"
  },
  {
    "pincode": "481662",
    "officename": "Udaipur B.O",
    "officeType": "B.O",
    "Deliverystatus": "Delivery",
    "divisionname": "Balaghat",
    "regionname": "Bhopal HQ",
    "circlename": "Madhya Pradesh",
    "Taluk": "Niwas",
    "Districtname": "Mandla",
    "statename": "MADHYA PRADESH"
  }
]
