[
  {
    "pincode": "481771",
    "officename": "Bamni S.O",
    "officeType": "S.O",
    "Deliverystatus": "Delivery",
    "divisionname": "Balaghat",
    "regionname": "Bhopal HQ",
    "circlename": "Madhya Pradesh",
    "Taluk": "Mandla",
    "Districtname": "Mandla",
    "statename": "MADHYA PRADESH"
  },
  {
    "pincode": "481771",
    "officename": "Dhenko B.O",
    "officeType": "B.O",
    "Deliverystatus": "Delivery",
    "divisionname": "Balaghat",
    "regionname": "Bhopal HQ",
    "circlename": "Madhya Pradesh",
    "Taluk": "Mandla",
    "Districtname": "Mandla",
    "statename": "MADHYA PRADESH"
  },
  {
    "pincode": "481771",
    "officename": "Jaharmau B.O",
    "officeType": "B.O",
    "Deliverystatus": "Delivery",
    "divisionname": "Balaghat",
    "regionname": "Bhopal HQ",
    "circlename": "Madhya Pradesh",
    "Taluk": "Nainpur",
    "Districtname": "Mandla",
    "statename": "MADHYA PRADESH"
  },
  {
    "pincode": "481771",
    "officename": "Kakaiya B.O",
    "officeType": "B.O",
    "Deliverystatus": "Delivery",
    "divisionname": "Balaghat",
    "regionname": "Bhopal HQ",
    "circlename": "Madhya Pradesh",
    "Taluk": "Bhuabichhiya",
    "Districtname": "Mandla",
    "statename": "MADHYA PRADESH"
  },
  {
    "pincode": "481771",
    "officename": "Lafra B.O",
    "officeType": "B.O",
    "Deliverystatus": "Delivery",
    "divisionname": "Balaghat",
    "regionname": "Bhopal HQ",
    "circlename": "Madhya Pradesh",
    "Taluk": "Bhuabichhiya",
    "Districtname": "Mandla",
    "statename": "MADHYA PRADESH"
  },
  {
    "pincode": "481771",
    "officename": "Limarua B.O",
    "officeType": "B.O",
    "Deliverystatus": "Delivery",
    "divisionname": "Balaghat",
    "regionname": "Bhopal HQ",
    "circlename": "Madhya Pradesh",
    "Taluk": "Mandla",
    "Districtname": "Mandla",
    "statename": "MADHYA PRADESH"
  },
  {
    "pincode": "481771",
    "officename": "Mugdara B.O",
    "officeType": "B.O",
    "Deliverystatus": "Delivery",
    "divisionname": "Balaghat",
    "regionname": "Bhopal HQ",
    "circlename": "Madhya Pradesh",
    "Taluk": "Nainpur",
    "Districtname": "Mandla",
    "statename": "MADHYA PRADESH"
  },
  {
    "pincode": "481771",
    "officename": "Silgi B.O",
    "officeType": "B.O",
    "Deliverystatus": "Delivery",
    "divisionname": "Balaghat",
    "regionname": "Bhopal HQ",
    "circlename": "Madhya Pradesh",
    "Taluk": "Mandla",
    "Districtname": "Mandla",
    "statename": "MADHYA PRADESH"
  }
]
