[
  {
    "pincode": "481884",
    "officename": "Bhusanda B.O",
    "officeType": "B.O",
    "Deliverystatus": "Delivery",
    "divisionname": "Balaghat",
    "regionname": "Bhopal HQ",
    "circlename": "Madhya Pradesh",
    "Taluk": "Dindori",
    "Districtname": "Dindori",
    "statename": "MADHYA PRADESH"
  },
  {
    "pincode": "481884",
    "officename": "Bondar B.O",
    "officeType": "B.O",
    "Deliverystatus": "Delivery",
    "divisionname": "Balaghat",
    "regionname": "Bhopal HQ",
    "circlename": "Madhya Pradesh",
    "Taluk": "Dindori",
    "Districtname": "Dindori",
    "statename": "MADHYA PRADESH"
  },
  {
    "pincode": "481884",
    "officename": "Gopalpur B.O",
    "officeType": "B.O",
    "Deliverystatus": "Delivery",
    "divisionname": "Balaghat",
    "regionname": "Bhopal HQ",
    "circlename": "Madhya Pradesh",
    "Taluk": "Dindori",
    "Districtname": "Dindori",
    "statename": "MADHYA PRADESH"
  },
  {
    "pincode": "481884",
    "officename": "Gorakhpur S.O",
    "officeType": "S.O",
    "Deliverystatus": "Delivery",
    "divisionname": "Balaghat",
    "regionname": "Bhopal HQ",
    "circlename": "Madhya Pradesh",
    "Taluk": "Dindori",
    "Districtname": "Dindori",
    "statename": "MADHYA PRADESH"
  },
  {
    "pincode": "481884",
    "officename": "Jhanki B.O",
    "officeType": "B.O",
    "Deliverystatus": "Delivery",
    "divisionname": "Balaghat",
    "regionname": "Bhopal HQ",
    "circlename": "Madhya Pradesh",
    "Taluk": "Dindori",
    "Districtname": "Dindori",
    "statename": "MADHYA PRADESH"
  },
  {
    "pincode": "481884",
    "officename": "Jugdehi B.O",
    "officeType": "B.O",
    "Deliverystatus": "Delivery",
    "divisionname": "Balaghat",
    "regionname": "Bhopal HQ",
    "circlename": "Madhya Pradesh",
    "Taluk": "Dindori",
    "Districtname": "Dindori",
    "statename": "MADHYA PRADESH"
  },
  {
    "pincode": "481884",
    "officename": "Karanjia B.O",
    "officeType": "B.O",
    "Deliverystatus": "Delivery",
    "divisionname": "Balaghat",
    "regionname": "Bhopal HQ",
    "circlename": "Madhya Pradesh",
    "Taluk": "Dindori",
    "Districtname": "Dindori",
    "statename": "MADHYA PRADESH"
  },
  {
    "pincode": "481884",
    "officename": "Mendakhar B.O",
    "officeType": "B.O",
    "Deliverystatus": "Delivery",
    "divisionname": "Balaghat",
    "regionname": "Bhopal HQ",
    "circlename": "Madhya Pradesh",
    "Taluk": "Dindori",
    "Districtname": "Dindori",
    "statename": "MADHYA PRADESH"
  },
  {
    "pincode": "481884",
    "officename": "Parsel B.O",
    "officeType": "B.O",
    "Deliverystatus": "Delivery",
    "divisionname": "Balaghat",
    "regionname": "Bhopal HQ",
    "circlename": "Madhya Pradesh",
    "Taluk": "Dindori",
    "Districtname": "Dindori",
    "statename": "MADHYA PRADESH"
  },
  {
    "pincode": "481884",
    "officename": "Patangarh B.O",
    "officeType": "B.O",
    "Deliverystatus": "Delivery",
    "divisionname": "Balaghat",
    "regionname": "Bhopal HQ",
    "circlename": "Madhya Pradesh",
    "Taluk": "Dindori",
    "Districtname": "Dindori",
    "statename": "MADHYA PRADESH"
  },
  {
    "pincode": "481884",
    "officename": "Raitwar B.O",
    "officeType": "B.O",
    "Deliverystatus": "Delivery",
    "divisionname": "Balaghat",
    "regionname": "Bhopal HQ",
    "circlename": "Madhya Pradesh",
    "Taluk": "Dindori",
    "Districtname": "Dindori",
    "statename": "MADHYA PRADESH"
  },
  {
    "pincode": "481884",
    "officename": "Rusha Raitwar B.O",
    "officeType": "B.O",
    "Deliverystatus": "Delivery",
    "divisionname": "Balaghat",
    "regionname": "Bhopal HQ",
    "circlename": "Madhya Pradesh",
    "Taluk": "Dindori",
    "Districtname": "Dindori",
    "statename": "MADHYA PRADESH"
  }
]
