[
  {
    "pincode": "481879",
    "officename": "Ajawar B.O",
    "officeType": "B.O",
    "Deliverystatus": "Delivery",
    "divisionname": "Balaghat",
    "regionname": "Bhopal HQ",
    "circlename": "Madhya Pradesh",
    "Taluk": "Dindori",
    "Districtname": "Dindori",
    "statename": "MADHYA PRADESH"
  },
  {
    "pincode": "481879",
    "officename": "Amani Piparia B.O",
    "officeType": "B.O",
    "Deliverystatus": "Delivery",
    "divisionname": "Balaghat",
    "regionname": "Bhopal HQ",
    "circlename": "Madhya Pradesh",
    "Taluk": "Dindori",
    "Districtname": "Dindori",
    "statename": "MADHYA PRADESH"
  },
  {
    "pincode": "481879",
    "officename": "Amera B.O",
    "officeType": "B.O",
    "Deliverystatus": "Delivery",
    "divisionname": "Balaghat",
    "regionname": "Bhopal HQ",
    "circlename": "Madhya Pradesh",
    "Taluk": "Dindori",
    "Districtname": "Dindori",
    "statename": "MADHYA PRADESH"
  },
  {
    "pincode": "481879",
    "officename": "Barchha B.O",
    "officeType": "B.O",
    "Deliverystatus": "Delivery",
    "divisionname": "Balaghat",
    "regionname": "Bhopal HQ",
    "circlename": "Madhya Pradesh",
    "Taluk": "Dindori",
    "Districtname": "Dindori",
    "statename": "MADHYA PRADESH"
  },
  {
    "pincode": "481879",
    "officename": "Darri Mohgaon B.O",
    "officeType": "B.O",
    "Deliverystatus": "Delivery",
    "divisionname": "Balaghat",
    "regionname": "Bhopal HQ",
    "circlename": "Madhya Pradesh",
    "Taluk": "Dindori",
    "Districtname": "Dindori",
    "statename": "MADHYA PRADESH"
  },
  {
    "pincode": "481879",
    "officename": "Duhania B.O",
    "officeType": "B.O",
    "Deliverystatus": "Delivery",
    "divisionname": "Balaghat",
    "regionname": "Bhopal HQ",
    "circlename": "Madhya Pradesh",
    "Taluk": "Dindori",
    "Districtname": "Dindori",
    "statename": "MADHYA PRADESH"
  },
  {
    "pincode": "481879",
    "officename": "Dullopur B.O",
    "officeType": "B.O",
    "Deliverystatus": "Delivery",
    "divisionname": "Balaghat",
    "regionname": "Bhopal HQ",
    "circlename": "Madhya Pradesh",
    "Taluk": "Dindori",
    "Districtname": "Dindori",
    "statename": "MADHYA PRADESH"
  },
  {
    "pincode": "481879",
    "officename": "Ghusia B.O",
    "officeType": "B.O",
    "Deliverystatus": "Delivery",
    "divisionname": "Balaghat",
    "regionname": "Bhopal HQ",
    "circlename": "Madhya Pradesh",
    "Taluk": "Dindori",
    "Districtname": "Dindori",
    "statename": "MADHYA PRADESH"
  },
  {
    "pincode": "481879",
    "officename": "Jamgaon B.O",
    "officeType": "B.O",
    "Deliverystatus": "Delivery",
    "divisionname": "Balaghat",
    "regionname": "Bhopal HQ",
    "circlename": "Madhya Pradesh",
    "Taluk": "Dindori",
    "Districtname": "Dindori",
    "statename": "MADHYA PRADESH"
  },
  {
    "pincode": "481879",
    "officename": "Marwari B.O",
    "officeType": "B.O",
    "Deliverystatus": "Delivery",
    "divisionname": "Balaghat",
    "regionname": "Bhopal HQ",
    "circlename": "Madhya Pradesh",
    "Taluk": "Shahpura",
    "Districtname": "Dindori",
    "statename": "MADHYA PRADESH"
  },
  {
    "pincode": "481879",
    "officename": "Rampuri B.O",
    "officeType": "B.O",
    "Deliverystatus": "Delivery",
    "divisionname": "Balaghat",
    "regionname": "Bhopal HQ",
    "circlename": "Madhya Pradesh",
    "Taluk": "Shahpura Niwas",
    "Districtname": "Dindori",
    "statename": "MADHYA PRADESH"
  },
  {
    "pincode": "481879",
    "officename": "Sarastal B.O",
    "officeType": "B.O",
    "Deliverystatus": "Delivery",
    "divisionname": "Balaghat",
    "regionname": "Bhopal HQ",
    "circlename": "Madhya Pradesh",
    "Taluk": "Dindori",
    "Districtname": "Dindori",
    "statename": "MADHYA PRADESH"
  },
  {
    "pincode": "481879",
    "officename": "Shahpur S.O (Dindori)",
    "officeType": "S.O",
    "Deliverystatus": "Delivery",
    "divisionname": "Balaghat",
    "regionname": "Bhopal HQ",
    "circlename": "Madhya Pradesh",
    "Taluk": "Dindori",
    "Districtname": "Dindori",
    "statename": "MADHYA PRADESH"
  },
  {
    "pincode": "481879",
    "officename": "Silhari B.O",
    "officeType": "B.O",
    "Deliverystatus": "Delivery",
    "divisionname": "Balaghat",
    "regionname": "Bhopal HQ",
    "circlename": "Madhya Pradesh",
    "Taluk": "Dindori",
    "Districtname": "Dindori",
    "statename": "MADHYA PRADESH"
  },
  {
    "pincode": "481879",
    "officename": "Tendumer Mohtara B.O",
    "officeType": "B.O",
    "Deliverystatus": "Delivery",
    "divisionname": "Balaghat",
    "regionname": "Bhopal HQ",
    "circlename": "Madhya Pradesh",
    "Taluk": "Dindori",
    "Districtname": "Dindori",
    "statename": "MADHYA PRADESH"
  },
  {
    "pincode": "481879",
    "officename": "Tikari Pipari B.O",
    "officeType": "B.O",
    "Deliverystatus": "Delivery",
    "divisionname": "Balaghat",
    "regionname": "Bhopal HQ",
    "circlename": "Madhya Pradesh",
    "Taluk": "Dindori",
    "Districtname": "Dindori",
    "statename": "MADHYA PRADESH"
  },
  {
    "pincode": "481879",
    "officename": "Vikrampur B.O",
    "officeType": "B.O",
    "Deliverystatus": "Delivery",
    "divisionname": "Balaghat",
    "regionname": "Bhopal HQ",
    "circlename": "Madhya Pradesh",
    "Taluk": "Dindori",
    "Districtname": "Dindori",
    "statename": "MADHYA PRADESH"
  }
]
