[
  {
    "pincode": "481996",
    "officename": "Bhimdongari B.O",
    "officeType": "B.O",
    "Deliverystatus": "Delivery",
    "divisionname": "Balaghat",
    "regionname": "Bhopal HQ",
    "circlename": "Madhya Pradesh",
    "Taluk": "Bhuabichhia",
    "Districtname": "Mandla",
    "statename": "MADHYA PRADESH"
  },
  {
    "pincode": "481996",
    "officename": "Chhapartala B.O",
    "officeType": "B.O",
    "Deliverystatus": "Delivery",
    "divisionname": "Balaghat",
    "regionname": "Bhopal HQ",
    "circlename": "Madhya Pradesh",
    "Taluk": "Bhuabichhia",
    "Districtname": "Mandla",
    "statename": "MADHYA PRADESH"
  },
  {
    "pincode": "481996",
    "officename": "Dhangaon B.O",
    "officeType": "B.O",
    "Deliverystatus": "Delivery",
    "divisionname": "Balaghat",
    "regionname": "Bhopal HQ",
    "circlename": "Madhya Pradesh",
    "Taluk": "Bhuabichhia",
    "Districtname": "Mandla",
    "statename": "MADHYA PRADESH"
  },
  {
    "pincode": "481996",
    "officename": "Khaloundi B.O",
    "officeType": "B.O",
    "Deliverystatus": "Delivery",
    "divisionname": "Balaghat",
    "regionname": "Bhopal HQ",
    "circlename": "Madhya Pradesh",
    "Taluk": "Bhuabichhia",
    "Districtname": "Mandla",
    "statename": "MADHYA PRADESH"
  },
  {
    "pincode": "481996",
    "officename": "Kudela B.O",
    "officeType": "B.O",
    "Deliverystatus": "Delivery",
    "divisionname": "Balaghat",
    "regionname": "Bhopal HQ",
    "circlename": "Madhya Pradesh",
    "Taluk": "Bhuabichhia",
    "Districtname": "Mandla",
    "statename": "MADHYA PRADESH"
  },
  {
    "pincode": "481996",
    "officename": "Mangali B.O",
    "officeType": "B.O",
    "Deliverystatus": "Delivery",
    "divisionname": "Balaghat",
    "regionname": "Bhopal HQ",
    "circlename": "Madhya Pradesh",
    "Taluk": "Bhuabichhia",
    "Districtname": "Mandla",
    "statename": "MADHYA PRADESH"
  },
  {
    "pincode": "481996",
    "officename": "Mawai B.O",
    "officeType": "B.O",
    "Deliverystatus": "Delivery",
    "divisionname": "Balaghat",
    "regionname": "Bhopal HQ",
    "circlename": "Madhya Pradesh",
    "Taluk": "Bhuabichhia",
    "Districtname": "Mandla",
    "statename": "MADHYA PRADESH"
  },
  {
    "pincode": "481996",
    "officename": "Meda B.O",
    "officeType": "B.O",
    "Deliverystatus": "Delivery",
    "divisionname": "Balaghat",
    "regionname": "Bhopal HQ",
    "circlename": "Madhya Pradesh",
    "Taluk": "Bhuabichhia",
    "Districtname": "Mandla",
    "statename": "MADHYA PRADESH"
  },
  {
    "pincode": "481996",
    "officename": "Motinala B.O",
    "officeType": "B.O",
    "Deliverystatus": "Delivery",
    "divisionname": "Balaghat",
    "regionname": "Bhopal HQ",
    "circlename": "Madhya Pradesh",
    "Taluk": "Bhuabichhia",
    "Districtname": "Mandla",
    "statename": "MADHYA PRADESH"
  },
  {
    "pincode": "481996",
    "officename": "Naharganj B.O",
    "officeType": "B.O",
    "Deliverystatus": "Delivery",
    "divisionname": "Balaghat",
    "regionname": "Bhopal HQ",
    "circlename": "Madhya Pradesh",
    "Taluk": "Bhuabichhia",
    "Districtname": "Mandla",
    "statename": "MADHYA PRADESH"
  },
  {
    "pincode": "481996",
    "officename": "Poundibaharmunda B.O",
    "officeType": "B.O",
    "Deliverystatus": "Delivery",
    "divisionname": "Balaghat",
    "regionname": "Bhopal HQ",
    "circlename": "Madhya Pradesh",
    "Taluk": "Bhuabichhia",
    "Districtname": "Mandla",
    "statename": "MADHYA PRADESH"
  },
  {
    "pincode": "481996",
    "officename": "Rajo B.O",
    "officeType": "B.O",
    "Deliverystatus": "Delivery",
    "divisionname": "Balaghat",
    "regionname": "Bhopal HQ",
    "circlename": "Madhya Pradesh",
    "Taluk": "Bhuabichhia",
    "Districtname": "Mandla",
    "statename": "MADHYA PRADESH"
  },
  {
    "pincode": "481996",
    "officename": "Sijhora S.O",
    "officeType": "S.O",
    "Deliverystatus": "Delivery",
    "divisionname": "Balaghat",
    "regionname": "Bhopal HQ",
    "circlename": "Madhya Pradesh",
    "Taluk": "Bhuabichhia",
    "Districtname": "Mandla",
    "statename": "MADHYA PRADESH"
  }
]
