[
  {
    "pincode": "482001",
    "officename": "Baghraji B.O",
    "officeType": "B.O",
    "Deliverystatus": "Delivery",
    "divisionname": "Jabalpur",
    "regionname": "Indore",
    "circlename": "Madhya Pradesh",
    "Taluk": "Jabalpur",
    "Districtname": "Jabalpur",
    "statename": "MADHYA PRADESH"
  },
  {
    "pincode": "482001",
    "officename": "Bai Ka Bagicha S.O",
    "officeType": "S.O",
    "Deliverystatus": "Non-Delivery",
    "divisionname": "Jabalpur",
    "regionname": "Indore",
    "circlename": "Madhya Pradesh",
    "Taluk": "Jabalpur",
    "Districtname": "Jabalpur",
    "statename": "MADHYA PRADESH"
  },
  {
    "pincode": "482001",
    "officename": "Dehri Khurd B.O",
    "officeType": "B.O",
    "Deliverystatus": "Delivery",
    "divisionname": "Jabalpur",
    "regionname": "Indore",
    "circlename": "Madhya Pradesh",
    "Taluk": "Jabalpur",
    "Districtname": "Jabalpur",
    "statename": "MADHYA PRADESH"
  },
  {
    "pincode": "482001",
    "officename": "Dhanwahi B.O",
    "officeType": "B.O",
    "Deliverystatus": "Delivery",
    "divisionname": "Jabalpur",
    "regionname": "Indore",
    "circlename": "Madhya Pradesh",
    "Taluk": "Jabalpur",
    "Districtname": "Jabalpur",
    "statename": "MADHYA PRADESH"
  },
  {
    "pincode": "482001",
    "officename": "Gangai Padaria B.O",
    "officeType": "B.O",
    "Deliverystatus": "Delivery",
    "divisionname": "Jabalpur",
    "regionname": "Indore",
    "circlename": "Madhya Pradesh",
    "Taluk": "Jabalpur",
    "Districtname": "Jabalpur",
    "statename": "MADHYA PRADESH"
  },
  {
    "pincode": "482001",
    "officename": "Gupteshwar S.O",
    "officeType": "S.O",
    "Deliverystatus": "Non-Delivery",
    "divisionname": "Jabalpur",
    "regionname": "Indore",
    "circlename": "Madhya Pradesh",
    "Taluk": "Jabalpur",
    "Districtname": "Jabalpur",
    "statename": "MADHYA PRADESH"
  },
  {
    "pincode": "482001",
    "officename": "H.R.Lines S.O",
    "officeType": "S.O",
    "Deliverystatus": "Non-Delivery",
    "divisionname": "Jabalpur",
    "regionname": "Indore",
    "circlename": "Madhya Pradesh",
    "Taluk": "Jabalpur",
    "Districtname": "Jabalpur",
    "statename": "MADHYA PRADESH"
  },
  {
    "pincode": "482001",
    "officename": "Hathital S.O",
    "officeType": "S.O",
    "Deliverystatus": "Non-Delivery",
    "divisionname": "Jabalpur",
    "regionname": "Indore",
    "circlename": "Madhya Pradesh",
    "Taluk": "Jabalpur",
    "Districtname": "Jabalpur",
    "statename": "MADHYA PRADESH"
  },
  {
    "pincode": "482001",
    "officename": "High Court S.O (Jabalpur)",
    "officeType": "S.O",
    "Deliverystatus": "Non-Delivery",
    "divisionname": "Jabalpur",
    "regionname": "Indore",
    "circlename": "Madhya Pradesh",
    "Taluk": "Jabalpur",
    "Districtname": "Jabalpur",
    "statename": "MADHYA PRADESH"
  },
  {
    "pincode": "482001",
    "officename": "Howbagh S.O",
    "officeType": "S.O",
    "Deliverystatus": "Non-Delivery",
    "divisionname": "Jabalpur",
    "regionname": "Indore",
    "circlename": "Madhya Pradesh",
    "Taluk": "Jabalpur",
    "Districtname": "Jabalpur",
    "statename": "MADHYA PRADESH"
  },
  {
    "pincode": "482001",
    "officename": "Imlai B.O",
    "officeType": "B.O",
    "Deliverystatus": "Delivery",
    "divisionname": "Jabalpur",
    "regionname": "Indore",
    "circlename": "Madhya Pradesh",
    "Taluk": "Jabalpur",
    "Districtname": "Jabalpur",
    "statename": "MADHYA PRADESH"
  },
  {
    "pincode": "482001",
    "officename": "Jabalpur Cantt S.O",
    "officeType": "S.O",
    "Deliverystatus": "Non-Delivery",
    "divisionname": "Jabalpur",
    "regionname": "Indore",
    "circlename": "Madhya Pradesh",
    "Taluk": "Jabalpur",
    "Districtname": "Jabalpur",
    "statename": "MADHYA PRADESH"
  },
  {
    "pincode": "482001",
    "officename": "Jabalpur H.O",
    "officeType": "H.O",
    "Deliverystatus": "Delivery",
    "divisionname": "Jabalpur",
    "regionname": "Indore",
    "circlename": "Madhya Pradesh",
    "Taluk": "",
    "Districtname": "Jabalpur",
    "statename": "MADHYA PRADESH"
  },
  {
    "pincode": "482001",
    "officename": "Jeewan Bima Nigam S.O",
    "officeType": "S.O",
    "Deliverystatus": "Non-Delivery",
    "divisionname": "Jabalpur",
    "regionname": "Indore",
    "circlename": "Madhya Pradesh",
    "Taluk": "Jabalpur",
    "Districtname": "Jabalpur",
    "statename": "MADHYA PRADESH"
  },
  {
    "pincode": "482001",
    "officename": "Kasturba Nagar S.O (Jabalpur)",
    "officeType": "S.O",
    "Deliverystatus": "Non-Delivery",
    "divisionname": "Jabalpur",
    "regionname": "Indore",
    "circlename": "Madhya Pradesh",
    "Taluk": "Jabalpur",
    "Districtname": "Jabalpur",
    "statename": "MADHYA PRADESH"
  },
  {
    "pincode": "482001",
    "officename": "Kutchery S.O (Jabalpur)",
    "officeType": "S.O",
    "Deliverystatus": "Non-Delivery",
    "divisionname": "Jabalpur",
    "regionname": "Indore",
    "circlename": "Madhya Pradesh",
    "Taluk": "Jabalpur",
    "Districtname": "Jabalpur",
    "statename": "MADHYA PRADESH"
  },
  {
    "pincode": "482001",
    "officename": "Lac Lines S.O",
    "officeType": "S.O",
    "Deliverystatus": "Non-Delivery",
    "divisionname": "Jabalpur",
    "regionname": "Indore",
    "circlename": "Madhya Pradesh",
    "Taluk": "Jabalpur",
    "Districtname": "Jabalpur",
    "statename": "MADHYA PRADESH"
  },
  {
    "pincode": "482001",
    "officename": "Luhkari B.O",
    "officeType": "B.O",
    "Deliverystatus": "Delivery",
    "divisionname": "Jabalpur",
    "regionname": "Indore",
    "circlename": "Madhya Pradesh",
    "Taluk": "Jabalpur",
    "Districtname": "Jabalpur",
    "statename": "MADHYA PRADESH"
  },
  {
    "pincode": "482001",
    "officename": "Napier Lines S.O",
    "officeType": "S.O",
    "Deliverystatus": "Non-Delivery",
    "divisionname": "Jabalpur",
    "regionname": "Indore",
    "circlename": "Madhya Pradesh",
    "Taluk": "Jabalpur",
    "Districtname": "Jabalpur",
    "statename": "MADHYA PRADESH"
  },
  {
    "pincode": "482001",
    "officename": "Napier Town S.O",
    "officeType": "S.O",
    "Deliverystatus": "Non-Delivery",
    "divisionname": "Jabalpur",
    "regionname": "Indore",
    "circlename": "Madhya Pradesh",
    "Taluk": "Jabalpur",
    "Districtname": "Jabalpur",
    "statename": "MADHYA PRADESH"
  },
  {
    "pincode": "482001",
    "officename": "Piparia B.O",
    "officeType": "B.O",
    "Deliverystatus": "Delivery",
    "divisionname": "Jabalpur",
    "regionname": "Indore",
    "circlename": "Madhya Pradesh",
    "Taluk": "Jabalpur",
    "Districtname": "Jabalpur",
    "statename": "MADHYA PRADESH"
  },
  {
    "pincode": "482001",
    "officename": "Prem Nagar S.O (Jabalpur)",
    "officeType": "S.O",
    "Deliverystatus": "Non-Delivery",
    "divisionname": "Jabalpur",
    "regionname": "Indore",
    "circlename": "Madhya Pradesh",
    "Taluk": "Jabalpur",
    "Districtname": "Jabalpur",
    "statename": "MADHYA PRADESH"
  },
  {
    "pincode": "482001",
    "officename": "Regimental Bazar S.O",
    "officeType": "S.O",
    "Deliverystatus": "Non-Delivery",
    "divisionname": "Jabalpur",
    "regionname": "Indore",
    "circlename": "Madhya Pradesh",
    "Taluk": "Jabalpur",
    "Districtname": "Jabalpur",
    "statename": "MADHYA PRADESH"
  },
  {
    "pincode": "482001",
    "officename": "Roberts Line S.O (Jabalpur)",
    "officeType": "S.O",
    "Deliverystatus": "Non-Delivery",
    "divisionname": "Jabalpur",
    "regionname": "Indore",
    "circlename": "Madhya Pradesh",
    "Taluk": "Jabalpur",
    "Districtname": "Jabalpur",
    "statename": "MADHYA PRADESH"
  },
  {
    "pincode": "482001",
    "officename": "Sarswati Vihar S.O",
    "officeType": "S.O",
    "Deliverystatus": "Non-Delivery",
    "divisionname": "Jabalpur",
    "regionname": "Indore",
    "circlename": "Madhya Pradesh",
    "Taluk": "Jabalpur",
    "Districtname": "Jabalpur",
    "statename": "MADHYA PRADESH"
  },
  {
    "pincode": "482001",
    "officename": "T.T.C. S.O",
    "officeType": "S.O",
    "Deliverystatus": "Non-Delivery",
    "divisionname": "Jabalpur",
    "regionname": "Indore",
    "circlename": "Madhya Pradesh",
    "Taluk": "Jabalpur",
    "Districtname": "Jabalpur",
    "statename": "MADHYA PRADESH"
  },
  {
    "pincode": "482001",
    "officename": "Temarbhita B.O",
    "officeType": "B.O",
    "Deliverystatus": "Delivery",
    "divisionname": "Jabalpur",
    "regionname": "Indore",
    "circlename": "Madhya Pradesh",
    "Taluk": "Jabalpur",
    "Districtname": "Jabalpur",
    "statename": "MADHYA PRADESH"
  },
  {
    "pincode": "482001",
    "officename": "Tilsani B.O",
    "officeType": "B.O",
    "Deliverystatus": "Delivery",
    "divisionname": "Jabalpur",
    "regionname": "Indore",
    "circlename": "Madhya Pradesh",
    "Taluk": "Jabalpur",
    "Districtname": "Jabalpur",
    "statename": "MADHYA PRADESH"
  }
]
