[
  {
    "pincode": "482051",
    "officename": "Bargi S.O",
    "officeType": "S.O",
    "Deliverystatus": "Delivery",
    "divisionname": "Jabalpur",
    "regionname": "Indore",
    "circlename": "Madhya Pradesh",
    "Taluk": "Jabalpur",
    "Districtname": "Jabalpur",
    "statename": "MADHYA PRADESH"
  },
  {
    "pincode": "482051",
    "officename": "Harrai B.O",
    "officeType": "B.O",
    "Deliverystatus": "Delivery",
    "divisionname": "Jabalpur",
    "regionname": "Indore",
    "circlename": "Madhya Pradesh",
    "Taluk": "Jabalpur",
    "Districtname": "Jabalpur",
    "statename": "MADHYA PRADESH"
  },
  {
    "pincode": "482051",
    "officename": "Kaladehi B.O",
    "officeType": "B.O",
    "Deliverystatus": "Delivery",
    "divisionname": "Jabalpur",
    "regionname": "Indore",
    "circlename": "Madhya Pradesh",
    "Taluk": "Jabalpur",
    "Districtname": "Jabalpur",
    "statename": "MADHYA PRADESH"
  },
  {
    "pincode": "482051",
    "officename": "Mohas B.O",
    "officeType": "B.O",
    "Deliverystatus": "Delivery",
    "divisionname": "Jabalpur",
    "regionname": "Indore",
    "circlename": "Madhya Pradesh",
    "Taluk": "Jabalpur",
    "Districtname": "Jabalpur",
    "statename": "MADHYA PRADESH"
  },
  {
    "pincode": "482051",
    "officename": "Nigri B.O",
    "officeType": "B.O",
    "Deliverystatus": "Delivery",
    "divisionname": "Jabalpur",
    "regionname": "Indore",
    "circlename": "Madhya Pradesh",
    "Taluk": "Jabalpur",
    "Districtname": "Jabalpur",
    "statename": "MADHYA PRADESH"
  },
  {
    "pincode": "482051",
    "officename": "Reewan B.O",
    "officeType": "B.O",
    "Deliverystatus": "Delivery",
    "divisionname": "Jabalpur",
    "regionname": "Indore",
    "circlename": "Madhya Pradesh",
    "Taluk": "Jabalpur",
    "Districtname": "Jabalpur",
    "statename": "MADHYA PRADESH"
  },
  {
    "pincode": "482051",
    "officename": "Sukri B.O",
    "officeType": "B.O",
    "Deliverystatus": "Delivery",
    "divisionname": "Jabalpur",
    "regionname": "Indore",
    "circlename": "Madhya Pradesh",
    "Taluk": "Jabalpur",
    "Districtname": "Jabalpur",
    "statename": "MADHYA PRADESH"
  },
  {
    "pincode": "482051",
    "officename": "Tinsi B.O",
    "officeType": "B.O",
    "Deliverystatus": "Delivery",
    "divisionname": "Jabalpur",
    "regionname": "Indore",
    "circlename": "Madhya Pradesh",
    "Taluk": "Jabalpur",
    "Districtname": "Jabalpur",
    "statename": "MADHYA PRADESH"
  }
]
