[
  {
    "pincode": "483220",
    "officename": "Badkheda B.O",
    "officeType": "B.O",
    "Deliverystatus": "Delivery",
    "divisionname": "Jabalpur",
    "regionname": "Indore",
    "circlename": "Madhya Pradesh",
    "Taluk": "Jabalpur",
    "Districtname": "Jabalpur",
    "statename": "MADHYA PRADESH"
  },
  {
    "pincode": "483220",
    "officename": "Baroda B.O",
    "officeType": "B.O",
    "Deliverystatus": "Delivery",
    "divisionname": "Jabalpur",
    "regionname": "Indore",
    "circlename": "Madhya Pradesh",
    "Taluk": "Jabalpur",
    "Districtname": "Jabalpur",
    "statename": "MADHYA PRADESH"
  },
  {
    "pincode": "483220",
    "officename": "Chhartarpur B.O",
    "officeType": "B.O",
    "Deliverystatus": "Delivery",
    "divisionname": "Jabalpur",
    "regionname": "Indore",
    "circlename": "Madhya Pradesh",
    "Taluk": "Jabalpur",
    "Districtname": "Jabalpur",
    "statename": "MADHYA PRADESH"
  },
  {
    "pincode": "483220",
    "officename": "Imlai B.O",
    "officeType": "B.O",
    "Deliverystatus": "Delivery",
    "divisionname": "Jabalpur",
    "regionname": "Indore",
    "circlename": "Madhya Pradesh",
    "Taluk": "Jabalpur",
    "Districtname": "Jabalpur",
    "statename": "MADHYA PRADESH"
  },
  {
    "pincode": "483220",
    "officename": "Kaladumar B.O",
    "officeType": "B.O",
    "Deliverystatus": "Delivery",
    "divisionname": "Jabalpur",
    "regionname": "Indore",
    "circlename": "Madhya Pradesh",
    "Taluk": "Jabalpur",
    "Districtname": "Jabalpur",
    "statename": "MADHYA PRADESH"
  },
  {
    "pincode": "483220",
    "officename": "Khirahani B.O",
    "officeType": "B.O",
    "Deliverystatus": "Delivery",
    "divisionname": "Jabalpur",
    "regionname": "Indore",
    "circlename": "Madhya Pradesh",
    "Taluk": "Jabalpur",
    "Districtname": "Jabalpur",
    "statename": "MADHYA PRADESH"
  },
  {
    "pincode": "483220",
    "officename": "Mahagawan B.O",
    "officeType": "B.O",
    "Deliverystatus": "Delivery",
    "divisionname": "Jabalpur",
    "regionname": "Indore",
    "circlename": "Madhya Pradesh",
    "Taluk": "Jabalpur",
    "Districtname": "Katni",
    "statename": "MADHYA PRADESH"
  },
  {
    "pincode": "483220",
    "officename": "Padaria B.O",
    "officeType": "B.O",
    "Deliverystatus": "Delivery",
    "divisionname": "Jabalpur",
    "regionname": "Indore",
    "circlename": "Madhya Pradesh",
    "Taluk": "Jabalpur",
    "Districtname": "Jabalpur",
    "statename": "MADHYA PRADESH"
  },
  {
    "pincode": "483220",
    "officename": "Panagar S.O (Jabalpur)",
    "officeType": "S.O",
    "Deliverystatus": "Delivery",
    "divisionname": "Jabalpur",
    "regionname": "Indore",
    "circlename": "Madhya Pradesh",
    "Taluk": "Jabalpur",
    "Districtname": "Jabalpur",
    "statename": "MADHYA PRADESH"
  },
  {
    "pincode": "483220",
    "officename": "Raipura B.O",
    "officeType": "B.O",
    "Deliverystatus": "Delivery",
    "divisionname": "Jabalpur",
    "regionname": "Indore",
    "circlename": "Madhya Pradesh",
    "Taluk": "Jabalpur",
    "Districtname": "Jabalpur",
    "statename": "MADHYA PRADESH"
  },
  {
    "pincode": "483220",
    "officename": "Sarsawa B.O",
    "officeType": "B.O",
    "Deliverystatus": "Delivery",
    "divisionname": "Jabalpur",
    "regionname": "Indore",
    "circlename": "Madhya Pradesh",
    "Taluk": "Jabalpur",
    "Districtname": "Jabalpur",
    "statename": "MADHYA PRADESH"
  },
  {
    "pincode": "483220",
    "officename": "Singod B.O",
    "officeType": "B.O",
    "Deliverystatus": "Delivery",
    "divisionname": "Jabalpur",
    "regionname": "Indore",
    "circlename": "Madhya Pradesh",
    "Taluk": "Jabalpur",
    "Districtname": "Jabalpur",
    "statename": "MADHYA PRADESH"
  },
  {
    "pincode": "483220",
    "officename": "Umaria Choubey B.O",
    "officeType": "B.O",
    "Deliverystatus": "Delivery",
    "divisionname": "Jabalpur",
    "regionname": "Indore",
    "circlename": "Madhya Pradesh",
    "Taluk": "Jabalpur",
    "Districtname": "Jabalpur",
    "statename": "MADHYA PRADESH"
  },
  {
    "pincode": "483220",
    "officename": "Umaria Pathra B.O",
    "officeType": "B.O",
    "Deliverystatus": "Delivery",
    "divisionname": "Jabalpur",
    "regionname": "Indore",
    "circlename": "Madhya Pradesh",
    "Taluk": "Jabalpur",
    "Districtname": "Jabalpur",
    "statename": "MADHYA PRADESH"
  },
  {
    "pincode": "483220",
    "officename": "Urdua Kala B.O",
    "officeType": "B.O",
    "Deliverystatus": "Delivery",
    "divisionname": "Jabalpur",
    "regionname": "Indore",
    "circlename": "Madhya Pradesh",
    "Taluk": "Jsbslpur",
    "Districtname": "Jabalpur",
    "statename": "MADHYA PRADESH"
  }
]
