[
  {
    "pincode": "483225",
    "officename": "Bachaiya B.O",
    "officeType": "B.O",
    "Deliverystatus": "Delivery",
    "divisionname": "Jabalpur",
    "regionname": "Indore",
    "circlename": "Madhya Pradesh",
    "Taluk": "Sihora",
    "Districtname": "Katni",
    "statename": "MADHYA PRADESH"
  },
  {
    "pincode": "483225",
    "officename": "Badkhera B.O",
    "officeType": "B.O",
    "Deliverystatus": "Delivery",
    "divisionname": "Jabalpur",
    "regionname": "Indore",
    "circlename": "Madhya Pradesh",
    "Taluk": "Sihora",
    "Districtname": "Katni",
    "statename": "MADHYA PRADESH"
  },
  {
    "pincode": "483225",
    "officename": "Bargi B.O",
    "officeType": "B.O",
    "Deliverystatus": "Delivery",
    "divisionname": "Jabalpur",
    "regionname": "Indore",
    "circlename": "Madhya Pradesh",
    "Taluk": "Sihora",
    "Districtname": "Jabalpur",
    "statename": "MADHYA PRADESH"
  },
  {
    "pincode": "483225",
    "officename": "Darshni B.O",
    "officeType": "B.O",
    "Deliverystatus": "Delivery",
    "divisionname": "Jabalpur",
    "regionname": "Indore",
    "circlename": "Madhya Pradesh",
    "Taluk": "Sihora",
    "Districtname": "Katni",
    "statename": "MADHYA PRADESH"
  },
  {
    "pincode": "483225",
    "officename": "Dhangawan B.O",
    "officeType": "B.O",
    "Deliverystatus": "Delivery",
    "divisionname": "Jabalpur",
    "regionname": "Indore",
    "circlename": "Madhya Pradesh",
    "Taluk": "Sihora",
    "Districtname": "Katni",
    "statename": "MADHYA PRADESH"
  },
  {
    "pincode": "483225",
    "officename": "Junwan Kalan B.O",
    "officeType": "B.O",
    "Deliverystatus": "Delivery",
    "divisionname": "Jabalpur",
    "regionname": "Indore",
    "circlename": "Madhya Pradesh",
    "Taluk": "Sihora",
    "Districtname": "Katni",
    "statename": "MADHYA PRADESH"
  },
  {
    "pincode": "483225",
    "officename": "Kua B.O",
    "officeType": "B.O",
    "Deliverystatus": "Delivery",
    "divisionname": "Jabalpur",
    "regionname": "Indore",
    "circlename": "Madhya Pradesh",
    "Taluk": "Sihora",
    "Districtname": "Katni",
    "statename": "MADHYA PRADESH"
  },
  {
    "pincode": "483225",
    "officename": "Lamkana B.O",
    "officeType": "B.O",
    "Deliverystatus": "Delivery",
    "divisionname": "Jabalpur",
    "regionname": "Indore",
    "circlename": "Madhya Pradesh",
    "Taluk": "Sihora",
    "Districtname": "Katni",
    "statename": "MADHYA PRADESH"
  },
  {
    "pincode": "483225",
    "officename": "Makura B.O",
    "officeType": "B.O",
    "Deliverystatus": "Delivery",
    "divisionname": "Jabalpur",
    "regionname": "Indore",
    "circlename": "Madhya Pradesh",
    "Taluk": "Sihora",
    "Districtname": "Katni",
    "statename": "MADHYA PRADESH"
  },
  {
    "pincode": "483225",
    "officename": "Marha B.O",
    "officeType": "B.O",
    "Deliverystatus": "Delivery",
    "divisionname": "Jabalpur",
    "regionname": "Indore",
    "circlename": "Madhya Pradesh",
    "Taluk": "Sihora",
    "Districtname": "Jabalpur",
    "statename": "MADHYA PRADESH"
  },
  {
    "pincode": "483225",
    "officename": "Mureth B.O",
    "officeType": "B.O",
    "Deliverystatus": "Delivery",
    "divisionname": "Jabalpur",
    "regionname": "Indore",
    "circlename": "Madhya Pradesh",
    "Taluk": "Sihora",
    "Districtname": "Katni",
    "statename": "MADHYA PRADESH"
  },
  {
    "pincode": "483225",
    "officename": "Neemkheda B.O",
    "officeType": "B.O",
    "Deliverystatus": "Delivery",
    "divisionname": "Jabalpur",
    "regionname": "Indore",
    "circlename": "Madhya Pradesh",
    "Taluk": "Sihora",
    "Districtname": "Katni",
    "statename": "MADHYA PRADESH"
  },
  {
    "pincode": "483225",
    "officename": "Nimas B.O",
    "officeType": "B.O",
    "Deliverystatus": "Delivery",
    "divisionname": "Jabalpur",
    "regionname": "Indore",
    "circlename": "Madhya Pradesh",
    "Taluk": "Sihora",
    "Districtname": "Katni",
    "statename": "MADHYA PRADESH"
  },
  {
    "pincode": "483225",
    "officename": "Pahrua B.O",
    "officeType": "B.O",
    "Deliverystatus": "Delivery",
    "divisionname": "Jabalpur",
    "regionname": "Indore",
    "circlename": "Madhya Pradesh",
    "Taluk": "Sihora",
    "Districtname": "Katni",
    "statename": "MADHYA PRADESH"
  },
  {
    "pincode": "483225",
    "officename": "Phanwani B.O",
    "officeType": "B.O",
    "Deliverystatus": "Delivery",
    "divisionname": "Jabalpur",
    "regionname": "Indore",
    "circlename": "Madhya Pradesh",
    "Taluk": "Sihora",
    "Districtname": "Katni",
    "statename": "MADHYA PRADESH"
  },
  {
    "pincode": "483225",
    "officename": "Ponda B.O",
    "officeType": "B.O",
    "Deliverystatus": "Delivery",
    "divisionname": "Jabalpur",
    "regionname": "Indore",
    "circlename": "Madhya Pradesh",
    "Taluk": "Sihora",
    "Districtname": "Katni",
    "statename": "MADHYA PRADESH"
  },
  {
    "pincode": "483225",
    "officename": "Sihora Khitola Bazar S.O",
    "officeType": "S.O",
    "Deliverystatus": "Non-Delivery",
    "divisionname": "Jabalpur",
    "regionname": "Indore",
    "circlename": "Madhya Pradesh",
    "Taluk": "Sihora",
    "Districtname": "Jabalpur",
    "statename": "MADHYA PRADESH"
  },
  {
    "pincode": "483225",
    "officename": "Sihora(MP) S.O",
    "officeType": "S.O",
    "Deliverystatus": "Delivery",
    "divisionname": "Jabalpur",
    "regionname": "Indore",
    "circlename": "Madhya Pradesh",
    "Taluk": "Sihora",
    "Districtname": "Katni",
    "statename": "MADHYA PRADESH"
  },
  {
    "pincode": "483225",
    "officename": "Talad B.O",
    "officeType": "B.O",
    "Deliverystatus": "Delivery",
    "divisionname": "Jabalpur",
    "regionname": "Indore",
    "circlename": "Madhya Pradesh",
    "Taluk": "Sihora",
    "Districtname": "Katni",
    "statename": "MADHYA PRADESH"
  },
  {
    "pincode": "483225",
    "officename": "Umaria Jujhari B.O",
    "officeType": "B.O",
    "Deliverystatus": "Delivery",
    "divisionname": "Jabalpur",
    "regionname": "Indore",
    "circlename": "Madhya Pradesh",
    "Taluk": "Sihora.",
    "Districtname": "Katni",
    "statename": "MADHYA PRADESH"
  }
]
