[
  {
    "pincode": "483336",
    "officename": "Anghora B.O",
    "officeType": "B.O",
    "Deliverystatus": "Delivery",
    "divisionname": "Jabalpur",
    "regionname": "Indore",
    "circlename": "Madhya Pradesh",
    "Taluk": "Sihora",
    "Districtname": "Katni",
    "statename": "MADHYA PRADESH"
  },
  {
    "pincode": "483336",
    "officename": "Hinota B.O",
    "officeType": "B.O",
    "Deliverystatus": "Delivery",
    "divisionname": "Jabalpur",
    "regionname": "Indore",
    "circlename": "Madhya Pradesh",
    "Taluk": "Sihora",
    "Districtname": "Katni",
    "statename": "MADHYA PRADESH"
  },
  {
    "pincode": "483336",
    "officename": "Indrana B.O",
    "officeType": "B.O",
    "Deliverystatus": "Delivery",
    "divisionname": "Jabalpur",
    "regionname": "Indore",
    "circlename": "Madhya Pradesh",
    "Taluk": "Sihora",
    "Districtname": "Katni",
    "statename": "MADHYA PRADESH"
  },
  {
    "pincode": "483336",
    "officename": "Khand B.O",
    "officeType": "B.O",
    "Deliverystatus": "Delivery",
    "divisionname": "Jabalpur",
    "regionname": "Indore",
    "circlename": "Madhya Pradesh",
    "Taluk": "Sihora",
    "Districtname": "Katni",
    "statename": "MADHYA PRADESH"
  },
  {
    "pincode": "483336",
    "officename": "Khitola B.O",
    "officeType": "B.O",
    "Deliverystatus": "Delivery",
    "divisionname": "Jabalpur",
    "regionname": "Indore",
    "circlename": "Madhya Pradesh",
    "Taluk": "Sihora",
    "Districtname": "Katni",
    "statename": "MADHYA PRADESH"
  },
  {
    "pincode": "483336",
    "officename": "Majholi S.O",
    "officeType": "S.O",
    "Deliverystatus": "Delivery",
    "divisionname": "Jabalpur",
    "regionname": "Indore",
    "circlename": "Madhya Pradesh",
    "Taluk": "Sihora",
    "Districtname": "Katni",
    "statename": "MADHYA PRADESH"
  },
  {
    "pincode": "483336",
    "officename": "Patori B.O",
    "officeType": "B.O",
    "Deliverystatus": "Delivery",
    "divisionname": "Jabalpur",
    "regionname": "Indore",
    "circlename": "Madhya Pradesh",
    "Taluk": "Sihora",
    "Districtname": "Katni",
    "statename": "MADHYA PRADESH"
  },
  {
    "pincode": "483336",
    "officename": "Pola B.O",
    "officeType": "B.O",
    "Deliverystatus": "Delivery",
    "divisionname": "Jabalpur",
    "regionname": "Indore",
    "circlename": "Madhya Pradesh",
    "Taluk": "Sihora",
    "Districtname": "Katni",
    "statename": "MADHYA PRADESH"
  },
  {
    "pincode": "483336",
    "officename": "Ranital B.O",
    "officeType": "B.O",
    "Deliverystatus": "Delivery",
    "divisionname": "Jabalpur",
    "regionname": "Indore",
    "circlename": "Madhya Pradesh",
    "Taluk": "Sihora",
    "Districtname": "Katni",
    "statename": "MADHYA PRADESH"
  },
  {
    "pincode": "483336",
    "officename": "Umaria Dhirha B.O",
    "officeType": "B.O",
    "Deliverystatus": "Delivery",
    "divisionname": "Jabalpur",
    "regionname": "Indore",
    "circlename": "Madhya Pradesh",
    "Taluk": "Sihora",
    "Districtname": "Katni",
    "statename": "MADHYA PRADESH"
  }
]
