[
  {
    "pincode": "483501",
    "officename": "Badera B.O",
    "officeType": "B.O",
    "Deliverystatus": "Delivery",
    "divisionname": "Jabalpur",
    "regionname": "Indore",
    "circlename": "Madhya Pradesh",
    "Taluk": "Katni",
    "Districtname": "Katni",
    "statename": "MADHYA PRADESH"
  },
  {
    "pincode": "483501",
    "officename": "Badkhera B.O",
    "officeType": "B.O",
    "Deliverystatus": "Delivery",
    "divisionname": "Jabalpur",
    "regionname": "Indore",
    "circlename": "Madhya Pradesh",
    "Taluk": "Katni",
    "Districtname": "Katni",
    "statename": "MADHYA PRADESH"
  },
  {
    "pincode": "483501",
    "officename": "Basadi B.O",
    "officeType": "B.O",
    "Deliverystatus": "Delivery",
    "divisionname": "Jabalpur",
    "regionname": "Indore",
    "circlename": "Madhya Pradesh",
    "Taluk": "Katni",
    "Districtname": "Katni",
    "statename": "MADHYA PRADESH"
  },
  {
    "pincode": "483501",
    "officename": "Bhadora B.O",
    "officeType": "B.O",
    "Deliverystatus": "Delivery",
    "divisionname": "Jabalpur",
    "regionname": "Indore",
    "circlename": "Madhya Pradesh",
    "Taluk": "Katni",
    "Districtname": "Katni",
    "statename": "MADHYA PRADESH"
  },
  {
    "pincode": "483501",
    "officename": "Bhainswahi B.O",
    "officeType": "B.O",
    "Deliverystatus": "Delivery",
    "divisionname": "Jabalpur",
    "regionname": "Indore",
    "circlename": "Madhya Pradesh",
    "Taluk": "Katni",
    "Districtname": "Katni",
    "statename": "MADHYA PRADESH"
  },
  {
    "pincode": "483501",
    "officename": "Bilhari B.O",
    "officeType": "B.O",
    "Deliverystatus": "Delivery",
    "divisionname": "Jabalpur",
    "regionname": "Indore",
    "circlename": "Madhya Pradesh",
    "Taluk": "Katni",
    "Districtname": "Katni",
    "statename": "MADHYA PRADESH"
  },
  {
    "pincode": "483501",
    "officename": "Chaka B.O",
    "officeType": "B.O",
    "Deliverystatus": "Delivery",
    "divisionname": "Jabalpur",
    "regionname": "Indore",
    "circlename": "Madhya Pradesh",
    "Taluk": "Katni",
    "Districtname": "Katni",
    "statename": "MADHYA PRADESH"
  },
  {
    "pincode": "483501",
    "officename": "Chapna B.O",
    "officeType": "B.O",
    "Deliverystatus": "Delivery",
    "divisionname": "Jabalpur",
    "regionname": "Indore",
    "circlename": "Madhya Pradesh",
    "Taluk": "Katni",
    "Districtname": "Katni",
    "statename": "MADHYA PRADESH"
  },
  {
    "pincode": "483501",
    "officename": "Deodongra B.O",
    "officeType": "B.O",
    "Deliverystatus": "Delivery",
    "divisionname": "Jabalpur",
    "regionname": "Indore",
    "circlename": "Madhya Pradesh",
    "Taluk": "Katni",
    "Districtname": "Katni",
    "statename": "MADHYA PRADESH"
  },
  {
    "pincode": "483501",
    "officename": "Deogaon B.O",
    "officeType": "B.O",
    "Deliverystatus": "Delivery",
    "divisionname": "Jabalpur",
    "regionname": "Indore",
    "circlename": "Madhya Pradesh",
    "Taluk": "Katni",
    "Districtname": "Katni",
    "statename": "MADHYA PRADESH"
  },
  {
    "pincode": "483501",
    "officename": "Deori Hatai B.O",
    "officeType": "B.O",
    "Deliverystatus": "Delivery",
    "divisionname": "Jabalpur",
    "regionname": "Indore",
    "circlename": "Madhya Pradesh",
    "Taluk": "Katni",
    "Districtname": "Katni",
    "statename": "MADHYA PRADESH"
  },
  {
    "pincode": "483501",
    "officename": "Dithwara B.O",
    "officeType": "B.O",
    "Deliverystatus": "Delivery",
    "divisionname": "Jabalpur",
    "regionname": "Indore",
    "circlename": "Madhya Pradesh",
    "Taluk": "Katni",
    "Districtname": "Katni",
    "statename": "MADHYA PRADESH"
  },
  {
    "pincode": "483501",
    "officename": "Ganeshpur B.O",
    "officeType": "B.O",
    "Deliverystatus": "Delivery",
    "divisionname": "Jabalpur",
    "regionname": "Indore",
    "circlename": "Madhya Pradesh",
    "Taluk": "Katni",
    "Districtname": "Katni",
    "statename": "MADHYA PRADESH"
  },
  {
    "pincode": "483501",
    "officename": "Ghughara B.O",
    "officeType": "B.O",
    "Deliverystatus": "Delivery",
    "divisionname": "Jabalpur",
    "regionname": "Indore",
    "circlename": "Madhya Pradesh",
    "Taluk": "Katni",
    "Districtname": "Katni",
    "statename": "MADHYA PRADESH"
  },
  {
    "pincode": "483501",
    "officename": "Gulwara B.O",
    "officeType": "B.O",
    "Deliverystatus": "Delivery",
    "divisionname": "Jabalpur",
    "regionname": "Indore",
    "circlename": "Madhya Pradesh",
    "Taluk": "Katni",
    "Districtname": "Katni",
    "statename": "MADHYA PRADESH"
  },
  {
    "pincode": "483501",
    "officename": "Hardua B.O",
    "officeType": "B.O",
    "Deliverystatus": "Delivery",
    "divisionname": "Jabalpur",
    "regionname": "Indore",
    "circlename": "Madhya Pradesh",
    "Taluk": "Katni",
    "Districtname": "Katni",
    "statename": "MADHYA PRADESH"
  },
  {
    "pincode": "483501",
    "officename": "Hathkuri B.O",
    "officeType": "B.O",
    "Deliverystatus": "Delivery",
    "divisionname": "Jabalpur",
    "regionname": "Indore",
    "circlename": "Madhya Pradesh",
    "Taluk": "Katni",
    "Districtname": "Katni",
    "statename": "MADHYA PRADESH"
  },
  {
    "pincode": "483501",
    "officename": "Hirapur Kaudia B.O",
    "officeType": "B.O",
    "Deliverystatus": "Delivery",
    "divisionname": "Jabalpur",
    "regionname": "Indore",
    "circlename": "Madhya Pradesh",
    "Taluk": "Katni",
    "Districtname": "Katni",
    "statename": "MADHYA PRADESH"
  },
  {
    "pincode": "483501",
    "officename": "Jhinjhari B.O",
    "officeType": "B.O",
    "Deliverystatus": "Delivery",
    "divisionname": "Jabalpur",
    "regionname": "Indore",
    "circlename": "Madhya Pradesh",
    "Taluk": "Katni",
    "Districtname": "Katni",
    "statename": "MADHYA PRADESH"
  },
  {
    "pincode": "483501",
    "officename": "Juhla B.O",
    "officeType": "B.O",
    "Deliverystatus": "Delivery",
    "divisionname": "Jabalpur",
    "regionname": "Indore",
    "circlename": "Madhya Pradesh",
    "Taluk": "Katni",
    "Districtname": "Katni",
    "statename": "MADHYA PRADESH"
  },
  {
    "pincode": "483501",
    "officename": "Kailwara Kala B.O",
    "officeType": "B.O",
    "Deliverystatus": "Delivery",
    "divisionname": "Jabalpur",
    "regionname": "Indore",
    "circlename": "Madhya Pradesh",
    "Taluk": "Katni",
    "Districtname": "Katni",
    "statename": "MADHYA PRADESH"
  },
  {
    "pincode": "483501",
    "officename": "Kailwara Khurd B.O",
    "officeType": "B.O",
    "Deliverystatus": "Delivery",
    "divisionname": "Jabalpur",
    "regionname": "Indore",
    "circlename": "Madhya Pradesh",
    "Taluk": "Katni",
    "Districtname": "Katni",
    "statename": "MADHYA PRADESH"
  },
  {
    "pincode": "483501",
    "officename": "Kanhwara Kalan B.O",
    "officeType": "B.O",
    "Deliverystatus": "Delivery",
    "divisionname": "Jabalpur",
    "regionname": "Indore",
    "circlename": "Madhya Pradesh",
    "Taluk": "Murwara",
    "Districtname": "Katni",
    "statename": "MADHYA PRADESH"
  },
  {
    "pincode": "483501",
    "officename": "Kanti B.O",
    "officeType": "B.O",
    "Deliverystatus": "Delivery",
    "divisionname": "Jabalpur",
    "regionname": "Indore",
    "circlename": "Madhya Pradesh",
    "Taluk": "Katni",
    "Districtname": "Katni",
    "statename": "MADHYA PRADESH"
  },
  {
    "pincode": "483501",
    "officename": "Katangi Kala B.O",
    "officeType": "B.O",
    "Deliverystatus": "Delivery",
    "divisionname": "Jabalpur",
    "regionname": "Indore",
    "circlename": "Madhya Pradesh",
    "Taluk": "Katni",
    "Districtname": "Katni",
    "statename": "MADHYA PRADESH"
  },
  {
    "pincode": "483501",
    "officename": "Katni Bazar S.O",
    "officeType": "S.O",
    "Deliverystatus": "Non-Delivery",
    "divisionname": "Jabalpur",
    "regionname": "Indore",
    "circlename": "Madhya Pradesh",
    "Taluk": "Katni",
    "Districtname": "Katni",
    "statename": "MADHYA PRADESH"
  },
  {
    "pincode": "483501",
    "officename": "Katni Bhatta Mohalla S.O",
    "officeType": "S.O",
    "Deliverystatus": "Non-Delivery",
    "divisionname": "Jabalpur",
    "regionname": "Indore",
    "circlename": "Madhya Pradesh",
    "Taluk": "Murwara",
    "Districtname": "Katni",
    "statename": "MADHYA PRADESH"
  },
  {
    "pincode": "483501",
    "officename": "Katni Collectorate S.O",
    "officeType": "S.O",
    "Deliverystatus": "Non-Delivery",
    "divisionname": "Jabalpur",
    "regionname": "Indore",
    "circlename": "Madhya Pradesh",
    "Taluk": "Murwara",
    "Districtname": "Katni",
    "statename": "MADHYA PRADESH"
  },
  {
    "pincode": "483501",
    "officename": "Katni H.O",
    "officeType": "H.O",
    "Deliverystatus": "Delivery",
    "divisionname": "Jabalpur",
    "regionname": "Indore",
    "circlename": "Madhya Pradesh",
    "Taluk": "Murwara",
    "Districtname": "Katni",
    "statename": "MADHYA PRADESH"
  },
  {
    "pincode": "483501",
    "officename": "Katni New Yard S.O",
    "officeType": "S.O",
    "Deliverystatus": "Non-Delivery",
    "divisionname": "Jabalpur",
    "regionname": "Indore",
    "circlename": "Madhya Pradesh",
    "Taluk": "Murwara",
    "Districtname": "Katni",
    "statename": "MADHYA PRADESH"
  },
  {
    "pincode": "483501",
    "officename": "Katni Purani Basti S.O",
    "officeType": "S.O",
    "Deliverystatus": "Non-Delivery",
    "divisionname": "Jabalpur",
    "regionname": "Indore",
    "circlename": "Madhya Pradesh",
    "Taluk": "Murwara",
    "Districtname": "Katni",
    "statename": "MADHYA PRADESH"
  },
  {
    "pincode": "483501",
    "officename": "Katni R.S. S.O",
    "officeType": "S.O",
    "Deliverystatus": "Non-Delivery",
    "divisionname": "Jabalpur",
    "regionname": "Indore",
    "circlename": "Madhya Pradesh",
    "Taluk": "Murwara",
    "Districtname": "Katni",
    "statename": "MADHYA PRADESH"
  },
  {
    "pincode": "483501",
    "officename": "Katni Rubber B.O",
    "officeType": "B.O",
    "Deliverystatus": "Non-Delivery",
    "divisionname": "Jabalpur",
    "regionname": "Indore",
    "circlename": "Madhya Pradesh",
    "Taluk": "Murwara",
    "Districtname": "Katni",
    "statename": "MADHYA PRADESH"
  },
  {
    "pincode": "483501",
    "officename": "Kuthla B.O",
    "officeType": "B.O",
    "Deliverystatus": "Delivery",
    "divisionname": "Jabalpur",
    "regionname": "Indore",
    "circlename": "Madhya Pradesh",
    "Taluk": "Katni",
    "Districtname": "Katni",
    "statename": "MADHYA PRADESH"
  },
  {
    "pincode": "483501",
    "officename": "Majhgawan B.O",
    "officeType": "B.O",
    "Deliverystatus": "Delivery",
    "divisionname": "Jabalpur",
    "regionname": "Indore",
    "circlename": "Madhya Pradesh",
    "Taluk": "Katni",
    "Districtname": "Katni",
    "statename": "MADHYA PRADESH"
  },
  {
    "pincode": "483501",
    "officename": "Mohas B.O",
    "officeType": "B.O",
    "Deliverystatus": "Delivery",
    "divisionname": "Jabalpur",
    "regionname": "Indore",
    "circlename": "Madhya Pradesh",
    "Taluk": "Katni",
    "Districtname": "Katni",
    "statename": "MADHYA PRADESH"
  },
  {
    "pincode": "483501",
    "officename": "Nanhwara Sejha B.O",
    "officeType": "B.O",
    "Deliverystatus": "Delivery",
    "divisionname": "Jabalpur",
    "regionname": "Indore",
    "circlename": "Madhya Pradesh",
    "Taluk": "Katni",
    "Districtname": "Katni",
    "statename": "MADHYA PRADESH"
  },
  {
    "pincode": "483501",
    "officename": "Nigehra B.O",
    "officeType": "B.O",
    "Deliverystatus": "Delivery",
    "divisionname": "Jabalpur",
    "regionname": "Indore",
    "circlename": "Madhya Pradesh",
    "Taluk": "Katni",
    "Districtname": "Katni",
    "statename": "MADHYA PRADESH"
  },
  {
    "pincode": "483501",
    "officename": "Nitarra B.O",
    "officeType": "B.O",
    "Deliverystatus": "Delivery",
    "divisionname": "Jabalpur",
    "regionname": "Indore",
    "circlename": "Madhya Pradesh",
    "Taluk": "Katni",
    "Districtname": "Katni",
    "statename": "MADHYA PRADESH"
  },
  {
    "pincode": "483501",
    "officename": "Science College B.O",
    "officeType": "B.O",
    "Deliverystatus": "Delivery",
    "divisionname": "Jabalpur",
    "regionname": "Indore",
    "circlename": "Madhya Pradesh",
    "Taluk": "Katni",
    "Districtname": "Katni",
    "statename": "MADHYA PRADESH"
  },
  {
    "pincode": "483501",
    "officename": "Sugwan B.O",
    "officeType": "B.O",
    "Deliverystatus": "Delivery",
    "divisionname": "Jabalpur",
    "regionname": "Indore",
    "circlename": "Madhya Pradesh",
    "Taluk": "Katni",
    "Districtname": "Katni",
    "statename": "MADHYA PRADESH"
  },
  {
    "pincode": "483501",
    "officename": "Tilgawan B.O",
    "officeType": "B.O",
    "Deliverystatus": "Delivery",
    "divisionname": "Jabalpur",
    "regionname": "Indore",
    "circlename": "Madhya Pradesh",
    "Taluk": "Katni",
    "Districtname": "Katni",
    "statename": "MADHYA PRADESH"
  }
]
