[
  {
    "pincode": "483775",
    "officename": "Deora Kala B.O",
    "officeType": "B.O",
    "Deliverystatus": "Delivery",
    "divisionname": "Jabalpur",
    "regionname": "Indore",
    "circlename": "Madhya Pradesh",
    "Taluk": "Ijayaraghavgarh.",
    "Districtname": "Katni",
    "statename": "MADHYA PRADESH"
  },
  {
    "pincode": "483775",
    "officename": "Ghunnaur B.O",
    "officeType": "B.O",
    "Deliverystatus": "Delivery",
    "divisionname": "Jabalpur",
    "regionname": "Indore",
    "circlename": "Madhya Pradesh",
    "Taluk": "Vijayaraghavgarh",
    "Districtname": "Katni",
    "statename": "MADHYA PRADESH"
  },
  {
    "pincode": "483775",
    "officename": "Gouraha B.O",
    "officeType": "B.O",
    "Deliverystatus": "Delivery",
    "divisionname": "Jabalpur",
    "regionname": "Indore",
    "circlename": "Madhya Pradesh",
    "Taluk": "Vijaragahvgarh",
    "Districtname": "Katni",
    "statename": "MADHYA PRADESH"
  },
  {
    "pincode": "483775",
    "officename": "Gudeha B.O",
    "officeType": "B.O",
    "Deliverystatus": "Delivery",
    "divisionname": "Jabalpur",
    "regionname": "Indore",
    "circlename": "Madhya Pradesh",
    "Taluk": "Vijayaragahvgarh",
    "Districtname": "Katni",
    "statename": "MADHYA PRADESH"
  },
  {
    "pincode": "483775",
    "officename": "Guhawal B.O",
    "officeType": "B.O",
    "Deliverystatus": "Delivery",
    "divisionname": "Jabalpur",
    "regionname": "Indore",
    "circlename": "Madhya Pradesh",
    "Taluk": "Vijayaraghavgarh",
    "Districtname": "Katni",
    "statename": "MADHYA PRADESH"
  },
  {
    "pincode": "483775",
    "officename": "Hantala B.O",
    "officeType": "B.O",
    "Deliverystatus": "Delivery",
    "divisionname": "Jabalpur",
    "regionname": "Indore",
    "circlename": "Madhya Pradesh",
    "Taluk": "Vijayaraghavgarh",
    "Districtname": "Katni",
    "statename": "MADHYA PRADESH"
  },
  {
    "pincode": "483775",
    "officename": "Jiwara B.O",
    "officeType": "B.O",
    "Deliverystatus": "Delivery",
    "divisionname": "Jabalpur",
    "regionname": "Indore",
    "circlename": "Madhya Pradesh",
    "Taluk": "Vijayaragahvgarh",
    "Districtname": "Katni",
    "statename": "MADHYA PRADESH"
  },
  {
    "pincode": "483775",
    "officename": "Kundrehi B.O",
    "officeType": "B.O",
    "Deliverystatus": "Delivery",
    "divisionname": "Jabalpur",
    "regionname": "Indore",
    "circlename": "Madhya Pradesh",
    "Taluk": "Vijayaraghavgarh",
    "Districtname": "Katni",
    "statename": "MADHYA PRADESH"
  },
  {
    "pincode": "483775",
    "officename": "Nanhwara Kala B.O",
    "officeType": "B.O",
    "Deliverystatus": "Delivery",
    "divisionname": "Jabalpur",
    "regionname": "Indore",
    "circlename": "Madhya Pradesh",
    "Taluk": "Vijayaraghavgarh",
    "Districtname": "Katni",
    "statename": "MADHYA PRADESH"
  },
  {
    "pincode": "483775",
    "officename": "Singodi B.O",
    "officeType": "B.O",
    "Deliverystatus": "Delivery",
    "divisionname": "Jabalpur",
    "regionname": "Indore",
    "circlename": "Madhya Pradesh",
    "Taluk": "Vijayraghavgarh",
    "Districtname": "Katni",
    "statename": "MADHYA PRADESH"
  },
  {
    "pincode": "483775",
    "officename": "Vijayraghavgarh S.O",
    "officeType": "S.O",
    "Deliverystatus": "Delivery",
    "divisionname": "Jabalpur",
    "regionname": "Indore",
    "circlename": "Madhya Pradesh",
    "Taluk": "Vijayraghavgarh",
    "Districtname": "Katni",
    "statename": "MADHYA PRADESH"
  }
]
