[
  {
    "pincode": "484334",
    "officename": "Badra Colliery B.O",
    "officeType": "B.O",
    "Deliverystatus": "Delivery",
    "divisionname": "Shahdol",
    "regionname": "Bhopal HQ",
    "circlename": "Madhya Pradesh",
    "Taluk": "Kotma",
    "Districtname": "Anuppur",
    "statename": "MADHYA PRADESH"
  },
  {
    "pincode": "484334",
    "officename": "Beliabadi B.O",
    "officeType": "B.O",
    "Deliverystatus": "Delivery",
    "divisionname": "Shahdol",
    "regionname": "Bhopal HQ",
    "circlename": "Madhya Pradesh",
    "Taluk": "Kotma",
    "Districtname": "Anuppur",
    "statename": "MADHYA PRADESH"
  },
  {
    "pincode": "484334",
    "officename": "Biltukari B.O",
    "officeType": "B.O",
    "Deliverystatus": "Delivery",
    "divisionname": "Shahdol",
    "regionname": "Bhopal HQ",
    "circlename": "Madhya Pradesh",
    "Taluk": "Kotma",
    "Districtname": "Anuppur",
    "statename": "MADHYA PRADESH"
  },
  {
    "pincode": "484334",
    "officename": "Deogawan B.O",
    "officeType": "B.O",
    "Deliverystatus": "Delivery",
    "divisionname": "Shahdol",
    "regionname": "Bhopal HQ",
    "circlename": "Madhya Pradesh",
    "Taluk": "Kotma",
    "Districtname": "Anuppur",
    "statename": "MADHYA PRADESH"
  },
  {
    "pincode": "484334",
    "officename": "Jamgaon B.O",
    "officeType": "B.O",
    "Deliverystatus": "Delivery",
    "divisionname": "Shahdol",
    "regionname": "Bhopal HQ",
    "circlename": "Madhya Pradesh",
    "Taluk": "Kotma",
    "Districtname": "Anuppur",
    "statename": "MADHYA PRADESH"
  },
  {
    "pincode": "484334",
    "officename": "Jheek Bijuri B.O",
    "officeType": "B.O",
    "Deliverystatus": "Delivery",
    "divisionname": "Shahdol",
    "regionname": "Bhopal HQ",
    "circlename": "Madhya Pradesh",
    "Taluk": "Kotma",
    "Districtname": "Anuppur",
    "statename": "MADHYA PRADESH"
  },
  {
    "pincode": "484334",
    "officename": "Kartora B.O",
    "officeType": "B.O",
    "Deliverystatus": "Delivery",
    "divisionname": "Shahdol",
    "regionname": "Bhopal HQ",
    "circlename": "Madhya Pradesh",
    "Taluk": "Kotma",
    "Districtname": "Anuppur",
    "statename": "MADHYA PRADESH"
  },
  {
    "pincode": "484334",
    "officename": "Khamraundh B.O",
    "officeType": "B.O",
    "Deliverystatus": "Delivery",
    "divisionname": "Shahdol",
    "regionname": "Bhopal HQ",
    "circlename": "Madhya Pradesh",
    "Taluk": "Kotma",
    "Districtname": "Anuppur",
    "statename": "MADHYA PRADESH"
  },
  {
    "pincode": "484334",
    "officename": "Khodri B.O",
    "officeType": "B.O",
    "Deliverystatus": "Delivery",
    "divisionname": "Shahdol",
    "regionname": "Bhopal HQ",
    "circlename": "Madhya Pradesh",
    "Taluk": "Kotma",
    "Districtname": "Anuppur",
    "statename": "MADHYA PRADESH"
  },
  {
    "pincode": "484334",
    "officename": "Kotma S.O",
    "officeType": "S.O",
    "Deliverystatus": "Delivery",
    "divisionname": "Shahdol",
    "regionname": "Bhopal HQ",
    "circlename": "Madhya Pradesh",
    "Taluk": "Kotma",
    "Districtname": "Anuppur",
    "statename": "MADHYA PRADESH"
  },
  {
    "pincode": "484334",
    "officename": "Lamatola B.O",
    "officeType": "B.O",
    "Deliverystatus": "Delivery",
    "divisionname": "Shahdol",
    "regionname": "Bhopal HQ",
    "circlename": "Madhya Pradesh",
    "Taluk": "Kotma",
    "Districtname": "Anuppur",
    "statename": "MADHYA PRADESH"
  },
  {
    "pincode": "484334",
    "officename": "Nigwani B.O",
    "officeType": "B.O",
    "Deliverystatus": "Delivery",
    "divisionname": "Shahdol",
    "regionname": "Bhopal HQ",
    "circlename": "Madhya Pradesh",
    "Taluk": "Kotma",
    "Districtname": "Anuppur",
    "statename": "MADHYA PRADESH"
  },
  {
    "pincode": "484334",
    "officename": "Payari B.O",
    "officeType": "B.O",
    "Deliverystatus": "Delivery",
    "divisionname": "Shahdol",
    "regionname": "Bhopal HQ",
    "circlename": "Madhya Pradesh",
    "Taluk": "Kotma",
    "Districtname": "Anuppur",
    "statename": "MADHYA PRADESH"
  },
  {
    "pincode": "484334",
    "officename": "Reusa B.O",
    "officeType": "B.O",
    "Deliverystatus": "Delivery",
    "divisionname": "Shahdol",
    "regionname": "Bhopal HQ",
    "circlename": "Madhya Pradesh",
    "Taluk": "Kotma",
    "Districtname": "Anuppur",
    "statename": "MADHYA PRADESH"
  },
  {
    "pincode": "484334",
    "officename": "Rupaula B.O",
    "officeType": "B.O",
    "Deliverystatus": "Delivery",
    "divisionname": "Shahdol",
    "regionname": "Bhopal HQ",
    "circlename": "Madhya Pradesh",
    "Taluk": "Kotma",
    "Districtname": "Anuppur",
    "statename": "MADHYA PRADESH"
  },
  {
    "pincode": "484334",
    "officename": "Tengha B.O",
    "officeType": "B.O",
    "Deliverystatus": "Delivery",
    "divisionname": "Shahdol",
    "regionname": "Bhopal HQ",
    "circlename": "Madhya Pradesh",
    "Taluk": "Kotma",
    "Districtname": "Anuppur",
    "statename": "MADHYA PRADESH"
  },
  {
    "pincode": "484334",
    "officename": "Thodaha B.O",
    "officeType": "B.O",
    "Deliverystatus": "Delivery",
    "divisionname": "Shahdol",
    "regionname": "Bhopal HQ",
    "circlename": "Madhya Pradesh",
    "Taluk": "Kotma",
    "Districtname": "Anuppur",
    "statename": "MADHYA PRADESH"
  },
  {
    "pincode": "484334",
    "officename": "Urtan B.O",
    "officeType": "B.O",
    "Deliverystatus": "Delivery",
    "divisionname": "Shahdol",
    "regionname": "Bhopal HQ",
    "circlename": "Madhya Pradesh",
    "Taluk": "Kotma",
    "Districtname": "Anuppur",
    "statename": "MADHYA PRADESH"
  }
]
