[
  {
    "pincode": "484660",
    "officename": "Akhdar B.O",
    "officeType": "B.O",
    "Deliverystatus": "Delivery",
    "divisionname": "Shahdol",
    "regionname": "Bhopal HQ",
    "circlename": "Madhya Pradesh",
    "Taluk": "Umaria",
    "Districtname": "Umaria",
    "statename": "MADHYA PRADESH"
  },
  {
    "pincode": "484660",
    "officename": "Banka B.O",
    "officeType": "B.O",
    "Deliverystatus": "Delivery",
    "divisionname": "Shahdol",
    "regionname": "Bhopal HQ",
    "circlename": "Madhya Pradesh",
    "Taluk": "Umaria",
    "Districtname": "Umaria",
    "statename": "MADHYA PRADESH"
  },
  {
    "pincode": "484660",
    "officename": "Baroda B.O",
    "officeType": "B.O",
    "Deliverystatus": "Delivery",
    "divisionname": "Shahdol",
    "regionname": "Bhopal HQ",
    "circlename": "Madhya Pradesh",
    "Taluk": "Bandhogarh",
    "Districtname": "Umaria",
    "statename": "MADHYA PRADESH"
  },
  {
    "pincode": "484660",
    "officename": "Bilaspur B.O",
    "officeType": "B.O",
    "Deliverystatus": "Delivery",
    "divisionname": "Shahdol",
    "regionname": "Bhopal HQ",
    "circlename": "Madhya Pradesh",
    "Taluk": "Umaria",
    "Districtname": "Umaria",
    "statename": "MADHYA PRADESH"
  },
  {
    "pincode": "484660",
    "officename": "Chandia S.O",
    "officeType": "S.O",
    "Deliverystatus": "Delivery",
    "divisionname": "Shahdol",
    "regionname": "Bhopal HQ",
    "circlename": "Madhya Pradesh",
    "Taluk": "Bandhogarh",
    "Districtname": "Umaria",
    "statename": "MADHYA PRADESH"
  },
  {
    "pincode": "484660",
    "officename": "Harrwah B.O",
    "officeType": "B.O",
    "Deliverystatus": "Delivery",
    "divisionname": "Shahdol",
    "regionname": "Bhopal HQ",
    "circlename": "Madhya Pradesh",
    "Taluk": "Umaria",
    "Districtname": "Umaria",
    "statename": "MADHYA PRADESH"
  },
  {
    "pincode": "484660",
    "officename": "Kaudiya B.O",
    "officeType": "B.O",
    "Deliverystatus": "Delivery",
    "divisionname": "Shahdol",
    "regionname": "Bhopal HQ",
    "circlename": "Madhya Pradesh",
    "Taluk": "Sohagpur",
    "Districtname": "Shahdol",
    "statename": "MADHYA PRADESH"
  },
  {
    "pincode": "484660",
    "officename": "Lorha B.O",
    "officeType": "B.O",
    "Deliverystatus": "Delivery",
    "divisionname": "Shahdol",
    "regionname": "Bhopal HQ",
    "circlename": "Madhya Pradesh",
    "Taluk": "Umaria",
    "Districtname": "Umaria",
    "statename": "MADHYA PRADESH"
  },
  {
    "pincode": "484660",
    "officename": "Narwar B.O",
    "officeType": "B.O",
    "Deliverystatus": "Delivery",
    "divisionname": "Shahdol",
    "regionname": "Bhopal HQ",
    "circlename": "Madhya Pradesh",
    "Taluk": "Bandhogarh",
    "Districtname": "Umaria",
    "statename": "MADHYA PRADESH"
  },
  {
    "pincode": "484660",
    "officename": "Obra B.O",
    "officeType": "B.O",
    "Deliverystatus": "Delivery",
    "divisionname": "Shahdol",
    "regionname": "Bhopal HQ",
    "circlename": "Madhya Pradesh",
    "Taluk": "Sohagpur",
    "Districtname": "Shahdol",
    "statename": "MADHYA PRADESH"
  },
  {
    "pincode": "484660",
    "officename": "Pathrahta B.O",
    "officeType": "B.O",
    "Deliverystatus": "Delivery",
    "divisionname": "Shahdol",
    "regionname": "Bhopal HQ",
    "circlename": "Madhya Pradesh",
    "Taluk": "Umaria",
    "Districtname": "Umaria",
    "statename": "MADHYA PRADESH"
  }
]
