[
  {
    "pincode": "485115",
    "officename": "Aira B.O",
    "officeType": "B.O",
    "Deliverystatus": "Delivery",
    "divisionname": "Rewa",
    "regionname": "Bhopal HQ",
    "circlename": "Madhya Pradesh",
    "Taluk": "Rampur-Baghelan",
    "Districtname": "Satna",
    "statename": "MADHYA PRADESH"
  },
  {
    "pincode": "485115",
    "officename": "Baheliabaht B.O",
    "officeType": "B.O",
    "Deliverystatus": "Delivery",
    "divisionname": "Rewa",
    "regionname": "Bhopal HQ",
    "circlename": "Madhya Pradesh",
    "Taluk": "Rampur-Baghelan",
    "Districtname": "Satna",
    "statename": "MADHYA PRADESH"
  },
  {
    "pincode": "485115",
    "officename": "Bela B.O",
    "officeType": "B.O",
    "Deliverystatus": "Delivery",
    "divisionname": "Rewa",
    "regionname": "Bhopal HQ",
    "circlename": "Madhya Pradesh",
    "Taluk": "Rampur-Baghelan",
    "Districtname": "Satna",
    "statename": "MADHYA PRADESH"
  },
  {
    "pincode": "485115",
    "officename": "Chormari B.O",
    "officeType": "B.O",
    "Deliverystatus": "Delivery",
    "divisionname": "Rewa",
    "regionname": "Bhopal HQ",
    "circlename": "Madhya Pradesh",
    "Taluk": "Rampur-Baghelan",
    "Districtname": "Satna",
    "statename": "MADHYA PRADESH"
  },
  {
    "pincode": "485115",
    "officename": "Deora B.O",
    "officeType": "B.O",
    "Deliverystatus": "Delivery",
    "divisionname": "Rewa",
    "regionname": "Bhopal HQ",
    "circlename": "Madhya Pradesh",
    "Taluk": "Rampur-Baghelan",
    "Districtname": "Satna",
    "statename": "MADHYA PRADESH"
  },
  {
    "pincode": "485115",
    "officename": "Jamuna B.O",
    "officeType": "B.O",
    "Deliverystatus": "Delivery",
    "divisionname": "Rewa",
    "regionname": "Bhopal HQ",
    "circlename": "Madhya Pradesh",
    "Taluk": "Rampur-Baghelan",
    "Districtname": "Satna",
    "statename": "MADHYA PRADESH"
  },
  {
    "pincode": "485115",
    "officename": "Jhand B.O",
    "officeType": "B.O",
    "Deliverystatus": "Delivery",
    "divisionname": "Rewa",
    "regionname": "Bhopal HQ",
    "circlename": "Madhya Pradesh",
    "Taluk": "Rampur-Baghelan",
    "Districtname": "Satna",
    "statename": "MADHYA PRADESH"
  },
  {
    "pincode": "485115",
    "officename": "Jhinna B.O",
    "officeType": "B.O",
    "Deliverystatus": "Delivery",
    "divisionname": "Rewa",
    "regionname": "Bhopal HQ",
    "circlename": "Madhya Pradesh",
    "Taluk": "Rampur-Baghelan",
    "Districtname": "Satna",
    "statename": "MADHYA PRADESH"
  },
  {
    "pincode": "485115",
    "officename": "Jhiriya B.O",
    "officeType": "B.O",
    "Deliverystatus": "Delivery",
    "divisionname": "Rewa",
    "regionname": "Bhopal HQ",
    "circlename": "Madhya Pradesh",
    "Taluk": "Rampur-Baghelan",
    "Districtname": "Satna",
    "statename": "MADHYA PRADESH"
  },
  {
    "pincode": "485115",
    "officename": "Kakalpur B.O",
    "officeType": "B.O",
    "Deliverystatus": "Delivery",
    "divisionname": "Rewa",
    "regionname": "Bhopal HQ",
    "circlename": "Madhya Pradesh",
    "Taluk": "Rampur-Baghelan",
    "Districtname": "Satna",
    "statename": "MADHYA PRADESH"
  },
  {
    "pincode": "485115",
    "officename": "Karhilami B.O",
    "officeType": "B.O",
    "Deliverystatus": "Delivery",
    "divisionname": "Rewa",
    "regionname": "Bhopal HQ",
    "circlename": "Madhya Pradesh",
    "Taluk": "Rampur-Baghelan",
    "Districtname": "Satna",
    "statename": "MADHYA PRADESH"
  },
  {
    "pincode": "485115",
    "officename": "Krishngarh B.O",
    "officeType": "B.O",
    "Deliverystatus": "Delivery",
    "divisionname": "Rewa",
    "regionname": "Bhopal HQ",
    "circlename": "Madhya Pradesh",
    "Taluk": "Rampur-Baghelan",
    "Districtname": "Satna",
    "statename": "MADHYA PRADESH"
  },
  {
    "pincode": "485115",
    "officename": "Mahudar B.O",
    "officeType": "B.O",
    "Deliverystatus": "Delivery",
    "divisionname": "Rewa",
    "regionname": "Bhopal HQ",
    "circlename": "Madhya Pradesh",
    "Taluk": "Rampur-Baghelan",
    "Districtname": "Satna",
    "statename": "MADHYA PRADESH"
  },
  {
    "pincode": "485115",
    "officename": "Rampur Baghelan S.O",
    "officeType": "S.O",
    "Deliverystatus": "Delivery",
    "divisionname": "Rewa",
    "regionname": "Bhopal HQ",
    "circlename": "Madhya Pradesh",
    "Taluk": "Rampur-Baghelan",
    "Districtname": "Satna",
    "statename": "MADHYA PRADESH"
  },
  {
    "pincode": "485115",
    "officename": "Semaria B.O",
    "officeType": "B.O",
    "Deliverystatus": "Delivery",
    "divisionname": "Rewa",
    "regionname": "Bhopal HQ",
    "circlename": "Madhya Pradesh",
    "Taluk": "Rampur-Baghelan",
    "Districtname": "Satna",
    "statename": "MADHYA PRADESH"
  },
  {
    "pincode": "485115",
    "officename": "Silpari B.O",
    "officeType": "B.O",
    "Deliverystatus": "Delivery",
    "divisionname": "Rewa",
    "regionname": "Bhopal HQ",
    "circlename": "Madhya Pradesh",
    "Taluk": "Rampur-Baghelan",
    "Districtname": "Satna",
    "statename": "MADHYA PRADESH"
  },
  {
    "pincode": "485115",
    "officename": "Tapa B.O",
    "officeType": "B.O",
    "Deliverystatus": "Delivery",
    "divisionname": "Rewa",
    "regionname": "Bhopal HQ",
    "circlename": "Madhya Pradesh",
    "Taluk": "Rampur-Baghelan",
    "Districtname": "Satna",
    "statename": "MADHYA PRADESH"
  },
  {
    "pincode": "485115",
    "officename": "Teondhari B.O",
    "officeType": "B.O",
    "Deliverystatus": "Delivery",
    "divisionname": "Rewa",
    "regionname": "Bhopal HQ",
    "circlename": "Madhya Pradesh",
    "Taluk": "Rampur-Baghelan",
    "Districtname": "Satna",
    "statename": "MADHYA PRADESH"
  }
]
