[
  {
    "pincode": "485221",
    "officename": "Bamhauri B.O",
    "officeType": "B.O",
    "Deliverystatus": "Delivery",
    "divisionname": "Rewa",
    "regionname": "Bhopal HQ",
    "circlename": "Madhya Pradesh",
    "Taluk": "Nagod",
    "Districtname": "Satna",
    "statename": "MADHYA PRADESH"
  },
  {
    "pincode": "485221",
    "officename": "Chandai B.O",
    "officeType": "B.O",
    "Deliverystatus": "Delivery",
    "divisionname": "Rewa",
    "regionname": "Bhopal HQ",
    "circlename": "Madhya Pradesh",
    "Taluk": "Nagod",
    "Districtname": "Satna",
    "statename": "MADHYA PRADESH"
  },
  {
    "pincode": "485221",
    "officename": "Chund Khurd B.O",
    "officeType": "B.O",
    "Deliverystatus": "Delivery",
    "divisionname": "Rewa",
    "regionname": "Bhopal HQ",
    "circlename": "Madhya Pradesh",
    "Taluk": "Raghurajnagar",
    "Districtname": "Satna",
    "statename": "MADHYA PRADESH"
  },
  {
    "pincode": "485221",
    "officename": "Dagdiha B.O",
    "officeType": "B.O",
    "Deliverystatus": "Delivery",
    "divisionname": "Rewa",
    "regionname": "Bhopal HQ",
    "circlename": "Madhya Pradesh",
    "Taluk": "Nagod",
    "Districtname": "Satna",
    "statename": "MADHYA PRADESH"
  },
  {
    "pincode": "485221",
    "officename": "Hati B.O",
    "officeType": "B.O",
    "Deliverystatus": "Delivery",
    "divisionname": "Rewa",
    "regionname": "Bhopal HQ",
    "circlename": "Madhya Pradesh",
    "Taluk": "Nagod",
    "Districtname": "Satna",
    "statename": "MADHYA PRADESH"
  },
  {
    "pincode": "485221",
    "officename": "Hatia B.O",
    "officeType": "B.O",
    "Deliverystatus": "Delivery",
    "divisionname": "Rewa",
    "regionname": "Bhopal HQ",
    "circlename": "Madhya Pradesh",
    "Taluk": "Nagod",
    "Districtname": "Satna",
    "statename": "MADHYA PRADESH"
  },
  {
    "pincode": "485221",
    "officename": "Jaitwara S.O",
    "officeType": "S.O",
    "Deliverystatus": "Delivery",
    "divisionname": "Rewa",
    "regionname": "Bhopal HQ",
    "circlename": "Madhya Pradesh",
    "Taluk": "Nagod",
    "Districtname": "Satna",
    "statename": "MADHYA PRADESH"
  },
  {
    "pincode": "485221",
    "officename": "Khutha B.O",
    "officeType": "B.O",
    "Deliverystatus": "Delivery",
    "divisionname": "Rewa",
    "regionname": "Bhopal HQ",
    "circlename": "Madhya Pradesh",
    "Taluk": "Nagod",
    "Districtname": "Satna",
    "statename": "MADHYA PRADESH"
  },
  {
    "pincode": "485221",
    "officename": "Kitha B.O",
    "officeType": "B.O",
    "Deliverystatus": "Delivery",
    "divisionname": "Rewa",
    "regionname": "Bhopal HQ",
    "circlename": "Madhya Pradesh",
    "Taluk": "Nagod",
    "Districtname": "Satna",
    "statename": "MADHYA PRADESH"
  },
  {
    "pincode": "485221",
    "officename": "Majhgawa B.O",
    "officeType": "B.O",
    "Deliverystatus": "Delivery",
    "divisionname": "Rewa",
    "regionname": "Bhopal HQ",
    "circlename": "Madhya Pradesh",
    "Taluk": "Raghurajnagar",
    "Districtname": "Satna",
    "statename": "MADHYA PRADESH"
  },
  {
    "pincode": "485221",
    "officename": "Mednipur B.O",
    "officeType": "B.O",
    "Deliverystatus": "Delivery",
    "divisionname": "Rewa",
    "regionname": "Bhopal HQ",
    "circlename": "Madhya Pradesh",
    "Taluk": "Nagod",
    "Districtname": "Satna",
    "statename": "MADHYA PRADESH"
  },
  {
    "pincode": "485221",
    "officename": "Mehuti B.O",
    "officeType": "B.O",
    "Deliverystatus": "Delivery",
    "divisionname": "Rewa",
    "regionname": "Bhopal HQ",
    "circlename": "Madhya Pradesh",
    "Taluk": "Raghurajnagar",
    "Districtname": "Satna",
    "statename": "MADHYA PRADESH"
  },
  {
    "pincode": "485221",
    "officename": "Nayagaon B.O",
    "officeType": "B.O",
    "Deliverystatus": "Delivery",
    "divisionname": "Rewa",
    "regionname": "Bhopal HQ",
    "circlename": "Madhya Pradesh",
    "Taluk": "Nagod",
    "Districtname": "Satna",
    "statename": "MADHYA PRADESH"
  }
]
