[
  {
    "pincode": "485226",
    "officename": "Aber B.O",
    "officeType": "B.O",
    "Deliverystatus": "Delivery",
    "divisionname": "Rewa",
    "regionname": "Bhopal HQ",
    "circlename": "Madhya Pradesh",
    "Taluk": "Nagod",
    "Districtname": "Satna",
    "statename": "MADHYA PRADESH"
  },
  {
    "pincode": "485226",
    "officename": "Badkhera B.O",
    "officeType": "B.O",
    "Deliverystatus": "Delivery",
    "divisionname": "Rewa",
    "regionname": "Bhopal HQ",
    "circlename": "Madhya Pradesh",
    "Taluk": "Nagod",
    "Districtname": "Satna",
    "statename": "MADHYA PRADESH"
  },
  {
    "pincode": "485226",
    "officename": "Bairahana B.O",
    "officeType": "B.O",
    "Deliverystatus": "Delivery",
    "divisionname": "Rewa",
    "regionname": "Bhopal HQ",
    "circlename": "Madhya Pradesh",
    "Taluk": "Nagod",
    "Districtname": "Satna",
    "statename": "MADHYA PRADESH"
  },
  {
    "pincode": "485226",
    "officename": "Birsinghpur S.O",
    "officeType": "S.O",
    "Deliverystatus": "Delivery",
    "divisionname": "Rewa",
    "regionname": "Bhopal HQ",
    "circlename": "Madhya Pradesh",
    "Taluk": "Raghurajnagar",
    "Districtname": "Satna",
    "statename": "MADHYA PRADESH"
  },
  {
    "pincode": "485226",
    "officename": "Bitma B.O",
    "officeType": "B.O",
    "Deliverystatus": "Delivery",
    "divisionname": "Rewa",
    "regionname": "Bhopal HQ",
    "circlename": "Madhya Pradesh",
    "Taluk": "Nagod",
    "Districtname": "Satna",
    "statename": "MADHYA PRADESH"
  },
  {
    "pincode": "485226",
    "officename": "Deora B.O",
    "officeType": "B.O",
    "Deliverystatus": "Delivery",
    "divisionname": "Rewa",
    "regionname": "Bhopal HQ",
    "circlename": "Madhya Pradesh",
    "Taluk": "Nagod",
    "Districtname": "Satna",
    "statename": "MADHYA PRADESH"
  },
  {
    "pincode": "485226",
    "officename": "Domhai B.O",
    "officeType": "B.O",
    "Deliverystatus": "Delivery",
    "divisionname": "Rewa",
    "regionname": "Bhopal HQ",
    "circlename": "Madhya Pradesh",
    "Taluk": "Nagod",
    "Districtname": "Satna",
    "statename": "MADHYA PRADESH"
  },
  {
    "pincode": "485226",
    "officename": "Ghorkat B.O",
    "officeType": "B.O",
    "Deliverystatus": "Delivery",
    "divisionname": "Rewa",
    "regionname": "Bhopal HQ",
    "circlename": "Madhya Pradesh",
    "Taluk": "Nagod",
    "Districtname": "Satna",
    "statename": "MADHYA PRADESH"
  },
  {
    "pincode": "485226",
    "officename": "Jamuani B.O",
    "officeType": "B.O",
    "Deliverystatus": "Delivery",
    "divisionname": "Rewa",
    "regionname": "Bhopal HQ",
    "circlename": "Madhya Pradesh",
    "Taluk": "Nagod",
    "Districtname": "Satna",
    "statename": "MADHYA PRADESH"
  },
  {
    "pincode": "485226",
    "officename": "Jhakhaura B.O",
    "officeType": "B.O",
    "Deliverystatus": "Delivery",
    "divisionname": "Rewa",
    "regionname": "Bhopal HQ",
    "circlename": "Madhya Pradesh",
    "Taluk": "Nagod",
    "Districtname": "Satna",
    "statename": "MADHYA PRADESH"
  },
  {
    "pincode": "485226",
    "officename": "Kalbalia B.O",
    "officeType": "B.O",
    "Deliverystatus": "Delivery",
    "divisionname": "Rewa",
    "regionname": "Bhopal HQ",
    "circlename": "Madhya Pradesh",
    "Taluk": "Nagod",
    "Districtname": "Satna",
    "statename": "MADHYA PRADESH"
  },
  {
    "pincode": "485226",
    "officename": "Karigohi B.O",
    "officeType": "B.O",
    "Deliverystatus": "Delivery",
    "divisionname": "Rewa",
    "regionname": "Bhopal HQ",
    "circlename": "Madhya Pradesh",
    "Taluk": "Nagod",
    "Districtname": "Satna",
    "statename": "MADHYA PRADESH"
  },
  {
    "pincode": "485226",
    "officename": "Khanch B.O",
    "officeType": "B.O",
    "Deliverystatus": "Delivery",
    "divisionname": "Rewa",
    "regionname": "Bhopal HQ",
    "circlename": "Madhya Pradesh",
    "Taluk": "Nagod",
    "Districtname": "Satna",
    "statename": "MADHYA PRADESH"
  },
  {
    "pincode": "485226",
    "officename": "Kotar B.O",
    "officeType": "B.O",
    "Deliverystatus": "Delivery",
    "divisionname": "Rewa",
    "regionname": "Bhopal HQ",
    "circlename": "Madhya Pradesh",
    "Taluk": "Nagod",
    "Districtname": "Satna",
    "statename": "MADHYA PRADESH"
  },
  {
    "pincode": "485226",
    "officename": "Lakhanwah B.O",
    "officeType": "B.O",
    "Deliverystatus": "Delivery",
    "divisionname": "Rewa",
    "regionname": "Bhopal HQ",
    "circlename": "Madhya Pradesh",
    "Taluk": "Nagod",
    "Districtname": "Satna",
    "statename": "MADHYA PRADESH"
  },
  {
    "pincode": "485226",
    "officename": "Nawagaon B.O",
    "officeType": "B.O",
    "Deliverystatus": "Delivery",
    "divisionname": "Rewa",
    "regionname": "Bhopal HQ",
    "circlename": "Madhya Pradesh",
    "Taluk": "Nagod",
    "Districtname": "Satna",
    "statename": "MADHYA PRADESH"
  },
  {
    "pincode": "485226",
    "officename": "Pagar Khurd B.O",
    "officeType": "B.O",
    "Deliverystatus": "Delivery",
    "divisionname": "Rewa",
    "regionname": "Bhopal HQ",
    "circlename": "Madhya Pradesh",
    "Taluk": "Nagod",
    "Districtname": "Satna",
    "statename": "MADHYA PRADESH"
  },
  {
    "pincode": "485226",
    "officename": "Pratappur B.O",
    "officeType": "B.O",
    "Deliverystatus": "Delivery",
    "divisionname": "Rewa",
    "regionname": "Bhopal HQ",
    "circlename": "Madhya Pradesh",
    "Taluk": "Nagod",
    "Districtname": "Satna",
    "statename": "MADHYA PRADESH"
  },
  {
    "pincode": "485226",
    "officename": "Rajarwara B.O",
    "officeType": "B.O",
    "Deliverystatus": "Delivery",
    "divisionname": "Rewa",
    "regionname": "Bhopal HQ",
    "circlename": "Madhya Pradesh",
    "Taluk": "Nagod",
    "Districtname": "Satna",
    "statename": "MADHYA PRADESH"
  },
  {
    "pincode": "485226",
    "officename": "Remari B.O",
    "officeType": "B.O",
    "Deliverystatus": "Delivery",
    "divisionname": "Rewa",
    "regionname": "Bhopal HQ",
    "circlename": "Madhya Pradesh",
    "Taluk": "Nagod",
    "Districtname": "Satna",
    "statename": "MADHYA PRADESH"
  },
  {
    "pincode": "485226",
    "officename": "Sukwaha B.O",
    "officeType": "B.O",
    "Deliverystatus": "Delivery",
    "divisionname": "Rewa",
    "regionname": "Bhopal HQ",
    "circlename": "Madhya Pradesh",
    "Taluk": "Raghurajnagar",
    "Districtname": "Satna",
    "statename": "MADHYA PRADESH"
  },
  {
    "pincode": "485226",
    "officename": "Tighra B.O",
    "officeType": "B.O",
    "Deliverystatus": "Delivery",
    "divisionname": "Rewa",
    "regionname": "Bhopal HQ",
    "circlename": "Madhya Pradesh",
    "Taluk": "Nagod",
    "Districtname": "Satna",
    "statename": "MADHYA PRADESH"
  },
  {
    "pincode": "485226",
    "officename": "Tihai B.O",
    "officeType": "B.O",
    "Deliverystatus": "Delivery",
    "divisionname": "Rewa",
    "regionname": "Bhopal HQ",
    "circlename": "Madhya Pradesh",
    "Taluk": "Nagod",
    "Districtname": "Satna",
    "statename": "MADHYA PRADESH"
  }
]
