[
  {
    "pincode": "485447",
    "officename": "Ama B.O",
    "officeType": "B.O",
    "Deliverystatus": "Delivery",
    "divisionname": "Rewa",
    "regionname": "Bhopal HQ",
    "circlename": "Madhya Pradesh",
    "Taluk": "Nagod",
    "Districtname": "Satna",
    "statename": "MADHYA PRADESH"
  },
  {
    "pincode": "485447",
    "officename": "Basudha B.O",
    "officeType": "B.O",
    "Deliverystatus": "Delivery",
    "divisionname": "Rewa",
    "regionname": "Bhopal HQ",
    "circlename": "Madhya Pradesh",
    "Taluk": "Nagod",
    "Districtname": "Satna",
    "statename": "MADHYA PRADESH"
  },
  {
    "pincode": "485447",
    "officename": "Chorwari B.O",
    "officeType": "B.O",
    "Deliverystatus": "Delivery",
    "divisionname": "Rewa",
    "regionname": "Bhopal HQ",
    "circlename": "Madhya Pradesh",
    "Taluk": "Nagod",
    "Districtname": "Satna",
    "statename": "MADHYA PRADESH"
  },
  {
    "pincode": "485447",
    "officename": "Kadsara B.O",
    "officeType": "B.O",
    "Deliverystatus": "Delivery",
    "divisionname": "Rewa",
    "regionname": "Bhopal HQ",
    "circlename": "Madhya Pradesh",
    "Taluk": "Nagod",
    "Districtname": "Satna",
    "statename": "MADHYA PRADESH"
  },
  {
    "pincode": "485447",
    "officename": "Karhi Kala B.O",
    "officeType": "B.O",
    "Deliverystatus": "Delivery",
    "divisionname": "Rewa",
    "regionname": "Bhopal HQ",
    "circlename": "Madhya Pradesh",
    "Taluk": "Nagod",
    "Districtname": "Satna",
    "statename": "MADHYA PRADESH"
  },
  {
    "pincode": "485447",
    "officename": "Khamharia Khurd B.O",
    "officeType": "B.O",
    "Deliverystatus": "Delivery",
    "divisionname": "Rewa",
    "regionname": "Bhopal HQ",
    "circlename": "Madhya Pradesh",
    "Taluk": "Nagod",
    "Districtname": "Satna",
    "statename": "MADHYA PRADESH"
  },
  {
    "pincode": "485447",
    "officename": "Kumhari B.O",
    "officeType": "B.O",
    "Deliverystatus": "Delivery",
    "divisionname": "Rewa",
    "regionname": "Bhopal HQ",
    "circlename": "Madhya Pradesh",
    "Taluk": "Nagod",
    "Districtname": "Satna",
    "statename": "MADHYA PRADESH"
  },
  {
    "pincode": "485447",
    "officename": "Madai B.O",
    "officeType": "B.O",
    "Deliverystatus": "Delivery",
    "divisionname": "Rewa",
    "regionname": "Bhopal HQ",
    "circlename": "Madhya Pradesh",
    "Taluk": "Nagod",
    "Districtname": "Satna",
    "statename": "MADHYA PRADESH"
  },
  {
    "pincode": "485447",
    "officename": "Pangara B.O",
    "officeType": "B.O",
    "Deliverystatus": "Delivery",
    "divisionname": "Rewa",
    "regionname": "Bhopal HQ",
    "circlename": "Madhya Pradesh",
    "Taluk": "Nagod",
    "Districtname": "Satna",
    "statename": "MADHYA PRADESH"
  },
  {
    "pincode": "485447",
    "officename": "Raund B.O",
    "officeType": "B.O",
    "Deliverystatus": "Delivery",
    "divisionname": "Rewa",
    "regionname": "Bhopal HQ",
    "circlename": "Madhya Pradesh",
    "Taluk": "Nagod",
    "Districtname": "Satna",
    "statename": "MADHYA PRADESH"
  },
  {
    "pincode": "485447",
    "officename": "Shivrajpur B.O",
    "officeType": "B.O",
    "Deliverystatus": "Delivery",
    "divisionname": "Rewa",
    "regionname": "Bhopal HQ",
    "circlename": "Madhya Pradesh",
    "Taluk": "Nagod",
    "Districtname": "Satna",
    "statename": "MADHYA PRADESH"
  },
  {
    "pincode": "485447",
    "officename": "Singhpur S.O (Satna)",
    "officeType": "S.O",
    "Deliverystatus": "Delivery",
    "divisionname": "Rewa",
    "regionname": "Bhopal HQ",
    "circlename": "Madhya Pradesh",
    "Taluk": "Nagod",
    "Districtname": "Satna",
    "statename": "MADHYA PRADESH"
  },
  {
    "pincode": "485447",
    "officename": "Umarahat B.O",
    "officeType": "B.O",
    "Deliverystatus": "Delivery",
    "divisionname": "Rewa",
    "regionname": "Bhopal HQ",
    "circlename": "Madhya Pradesh",
    "Taluk": "Nagod",
    "Districtname": "Satna",
    "statename": "MADHYA PRADESH"
  },
  {
    "pincode": "485447",
    "officename": "Usrar B.O",
    "officeType": "B.O",
    "Deliverystatus": "Delivery",
    "divisionname": "Rewa",
    "regionname": "Bhopal HQ",
    "circlename": "Madhya Pradesh",
    "Taluk": "Nagod",
    "Districtname": "Satna",
    "statename": "MADHYA PRADESH"
  }
]
