[
  {
    "pincode": "485881",
    "officename": "Argat B.O",
    "officeType": "B.O",
    "Deliverystatus": "Delivery",
    "divisionname": "Rewa",
    "regionname": "Bhopal HQ",
    "circlename": "Madhya Pradesh",
    "Taluk": "Ramnagar",
    "Districtname": "Satna",
    "statename": "MADHYA PRADESH"
  },
  {
    "pincode": "485881",
    "officename": "Babupur B.O",
    "officeType": "B.O",
    "Deliverystatus": "Delivery",
    "divisionname": "Rewa",
    "regionname": "Bhopal HQ",
    "circlename": "Madhya Pradesh",
    "Taluk": "Ramnagar",
    "Districtname": "Satna",
    "statename": "MADHYA PRADESH"
  },
  {
    "pincode": "485881",
    "officename": "Barakhurd B.O",
    "officeType": "B.O",
    "Deliverystatus": "Delivery",
    "divisionname": "Rewa",
    "regionname": "Bhopal HQ",
    "circlename": "Madhya Pradesh",
    "Taluk": "Ramnagar",
    "Districtname": "Satna",
    "statename": "MADHYA PRADESH"
  },
  {
    "pincode": "485881",
    "officename": "Belhai B.O",
    "officeType": "B.O",
    "Deliverystatus": "Delivery",
    "divisionname": "Rewa",
    "regionname": "Bhopal HQ",
    "circlename": "Madhya Pradesh",
    "Taluk": "Ramnagar",
    "Districtname": "Satna",
    "statename": "MADHYA PRADESH"
  },
  {
    "pincode": "485881",
    "officename": "Chandwar B.O",
    "officeType": "B.O",
    "Deliverystatus": "Delivery",
    "divisionname": "Rewa",
    "regionname": "Bhopal HQ",
    "circlename": "Madhya Pradesh",
    "Taluk": "Ramnagar",
    "Districtname": "Satna",
    "statename": "MADHYA PRADESH"
  },
  {
    "pincode": "485881",
    "officename": "Chhirhai B.O",
    "officeType": "B.O",
    "Deliverystatus": "Delivery",
    "divisionname": "Rewa",
    "regionname": "Bhopal HQ",
    "circlename": "Madhya Pradesh",
    "Taluk": "Ramnagar",
    "Districtname": "Satna",
    "statename": "MADHYA PRADESH"
  },
  {
    "pincode": "485881",
    "officename": "Deodaha B.O",
    "officeType": "B.O",
    "Deliverystatus": "Delivery",
    "divisionname": "Rewa",
    "regionname": "Bhopal HQ",
    "circlename": "Madhya Pradesh",
    "Taluk": "Ramnagar",
    "Districtname": "Satna",
    "statename": "MADHYA PRADESH"
  },
  {
    "pincode": "485881",
    "officename": "Dighiakala B.O",
    "officeType": "B.O",
    "Deliverystatus": "Delivery",
    "divisionname": "Rewa",
    "regionname": "Bhopal HQ",
    "circlename": "Madhya Pradesh",
    "Taluk": "Ramnagar",
    "Districtname": "Satna",
    "statename": "MADHYA PRADESH"
  },
  {
    "pincode": "485881",
    "officename": "Ganjas B.O",
    "officeType": "B.O",
    "Deliverystatus": "Delivery",
    "divisionname": "Rewa",
    "regionname": "Bhopal HQ",
    "circlename": "Madhya Pradesh",
    "Taluk": "Ramnagar",
    "Districtname": "Satna",
    "statename": "MADHYA PRADESH"
  },
  {
    "pincode": "485881",
    "officename": "Goraiya B.O",
    "officeType": "B.O",
    "Deliverystatus": "Delivery",
    "divisionname": "Rewa",
    "regionname": "Bhopal HQ",
    "circlename": "Madhya Pradesh",
    "Taluk": "Ramnagar",
    "Districtname": "Satna",
    "statename": "MADHYA PRADESH"
  },
  {
    "pincode": "485881",
    "officename": "Gorhai B.O",
    "officeType": "B.O",
    "Deliverystatus": "Delivery",
    "divisionname": "Rewa",
    "regionname": "Bhopal HQ",
    "circlename": "Madhya Pradesh",
    "Taluk": "Ramnagar",
    "Districtname": "Satna",
    "statename": "MADHYA PRADESH"
  },
  {
    "pincode": "485881",
    "officename": "Gorsari B.O",
    "officeType": "B.O",
    "Deliverystatus": "Delivery",
    "divisionname": "Rewa",
    "regionname": "Bhopal HQ",
    "circlename": "Madhya Pradesh",
    "Taluk": "Ramnagar",
    "Districtname": "Satna",
    "statename": "MADHYA PRADESH"
  },
  {
    "pincode": "485881",
    "officename": "Govindpur B.O",
    "officeType": "B.O",
    "Deliverystatus": "Delivery",
    "divisionname": "Rewa",
    "regionname": "Bhopal HQ",
    "circlename": "Madhya Pradesh",
    "Taluk": "Ramnagar",
    "Districtname": "Satna",
    "statename": "MADHYA PRADESH"
  },
  {
    "pincode": "485881",
    "officename": "Gulwargujara B.O",
    "officeType": "B.O",
    "Deliverystatus": "Delivery",
    "divisionname": "Rewa",
    "regionname": "Bhopal HQ",
    "circlename": "Madhya Pradesh",
    "Taluk": "Ramnagar",
    "Districtname": "Satna",
    "statename": "MADHYA PRADESH"
  },
  {
    "pincode": "485881",
    "officename": "Harrai B.O",
    "officeType": "B.O",
    "Deliverystatus": "Delivery",
    "divisionname": "Rewa",
    "regionname": "Bhopal HQ",
    "circlename": "Madhya Pradesh",
    "Taluk": "Ramnagar",
    "Districtname": "Satna",
    "statename": "MADHYA PRADESH"
  },
  {
    "pincode": "485881",
    "officename": "Hinauti B.O",
    "officeType": "B.O",
    "Deliverystatus": "Delivery",
    "divisionname": "Rewa",
    "regionname": "Bhopal HQ",
    "circlename": "Madhya Pradesh",
    "Taluk": "Ramnagar",
    "Districtname": "Satna",
    "statename": "MADHYA PRADESH"
  },
  {
    "pincode": "485881",
    "officename": "Itma B.O",
    "officeType": "B.O",
    "Deliverystatus": "Delivery",
    "divisionname": "Rewa",
    "regionname": "Bhopal HQ",
    "circlename": "Madhya Pradesh",
    "Taluk": "Ramnagar",
    "Districtname": "Satna",
    "statename": "MADHYA PRADESH"
  },
  {
    "pincode": "485881",
    "officename": "Jathaha B.O",
    "officeType": "B.O",
    "Deliverystatus": "Delivery",
    "divisionname": "Rewa",
    "regionname": "Bhopal HQ",
    "circlename": "Madhya Pradesh",
    "Taluk": "Ramnagar",
    "Districtname": "Satna",
    "statename": "MADHYA PRADESH"
  },
  {
    "pincode": "485881",
    "officename": "Kandwari B.O",
    "officeType": "B.O",
    "Deliverystatus": "Delivery",
    "divisionname": "Rewa",
    "regionname": "Bhopal HQ",
    "circlename": "Madhya Pradesh",
    "Taluk": "Ramnagar",
    "Districtname": "Satna",
    "statename": "MADHYA PRADESH"
  },
  {
    "pincode": "485881",
    "officename": "Karra B.O",
    "officeType": "B.O",
    "Deliverystatus": "Delivery",
    "divisionname": "Rewa",
    "regionname": "Bhopal HQ",
    "circlename": "Madhya Pradesh",
    "Taluk": "Ramnagar",
    "Districtname": "Satna",
    "statename": "MADHYA PRADESH"
  },
  {
    "pincode": "485881",
    "officename": "Majhtolwa B.O",
    "officeType": "B.O",
    "Deliverystatus": "Delivery",
    "divisionname": "Rewa",
    "regionname": "Bhopal HQ",
    "circlename": "Madhya Pradesh",
    "Taluk": "Ramnagar",
    "Districtname": "Satna",
    "statename": "MADHYA PRADESH"
  },
  {
    "pincode": "485881",
    "officename": "Mankisar B.O",
    "officeType": "B.O",
    "Deliverystatus": "Delivery",
    "divisionname": "Rewa",
    "regionname": "Bhopal HQ",
    "circlename": "Madhya Pradesh",
    "Taluk": "Ramnagar",
    "Districtname": "Satna",
    "statename": "MADHYA PRADESH"
  },
  {
    "pincode": "485881",
    "officename": "Marjadpur B.O",
    "officeType": "B.O",
    "Deliverystatus": "Delivery",
    "divisionname": "Rewa",
    "regionname": "Bhopal HQ",
    "circlename": "Madhya Pradesh",
    "Taluk": "Ramnagar",
    "Districtname": "Satna",
    "statename": "MADHYA PRADESH"
  },
  {
    "pincode": "485881",
    "officename": "Mirgauti B.O",
    "officeType": "B.O",
    "Deliverystatus": "Delivery",
    "divisionname": "Rewa",
    "regionname": "Bhopal HQ",
    "circlename": "Madhya Pradesh",
    "Taluk": "Ramnagar",
    "Districtname": "Satna",
    "statename": "MADHYA PRADESH"
  },
  {
    "pincode": "485881",
    "officename": "New Deorajnagar B.O",
    "officeType": "B.O",
    "Deliverystatus": "Delivery",
    "divisionname": "Rewa",
    "regionname": "Bhopal HQ",
    "circlename": "Madhya Pradesh",
    "Taluk": "Ramnagar",
    "Districtname": "Satna",
    "statename": "MADHYA PRADESH"
  },
  {
    "pincode": "485881",
    "officename": "Ramnagar S.O (Satna)",
    "officeType": "S.O",
    "Deliverystatus": "Delivery",
    "divisionname": "Rewa",
    "regionname": "Bhopal HQ",
    "circlename": "Madhya Pradesh",
    "Taluk": "Ramnagar",
    "Districtname": "Satna",
    "statename": "MADHYA PRADESH"
  },
  {
    "pincode": "485881",
    "officename": "Sagauni B.O",
    "officeType": "B.O",
    "Deliverystatus": "Delivery",
    "divisionname": "Rewa",
    "regionname": "Bhopal HQ",
    "circlename": "Madhya Pradesh",
    "Taluk": "Ramnagar",
    "Districtname": "Satna",
    "statename": "MADHYA PRADESH"
  },
  {
    "pincode": "485881",
    "officename": "Saria B.O",
    "officeType": "B.O",
    "Deliverystatus": "Delivery",
    "divisionname": "Rewa",
    "regionname": "Bhopal HQ",
    "circlename": "Madhya Pradesh",
    "Taluk": "Ramnagar",
    "Districtname": "Satna",
    "statename": "MADHYA PRADESH"
  },
  {
    "pincode": "485881",
    "officename": "Sonadi B.O",
    "officeType": "B.O",
    "Deliverystatus": "Delivery",
    "divisionname": "Rewa",
    "regionname": "Bhopal HQ",
    "circlename": "Madhya Pradesh",
    "Taluk": "Ramnagar",
    "Districtname": "Satna",
    "statename": "MADHYA PRADESH"
  },
  {
    "pincode": "485881",
    "officename": "Sulkhama B.O",
    "officeType": "B.O",
    "Deliverystatus": "Delivery",
    "divisionname": "Rewa",
    "regionname": "Bhopal HQ",
    "circlename": "Madhya Pradesh",
    "Taluk": "Ramnagar",
    "Districtname": "Satna",
    "statename": "MADHYA PRADESH"
  }
]
