[
  {
    "pincode": "486220",
    "officename": "Amilkoni B.O",
    "officeType": "B.O",
    "Deliverystatus": "Delivery",
    "divisionname": "Rewa",
    "regionname": "Bhopal HQ",
    "circlename": "Madhya Pradesh",
    "Taluk": "Teonthar",
    "Districtname": "Rewa",
    "statename": "MADHYA PRADESH"
  },
  {
    "pincode": "486220",
    "officename": "Anjora B.O",
    "officeType": "B.O",
    "Deliverystatus": "Delivery",
    "divisionname": "Rewa",
    "regionname": "Bhopal HQ",
    "circlename": "Madhya Pradesh",
    "Taluk": "Teonthar",
    "Districtname": "Rewa",
    "statename": "MADHYA PRADESH"
  },
  {
    "pincode": "486220",
    "officename": "Chandpur B.O",
    "officeType": "B.O",
    "Deliverystatus": "Delivery",
    "divisionname": "Rewa",
    "regionname": "Bhopal HQ",
    "circlename": "Madhya Pradesh",
    "Taluk": "Teonthar",
    "Districtname": "Rewa",
    "statename": "MADHYA PRADESH"
  },
  {
    "pincode": "486220",
    "officename": "Chaukhadda B.O",
    "officeType": "B.O",
    "Deliverystatus": "Delivery",
    "divisionname": "Rewa",
    "regionname": "Bhopal HQ",
    "circlename": "Madhya Pradesh",
    "Taluk": "Teonthar",
    "Districtname": "Rewa",
    "statename": "MADHYA PRADESH"
  },
  {
    "pincode": "486220",
    "officename": "Garhi   Soharwa B.O",
    "officeType": "B.O",
    "Deliverystatus": "Delivery",
    "divisionname": "Rewa",
    "regionname": "Bhopal HQ",
    "circlename": "Madhya Pradesh",
    "Taluk": "Teonthar",
    "Districtname": "Rewa",
    "statename": "MADHYA PRADESH"
  },
  {
    "pincode": "486220",
    "officename": "Gondkala B.O",
    "officeType": "B.O",
    "Deliverystatus": "Delivery",
    "divisionname": "Rewa",
    "regionname": "Bhopal HQ",
    "circlename": "Madhya Pradesh",
    "Taluk": "Teonthar",
    "Districtname": "Rewa",
    "statename": "MADHYA PRADESH"
  },
  {
    "pincode": "486220",
    "officename": "Janeh B.O",
    "officeType": "B.O",
    "Deliverystatus": "Delivery",
    "divisionname": "Rewa",
    "regionname": "Bhopal HQ",
    "circlename": "Madhya Pradesh",
    "Taluk": "Teonthar",
    "Districtname": "Rewa",
    "statename": "MADHYA PRADESH"
  },
  {
    "pincode": "486220",
    "officename": "Kotrakala B.O",
    "officeType": "B.O",
    "Deliverystatus": "Delivery",
    "divisionname": "Rewa",
    "regionname": "Bhopal HQ",
    "circlename": "Madhya Pradesh",
    "Taluk": "Teonthar",
    "Districtname": "Rewa",
    "statename": "MADHYA PRADESH"
  },
  {
    "pincode": "486220",
    "officename": "Rehi B.O",
    "officeType": "B.O",
    "Deliverystatus": "Delivery",
    "divisionname": "Rewa",
    "regionname": "Bhopal HQ",
    "circlename": "Madhya Pradesh",
    "Taluk": "Teonthar",
    "Districtname": "Rewa",
    "statename": "MADHYA PRADESH"
  },
  {
    "pincode": "486220",
    "officename": "Sarui B.O",
    "officeType": "B.O",
    "Deliverystatus": "Delivery",
    "divisionname": "Rewa",
    "regionname": "Bhopal HQ",
    "circlename": "Madhya Pradesh",
    "Taluk": "Teonthar",
    "Districtname": "Rewa",
    "statename": "MADHYA PRADESH"
  },
  {
    "pincode": "486220",
    "officename": "Soharwa B.O",
    "officeType": "B.O",
    "Deliverystatus": "Delivery",
    "divisionname": "Rewa",
    "regionname": "Bhopal HQ",
    "circlename": "Madhya Pradesh",
    "Taluk": "Teonthar",
    "Districtname": "Rewa",
    "statename": "MADHYA PRADESH"
  },
  {
    "pincode": "486220",
    "officename": "Teonthar S.O",
    "officeType": "S.O",
    "Deliverystatus": "Delivery",
    "divisionname": "Rewa",
    "regionname": "Bhopal HQ",
    "circlename": "Madhya Pradesh",
    "Taluk": "Teonthar",
    "Districtname": "Rewa",
    "statename": "MADHYA PRADESH"
  }
]
