[
  {
    "pincode": "486331",
    "officename": "Baheradabar B.O",
    "officeType": "B.O",
    "Deliverystatus": "Delivery",
    "divisionname": "Rewa",
    "regionname": "Bhopal HQ",
    "circlename": "Madhya Pradesh",
    "Taluk": "Mauganj",
    "Districtname": "Rewa",
    "statename": "MADHYA PRADESH"
  },
  {
    "pincode": "486331",
    "officename": "Bahuti B.O",
    "officeType": "B.O",
    "Deliverystatus": "Delivery",
    "divisionname": "Rewa",
    "regionname": "Bhopal HQ",
    "circlename": "Madhya Pradesh",
    "Taluk": "Mauganj",
    "Districtname": "Rewa",
    "statename": "MADHYA PRADESH"
  },
  {
    "pincode": "486331",
    "officename": "Barahata B.O",
    "officeType": "B.O",
    "Deliverystatus": "Delivery",
    "divisionname": "Rewa",
    "regionname": "Bhopal HQ",
    "circlename": "Madhya Pradesh",
    "Taluk": "Mauganj",
    "Districtname": "Rewa",
    "statename": "MADHYA PRADESH"
  },
  {
    "pincode": "486331",
    "officename": "Baraon B.O",
    "officeType": "B.O",
    "Deliverystatus": "Delivery",
    "divisionname": "Rewa",
    "regionname": "Bhopal HQ",
    "circlename": "Madhya Pradesh",
    "Taluk": "Mauganj",
    "Districtname": "Rewa",
    "statename": "MADHYA PRADESH"
  },
  {
    "pincode": "486331",
    "officename": "Bichharahta B.O",
    "officeType": "B.O",
    "Deliverystatus": "Delivery",
    "divisionname": "Rewa",
    "regionname": "Bhopal HQ",
    "circlename": "Madhya Pradesh",
    "Taluk": "Mauganj",
    "Districtname": "Rewa",
    "statename": "MADHYA PRADESH"
  },
  {
    "pincode": "486331",
    "officename": "Damodar  Garh B.O",
    "officeType": "B.O",
    "Deliverystatus": "Delivery",
    "divisionname": "Rewa",
    "regionname": "Bhopal HQ",
    "circlename": "Madhya Pradesh",
    "Taluk": "Mauganj",
    "Districtname": "Rewa",
    "statename": "MADHYA PRADESH"
  },
  {
    "pincode": "486331",
    "officename": "Gauri B.O",
    "officeType": "B.O",
    "Deliverystatus": "Delivery",
    "divisionname": "Rewa",
    "regionname": "Bhopal HQ",
    "circlename": "Madhya Pradesh",
    "Taluk": "Mauganj",
    "Districtname": "Rewa",
    "statename": "MADHYA PRADESH"
  },
  {
    "pincode": "486331",
    "officename": "Khatkhari B.O",
    "officeType": "B.O",
    "Deliverystatus": "Delivery",
    "divisionname": "Rewa",
    "regionname": "Bhopal HQ",
    "circlename": "Madhya Pradesh",
    "Taluk": "Mauganj",
    "Districtname": "Rewa",
    "statename": "MADHYA PRADESH"
  },
  {
    "pincode": "486331",
    "officename": "Mauganj S.O",
    "officeType": "S.O",
    "Deliverystatus": "Delivery",
    "divisionname": "Rewa",
    "regionname": "Bhopal HQ",
    "circlename": "Madhya Pradesh",
    "Taluk": "Mauganj",
    "Districtname": "Rewa",
    "statename": "MADHYA PRADESH"
  },
  {
    "pincode": "486331",
    "officename": "Misirgawan B.O",
    "officeType": "B.O",
    "Deliverystatus": "Delivery",
    "divisionname": "Rewa",
    "regionname": "Bhopal HQ",
    "circlename": "Madhya Pradesh",
    "Taluk": "Mauganj",
    "Districtname": "Rewa",
    "statename": "MADHYA PRADESH"
  },
  {
    "pincode": "486331",
    "officename": "Mudaria B.O",
    "officeType": "B.O",
    "Deliverystatus": "Delivery",
    "divisionname": "Rewa",
    "regionname": "Bhopal HQ",
    "circlename": "Madhya Pradesh",
    "Taluk": "Mauganj",
    "Districtname": "Rewa",
    "statename": "MADHYA PRADESH"
  },
  {
    "pincode": "486331",
    "officename": "Pahadi B.O",
    "officeType": "B.O",
    "Deliverystatus": "Delivery",
    "divisionname": "Rewa",
    "regionname": "Bhopal HQ",
    "circlename": "Madhya Pradesh",
    "Taluk": "Mauganj",
    "Districtname": "Rewa",
    "statename": "MADHYA PRADESH"
  },
  {
    "pincode": "486331",
    "officename": "Patehara B.O",
    "officeType": "B.O",
    "Deliverystatus": "Delivery",
    "divisionname": "Rewa",
    "regionname": "Bhopal HQ",
    "circlename": "Madhya Pradesh",
    "Taluk": "Mauganj",
    "Districtname": "Rewa",
    "statename": "MADHYA PRADESH"
  },
  {
    "pincode": "486331",
    "officename": "Patulkhi B.O",
    "officeType": "B.O",
    "Deliverystatus": "Delivery",
    "divisionname": "Rewa",
    "regionname": "Bhopal HQ",
    "circlename": "Madhya Pradesh",
    "Taluk": "Mauganj",
    "Districtname": "Rewa",
    "statename": "MADHYA PRADESH"
  },
  {
    "pincode": "486331",
    "officename": "Phool B.O",
    "officeType": "B.O",
    "Deliverystatus": "Delivery",
    "divisionname": "Rewa",
    "regionname": "Bhopal HQ",
    "circlename": "Madhya Pradesh",
    "Taluk": "Mauganj",
    "Districtname": "Rewa",
    "statename": "MADHYA PRADESH"
  },
  {
    "pincode": "486331",
    "officename": "Rajadhau B.O",
    "officeType": "B.O",
    "Deliverystatus": "Delivery",
    "divisionname": "Rewa",
    "regionname": "Bhopal HQ",
    "circlename": "Madhya Pradesh",
    "Taluk": "Mauganj",
    "Districtname": "Rewa",
    "statename": "MADHYA PRADESH"
  },
  {
    "pincode": "486331",
    "officename": "Shahpur B.O",
    "officeType": "B.O",
    "Deliverystatus": "Delivery",
    "divisionname": "Rewa",
    "regionname": "Bhopal HQ",
    "circlename": "Madhya Pradesh",
    "Taluk": "Mauganj",
    "Districtname": "Rewa",
    "statename": "MADHYA PRADESH"
  },
  {
    "pincode": "486331",
    "officename": "Vasigada B.O",
    "officeType": "B.O",
    "Deliverystatus": "Delivery",
    "divisionname": "Rewa",
    "regionname": "Bhopal HQ",
    "circlename": "Madhya Pradesh",
    "Taluk": "Mauganj",
    "Districtname": "Rewa",
    "statename": "MADHYA PRADESH"
  }
]
