[
  {
    "pincode": "486448",
    "officename": "Badraon B.O",
    "officeType": "B.O",
    "Deliverystatus": "Delivery",
    "divisionname": "Rewa",
    "regionname": "Bhopal HQ",
    "circlename": "Madhya Pradesh",
    "Taluk": "Sirmour",
    "Districtname": "Rewa",
    "statename": "MADHYA PRADESH"
  },
  {
    "pincode": "486448",
    "officename": "Chachai B.O",
    "officeType": "B.O",
    "Deliverystatus": "Delivery",
    "divisionname": "Rewa",
    "regionname": "Bhopal HQ",
    "circlename": "Madhya Pradesh",
    "Taluk": "Sirmour",
    "Districtname": "Rewa",
    "statename": "MADHYA PRADESH"
  },
  {
    "pincode": "486448",
    "officename": "Dulahara B.O",
    "officeType": "B.O",
    "Deliverystatus": "Delivery",
    "divisionname": "Rewa",
    "regionname": "Bhopal HQ",
    "circlename": "Madhya Pradesh",
    "Taluk": "Sirmour",
    "Districtname": "Rewa",
    "statename": "MADHYA PRADESH"
  },
  {
    "pincode": "486448",
    "officename": "Kharihan B.O",
    "officeType": "B.O",
    "Deliverystatus": "Delivery",
    "divisionname": "Rewa",
    "regionname": "Bhopal HQ",
    "circlename": "Madhya Pradesh",
    "Taluk": "Sirmour",
    "Districtname": "Rewa",
    "statename": "MADHYA PRADESH"
  },
  {
    "pincode": "486448",
    "officename": "Mau B.O",
    "officeType": "B.O",
    "Deliverystatus": "Delivery",
    "divisionname": "Rewa",
    "regionname": "Bhopal HQ",
    "circlename": "Madhya Pradesh",
    "Taluk": "Sirmour",
    "Districtname": "Rewa",
    "statename": "MADHYA PRADESH"
  },
  {
    "pincode": "486448",
    "officename": "Padri B.O",
    "officeType": "B.O",
    "Deliverystatus": "Delivery",
    "divisionname": "Rewa",
    "regionname": "Bhopal HQ",
    "circlename": "Madhya Pradesh",
    "Taluk": "Sirmour",
    "Districtname": "Rewa",
    "statename": "MADHYA PRADESH"
  },
  {
    "pincode": "486448",
    "officename": "Pathari B.O",
    "officeType": "B.O",
    "Deliverystatus": "Delivery",
    "divisionname": "Rewa",
    "regionname": "Bhopal HQ",
    "circlename": "Madhya Pradesh",
    "Taluk": "Sirmour",
    "Districtname": "Rewa",
    "statename": "MADHYA PRADESH"
  },
  {
    "pincode": "486448",
    "officename": "Rajgarh B.O",
    "officeType": "B.O",
    "Deliverystatus": "Delivery",
    "divisionname": "Rewa",
    "regionname": "Bhopal HQ",
    "circlename": "Madhya Pradesh",
    "Taluk": "Sirmour",
    "Districtname": "Rewa",
    "statename": "MADHYA PRADESH"
  },
  {
    "pincode": "486448",
    "officename": "Sadahana B.O",
    "officeType": "B.O",
    "Deliverystatus": "Delivery",
    "divisionname": "Rewa",
    "regionname": "Bhopal HQ",
    "circlename": "Madhya Pradesh",
    "Taluk": "Sirmour",
    "Districtname": "Rewa",
    "statename": "MADHYA PRADESH"
  },
  {
    "pincode": "486448",
    "officename": "Sirmour S.O",
    "officeType": "S.O",
    "Deliverystatus": "Delivery",
    "divisionname": "Rewa",
    "regionname": "Bhopal HQ",
    "circlename": "Madhya Pradesh",
    "Taluk": "Sirmour",
    "Districtname": "Rewa",
    "statename": "MADHYA PRADESH"
  },
  {
    "pincode": "486448",
    "officename": "Umari B.O",
    "officeType": "B.O",
    "Deliverystatus": "Delivery",
    "divisionname": "Rewa",
    "regionname": "Bhopal HQ",
    "circlename": "Madhya Pradesh",
    "Taluk": "Sirmour",
    "Districtname": "Rewa",
    "statename": "MADHYA PRADESH"
  }
]
