[
  {
    "pincode": "486556",
    "officename": "Akauri B.O",
    "officeType": "B.O",
    "Deliverystatus": "Delivery",
    "divisionname": "Rewa",
    "regionname": "Bhopal HQ",
    "circlename": "Madhya Pradesh",
    "Taluk": "Teonthar",
    "Districtname": "Rewa",
    "statename": "MADHYA PRADESH"
  },
  {
    "pincode": "486556",
    "officename": "Dabhaura S.O",
    "officeType": "S.O",
    "Deliverystatus": "Delivery",
    "divisionname": "Rewa",
    "regionname": "Bhopal HQ",
    "circlename": "Madhya Pradesh",
    "Taluk": "Teonthar",
    "Districtname": "Rewa",
    "statename": "MADHYA PRADESH"
  },
  {
    "pincode": "486556",
    "officename": "Dondar B.O",
    "officeType": "B.O",
    "Deliverystatus": "Delivery",
    "divisionname": "Rewa",
    "regionname": "Bhopal HQ",
    "circlename": "Madhya Pradesh",
    "Taluk": "Teonthar",
    "Districtname": "Rewa",
    "statename": "MADHYA PRADESH"
  },
  {
    "pincode": "486556",
    "officename": "Ghooman B.O",
    "officeType": "B.O",
    "Deliverystatus": "Delivery",
    "divisionname": "Rewa",
    "regionname": "Bhopal HQ",
    "circlename": "Madhya Pradesh",
    "Taluk": "Teonthar",
    "Districtname": "Rewa",
    "statename": "MADHYA PRADESH"
  },
  {
    "pincode": "486556",
    "officename": "Hardoli B.O",
    "officeType": "B.O",
    "Deliverystatus": "Delivery",
    "divisionname": "Rewa",
    "regionname": "Bhopal HQ",
    "circlename": "Madhya Pradesh",
    "Taluk": "Teonthar",
    "Districtname": "Rewa",
    "statename": "MADHYA PRADESH"
  },
  {
    "pincode": "486556",
    "officename": "Kota B.O",
    "officeType": "B.O",
    "Deliverystatus": "Delivery",
    "divisionname": "Rewa",
    "regionname": "Bhopal HQ",
    "circlename": "Madhya Pradesh",
    "Taluk": "Teonthar",
    "Districtname": "Rewa",
    "statename": "MADHYA PRADESH"
  },
  {
    "pincode": "486556",
    "officename": "Kotwa B.O",
    "officeType": "B.O",
    "Deliverystatus": "Delivery",
    "divisionname": "Rewa",
    "regionname": "Bhopal HQ",
    "circlename": "Madhya Pradesh",
    "Taluk": "Teonthar",
    "Districtname": "Rewa",
    "statename": "MADHYA PRADESH"
  },
  {
    "pincode": "486556",
    "officename": "Madri B.O",
    "officeType": "B.O",
    "Deliverystatus": "Delivery",
    "divisionname": "Rewa",
    "regionname": "Bhopal HQ",
    "circlename": "Madhya Pradesh",
    "Taluk": "Sirmour",
    "Districtname": "Rewa",
    "statename": "MADHYA PRADESH"
  },
  {
    "pincode": "486556",
    "officename": "Panwar B.O",
    "officeType": "B.O",
    "Deliverystatus": "Delivery",
    "divisionname": "Rewa",
    "regionname": "Bhopal HQ",
    "circlename": "Madhya Pradesh",
    "Taluk": "Teonthar",
    "Districtname": "Rewa",
    "statename": "MADHYA PRADESH"
  }
]
