[
  {
    "pincode": "486553",
    "officename": "Badagaon B.O",
    "officeType": "B.O",
    "Deliverystatus": "Delivery",
    "divisionname": "Rewa",
    "regionname": "Bhopal HQ",
    "circlename": "Madhya Pradesh",
    "Taluk": "Gurh",
    "Districtname": "Rewa",
    "statename": "MADHYA PRADESH"
  },
  {
    "pincode": "486553",
    "officename": "Badwar B.O",
    "officeType": "B.O",
    "Deliverystatus": "Delivery",
    "divisionname": "Rewa",
    "regionname": "Bhopal HQ",
    "circlename": "Madhya Pradesh",
    "Taluk": "Gurh",
    "Districtname": "Rewa",
    "statename": "MADHYA PRADESH"
  },
  {
    "pincode": "486553",
    "officename": "Barsaita B.O",
    "officeType": "B.O",
    "Deliverystatus": "Delivery",
    "divisionname": "Rewa",
    "regionname": "Bhopal HQ",
    "circlename": "Madhya Pradesh",
    "Taluk": "Gurh",
    "Districtname": "Rewa",
    "statename": "MADHYA PRADESH"
  },
  {
    "pincode": "486553",
    "officename": "Bhita B.O",
    "officeType": "B.O",
    "Deliverystatus": "Delivery",
    "divisionname": "Rewa",
    "regionname": "Bhopal HQ",
    "circlename": "Madhya Pradesh",
    "Taluk": "Gurh",
    "Districtname": "Rewa",
    "statename": "MADHYA PRADESH"
  },
  {
    "pincode": "486553",
    "officename": "Gurh S.O",
    "officeType": "S.O",
    "Deliverystatus": "Delivery",
    "divisionname": "Rewa",
    "regionname": "Bhopal HQ",
    "circlename": "Madhya Pradesh",
    "Taluk": "Gurh",
    "Districtname": "Rewa",
    "statename": "MADHYA PRADESH"
  },
  {
    "pincode": "486553",
    "officename": "Hardi B.O",
    "officeType": "B.O",
    "Deliverystatus": "Delivery",
    "divisionname": "Rewa",
    "regionname": "Bhopal HQ",
    "circlename": "Madhya Pradesh",
    "Taluk": "Gurh",
    "Districtname": "Rewa",
    "statename": "MADHYA PRADESH"
  },
  {
    "pincode": "486553",
    "officename": "Jaldar B.O",
    "officeType": "B.O",
    "Deliverystatus": "Delivery",
    "divisionname": "Rewa",
    "regionname": "Bhopal HQ",
    "circlename": "Madhya Pradesh",
    "Taluk": "Gurh",
    "Districtname": "Rewa",
    "statename": "MADHYA PRADESH"
  },
  {
    "pincode": "486553",
    "officename": "Karaundi B.O",
    "officeType": "B.O",
    "Deliverystatus": "Delivery",
    "divisionname": "Rewa",
    "regionname": "Bhopal HQ",
    "circlename": "Madhya Pradesh",
    "Taluk": "Gurh",
    "Districtname": "Rewa",
    "statename": "MADHYA PRADESH"
  },
  {
    "pincode": "486553",
    "officename": "Khajuha Kala B.O",
    "officeType": "B.O",
    "Deliverystatus": "Delivery",
    "divisionname": "Rewa",
    "regionname": "Bhopal HQ",
    "circlename": "Madhya Pradesh",
    "Taluk": "Gurh",
    "Districtname": "Rewa",
    "statename": "MADHYA PRADESH"
  },
  {
    "pincode": "486553",
    "officename": "Mahsaon B.O",
    "officeType": "B.O",
    "Deliverystatus": "Delivery",
    "divisionname": "Rewa",
    "regionname": "Bhopal HQ",
    "circlename": "Madhya Pradesh",
    "Taluk": "Gurh",
    "Districtname": "Rewa",
    "statename": "MADHYA PRADESH"
  },
  {
    "pincode": "486553",
    "officename": "Pantibadi B.O",
    "officeType": "B.O",
    "Deliverystatus": "Delivery",
    "divisionname": "Rewa",
    "regionname": "Bhopal HQ",
    "circlename": "Madhya Pradesh",
    "Taluk": "Gurh",
    "Districtname": "Rewa",
    "statename": "MADHYA PRADESH"
  },
  {
    "pincode": "486553",
    "officename": "Patauta B.O",
    "officeType": "B.O",
    "Deliverystatus": "Delivery",
    "divisionname": "Rewa",
    "regionname": "Bhopal HQ",
    "circlename": "Madhya Pradesh",
    "Taluk": "Gurh",
    "Districtname": "Rewa",
    "statename": "MADHYA PRADESH"
  },
  {
    "pincode": "486553",
    "officename": "Rithi B.O",
    "officeType": "B.O",
    "Deliverystatus": "Delivery",
    "divisionname": "Rewa",
    "regionname": "Bhopal HQ",
    "circlename": "Madhya Pradesh",
    "Taluk": "Gurh",
    "Districtname": "Rewa",
    "statename": "MADHYA PRADESH"
  }
]
