[
  {
    "pincode": "486776",
    "officename": "Amlai B.O",
    "officeType": "B.O",
    "Deliverystatus": "Delivery",
    "divisionname": "Shahdol",
    "regionname": "Bhopal HQ",
    "circlename": "Madhya Pradesh",
    "Taluk": "Rampur Naikin",
    "Districtname": "Sidhi",
    "statename": "MADHYA PRADESH"
  },
  {
    "pincode": "486776",
    "officename": "Bagad B.O",
    "officeType": "B.O",
    "Deliverystatus": "Delivery",
    "divisionname": "Shahdol",
    "regionname": "Bhopal HQ",
    "circlename": "Madhya Pradesh",
    "Taluk": "Rampur Naikin",
    "Districtname": "Sidhi",
    "statename": "MADHYA PRADESH"
  },
  {
    "pincode": "486776",
    "officename": "Baghwar B.O",
    "officeType": "B.O",
    "Deliverystatus": "Delivery",
    "divisionname": "Shahdol",
    "regionname": "Bhopal HQ",
    "circlename": "Madhya Pradesh",
    "Taluk": "Rampur Naikin",
    "Districtname": "Sidhi",
    "statename": "MADHYA PRADESH"
  },
  {
    "pincode": "486776",
    "officename": "Bharatpur S.O (Sidhi)",
    "officeType": "S.O",
    "Deliverystatus": "Delivery",
    "divisionname": "Shahdol",
    "regionname": "Bhopal HQ",
    "circlename": "Madhya Pradesh",
    "Taluk": "Rampur Naikin",
    "Districtname": "Sidhi",
    "statename": "MADHYA PRADESH"
  },
  {
    "pincode": "486776",
    "officename": "Budgauna B.O",
    "officeType": "B.O",
    "Deliverystatus": "Delivery",
    "divisionname": "Shahdol",
    "regionname": "Bhopal HQ",
    "circlename": "Madhya Pradesh",
    "Taluk": "Rampur Naikin",
    "Districtname": "Sidhi",
    "statename": "MADHYA PRADESH"
  },
  {
    "pincode": "486776",
    "officename": "Chorgadhi B.O",
    "officeType": "B.O",
    "Deliverystatus": "Delivery",
    "divisionname": "Shahdol",
    "regionname": "Bhopal HQ",
    "circlename": "Madhya Pradesh",
    "Taluk": "Rampur Naikin",
    "Districtname": "Sidhi",
    "statename": "MADHYA PRADESH"
  },
  {
    "pincode": "486776",
    "officename": "Naikin B.O",
    "officeType": "B.O",
    "Deliverystatus": "Delivery",
    "divisionname": "Shahdol",
    "regionname": "Bhopal HQ",
    "circlename": "Madhya Pradesh",
    "Taluk": "Rampur Naikin",
    "Districtname": "Sidhi",
    "statename": "MADHYA PRADESH"
  },
  {
    "pincode": "486776",
    "officename": "Patna B.O",
    "officeType": "B.O",
    "Deliverystatus": "Delivery",
    "divisionname": "Shahdol",
    "regionname": "Bhopal HQ",
    "circlename": "Madhya Pradesh",
    "Taluk": "Gopadbanas",
    "Districtname": "Sidhi",
    "statename": "MADHYA PRADESH"
  },
  {
    "pincode": "486776",
    "officename": "Raghunathpur B.O",
    "officeType": "B.O",
    "Deliverystatus": "Delivery",
    "divisionname": "Shahdol",
    "regionname": "Bhopal HQ",
    "circlename": "Madhya Pradesh",
    "Taluk": "Rampur Naikin",
    "Districtname": "Sidhi",
    "statename": "MADHYA PRADESH"
  },
  {
    "pincode": "486776",
    "officename": "Raiduaria B.O",
    "officeType": "B.O",
    "Deliverystatus": "Delivery",
    "divisionname": "Shahdol",
    "regionname": "Bhopal HQ",
    "circlename": "Madhya Pradesh",
    "Taluk": "Rampur Naikin",
    "Districtname": "Sidhi",
    "statename": "MADHYA PRADESH"
  }
]
