[
  {
    "pincode": "486775",
    "officename": "Amiliha B.O",
    "officeType": "B.O",
    "Deliverystatus": "Delivery",
    "divisionname": "Shahdol",
    "regionname": "Bhopal HQ",
    "circlename": "Madhya Pradesh",
    "Taluk": "Rampur Naikin",
    "Districtname": "Sidhi",
    "statename": "MADHYA PRADESH"
  },
  {
    "pincode": "486775",
    "officename": "Bhitri B.O",
    "officeType": "B.O",
    "Deliverystatus": "Delivery",
    "divisionname": "Shahdol",
    "regionname": "Bhopal HQ",
    "circlename": "Madhya Pradesh",
    "Taluk": "Rampur Naikin",
    "Districtname": "Sidhi",
    "statename": "MADHYA PRADESH"
  },
  {
    "pincode": "486775",
    "officename": "Gordaha B.O",
    "officeType": "B.O",
    "Deliverystatus": "Delivery",
    "divisionname": "Shahdol",
    "regionname": "Bhopal HQ",
    "circlename": "Madhya Pradesh",
    "Taluk": "Rampur Naikin",
    "Districtname": "Sidhi",
    "statename": "MADHYA PRADESH"
  },
  {
    "pincode": "486775",
    "officename": "Gujder B.O",
    "officeType": "B.O",
    "Deliverystatus": "Delivery",
    "divisionname": "Shahdol",
    "regionname": "Bhopal HQ",
    "circlename": "Madhya Pradesh",
    "Taluk": "Rampur Naikin",
    "Districtname": "Sidhi",
    "statename": "MADHYA PRADESH"
  },
  {
    "pincode": "486775",
    "officename": "Jhanjh B.O",
    "officeType": "B.O",
    "Deliverystatus": "Delivery",
    "divisionname": "Shahdol",
    "regionname": "Bhopal HQ",
    "circlename": "Madhya Pradesh",
    "Taluk": "Rampur Naikin",
    "Districtname": "Sidhi",
    "statename": "MADHYA PRADESH"
  },
  {
    "pincode": "486775",
    "officename": "Kandhwar B.O",
    "officeType": "B.O",
    "Deliverystatus": "Delivery",
    "divisionname": "Shahdol",
    "regionname": "Bhopal HQ",
    "circlename": "Madhya Pradesh",
    "Taluk": "Rampur Naikin",
    "Districtname": "Sidhi",
    "statename": "MADHYA PRADESH"
  },
  {
    "pincode": "486775",
    "officename": "Khaddi B.O",
    "officeType": "B.O",
    "Deliverystatus": "Delivery",
    "divisionname": "Shahdol",
    "regionname": "Bhopal HQ",
    "circlename": "Madhya Pradesh",
    "Taluk": "Rampur Naikin",
    "Districtname": "Sidhi",
    "statename": "MADHYA PRADESH"
  },
  {
    "pincode": "486775",
    "officename": "Kudia B.O",
    "officeType": "B.O",
    "Deliverystatus": "Delivery",
    "divisionname": "Shahdol",
    "regionname": "Bhopal HQ",
    "circlename": "Madhya Pradesh",
    "Taluk": "Rampur Naikin",
    "Districtname": "Sidhi",
    "statename": "MADHYA PRADESH"
  },
  {
    "pincode": "486775",
    "officename": "Madha B.O",
    "officeType": "B.O",
    "Deliverystatus": "Delivery",
    "divisionname": "Shahdol",
    "regionname": "Bhopal HQ",
    "circlename": "Madhya Pradesh",
    "Taluk": "Rampur Naikin",
    "Districtname": "Sidhi",
    "statename": "MADHYA PRADESH"
  },
  {
    "pincode": "486775",
    "officename": "Mamdar B.O",
    "officeType": "B.O",
    "Deliverystatus": "Delivery",
    "divisionname": "Shahdol",
    "regionname": "Bhopal HQ",
    "circlename": "Madhya Pradesh",
    "Taluk": "Rampur Naikin",
    "Districtname": "Sidhi",
    "statename": "MADHYA PRADESH"
  },
  {
    "pincode": "486775",
    "officename": "Maura B.O",
    "officeType": "B.O",
    "Deliverystatus": "Delivery",
    "divisionname": "Shahdol",
    "regionname": "Bhopal HQ",
    "circlename": "Madhya Pradesh",
    "Taluk": "Rampur Naikin",
    "Districtname": "Sidhi",
    "statename": "MADHYA PRADESH"
  },
  {
    "pincode": "486775",
    "officename": "Rampur Naikin S.O",
    "officeType": "S.O",
    "Deliverystatus": "Delivery",
    "divisionname": "Shahdol",
    "regionname": "Bhopal HQ",
    "circlename": "Madhya Pradesh",
    "Taluk": "Rampur Naikin",
    "Districtname": "Sidhi",
    "statename": "MADHYA PRADESH"
  }
]
