[
  {
    "pincode": "486881",
    "officename": "Chandwar B.O",
    "officeType": "B.O",
    "Deliverystatus": "Delivery",
    "divisionname": "Shahdol",
    "regionname": "Bhopal HQ",
    "circlename": "Madhya Pradesh",
    "Taluk": "Devsar",
    "Districtname": "Sidhi",
    "statename": "MADHYA PRADESH"
  },
  {
    "pincode": "486881",
    "officename": "Chatainiha B.O",
    "officeType": "B.O",
    "Deliverystatus": "Delivery",
    "divisionname": "Shahdol",
    "regionname": "Bhopal HQ",
    "circlename": "Madhya Pradesh",
    "Taluk": "Devsar",
    "Districtname": "Sidhi",
    "statename": "MADHYA PRADESH"
  },
  {
    "pincode": "486881",
    "officename": "Darbari B.O",
    "officeType": "B.O",
    "Deliverystatus": "Delivery",
    "divisionname": "Shahdol",
    "regionname": "Bhopal HQ",
    "circlename": "Madhya Pradesh",
    "Taluk": "Devsar",
    "Districtname": "Sidhi",
    "statename": "MADHYA PRADESH"
  },
  {
    "pincode": "486881",
    "officename": "Dhonga B.O",
    "officeType": "B.O",
    "Deliverystatus": "Delivery",
    "divisionname": "Shahdol",
    "regionname": "Bhopal HQ",
    "circlename": "Madhya Pradesh",
    "Taluk": "Devsar",
    "Districtname": "Sidhi",
    "statename": "MADHYA PRADESH"
  },
  {
    "pincode": "486881",
    "officename": "Geer B.O",
    "officeType": "B.O",
    "Deliverystatus": "Delivery",
    "divisionname": "Shahdol",
    "regionname": "Bhopal HQ",
    "circlename": "Madhya Pradesh",
    "Taluk": "Devsar",
    "Districtname": "Sidhi",
    "statename": "MADHYA PRADESH"
  },
  {
    "pincode": "486881",
    "officename": "Jhakhrawal B.O",
    "officeType": "B.O",
    "Deliverystatus": "Delivery",
    "divisionname": "Shahdol",
    "regionname": "Bhopal HQ",
    "circlename": "Madhya Pradesh",
    "Taluk": "Gopadbanas",
    "Districtname": "Sidhi",
    "statename": "MADHYA PRADESH"
  },
  {
    "pincode": "486881",
    "officename": "Jiawan S.O",
    "officeType": "S.O",
    "Deliverystatus": "Delivery",
    "divisionname": "Shahdol",
    "regionname": "Bhopal HQ",
    "circlename": "Madhya Pradesh",
    "Taluk": "Deosar",
    "Districtname": "Sidhi",
    "statename": "MADHYA PRADESH"
  },
  {
    "pincode": "486881",
    "officename": "Purail B.O",
    "officeType": "B.O",
    "Deliverystatus": "Delivery",
    "divisionname": "Shahdol",
    "regionname": "Bhopal HQ",
    "circlename": "Madhya Pradesh",
    "Taluk": "Devsar",
    "Districtname": "Sidhi",
    "statename": "MADHYA PRADESH"
  },
  {
    "pincode": "486881",
    "officename": "Sarai B.O",
    "officeType": "B.O",
    "Deliverystatus": "Delivery",
    "divisionname": "Shahdol",
    "regionname": "Bhopal HQ",
    "circlename": "Madhya Pradesh",
    "Taluk": "Deosar",
    "Districtname": "Sidhi",
    "statename": "MADHYA PRADESH"
  },
  {
    "pincode": "486881",
    "officename": "Saraundha B.O",
    "officeType": "B.O",
    "Deliverystatus": "Delivery",
    "divisionname": "Shahdol",
    "regionname": "Bhopal HQ",
    "circlename": "Madhya Pradesh",
    "Taluk": "Deosar",
    "Districtname": "Sidhi",
    "statename": "MADHYA PRADESH"
  },
  {
    "pincode": "486881",
    "officename": "Tingudi B.O",
    "officeType": "B.O",
    "Deliverystatus": "Delivery",
    "divisionname": "Shahdol",
    "regionname": "Bhopal HQ",
    "circlename": "Madhya Pradesh",
    "Taluk": "Deosar",
    "Districtname": "Sidhi",
    "statename": "MADHYA PRADESH"
  }
]
