[
  {
    "pincode": "486892",
    "officename": "Dudhmania B.O",
    "officeType": "B.O",
    "Deliverystatus": "Delivery",
    "divisionname": "Shahdol",
    "regionname": "Bhopal HQ",
    "circlename": "Madhya Pradesh",
    "Taluk": "Chitrangi",
    "Districtname": "Sidhi",
    "statename": "MADHYA PRADESH"
  },
  {
    "pincode": "486892",
    "officename": "Gondwali B.O",
    "officeType": "B.O",
    "Deliverystatus": "Delivery",
    "divisionname": "Shahdol",
    "regionname": "Bhopal HQ",
    "circlename": "Madhya Pradesh",
    "Taluk": "Chitrangi",
    "Districtname": "Sidhi",
    "statename": "MADHYA PRADESH"
  },
  {
    "pincode": "486892",
    "officename": "Gorbi S.O",
    "officeType": "S.O",
    "Deliverystatus": "Delivery",
    "divisionname": "Shahdol",
    "regionname": "Bhopal HQ",
    "circlename": "Madhya Pradesh",
    "Taluk": "Chitrangi",
    "Districtname": "Sidhi",
    "statename": "MADHYA PRADESH"
  },
  {
    "pincode": "486892",
    "officename": "Karaila B.O",
    "officeType": "B.O",
    "Deliverystatus": "Delivery",
    "divisionname": "Shahdol",
    "regionname": "Bhopal HQ",
    "circlename": "Madhya Pradesh",
    "Taluk": "Chitrangi",
    "Districtname": "Sidhi",
    "statename": "MADHYA PRADESH"
  },
  {
    "pincode": "486892",
    "officename": "Pachaur B.O",
    "officeType": "B.O",
    "Deliverystatus": "Delivery",
    "divisionname": "Shahdol",
    "regionname": "Bhopal HQ",
    "circlename": "Madhya Pradesh",
    "Taluk": "Churhat",
    "Districtname": "Sidhi",
    "statename": "MADHYA PRADESH"
  },
  {
    "pincode": "486892",
    "officename": "Pateri B.O",
    "officeType": "B.O",
    "Deliverystatus": "Delivery",
    "divisionname": "Shahdol",
    "regionname": "Bhopal HQ",
    "circlename": "Madhya Pradesh",
    "Taluk": "Chitrangi",
    "Districtname": "Sidhi",
    "statename": "MADHYA PRADESH"
  },
  {
    "pincode": "486892",
    "officename": "Pipra B.O",
    "officeType": "B.O",
    "Deliverystatus": "Delivery",
    "divisionname": "Shahdol",
    "regionname": "Bhopal HQ",
    "circlename": "Madhya Pradesh",
    "Taluk": "Chitrangi",
    "Districtname": "Sidhi",
    "statename": "MADHYA PRADESH"
  },
  {
    "pincode": "486892",
    "officename": "Pokhra B.O",
    "officeType": "B.O",
    "Deliverystatus": "Delivery",
    "divisionname": "Shahdol",
    "regionname": "Bhopal HQ",
    "circlename": "Madhya Pradesh",
    "Taluk": "Chitrangi",
    "Districtname": "Sidhi",
    "statename": "MADHYA PRADESH"
  }
]
