[
  {
    "pincode": "487001",
    "officename": "Bachai B.O",
    "officeType": "B.O",
    "Deliverystatus": "Delivery",
    "divisionname": "Hoshangabad",
    "regionname": "Bhopal HQ",
    "circlename": "Madhya Pradesh",
    "Taluk": "",
    "Districtname": "Narsinghpur",
    "statename": "MADHYA PRADESH"
  },
  {
    "pincode": "487001",
    "officename": "Bahoripar B.O",
    "officeType": "B.O",
    "Deliverystatus": "Delivery",
    "divisionname": "Hoshangabad",
    "regionname": "Bhopal HQ",
    "circlename": "Madhya Pradesh",
    "Taluk": "Narsimhapur",
    "Districtname": "Narsinghpur",
    "statename": "MADHYA PRADESH"
  },
  {
    "pincode": "487001",
    "officename": "Chawarkheda B.O",
    "officeType": "B.O",
    "Deliverystatus": "Delivery",
    "divisionname": "Hoshangabad",
    "regionname": "Bhopal HQ",
    "circlename": "Madhya Pradesh",
    "Taluk": "",
    "Districtname": "Narsinghpur",
    "statename": "MADHYA PRADESH"
  },
  {
    "pincode": "487001",
    "officename": "Chinki B.O",
    "officeType": "B.O",
    "Deliverystatus": "Delivery",
    "divisionname": "Hoshangabad",
    "regionname": "Bhopal HQ",
    "circlename": "Madhya Pradesh",
    "Taluk": "Kareli",
    "Districtname": "Narsinghpur",
    "statename": "MADHYA PRADESH"
  },
  {
    "pincode": "487001",
    "officename": "Dangidhana B.O",
    "officeType": "B.O",
    "Deliverystatus": "Delivery",
    "divisionname": "Hoshangabad",
    "regionname": "Bhopal HQ",
    "circlename": "Madhya Pradesh",
    "Taluk": "",
    "Districtname": "Narsinghpur",
    "statename": "MADHYA PRADESH"
  },
  {
    "pincode": "487001",
    "officename": "Devnagarnaya B.O",
    "officeType": "B.O",
    "Deliverystatus": "Delivery",
    "divisionname": "Hoshangabad",
    "regionname": "Bhopal HQ",
    "circlename": "Madhya Pradesh",
    "Taluk": "",
    "Districtname": "Narsinghpur",
    "statename": "MADHYA PRADESH"
  },
  {
    "pincode": "487001",
    "officename": "Dhamna B.O",
    "officeType": "B.O",
    "Deliverystatus": "Delivery",
    "divisionname": "Hoshangabad",
    "regionname": "Bhopal HQ",
    "circlename": "Madhya Pradesh",
    "Taluk": "",
    "Districtname": "Narsinghpur",
    "statename": "MADHYA PRADESH"
  },
  {
    "pincode": "487001",
    "officename": "Dudwara B.O",
    "officeType": "B.O",
    "Deliverystatus": "Delivery",
    "divisionname": "Hoshangabad",
    "regionname": "Bhopal HQ",
    "circlename": "Madhya Pradesh",
    "Taluk": "Narsimhapur",
    "Districtname": "Narsinghpur",
    "statename": "MADHYA PRADESH"
  },
  {
    "pincode": "487001",
    "officename": "Itwarabazar B.O",
    "officeType": "B.O",
    "Deliverystatus": "Delivery",
    "divisionname": "Hoshangabad",
    "regionname": "Bhopal HQ",
    "circlename": "Madhya Pradesh",
    "Taluk": "Narsimhapur",
    "Districtname": "Narsinghpur",
    "statename": "MADHYA PRADESH"
  },
  {
    "pincode": "487001",
    "officename": "Kamtada B.O",
    "officeType": "B.O",
    "Deliverystatus": "Delivery",
    "divisionname": "Hoshangabad",
    "regionname": "Bhopal HQ",
    "circlename": "Madhya Pradesh",
    "Taluk": "",
    "Districtname": "Narsinghpur",
    "statename": "MADHYA PRADESH"
  },
  {
    "pincode": "487001",
    "officename": "Kandeli S.O",
    "officeType": "S.O",
    "Deliverystatus": "Non-Delivery",
    "divisionname": "Hoshangabad",
    "regionname": "Bhopal HQ",
    "circlename": "Madhya Pradesh",
    "Taluk": "Narsimhapur",
    "Districtname": "Narsinghpur",
    "statename": "MADHYA PRADESH"
  },
  {
    "pincode": "487001",
    "officename": "Kerpani B.O",
    "officeType": "B.O",
    "Deliverystatus": "Delivery",
    "divisionname": "Hoshangabad",
    "regionname": "Bhopal HQ",
    "circlename": "Madhya Pradesh",
    "Taluk": "Kareli",
    "Districtname": "Narsinghpur",
    "statename": "MADHYA PRADESH"
  },
  {
    "pincode": "487001",
    "officename": "Khamria B.O",
    "officeType": "B.O",
    "Deliverystatus": "Delivery",
    "divisionname": "Hoshangabad",
    "regionname": "Bhopal HQ",
    "circlename": "Madhya Pradesh",
    "Taluk": "",
    "Districtname": "Narsinghpur",
    "statename": "MADHYA PRADESH"
  },
  {
    "pincode": "487001",
    "officename": "Kherinaka B.O",
    "officeType": "B.O",
    "Deliverystatus": "Delivery",
    "divisionname": "Hoshangabad",
    "regionname": "Bhopal HQ",
    "circlename": "Madhya Pradesh",
    "Taluk": "Narsimhapur",
    "Districtname": "Narsinghpur",
    "statename": "MADHYA PRADESH"
  },
  {
    "pincode": "487001",
    "officename": "Khurpa B.O",
    "officeType": "B.O",
    "Deliverystatus": "Delivery",
    "divisionname": "Hoshangabad",
    "regionname": "Bhopal HQ",
    "circlename": "Madhya Pradesh",
    "Taluk": "",
    "Districtname": "Narsinghpur",
    "statename": "MADHYA PRADESH"
  },
  {
    "pincode": "487001",
    "officename": "Magrdha B.O",
    "officeType": "B.O",
    "Deliverystatus": "Delivery",
    "divisionname": "Hoshangabad",
    "regionname": "Bhopal HQ",
    "circlename": "Madhya Pradesh",
    "Taluk": "",
    "Districtname": "Narsinghpur",
    "statename": "MADHYA PRADESH"
  },
  {
    "pincode": "487001",
    "officename": "Mungwani B.O",
    "officeType": "B.O",
    "Deliverystatus": "Delivery",
    "divisionname": "Hoshangabad",
    "regionname": "Bhopal HQ",
    "circlename": "Madhya Pradesh",
    "Taluk": "Narsimhapur",
    "Districtname": "Narsinghpur",
    "statename": "MADHYA PRADESH"
  },
  {
    "pincode": "487001",
    "officename": "Narsinghpur H.O",
    "officeType": "H.O",
    "Deliverystatus": "Delivery",
    "divisionname": "Hoshangabad",
    "regionname": "Bhopal HQ",
    "circlename": "Madhya Pradesh",
    "Taluk": "Narsinghpur Ho",
    "Districtname": "Narsinghpur",
    "statename": "MADHYA PRADESH"
  },
  {
    "pincode": "487001",
    "officename": "Narsinghpur R.S. S.O",
    "officeType": "S.O",
    "Deliverystatus": "Non-Delivery",
    "divisionname": "Hoshangabad",
    "regionname": "Bhopal HQ",
    "circlename": "Madhya Pradesh",
    "Taluk": "Narsimhapur",
    "Districtname": "Narsinghpur",
    "statename": "MADHYA PRADESH"
  },
  {
    "pincode": "487001",
    "officename": "Nayakheda B.O",
    "officeType": "B.O",
    "Deliverystatus": "Delivery",
    "divisionname": "Hoshangabad",
    "regionname": "Bhopal HQ",
    "circlename": "Madhya Pradesh",
    "Taluk": "",
    "Districtname": "Narsinghpur",
    "statename": "MADHYA PRADESH"
  },
  {
    "pincode": "487001",
    "officename": "Rampiparia B.O",
    "officeType": "B.O",
    "Deliverystatus": "Delivery",
    "divisionname": "Hoshangabad",
    "regionname": "Bhopal HQ",
    "circlename": "Madhya Pradesh",
    "Taluk": "Kareli",
    "Districtname": "Narsinghpur",
    "statename": "MADHYA PRADESH"
  },
  {
    "pincode": "487001",
    "officename": "Umaria(Chinki) B.O",
    "officeType": "B.O",
    "Deliverystatus": "Delivery",
    "divisionname": "Hoshangabad",
    "regionname": "Bhopal HQ",
    "circlename": "Madhya Pradesh",
    "Taluk": "",
    "Districtname": "Narsinghpur",
    "statename": "MADHYA PRADESH"
  }
]
