[
  {
    "pincode": "487118",
    "officename": "Bagaspur B.O",
    "officeType": "B.O",
    "Deliverystatus": "Delivery",
    "divisionname": "Hoshangabad",
    "regionname": "Bhopal HQ",
    "circlename": "Madhya Pradesh",
    "Taluk": "",
    "Districtname": "Narsinghpur",
    "statename": "MADHYA PRADESH"
  },
  {
    "pincode": "487118",
    "officename": "Barhata B.O",
    "officeType": "B.O",
    "Deliverystatus": "Delivery",
    "divisionname": "Hoshangabad",
    "regionname": "Bhopal HQ",
    "circlename": "Madhya Pradesh",
    "Taluk": "",
    "Districtname": "Narsinghpur",
    "statename": "MADHYA PRADESH"
  },
  {
    "pincode": "487118",
    "officename": "Bedu B.O",
    "officeType": "B.O",
    "Deliverystatus": "Delivery",
    "divisionname": "Hoshangabad",
    "regionname": "Bhopal HQ",
    "circlename": "Madhya Pradesh",
    "Taluk": "",
    "Districtname": "Narsinghpur",
    "statename": "MADHYA PRADESH"
  },
  {
    "pincode": "487118",
    "officename": "Belkhedi B.O",
    "officeType": "B.O",
    "Deliverystatus": "Delivery",
    "divisionname": "Hoshangabad",
    "regionname": "Bhopal HQ",
    "circlename": "Madhya Pradesh",
    "Taluk": "",
    "Districtname": "Narsinghpur",
    "statename": "MADHYA PRADESH"
  },
  {
    "pincode": "487118",
    "officename": "Bikrampur B.O",
    "officeType": "B.O",
    "Deliverystatus": "Delivery",
    "divisionname": "Hoshangabad",
    "regionname": "Bhopal HQ",
    "circlename": "Madhya Pradesh",
    "Taluk": "",
    "Districtname": "Narsinghpur",
    "statename": "MADHYA PRADESH"
  },
  {
    "pincode": "487118",
    "officename": "Chandankheda B.O",
    "officeType": "B.O",
    "Deliverystatus": "Delivery",
    "divisionname": "Hoshangabad",
    "regionname": "Bhopal HQ",
    "circlename": "Madhya Pradesh",
    "Taluk": "Gotegaon",
    "Districtname": "Narsinghpur",
    "statename": "MADHYA PRADESH"
  },
  {
    "pincode": "487118",
    "officename": "Devnagar(Purana) B.O",
    "officeType": "B.O",
    "Deliverystatus": "Delivery",
    "divisionname": "Hoshangabad",
    "regionname": "Bhopal HQ",
    "circlename": "Madhya Pradesh",
    "Taluk": "",
    "Districtname": "Narsinghpur",
    "statename": "MADHYA PRADESH"
  },
  {
    "pincode": "487118",
    "officename": "Gohchar B.O",
    "officeType": "B.O",
    "Deliverystatus": "Delivery",
    "divisionname": "Hoshangabad",
    "regionname": "Bhopal HQ",
    "circlename": "Madhya Pradesh",
    "Taluk": "",
    "Districtname": "Narsinghpur",
    "statename": "MADHYA PRADESH"
  },
  {
    "pincode": "487118",
    "officename": "Gotegaon S.O",
    "officeType": "S.O",
    "Deliverystatus": "Delivery",
    "divisionname": "Hoshangabad",
    "regionname": "Bhopal HQ",
    "circlename": "Madhya Pradesh",
    "Taluk": "Gotegaon",
    "Districtname": "Narsinghpur",
    "statename": "MADHYA PRADESH"
  },
  {
    "pincode": "487118",
    "officename": "Gundhari B.O",
    "officeType": "B.O",
    "Deliverystatus": "Delivery",
    "divisionname": "Hoshangabad",
    "regionname": "Bhopal HQ",
    "circlename": "Madhya Pradesh",
    "Taluk": "Gotegaon",
    "Districtname": "Narsinghpur",
    "statename": "MADHYA PRADESH"
  },
  {
    "pincode": "487118",
    "officename": "Imliya B.O",
    "officeType": "B.O",
    "Deliverystatus": "Delivery",
    "divisionname": "Hoshangabad",
    "regionname": "Bhopal HQ",
    "circlename": "Madhya Pradesh",
    "Taluk": "",
    "Districtname": "Narsinghpur",
    "statename": "MADHYA PRADESH"
  },
  {
    "pincode": "487118",
    "officename": "Jamunia B.O",
    "officeType": "B.O",
    "Deliverystatus": "Delivery",
    "divisionname": "Hoshangabad",
    "regionname": "Bhopal HQ",
    "circlename": "Madhya Pradesh",
    "Taluk": "",
    "Districtname": "Narsinghpur",
    "statename": "MADHYA PRADESH"
  },
  {
    "pincode": "487118",
    "officename": "Jhotshwar B.O",
    "officeType": "B.O",
    "Deliverystatus": "Delivery",
    "divisionname": "Hoshangabad",
    "regionname": "Bhopal HQ",
    "circlename": "Madhya Pradesh",
    "Taluk": "",
    "Districtname": "Narsinghpur",
    "statename": "MADHYA PRADESH"
  },
  {
    "pincode": "487118",
    "officename": "Kamod B.O",
    "officeType": "B.O",
    "Deliverystatus": "Delivery",
    "divisionname": "Hoshangabad",
    "regionname": "Bhopal HQ",
    "circlename": "Madhya Pradesh",
    "Taluk": "",
    "Districtname": "Narsinghpur",
    "statename": "MADHYA PRADESH"
  },
  {
    "pincode": "487118",
    "officename": "Kanjai B.O",
    "officeType": "B.O",
    "Deliverystatus": "Delivery",
    "divisionname": "Hoshangabad",
    "regionname": "Bhopal HQ",
    "circlename": "Madhya Pradesh",
    "Taluk": "Gotegaon",
    "Districtname": "Narsinghpur",
    "statename": "MADHYA PRADESH"
  },
  {
    "pincode": "487118",
    "officename": "Kareli kala B.O",
    "officeType": "B.O",
    "Deliverystatus": "Delivery",
    "divisionname": "Hoshangabad",
    "regionname": "Bhopal HQ",
    "circlename": "Madhya Pradesh",
    "Taluk": "",
    "Districtname": "Narsinghpur",
    "statename": "MADHYA PRADESH"
  },
  {
    "pincode": "487118",
    "officename": "Khamriya B.O",
    "officeType": "B.O",
    "Deliverystatus": "Delivery",
    "divisionname": "Hoshangabad",
    "regionname": "Bhopal HQ",
    "circlename": "Madhya Pradesh",
    "Taluk": "",
    "Districtname": "Narsinghpur",
    "statename": "MADHYA PRADESH"
  },
  {
    "pincode": "487118",
    "officename": "Lathgaon B.O",
    "officeType": "B.O",
    "Deliverystatus": "Delivery",
    "divisionname": "Hoshangabad",
    "regionname": "Bhopal HQ",
    "circlename": "Madhya Pradesh",
    "Taluk": "",
    "Districtname": "Narsinghpur",
    "statename": "MADHYA PRADESH"
  },
  {
    "pincode": "487118",
    "officename": "Nagwara B.O",
    "officeType": "B.O",
    "Deliverystatus": "Delivery",
    "divisionname": "Hoshangabad",
    "regionname": "Bhopal HQ",
    "circlename": "Madhya Pradesh",
    "Taluk": "Gotegaon",
    "Districtname": "Narsinghpur",
    "statename": "MADHYA PRADESH"
  },
  {
    "pincode": "487118",
    "officename": "Ponia B.O",
    "officeType": "B.O",
    "Deliverystatus": "Delivery",
    "divisionname": "Hoshangabad",
    "regionname": "Bhopal HQ",
    "circlename": "Madhya Pradesh",
    "Taluk": "Gotegaon",
    "Districtname": "Narsinghpur",
    "statename": "MADHYA PRADESH"
  },
  {
    "pincode": "487118",
    "officename": "Rakhi B.O",
    "officeType": "B.O",
    "Deliverystatus": "Delivery",
    "divisionname": "Hoshangabad",
    "regionname": "Bhopal HQ",
    "circlename": "Madhya Pradesh",
    "Taluk": "Gotegaon",
    "Districtname": "Narsinghpur",
    "statename": "MADHYA PRADESH"
  },
  {
    "pincode": "487118",
    "officename": "Sarra B.O",
    "officeType": "B.O",
    "Deliverystatus": "Delivery",
    "divisionname": "Hoshangabad",
    "regionname": "Bhopal HQ",
    "circlename": "Madhya Pradesh",
    "Taluk": "",
    "Districtname": "Narsinghpur",
    "statename": "MADHYA PRADESH"
  },
  {
    "pincode": "487118",
    "officename": "Simaria B.O",
    "officeType": "B.O",
    "Deliverystatus": "Delivery",
    "divisionname": "Hoshangabad",
    "regionname": "Bhopal HQ",
    "circlename": "Madhya Pradesh",
    "Taluk": "",
    "Districtname": "Narsinghpur",
    "statename": "MADHYA PRADESH"
  },
  {
    "pincode": "487118",
    "officename": "Srinagar B.O",
    "officeType": "B.O",
    "Deliverystatus": "Delivery",
    "divisionname": "Hoshangabad",
    "regionname": "Bhopal HQ",
    "circlename": "Madhya Pradesh",
    "Taluk": "",
    "Districtname": "Narsinghpur",
    "statename": "MADHYA PRADESH"
  },
  {
    "pincode": "487118",
    "officename": "Surwari B.O",
    "officeType": "B.O",
    "Deliverystatus": "Delivery",
    "divisionname": "Hoshangabad",
    "regionname": "Bhopal HQ",
    "circlename": "Madhya Pradesh",
    "Taluk": "Gotegaon",
    "Districtname": "Narsinghpur",
    "statename": "MADHYA PRADESH"
  },
  {
    "pincode": "487118",
    "officename": "Umria B.O",
    "officeType": "B.O",
    "Deliverystatus": "Delivery",
    "divisionname": "Hoshangabad",
    "regionname": "Bhopal HQ",
    "circlename": "Madhya Pradesh",
    "Taluk": "",
    "Districtname": "Narsinghpur",
    "statename": "MADHYA PRADESH"
  }
]
