[
  {
    "pincode": "487221",
    "officename": "Batesra B.O",
    "officeType": "B.O",
    "Deliverystatus": "Delivery",
    "divisionname": "Hoshangabad",
    "regionname": "Bhopal HQ",
    "circlename": "Madhya Pradesh",
    "Taluk": "",
    "Districtname": "Narsinghpur",
    "statename": "MADHYA PRADESH"
  },
  {
    "pincode": "487221",
    "officename": "Bhugwara B.O",
    "officeType": "B.O",
    "Deliverystatus": "Delivery",
    "divisionname": "Hoshangabad",
    "regionname": "Bhopal HQ",
    "circlename": "Madhya Pradesh",
    "Taluk": "",
    "Districtname": "Narsinghpur",
    "statename": "MADHYA PRADESH"
  },
  {
    "pincode": "487221",
    "officename": "Jobha B.O",
    "officeType": "B.O",
    "Deliverystatus": "Delivery",
    "divisionname": "Hoshangabad",
    "regionname": "Bhopal HQ",
    "circlename": "Madhya Pradesh",
    "Taluk": "",
    "Districtname": "Narsinghpur",
    "statename": "MADHYA PRADESH"
  },
  {
    "pincode": "487221",
    "officename": "Karapgaon B.O",
    "officeType": "B.O",
    "Deliverystatus": "Delivery",
    "divisionname": "Hoshangabad",
    "regionname": "Bhopal HQ",
    "circlename": "Madhya Pradesh",
    "Taluk": "",
    "Districtname": "Narsinghpur",
    "statename": "MADHYA PRADESH"
  },
  {
    "pincode": "487221",
    "officename": "Kareli S.O",
    "officeType": "S.O",
    "Deliverystatus": "Delivery",
    "divisionname": "Hoshangabad",
    "regionname": "Bhopal HQ",
    "circlename": "Madhya Pradesh",
    "Taluk": "Kareli",
    "Districtname": "Narsinghpur",
    "statename": "MADHYA PRADESH"
  },
  {
    "pincode": "487221",
    "officename": "Karelibasti B.O",
    "officeType": "B.O",
    "Deliverystatus": "Delivery",
    "divisionname": "Hoshangabad",
    "regionname": "Bhopal HQ",
    "circlename": "Madhya Pradesh",
    "Taluk": "Kareli",
    "Districtname": "Narsinghpur",
    "statename": "MADHYA PRADESH"
  },
  {
    "pincode": "487221",
    "officename": "Kathotia B.O",
    "officeType": "B.O",
    "Deliverystatus": "Delivery",
    "divisionname": "Hoshangabad",
    "regionname": "Bhopal HQ",
    "circlename": "Madhya Pradesh",
    "Taluk": "Kareli",
    "Districtname": "Narsinghpur",
    "statename": "MADHYA PRADESH"
  },
  {
    "pincode": "487221",
    "officename": "Khursuru B.O",
    "officeType": "B.O",
    "Deliverystatus": "Delivery",
    "divisionname": "Hoshangabad",
    "regionname": "Bhopal HQ",
    "circlename": "Madhya Pradesh",
    "Taluk": "Gadarwara",
    "Districtname": "Narsinghpur",
    "statename": "MADHYA PRADESH"
  },
  {
    "pincode": "487221",
    "officename": "Kodhsa B.O",
    "officeType": "B.O",
    "Deliverystatus": "Delivery",
    "divisionname": "Hoshangabad",
    "regionname": "Bhopal HQ",
    "circlename": "Madhya Pradesh",
    "Taluk": "",
    "Districtname": "Narsinghpur",
    "statename": "MADHYA PRADESH"
  },
  {
    "pincode": "487221",
    "officename": "Madesur B.O",
    "officeType": "B.O",
    "Deliverystatus": "Delivery",
    "divisionname": "Hoshangabad",
    "regionname": "Bhopal HQ",
    "circlename": "Madhya Pradesh",
    "Taluk": "",
    "Districtname": "Narsinghpur",
    "statename": "MADHYA PRADESH"
  },
  {
    "pincode": "487221",
    "officename": "Mohad B.O",
    "officeType": "B.O",
    "Deliverystatus": "Delivery",
    "divisionname": "Hoshangabad",
    "regionname": "Bhopal HQ",
    "circlename": "Madhya Pradesh",
    "Taluk": "",
    "Districtname": "Narsinghpur",
    "statename": "MADHYA PRADESH"
  },
  {
    "pincode": "487221",
    "officename": "Pipria(Linga) B.O",
    "officeType": "B.O",
    "Deliverystatus": "Delivery",
    "divisionname": "Hoshangabad",
    "regionname": "Bhopal HQ",
    "circlename": "Madhya Pradesh",
    "Taluk": "Kareli",
    "Districtname": "Narsinghpur",
    "statename": "MADHYA PRADESH"
  },
  {
    "pincode": "487221",
    "officename": "Rakai(Pipria) B.O",
    "officeType": "B.O",
    "Deliverystatus": "Delivery",
    "divisionname": "Hoshangabad",
    "regionname": "Bhopal HQ",
    "circlename": "Madhya Pradesh",
    "Taluk": "Kareli",
    "Districtname": "Narsinghpur",
    "statename": "MADHYA PRADESH"
  },
  {
    "pincode": "487221",
    "officename": "Ratikararkalas B.O",
    "officeType": "B.O",
    "Deliverystatus": "Delivery",
    "divisionname": "Hoshangabad",
    "regionname": "Bhopal HQ",
    "circlename": "Madhya Pradesh",
    "Taluk": "",
    "Districtname": "Narsinghpur",
    "statename": "MADHYA PRADESH"
  },
  {
    "pincode": "487221",
    "officename": "Shahpur B.O",
    "officeType": "B.O",
    "Deliverystatus": "Delivery",
    "divisionname": "Hoshangabad",
    "regionname": "Bhopal HQ",
    "circlename": "Madhya Pradesh",
    "Taluk": "",
    "Districtname": "Narsinghpur",
    "statename": "MADHYA PRADESH"
  }
]
