[
  {
    "pincode": "487330",
    "officename": "Barman S.O",
    "officeType": "S.O",
    "Deliverystatus": "Delivery",
    "divisionname": "Hoshangabad",
    "regionname": "Bhopal HQ",
    "circlename": "Madhya Pradesh",
    "Taluk": "Kareli",
    "Districtname": "Narsinghpur",
    "statename": "MADHYA PRADESH"
  },
  {
    "pincode": "487330",
    "officename": "Bhamni B.O",
    "officeType": "B.O",
    "Deliverystatus": "Delivery",
    "divisionname": "Hoshangabad",
    "regionname": "Bhopal HQ",
    "circlename": "Madhya Pradesh",
    "Taluk": "",
    "Districtname": "Narsinghpur",
    "statename": "MADHYA PRADESH"
  },
  {
    "pincode": "487330",
    "officename": "Bilhera B.O",
    "officeType": "B.O",
    "Deliverystatus": "Delivery",
    "divisionname": "Hoshangabad",
    "regionname": "Bhopal HQ",
    "circlename": "Madhya Pradesh",
    "Taluk": "",
    "Districtname": "Narsinghpur",
    "statename": "MADHYA PRADESH"
  },
  {
    "pincode": "487330",
    "officename": "Bitli B.O",
    "officeType": "B.O",
    "Deliverystatus": "Delivery",
    "divisionname": "Hoshangabad",
    "regionname": "Bhopal HQ",
    "circlename": "Madhya Pradesh",
    "Taluk": "Gadarwara",
    "Districtname": "Narsinghpur",
    "statename": "MADHYA PRADESH"
  },
  {
    "pincode": "487330",
    "officename": "Chawarpatha B.O",
    "officeType": "B.O",
    "Deliverystatus": "Delivery",
    "divisionname": "Hoshangabad",
    "regionname": "Bhopal HQ",
    "circlename": "Madhya Pradesh",
    "Taluk": "Tendukheda",
    "Districtname": "Narsinghpur",
    "statename": "MADHYA PRADESH"
  },
  {
    "pincode": "487330",
    "officename": "Chhitapar B.O",
    "officeType": "B.O",
    "Deliverystatus": "Delivery",
    "divisionname": "Hoshangabad",
    "regionname": "Bhopal HQ",
    "circlename": "Madhya Pradesh",
    "Taluk": "Tendukheda",
    "Districtname": "Narsinghpur",
    "statename": "MADHYA PRADESH"
  },
  {
    "pincode": "487330",
    "officename": "Deori B.O",
    "officeType": "B.O",
    "Deliverystatus": "Delivery",
    "divisionname": "Hoshangabad",
    "regionname": "Bhopal HQ",
    "circlename": "Madhya Pradesh",
    "Taluk": "",
    "Districtname": "Narsinghpur",
    "statename": "MADHYA PRADESH"
  },
  {
    "pincode": "487330",
    "officename": "Hiranpur B.O",
    "officeType": "B.O",
    "Deliverystatus": "Delivery",
    "divisionname": "Hoshangabad",
    "regionname": "Bhopal HQ",
    "circlename": "Madhya Pradesh",
    "Taluk": "",
    "Districtname": "Narsinghpur",
    "statename": "MADHYA PRADESH"
  },
  {
    "pincode": "487330",
    "officename": "Kashikhedi B.O",
    "officeType": "B.O",
    "Deliverystatus": "Delivery",
    "divisionname": "Hoshangabad",
    "regionname": "Bhopal HQ",
    "circlename": "Madhya Pradesh",
    "Taluk": "Tendukheda",
    "Districtname": "Narsinghpur",
    "statename": "MADHYA PRADESH"
  },
  {
    "pincode": "487330",
    "officename": "Middli B.O",
    "officeType": "B.O",
    "Deliverystatus": "Delivery",
    "divisionname": "Hoshangabad",
    "regionname": "Bhopal HQ",
    "circlename": "Madhya Pradesh",
    "Taluk": "Kareli",
    "Districtname": "Narsinghpur",
    "statename": "MADHYA PRADESH"
  },
  {
    "pincode": "487330",
    "officename": "Padhriya B.O",
    "officeType": "B.O",
    "Deliverystatus": "Delivery",
    "divisionname": "Hoshangabad",
    "regionname": "Bhopal HQ",
    "circlename": "Madhya Pradesh",
    "Taluk": "",
    "Districtname": "Narsinghpur",
    "statename": "MADHYA PRADESH"
  },
  {
    "pincode": "487330",
    "officename": "Richhai B.O",
    "officeType": "B.O",
    "Deliverystatus": "Delivery",
    "divisionname": "Hoshangabad",
    "regionname": "Bhopal HQ",
    "circlename": "Madhya Pradesh",
    "Taluk": "",
    "Districtname": "Narsinghpur",
    "statename": "MADHYA PRADESH"
  },
  {
    "pincode": "487330",
    "officename": "Suatala B.O",
    "officeType": "B.O",
    "Deliverystatus": "Delivery",
    "divisionname": "Hoshangabad",
    "regionname": "Bhopal HQ",
    "circlename": "Madhya Pradesh",
    "Taluk": "",
    "Districtname": "Narsinghpur",
    "statename": "MADHYA PRADESH"
  }
]
