[
  {
    "pincode": "488050",
    "officename": "Bilha B.O",
    "officeType": "B.O",
    "Deliverystatus": "Delivery",
    "divisionname": "Chhatarpur",
    "regionname": "Bhopal HQ",
    "circlename": "Madhya Pradesh",
    "Taluk": "Panna",
    "Districtname": "Panna",
    "statename": "MADHYA PRADESH"
  },
  {
    "pincode": "488050",
    "officename": "Gargipadaria B.O",
    "officeType": "B.O",
    "Deliverystatus": "Delivery",
    "divisionname": "Chhatarpur",
    "regionname": "Bhopal HQ",
    "circlename": "Madhya Pradesh",
    "Taluk": "Panna",
    "Districtname": "Panna",
    "statename": "MADHYA PRADESH"
  },
  {
    "pincode": "488050",
    "officename": "Gunore B.O",
    "officeType": "B.O",
    "Deliverystatus": "Delivery",
    "divisionname": "Chhatarpur",
    "regionname": "Bhopal HQ",
    "circlename": "Madhya Pradesh",
    "Taluk": "Panna",
    "Districtname": "Panna",
    "statename": "MADHYA PRADESH"
  },
  {
    "pincode": "488050",
    "officename": "Kakarahti S.O",
    "officeType": "S.O",
    "Deliverystatus": "Delivery",
    "divisionname": "Chhatarpur",
    "regionname": "Bhopal HQ",
    "circlename": "Madhya Pradesh",
    "Taluk": "Panna",
    "Districtname": "Panna",
    "statename": "MADHYA PRADESH"
  },
  {
    "pincode": "488050",
    "officename": "Lahargawan B.O",
    "officeType": "B.O",
    "Deliverystatus": "Delivery",
    "divisionname": "Chhatarpur",
    "regionname": "Bhopal HQ",
    "circlename": "Madhya Pradesh",
    "Taluk": "Panna",
    "Districtname": "Panna",
    "statename": "MADHYA PRADESH"
  },
  {
    "pincode": "488050",
    "officename": "Mudwari B.O",
    "officeType": "B.O",
    "Deliverystatus": "Delivery",
    "divisionname": "Chhatarpur",
    "regionname": "Bhopal HQ",
    "circlename": "Madhya Pradesh",
    "Taluk": "Panna",
    "Districtname": "Panna",
    "statename": "MADHYA PRADESH"
  },
  {
    "pincode": "488050",
    "officename": "Nachnora B.O",
    "officeType": "B.O",
    "Deliverystatus": "Delivery",
    "divisionname": "Chhatarpur",
    "regionname": "Bhopal HQ",
    "circlename": "Madhya Pradesh",
    "Taluk": "Panna",
    "Districtname": "Panna",
    "statename": "MADHYA PRADESH"
  },
  {
    "pincode": "488050",
    "officename": "Paderi B.O",
    "officeType": "B.O",
    "Deliverystatus": "Delivery",
    "divisionname": "Chhatarpur",
    "regionname": "Bhopal HQ",
    "circlename": "Madhya Pradesh",
    "Taluk": "Panna",
    "Districtname": "Panna",
    "statename": "MADHYA PRADESH"
  },
  {
    "pincode": "488050",
    "officename": "Patankala B.O",
    "officeType": "B.O",
    "Deliverystatus": "Delivery",
    "divisionname": "Chhatarpur",
    "regionname": "Bhopal HQ",
    "circlename": "Madhya Pradesh",
    "Taluk": "Panna",
    "Districtname": "Panna",
    "statename": "MADHYA PRADESH"
  },
  {
    "pincode": "488050",
    "officename": "Richhora B.O",
    "officeType": "B.O",
    "Deliverystatus": "Delivery",
    "divisionname": "Chhatarpur",
    "regionname": "Bhopal HQ",
    "circlename": "Madhya Pradesh",
    "Taluk": "Panna",
    "Districtname": "Panna",
    "statename": "MADHYA PRADESH"
  },
  {
    "pincode": "488050",
    "officename": "Sakariya B.O",
    "officeType": "B.O",
    "Deliverystatus": "Delivery",
    "divisionname": "Chhatarpur",
    "regionname": "Bhopal HQ",
    "circlename": "Madhya Pradesh",
    "Taluk": "Panna",
    "Districtname": "Panna",
    "statename": "MADHYA PRADESH"
  },
  {
    "pincode": "488050",
    "officename": "Sathniya B.O",
    "officeType": "B.O",
    "Deliverystatus": "Delivery",
    "divisionname": "Chhatarpur",
    "regionname": "Bhopal HQ",
    "circlename": "Madhya Pradesh",
    "Taluk": "Panna",
    "Districtname": "Panna",
    "statename": "MADHYA PRADESH"
  },
  {
    "pincode": "488050",
    "officename": "Sumgaraha B.O",
    "officeType": "B.O",
    "Deliverystatus": "Delivery",
    "divisionname": "Chhatarpur",
    "regionname": "Bhopal HQ",
    "circlename": "Madhya Pradesh",
    "Taluk": "Panna",
    "Districtname": "Panna",
    "statename": "MADHYA PRADESH"
  },
  {
    "pincode": "488050",
    "officename": "Umari B.O",
    "officeType": "B.O",
    "Deliverystatus": "Delivery",
    "divisionname": "Chhatarpur",
    "regionname": "Bhopal HQ",
    "circlename": "Madhya Pradesh",
    "Taluk": "Panna",
    "Districtname": "Panna",
    "statename": "MADHYA PRADESH"
  }
]
