[
  {
    "pincode": "488222",
    "officename": "Amerchhi B.O",
    "officeType": "B.O",
    "Deliverystatus": "Delivery",
    "divisionname": "Chhatarpur",
    "regionname": "Bhopal HQ",
    "circlename": "Madhya Pradesh",
    "Taluk": "Panna",
    "Districtname": "Panna",
    "statename": "MADHYA PRADESH"
  },
  {
    "pincode": "488222",
    "officename": "Dharampur S.O (Panna)",
    "officeType": "S.O",
    "Deliverystatus": "Delivery",
    "divisionname": "Chhatarpur",
    "regionname": "Bhopal HQ",
    "circlename": "Madhya Pradesh",
    "Taluk": "Panna",
    "Districtname": "Panna",
    "statename": "MADHYA PRADESH"
  },
  {
    "pincode": "488222",
    "officename": "Gurdinpur B.O",
    "officeType": "B.O",
    "Deliverystatus": "Delivery",
    "divisionname": "Chhatarpur",
    "regionname": "Bhopal HQ",
    "circlename": "Madhya Pradesh",
    "Taluk": "Panna",
    "Districtname": "Panna",
    "statename": "MADHYA PRADESH"
  },
  {
    "pincode": "488222",
    "officename": "Khora B.O",
    "officeType": "B.O",
    "Deliverystatus": "Delivery",
    "divisionname": "Chhatarpur",
    "regionname": "Bhopal HQ",
    "circlename": "Madhya Pradesh",
    "Taluk": "Panna",
    "Districtname": "Panna",
    "statename": "MADHYA PRADESH"
  },
  {
    "pincode": "488222",
    "officename": "Kiratpur B.O",
    "officeType": "B.O",
    "Deliverystatus": "Delivery",
    "divisionname": "Chhatarpur",
    "regionname": "Bhopal HQ",
    "circlename": "Madhya Pradesh",
    "Taluk": "Panna",
    "Districtname": "Panna",
    "statename": "MADHYA PRADESH"
  },
  {
    "pincode": "488222",
    "officename": "Makhanpur B.O",
    "officeType": "B.O",
    "Deliverystatus": "Delivery",
    "divisionname": "Chhatarpur",
    "regionname": "Bhopal HQ",
    "circlename": "Madhya Pradesh",
    "Taluk": "Panna",
    "Districtname": "Panna",
    "statename": "MADHYA PRADESH"
  },
  {
    "pincode": "488222",
    "officename": "Manipur B.O",
    "officeType": "B.O",
    "Deliverystatus": "Delivery",
    "divisionname": "Chhatarpur",
    "regionname": "Bhopal HQ",
    "circlename": "Madhya Pradesh",
    "Taluk": "Panna",
    "Districtname": "Panna",
    "statename": "MADHYA PRADESH"
  },
  {
    "pincode": "488222",
    "officename": "Nandanpura B.O",
    "officeType": "B.O",
    "Deliverystatus": "Delivery",
    "divisionname": "Chhatarpur",
    "regionname": "Bhopal HQ",
    "circlename": "Madhya Pradesh",
    "Taluk": "Panna",
    "Districtname": "Panna",
    "statename": "MADHYA PRADESH"
  },
  {
    "pincode": "488222",
    "officename": "Nardaha B.O",
    "officeType": "B.O",
    "Deliverystatus": "Delivery",
    "divisionname": "Chhatarpur",
    "regionname": "Bhopal HQ",
    "circlename": "Madhya Pradesh",
    "Taluk": "Panna",
    "Districtname": "Panna",
    "statename": "MADHYA PRADESH"
  },
  {
    "pincode": "488222",
    "officename": "Nayagaon B.O",
    "officeType": "B.O",
    "Deliverystatus": "Delivery",
    "divisionname": "Chhatarpur",
    "regionname": "Bhopal HQ",
    "circlename": "Madhya Pradesh",
    "Taluk": "Panna",
    "Districtname": "Panna",
    "statename": "MADHYA PRADESH"
  }
]
