[
  {
    "pincode": "488220",
    "officename": "Ajaigarh S.O",
    "officeType": "S.O",
    "Deliverystatus": "Delivery",
    "divisionname": "Chhatarpur",
    "regionname": "Bhopal HQ",
    "circlename": "Madhya Pradesh",
    "Taluk": "Ajaigarh",
    "Districtname": "Panna",
    "statename": "MADHYA PRADESH"
  },
  {
    "pincode": "488220",
    "officename": "Aramganj B.O",
    "officeType": "B.O",
    "Deliverystatus": "Delivery",
    "divisionname": "Chhatarpur",
    "regionname": "Bhopal HQ",
    "circlename": "Madhya Pradesh",
    "Taluk": "Ajaygarh",
    "Districtname": "Panna",
    "statename": "MADHYA PRADESH"
  },
  {
    "pincode": "488220",
    "officename": "Banahari Kala B.O",
    "officeType": "B.O",
    "Deliverystatus": "Delivery",
    "divisionname": "Chhatarpur",
    "regionname": "Bhopal HQ",
    "circlename": "Madhya Pradesh",
    "Taluk": "Ajaigarh",
    "Districtname": "Panna",
    "statename": "MADHYA PRADESH"
  },
  {
    "pincode": "488220",
    "officename": "Banoli B.O",
    "officeType": "B.O",
    "Deliverystatus": "Delivery",
    "divisionname": "Chhatarpur",
    "regionname": "Bhopal HQ",
    "circlename": "Madhya Pradesh",
    "Taluk": "Ajaigarh",
    "Districtname": "Panna",
    "statename": "MADHYA PRADESH"
  },
  {
    "pincode": "488220",
    "officename": "Baramajhaganj B.O",
    "officeType": "B.O",
    "Deliverystatus": "Delivery",
    "divisionname": "Chhatarpur",
    "regionname": "Bhopal HQ",
    "circlename": "Madhya Pradesh",
    "Taluk": "Ajaigarh",
    "Districtname": "Panna",
    "statename": "MADHYA PRADESH"
  },
  {
    "pincode": "488220",
    "officename": "Barkola B.O",
    "officeType": "B.O",
    "Deliverystatus": "Delivery",
    "divisionname": "Chhatarpur",
    "regionname": "Bhopal HQ",
    "circlename": "Madhya Pradesh",
    "Taluk": "Ajaigarh",
    "Districtname": "Panna",
    "statename": "MADHYA PRADESH"
  },
  {
    "pincode": "488220",
    "officename": "Bhapatpura Kurmiyana B.O",
    "officeType": "B.O",
    "Deliverystatus": "Delivery",
    "divisionname": "Chhatarpur",
    "regionname": "Bhopal HQ",
    "circlename": "Madhya Pradesh",
    "Taluk": "Ajaigarh",
    "Districtname": "Panna",
    "statename": "MADHYA PRADESH"
  },
  {
    "pincode": "488220",
    "officename": "Bira B.O",
    "officeType": "B.O",
    "Deliverystatus": "Delivery",
    "divisionname": "Chhatarpur",
    "regionname": "Bhopal HQ",
    "circlename": "Madhya Pradesh",
    "Taluk": "Ajaigarh",
    "Districtname": "Panna",
    "statename": "MADHYA PRADESH"
  },
  {
    "pincode": "488220",
    "officename": "Chandora B.O",
    "officeType": "B.O",
    "Deliverystatus": "Delivery",
    "divisionname": "Chhatarpur",
    "regionname": "Bhopal HQ",
    "circlename": "Madhya Pradesh",
    "Taluk": "Ajaigarh",
    "Districtname": "Panna",
    "statename": "MADHYA PRADESH"
  },
  {
    "pincode": "488220",
    "officename": "Deogaon B.O",
    "officeType": "B.O",
    "Deliverystatus": "Delivery",
    "divisionname": "Chhatarpur",
    "regionname": "Bhopal HQ",
    "circlename": "Madhya Pradesh",
    "Taluk": "Ajaigarh",
    "Districtname": "Panna",
    "statename": "MADHYA PRADESH"
  },
  {
    "pincode": "488220",
    "officename": "Deorabhapatpur B.O",
    "officeType": "B.O",
    "Deliverystatus": "Delivery",
    "divisionname": "Chhatarpur",
    "regionname": "Bhopal HQ",
    "circlename": "Madhya Pradesh",
    "Taluk": "Ajaigarh",
    "Districtname": "Panna",
    "statename": "MADHYA PRADESH"
  },
  {
    "pincode": "488220",
    "officename": "Hardi B.O",
    "officeType": "B.O",
    "Deliverystatus": "Delivery",
    "divisionname": "Chhatarpur",
    "regionname": "Bhopal HQ",
    "circlename": "Madhya Pradesh",
    "Taluk": "Ajaigarh",
    "Districtname": "Panna",
    "statename": "MADHYA PRADESH"
  },
  {
    "pincode": "488220",
    "officename": "Kunwarpur B.O",
    "officeType": "B.O",
    "Deliverystatus": "Delivery",
    "divisionname": "Chhatarpur",
    "regionname": "Bhopal HQ",
    "circlename": "Madhya Pradesh",
    "Taluk": "Ajaigarh",
    "Districtname": "Panna",
    "statename": "MADHYA PRADESH"
  },
  {
    "pincode": "488220",
    "officename": "Madhvaganj B.O",
    "officeType": "B.O",
    "Deliverystatus": "Delivery",
    "divisionname": "Chhatarpur",
    "regionname": "Bhopal HQ",
    "circlename": "Madhya Pradesh",
    "Taluk": "Ajaigarh",
    "Districtname": "Panna",
    "statename": "MADHYA PRADESH"
  },
  {
    "pincode": "488220",
    "officename": "Nawasta B.O",
    "officeType": "B.O",
    "Deliverystatus": "Delivery",
    "divisionname": "Chhatarpur",
    "regionname": "Bhopal HQ",
    "circlename": "Madhya Pradesh",
    "Taluk": "Ajaigarh",
    "Districtname": "Panna",
    "statename": "MADHYA PRADESH"
  },
  {
    "pincode": "488220",
    "officename": "Padaraha B.O",
    "officeType": "B.O",
    "Deliverystatus": "Delivery",
    "divisionname": "Chhatarpur",
    "regionname": "Bhopal HQ",
    "circlename": "Madhya Pradesh",
    "Taluk": "Ajaigarh",
    "Districtname": "Panna",
    "statename": "MADHYA PRADESH"
  },
  {
    "pincode": "488220",
    "officename": "Pharswaha B.O",
    "officeType": "B.O",
    "Deliverystatus": "Delivery",
    "divisionname": "Chhatarpur",
    "regionname": "Bhopal HQ",
    "circlename": "Madhya Pradesh",
    "Taluk": "Ajaigarh",
    "Districtname": "Panna",
    "statename": "MADHYA PRADESH"
  },
  {
    "pincode": "488220",
    "officename": "Pista B.O",
    "officeType": "B.O",
    "Deliverystatus": "Delivery",
    "divisionname": "Chhatarpur",
    "regionname": "Bhopal HQ",
    "circlename": "Madhya Pradesh",
    "Taluk": "Ajaigarh",
    "Districtname": "Panna",
    "statename": "MADHYA PRADESH"
  },
  {
    "pincode": "488220",
    "officename": "Selon B.O",
    "officeType": "B.O",
    "Deliverystatus": "Delivery",
    "divisionname": "Chhatarpur",
    "regionname": "Bhopal HQ",
    "circlename": "Madhya Pradesh",
    "Taluk": "Ajaigarh",
    "Districtname": "Panna",
    "statename": "MADHYA PRADESH"
  },
  {
    "pincode": "488220",
    "officename": "Singhpur B.O",
    "officeType": "B.O",
    "Deliverystatus": "Delivery",
    "divisionname": "Chhatarpur",
    "regionname": "Bhopal HQ",
    "circlename": "Madhya Pradesh",
    "Taluk": "Ajaigarh",
    "Districtname": "Panna",
    "statename": "MADHYA PRADESH"
  },
  {
    "pincode": "488220",
    "officename": "Subdua B.O",
    "officeType": "B.O",
    "Deliverystatus": "Delivery",
    "divisionname": "Chhatarpur",
    "regionname": "Bhopal HQ",
    "circlename": "Madhya Pradesh",
    "Taluk": "Ajaigarh",
    "Districtname": "Panna",
    "statename": "MADHYA PRADESH"
  }
]
