[
  {
    "pincode": "488448",
    "officename": "Ama B.O",
    "officeType": "B.O",
    "Deliverystatus": "Delivery",
    "divisionname": "Chhatarpur",
    "regionname": "Bhopal HQ",
    "circlename": "Madhya Pradesh",
    "Taluk": "Pawai",
    "Districtname": "Panna",
    "statename": "MADHYA PRADESH"
  },
  {
    "pincode": "488448",
    "officename": "Bisani B.O",
    "officeType": "B.O",
    "Deliverystatus": "Delivery",
    "divisionname": "Chhatarpur",
    "regionname": "Bhopal HQ",
    "circlename": "Madhya Pradesh",
    "Taluk": "Pawai",
    "Districtname": "Panna",
    "statename": "MADHYA PRADESH"
  },
  {
    "pincode": "488448",
    "officename": "Bori B.O",
    "officeType": "B.O",
    "Deliverystatus": "Delivery",
    "divisionname": "Chhatarpur",
    "regionname": "Bhopal HQ",
    "circlename": "Madhya Pradesh",
    "Taluk": "Pawai",
    "Districtname": "Panna",
    "statename": "MADHYA PRADESH"
  },
  {
    "pincode": "488448",
    "officename": "Gajanda B.O",
    "officeType": "B.O",
    "Deliverystatus": "Delivery",
    "divisionname": "Chhatarpur",
    "regionname": "Bhopal HQ",
    "circlename": "Madhya Pradesh",
    "Taluk": "Pawai",
    "Districtname": "Panna",
    "statename": "MADHYA PRADESH"
  },
  {
    "pincode": "488448",
    "officename": "Kachori B.O",
    "officeType": "B.O",
    "Deliverystatus": "Delivery",
    "divisionname": "Chhatarpur",
    "regionname": "Bhopal HQ",
    "circlename": "Madhya Pradesh",
    "Taluk": "Pawai",
    "Districtname": "Panna",
    "statename": "MADHYA PRADESH"
  },
  {
    "pincode": "488448",
    "officename": "Khamariya B.O",
    "officeType": "B.O",
    "Deliverystatus": "Delivery",
    "divisionname": "Chhatarpur",
    "regionname": "Bhopal HQ",
    "circlename": "Madhya Pradesh",
    "Taluk": "Pawai",
    "Districtname": "Panna",
    "statename": "MADHYA PRADESH"
  },
  {
    "pincode": "488448",
    "officename": "Lamtara B.O",
    "officeType": "B.O",
    "Deliverystatus": "Delivery",
    "divisionname": "Chhatarpur",
    "regionname": "Bhopal HQ",
    "circlename": "Madhya Pradesh",
    "Taluk": "Pawai",
    "Districtname": "Panna",
    "statename": "MADHYA PRADESH"
  },
  {
    "pincode": "488448",
    "officename": "Nanchanda B.O",
    "officeType": "B.O",
    "Deliverystatus": "Delivery",
    "divisionname": "Chhatarpur",
    "regionname": "Bhopal HQ",
    "circlename": "Madhya Pradesh",
    "Taluk": "Pawai",
    "Districtname": "Panna",
    "statename": "MADHYA PRADESH"
  },
  {
    "pincode": "488448",
    "officename": "Purena B.O",
    "officeType": "B.O",
    "Deliverystatus": "Delivery",
    "divisionname": "Chhatarpur",
    "regionname": "Bhopal HQ",
    "circlename": "Madhya Pradesh",
    "Taluk": "Pawai",
    "Districtname": "Panna",
    "statename": "MADHYA PRADESH"
  },
  {
    "pincode": "488448",
    "officename": "Rampur B.O",
    "officeType": "B.O",
    "Deliverystatus": "Delivery",
    "divisionname": "Chhatarpur",
    "regionname": "Bhopal HQ",
    "circlename": "Madhya Pradesh",
    "Taluk": "Pawai",
    "Districtname": "Panna",
    "statename": "MADHYA PRADESH"
  },
  {
    "pincode": "488448",
    "officename": "Rohaniya B.O",
    "officeType": "B.O",
    "Deliverystatus": "Delivery",
    "divisionname": "Chhatarpur",
    "regionname": "Bhopal HQ",
    "circlename": "Madhya Pradesh",
    "Taluk": "Pawai",
    "Districtname": "Panna",
    "statename": "MADHYA PRADESH"
  },
  {
    "pincode": "488448",
    "officename": "Sahanagar S.O (Panna)",
    "officeType": "S.O",
    "Deliverystatus": "Delivery",
    "divisionname": "Chhatarpur",
    "regionname": "Bhopal HQ",
    "circlename": "Madhya Pradesh",
    "Taluk": "Pawai",
    "Districtname": "Panna",
    "statename": "MADHYA PRADESH"
  },
  {
    "pincode": "488448",
    "officename": "Sarangpur B.O",
    "officeType": "B.O",
    "Deliverystatus": "Delivery",
    "divisionname": "Chhatarpur",
    "regionname": "Bhopal HQ",
    "circlename": "Madhya Pradesh",
    "Taluk": "Pawai",
    "Districtname": "Panna",
    "statename": "MADHYA PRADESH"
  },
  {
    "pincode": "488448",
    "officename": "Sudor B.O",
    "officeType": "B.O",
    "Deliverystatus": "Delivery",
    "divisionname": "Chhatarpur",
    "regionname": "Bhopal HQ",
    "circlename": "Madhya Pradesh",
    "Taluk": "Pawai",
    "Districtname": "Panna",
    "statename": "MADHYA PRADESH"
  },
  {
    "pincode": "488448",
    "officename": "Sugraha B.O",
    "officeType": "B.O",
    "Deliverystatus": "Delivery",
    "divisionname": "Chhatarpur",
    "regionname": "Bhopal HQ",
    "circlename": "Madhya Pradesh",
    "Taluk": "Pawai",
    "Districtname": "Panna",
    "statename": "MADHYA PRADESH"
  }
]
