[
  {
    "pincode": "490036",
    "officename": "Ahiwara B.O",
    "officeType": "B.O",
    "Deliverystatus": "Delivery",
    "divisionname": "Durg",
    "regionname": "Raipur",
    "circlename": "Chattisgarh",
    "Taluk": "Dhamdha",
    "Districtname": "Durg",
    "statename": "CHATTISGARH"
  },
  {
    "pincode": "490036",
    "officename": "Bhimbhori B.O",
    "officeType": "B.O",
    "Deliverystatus": "Delivery",
    "divisionname": "Durg",
    "regionname": "Raipur",
    "circlename": "Chattisgarh",
    "Taluk": "Dhamdha",
    "Districtname": "Durg",
    "statename": "CHATTISGARH"
  },
  {
    "pincode": "490036",
    "officename": "Girhola B.O",
    "officeType": "B.O",
    "Deliverystatus": "Delivery",
    "divisionname": "Durg",
    "regionname": "Raipur",
    "circlename": "Chattisgarh",
    "Taluk": "Dhamdha",
    "Districtname": "Durg",
    "statename": "CHATTISGARH"
  },
  {
    "pincode": "490036",
    "officename": "Gondgiri B.O",
    "officeType": "B.O",
    "Deliverystatus": "Delivery",
    "divisionname": "Durg",
    "regionname": "Raipur",
    "circlename": "Chattisgarh",
    "Taluk": "Dhamdha",
    "Districtname": "Durg",
    "statename": "CHATTISGARH"
  },
  {
    "pincode": "490036",
    "officename": "Gondi B.O",
    "officeType": "B.O",
    "Deliverystatus": "Delivery",
    "divisionname": "Durg",
    "regionname": "Raipur",
    "circlename": "Chattisgarh",
    "Taluk": "Dhamdha",
    "Districtname": "Durg",
    "statename": "CHATTISGARH"
  },
  {
    "pincode": "490036",
    "officename": "Gudheli B.O",
    "officeType": "B.O",
    "Deliverystatus": "Delivery",
    "divisionname": "Durg",
    "regionname": "Raipur",
    "circlename": "Chattisgarh",
    "Taluk": "Dhamdha",
    "Districtname": "Durg",
    "statename": "CHATTISGARH"
  },
  {
    "pincode": "490036",
    "officename": "Hasda B.O",
    "officeType": "B.O",
    "Deliverystatus": "Delivery",
    "divisionname": "Durg",
    "regionname": "Raipur",
    "circlename": "Chattisgarh",
    "Taluk": "Dhamdha",
    "Districtname": "Durg",
    "statename": "CHATTISGARH"
  },
  {
    "pincode": "490036",
    "officename": "Kodia B.O",
    "officeType": "B.O",
    "Deliverystatus": "Delivery",
    "divisionname": "Durg",
    "regionname": "Raipur",
    "circlename": "Chattisgarh",
    "Taluk": "Dhamdha",
    "Districtname": "Durg",
    "statename": "CHATTISGARH"
  },
  {
    "pincode": "490036",
    "officename": "Medesara B.O",
    "officeType": "B.O",
    "Deliverystatus": "Delivery",
    "divisionname": "Durg",
    "regionname": "Raipur",
    "circlename": "Chattisgarh",
    "Taluk": "Dhamdha",
    "Districtname": "Durg",
    "statename": "CHATTISGARH"
  },
  {
    "pincode": "490036",
    "officename": "Murmunda B.O",
    "officeType": "B.O",
    "Deliverystatus": "Delivery",
    "divisionname": "Durg",
    "regionname": "Raipur",
    "circlename": "Chattisgarh",
    "Taluk": "Dhamdha",
    "Districtname": "Durg",
    "statename": "CHATTISGARH"
  },
  {
    "pincode": "490036",
    "officename": "Nandini Khundini B.O",
    "officeType": "B.O",
    "Deliverystatus": "Delivery",
    "divisionname": "Durg",
    "regionname": "Raipur",
    "circlename": "Chattisgarh",
    "Taluk": "Dhamdha",
    "Districtname": "Durg",
    "statename": "CHATTISGARH"
  },
  {
    "pincode": "490036",
    "officename": "Nandini S.O",
    "officeType": "S.O",
    "Deliverystatus": "Delivery",
    "divisionname": "Durg",
    "regionname": "Raipur",
    "circlename": "Chattisgarh",
    "Taluk": "Dhamdha",
    "Districtname": "Durg",
    "statename": "CHATTISGARH"
  }
]
