[
  {
    "pincode": "491221",
    "officename": "Albaras B.O",
    "officeType": "B.O",
    "Deliverystatus": "Delivery",
    "divisionname": "Durg",
    "regionname": "Raipur",
    "circlename": "Chattisgarh",
    "Taluk": "Gunderdehi",
    "Districtname": "Durg",
    "statename": "CHATTISGARH"
  },
  {
    "pincode": "491221",
    "officename": "Anda S.O",
    "officeType": "S.O",
    "Deliverystatus": "Delivery",
    "divisionname": "Durg",
    "regionname": "Raipur",
    "circlename": "Chattisgarh",
    "Taluk": "Gunderdehi",
    "Districtname": "Durg",
    "statename": "CHATTISGARH"
  },
  {
    "pincode": "491221",
    "officename": "Chandkhuri B.O",
    "officeType": "B.O",
    "Deliverystatus": "Delivery",
    "divisionname": "Durg",
    "regionname": "Raipur",
    "circlename": "Chattisgarh",
    "Taluk": "Gunderdehi",
    "Districtname": "Durg",
    "statename": "CHATTISGARH"
  },
  {
    "pincode": "491221",
    "officename": "Dagania B.O",
    "officeType": "B.O",
    "Deliverystatus": "Delivery",
    "divisionname": "Durg",
    "regionname": "Raipur",
    "circlename": "Chattisgarh",
    "Taluk": "Gunderdehi",
    "Districtname": "Durg",
    "statename": "CHATTISGARH"
  },
  {
    "pincode": "491221",
    "officename": "Kanakote B.O",
    "officeType": "B.O",
    "Deliverystatus": "Delivery",
    "divisionname": "Durg",
    "regionname": "Raipur",
    "circlename": "Chattisgarh",
    "Taluk": "Gunderdehi",
    "Districtname": "Durg",
    "statename": "CHATTISGARH"
  },
  {
    "pincode": "491221",
    "officename": "Kuthrel B.O",
    "officeType": "B.O",
    "Deliverystatus": "Delivery",
    "divisionname": "Durg",
    "regionname": "Raipur",
    "circlename": "Chattisgarh",
    "Taluk": "Gunderdehi",
    "Districtname": "Durg",
    "statename": "CHATTISGARH"
  },
  {
    "pincode": "491221",
    "officename": "Machandur B.O",
    "officeType": "B.O",
    "Deliverystatus": "Delivery",
    "divisionname": "Durg",
    "regionname": "Raipur",
    "circlename": "Chattisgarh",
    "Taluk": "Gunderdehi",
    "Districtname": "Durg",
    "statename": "CHATTISGARH"
  },
  {
    "pincode": "491221",
    "officename": "Marra B.O",
    "officeType": "B.O",
    "Deliverystatus": "Delivery",
    "divisionname": "Durg",
    "regionname": "Raipur",
    "circlename": "Chattisgarh",
    "Taluk": "Gunderdehi",
    "Districtname": "Durg",
    "statename": "CHATTISGARH"
  },
  {
    "pincode": "491221",
    "officename": "Matwari B.O",
    "officeType": "B.O",
    "Deliverystatus": "Delivery",
    "divisionname": "Durg",
    "regionname": "Raipur",
    "circlename": "Chattisgarh",
    "Taluk": "Gunderdehi",
    "Districtname": "Durg",
    "statename": "CHATTISGARH"
  },
  {
    "pincode": "491221",
    "officename": "Nikum B.O",
    "officeType": "B.O",
    "Deliverystatus": "Delivery",
    "divisionname": "Durg",
    "regionname": "Raipur",
    "circlename": "Chattisgarh",
    "Taluk": "Gunderdehi",
    "Districtname": "Durg",
    "statename": "CHATTISGARH"
  },
  {
    "pincode": "491221",
    "officename": "Pauha B.O",
    "officeType": "B.O",
    "Deliverystatus": "Delivery",
    "divisionname": "Durg",
    "regionname": "Raipur",
    "circlename": "Chattisgarh",
    "Taluk": "Gunderdehi",
    "Districtname": "Durg",
    "statename": "CHATTISGARH"
  },
  {
    "pincode": "491221",
    "officename": "Risama B.O",
    "officeType": "B.O",
    "Deliverystatus": "Delivery",
    "divisionname": "Durg",
    "regionname": "Raipur",
    "circlename": "Chattisgarh",
    "Taluk": "Gunderdehi",
    "Districtname": "Durg",
    "statename": "CHATTISGARH"
  },
  {
    "pincode": "491221",
    "officename": "Sirri B.O",
    "officeType": "B.O",
    "Deliverystatus": "Delivery",
    "divisionname": "Durg",
    "regionname": "Raipur",
    "circlename": "Chattisgarh",
    "Taluk": "Gunderdehi",
    "Districtname": "Durg",
    "statename": "CHATTISGARH"
  },
  {
    "pincode": "491221",
    "officename": "Tamora B.O",
    "officeType": "B.O",
    "Deliverystatus": "Delivery",
    "divisionname": "Durg",
    "regionname": "Raipur",
    "circlename": "Chattisgarh",
    "Taluk": "Gunderdehi",
    "Districtname": "Durg",
    "statename": "CHATTISGARH"
  },
  {
    "pincode": "491221",
    "officename": "Vinayakpur B.O",
    "officeType": "B.O",
    "Deliverystatus": "Delivery",
    "divisionname": "Durg",
    "regionname": "Raipur",
    "circlename": "Chattisgarh",
    "Taluk": "Gunderdehi",
    "Districtname": "Durg",
    "statename": "CHATTISGARH"
  }
]
