[
  {
    "pincode": "491229",
    "officename": "Aundhi B.O",
    "officeType": "B.O",
    "Deliverystatus": "Delivery",
    "divisionname": "Durg",
    "regionname": "Raipur",
    "circlename": "Chattisgarh",
    "Taluk": "Manpur",
    "Districtname": "Rajnandgaon",
    "statename": "CHATTISGARH"
  },
  {
    "pincode": "491229",
    "officename": "Bharritola B.O",
    "officeType": "B.O",
    "Deliverystatus": "Delivery",
    "divisionname": "Durg",
    "regionname": "Raipur",
    "circlename": "Chattisgarh",
    "Taluk": "Manpur",
    "Districtname": "Rajnandgaon",
    "statename": "CHATTISGARH"
  },
  {
    "pincode": "491229",
    "officename": "Bhawsha B.O",
    "officeType": "B.O",
    "Deliverystatus": "Delivery",
    "divisionname": "Durg",
    "regionname": "Raipur",
    "circlename": "Chattisgarh",
    "Taluk": "Manpur",
    "Districtname": "Rajnandgaon",
    "statename": "CHATTISGARH"
  },
  {
    "pincode": "491229",
    "officename": "Dhokla B.O",
    "officeType": "B.O",
    "Deliverystatus": "Delivery",
    "divisionname": "Durg",
    "regionname": "Raipur",
    "circlename": "Chattisgarh",
    "Taluk": "Manpur",
    "Districtname": "Rajnandgaon",
    "statename": "CHATTISGARH"
  },
  {
    "pincode": "491229",
    "officename": "Dighwadi B.O",
    "officeType": "B.O",
    "Deliverystatus": "Delivery",
    "divisionname": "Durg",
    "regionname": "Raipur",
    "circlename": "Chattisgarh",
    "Taluk": "Manpur",
    "Districtname": "Rajnandgaon",
    "statename": "CHATTISGARH"
  },
  {
    "pincode": "491229",
    "officename": "Ghotia B.O",
    "officeType": "B.O",
    "Deliverystatus": "Delivery",
    "divisionname": "Durg",
    "regionname": "Raipur",
    "circlename": "Chattisgarh",
    "Taluk": "Manpur",
    "Districtname": "Rajnandgaon",
    "statename": "CHATTISGARH"
  },
  {
    "pincode": "491229",
    "officename": "Kandadi B.O",
    "officeType": "B.O",
    "Deliverystatus": "Delivery",
    "divisionname": "Durg",
    "regionname": "Raipur",
    "circlename": "Chattisgarh",
    "Taluk": "Manpur",
    "Districtname": "Rajnandgaon",
    "statename": "CHATTISGARH"
  },
  {
    "pincode": "491229",
    "officename": "Khadgaon B.O",
    "officeType": "B.O",
    "Deliverystatus": "Delivery",
    "divisionname": "Durg",
    "regionname": "Raipur",
    "circlename": "Chattisgarh",
    "Taluk": "Manpur",
    "Districtname": "Rajnandgaon",
    "statename": "CHATTISGARH"
  },
  {
    "pincode": "491229",
    "officename": "Kumhari B.O",
    "officeType": "B.O",
    "Deliverystatus": "Delivery",
    "divisionname": "Durg",
    "regionname": "Raipur",
    "circlename": "Chattisgarh",
    "Taluk": "Manpur",
    "Districtname": "Rajnandgaon",
    "statename": "CHATTISGARH"
  },
  {
    "pincode": "491229",
    "officename": "Manpur S.O (Rajnandgaon)",
    "officeType": "S.O",
    "Deliverystatus": "Delivery",
    "divisionname": "Durg",
    "regionname": "Raipur",
    "circlename": "Chattisgarh",
    "Taluk": "Manpur",
    "Districtname": "Rajnandgaon",
    "statename": "CHATTISGARH"
  },
  {
    "pincode": "491229",
    "officename": "Nawagaon B.O",
    "officeType": "B.O",
    "Deliverystatus": "Delivery",
    "divisionname": "Durg",
    "regionname": "Raipur",
    "circlename": "Chattisgarh",
    "Taluk": "Manpur",
    "Districtname": "Rajnandgaon",
    "statename": "CHATTISGARH"
  },
  {
    "pincode": "491229",
    "officename": "Nedgaon B.O",
    "officeType": "B.O",
    "Deliverystatus": "Delivery",
    "divisionname": "Durg",
    "regionname": "Raipur",
    "circlename": "Chattisgarh",
    "Taluk": "Manpur",
    "Districtname": "Rajnandgaon",
    "statename": "CHATTISGARH"
  },
  {
    "pincode": "491229",
    "officename": "Sarkheda B.O",
    "officeType": "B.O",
    "Deliverystatus": "Delivery",
    "divisionname": "Durg",
    "regionname": "Raipur",
    "circlename": "Chattisgarh",
    "Taluk": "Manpur",
    "Districtname": "Rajnandgaon",
    "statename": "CHATTISGARH"
  },
  {
    "pincode": "491229",
    "officename": "Seoni B.O",
    "officeType": "B.O",
    "Deliverystatus": "Delivery",
    "divisionname": "Durg",
    "regionname": "Raipur",
    "circlename": "Chattisgarh",
    "Taluk": "Manpur",
    "Districtname": "Rajnandgaon",
    "statename": "CHATTISGARH"
  },
  {
    "pincode": "491229",
    "officename": "Sitagaon B.O",
    "officeType": "B.O",
    "Deliverystatus": "Delivery",
    "divisionname": "Durg",
    "regionname": "Raipur",
    "circlename": "Chattisgarh",
    "Taluk": "Manpur",
    "Districtname": "Rajnandgaon",
    "statename": "CHATTISGARH"
  },
  {
    "pincode": "491229",
    "officename": "Teregaon B.O",
    "officeType": "B.O",
    "Deliverystatus": "Delivery",
    "divisionname": "Durg",
    "regionname": "Raipur",
    "circlename": "Chattisgarh",
    "Taluk": "Manpur",
    "Districtname": "Rajnandgaon",
    "statename": "CHATTISGARH"
  },
  {
    "pincode": "491229",
    "officename": "Tohe B.O",
    "officeType": "B.O",
    "Deliverystatus": "Delivery",
    "divisionname": "Durg",
    "regionname": "Raipur",
    "circlename": "Chattisgarh",
    "Taluk": "Manpur",
    "Districtname": "Rajnandgaon",
    "statename": "CHATTISGARH"
  }
]
