[
  {
    "pincode": "491226",
    "officename": "Admabad B.O",
    "officeType": "B.O",
    "Deliverystatus": "Delivery",
    "divisionname": "Durg",
    "regionname": "Raipur",
    "circlename": "Chattisgarh",
    "Taluk": "Balod",
    "Districtname": "Durg",
    "statename": "CHATTISGARH"
  },
  {
    "pincode": "491226",
    "officename": "Badbhum B.O",
    "officeType": "B.O",
    "Deliverystatus": "Delivery",
    "divisionname": "Durg",
    "regionname": "Raipur",
    "circlename": "Chattisgarh",
    "Taluk": "Balod",
    "Districtname": "Durg",
    "statename": "CHATTISGARH"
  },
  {
    "pincode": "491226",
    "officename": "Baghmara B.O",
    "officeType": "B.O",
    "Deliverystatus": "Delivery",
    "divisionname": "Durg",
    "regionname": "Raipur",
    "circlename": "Chattisgarh",
    "Taluk": "Balod",
    "Districtname": "Durg",
    "statename": "CHATTISGARH"
  },
  {
    "pincode": "491226",
    "officename": "Balod S.O",
    "officeType": "S.O",
    "Deliverystatus": "Delivery",
    "divisionname": "Durg",
    "regionname": "Raipur",
    "circlename": "Chattisgarh",
    "Taluk": "Balod",
    "Districtname": "Durg",
    "statename": "CHATTISGARH"
  },
  {
    "pincode": "491226",
    "officename": "Balod Town S.O",
    "officeType": "S.O",
    "Deliverystatus": "Non-Delivery",
    "divisionname": "Durg",
    "regionname": "Raipur",
    "circlename": "Chattisgarh",
    "Taluk": "Balod",
    "Districtname": "Durg",
    "statename": "CHATTISGARH"
  },
  {
    "pincode": "491226",
    "officename": "Baloda B.O",
    "officeType": "B.O",
    "Deliverystatus": "Delivery",
    "divisionname": "Durg",
    "regionname": "Raipur",
    "circlename": "Chattisgarh",
    "Taluk": "Balod",
    "Districtname": "Durg",
    "statename": "CHATTISGARH"
  },
  {
    "pincode": "491226",
    "officename": "Belmond B.O",
    "officeType": "B.O",
    "Deliverystatus": "Delivery",
    "divisionname": "Durg",
    "regionname": "Raipur",
    "circlename": "Chattisgarh",
    "Taluk": "Balod",
    "Districtname": "Durg",
    "statename": "CHATTISGARH"
  },
  {
    "pincode": "491226",
    "officename": "Bhaisbod B.O",
    "officeType": "B.O",
    "Deliverystatus": "Delivery",
    "divisionname": "Durg",
    "regionname": "Raipur",
    "circlename": "Chattisgarh",
    "Taluk": "Balod",
    "Districtname": "Durg",
    "statename": "CHATTISGARH"
  },
  {
    "pincode": "491226",
    "officename": "Dudhli B.O",
    "officeType": "B.O",
    "Deliverystatus": "Delivery",
    "divisionname": "Durg",
    "regionname": "Raipur",
    "circlename": "Chattisgarh",
    "Taluk": "Balod",
    "Districtname": "Durg",
    "statename": "CHATTISGARH"
  },
  {
    "pincode": "491226",
    "officename": "Gujra B.O",
    "officeType": "B.O",
    "Deliverystatus": "Delivery",
    "divisionname": "Durg",
    "regionname": "Raipur",
    "circlename": "Chattisgarh",
    "Taluk": "Balod",
    "Districtname": "Durg",
    "statename": "CHATTISGARH"
  },
  {
    "pincode": "491226",
    "officename": "Jamrua B.O",
    "officeType": "B.O",
    "Deliverystatus": "Delivery",
    "divisionname": "Durg",
    "regionname": "Raipur",
    "circlename": "Chattisgarh",
    "Taluk": "Balod",
    "Districtname": "Durg",
    "statename": "CHATTISGARH"
  },
  {
    "pincode": "491226",
    "officename": "Khapri B.O",
    "officeType": "B.O",
    "Deliverystatus": "Delivery",
    "divisionname": "Durg",
    "regionname": "Raipur",
    "circlename": "Chattisgarh",
    "Taluk": "Balod",
    "Districtname": "Durg",
    "statename": "CHATTISGARH"
  },
  {
    "pincode": "491226",
    "officename": "Khobha B.O",
    "officeType": "B.O",
    "Deliverystatus": "Delivery",
    "divisionname": "Durg",
    "regionname": "Raipur",
    "circlename": "Chattisgarh",
    "Taluk": "Balod",
    "Districtname": "Durg",
    "statename": "CHATTISGARH"
  },
  {
    "pincode": "491226",
    "officename": "Latabod B.O",
    "officeType": "B.O",
    "Deliverystatus": "Delivery",
    "divisionname": "Durg",
    "regionname": "Raipur",
    "circlename": "Chattisgarh",
    "Taluk": "Balod",
    "Districtname": "Durg",
    "statename": "CHATTISGARH"
  },
  {
    "pincode": "491226",
    "officename": "Newarikala B.O",
    "officeType": "B.O",
    "Deliverystatus": "Delivery",
    "divisionname": "Durg",
    "regionname": "Raipur",
    "circlename": "Chattisgarh",
    "Taluk": "Balod",
    "Districtname": "Durg",
    "statename": "CHATTISGARH"
  },
  {
    "pincode": "491226",
    "officename": "Pond B.O",
    "officeType": "B.O",
    "Deliverystatus": "Delivery",
    "divisionname": "Durg",
    "regionname": "Raipur",
    "circlename": "Chattisgarh",
    "Taluk": "Balod",
    "Districtname": "Durg",
    "statename": "CHATTISGARH"
  },
  {
    "pincode": "491226",
    "officename": "Sankra J B.O",
    "officeType": "B.O",
    "Deliverystatus": "Delivery",
    "divisionname": "Durg",
    "regionname": "Raipur",
    "circlename": "Chattisgarh",
    "Taluk": "Balod",
    "Districtname": "Durg",
    "statename": "CHATTISGARH"
  },
  {
    "pincode": "491226",
    "officename": "Singhola B.O",
    "officeType": "B.O",
    "Deliverystatus": "Delivery",
    "divisionname": "Durg",
    "regionname": "Raipur",
    "circlename": "Chattisgarh",
    "Taluk": "Sanjaribalod",
    "Districtname": "Durg",
    "statename": "CHATTISGARH"
  },
  {
    "pincode": "491226",
    "officename": "Taraud B.O",
    "officeType": "B.O",
    "Deliverystatus": "Delivery",
    "divisionname": "Durg",
    "regionname": "Raipur",
    "circlename": "Chattisgarh",
    "Taluk": "Balod",
    "Districtname": "Durg",
    "statename": "CHATTISGARH"
  },
  {
    "pincode": "491226",
    "officename": "Tekapar B.O",
    "officeType": "B.O",
    "Deliverystatus": "Delivery",
    "divisionname": "Durg",
    "regionname": "Raipur",
    "circlename": "Chattisgarh",
    "Taluk": "Balod",
    "Districtname": "Durg",
    "statename": "CHATTISGARH"
  }
]
