[
  {
    "pincode": "491223",
    "officename": "Achaud B.O",
    "officeType": "B.O",
    "Deliverystatus": "Delivery",
    "divisionname": "Durg",
    "regionname": "Raipur",
    "circlename": "Chattisgarh",
    "Taluk": "Gunderdehi",
    "Districtname": "Durg",
    "statename": "CHATTISGARH"
  },
  {
    "pincode": "491223",
    "officename": "Belhari B.O",
    "officeType": "B.O",
    "Deliverystatus": "Delivery",
    "divisionname": "Durg",
    "regionname": "Raipur",
    "circlename": "Chattisgarh",
    "Taluk": "Gunderdehi",
    "Districtname": "Durg",
    "statename": "CHATTISGARH"
  },
  {
    "pincode": "491223",
    "officename": "Bhatagaon B.O",
    "officeType": "B.O",
    "Deliverystatus": "Delivery",
    "divisionname": "Durg",
    "regionname": "Raipur",
    "circlename": "Chattisgarh",
    "Taluk": "Gunderdehi",
    "Districtname": "Durg",
    "statename": "CHATTISGARH"
  },
  {
    "pincode": "491223",
    "officename": "Dhamna B.O",
    "officeType": "B.O",
    "Deliverystatus": "Delivery",
    "divisionname": "Durg",
    "regionname": "Raipur",
    "circlename": "Chattisgarh",
    "Taluk": "Gunderdehi",
    "Districtname": "Durg",
    "statename": "CHATTISGARH"
  },
  {
    "pincode": "491223",
    "officename": "Gorkapar B.O",
    "officeType": "B.O",
    "Deliverystatus": "Delivery",
    "divisionname": "Durg",
    "regionname": "Raipur",
    "circlename": "Chattisgarh",
    "Taluk": "Gunderdehi",
    "Districtname": "Durg",
    "statename": "CHATTISGARH"
  },
  {
    "pincode": "491223",
    "officename": "Gunderdehi S.O",
    "officeType": "S.O",
    "Deliverystatus": "Delivery",
    "divisionname": "Durg",
    "regionname": "Raipur",
    "circlename": "Chattisgarh",
    "Taluk": "Gunderdehi",
    "Districtname": "Durg",
    "statename": "CHATTISGARH"
  },
  {
    "pincode": "491223",
    "officename": "Jamgaon R B.O",
    "officeType": "B.O",
    "Deliverystatus": "Delivery",
    "divisionname": "Durg",
    "regionname": "Raipur",
    "circlename": "Chattisgarh",
    "Taluk": "Gunderdehi",
    "Districtname": "Durg",
    "statename": "CHATTISGARH"
  },
  {
    "pincode": "491223",
    "officename": "Kachandur B.O",
    "officeType": "B.O",
    "Deliverystatus": "Delivery",
    "divisionname": "Durg",
    "regionname": "Raipur",
    "circlename": "Chattisgarh",
    "Taluk": "Gunderdehi",
    "Districtname": "Durg",
    "statename": "CHATTISGARH"
  },
  {
    "pincode": "491223",
    "officename": "Kalangpur B.O",
    "officeType": "B.O",
    "Deliverystatus": "Delivery",
    "divisionname": "Durg",
    "regionname": "Raipur",
    "circlename": "Chattisgarh",
    "Taluk": "Gunderdehi",
    "Districtname": "Durg",
    "statename": "CHATTISGARH"
  },
  {
    "pincode": "491223",
    "officename": "Karela B.O",
    "officeType": "B.O",
    "Deliverystatus": "Delivery",
    "divisionname": "Durg",
    "regionname": "Raipur",
    "circlename": "Chattisgarh",
    "Taluk": "Gunderdehi",
    "Districtname": "Durg",
    "statename": "CHATTISGARH"
  },
  {
    "pincode": "491223",
    "officename": "Kasaunda B.O",
    "officeType": "B.O",
    "Deliverystatus": "Delivery",
    "divisionname": "Durg",
    "regionname": "Raipur",
    "circlename": "Chattisgarh",
    "Taluk": "Gunderdehi",
    "Districtname": "Durg",
    "statename": "CHATTISGARH"
  },
  {
    "pincode": "491223",
    "officename": "Nipani Tipani B.O",
    "officeType": "B.O",
    "Deliverystatus": "Delivery",
    "divisionname": "Durg",
    "regionname": "Raipur",
    "circlename": "Chattisgarh",
    "Taluk": "Gunderdehi",
    "Districtname": "Durg",
    "statename": "CHATTISGARH"
  },
  {
    "pincode": "491223",
    "officename": "Rahud B.O",
    "officeType": "B.O",
    "Deliverystatus": "Delivery",
    "divisionname": "Durg",
    "regionname": "Raipur",
    "circlename": "Chattisgarh",
    "Taluk": "Gunderdehi",
    "Districtname": "Durg",
    "statename": "CHATTISGARH"
  },
  {
    "pincode": "491223",
    "officename": "Ranchirai B.O",
    "officeType": "B.O",
    "Deliverystatus": "Delivery",
    "divisionname": "Durg",
    "regionname": "Raipur",
    "circlename": "Chattisgarh",
    "Taluk": "Gunderdehi",
    "Districtname": "Durg",
    "statename": "CHATTISGARH"
  },
  {
    "pincode": "491223",
    "officename": "Ranitarai B.O",
    "officeType": "B.O",
    "Deliverystatus": "Delivery",
    "divisionname": "Durg",
    "regionname": "Raipur",
    "circlename": "Chattisgarh",
    "Taluk": "Gunderdehi",
    "Districtname": "Durg",
    "statename": "CHATTISGARH"
  },
  {
    "pincode": "491223",
    "officename": "Surpa B.O",
    "officeType": "B.O",
    "Deliverystatus": "Delivery",
    "divisionname": "Durg",
    "regionname": "Raipur",
    "circlename": "Chattisgarh",
    "Taluk": "Gunderdehi",
    "Districtname": "Durg",
    "statename": "CHATTISGARH"
  },
  {
    "pincode": "491223",
    "officename": "Tavera B.O",
    "officeType": "B.O",
    "Deliverystatus": "Delivery",
    "divisionname": "Durg",
    "regionname": "Raipur",
    "circlename": "Chattisgarh",
    "Taluk": "Gunderdehi",
    "Districtname": "Durg",
    "statename": "CHATTISGARH"
  }
]
