[
  {
    "pincode": "491332",
    "officename": "Anandgaon B.O",
    "officeType": "B.O",
    "Deliverystatus": "Delivery",
    "divisionname": "Durg",
    "regionname": "Raipur",
    "circlename": "Chattisgarh",
    "Taluk": "Berla",
    "Districtname": "Durg",
    "statename": "CHATTISGARH"
  },
  {
    "pincode": "491332",
    "officename": "Bargaon B.O",
    "officeType": "B.O",
    "Deliverystatus": "Delivery",
    "divisionname": "Durg",
    "regionname": "Raipur",
    "circlename": "Chattisgarh",
    "Taluk": "Berla",
    "Districtname": "Durg",
    "statename": "CHATTISGARH"
  },
  {
    "pincode": "491332",
    "officename": "Berla S.O",
    "officeType": "S.O",
    "Deliverystatus": "Delivery",
    "divisionname": "Durg",
    "regionname": "Raipur",
    "circlename": "Chattisgarh",
    "Taluk": "Berla",
    "Districtname": "Durg",
    "statename": "CHATTISGARH"
  },
  {
    "pincode": "491332",
    "officename": "Biroda B.O",
    "officeType": "B.O",
    "Deliverystatus": "Delivery",
    "divisionname": "Durg",
    "regionname": "Raipur",
    "circlename": "Chattisgarh",
    "Taluk": "Berla",
    "Districtname": "Durg",
    "statename": "CHATTISGARH"
  },
  {
    "pincode": "491332",
    "officename": "Dargaon B.O",
    "officeType": "B.O",
    "Deliverystatus": "Delivery",
    "divisionname": "Durg",
    "regionname": "Raipur",
    "circlename": "Chattisgarh",
    "Taluk": "Berla",
    "Districtname": "Durg",
    "statename": "CHATTISGARH"
  },
  {
    "pincode": "491332",
    "officename": "K.Mohrenga B.O",
    "officeType": "B.O",
    "Deliverystatus": "Delivery",
    "divisionname": "Durg",
    "regionname": "Raipur",
    "circlename": "Chattisgarh",
    "Taluk": "Berla",
    "Districtname": "Durg",
    "statename": "CHATTISGARH"
  },
  {
    "pincode": "491332",
    "officename": "Khudmuda B.O",
    "officeType": "B.O",
    "Deliverystatus": "Delivery",
    "divisionname": "Durg",
    "regionname": "Raipur",
    "circlename": "Chattisgarh",
    "Taluk": "Berla",
    "Districtname": "Durg",
    "statename": "CHATTISGARH"
  },
  {
    "pincode": "491332",
    "officename": "Kusmi B.O",
    "officeType": "B.O",
    "Deliverystatus": "Delivery",
    "divisionname": "Durg",
    "regionname": "Raipur",
    "circlename": "Chattisgarh",
    "Taluk": "Berla",
    "Districtname": "Durg",
    "statename": "CHATTISGARH"
  },
  {
    "pincode": "491332",
    "officename": "Lawatara B.O",
    "officeType": "B.O",
    "Deliverystatus": "Delivery",
    "divisionname": "Durg",
    "regionname": "Raipur",
    "circlename": "Chattisgarh",
    "Taluk": "Berla",
    "Districtname": "Durg",
    "statename": "CHATTISGARH"
  },
  {
    "pincode": "491332",
    "officename": "Lenjwara B.O",
    "officeType": "B.O",
    "Deliverystatus": "Delivery",
    "divisionname": "Durg",
    "regionname": "Raipur",
    "circlename": "Chattisgarh",
    "Taluk": "Berla",
    "Districtname": "Durg",
    "statename": "CHATTISGARH"
  },
  {
    "pincode": "491332",
    "officename": "Pahanda B.O",
    "officeType": "B.O",
    "Deliverystatus": "Delivery",
    "divisionname": "Durg",
    "regionname": "Raipur",
    "circlename": "Chattisgarh",
    "Taluk": "Berla",
    "Districtname": "Durg",
    "statename": "CHATTISGARH"
  },
  {
    "pincode": "491332",
    "officename": "Patora B.O",
    "officeType": "B.O",
    "Deliverystatus": "Delivery",
    "divisionname": "Durg",
    "regionname": "Raipur",
    "circlename": "Chattisgarh",
    "Taluk": "Berla",
    "Districtname": "Durg",
    "statename": "CHATTISGARH"
  },
  {
    "pincode": "491332",
    "officename": "Sarda B.O",
    "officeType": "B.O",
    "Deliverystatus": "Delivery",
    "divisionname": "Durg",
    "regionname": "Raipur",
    "circlename": "Chattisgarh",
    "Taluk": "Berla",
    "Districtname": "Durg",
    "statename": "CHATTISGARH"
  },
  {
    "pincode": "491332",
    "officename": "Semaria B.O",
    "officeType": "B.O",
    "Deliverystatus": "Delivery",
    "divisionname": "Durg",
    "regionname": "Raipur",
    "circlename": "Chattisgarh",
    "Taluk": "Berla",
    "Districtname": "Durg",
    "statename": "CHATTISGARH"
  },
  {
    "pincode": "491332",
    "officename": "Sondh B.O",
    "officeType": "B.O",
    "Deliverystatus": "Delivery",
    "divisionname": "Durg",
    "regionname": "Raipur",
    "circlename": "Chattisgarh",
    "Taluk": "Berla",
    "Districtname": "Durg",
    "statename": "CHATTISGARH"
  }
]
