[
  {
    "pincode": "491444",
    "officename": "Bhainstara B.O",
    "officeType": "B.O",
    "Deliverystatus": "Delivery",
    "divisionname": "Durg",
    "regionname": "Raipur",
    "circlename": "Chattisgarh",
    "Taluk": "Rajnandgaon",
    "Districtname": "Rajnandgaon",
    "statename": "CHATTISGARH"
  },
  {
    "pincode": "491444",
    "officename": "Bijetala B.O",
    "officeType": "B.O",
    "Deliverystatus": "Delivery",
    "divisionname": "Durg",
    "regionname": "Raipur",
    "circlename": "Chattisgarh",
    "Taluk": "Rajnandgaon",
    "Districtname": "Rajnandgaon",
    "statename": "CHATTISGARH"
  },
  {
    "pincode": "491444",
    "officename": "Gataparkala B.O",
    "officeType": "B.O",
    "Deliverystatus": "Delivery",
    "divisionname": "Durg",
    "regionname": "Raipur",
    "circlename": "Chattisgarh",
    "Taluk": "Rajnandgaon",
    "Districtname": "Rajnandgaon",
    "statename": "CHATTISGARH"
  },
  {
    "pincode": "491444",
    "officename": "Ghumka S.O",
    "officeType": "S.O",
    "Deliverystatus": "Delivery",
    "divisionname": "Durg",
    "regionname": "Raipur",
    "circlename": "Chattisgarh",
    "Taluk": "Rajnandgaon",
    "Districtname": "Rajnandgaon",
    "statename": "CHATTISGARH"
  },
  {
    "pincode": "491444",
    "officename": "Mahrumkala B.O",
    "officeType": "B.O",
    "Deliverystatus": "Delivery",
    "divisionname": "Durg",
    "regionname": "Raipur",
    "circlename": "Chattisgarh",
    "Taluk": "Rajnandgaon",
    "Districtname": "Rajnandgaon",
    "statename": "CHATTISGARH"
  },
  {
    "pincode": "491444",
    "officename": "Nagaldah B.O",
    "officeType": "B.O",
    "Deliverystatus": "Delivery",
    "divisionname": "Durg",
    "regionname": "Raipur",
    "circlename": "Chattisgarh",
    "Taluk": "Rajnandgaon",
    "Districtname": "Rajnandgaon",
    "statename": "CHATTISGARH"
  },
  {
    "pincode": "491444",
    "officename": "Patewa B.O",
    "officeType": "B.O",
    "Deliverystatus": "Delivery",
    "divisionname": "Durg",
    "regionname": "Raipur",
    "circlename": "Chattisgarh",
    "Taluk": "Rajnandgaon",
    "Districtname": "Rajnandgaon",
    "statename": "CHATTISGARH"
  },
  {
    "pincode": "491444",
    "officename": "Saloni B.O",
    "officeType": "B.O",
    "Deliverystatus": "Delivery",
    "divisionname": "Durg",
    "regionname": "Raipur",
    "circlename": "Chattisgarh",
    "Taluk": "Rajnandgaon",
    "Districtname": "Rajnandgaon",
    "statename": "CHATTISGARH"
  },
  {
    "pincode": "491444",
    "officename": "Singarpur B.O",
    "officeType": "B.O",
    "Deliverystatus": "Delivery",
    "divisionname": "Durg",
    "regionname": "Raipur",
    "circlename": "Chattisgarh",
    "Taluk": "Rajnandgaon",
    "Districtname": "Rajnandgaon",
    "statename": "CHATTISGARH"
  },
  {
    "pincode": "491444",
    "officename": "Uparwah B.O",
    "officeType": "B.O",
    "Deliverystatus": "Delivery",
    "divisionname": "Durg",
    "regionname": "Raipur",
    "circlename": "Chattisgarh",
    "Taluk": "Rajnandgaon",
    "Districtname": "Rajnandgaon",
    "statename": "CHATTISGARH"
  }
]
