[
  {
    "pincode": "491441",
    "officename": "Arjuni B.O",
    "officeType": "B.O",
    "Deliverystatus": "Delivery",
    "divisionname": "Durg",
    "regionname": "Raipur",
    "circlename": "Chattisgarh",
    "Taluk": "Dongargaon",
    "Districtname": "Rajnandgaon",
    "statename": "CHATTISGARH"
  },
  {
    "pincode": "491441",
    "officename": "Baghera B.O",
    "officeType": "B.O",
    "Deliverystatus": "Delivery",
    "divisionname": "Durg",
    "regionname": "Raipur",
    "circlename": "Chattisgarh",
    "Taluk": "Rajnandgaon",
    "Districtname": "Rajnandgaon",
    "statename": "CHATTISGARH"
  },
  {
    "pincode": "491441",
    "officename": "Bajrangpur Nawagaon B.O",
    "officeType": "B.O",
    "Deliverystatus": "Delivery",
    "divisionname": "Durg",
    "regionname": "Raipur",
    "circlename": "Chattisgarh",
    "Taluk": "Rajnandgaon",
    "Districtname": "Rajnandgaon",
    "statename": "CHATTISGARH"
  },
  {
    "pincode": "491441",
    "officename": "Bakal B.O",
    "officeType": "B.O",
    "Deliverystatus": "Delivery",
    "divisionname": "Durg",
    "regionname": "Raipur",
    "circlename": "Chattisgarh",
    "Taluk": "Rajnandgaon",
    "Districtname": "Rajnandgaon",
    "statename": "CHATTISGARH"
  },
  {
    "pincode": "491441",
    "officename": "Bazar Rajnadngaon S.O",
    "officeType": "S.O",
    "Deliverystatus": "Non-Delivery",
    "divisionname": "Durg",
    "regionname": "Raipur",
    "circlename": "Chattisgarh",
    "Taluk": "Rajnandgaon",
    "Districtname": "Rajnandgaon",
    "statename": "CHATTISGARH"
  },
  {
    "pincode": "491441",
    "officename": "Bharregaon B.O",
    "officeType": "B.O",
    "Deliverystatus": "Delivery",
    "divisionname": "Durg",
    "regionname": "Raipur",
    "circlename": "Chattisgarh",
    "Taluk": "Rajnandgaon",
    "Districtname": "Rajnandgaon",
    "statename": "CHATTISGARH"
  },
  {
    "pincode": "491441",
    "officename": "Bhedikala B.O",
    "officeType": "B.O",
    "Deliverystatus": "Delivery",
    "divisionname": "Durg",
    "regionname": "Raipur",
    "circlename": "Chattisgarh",
    "Taluk": "Rajnandgaon",
    "Districtname": "Rajnandgaon",
    "statename": "CHATTISGARH"
  },
  {
    "pincode": "491441",
    "officename": "Bori B.O",
    "officeType": "B.O",
    "Deliverystatus": "Delivery",
    "divisionname": "Durg",
    "regionname": "Raipur",
    "circlename": "Chattisgarh",
    "Taluk": "Rajnandgaon",
    "Districtname": "Rajnandgaon",
    "statename": "CHATTISGARH"
  },
  {
    "pincode": "491441",
    "officename": "Dhangaon B.O",
    "officeType": "B.O",
    "Deliverystatus": "Delivery",
    "divisionname": "Durg",
    "regionname": "Raipur",
    "circlename": "Chattisgarh",
    "Taluk": "Rajnandgaon",
    "Districtname": "Rajnandgaon",
    "statename": "CHATTISGARH"
  },
  {
    "pincode": "491441",
    "officename": "Dilapahari B.O",
    "officeType": "B.O",
    "Deliverystatus": "Delivery",
    "divisionname": "Durg",
    "regionname": "Raipur",
    "circlename": "Chattisgarh",
    "Taluk": "Rajnandgaon",
    "Districtname": "Rajnandgaon",
    "statename": "CHATTISGARH"
  },
  {
    "pincode": "491441",
    "officename": "Dumardihkhurd B.O",
    "officeType": "B.O",
    "Deliverystatus": "Delivery",
    "divisionname": "Durg",
    "regionname": "Raipur",
    "circlename": "Chattisgarh",
    "Taluk": "Rajnandgaon",
    "Districtname": "Rajnandgaon",
    "statename": "CHATTISGARH"
  },
  {
    "pincode": "491441",
    "officename": "G G Chowk Rajnandgaon S.O",
    "officeType": "S.O",
    "Deliverystatus": "Non-Delivery",
    "divisionname": "Durg",
    "regionname": "Raipur",
    "circlename": "Chattisgarh",
    "Taluk": "Rajnandgaon",
    "Districtname": "Rajnandgaon",
    "statename": "CHATTISGARH"
  },
  {
    "pincode": "491441",
    "officename": "Jangalpur B.O",
    "officeType": "B.O",
    "Deliverystatus": "Delivery",
    "divisionname": "Durg",
    "regionname": "Raipur",
    "circlename": "Chattisgarh",
    "Taluk": "Khairagarh",
    "Districtname": "Rajnandgaon",
    "statename": "CHATTISGARH"
  },
  {
    "pincode": "491441",
    "officename": "Kanharpuri B.O",
    "officeType": "B.O",
    "Deliverystatus": "Delivery",
    "divisionname": "Durg",
    "regionname": "Raipur",
    "circlename": "Chattisgarh",
    "Taluk": "Rajnandgaon",
    "Districtname": "Rajnandgaon",
    "statename": "CHATTISGARH"
  },
  {
    "pincode": "491441",
    "officename": "Karamtaa B.O",
    "officeType": "B.O",
    "Deliverystatus": "Delivery",
    "divisionname": "Durg",
    "regionname": "Raipur",
    "circlename": "Chattisgarh",
    "Taluk": "Rajnandgaon",
    "Districtname": "Rajnandgaon",
    "statename": "CHATTISGARH"
  },
  {
    "pincode": "491441",
    "officename": "Khaprikhurd B.O",
    "officeType": "B.O",
    "Deliverystatus": "Delivery",
    "divisionname": "Durg",
    "regionname": "Raipur",
    "circlename": "Chattisgarh",
    "Taluk": "Rajnandgaon",
    "Districtname": "Rajnandgaon",
    "statename": "CHATTISGARH"
  },
  {
    "pincode": "491441",
    "officename": "Lakholi B.O",
    "officeType": "B.O",
    "Deliverystatus": "Delivery",
    "divisionname": "Durg",
    "regionname": "Raipur",
    "circlename": "Chattisgarh",
    "Taluk": "Rajnandgaon",
    "Districtname": "Rajnandgaon",
    "statename": "CHATTISGARH"
  },
  {
    "pincode": "491441",
    "officename": "Mangata B.O",
    "officeType": "B.O",
    "Deliverystatus": "Delivery",
    "divisionname": "Durg",
    "regionname": "Raipur",
    "circlename": "Chattisgarh",
    "Taluk": "Rajnandgaon",
    "Districtname": "Rajnandgaon",
    "statename": "CHATTISGARH"
  },
  {
    "pincode": "491441",
    "officename": "Mohara B.O",
    "officeType": "B.O",
    "Deliverystatus": "Delivery",
    "divisionname": "Durg",
    "regionname": "Raipur",
    "circlename": "Chattisgarh",
    "Taluk": "Rajnandgaon",
    "Districtname": "Rajnandgaon",
    "statename": "CHATTISGARH"
  },
  {
    "pincode": "491441",
    "officename": "Padumtaa B.O",
    "officeType": "B.O",
    "Deliverystatus": "Delivery",
    "divisionname": "Durg",
    "regionname": "Raipur",
    "circlename": "Chattisgarh",
    "Taluk": "Rajnandgaon",
    "Districtname": "Rajnandgaon",
    "statename": "CHATTISGARH"
  },
  {
    "pincode": "491441",
    "officename": "Paneka B.O",
    "officeType": "B.O",
    "Deliverystatus": "Delivery",
    "divisionname": "Durg",
    "regionname": "Raipur",
    "circlename": "Chattisgarh",
    "Taluk": "Rajnandgaon",
    "Districtname": "Rajnandgaon",
    "statename": "CHATTISGARH"
  },
  {
    "pincode": "491441",
    "officename": "Pendri B.O",
    "officeType": "B.O",
    "Deliverystatus": "Delivery",
    "divisionname": "Durg",
    "regionname": "Raipur",
    "circlename": "Chattisgarh",
    "Taluk": "Rajnandgaon",
    "Districtname": "Rajnandgaon",
    "statename": "CHATTISGARH"
  },
  {
    "pincode": "491441",
    "officename": "Rajnandgaon H.O",
    "officeType": "H.O",
    "Deliverystatus": "Delivery",
    "divisionname": "Durg",
    "regionname": "Raipur",
    "circlename": "Chattisgarh",
    "Taluk": "Rajnandgaon",
    "Districtname": "Rajnandgaon",
    "statename": "CHATTISGARH"
  },
  {
    "pincode": "491441",
    "officename": "Rajnandgaon Kutchery S.O",
    "officeType": "S.O",
    "Deliverystatus": "Non-Delivery",
    "divisionname": "Durg",
    "regionname": "Raipur",
    "circlename": "Chattisgarh",
    "Taluk": "Rajnandgaon",
    "Districtname": "Rajnandgaon",
    "statename": "CHATTISGARH"
  },
  {
    "pincode": "491441",
    "officename": "Rajnandgaon Stadium S.O",
    "officeType": "S.O",
    "Deliverystatus": "Non-Delivery",
    "divisionname": "Durg",
    "regionname": "Raipur",
    "circlename": "Chattisgarh",
    "Taluk": "Rajnandgaon",
    "Districtname": "Rajnandgaon",
    "statename": "CHATTISGARH"
  },
  {
    "pincode": "491441",
    "officename": "Rengakathera B.O",
    "officeType": "B.O",
    "Deliverystatus": "Delivery",
    "divisionname": "Durg",
    "regionname": "Raipur",
    "circlename": "Chattisgarh",
    "Taluk": "Rajnandgaon",
    "Districtname": "Rajnandgaon",
    "statename": "CHATTISGARH"
  },
  {
    "pincode": "491441",
    "officename": "Singhola B.O",
    "officeType": "B.O",
    "Deliverystatus": "Delivery",
    "divisionname": "Durg",
    "regionname": "Raipur",
    "circlename": "Chattisgarh",
    "Taluk": "Rajnandgaon",
    "Districtname": "Rajnandgaon",
    "statename": "CHATTISGARH"
  },
  {
    "pincode": "491441",
    "officename": "Somni B.O",
    "officeType": "B.O",
    "Deliverystatus": "Delivery",
    "divisionname": "Durg",
    "regionname": "Raipur",
    "circlename": "Chattisgarh",
    "Taluk": "Rajnandgaon",
    "Districtname": "Rajnandgaon",
    "statename": "CHATTISGARH"
  },
  {
    "pincode": "491441",
    "officename": "Surgi B.O",
    "officeType": "B.O",
    "Deliverystatus": "Delivery",
    "divisionname": "Durg",
    "regionname": "Raipur",
    "circlename": "Chattisgarh",
    "Taluk": "Rajnandgaon",
    "Districtname": "Rajnandgaon",
    "statename": "CHATTISGARH"
  },
  {
    "pincode": "491441",
    "officename": "Tedesara B.O",
    "officeType": "B.O",
    "Deliverystatus": "Delivery",
    "divisionname": "Durg",
    "regionname": "Raipur",
    "circlename": "Chattisgarh",
    "Taluk": "Rajnandgaon",
    "Districtname": "Rajnandgaon",
    "statename": "CHATTISGARH"
  },
  {
    "pincode": "491441",
    "officename": "Tumdibod B.O",
    "officeType": "B.O",
    "Deliverystatus": "Delivery",
    "divisionname": "Durg",
    "regionname": "Raipur",
    "circlename": "Chattisgarh",
    "Taluk": "Rajnandgaon",
    "Districtname": "Rajnandgaon",
    "statename": "CHATTISGARH"
  }
]
