[
  {
    "pincode": "491559",
    "officename": "Bagharra B.O",
    "officeType": "B.O",
    "Deliverystatus": "Delivery",
    "divisionname": "Durg",
    "regionname": "Raipur",
    "circlename": "Chattisgarh",
    "Taluk": "Pandaria",
    "Districtname": "Kawardha",
    "statename": "CHATTISGARH"
  },
  {
    "pincode": "491559",
    "officename": "Bharewa B.O",
    "officeType": "B.O",
    "Deliverystatus": "Delivery",
    "divisionname": "Durg",
    "regionname": "Raipur",
    "circlename": "Chattisgarh",
    "Taluk": "Pandaria",
    "Districtname": "Kawardha",
    "statename": "CHATTISGARH"
  },
  {
    "pincode": "491559",
    "officename": "Bodtarakhurd B.O",
    "officeType": "B.O",
    "Deliverystatus": "Delivery",
    "divisionname": "Durg",
    "regionname": "Raipur",
    "circlename": "Chattisgarh",
    "Taluk": "Pandaria",
    "Districtname": "Kawardha",
    "statename": "CHATTISGARH"
  },
  {
    "pincode": "491559",
    "officename": "Damapur B.O",
    "officeType": "B.O",
    "Deliverystatus": "Delivery",
    "divisionname": "Durg",
    "regionname": "Raipur",
    "circlename": "Chattisgarh",
    "Taluk": "Pandaria",
    "Districtname": "Kawardha",
    "statename": "CHATTISGARH"
  },
  {
    "pincode": "491559",
    "officename": "Dullapur B.O",
    "officeType": "B.O",
    "Deliverystatus": "Delivery",
    "divisionname": "Durg",
    "regionname": "Raipur",
    "circlename": "Chattisgarh",
    "Taluk": "Pandariya",
    "Districtname": "Kawardha",
    "statename": "CHATTISGARH"
  },
  {
    "pincode": "491559",
    "officename": "Ghovghatti B.O",
    "officeType": "B.O",
    "Deliverystatus": "Delivery",
    "divisionname": "Durg",
    "regionname": "Raipur",
    "circlename": "Chattisgarh",
    "Taluk": "Pandaria",
    "Districtname": "Kawardha",
    "statename": "CHATTISGARH"
  },
  {
    "pincode": "491559",
    "officename": "Kamthee B.O",
    "officeType": "B.O",
    "Deliverystatus": "Delivery",
    "divisionname": "Durg",
    "regionname": "Raipur",
    "circlename": "Chattisgarh",
    "Taluk": "Pandaria",
    "Districtname": "Kawardha",
    "statename": "CHATTISGARH"
  },
  {
    "pincode": "491559",
    "officename": "Khairjhiti B.O",
    "officeType": "B.O",
    "Deliverystatus": "Delivery",
    "divisionname": "Durg",
    "regionname": "Raipur",
    "circlename": "Chattisgarh",
    "Taluk": "Kawardha",
    "Districtname": "Kawardha",
    "statename": "CHATTISGARH"
  },
  {
    "pincode": "491559",
    "officename": "Kisungarh B.O",
    "officeType": "B.O",
    "Deliverystatus": "Delivery",
    "divisionname": "Durg",
    "regionname": "Raipur",
    "circlename": "Chattisgarh",
    "Taluk": "Pandariya",
    "Districtname": "Kawardha",
    "statename": "CHATTISGARH"
  },
  {
    "pincode": "491559",
    "officename": "Kodwagodan B.O",
    "officeType": "B.O",
    "Deliverystatus": "Delivery",
    "divisionname": "Durg",
    "regionname": "Raipur",
    "circlename": "Chattisgarh",
    "Taluk": "Pandaria",
    "Districtname": "Kawardha",
    "statename": "CHATTISGARH"
  },
  {
    "pincode": "491559",
    "officename": "Kolhegaon B.O",
    "officeType": "B.O",
    "Deliverystatus": "Delivery",
    "divisionname": "Durg",
    "regionname": "Raipur",
    "circlename": "Chattisgarh",
    "Taluk": "Pandaria",
    "Districtname": "Kawardha",
    "statename": "CHATTISGARH"
  },
  {
    "pincode": "491559",
    "officename": "Kukdur B.O",
    "officeType": "B.O",
    "Deliverystatus": "Delivery",
    "divisionname": "Durg",
    "regionname": "Raipur",
    "circlename": "Chattisgarh",
    "Taluk": "Pandariya",
    "Districtname": "Kawardha",
    "statename": "CHATTISGARH"
  },
  {
    "pincode": "491559",
    "officename": "Kunda B.O",
    "officeType": "B.O",
    "Deliverystatus": "Delivery",
    "divisionname": "Durg",
    "regionname": "Raipur",
    "circlename": "Chattisgarh",
    "Taluk": "Pandariya",
    "Districtname": "Kawardha",
    "statename": "CHATTISGARH"
  },
  {
    "pincode": "491559",
    "officename": "Mahali B.O",
    "officeType": "B.O",
    "Deliverystatus": "Delivery",
    "divisionname": "Durg",
    "regionname": "Raipur",
    "circlename": "Chattisgarh",
    "Taluk": "Pandaria",
    "Districtname": "Kawardha",
    "statename": "CHATTISGARH"
  },
  {
    "pincode": "491559",
    "officename": "Mohgaon B.O",
    "officeType": "B.O",
    "Deliverystatus": "Delivery",
    "divisionname": "Durg",
    "regionname": "Raipur",
    "circlename": "Chattisgarh",
    "Taluk": "Pandaria",
    "Districtname": "Kawardha",
    "statename": "CHATTISGARH"
  },
  {
    "pincode": "491559",
    "officename": "Munmuna B.O",
    "officeType": "B.O",
    "Deliverystatus": "Delivery",
    "divisionname": "Durg",
    "regionname": "Raipur",
    "circlename": "Chattisgarh",
    "Taluk": "Pandariya",
    "Districtname": "Kawardha",
    "statename": "CHATTISGARH"
  },
  {
    "pincode": "491559",
    "officename": "Nanapuri B.O",
    "officeType": "B.O",
    "Deliverystatus": "Delivery",
    "divisionname": "Durg",
    "regionname": "Raipur",
    "circlename": "Chattisgarh",
    "Taluk": "Pandaria",
    "Districtname": "Kawardha",
    "statename": "CHATTISGARH"
  },
  {
    "pincode": "491559",
    "officename": "Neur B.O",
    "officeType": "B.O",
    "Deliverystatus": "Delivery",
    "divisionname": "Durg",
    "regionname": "Raipur",
    "circlename": "Chattisgarh",
    "Taluk": "Pandaria",
    "Districtname": "Kawardha",
    "statename": "CHATTISGARH"
  },
  {
    "pincode": "491559",
    "officename": "Palami B.O",
    "officeType": "B.O",
    "Deliverystatus": "Delivery",
    "divisionname": "Durg",
    "regionname": "Raipur",
    "circlename": "Chattisgarh",
    "Taluk": "Pandaria",
    "Districtname": "Kawardha",
    "statename": "CHATTISGARH"
  },
  {
    "pincode": "491559",
    "officename": "Palanagari B.O",
    "officeType": "B.O",
    "Deliverystatus": "Delivery",
    "divisionname": "Durg",
    "regionname": "Raipur",
    "circlename": "Chattisgarh",
    "Taluk": "Pandaria",
    "Districtname": "Kawardha",
    "statename": "CHATTISGARH"
  },
  {
    "pincode": "491559",
    "officename": "Pandaria S.O",
    "officeType": "S.O",
    "Deliverystatus": "Delivery",
    "divisionname": "Durg",
    "regionname": "Raipur",
    "circlename": "Chattisgarh",
    "Taluk": "Pandaria",
    "Districtname": "Kawardha",
    "statename": "CHATTISGARH"
  },
  {
    "pincode": "491559",
    "officename": "Pandatarai B.O",
    "officeType": "B.O",
    "Deliverystatus": "Delivery",
    "divisionname": "Durg",
    "regionname": "Raipur",
    "circlename": "Chattisgarh",
    "Taluk": "Pandaria",
    "Districtname": "Kawardha",
    "statename": "CHATTISGARH"
  },
  {
    "pincode": "491559",
    "officename": "Ruse B.O",
    "officeType": "B.O",
    "Deliverystatus": "Delivery",
    "divisionname": "Durg",
    "regionname": "Raipur",
    "circlename": "Chattisgarh",
    "Taluk": "Pandaria",
    "Districtname": "Kawardha",
    "statename": "CHATTISGARH"
  },
  {
    "pincode": "491559",
    "officename": "Sehamalgi B.O",
    "officeType": "B.O",
    "Deliverystatus": "Delivery",
    "divisionname": "Durg",
    "regionname": "Raipur",
    "circlename": "Chattisgarh",
    "Taluk": "Pandaria",
    "Districtname": "Kawardha",
    "statename": "CHATTISGARH"
  }
]
