[
  {
    "pincode": "491661",
    "officename": "Atargaon B.O",
    "officeType": "B.O",
    "Deliverystatus": "Delivery",
    "divisionname": "Durg",
    "regionname": "Raipur",
    "circlename": "Chattisgarh",
    "Taluk": "Dongargaon",
    "Districtname": "Rajnandgaon",
    "statename": "CHATTISGARH"
  },
  {
    "pincode": "491661",
    "officename": "Diwanbhedi B.O",
    "officeType": "B.O",
    "Deliverystatus": "Delivery",
    "divisionname": "Durg",
    "regionname": "Raipur",
    "circlename": "Chattisgarh",
    "Taluk": "Dongargaon",
    "Districtname": "Rajnandgaon",
    "statename": "CHATTISGARH"
  },
  {
    "pincode": "491661",
    "officename": "Dongargaon S.O",
    "officeType": "S.O",
    "Deliverystatus": "Delivery",
    "divisionname": "Durg",
    "regionname": "Raipur",
    "circlename": "Chattisgarh",
    "Taluk": "Dongargaon",
    "Districtname": "Rajnandgaon",
    "statename": "CHATTISGARH"
  },
  {
    "pincode": "491661",
    "officename": "Gidarri B.O",
    "officeType": "B.O",
    "Deliverystatus": "Delivery",
    "divisionname": "Durg",
    "regionname": "Raipur",
    "circlename": "Chattisgarh",
    "Taluk": "Dongargaon",
    "Districtname": "Rajnandgaon",
    "statename": "CHATTISGARH"
  },
  {
    "pincode": "491661",
    "officename": "Godalwahi B.O",
    "officeType": "B.O",
    "Deliverystatus": "Delivery",
    "divisionname": "Durg",
    "regionname": "Raipur",
    "circlename": "Chattisgarh",
    "Taluk": "Dongargaon",
    "Districtname": "Rajnandgaon",
    "statename": "CHATTISGARH"
  },
  {
    "pincode": "491661",
    "officename": "Khujji B.O",
    "officeType": "B.O",
    "Deliverystatus": "Delivery",
    "divisionname": "Durg",
    "regionname": "Raipur",
    "circlename": "Chattisgarh",
    "Taluk": "Dongargaon",
    "Districtname": "Rajnandgaon",
    "statename": "CHATTISGARH"
  },
  {
    "pincode": "491661",
    "officename": "Khursipar B.O",
    "officeType": "B.O",
    "Deliverystatus": "Delivery",
    "divisionname": "Durg",
    "regionname": "Raipur",
    "circlename": "Chattisgarh",
    "Taluk": "Dongargaon",
    "Districtname": "Rajnandgaon",
    "statename": "CHATTISGARH"
  },
  {
    "pincode": "491661",
    "officename": "Khursitikul B.O",
    "officeType": "B.O",
    "Deliverystatus": "Delivery",
    "divisionname": "Durg",
    "regionname": "Raipur",
    "circlename": "Chattisgarh",
    "Taluk": "Dongargaon",
    "Districtname": "Rajnandgaon",
    "statename": "CHATTISGARH"
  },
  {
    "pincode": "491661",
    "officename": "Mahrum B.O",
    "officeType": "B.O",
    "Deliverystatus": "Delivery",
    "divisionname": "Durg",
    "regionname": "Raipur",
    "circlename": "Chattisgarh",
    "Taluk": "Dongargaon",
    "Districtname": "Rajnandgaon",
    "statename": "CHATTISGARH"
  },
  {
    "pincode": "491661",
    "officename": "Mathaldabri B.O",
    "officeType": "B.O",
    "Deliverystatus": "Delivery",
    "divisionname": "Durg",
    "regionname": "Raipur",
    "circlename": "Chattisgarh",
    "Taluk": "Dongargaon",
    "Districtname": "Rajnandgaon",
    "statename": "CHATTISGARH"
  },
  {
    "pincode": "491661",
    "officename": "Pinkapar B.O",
    "officeType": "B.O",
    "Deliverystatus": "Delivery",
    "divisionname": "Durg",
    "regionname": "Raipur",
    "circlename": "Chattisgarh",
    "Taluk": "Dongargaon",
    "Districtname": "Rajnandgaon",
    "statename": "CHATTISGARH"
  },
  {
    "pincode": "491661",
    "officename": "Rudgaon B.O",
    "officeType": "B.O",
    "Deliverystatus": "Delivery",
    "divisionname": "Durg",
    "regionname": "Raipur",
    "circlename": "Chattisgarh",
    "Taluk": "Dongargaon",
    "Districtname": "Rajnandgaon",
    "statename": "CHATTISGARH"
  },
  {
    "pincode": "491661",
    "officename": "Umarwahi B.O",
    "officeType": "B.O",
    "Deliverystatus": "Delivery",
    "divisionname": "Durg",
    "regionname": "Raipur",
    "circlename": "Chattisgarh",
    "Taluk": "Dongargaon",
    "Districtname": "Rajnandgaon",
    "statename": "CHATTISGARH"
  }
]
