[
  {
    "pincode": "491666",
    "officename": "Alkanhar B.O",
    "officeType": "B.O",
    "Deliverystatus": "Delivery",
    "divisionname": "Durg",
    "regionname": "Raipur",
    "circlename": "Chattisgarh",
    "Taluk": "Mohla",
    "Districtname": "Rajnandgaon",
    "statename": "CHATTISGARH"
  },
  {
    "pincode": "491666",
    "officename": "Dumartola B.O",
    "officeType": "B.O",
    "Deliverystatus": "Delivery",
    "divisionname": "Durg",
    "regionname": "Raipur",
    "circlename": "Chattisgarh",
    "Taluk": "Mohla",
    "Districtname": "Rajnandgaon",
    "statename": "CHATTISGARH"
  },
  {
    "pincode": "491666",
    "officename": "Gotatola B.O",
    "officeType": "B.O",
    "Deliverystatus": "Delivery",
    "divisionname": "Durg",
    "regionname": "Raipur",
    "circlename": "Chattisgarh",
    "Taluk": "Mohla",
    "Districtname": "Rajnandgaon",
    "statename": "CHATTISGARH"
  },
  {
    "pincode": "491666",
    "officename": "Kakaipar B.O",
    "officeType": "B.O",
    "Deliverystatus": "Delivery",
    "divisionname": "Durg",
    "regionname": "Raipur",
    "circlename": "Chattisgarh",
    "Taluk": "Mohla",
    "Districtname": "Rajnandgaon",
    "statename": "CHATTISGARH"
  },
  {
    "pincode": "491666",
    "officename": "Kandadi B.O",
    "officeType": "B.O",
    "Deliverystatus": "Delivery",
    "divisionname": "Durg",
    "regionname": "Raipur",
    "circlename": "Chattisgarh",
    "Taluk": "Mohla",
    "Districtname": "Rajnandgaon",
    "statename": "CHATTISGARH"
  },
  {
    "pincode": "491666",
    "officename": "Kande B.O",
    "officeType": "B.O",
    "Deliverystatus": "Delivery",
    "divisionname": "Durg",
    "regionname": "Raipur",
    "circlename": "Chattisgarh",
    "Taluk": "Mohla",
    "Districtname": "Rajnandgaon",
    "statename": "CHATTISGARH"
  },
  {
    "pincode": "491666",
    "officename": "Korramtola B.O",
    "officeType": "B.O",
    "Deliverystatus": "Delivery",
    "divisionname": "Durg",
    "regionname": "Raipur",
    "circlename": "Chattisgarh",
    "Taluk": "Mohla",
    "Districtname": "Rajnandgaon",
    "statename": "CHATTISGARH"
  },
  {
    "pincode": "491666",
    "officename": "Kumhali B.O",
    "officeType": "B.O",
    "Deliverystatus": "Delivery",
    "divisionname": "Durg",
    "regionname": "Raipur",
    "circlename": "Chattisgarh",
    "Taluk": "Mohla",
    "Districtname": "Rajnandgaon",
    "statename": "CHATTISGARH"
  },
  {
    "pincode": "491666",
    "officename": "Mohla S.O",
    "officeType": "S.O",
    "Deliverystatus": "Delivery",
    "divisionname": "Durg",
    "regionname": "Raipur",
    "circlename": "Chattisgarh",
    "Taluk": "Mohla",
    "Districtname": "Rajnandgaon",
    "statename": "CHATTISGARH"
  },
  {
    "pincode": "491666",
    "officename": "Mukadah B.O",
    "officeType": "B.O",
    "Deliverystatus": "Delivery",
    "divisionname": "Durg",
    "regionname": "Raipur",
    "circlename": "Chattisgarh",
    "Taluk": "Mohla",
    "Districtname": "Rajnandgaon",
    "statename": "CHATTISGARH"
  },
  {
    "pincode": "491666",
    "officename": "Panbaras B.O",
    "officeType": "B.O",
    "Deliverystatus": "Delivery",
    "divisionname": "Durg",
    "regionname": "Raipur",
    "circlename": "Chattisgarh",
    "Taluk": "Mohla",
    "Districtname": "Rajnandgaon",
    "statename": "CHATTISGARH"
  },
  {
    "pincode": "491666",
    "officename": "Rengakathera B.O",
    "officeType": "B.O",
    "Deliverystatus": "Delivery",
    "divisionname": "Durg",
    "regionname": "Raipur",
    "circlename": "Chattisgarh",
    "Taluk": "Mohla",
    "Districtname": "Rajnandgaon",
    "statename": "CHATTISGARH"
  },
  {
    "pincode": "491666",
    "officename": "Somatola B.O",
    "officeType": "B.O",
    "Deliverystatus": "Delivery",
    "divisionname": "Durg",
    "regionname": "Raipur",
    "circlename": "Chattisgarh",
    "Taluk": "Mohla",
    "Districtname": "Rajnandgaon",
    "statename": "CHATTISGARH"
  }
]
