[
  {
    "pincode": "491771",
    "officename": "Acholi B.O",
    "officeType": "B.O",
    "Deliverystatus": "Delivery",
    "divisionname": "Durg",
    "regionname": "Raipur",
    "circlename": "Chattisgarh",
    "Taluk": "Dondi Lohara",
    "Districtname": "Durg",
    "statename": "CHATTISGARH"
  },
  {
    "pincode": "491771",
    "officename": "Badgaon B.O",
    "officeType": "B.O",
    "Deliverystatus": "Delivery",
    "divisionname": "Durg",
    "regionname": "Raipur",
    "circlename": "Chattisgarh",
    "Taluk": "Dondi Lohara",
    "Districtname": "Durg",
    "statename": "CHATTISGARH"
  },
  {
    "pincode": "491771",
    "officename": "Bhandera B.O",
    "officeType": "B.O",
    "Deliverystatus": "Delivery",
    "divisionname": "Durg",
    "regionname": "Raipur",
    "circlename": "Chattisgarh",
    "Taluk": "Dondi Lohara",
    "Districtname": "Durg",
    "statename": "CHATTISGARH"
  },
  {
    "pincode": "491771",
    "officename": "Bhanwarmara B.O",
    "officeType": "B.O",
    "Deliverystatus": "Delivery",
    "divisionname": "Durg",
    "regionname": "Raipur",
    "circlename": "Chattisgarh",
    "Taluk": "Dondi Lohara",
    "Districtname": "Durg",
    "statename": "CHATTISGARH"
  },
  {
    "pincode": "491771",
    "officename": "Bharda B.O",
    "officeType": "B.O",
    "Deliverystatus": "Delivery",
    "divisionname": "Durg",
    "regionname": "Raipur",
    "circlename": "Chattisgarh",
    "Taluk": "Dondi Lohara",
    "Districtname": "Durg",
    "statename": "CHATTISGARH"
  },
  {
    "pincode": "491771",
    "officename": "Bhimkanhar B.O",
    "officeType": "B.O",
    "Deliverystatus": "Delivery",
    "divisionname": "Durg",
    "regionname": "Raipur",
    "circlename": "Chattisgarh",
    "Taluk": "Dondi Lohara",
    "Districtname": "Durg",
    "statename": "CHATTISGARH"
  },
  {
    "pincode": "491771",
    "officename": "Deori B.O",
    "officeType": "B.O",
    "Deliverystatus": "Delivery",
    "divisionname": "Durg",
    "regionname": "Raipur",
    "circlename": "Chattisgarh",
    "Taluk": "Dondi Lohara",
    "Districtname": "Durg",
    "statename": "CHATTISGARH"
  },
  {
    "pincode": "491771",
    "officename": "Dondi Lohara S.O",
    "officeType": "S.O",
    "Deliverystatus": "Delivery",
    "divisionname": "Durg",
    "regionname": "Raipur",
    "circlename": "Chattisgarh",
    "Taluk": "Dondi Lohara",
    "Districtname": "Durg",
    "statename": "CHATTISGARH"
  },
  {
    "pincode": "491771",
    "officename": "Faradfod B.O",
    "officeType": "B.O",
    "Deliverystatus": "Delivery",
    "divisionname": "Durg",
    "regionname": "Raipur",
    "circlename": "Chattisgarh",
    "Taluk": "Dondiluhara",
    "Districtname": "Durg",
    "statename": "CHATTISGARH"
  },
  {
    "pincode": "491771",
    "officename": "Kamkapar B.O",
    "officeType": "B.O",
    "Deliverystatus": "Delivery",
    "divisionname": "Durg",
    "regionname": "Raipur",
    "circlename": "Chattisgarh",
    "Taluk": "Dondi Lohara",
    "Districtname": "Durg",
    "statename": "CHATTISGARH"
  },
  {
    "pincode": "491771",
    "officename": "Kherthabazar B.O",
    "officeType": "B.O",
    "Deliverystatus": "Delivery",
    "divisionname": "Durg",
    "regionname": "Raipur",
    "circlename": "Chattisgarh",
    "Taluk": "Dondi Lohara",
    "Districtname": "Durg",
    "statename": "CHATTISGARH"
  },
  {
    "pincode": "491771",
    "officename": "Kholjhar B.O",
    "officeType": "B.O",
    "Deliverystatus": "Delivery",
    "divisionname": "Durg",
    "regionname": "Raipur",
    "circlename": "Chattisgarh",
    "Taluk": "Dondi Lohara",
    "Districtname": "Durg",
    "statename": "CHATTISGARH"
  },
  {
    "pincode": "491771",
    "officename": "Kodekasa B.O",
    "officeType": "B.O",
    "Deliverystatus": "Delivery",
    "divisionname": "Durg",
    "regionname": "Raipur",
    "circlename": "Chattisgarh",
    "Taluk": "Dondi Lohara",
    "Districtname": "Durg",
    "statename": "CHATTISGARH"
  },
  {
    "pincode": "491771",
    "officename": "Nahanda B.O",
    "officeType": "B.O",
    "Deliverystatus": "Delivery",
    "divisionname": "Durg",
    "regionname": "Raipur",
    "circlename": "Chattisgarh",
    "Taluk": "Dondi Lohara",
    "Districtname": "Durg",
    "statename": "CHATTISGARH"
  },
  {
    "pincode": "491771",
    "officename": "Sahgaon B.O",
    "officeType": "B.O",
    "Deliverystatus": "Delivery",
    "divisionname": "Durg",
    "regionname": "Raipur",
    "circlename": "Chattisgarh",
    "Taluk": "Dondi Lohara",
    "Districtname": "Durg",
    "statename": "CHATTISGARH"
  },
  {
    "pincode": "491771",
    "officename": "Sambalpur B.O",
    "officeType": "B.O",
    "Deliverystatus": "Delivery",
    "divisionname": "Durg",
    "regionname": "Raipur",
    "circlename": "Chattisgarh",
    "Taluk": "Dondi Lohara",
    "Districtname": "Durg",
    "statename": "CHATTISGARH"
  },
  {
    "pincode": "491771",
    "officename": "Sanjari B.O",
    "officeType": "B.O",
    "Deliverystatus": "Delivery",
    "divisionname": "Durg",
    "regionname": "Raipur",
    "circlename": "Chattisgarh",
    "Taluk": "Dondi Lohara",
    "Districtname": "Durg",
    "statename": "CHATTISGARH"
  },
  {
    "pincode": "491771",
    "officename": "Tatenga B.O",
    "officeType": "B.O",
    "Deliverystatus": "Delivery",
    "divisionname": "Durg",
    "regionname": "Raipur",
    "circlename": "Chattisgarh",
    "Taluk": "Dondi Lohara",
    "Districtname": "Durg",
    "statename": "CHATTISGARH"
  }
]
