[
  {
    "pincode": "492112",
    "officename": "Bhagat Deori B.O",
    "officeType": "B.O",
    "Deliverystatus": "Delivery",
    "divisionname": "Raipur",
    "regionname": "Raipur",
    "circlename": "Chattisgarh",
    "Taluk": "Mahasamund",
    "Districtname": "Mahasamund",
    "statename": "CHATTISGARH"
  },
  {
    "pincode": "492112",
    "officename": "Chandan B.O",
    "officeType": "B.O",
    "Deliverystatus": "Delivery",
    "divisionname": "Raipur",
    "regionname": "Raipur",
    "circlename": "Chattisgarh",
    "Taluk": "Sankra",
    "Districtname": "Raipur",
    "statename": "CHATTISGARH"
  },
  {
    "pincode": "492112",
    "officename": "Chhoteloram B.O",
    "officeType": "B.O",
    "Deliverystatus": "Delivery",
    "divisionname": "Raipur",
    "regionname": "Raipur",
    "circlename": "Chattisgarh",
    "Taluk": "Sankra",
    "Districtname": "Mahasamund",
    "statename": "CHATTISGARH"
  },
  {
    "pincode": "492112",
    "officename": "Deori B.O",
    "officeType": "B.O",
    "Deliverystatus": "Delivery",
    "divisionname": "Raipur",
    "regionname": "Raipur",
    "circlename": "Chattisgarh",
    "Taluk": "",
    "Districtname": "Raipur",
    "statename": "CHATTISGARH"
  },
  {
    "pincode": "492112",
    "officename": "Memra B.O",
    "officeType": "B.O",
    "Deliverystatus": "Delivery",
    "divisionname": "Raipur",
    "regionname": "Raipur",
    "circlename": "Chattisgarh",
    "Taluk": "Sankra",
    "Districtname": "Mahasamund",
    "statename": "CHATTISGARH"
  },
  {
    "pincode": "492112",
    "officename": "Nagarda B.O",
    "officeType": "B.O",
    "Deliverystatus": "Delivery",
    "divisionname": "Raipur",
    "regionname": "Raipur",
    "circlename": "Chattisgarh",
    "Taluk": "",
    "Districtname": "Raipur",
    "statename": "CHATTISGARH"
  },
  {
    "pincode": "492112",
    "officename": "Nawagaon B.O",
    "officeType": "B.O",
    "Deliverystatus": "Delivery",
    "divisionname": "Raipur",
    "regionname": "Raipur",
    "circlename": "Chattisgarh",
    "Taluk": "Sankra",
    "Districtname": "Raipur",
    "statename": "CHATTISGARH"
  },
  {
    "pincode": "492112",
    "officename": "Paraswani B.O",
    "officeType": "B.O",
    "Deliverystatus": "Delivery",
    "divisionname": "Raipur",
    "regionname": "Raipur",
    "circlename": "Chattisgarh",
    "Taluk": "",
    "Districtname": "Mahasamund",
    "statename": "CHATTISGARH"
  },
  {
    "pincode": "492112",
    "officename": "Rikokala B.O",
    "officeType": "B.O",
    "Deliverystatus": "Delivery",
    "divisionname": "Raipur",
    "regionname": "Raipur",
    "circlename": "Chattisgarh",
    "Taluk": "Sankra",
    "Districtname": "Raipur",
    "statename": "CHATTISGARH"
  },
  {
    "pincode": "492112",
    "officename": "Saldih B.O",
    "officeType": "B.O",
    "Deliverystatus": "Delivery",
    "divisionname": "Raipur",
    "regionname": "Raipur",
    "circlename": "Chattisgarh",
    "Taluk": "Sankra",
    "Districtname": "Mahasamund",
    "statename": "CHATTISGARH"
  },
  {
    "pincode": "492112",
    "officename": "Sankra S.O (Mahasamund)",
    "officeType": "S.O",
    "Deliverystatus": "Delivery",
    "divisionname": "Raipur",
    "regionname": "Raipur",
    "circlename": "Chattisgarh",
    "Taluk": "Basna",
    "Districtname": "Mahasamund",
    "statename": "CHATTISGARH"
  },
  {
    "pincode": "492112",
    "officename": "Sonakhan B.O",
    "officeType": "B.O",
    "Deliverystatus": "Delivery",
    "divisionname": "Raipur",
    "regionname": "Raipur",
    "circlename": "Chattisgarh",
    "Taluk": "Sankra",
    "Districtname": "Raipur",
    "statename": "CHATTISGARH"
  },
  {
    "pincode": "492112",
    "officename": "Sonpur B.O",
    "officeType": "B.O",
    "Deliverystatus": "Delivery",
    "divisionname": "Raipur",
    "regionname": "Raipur",
    "circlename": "Chattisgarh",
    "Taluk": "Sankra",
    "Districtname": "Raipur",
    "statename": "CHATTISGARH"
  },
  {
    "pincode": "492112",
    "officename": "Thargaon B.O",
    "officeType": "B.O",
    "Deliverystatus": "Delivery",
    "divisionname": "Raipur",
    "regionname": "Raipur",
    "circlename": "Chattisgarh",
    "Taluk": "Sankra",
    "Districtname": "Raipur",
    "statename": "CHATTISGARH"
  }
]
