[
  {
    "pincode": "493221",
    "officename": "Birgaon S.O",
    "officeType": "S.O",
    "Deliverystatus": "Delivery",
    "divisionname": "Raipur",
    "regionname": "Raipur",
    "circlename": "Chattisgarh",
    "Taluk": "",
    "Districtname": "Raipur",
    "statename": "CHATTISGARH"
  },
  {
    "pincode": "493221",
    "officename": "Deori B.O",
    "officeType": "B.O",
    "Deliverystatus": "Delivery",
    "divisionname": "Raipur",
    "regionname": "Raipur",
    "circlename": "Chattisgarh",
    "Taluk": "Birgaon",
    "Districtname": "Raipur",
    "statename": "CHATTISGARH"
  },
  {
    "pincode": "493221",
    "officename": "Dharsiwa B.O",
    "officeType": "B.O",
    "Deliverystatus": "Delivery",
    "divisionname": "Raipur",
    "regionname": "Raipur",
    "circlename": "Chattisgarh",
    "Taluk": "Birgaon",
    "Districtname": "Raipur",
    "statename": "CHATTISGARH"
  },
  {
    "pincode": "493221",
    "officename": "Khairkhut B.O",
    "officeType": "B.O",
    "Deliverystatus": "Delivery",
    "divisionname": "Raipur",
    "regionname": "Raipur",
    "circlename": "Chattisgarh",
    "Taluk": "Birgaon",
    "Districtname": "Raipur",
    "statename": "CHATTISGARH"
  },
  {
    "pincode": "493221",
    "officename": "Kurra B.O",
    "officeType": "B.O",
    "Deliverystatus": "Delivery",
    "divisionname": "Raipur",
    "regionname": "Raipur",
    "circlename": "Chattisgarh",
    "Taluk": "Raipur",
    "Districtname": "Raipur",
    "statename": "CHATTISGARH"
  },
  {
    "pincode": "493221",
    "officename": "Sarora B.O",
    "officeType": "B.O",
    "Deliverystatus": "Delivery",
    "divisionname": "Raipur",
    "regionname": "Raipur",
    "circlename": "Chattisgarh",
    "Taluk": "Birgaon",
    "Districtname": "Raipur",
    "statename": "CHATTISGARH"
  },
  {
    "pincode": "493221",
    "officename": "Sondra B.O",
    "officeType": "B.O",
    "Deliverystatus": "Delivery",
    "divisionname": "Raipur",
    "regionname": "Raipur",
    "circlename": "Chattisgarh",
    "Taluk": "Birgaon",
    "Districtname": "Raipur",
    "statename": "CHATTISGARH"
  },
  {
    "pincode": "493221",
    "officename": "Tarpongi B.O",
    "officeType": "B.O",
    "Deliverystatus": "Delivery",
    "divisionname": "Raipur",
    "regionname": "Raipur",
    "circlename": "Chattisgarh",
    "Taluk": "Birgaon",
    "Districtname": "Raipur",
    "statename": "CHATTISGARH"
  }
]
