[
  {
    "pincode": "493335",
    "officename": "Amakhoha B.O",
    "officeType": "B.O",
    "Deliverystatus": "Delivery",
    "divisionname": "Raipur",
    "regionname": "Raipur",
    "circlename": "Chattisgarh",
    "Taluk": "Kasdol",
    "Districtname": "Raipur",
    "statename": "CHATTISGARH"
  },
  {
    "pincode": "493335",
    "officename": "Borsi B.O",
    "officeType": "B.O",
    "Deliverystatus": "Delivery",
    "divisionname": "Raipur",
    "regionname": "Raipur",
    "circlename": "Chattisgarh",
    "Taluk": "Kasdol",
    "Districtname": "Raipur",
    "statename": "CHATTISGARH"
  },
  {
    "pincode": "493335",
    "officename": "Hatodbazar B.O",
    "officeType": "B.O",
    "Deliverystatus": "Delivery",
    "divisionname": "Raipur",
    "regionname": "Raipur",
    "circlename": "Chattisgarh",
    "Taluk": "Kasdol",
    "Districtname": "Raipur",
    "statename": "CHATTISGARH"
  },
  {
    "pincode": "493335",
    "officename": "Kasdol S.O",
    "officeType": "S.O",
    "Deliverystatus": "Delivery",
    "divisionname": "Raipur",
    "regionname": "Raipur",
    "circlename": "Chattisgarh",
    "Taluk": "Kasdol",
    "Districtname": "Raipur",
    "statename": "CHATTISGARH"
  },
  {
    "pincode": "493335",
    "officename": "Kosamsara B.O",
    "officeType": "B.O",
    "Deliverystatus": "Delivery",
    "divisionname": "Raipur",
    "regionname": "Raipur",
    "circlename": "Chattisgarh",
    "Taluk": "Kasdol",
    "Districtname": "Raipur",
    "statename": "CHATTISGARH"
  },
  {
    "pincode": "493335",
    "officename": "Mohtara B.O",
    "officeType": "B.O",
    "Deliverystatus": "Delivery",
    "divisionname": "Raipur",
    "regionname": "Raipur",
    "circlename": "Chattisgarh",
    "Taluk": "Kasdol",
    "Districtname": "Raipur",
    "statename": "CHATTISGARH"
  },
  {
    "pincode": "493335",
    "officename": "Pisid B.O",
    "officeType": "B.O",
    "Deliverystatus": "Delivery",
    "divisionname": "Raipur",
    "regionname": "Raipur",
    "circlename": "Chattisgarh",
    "Taluk": "Kasdol",
    "Districtname": "Raipur",
    "statename": "CHATTISGARH"
  },
  {
    "pincode": "493335",
    "officename": "Sinodha B.O",
    "officeType": "B.O",
    "Deliverystatus": "Delivery",
    "divisionname": "Raipur",
    "regionname": "Raipur",
    "circlename": "Chattisgarh",
    "Taluk": "Kasdol",
    "Districtname": "Raipur",
    "statename": "CHATTISGARH"
  }
]
