[
  {
    "pincode": "493445",
    "officename": "Achanakpur B.O",
    "officeType": "B.O",
    "Deliverystatus": "Delivery",
    "divisionname": "Raipur",
    "regionname": "Raipur",
    "circlename": "Chattisgarh",
    "Taluk": "Mahasamund",
    "Districtname": "Mahasamund",
    "statename": "CHATTISGARH"
  },
  {
    "pincode": "493445",
    "officename": "Bamhani B.O",
    "officeType": "B.O",
    "Deliverystatus": "Delivery",
    "divisionname": "Raipur",
    "regionname": "Raipur",
    "circlename": "Chattisgarh",
    "Taluk": "Mahasamund",
    "Districtname": "Mahasamund",
    "statename": "CHATTISGARH"
  },
  {
    "pincode": "493445",
    "officename": "Belsonda B.O",
    "officeType": "B.O",
    "Deliverystatus": "Delivery",
    "divisionname": "Raipur",
    "regionname": "Raipur",
    "circlename": "Chattisgarh",
    "Taluk": "Mahasamund",
    "Districtname": "Mahasamund",
    "statename": "CHATTISGARH"
  },
  {
    "pincode": "493445",
    "officename": "Bemcha B.O",
    "officeType": "B.O",
    "Deliverystatus": "Delivery",
    "divisionname": "Raipur",
    "regionname": "Raipur",
    "circlename": "Chattisgarh",
    "Taluk": "Mahasamund",
    "Districtname": "Mahasamund",
    "statename": "CHATTISGARH"
  },
  {
    "pincode": "493445",
    "officename": "Bhoring B.O",
    "officeType": "B.O",
    "Deliverystatus": "Delivery",
    "divisionname": "Raipur",
    "regionname": "Raipur",
    "circlename": "Chattisgarh",
    "Taluk": "Mahasamund",
    "Districtname": "Mahasamund",
    "statename": "CHATTISGARH"
  },
  {
    "pincode": "493445",
    "officename": "Birkoni B.O",
    "officeType": "B.O",
    "Deliverystatus": "Delivery",
    "divisionname": "Raipur",
    "regionname": "Raipur",
    "circlename": "Chattisgarh",
    "Taluk": "Mahasamund",
    "Districtname": "Mahasamund",
    "statename": "CHATTISGARH"
  },
  {
    "pincode": "493445",
    "officename": "Dhansuli B.O",
    "officeType": "B.O",
    "Deliverystatus": "Delivery",
    "divisionname": "Raipur",
    "regionname": "Raipur",
    "circlename": "Chattisgarh",
    "Taluk": "Mahasamund",
    "Districtname": "Mahasamund",
    "statename": "CHATTISGARH"
  },
  {
    "pincode": "493445",
    "officename": "Garhseoni B.O",
    "officeType": "B.O",
    "Deliverystatus": "Delivery",
    "divisionname": "Raipur",
    "regionname": "Raipur",
    "circlename": "Chattisgarh",
    "Taluk": "Mahasamund",
    "Districtname": "Mahasamund",
    "statename": "CHATTISGARH"
  },
  {
    "pincode": "493445",
    "officename": "Jalki B.O",
    "officeType": "B.O",
    "Deliverystatus": "Delivery",
    "divisionname": "Raipur",
    "regionname": "Raipur",
    "circlename": "Chattisgarh",
    "Taluk": "Mahasamund",
    "Districtname": "Mahasamund",
    "statename": "CHATTISGARH"
  },
  {
    "pincode": "493445",
    "officename": "Joba B.O",
    "officeType": "B.O",
    "Deliverystatus": "Delivery",
    "divisionname": "Raipur",
    "regionname": "Raipur",
    "circlename": "Chattisgarh",
    "Taluk": "Mahasamund",
    "Districtname": "Mahasamund",
    "statename": "CHATTISGARH"
  },
  {
    "pincode": "493445",
    "officename": "Kamrod B.O",
    "officeType": "B.O",
    "Deliverystatus": "Delivery",
    "divisionname": "Raipur",
    "regionname": "Raipur",
    "circlename": "Chattisgarh",
    "Taluk": "Mahasamund",
    "Districtname": "Mahasamund",
    "statename": "CHATTISGARH"
  },
  {
    "pincode": "493445",
    "officename": "Kanekera B.O",
    "officeType": "B.O",
    "Deliverystatus": "Delivery",
    "divisionname": "Raipur",
    "regionname": "Raipur",
    "circlename": "Chattisgarh",
    "Taluk": "Mahasamund",
    "Districtname": "Mahasamund",
    "statename": "CHATTISGARH"
  },
  {
    "pincode": "493445",
    "officename": "Khamaria B.O",
    "officeType": "B.O",
    "Deliverystatus": "Delivery",
    "divisionname": "Raipur",
    "regionname": "Raipur",
    "circlename": "Chattisgarh",
    "Taluk": "Mahasamund",
    "Districtname": "Mahasamund",
    "statename": "CHATTISGARH"
  },
  {
    "pincode": "493445",
    "officename": "Khatti B.O",
    "officeType": "B.O",
    "Deliverystatus": "Delivery",
    "divisionname": "Raipur",
    "regionname": "Raipur",
    "circlename": "Chattisgarh",
    "Taluk": "Mahasamund",
    "Districtname": "Mahasamund",
    "statename": "CHATTISGARH"
  },
  {
    "pincode": "493445",
    "officename": "Lafinkhurd B.O",
    "officeType": "B.O",
    "Deliverystatus": "Delivery",
    "divisionname": "Raipur",
    "regionname": "Raipur",
    "circlename": "Chattisgarh",
    "Taluk": "Mahasamund",
    "Districtname": "Mahasamund",
    "statename": "CHATTISGARH"
  },
  {
    "pincode": "493445",
    "officename": "Lahangar B.O",
    "officeType": "B.O",
    "Deliverystatus": "Delivery",
    "divisionname": "Raipur",
    "regionname": "Raipur",
    "circlename": "Chattisgarh",
    "Taluk": "Mahasamund",
    "Districtname": "Mahasamund",
    "statename": "CHATTISGARH"
  },
  {
    "pincode": "493445",
    "officename": "Mahasamund S.O",
    "officeType": "S.O",
    "Deliverystatus": "Delivery",
    "divisionname": "Raipur",
    "regionname": "Raipur",
    "circlename": "Chattisgarh",
    "Taluk": "Mahasamund",
    "Districtname": "Mahasamund",
    "statename": "CHATTISGARH"
  },
  {
    "pincode": "493445",
    "officename": "Mohandi B.O",
    "officeType": "B.O",
    "Deliverystatus": "Delivery",
    "divisionname": "Raipur",
    "regionname": "Raipur",
    "circlename": "Chattisgarh",
    "Taluk": "Mahasamund",
    "Districtname": "Mahasamund",
    "statename": "CHATTISGARH"
  },
  {
    "pincode": "493445",
    "officename": "Pacheda B.O",
    "officeType": "B.O",
    "Deliverystatus": "Delivery",
    "divisionname": "Raipur",
    "regionname": "Raipur",
    "circlename": "Chattisgarh",
    "Taluk": "Mahasamund",
    "Districtname": "Mahasamund",
    "statename": "CHATTISGARH"
  },
  {
    "pincode": "493445",
    "officename": "Pasid B.O",
    "officeType": "B.O",
    "Deliverystatus": "Delivery",
    "divisionname": "Raipur",
    "regionname": "Raipur",
    "circlename": "Chattisgarh",
    "Taluk": "Mahasamund",
    "Districtname": "Mahasamund",
    "statename": "CHATTISGARH"
  },
  {
    "pincode": "493445",
    "officename": "Pidhi B.O",
    "officeType": "B.O",
    "Deliverystatus": "Delivery",
    "divisionname": "Raipur",
    "regionname": "Raipur",
    "circlename": "Chattisgarh",
    "Taluk": "Mahasamund",
    "Districtname": "Mahasamund",
    "statename": "CHATTISGARH"
  },
  {
    "pincode": "493445",
    "officename": "Sirpur B.O",
    "officeType": "B.O",
    "Deliverystatus": "Delivery",
    "divisionname": "Raipur",
    "regionname": "Raipur",
    "circlename": "Chattisgarh",
    "Taluk": "Mahasamund",
    "Districtname": "Mahasamund",
    "statename": "CHATTISGARH"
  },
  {
    "pincode": "493445",
    "officename": "Sorid B.O",
    "officeType": "B.O",
    "Deliverystatus": "Delivery",
    "divisionname": "Raipur",
    "regionname": "Raipur",
    "circlename": "Chattisgarh",
    "Taluk": "Mahasamund",
    "Districtname": "Mahasamund",
    "statename": "CHATTISGARH"
  },
  {
    "pincode": "493445",
    "officename": "Tamora B.O",
    "officeType": "B.O",
    "Deliverystatus": "Delivery",
    "divisionname": "Raipur",
    "regionname": "Raipur",
    "circlename": "Chattisgarh",
    "Taluk": "Mahasamund",
    "Districtname": "Mahasamund",
    "statename": "CHATTISGARH"
  },
  {
    "pincode": "493445",
    "officename": "Tumgaon B.O",
    "officeType": "B.O",
    "Deliverystatus": "Delivery",
    "divisionname": "Raipur",
    "regionname": "Raipur",
    "circlename": "Chattisgarh",
    "Taluk": "Mahasamund",
    "Districtname": "Mahasamund",
    "statename": "CHATTISGARH"
  },
  {
    "pincode": "493445",
    "officename": "Tusda B.O",
    "officeType": "B.O",
    "Deliverystatus": "Delivery",
    "divisionname": "Raipur",
    "regionname": "Raipur",
    "circlename": "Chattisgarh",
    "Taluk": "Mahasamund",
    "Districtname": "Mahasamund",
    "statename": "CHATTISGARH"
  }
]
