[
  {
    "pincode": "493551",
    "officename": "Barekel B.O",
    "officeType": "B.O",
    "Deliverystatus": "Delivery",
    "divisionname": "Raipur",
    "regionname": "Raipur",
    "circlename": "Chattisgarh",
    "Taluk": "Pithora",
    "Districtname": "Mahasamund",
    "statename": "CHATTISGARH"
  },
  {
    "pincode": "493551",
    "officename": "Barnawapara B.O",
    "officeType": "B.O",
    "Deliverystatus": "Delivery",
    "divisionname": "Raipur",
    "regionname": "Raipur",
    "circlename": "Chattisgarh",
    "Taluk": "Kasdol",
    "Districtname": "Raipur",
    "statename": "CHATTISGARH"
  },
  {
    "pincode": "493551",
    "officename": "Bawankera B.O",
    "officeType": "B.O",
    "Deliverystatus": "Delivery",
    "divisionname": "Raipur",
    "regionname": "Raipur",
    "circlename": "Chattisgarh",
    "Taluk": "Pithora",
    "Districtname": "Mahasamund",
    "statename": "CHATTISGARH"
  },
  {
    "pincode": "493551",
    "officename": "Baya B.O",
    "officeType": "B.O",
    "Deliverystatus": "Delivery",
    "divisionname": "Raipur",
    "regionname": "Raipur",
    "circlename": "Chattisgarh",
    "Taluk": "Pithora",
    "Districtname": "Raipur",
    "statename": "CHATTISGARH"
  },
  {
    "pincode": "493551",
    "officename": "Bhithidih B.O",
    "officeType": "B.O",
    "Deliverystatus": "Delivery",
    "divisionname": "Raipur",
    "regionname": "Raipur",
    "circlename": "Chattisgarh",
    "Taluk": "Pithora",
    "Districtname": "Mahasamund",
    "statename": "CHATTISGARH"
  },
  {
    "pincode": "493551",
    "officename": "Dumarpali B.O",
    "officeType": "B.O",
    "Deliverystatus": "Delivery",
    "divisionname": "Raipur",
    "regionname": "Raipur",
    "circlename": "Chattisgarh",
    "Taluk": "Pithora",
    "Districtname": "Mahasamund",
    "statename": "CHATTISGARH"
  },
  {
    "pincode": "493551",
    "officename": "Gadbeda B.O",
    "officeType": "B.O",
    "Deliverystatus": "Delivery",
    "divisionname": "Raipur",
    "regionname": "Raipur",
    "circlename": "Chattisgarh",
    "Taluk": "Pithora",
    "Districtname": "Mahasamund",
    "statename": "CHATTISGARH"
  },
  {
    "pincode": "493551",
    "officename": "Ghonch B.O",
    "officeType": "B.O",
    "Deliverystatus": "Delivery",
    "divisionname": "Raipur",
    "regionname": "Raipur",
    "circlename": "Chattisgarh",
    "Taluk": "Pithora",
    "Districtname": "Mahasamund",
    "statename": "CHATTISGARH"
  },
  {
    "pincode": "493551",
    "officename": "Jhalap B.O",
    "officeType": "B.O",
    "Deliverystatus": "Delivery",
    "divisionname": "Raipur",
    "regionname": "Raipur",
    "circlename": "Chattisgarh",
    "Taluk": "Pithora",
    "Districtname": "Mahasamund",
    "statename": "CHATTISGARH"
  },
  {
    "pincode": "493551",
    "officename": "Khatta B.O",
    "officeType": "B.O",
    "Deliverystatus": "Delivery",
    "divisionname": "Raipur",
    "regionname": "Raipur",
    "circlename": "Chattisgarh",
    "Taluk": "Pithora",
    "Districtname": "Mahasamund",
    "statename": "CHATTISGARH"
  },
  {
    "pincode": "493551",
    "officename": "Kishanpur B.O",
    "officeType": "B.O",
    "Deliverystatus": "Delivery",
    "divisionname": "Raipur",
    "regionname": "Raipur",
    "circlename": "Chattisgarh",
    "Taluk": "Pithora",
    "Districtname": "Mahasamund",
    "statename": "CHATTISGARH"
  },
  {
    "pincode": "493551",
    "officename": "Nartora B.O",
    "officeType": "B.O",
    "Deliverystatus": "Delivery",
    "divisionname": "Raipur",
    "regionname": "Raipur",
    "circlename": "Chattisgarh",
    "Taluk": "Pithora",
    "Districtname": "Mahasamund",
    "statename": "CHATTISGARH"
  },
  {
    "pincode": "493551",
    "officename": "Patewa B.O",
    "officeType": "B.O",
    "Deliverystatus": "Delivery",
    "divisionname": "Raipur",
    "regionname": "Raipur",
    "circlename": "Chattisgarh",
    "Taluk": "Mahasamund",
    "Districtname": "Mahasamund",
    "statename": "CHATTISGARH"
  },
  {
    "pincode": "493551",
    "officename": "Pithora S.O",
    "officeType": "S.O",
    "Deliverystatus": "Delivery",
    "divisionname": "Raipur",
    "regionname": "Raipur",
    "circlename": "Chattisgarh",
    "Taluk": "",
    "Districtname": "Mahasamund",
    "statename": "CHATTISGARH"
  },
  {
    "pincode": "493551",
    "officename": "Raitum B.O",
    "officeType": "B.O",
    "Deliverystatus": "Delivery",
    "divisionname": "Raipur",
    "regionname": "Raipur",
    "circlename": "Chattisgarh",
    "Taluk": "Pithora",
    "Districtname": "Mahasamund",
    "statename": "CHATTISGARH"
  },
  {
    "pincode": "493551",
    "officename": "Sonasilli B.O",
    "officeType": "B.O",
    "Deliverystatus": "Delivery",
    "divisionname": "Raipur",
    "regionname": "Raipur",
    "circlename": "Chattisgarh",
    "Taluk": "Mahasamund",
    "Districtname": "Mahasamund",
    "statename": "CHATTISGARH"
  },
  {
    "pincode": "493551",
    "officename": "Sukhipali B.O",
    "officeType": "B.O",
    "Deliverystatus": "Delivery",
    "divisionname": "Raipur",
    "regionname": "Raipur",
    "circlename": "Chattisgarh",
    "Taluk": "Pithora",
    "Districtname": "Mahasamund",
    "statename": "CHATTISGARH"
  },
  {
    "pincode": "493551",
    "officename": "Turenga B.O",
    "officeType": "B.O",
    "Deliverystatus": "Delivery",
    "divisionname": "Raipur",
    "regionname": "Raipur",
    "circlename": "Chattisgarh",
    "Taluk": "Pithora",
    "Districtname": "Mahasamund",
    "statename": "CHATTISGARH"
  }
]
