[
  {
    "pincode": "493555",
    "officename": "Arangi B.O",
    "officeType": "B.O",
    "Deliverystatus": "Delivery",
    "divisionname": "Raipur",
    "regionname": "Raipur",
    "circlename": "Chattisgarh",
    "Taluk": "Jagdishpur",
    "Districtname": "Mahasamund",
    "statename": "CHATTISGARH"
  },
  {
    "pincode": "493555",
    "officename": "Bamhani B.O",
    "officeType": "B.O",
    "Deliverystatus": "Delivery",
    "divisionname": "Raipur",
    "regionname": "Raipur",
    "circlename": "Chattisgarh",
    "Taluk": "Jagdishpur",
    "Districtname": "Mahasamund",
    "statename": "CHATTISGARH"
  },
  {
    "pincode": "493555",
    "officename": "Barnaidadar B.O",
    "officeType": "B.O",
    "Deliverystatus": "Delivery",
    "divisionname": "Raipur",
    "regionname": "Raipur",
    "circlename": "Chattisgarh",
    "Taluk": "Jagdishpur",
    "Districtname": "Mahasamund",
    "statename": "CHATTISGARH"
  },
  {
    "pincode": "493555",
    "officename": "Chanat B.O",
    "officeType": "B.O",
    "Deliverystatus": "Delivery",
    "divisionname": "Raipur",
    "regionname": "Raipur",
    "circlename": "Chattisgarh",
    "Taluk": "Jagdishpur",
    "Districtname": "Mahasamund",
    "statename": "CHATTISGARH"
  },
  {
    "pincode": "493555",
    "officename": "Jagdishpur S.O (Mahasamund)",
    "officeType": "S.O",
    "Deliverystatus": "Delivery",
    "divisionname": "Raipur",
    "regionname": "Raipur",
    "circlename": "Chattisgarh",
    "Taluk": "Pithora",
    "Districtname": "Mahasamund",
    "statename": "CHATTISGARH"
  },
  {
    "pincode": "493555",
    "officename": "Limdarha B.O",
    "officeType": "B.O",
    "Deliverystatus": "Delivery",
    "divisionname": "Raipur",
    "regionname": "Raipur",
    "circlename": "Chattisgarh",
    "Taluk": "Jagdishpur",
    "Districtname": "Mahasamund",
    "statename": "CHATTISGARH"
  },
  {
    "pincode": "493555",
    "officename": "Patharla B.O",
    "officeType": "B.O",
    "Deliverystatus": "Delivery",
    "divisionname": "Raipur",
    "regionname": "Raipur",
    "circlename": "Chattisgarh",
    "Taluk": "Jagdishpur",
    "Districtname": "Mahasamund",
    "statename": "CHATTISGARH"
  },
  {
    "pincode": "493555",
    "officename": "Pirda B.O",
    "officeType": "B.O",
    "Deliverystatus": "Delivery",
    "divisionname": "Raipur",
    "regionname": "Raipur",
    "circlename": "Chattisgarh",
    "Taluk": "Jagdishpur",
    "Districtname": "Mahasamund",
    "statename": "CHATTISGARH"
  }
]
