[
  {
    "pincode": "493558",
    "officename": "Amarkot B.O",
    "officeType": "B.O",
    "Deliverystatus": "Delivery",
    "divisionname": "Raipur",
    "regionname": "Raipur",
    "circlename": "Chattisgarh",
    "Taluk": "Saraipali",
    "Districtname": "Mahasamund",
    "statename": "CHATTISGARH"
  },
  {
    "pincode": "493558",
    "officename": "Badesajapali B.O",
    "officeType": "B.O",
    "Deliverystatus": "Delivery",
    "divisionname": "Raipur",
    "regionname": "Raipur",
    "circlename": "Chattisgarh",
    "Taluk": "Saraipali",
    "Districtname": "Mahasamund",
    "statename": "CHATTISGARH"
  },
  {
    "pincode": "493558",
    "officename": "Baloda B.O",
    "officeType": "B.O",
    "Deliverystatus": "Delivery",
    "divisionname": "Raipur",
    "regionname": "Raipur",
    "circlename": "Chattisgarh",
    "Taluk": "Saraipali",
    "Districtname": "Mahasamund",
    "statename": "CHATTISGARH"
  },
  {
    "pincode": "493558",
    "officename": "Bhawarpur B.O",
    "officeType": "B.O",
    "Deliverystatus": "Delivery",
    "divisionname": "Raipur",
    "regionname": "Raipur",
    "circlename": "Chattisgarh",
    "Taluk": "Basna",
    "Districtname": "Mahasamund",
    "statename": "CHATTISGARH"
  },
  {
    "pincode": "493558",
    "officename": "Bichhiya B.O",
    "officeType": "B.O",
    "Deliverystatus": "Delivery",
    "divisionname": "Raipur",
    "regionname": "Raipur",
    "circlename": "Chattisgarh",
    "Taluk": "",
    "Districtname": "Mahasamund",
    "statename": "CHATTISGARH"
  },
  {
    "pincode": "493558",
    "officename": "Bonda B.O",
    "officeType": "B.O",
    "Deliverystatus": "Delivery",
    "divisionname": "Raipur",
    "regionname": "Raipur",
    "circlename": "Chattisgarh",
    "Taluk": "Saraipali",
    "Districtname": "Mahasamund",
    "statename": "CHATTISGARH"
  },
  {
    "pincode": "493558",
    "officename": "Chattigirola B.O",
    "officeType": "B.O",
    "Deliverystatus": "Delivery",
    "divisionname": "Raipur",
    "regionname": "Raipur",
    "circlename": "Chattisgarh",
    "Taluk": "Saraipali",
    "Districtname": "Mahasamund",
    "statename": "CHATTISGARH"
  },
  {
    "pincode": "493558",
    "officename": "Gerra B.O",
    "officeType": "B.O",
    "Deliverystatus": "Delivery",
    "divisionname": "Raipur",
    "regionname": "Raipur",
    "circlename": "Chattisgarh",
    "Taluk": "Saraipali",
    "Districtname": "Mahasamund",
    "statename": "CHATTISGARH"
  },
  {
    "pincode": "493558",
    "officename": "Jamhari B.O",
    "officeType": "B.O",
    "Deliverystatus": "Delivery",
    "divisionname": "Raipur",
    "regionname": "Raipur",
    "circlename": "Chattisgarh",
    "Taluk": "Saraipali",
    "Districtname": "Mahasamund",
    "statename": "CHATTISGARH"
  },
  {
    "pincode": "493558",
    "officename": "Kalenda B.O",
    "officeType": "B.O",
    "Deliverystatus": "Delivery",
    "divisionname": "Raipur",
    "regionname": "Raipur",
    "circlename": "Chattisgarh",
    "Taluk": "Saraipali",
    "Districtname": "Mahasamund",
    "statename": "CHATTISGARH"
  },
  {
    "pincode": "493558",
    "officename": "Kendudhar B.O",
    "officeType": "B.O",
    "Deliverystatus": "Delivery",
    "divisionname": "Raipur",
    "regionname": "Raipur",
    "circlename": "Chattisgarh",
    "Taluk": "Saraipali",
    "Districtname": "Mahasamund",
    "statename": "CHATTISGARH"
  },
  {
    "pincode": "493558",
    "officename": "Kenduwa B.O",
    "officeType": "B.O",
    "Deliverystatus": "Delivery",
    "divisionname": "Raipur",
    "regionname": "Raipur",
    "circlename": "Chattisgarh",
    "Taluk": "Saraipali",
    "Districtname": "Mahasamund",
    "statename": "CHATTISGARH"
  },
  {
    "pincode": "493558",
    "officename": "Khoksa B.O",
    "officeType": "B.O",
    "Deliverystatus": "Delivery",
    "divisionname": "Raipur",
    "regionname": "Raipur",
    "circlename": "Chattisgarh",
    "Taluk": "Saraipali",
    "Districtname": "Mahasamund",
    "statename": "CHATTISGARH"
  },
  {
    "pincode": "493558",
    "officename": "Kisdi B.O",
    "officeType": "B.O",
    "Deliverystatus": "Delivery",
    "divisionname": "Raipur",
    "regionname": "Raipur",
    "circlename": "Chattisgarh",
    "Taluk": "",
    "Districtname": "Mahasamund",
    "statename": "CHATTISGARH"
  },
  {
    "pincode": "493558",
    "officename": "Lambar B.O",
    "officeType": "B.O",
    "Deliverystatus": "Delivery",
    "divisionname": "Raipur",
    "regionname": "Raipur",
    "circlename": "Chattisgarh",
    "Taluk": "Saraipali",
    "Districtname": "Mahasamund",
    "statename": "CHATTISGARH"
  },
  {
    "pincode": "493558",
    "officename": "Maldamal B.O",
    "officeType": "B.O",
    "Deliverystatus": "Delivery",
    "divisionname": "Raipur",
    "regionname": "Raipur",
    "circlename": "Chattisgarh",
    "Taluk": "Saraipali",
    "Districtname": "Mahasamund",
    "statename": "CHATTISGARH"
  },
  {
    "pincode": "493558",
    "officename": "Nawagarh B.O",
    "officeType": "B.O",
    "Deliverystatus": "Delivery",
    "divisionname": "Raipur",
    "regionname": "Raipur",
    "circlename": "Chattisgarh",
    "Taluk": "Saraipali",
    "Districtname": "Mahasamund",
    "statename": "CHATTISGARH"
  },
  {
    "pincode": "493558",
    "officename": "Paikin B.O",
    "officeType": "B.O",
    "Deliverystatus": "Delivery",
    "divisionname": "Raipur",
    "regionname": "Raipur",
    "circlename": "Chattisgarh",
    "Taluk": "Saraipali",
    "Districtname": "Mahasamund",
    "statename": "CHATTISGARH"
  },
  {
    "pincode": "493558",
    "officename": "Pajhrapali B.O",
    "officeType": "B.O",
    "Deliverystatus": "Delivery",
    "divisionname": "Raipur",
    "regionname": "Raipur",
    "circlename": "Chattisgarh",
    "Taluk": "Saraipali",
    "Districtname": "Mahasamund",
    "statename": "CHATTISGARH"
  },
  {
    "pincode": "493558",
    "officename": "Pandripani B.O",
    "officeType": "B.O",
    "Deliverystatus": "Delivery",
    "divisionname": "Raipur",
    "regionname": "Raipur",
    "circlename": "Chattisgarh",
    "Taluk": "Saraipali",
    "Districtname": "Mahasamund",
    "statename": "CHATTISGARH"
  },
  {
    "pincode": "493558",
    "officename": "Patsendri B.O",
    "officeType": "B.O",
    "Deliverystatus": "Delivery",
    "divisionname": "Raipur",
    "regionname": "Raipur",
    "circlename": "Chattisgarh",
    "Taluk": "Saraipali",
    "Districtname": "Mahasamund",
    "statename": "CHATTISGARH"
  },
  {
    "pincode": "493558",
    "officename": "Putka B.O",
    "officeType": "B.O",
    "Deliverystatus": "Delivery",
    "divisionname": "Raipur",
    "regionname": "Raipur",
    "circlename": "Chattisgarh",
    "Taluk": "Saraipali",
    "Districtname": "Mahasamund",
    "statename": "CHATTISGARH"
  },
  {
    "pincode": "493558",
    "officename": "Rohina B.O",
    "officeType": "B.O",
    "Deliverystatus": "Delivery",
    "divisionname": "Raipur",
    "regionname": "Raipur",
    "circlename": "Chattisgarh",
    "Taluk": "",
    "Districtname": "Mahasamund",
    "statename": "CHATTISGARH"
  },
  {
    "pincode": "493558",
    "officename": "Saraipali S.O",
    "officeType": "S.O",
    "Deliverystatus": "Delivery",
    "divisionname": "Raipur",
    "regionname": "Raipur",
    "circlename": "Chattisgarh",
    "Taluk": "Saraipali",
    "Districtname": "Mahasamund",
    "statename": "CHATTISGARH"
  },
  {
    "pincode": "493558",
    "officename": "Singhanpur B.O",
    "officeType": "B.O",
    "Deliverystatus": "Delivery",
    "divisionname": "Raipur",
    "regionname": "Raipur",
    "circlename": "Chattisgarh",
    "Taluk": "Saraipali",
    "Districtname": "Mahasamund",
    "statename": "CHATTISGARH"
  },
  {
    "pincode": "493558",
    "officename": "Singhoda B.O",
    "officeType": "B.O",
    "Deliverystatus": "Delivery",
    "divisionname": "Raipur",
    "regionname": "Raipur",
    "circlename": "Chattisgarh",
    "Taluk": "Saraipali",
    "Districtname": "Mahasamund",
    "statename": "CHATTISGARH"
  },
  {
    "pincode": "493558",
    "officename": "Toresingha B.O",
    "officeType": "B.O",
    "Deliverystatus": "Delivery",
    "divisionname": "Raipur",
    "regionname": "Raipur",
    "circlename": "Chattisgarh",
    "Taluk": "",
    "Districtname": "Mahasamund",
    "statename": "CHATTISGARH"
  },
  {
    "pincode": "493558",
    "officename": "Toshgaon B.O",
    "officeType": "B.O",
    "Deliverystatus": "Delivery",
    "divisionname": "Raipur",
    "regionname": "Raipur",
    "circlename": "Chattisgarh",
    "Taluk": "Saraipali",
    "Districtname": "Mahasamund",
    "statename": "CHATTISGARH"
  }
]
