[
  {
    "pincode": "493663",
    "officename": "Achhoti B.O",
    "officeType": "B.O",
    "Deliverystatus": "Delivery",
    "divisionname": "Raipur",
    "regionname": "Raipur",
    "circlename": "Chattisgarh",
    "Taluk": "Kurud",
    "Districtname": "Dhamtari",
    "statename": "CHATTISGARH"
  },
  {
    "pincode": "493663",
    "officename": "Bagod B.O",
    "officeType": "B.O",
    "Deliverystatus": "Delivery",
    "divisionname": "Raipur",
    "regionname": "Raipur",
    "circlename": "Chattisgarh",
    "Taluk": "Kurud",
    "Districtname": "Dhamtari",
    "statename": "CHATTISGARH"
  },
  {
    "pincode": "493663",
    "officename": "Barna B.O",
    "officeType": "B.O",
    "Deliverystatus": "Delivery",
    "divisionname": "Raipur",
    "regionname": "Raipur",
    "circlename": "Chattisgarh",
    "Taluk": "Kurud",
    "Districtname": "Raipur",
    "statename": "CHATTISGARH"
  },
  {
    "pincode": "493663",
    "officename": "Bhaismundi B.O",
    "officeType": "B.O",
    "Deliverystatus": "Delivery",
    "divisionname": "Raipur",
    "regionname": "Raipur",
    "circlename": "Chattisgarh",
    "Taluk": "Kurud",
    "Districtname": "Dhamtari",
    "statename": "CHATTISGARH"
  },
  {
    "pincode": "493663",
    "officename": "Bhatagaon B.O",
    "officeType": "B.O",
    "Deliverystatus": "Delivery",
    "divisionname": "Raipur",
    "regionname": "Raipur",
    "circlename": "Chattisgarh",
    "Taluk": "Kurud",
    "Districtname": "Dhamtari",
    "statename": "CHATTISGARH"
  },
  {
    "pincode": "493663",
    "officename": "Charmudia B.O",
    "officeType": "B.O",
    "Deliverystatus": "Delivery",
    "divisionname": "Raipur",
    "regionname": "Raipur",
    "circlename": "Chattisgarh",
    "Taluk": "Kurud",
    "Districtname": "Dhamtari",
    "statename": "CHATTISGARH"
  },
  {
    "pincode": "493663",
    "officename": "Chhati B.O",
    "officeType": "B.O",
    "Deliverystatus": "Delivery",
    "divisionname": "Raipur",
    "regionname": "Raipur",
    "circlename": "Chattisgarh",
    "Taluk": "Kurud",
    "Districtname": "Dhamtari",
    "statename": "CHATTISGARH"
  },
  {
    "pincode": "493663",
    "officename": "Dahdaha B.O",
    "officeType": "B.O",
    "Deliverystatus": "Delivery",
    "divisionname": "Raipur",
    "regionname": "Raipur",
    "circlename": "Chattisgarh",
    "Taluk": "Kurud",
    "Districtname": "Dhamtari",
    "statename": "CHATTISGARH"
  },
  {
    "pincode": "493663",
    "officename": "Jhiriya B.O",
    "officeType": "B.O",
    "Deliverystatus": "Delivery",
    "divisionname": "Raipur",
    "regionname": "Raipur",
    "circlename": "Chattisgarh",
    "Taluk": "Kurud",
    "Districtname": "Dhamtari",
    "statename": "CHATTISGARH"
  },
  {
    "pincode": "493663",
    "officename": "Kandel B.O",
    "officeType": "B.O",
    "Deliverystatus": "Delivery",
    "divisionname": "Raipur",
    "regionname": "Raipur",
    "circlename": "Chattisgarh",
    "Taluk": "Kurud",
    "Districtname": "Dhamtari",
    "statename": "CHATTISGARH"
  },
  {
    "pincode": "493663",
    "officename": "Katalbod B.O",
    "officeType": "B.O",
    "Deliverystatus": "Delivery",
    "divisionname": "Raipur",
    "regionname": "Raipur",
    "circlename": "Chattisgarh",
    "Taluk": "Kurud",
    "Districtname": "Dhamtari",
    "statename": "CHATTISGARH"
  },
  {
    "pincode": "493663",
    "officename": "Kurud S.O",
    "officeType": "S.O",
    "Deliverystatus": "Delivery",
    "divisionname": "Raipur",
    "regionname": "Raipur",
    "circlename": "Chattisgarh",
    "Taluk": "Kurud",
    "Districtname": "Dhamtari",
    "statename": "CHATTISGARH"
  },
  {
    "pincode": "493663",
    "officename": "Mandraud B.O",
    "officeType": "B.O",
    "Deliverystatus": "Delivery",
    "divisionname": "Raipur",
    "regionname": "Raipur",
    "circlename": "Chattisgarh",
    "Taluk": "Kurud",
    "Districtname": "Dhamtari",
    "statename": "CHATTISGARH"
  },
  {
    "pincode": "493663",
    "officename": "Marod B.O",
    "officeType": "B.O",
    "Deliverystatus": "Delivery",
    "divisionname": "Raipur",
    "regionname": "Raipur",
    "circlename": "Chattisgarh",
    "Taluk": "Kurud",
    "Districtname": "Dhamtari",
    "statename": "CHATTISGARH"
  },
  {
    "pincode": "493663",
    "officename": "Nari B.O",
    "officeType": "B.O",
    "Deliverystatus": "Delivery",
    "divisionname": "Raipur",
    "regionname": "Raipur",
    "circlename": "Chattisgarh",
    "Taluk": "Kurud",
    "Districtname": "Dhamtari",
    "statename": "CHATTISGARH"
  },
  {
    "pincode": "493663",
    "officename": "Parkhanda B.O",
    "officeType": "B.O",
    "Deliverystatus": "Delivery",
    "divisionname": "Raipur",
    "regionname": "Raipur",
    "circlename": "Chattisgarh",
    "Taluk": "Kurud",
    "Districtname": "Dhamtari",
    "statename": "CHATTISGARH"
  },
  {
    "pincode": "493663",
    "officename": "Puri B.O",
    "officeType": "B.O",
    "Deliverystatus": "Delivery",
    "divisionname": "Raipur",
    "regionname": "Raipur",
    "circlename": "Chattisgarh",
    "Taluk": "Kurud",
    "Districtname": "Dhamtari",
    "statename": "CHATTISGARH"
  },
  {
    "pincode": "493663",
    "officename": "Sankari B.O",
    "officeType": "B.O",
    "Deliverystatus": "Delivery",
    "divisionname": "Raipur",
    "regionname": "Raipur",
    "circlename": "Chattisgarh",
    "Taluk": "Kurud",
    "Districtname": "Dhamtari",
    "statename": "CHATTISGARH"
  },
  {
    "pincode": "493663",
    "officename": "Seonikala B.O",
    "officeType": "B.O",
    "Deliverystatus": "Delivery",
    "divisionname": "Raipur",
    "regionname": "Raipur",
    "circlename": "Chattisgarh",
    "Taluk": "Kurud",
    "Districtname": "Dhamtari",
    "statename": "CHATTISGARH"
  },
  {
    "pincode": "493663",
    "officename": "Sirri B.O",
    "officeType": "B.O",
    "Deliverystatus": "Delivery",
    "divisionname": "Raipur",
    "regionname": "Raipur",
    "circlename": "Chattisgarh",
    "Taluk": "Kurud",
    "Districtname": "Dhamtari",
    "statename": "CHATTISGARH"
  }
]
