[
  {
    "pincode": "493885",
    "officename": "Baronda B.O",
    "officeType": "B.O",
    "Deliverystatus": "Delivery",
    "divisionname": "Raipur",
    "regionname": "Raipur",
    "circlename": "Chattisgarh",
    "Taluk": "Rajim",
    "Districtname": "Raipur",
    "statename": "CHATTISGARH"
  },
  {
    "pincode": "493885",
    "officename": "Beltukri B.O",
    "officeType": "B.O",
    "Deliverystatus": "Delivery",
    "divisionname": "Raipur",
    "regionname": "Raipur",
    "circlename": "Chattisgarh",
    "Taluk": "Rajim",
    "Districtname": "Raipur",
    "statename": "CHATTISGARH"
  },
  {
    "pincode": "493885",
    "officename": "Bhendri B.O",
    "officeType": "B.O",
    "Deliverystatus": "Delivery",
    "divisionname": "Raipur",
    "regionname": "Raipur",
    "circlename": "Chattisgarh",
    "Taluk": "Rajim",
    "Districtname": "Raipur",
    "statename": "CHATTISGARH"
  },
  {
    "pincode": "493885",
    "officename": "Champaran B.O",
    "officeType": "B.O",
    "Deliverystatus": "Delivery",
    "divisionname": "Raipur",
    "regionname": "Raipur",
    "circlename": "Chattisgarh",
    "Taluk": "Rajim",
    "Districtname": "Raipur",
    "statename": "CHATTISGARH"
  },
  {
    "pincode": "493885",
    "officename": "Darra B.O",
    "officeType": "B.O",
    "Deliverystatus": "Delivery",
    "divisionname": "Raipur",
    "regionname": "Raipur",
    "circlename": "Chattisgarh",
    "Taluk": "Rajim",
    "Districtname": "Raipur",
    "statename": "CHATTISGARH"
  },
  {
    "pincode": "493885",
    "officename": "Kareli B.O",
    "officeType": "B.O",
    "Deliverystatus": "Delivery",
    "divisionname": "Raipur",
    "regionname": "Raipur",
    "circlename": "Chattisgarh",
    "Taluk": "Rajim",
    "Districtname": "Raipur",
    "statename": "CHATTISGARH"
  },
  {
    "pincode": "493885",
    "officename": "Kirwai B.O",
    "officeType": "B.O",
    "Deliverystatus": "Delivery",
    "divisionname": "Raipur",
    "regionname": "Raipur",
    "circlename": "Chattisgarh",
    "Taluk": "Rajim",
    "Districtname": "Raipur",
    "statename": "CHATTISGARH"
  },
  {
    "pincode": "493885",
    "officename": "Nawagaon B.O",
    "officeType": "B.O",
    "Deliverystatus": "Delivery",
    "divisionname": "Raipur",
    "regionname": "Raipur",
    "circlename": "Chattisgarh",
    "Taluk": "Rajim",
    "Districtname": "Raipur",
    "statename": "CHATTISGARH"
  },
  {
    "pincode": "493885",
    "officename": "Parsada B.O",
    "officeType": "B.O",
    "Deliverystatus": "Delivery",
    "divisionname": "Raipur",
    "regionname": "Raipur",
    "circlename": "Chattisgarh",
    "Taluk": "Rajim",
    "Districtname": "Raipur",
    "statename": "CHATTISGARH"
  },
  {
    "pincode": "493885",
    "officename": "Patewa B.O",
    "officeType": "B.O",
    "Deliverystatus": "Delivery",
    "divisionname": "Raipur",
    "regionname": "Raipur",
    "circlename": "Chattisgarh",
    "Taluk": "Rajim",
    "Districtname": "Raipur",
    "statename": "CHATTISGARH"
  },
  {
    "pincode": "493885",
    "officename": "Rajim S.O",
    "officeType": "S.O",
    "Deliverystatus": "Delivery",
    "divisionname": "Raipur",
    "regionname": "Raipur",
    "circlename": "Chattisgarh",
    "Taluk": "Phingeshwar",
    "Districtname": "Raipur",
    "statename": "CHATTISGARH"
  },
  {
    "pincode": "493885",
    "officename": "Semra B.O",
    "officeType": "B.O",
    "Deliverystatus": "Delivery",
    "divisionname": "Raipur",
    "regionname": "Raipur",
    "circlename": "Chattisgarh",
    "Taluk": "Rajim",
    "Districtname": "Raipur",
    "statename": "CHATTISGARH"
  },
  {
    "pincode": "493885",
    "officename": "Sursabandha B.O",
    "officeType": "B.O",
    "Deliverystatus": "Delivery",
    "divisionname": "Raipur",
    "regionname": "Raipur",
    "circlename": "Chattisgarh",
    "Taluk": "Rajim",
    "Districtname": "Raipur",
    "statename": "CHATTISGARH"
  }
]
