[
  {
    "pincode": "494114",
    "officename": "Banda B.O",
    "officeType": "B.O",
    "Deliverystatus": "Delivery",
    "divisionname": "Bastar",
    "regionname": "Raipur",
    "circlename": "Chattisgarh",
    "Taluk": "Konta",
    "Districtname": "Dantewada",
    "statename": "CHATTISGARH"
  },
  {
    "pincode": "494114",
    "officename": "Bheji B.O",
    "officeType": "B.O",
    "Deliverystatus": "Delivery",
    "divisionname": "Bastar",
    "regionname": "Raipur",
    "circlename": "Chattisgarh",
    "Taluk": "Konta",
    "Districtname": "Dantewada",
    "statename": "CHATTISGARH"
  },
  {
    "pincode": "494114",
    "officename": "Errabore B.O",
    "officeType": "B.O",
    "Deliverystatus": "Delivery",
    "divisionname": "Bastar",
    "regionname": "Raipur",
    "circlename": "Chattisgarh",
    "Taluk": "Konta",
    "Districtname": "Dantewada",
    "statename": "CHATTISGARH"
  },
  {
    "pincode": "494114",
    "officename": "Gaganpalli B.O",
    "officeType": "B.O",
    "Deliverystatus": "Delivery",
    "divisionname": "Bastar",
    "regionname": "Raipur",
    "circlename": "Chattisgarh",
    "Taluk": "Konta",
    "Districtname": "Dantewada",
    "statename": "CHATTISGARH"
  },
  {
    "pincode": "494114",
    "officename": "Gollapalli B.O",
    "officeType": "B.O",
    "Deliverystatus": "Delivery",
    "divisionname": "Bastar",
    "regionname": "Raipur",
    "circlename": "Chattisgarh",
    "Taluk": "Konta",
    "Districtname": "Dantewada",
    "statename": "CHATTISGARH"
  },
  {
    "pincode": "494114",
    "officename": "Injeram B.O",
    "officeType": "B.O",
    "Deliverystatus": "Delivery",
    "divisionname": "Bastar",
    "regionname": "Raipur",
    "circlename": "Chattisgarh",
    "Taluk": "Konta",
    "Districtname": "Dantewada",
    "statename": "CHATTISGARH"
  },
  {
    "pincode": "494114",
    "officename": "Kistaram B.O",
    "officeType": "B.O",
    "Deliverystatus": "Delivery",
    "divisionname": "Bastar",
    "regionname": "Raipur",
    "circlename": "Chattisgarh",
    "Taluk": "Konta",
    "Districtname": "Dantewada",
    "statename": "CHATTISGARH"
  },
  {
    "pincode": "494114",
    "officename": "Konta S.O",
    "officeType": "S.O",
    "Deliverystatus": "Delivery",
    "divisionname": "Bastar",
    "regionname": "Raipur",
    "circlename": "Chattisgarh",
    "Taluk": "Konta",
    "Districtname": "Dantewada",
    "statename": "CHATTISGARH"
  },
  {
    "pincode": "494114",
    "officename": "Mehta B.O",
    "officeType": "B.O",
    "Deliverystatus": "Delivery",
    "divisionname": "Bastar",
    "regionname": "Raipur",
    "circlename": "Chattisgarh",
    "Taluk": "Konta",
    "Districtname": "Dantewada",
    "statename": "CHATTISGARH"
  }
]
