[
  {
    "pincode": "494226",
    "officename": "Babai B.O",
    "officeType": "B.O",
    "Deliverystatus": "Delivery",
    "divisionname": "Bastar",
    "regionname": "Raipur",
    "circlename": "Chattisgarh",
    "Taluk": "Kondagaon",
    "Districtname": "Bastar",
    "statename": "CHATTISGARH"
  },
  {
    "pincode": "494226",
    "officename": "Badekanera B.O",
    "officeType": "B.O",
    "Deliverystatus": "Delivery",
    "divisionname": "Bastar",
    "regionname": "Raipur",
    "circlename": "Chattisgarh",
    "Taluk": "Kondagaon",
    "Districtname": "Bastar",
    "statename": "CHATTISGARH"
  },
  {
    "pincode": "494226",
    "officename": "Bafna B.O",
    "officeType": "B.O",
    "Deliverystatus": "Delivery",
    "divisionname": "Bastar",
    "regionname": "Raipur",
    "circlename": "Chattisgarh",
    "Taluk": "Kondagaon",
    "Districtname": "Bastar",
    "statename": "CHATTISGARH"
  },
  {
    "pincode": "494226",
    "officename": "Bamni Bazar B.O",
    "officeType": "B.O",
    "Deliverystatus": "Delivery",
    "divisionname": "Bastar",
    "regionname": "Raipur",
    "circlename": "Chattisgarh",
    "Taluk": "Kondagaon",
    "Districtname": "Bastar",
    "statename": "CHATTISGARH"
  },
  {
    "pincode": "494226",
    "officename": "Baniyagaon B.O",
    "officeType": "B.O",
    "Deliverystatus": "Delivery",
    "divisionname": "Bastar",
    "regionname": "Raipur",
    "circlename": "Chattisgarh",
    "Taluk": "Kondagaon",
    "Districtname": "Bastar",
    "statename": "CHATTISGARH"
  },
  {
    "pincode": "494226",
    "officename": "Banjugani B.O",
    "officeType": "B.O",
    "Deliverystatus": "Delivery",
    "divisionname": "Bastar",
    "regionname": "Raipur",
    "circlename": "Chattisgarh",
    "Taluk": "Kondagaon",
    "Districtname": "Bastar",
    "statename": "CHATTISGARH"
  },
  {
    "pincode": "494226",
    "officename": "Bayanar B.O",
    "officeType": "B.O",
    "Deliverystatus": "Delivery",
    "divisionname": "Bastar",
    "regionname": "Raipur",
    "circlename": "Chattisgarh",
    "Taluk": "Kondagaon",
    "Districtname": "Bastar",
    "statename": "CHATTISGARH"
  },
  {
    "pincode": "494226",
    "officename": "Bijapur B.O",
    "officeType": "B.O",
    "Deliverystatus": "Delivery",
    "divisionname": "Bastar",
    "regionname": "Raipur",
    "circlename": "Chattisgarh",
    "Taluk": "Kondagaon",
    "Districtname": "Bastar",
    "statename": "CHATTISGARH"
  },
  {
    "pincode": "494226",
    "officename": "Bunagaon B.O",
    "officeType": "B.O",
    "Deliverystatus": "Delivery",
    "divisionname": "Bastar",
    "regionname": "Raipur",
    "circlename": "Chattisgarh",
    "Taluk": "Kondagaon",
    "Districtname": "Bastar",
    "statename": "CHATTISGARH"
  },
  {
    "pincode": "494226",
    "officename": "Chema B.O",
    "officeType": "B.O",
    "Deliverystatus": "Delivery",
    "divisionname": "Bastar",
    "regionname": "Raipur",
    "circlename": "Chattisgarh",
    "Taluk": "Kondagaon",
    "Districtname": "Bastar",
    "statename": "CHATTISGARH"
  },
  {
    "pincode": "494226",
    "officename": "Chhinari B.O",
    "officeType": "B.O",
    "Deliverystatus": "Delivery",
    "divisionname": "Bastar",
    "regionname": "Raipur",
    "circlename": "Chattisgarh",
    "Taluk": "Kondagaon",
    "Districtname": "Bastar",
    "statename": "CHATTISGARH"
  },
  {
    "pincode": "494226",
    "officename": "Chipawand B.O",
    "officeType": "B.O",
    "Deliverystatus": "Delivery",
    "divisionname": "Bastar",
    "regionname": "Raipur",
    "circlename": "Chattisgarh",
    "Taluk": "Kondagaon",
    "Districtname": "Bastar",
    "statename": "CHATTISGARH"
  },
  {
    "pincode": "494226",
    "officename": "Dahikonga B.O",
    "officeType": "B.O",
    "Deliverystatus": "Delivery",
    "divisionname": "Bastar",
    "regionname": "Raipur",
    "circlename": "Chattisgarh",
    "Taluk": "Kondagaon",
    "Districtname": "Bastar",
    "statename": "CHATTISGARH"
  },
  {
    "pincode": "494226",
    "officename": "Dharli B.O",
    "officeType": "B.O",
    "Deliverystatus": "Delivery",
    "divisionname": "Bastar",
    "regionname": "Raipur",
    "circlename": "Chattisgarh",
    "Taluk": "Kondagaon",
    "Districtname": "Bastar",
    "statename": "CHATTISGARH"
  },
  {
    "pincode": "494226",
    "officename": "Dnk Colony B.O",
    "officeType": "B.O",
    "Deliverystatus": "Delivery",
    "divisionname": "Bastar",
    "regionname": "Raipur",
    "circlename": "Chattisgarh",
    "Taluk": "Kondagaon",
    "Districtname": "Bastar",
    "statename": "CHATTISGARH"
  },
  {
    "pincode": "494226",
    "officename": "Girola B.O",
    "officeType": "B.O",
    "Deliverystatus": "Delivery",
    "divisionname": "Bastar",
    "regionname": "Raipur",
    "circlename": "Chattisgarh",
    "Taluk": "Kondagaon",
    "Districtname": "Bastar",
    "statename": "CHATTISGARH"
  },
  {
    "pincode": "494226",
    "officename": "Golawand B.O",
    "officeType": "B.O",
    "Deliverystatus": "Delivery",
    "divisionname": "Bastar",
    "regionname": "Raipur",
    "circlename": "Chattisgarh",
    "Taluk": "Kondagaon",
    "Districtname": "Bastar",
    "statename": "CHATTISGARH"
  },
  {
    "pincode": "494226",
    "officename": "Heerapur B.O",
    "officeType": "B.O",
    "Deliverystatus": "Delivery",
    "divisionname": "Bastar",
    "regionname": "Raipur",
    "circlename": "Chattisgarh",
    "Taluk": "Kondagaon",
    "Districtname": "Bastar",
    "statename": "CHATTISGARH"
  },
  {
    "pincode": "494226",
    "officename": "Joba B.O",
    "officeType": "B.O",
    "Deliverystatus": "Delivery",
    "divisionname": "Bastar",
    "regionname": "Raipur",
    "circlename": "Chattisgarh",
    "Taluk": "Kondagaon",
    "Districtname": "Bastar",
    "statename": "CHATTISGARH"
  },
  {
    "pincode": "494226",
    "officename": "Kibaibalenga B.O",
    "officeType": "B.O",
    "Deliverystatus": "Delivery",
    "divisionname": "Bastar",
    "regionname": "Raipur",
    "circlename": "Chattisgarh",
    "Taluk": "Kondagaon",
    "Districtname": "Bastar",
    "statename": "CHATTISGARH"
  },
  {
    "pincode": "494226",
    "officename": "Kokodi B.O",
    "officeType": "B.O",
    "Deliverystatus": "Delivery",
    "divisionname": "Bastar",
    "regionname": "Raipur",
    "circlename": "Chattisgarh",
    "Taluk": "Kondagaon",
    "Districtname": "Bastar",
    "statename": "CHATTISGARH"
  },
  {
    "pincode": "494226",
    "officename": "Kondagaon Naka S.O",
    "officeType": "S.O",
    "Deliverystatus": "Non-Delivery",
    "divisionname": "Bastar",
    "regionname": "Raipur",
    "circlename": "Chattisgarh",
    "Taluk": "Kondagaon",
    "Districtname": "Bastar",
    "statename": "CHATTISGARH"
  },
  {
    "pincode": "494226",
    "officename": "Kondagaon S.O",
    "officeType": "S.O",
    "Deliverystatus": "Delivery",
    "divisionname": "Bastar",
    "regionname": "Raipur",
    "circlename": "Chattisgarh",
    "Taluk": "Kondagaon",
    "Districtname": "Bastar",
    "statename": "CHATTISGARH"
  },
  {
    "pincode": "494226",
    "officename": "Kongera B.O",
    "officeType": "B.O",
    "Deliverystatus": "Delivery",
    "divisionname": "Bastar",
    "regionname": "Raipur",
    "circlename": "Chattisgarh",
    "Taluk": "Kondagaon",
    "Districtname": "Bastar",
    "statename": "CHATTISGARH"
  },
  {
    "pincode": "494226",
    "officename": "Makdi B.O",
    "officeType": "B.O",
    "Deliverystatus": "Delivery",
    "divisionname": "Bastar",
    "regionname": "Raipur",
    "circlename": "Chattisgarh",
    "Taluk": "Kondagaon",
    "Districtname": "Bastar",
    "statename": "CHATTISGARH"
  },
  {
    "pincode": "494226",
    "officename": "Malakot B.O",
    "officeType": "B.O",
    "Deliverystatus": "Delivery",
    "divisionname": "Bastar",
    "regionname": "Raipur",
    "circlename": "Chattisgarh",
    "Taluk": "Kondagaon",
    "Districtname": "Bastar",
    "statename": "CHATTISGARH"
  },
  {
    "pincode": "494226",
    "officename": "Malgaon B.O",
    "officeType": "B.O",
    "Deliverystatus": "Delivery",
    "divisionname": "Bastar",
    "regionname": "Raipur",
    "circlename": "Chattisgarh",
    "Taluk": "Kondagaon",
    "Districtname": "Bastar",
    "statename": "CHATTISGARH"
  },
  {
    "pincode": "494226",
    "officename": "Mardapal B.O",
    "officeType": "B.O",
    "Deliverystatus": "Delivery",
    "divisionname": "Bastar",
    "regionname": "Raipur",
    "circlename": "Chattisgarh",
    "Taluk": "Kondagaon",
    "Districtname": "Bastar",
    "statename": "CHATTISGARH"
  },
  {
    "pincode": "494226",
    "officename": "Matwal B.O",
    "officeType": "B.O",
    "Deliverystatus": "Delivery",
    "divisionname": "Bastar",
    "regionname": "Raipur",
    "circlename": "Chattisgarh",
    "Taluk": "Kondagaon",
    "Districtname": "Bastar",
    "statename": "CHATTISGARH"
  },
  {
    "pincode": "494226",
    "officename": "Mohlai B.O",
    "officeType": "B.O",
    "Deliverystatus": "Delivery",
    "divisionname": "Bastar",
    "regionname": "Raipur",
    "circlename": "Chattisgarh",
    "Taluk": "Kondagaon",
    "Districtname": "Bastar",
    "statename": "CHATTISGARH"
  },
  {
    "pincode": "494226",
    "officename": "Mulmula B.O",
    "officeType": "B.O",
    "Deliverystatus": "Delivery",
    "divisionname": "Bastar",
    "regionname": "Raipur",
    "circlename": "Chattisgarh",
    "Taluk": "Kondagaon",
    "Districtname": "Bastar",
    "statename": "CHATTISGARH"
  },
  {
    "pincode": "494226",
    "officename": "Otenda B.O",
    "officeType": "B.O",
    "Deliverystatus": "Delivery",
    "divisionname": "Bastar",
    "regionname": "Raipur",
    "circlename": "Chattisgarh",
    "Taluk": "Kondagaon",
    "Districtname": "Bastar",
    "statename": "CHATTISGARH"
  },
  {
    "pincode": "494226",
    "officename": "Palari B.O",
    "officeType": "B.O",
    "Deliverystatus": "Delivery",
    "divisionname": "Bastar",
    "regionname": "Raipur",
    "circlename": "Chattisgarh",
    "Taluk": "Kondagaon",
    "Districtname": "Bastar",
    "statename": "CHATTISGARH"
  },
  {
    "pincode": "494226",
    "officename": "Shampur B.O",
    "officeType": "B.O",
    "Deliverystatus": "Delivery",
    "divisionname": "Bastar",
    "regionname": "Raipur",
    "circlename": "Chattisgarh",
    "Taluk": "Kondagaon",
    "Districtname": "Bastar",
    "statename": "CHATTISGARH"
  },
  {
    "pincode": "494226",
    "officename": "Sonabal B.O",
    "officeType": "B.O",
    "Deliverystatus": "Delivery",
    "divisionname": "Bastar",
    "regionname": "Raipur",
    "circlename": "Chattisgarh",
    "Taluk": "Kondagaon",
    "Districtname": "Bastar",
    "statename": "CHATTISGARH"
  },
  {
    "pincode": "494226",
    "officename": "Umargaon B.O",
    "officeType": "B.O",
    "Deliverystatus": "Delivery",
    "divisionname": "Bastar",
    "regionname": "Raipur",
    "circlename": "Chattisgarh",
    "Taluk": "Kondagaon",
    "Districtname": "Bastar",
    "statename": "CHATTISGARH"
  }
]
