[
  {
    "pincode": "494224",
    "officename": "Badeamabal B.O",
    "officeType": "B.O",
    "Deliverystatus": "Delivery",
    "divisionname": "Bastar",
    "regionname": "Raipur",
    "circlename": "Chattisgarh",
    "Taluk": "Jagdalpur",
    "Districtname": "Bastar",
    "statename": "CHATTISGARH"
  },
  {
    "pincode": "494224",
    "officename": "Baniyagaon B.O",
    "officeType": "B.O",
    "Deliverystatus": "Delivery",
    "divisionname": "Bastar",
    "regionname": "Raipur",
    "circlename": "Chattisgarh",
    "Taluk": "Jagdalpur",
    "Districtname": "Bastar",
    "statename": "CHATTISGARH"
  },
  {
    "pincode": "494224",
    "officename": "Bhanpuri Basti B.O",
    "officeType": "B.O",
    "Deliverystatus": "Delivery",
    "divisionname": "Bastar",
    "regionname": "Raipur",
    "circlename": "Chattisgarh",
    "Taluk": "Jagdalpur",
    "Districtname": "Bastar",
    "statename": "CHATTISGARH"
  },
  {
    "pincode": "494224",
    "officename": "Bhanpuri S.O",
    "officeType": "S.O",
    "Deliverystatus": "Delivery",
    "divisionname": "Bastar",
    "regionname": "Raipur",
    "circlename": "Chattisgarh",
    "Taluk": "Jagdalpur",
    "Districtname": "Bastar",
    "statename": "CHATTISGARH"
  },
  {
    "pincode": "494224",
    "officename": "Chapka B.O",
    "officeType": "B.O",
    "Deliverystatus": "Delivery",
    "divisionname": "Bastar",
    "regionname": "Raipur",
    "circlename": "Chattisgarh",
    "Taluk": "Jagdalpur",
    "Districtname": "Bastar",
    "statename": "CHATTISGARH"
  },
  {
    "pincode": "494224",
    "officename": "Garenga B.O",
    "officeType": "B.O",
    "Deliverystatus": "Delivery",
    "divisionname": "Bastar",
    "regionname": "Raipur",
    "circlename": "Chattisgarh",
    "Taluk": "Jagdalpur",
    "Districtname": "Bastar",
    "statename": "CHATTISGARH"
  },
  {
    "pincode": "494224",
    "officename": "Guria B.O",
    "officeType": "B.O",
    "Deliverystatus": "Delivery",
    "divisionname": "Bastar",
    "regionname": "Raipur",
    "circlename": "Chattisgarh",
    "Taluk": "Jagdalpur",
    "Districtname": "Bastar",
    "statename": "CHATTISGARH"
  },
  {
    "pincode": "494224",
    "officename": "Jaibel B.O",
    "officeType": "B.O",
    "Deliverystatus": "Delivery",
    "divisionname": "Bastar",
    "regionname": "Raipur",
    "circlename": "Chattisgarh",
    "Taluk": "Jagdalpur",
    "Districtname": "Bastar",
    "statename": "CHATTISGARH"
  },
  {
    "pincode": "494224",
    "officename": "Kesarpal B.O",
    "officeType": "B.O",
    "Deliverystatus": "Delivery",
    "divisionname": "Bastar",
    "regionname": "Raipur",
    "circlename": "Chattisgarh",
    "Taluk": "Jagdalpur",
    "Districtname": "Bastar",
    "statename": "CHATTISGARH"
  },
  {
    "pincode": "494224",
    "officename": "Kumhali B.O",
    "officeType": "B.O",
    "Deliverystatus": "Delivery",
    "divisionname": "Bastar",
    "regionname": "Raipur",
    "circlename": "Chattisgarh",
    "Taluk": "Jagdalpur",
    "Districtname": "Bastar",
    "statename": "CHATTISGARH"
  },
  {
    "pincode": "494224",
    "officename": "Madlapal B.O",
    "officeType": "B.O",
    "Deliverystatus": "Delivery",
    "divisionname": "Bastar",
    "regionname": "Raipur",
    "circlename": "Chattisgarh",
    "Taluk": "Jagdalpur",
    "Districtname": "Bastar",
    "statename": "CHATTISGARH"
  },
  {
    "pincode": "494224",
    "officename": "Mohlai B.O",
    "officeType": "B.O",
    "Deliverystatus": "Delivery",
    "divisionname": "Bastar",
    "regionname": "Raipur",
    "circlename": "Chattisgarh",
    "Taluk": "Jagdalpur",
    "Districtname": "Bastar",
    "statename": "CHATTISGARH"
  },
  {
    "pincode": "494224",
    "officename": "Mundagaon B.O",
    "officeType": "B.O",
    "Deliverystatus": "Delivery",
    "divisionname": "Bastar",
    "regionname": "Raipur",
    "circlename": "Chattisgarh",
    "Taluk": "Jagdalpur",
    "Districtname": "Bastar",
    "statename": "CHATTISGARH"
  },
  {
    "pincode": "494224",
    "officename": "Salemeta B.O",
    "officeType": "B.O",
    "Deliverystatus": "Delivery",
    "divisionname": "Bastar",
    "regionname": "Raipur",
    "circlename": "Chattisgarh",
    "Taluk": "Jagdalpur",
    "Districtname": "Bastar",
    "statename": "CHATTISGARH"
  },
  {
    "pincode": "494224",
    "officename": "Satosa B.O",
    "officeType": "B.O",
    "Deliverystatus": "Delivery",
    "divisionname": "Bastar",
    "regionname": "Raipur",
    "circlename": "Chattisgarh",
    "Taluk": "Jagdalpur",
    "Districtname": "Bastar",
    "statename": "CHATTISGARH"
  },
  {
    "pincode": "494224",
    "officename": "Seoni B.O",
    "officeType": "B.O",
    "Deliverystatus": "Delivery",
    "divisionname": "Bastar",
    "regionname": "Raipur",
    "circlename": "Chattisgarh",
    "Taluk": "Jagdalpur",
    "Districtname": "Bastar",
    "statename": "CHATTISGARH"
  },
  {
    "pincode": "494224",
    "officename": "Sonarpal B.O",
    "officeType": "B.O",
    "Deliverystatus": "Delivery",
    "divisionname": "Bastar",
    "regionname": "Raipur",
    "circlename": "Chattisgarh",
    "Taluk": "Jagdalpur",
    "Districtname": "Bastar",
    "statename": "CHATTISGARH"
  },
  {
    "pincode": "494224",
    "officename": "Sorgaon B.O",
    "officeType": "B.O",
    "Deliverystatus": "Delivery",
    "divisionname": "Bastar",
    "regionname": "Raipur",
    "circlename": "Chattisgarh",
    "Taluk": "Jagdalpur",
    "Districtname": "Bastar",
    "statename": "CHATTISGARH"
  },
  {
    "pincode": "494224",
    "officename": "Usari B.O",
    "officeType": "B.O",
    "Deliverystatus": "Delivery",
    "divisionname": "Bastar",
    "regionname": "Raipur",
    "circlename": "Chattisgarh",
    "Taluk": "Jagdalpur",
    "Districtname": "Bastar",
    "statename": "CHATTISGARH"
  }
]
