[
  {
    "pincode": "494337",
    "officename": "Anwari B.O",
    "officeType": "B.O",
    "Deliverystatus": "Delivery",
    "divisionname": "Bastar",
    "regionname": "Raipur",
    "circlename": "Chattisgarh",
    "Taluk": "",
    "Districtname": "Kanker",
    "statename": "CHATTISGARH"
  },
  {
    "pincode": "494337",
    "officename": "Bhilai B.O",
    "officeType": "B.O",
    "Deliverystatus": "Delivery",
    "divisionname": "Bastar",
    "regionname": "Raipur",
    "circlename": "Chattisgarh",
    "Taluk": "Charama",
    "Districtname": "Kanker",
    "statename": "CHATTISGARH"
  },
  {
    "pincode": "494337",
    "officename": "Charama S.O",
    "officeType": "S.O",
    "Deliverystatus": "Delivery",
    "divisionname": "Bastar",
    "regionname": "Raipur",
    "circlename": "Chattisgarh",
    "Taluk": "Charama",
    "Districtname": "Kanker",
    "statename": "CHATTISGARH"
  },
  {
    "pincode": "494337",
    "officename": "Charbhata B.O",
    "officeType": "B.O",
    "Deliverystatus": "Delivery",
    "divisionname": "Bastar",
    "regionname": "Raipur",
    "circlename": "Chattisgarh",
    "Taluk": "",
    "Districtname": "Kanker",
    "statename": "CHATTISGARH"
  },
  {
    "pincode": "494337",
    "officename": "Dokla B.O",
    "officeType": "B.O",
    "Deliverystatus": "Delivery",
    "divisionname": "Bastar",
    "regionname": "Raipur",
    "circlename": "Chattisgarh",
    "Taluk": "Charama",
    "Districtname": "Kanker",
    "statename": "CHATTISGARH"
  },
  {
    "pincode": "494337",
    "officename": "Jaisakarra B.O",
    "officeType": "B.O",
    "Deliverystatus": "Delivery",
    "divisionname": "Bastar",
    "regionname": "Raipur",
    "circlename": "Chattisgarh",
    "Taluk": "Charama",
    "Districtname": "Kanker",
    "statename": "CHATTISGARH"
  },
  {
    "pincode": "494337",
    "officename": "Junwani B.O",
    "officeType": "B.O",
    "Deliverystatus": "Delivery",
    "divisionname": "Bastar",
    "regionname": "Raipur",
    "circlename": "Chattisgarh",
    "Taluk": "Charama",
    "Districtname": "Kanker",
    "statename": "CHATTISGARH"
  },
  {
    "pincode": "494337",
    "officename": "Koliyari B.O",
    "officeType": "B.O",
    "Deliverystatus": "Delivery",
    "divisionname": "Bastar",
    "regionname": "Raipur",
    "circlename": "Chattisgarh",
    "Taluk": "Charama",
    "Districtname": "Kanker",
    "statename": "CHATTISGARH"
  },
  {
    "pincode": "494337",
    "officename": "Kurrutola B.O",
    "officeType": "B.O",
    "Deliverystatus": "Delivery",
    "divisionname": "Bastar",
    "regionname": "Raipur",
    "circlename": "Chattisgarh",
    "Taluk": "Charama",
    "Districtname": "Kanker",
    "statename": "CHATTISGARH"
  },
  {
    "pincode": "494337",
    "officename": "Lilejhar B.O",
    "officeType": "B.O",
    "Deliverystatus": "Delivery",
    "divisionname": "Bastar",
    "regionname": "Raipur",
    "circlename": "Chattisgarh",
    "Taluk": "Charama",
    "Districtname": "Kanker",
    "statename": "CHATTISGARH"
  },
  {
    "pincode": "494337",
    "officename": "Puri B.O",
    "officeType": "B.O",
    "Deliverystatus": "Delivery",
    "divisionname": "Bastar",
    "regionname": "Raipur",
    "circlename": "Chattisgarh",
    "Taluk": "Charama",
    "Districtname": "Kanker",
    "statename": "CHATTISGARH"
  }
]
