[
  {
    "pincode": "494336",
    "officename": "Chinauri B.O",
    "officeType": "B.O",
    "Deliverystatus": "Delivery",
    "divisionname": "Bastar",
    "regionname": "Raipur",
    "circlename": "Chattisgarh",
    "Taluk": "Kanker",
    "Districtname": "Kanker",
    "statename": "CHATTISGARH"
  },
  {
    "pincode": "494336",
    "officename": "Haradula B.O",
    "officeType": "B.O",
    "Deliverystatus": "Delivery",
    "divisionname": "Bastar",
    "regionname": "Raipur",
    "circlename": "Chattisgarh",
    "Taluk": "Kanker",
    "Districtname": "Kanker",
    "statename": "CHATTISGARH"
  },
  {
    "pincode": "494336",
    "officename": "Jepra B.O",
    "officeType": "B.O",
    "Deliverystatus": "Delivery",
    "divisionname": "Bastar",
    "regionname": "Raipur",
    "circlename": "Chattisgarh",
    "Taluk": "Kanker",
    "Districtname": "Kanker",
    "statename": "CHATTISGARH"
  },
  {
    "pincode": "494336",
    "officename": "Khairkeda B.O",
    "officeType": "B.O",
    "Deliverystatus": "Delivery",
    "divisionname": "Bastar",
    "regionname": "Raipur",
    "circlename": "Chattisgarh",
    "Taluk": "Kanker",
    "Districtname": "Kanker",
    "statename": "CHATTISGARH"
  },
  {
    "pincode": "494336",
    "officename": "Khartha B.O",
    "officeType": "B.O",
    "Deliverystatus": "Delivery",
    "divisionname": "Bastar",
    "regionname": "Raipur",
    "circlename": "Chattisgarh",
    "Taluk": "Kanker",
    "Districtname": "Kanker",
    "statename": "CHATTISGARH"
  },
  {
    "pincode": "494336",
    "officename": "Kotela B.O",
    "officeType": "B.O",
    "Deliverystatus": "Delivery",
    "divisionname": "Bastar",
    "regionname": "Raipur",
    "circlename": "Chattisgarh",
    "Taluk": "Kanker",
    "Districtname": "Kanker",
    "statename": "CHATTISGARH"
  },
  {
    "pincode": "494336",
    "officename": "Lakhanpuri S.O",
    "officeType": "S.O",
    "Deliverystatus": "Delivery",
    "divisionname": "Bastar",
    "regionname": "Raipur",
    "circlename": "Chattisgarh",
    "Taluk": "Kanker",
    "Districtname": "Kanker",
    "statename": "CHATTISGARH"
  },
  {
    "pincode": "494336",
    "officename": "Nathianawagaon B.O",
    "officeType": "B.O",
    "Deliverystatus": "Delivery",
    "divisionname": "Bastar",
    "regionname": "Raipur",
    "circlename": "Chattisgarh",
    "Taluk": "Kanker",
    "Districtname": "Kanker",
    "statename": "CHATTISGARH"
  },
  {
    "pincode": "494336",
    "officename": "Sahawada B.O",
    "officeType": "B.O",
    "Deliverystatus": "Delivery",
    "divisionname": "Bastar",
    "regionname": "Raipur",
    "circlename": "Chattisgarh",
    "Taluk": "Kanker",
    "Districtname": "Kanker",
    "statename": "CHATTISGARH"
  },
  {
    "pincode": "494336",
    "officename": "Tarasgaon B.O",
    "officeType": "B.O",
    "Deliverystatus": "Delivery",
    "divisionname": "Bastar",
    "regionname": "Raipur",
    "circlename": "Chattisgarh",
    "Taluk": "Kanker",
    "Districtname": "Kanker",
    "statename": "CHATTISGARH"
  },
  {
    "pincode": "494336",
    "officename": "Tuyegahan B.O",
    "officeType": "B.O",
    "Deliverystatus": "Delivery",
    "divisionname": "Bastar",
    "regionname": "Raipur",
    "circlename": "Chattisgarh",
    "Taluk": "Kanker",
    "Districtname": "Kanker",
    "statename": "CHATTISGARH"
  },
  {
    "pincode": "494336",
    "officename": "Udkuda B.O",
    "officeType": "B.O",
    "Deliverystatus": "Delivery",
    "divisionname": "Bastar",
    "regionname": "Raipur",
    "circlename": "Chattisgarh",
    "Taluk": "Kanker",
    "Districtname": "Kanker",
    "statename": "CHATTISGARH"
  }
]
