[
  {
    "pincode": "494334",
    "officename": "Aturgaon B.O",
    "officeType": "B.O",
    "Deliverystatus": "Delivery",
    "divisionname": "Bastar",
    "regionname": "Raipur",
    "circlename": "Chattisgarh",
    "Taluk": "Kanker",
    "Districtname": "Kanker",
    "statename": "CHATTISGARH"
  },
  {
    "pincode": "494334",
    "officename": "Bagodar B.O",
    "officeType": "B.O",
    "Deliverystatus": "Delivery",
    "divisionname": "Bastar",
    "regionname": "Raipur",
    "circlename": "Chattisgarh",
    "Taluk": "Kanker",
    "Districtname": "Kanker",
    "statename": "CHATTISGARH"
  },
  {
    "pincode": "494334",
    "officename": "Bewarti B.O",
    "officeType": "B.O",
    "Deliverystatus": "Delivery",
    "divisionname": "Bastar",
    "regionname": "Raipur",
    "circlename": "Chattisgarh",
    "Taluk": "Kanker",
    "Districtname": "Kanker",
    "statename": "CHATTISGARH"
  },
  {
    "pincode": "494334",
    "officename": "Chawad B.O",
    "officeType": "B.O",
    "Deliverystatus": "Delivery",
    "divisionname": "Bastar",
    "regionname": "Raipur",
    "circlename": "Chattisgarh",
    "Taluk": "Kanker",
    "Districtname": "Kanker",
    "statename": "CHATTISGARH"
  },
  {
    "pincode": "494334",
    "officename": "Chiprel B.O",
    "officeType": "B.O",
    "Deliverystatus": "Delivery",
    "divisionname": "Bastar",
    "regionname": "Raipur",
    "circlename": "Chattisgarh",
    "Taluk": "Kanker",
    "Districtname": "Kanker",
    "statename": "CHATTISGARH"
  },
  {
    "pincode": "494334",
    "officename": "Deori B.O",
    "officeType": "B.O",
    "Deliverystatus": "Delivery",
    "divisionname": "Bastar",
    "regionname": "Raipur",
    "circlename": "Chattisgarh",
    "Taluk": "Kanker",
    "Districtname": "Kanker",
    "statename": "CHATTISGARH"
  },
  {
    "pincode": "494334",
    "officename": "Dumali B.O",
    "officeType": "B.O",
    "Deliverystatus": "Delivery",
    "divisionname": "Bastar",
    "regionname": "Raipur",
    "circlename": "Chattisgarh",
    "Taluk": "Kanker",
    "Districtname": "Kanker",
    "statename": "CHATTISGARH"
  },
  {
    "pincode": "494334",
    "officename": "Govindpur B.O",
    "officeType": "B.O",
    "Deliverystatus": "Delivery",
    "divisionname": "Bastar",
    "regionname": "Raipur",
    "circlename": "Chattisgarh",
    "Taluk": "Kanker",
    "Districtname": "Kanker",
    "statename": "CHATTISGARH"
  },
  {
    "pincode": "494334",
    "officename": "Hatkongera B.O",
    "officeType": "B.O",
    "Deliverystatus": "Delivery",
    "divisionname": "Bastar",
    "regionname": "Raipur",
    "circlename": "Chattisgarh",
    "Taluk": "Kanker",
    "Districtname": "Kanker",
    "statename": "CHATTISGARH"
  },
  {
    "pincode": "494334",
    "officename": "Junwani B.O",
    "officeType": "B.O",
    "Deliverystatus": "Delivery",
    "divisionname": "Bastar",
    "regionname": "Raipur",
    "circlename": "Chattisgarh",
    "Taluk": "Kanker",
    "Districtname": "Kanker",
    "statename": "CHATTISGARH"
  },
  {
    "pincode": "494334",
    "officename": "Kanker H.O",
    "officeType": "H.O",
    "Deliverystatus": "Delivery",
    "divisionname": "Bastar",
    "regionname": "Raipur",
    "circlename": "Chattisgarh",
    "Taluk": "Kanker",
    "Districtname": "Kanker",
    "statename": "CHATTISGARH"
  },
  {
    "pincode": "494334",
    "officename": "Kanker Kutchery S.O",
    "officeType": "S.O",
    "Deliverystatus": "Non-Delivery",
    "divisionname": "Bastar",
    "regionname": "Raipur",
    "circlename": "Chattisgarh",
    "Taluk": "Kanker",
    "Districtname": "Kanker",
    "statename": "CHATTISGARH"
  },
  {
    "pincode": "494334",
    "officename": "Kokpur B.O",
    "officeType": "B.O",
    "Deliverystatus": "Delivery",
    "divisionname": "Bastar",
    "regionname": "Raipur",
    "circlename": "Chattisgarh",
    "Taluk": "Kanker",
    "Districtname": "Kanker",
    "statename": "CHATTISGARH"
  },
  {
    "pincode": "494334",
    "officename": "Makdisingrai B.O",
    "officeType": "B.O",
    "Deliverystatus": "Delivery",
    "divisionname": "Bastar",
    "regionname": "Raipur",
    "circlename": "Chattisgarh",
    "Taluk": "Kanker",
    "Districtname": "Kanker",
    "statename": "CHATTISGARH"
  },
  {
    "pincode": "494334",
    "officename": "Manpur B.O",
    "officeType": "B.O",
    "Deliverystatus": "Delivery",
    "divisionname": "Bastar",
    "regionname": "Raipur",
    "circlename": "Chattisgarh",
    "Taluk": "Kanker",
    "Districtname": "Kanker",
    "statename": "CHATTISGARH"
  },
  {
    "pincode": "494334",
    "officename": "Mardapoti B.O",
    "officeType": "B.O",
    "Deliverystatus": "Delivery",
    "divisionname": "Bastar",
    "regionname": "Raipur",
    "circlename": "Chattisgarh",
    "Taluk": "Kanker",
    "Districtname": "Kanker",
    "statename": "CHATTISGARH"
  },
  {
    "pincode": "494334",
    "officename": "Murdongri B.O",
    "officeType": "B.O",
    "Deliverystatus": "Delivery",
    "divisionname": "Bastar",
    "regionname": "Raipur",
    "circlename": "Chattisgarh",
    "Taluk": "Kanker",
    "Districtname": "Kanker",
    "statename": "CHATTISGARH"
  },
  {
    "pincode": "494334",
    "officename": "Murvend B.O",
    "officeType": "B.O",
    "Deliverystatus": "Delivery",
    "divisionname": "Bastar",
    "regionname": "Raipur",
    "circlename": "Chattisgarh",
    "Taluk": "Kanker",
    "Districtname": "Kanker",
    "statename": "CHATTISGARH"
  },
  {
    "pincode": "494334",
    "officename": "Pataud B.O",
    "officeType": "B.O",
    "Deliverystatus": "Delivery",
    "divisionname": "Bastar",
    "regionname": "Raipur",
    "circlename": "Chattisgarh",
    "Taluk": "Kanker",
    "Districtname": "Kanker",
    "statename": "CHATTISGARH"
  },
  {
    "pincode": "494334",
    "officename": "Pidapal B.O",
    "officeType": "B.O",
    "Deliverystatus": "Delivery",
    "divisionname": "Bastar",
    "regionname": "Raipur",
    "circlename": "Chattisgarh",
    "Taluk": "Kanker",
    "Districtname": "Kanker",
    "statename": "CHATTISGARH"
  },
  {
    "pincode": "494334",
    "officename": "Puswada B.O",
    "officeType": "B.O",
    "Deliverystatus": "Delivery",
    "divisionname": "Bastar",
    "regionname": "Raipur",
    "circlename": "Chattisgarh",
    "Taluk": "Kanker",
    "Districtname": "Kanker",
    "statename": "CHATTISGARH"
  },
  {
    "pincode": "494334",
    "officename": "Sidhesar B.O",
    "officeType": "B.O",
    "Deliverystatus": "Delivery",
    "divisionname": "Bastar",
    "regionname": "Raipur",
    "circlename": "Chattisgarh",
    "Taluk": "Kanker",
    "Districtname": "Kanker",
    "statename": "CHATTISGARH"
  },
  {
    "pincode": "494334",
    "officename": "Umradah B.O",
    "officeType": "B.O",
    "Deliverystatus": "Delivery",
    "divisionname": "Bastar",
    "regionname": "Raipur",
    "circlename": "Chattisgarh",
    "Taluk": "Kanker",
    "Districtname": "Kanker",
    "statename": "CHATTISGARH"
  },
  {
    "pincode": "494334",
    "officename": "Vyas Kongera B.O",
    "officeType": "B.O",
    "Deliverystatus": "Delivery",
    "divisionname": "Bastar",
    "regionname": "Raipur",
    "circlename": "Chattisgarh",
    "Taluk": "Kanker",
    "Districtname": "Kanker",
    "statename": "CHATTISGARH"
  }
]
