[
  {
    "pincode": "494441",
    "officename": "Bagmundi Panera B.O",
    "officeType": "B.O",
    "Deliverystatus": "Delivery",
    "divisionname": "Bastar",
    "regionname": "Raipur",
    "circlename": "Chattisgarh",
    "Taluk": "Danteawada",
    "Districtname": "Dantewada",
    "statename": "CHATTISGARH"
  },
  {
    "pincode": "494441",
    "officename": "Barsoor B.O",
    "officeType": "B.O",
    "Deliverystatus": "Delivery",
    "divisionname": "Bastar",
    "regionname": "Raipur",
    "circlename": "Chattisgarh",
    "Taluk": "Dantewada",
    "Districtname": "Dantewada",
    "statename": "CHATTISGARH"
  },
  {
    "pincode": "494441",
    "officename": "Chhindnar B.O",
    "officeType": "B.O",
    "Deliverystatus": "Delivery",
    "divisionname": "Bastar",
    "regionname": "Raipur",
    "circlename": "Chattisgarh",
    "Taluk": "Dantewada",
    "Districtname": "Dantewada",
    "statename": "CHATTISGARH"
  },
  {
    "pincode": "494441",
    "officename": "Chhotetumnar B.O",
    "officeType": "B.O",
    "Deliverystatus": "Delivery",
    "divisionname": "Bastar",
    "regionname": "Raipur",
    "circlename": "Chattisgarh",
    "Taluk": "Dantewada",
    "Districtname": "Dantewada",
    "statename": "CHATTISGARH"
  },
  {
    "pincode": "494441",
    "officename": "Geedam S.O",
    "officeType": "S.O",
    "Deliverystatus": "Delivery",
    "divisionname": "Bastar",
    "regionname": "Raipur",
    "circlename": "Chattisgarh",
    "Taluk": "Dantewada",
    "Districtname": "Dantewada",
    "statename": "CHATTISGARH"
  },
  {
    "pincode": "494441",
    "officename": "Ghotpal B.O",
    "officeType": "B.O",
    "Deliverystatus": "Delivery",
    "divisionname": "Bastar",
    "regionname": "Raipur",
    "circlename": "Chattisgarh",
    "Taluk": "Dantewada",
    "Districtname": "Dantewada",
    "statename": "CHATTISGARH"
  },
  {
    "pincode": "494441",
    "officename": "Gumda B.O",
    "officeType": "B.O",
    "Deliverystatus": "Delivery",
    "divisionname": "Bastar",
    "regionname": "Raipur",
    "circlename": "Chattisgarh",
    "Taluk": "Dantewada",
    "Districtname": "Dantewada",
    "statename": "CHATTISGARH"
  },
  {
    "pincode": "494441",
    "officename": "Harrakoder B.O",
    "officeType": "B.O",
    "Deliverystatus": "Delivery",
    "divisionname": "Bastar",
    "regionname": "Raipur",
    "circlename": "Chattisgarh",
    "Taluk": "Dantewada",
    "Districtname": "Dantewada",
    "statename": "CHATTISGARH"
  },
  {
    "pincode": "494441",
    "officename": "Heeranar B.O",
    "officeType": "B.O",
    "Deliverystatus": "Delivery",
    "divisionname": "Bastar",
    "regionname": "Raipur",
    "circlename": "Chattisgarh",
    "Taluk": "Dantewada",
    "Districtname": "Dantewada",
    "statename": "CHATTISGARH"
  },
  {
    "pincode": "494441",
    "officename": "Karli B.O",
    "officeType": "B.O",
    "Deliverystatus": "Delivery",
    "divisionname": "Bastar",
    "regionname": "Raipur",
    "circlename": "Chattisgarh",
    "Taluk": "Dantewada",
    "Districtname": "Dantewada",
    "statename": "CHATTISGARH"
  },
  {
    "pincode": "494441",
    "officename": "Korgaon B.O",
    "officeType": "B.O",
    "Deliverystatus": "Delivery",
    "divisionname": "Bastar",
    "regionname": "Raipur",
    "circlename": "Chattisgarh",
    "Taluk": "Dantewada",
    "Districtname": "Dantewada",
    "statename": "CHATTISGARH"
  },
  {
    "pincode": "494441",
    "officename": "Korlapal B.O",
    "officeType": "B.O",
    "Deliverystatus": "Delivery",
    "divisionname": "Bastar",
    "regionname": "Raipur",
    "circlename": "Chattisgarh",
    "Taluk": "Dantewada",
    "Districtname": "Dantewada",
    "statename": "CHATTISGARH"
  },
  {
    "pincode": "494441",
    "officename": "Koshalnar B.O",
    "officeType": "B.O",
    "Deliverystatus": "Delivery",
    "divisionname": "Bastar",
    "regionname": "Raipur",
    "circlename": "Chattisgarh",
    "Taluk": "Dantewada",
    "Districtname": "Dantewada",
    "statename": "CHATTISGARH"
  },
  {
    "pincode": "494441",
    "officename": "Pinkonda B.O",
    "officeType": "B.O",
    "Deliverystatus": "Delivery",
    "divisionname": "Bastar",
    "regionname": "Raipur",
    "circlename": "Chattisgarh",
    "Taluk": "Dantewada",
    "Districtname": "Dantewada",
    "statename": "CHATTISGARH"
  },
  {
    "pincode": "494441",
    "officename": "Ronje B.O",
    "officeType": "B.O",
    "Deliverystatus": "Delivery",
    "divisionname": "Bastar",
    "regionname": "Raipur",
    "circlename": "Chattisgarh",
    "Taluk": "Dantewada",
    "Districtname": "Dantewada",
    "statename": "CHATTISGARH"
  },
  {
    "pincode": "494441",
    "officename": "Shivanandashram B.O",
    "officeType": "B.O",
    "Deliverystatus": "Delivery",
    "divisionname": "Bastar",
    "regionname": "Raipur",
    "circlename": "Chattisgarh",
    "Taluk": "Dantewada",
    "Districtname": "Dantewada",
    "statename": "CHATTISGARH"
  }
]
