[
  {
    "pincode": "494447",
    "officename": "Awapalli S.O",
    "officeType": "S.O",
    "Deliverystatus": "Delivery",
    "divisionname": "Bastar",
    "regionname": "Raipur",
    "circlename": "Chattisgarh",
    "Taluk": "Bhopalpatnam",
    "Districtname": "Bijapur(CGH)",
    "statename": "CHATTISGARH"
  },
  {
    "pincode": "494447",
    "officename": "Basaguda B.O",
    "officeType": "B.O",
    "Deliverystatus": "Delivery",
    "divisionname": "Bastar",
    "regionname": "Raipur",
    "circlename": "Chattisgarh",
    "Taluk": "Bhopalpatnam",
    "Districtname": "Bijapur(CGH)",
    "statename": "CHATTISGARH"
  },
  {
    "pincode": "494447",
    "officename": "Dharmaram B.O",
    "officeType": "B.O",
    "Deliverystatus": "Delivery",
    "divisionname": "Bastar",
    "regionname": "Raipur",
    "circlename": "Chattisgarh",
    "Taluk": "Bhopalpatnam",
    "Districtname": "Bijapur(CGH)",
    "statename": "CHATTISGARH"
  },
  {
    "pincode": "494447",
    "officename": "Elmidi B.O",
    "officeType": "B.O",
    "Deliverystatus": "Delivery",
    "divisionname": "Bastar",
    "regionname": "Raipur",
    "circlename": "Chattisgarh",
    "Taluk": "Bhopalpatnam",
    "Districtname": "Bijapur(CGH)",
    "statename": "CHATTISGARH"
  },
  {
    "pincode": "494447",
    "officename": "Mallepalli B.O",
    "officeType": "B.O",
    "Deliverystatus": "Delivery",
    "divisionname": "Bastar",
    "regionname": "Raipur",
    "circlename": "Chattisgarh",
    "Taluk": "Bhopalpatnam",
    "Districtname": "Bijapur(CGH)",
    "statename": "CHATTISGARH"
  },
  {
    "pincode": "494447",
    "officename": "Marudbaka B.O",
    "officeType": "B.O",
    "Deliverystatus": "Delivery",
    "divisionname": "Bastar",
    "regionname": "Raipur",
    "circlename": "Chattisgarh",
    "Taluk": "Bhopalpatnam",
    "Districtname": "Bijapur(CGH)",
    "statename": "CHATTISGARH"
  },
  {
    "pincode": "494447",
    "officename": "Munjalkanker B.O",
    "officeType": "B.O",
    "Deliverystatus": "Delivery",
    "divisionname": "Bastar",
    "regionname": "Raipur",
    "circlename": "Chattisgarh",
    "Taluk": "Bhopalpatnam",
    "Districtname": "Bijapur(CGH)",
    "statename": "CHATTISGARH"
  },
  {
    "pincode": "494447",
    "officename": "Murdanda B.O",
    "officeType": "B.O",
    "Deliverystatus": "Delivery",
    "divisionname": "Bastar",
    "regionname": "Raipur",
    "circlename": "Chattisgarh",
    "Taluk": "Bhopalpatnam",
    "Districtname": "Bijapur(CGH)",
    "statename": "CHATTISGARH"
  },
  {
    "pincode": "494447",
    "officename": "Pakela B.O",
    "officeType": "B.O",
    "Deliverystatus": "Delivery",
    "divisionname": "Bastar",
    "regionname": "Raipur",
    "circlename": "Chattisgarh",
    "Taluk": "Bhopalpatnam",
    "Districtname": "Bijapur(CGH)",
    "statename": "CHATTISGARH"
  },
  {
    "pincode": "494447",
    "officename": "Pamed B.O",
    "officeType": "B.O",
    "Deliverystatus": "Delivery",
    "divisionname": "Bastar",
    "regionname": "Raipur",
    "circlename": "Chattisgarh",
    "Taluk": "Bhopalpatnam",
    "Districtname": "Bijapur(CGH)",
    "statename": "CHATTISGARH"
  },
  {
    "pincode": "494447",
    "officename": "Pujarikanker B.O",
    "officeType": "B.O",
    "Deliverystatus": "Delivery",
    "divisionname": "Bastar",
    "regionname": "Raipur",
    "circlename": "Chattisgarh",
    "Taluk": "Bhopalpatnam",
    "Districtname": "Bijapur(CGH)",
    "statename": "CHATTISGARH"
  },
  {
    "pincode": "494447",
    "officename": "Pusbaka B.O",
    "officeType": "B.O",
    "Deliverystatus": "Delivery",
    "divisionname": "Bastar",
    "regionname": "Raipur",
    "circlename": "Chattisgarh",
    "Taluk": "Bhopalpatnam",
    "Districtname": "Bijapur(CGH)",
    "statename": "CHATTISGARH"
  },
  {
    "pincode": "494447",
    "officename": "Tekmetla B.O",
    "officeType": "B.O",
    "Deliverystatus": "Delivery",
    "divisionname": "Bastar",
    "regionname": "Raipur",
    "circlename": "Chattisgarh",
    "Taluk": "Bhopalpatnam",
    "Districtname": "Bijapur(CGH)",
    "statename": "CHATTISGARH"
  },
  {
    "pincode": "494447",
    "officename": "Usoor B.O",
    "officeType": "B.O",
    "Deliverystatus": "Delivery",
    "divisionname": "Bastar",
    "regionname": "Raipur",
    "circlename": "Chattisgarh",
    "Taluk": "Bhopalpatnam",
    "Districtname": "Bijapur(CGH)",
    "statename": "CHATTISGARH"
  }
]
