[
  {
    "pincode": "494450",
    "officename": "Badekakler B.O",
    "officeType": "B.O",
    "Deliverystatus": "Delivery",
    "divisionname": "Bastar",
    "regionname": "Raipur",
    "circlename": "Chattisgarh",
    "Taluk": "Bijapur",
    "Districtname": "Bijapur(CGH)",
    "statename": "CHATTISGARH"
  },
  {
    "pincode": "494450",
    "officename": "Belnar B.O",
    "officeType": "B.O",
    "Deliverystatus": "Delivery",
    "divisionname": "Bastar",
    "regionname": "Raipur",
    "circlename": "Chattisgarh",
    "Taluk": "Dantewada",
    "Districtname": "Dantewada",
    "statename": "CHATTISGARH"
  },
  {
    "pincode": "494450",
    "officename": "Bhairamgarh S.O",
    "officeType": "S.O",
    "Deliverystatus": "Delivery",
    "divisionname": "Bastar",
    "regionname": "Raipur",
    "circlename": "Chattisgarh",
    "Taluk": "Bhairamgarh",
    "Districtname": "Bijapur(CGH)",
    "statename": "CHATTISGARH"
  },
  {
    "pincode": "494450",
    "officename": "Gudma B.O",
    "officeType": "B.O",
    "Deliverystatus": "Delivery",
    "divisionname": "Bastar",
    "regionname": "Raipur",
    "circlename": "Chattisgarh",
    "Taluk": "Bijapur",
    "Districtname": "Bijapur(CGH)",
    "statename": "CHATTISGARH"
  },
  {
    "pincode": "494450",
    "officename": "Karkeli B.O",
    "officeType": "B.O",
    "Deliverystatus": "Delivery",
    "divisionname": "Bastar",
    "regionname": "Raipur",
    "circlename": "Chattisgarh",
    "Taluk": "Bijapur",
    "Districtname": "Bijapur(CGH)",
    "statename": "CHATTISGARH"
  },
  {
    "pincode": "494450",
    "officename": "Kutru B.O",
    "officeType": "B.O",
    "Deliverystatus": "Delivery",
    "divisionname": "Bastar",
    "regionname": "Raipur",
    "circlename": "Chattisgarh",
    "Taluk": "Bijapur",
    "Districtname": "Bijapur(CGH)",
    "statename": "CHATTISGARH"
  },
  {
    "pincode": "494450",
    "officename": "Lanka B.O",
    "officeType": "B.O",
    "Deliverystatus": "Delivery",
    "divisionname": "Bastar",
    "regionname": "Raipur",
    "circlename": "Chattisgarh",
    "Taluk": "Bijapur",
    "Districtname": "Bijapur(CGH)",
    "statename": "CHATTISGARH"
  },
  {
    "pincode": "494450",
    "officename": "Matwada B.O",
    "officeType": "B.O",
    "Deliverystatus": "Delivery",
    "divisionname": "Bastar",
    "regionname": "Raipur",
    "circlename": "Chattisgarh",
    "Taluk": "Bijapur",
    "Districtname": "Bijapur(CGH)",
    "statename": "CHATTISGARH"
  },
  {
    "pincode": "494450",
    "officename": "Mirtur B.O",
    "officeType": "B.O",
    "Deliverystatus": "Delivery",
    "divisionname": "Bastar",
    "regionname": "Raipur",
    "circlename": "Chattisgarh",
    "Taluk": "Dantewada",
    "Districtname": "Dantewada",
    "statename": "CHATTISGARH"
  },
  {
    "pincode": "494450",
    "officename": "Pharsegarh B.O",
    "officeType": "B.O",
    "Deliverystatus": "Delivery",
    "divisionname": "Bastar",
    "regionname": "Raipur",
    "circlename": "Chattisgarh",
    "Taluk": "Bijapur",
    "Districtname": "Bijapur(CGH)",
    "statename": "CHATTISGARH"
  },
  {
    "pincode": "494450",
    "officename": "Ranibodli B.O",
    "officeType": "B.O",
    "Deliverystatus": "Delivery",
    "divisionname": "Bastar",
    "regionname": "Raipur",
    "circlename": "Chattisgarh",
    "Taluk": "Bijapur",
    "Districtname": "Bijapur(CGH)",
    "statename": "CHATTISGARH"
  },
  {
    "pincode": "494450",
    "officename": "Sagmeta B.O",
    "officeType": "B.O",
    "Deliverystatus": "Delivery",
    "divisionname": "Bastar",
    "regionname": "Raipur",
    "circlename": "Chattisgarh",
    "Taluk": "Bijapur",
    "Districtname": "Bijapur(CGH)",
    "statename": "CHATTISGARH"
  },
  {
    "pincode": "494450",
    "officename": "Sandra B.O",
    "officeType": "B.O",
    "Deliverystatus": "Delivery",
    "divisionname": "Bastar",
    "regionname": "Raipur",
    "circlename": "Chattisgarh",
    "Taluk": "Bijapur",
    "Districtname": "Bijapur(CGH)",
    "statename": "CHATTISGARH"
  }
]
