[
  {
    "pincode": "494444",
    "officename": "Bijapur S.O",
    "officeType": "S.O",
    "Deliverystatus": "Delivery",
    "divisionname": "Bastar",
    "regionname": "Raipur",
    "circlename": "Chattisgarh",
    "Taluk": "Bijapur",
    "Districtname": "Bijapur(CGH)",
    "statename": "CHATTISGARH"
  },
  {
    "pincode": "494444",
    "officename": "Cherpal B.O",
    "officeType": "B.O",
    "Deliverystatus": "Delivery",
    "divisionname": "Bastar",
    "regionname": "Raipur",
    "circlename": "Chattisgarh",
    "Taluk": "Bijapur",
    "Districtname": "Bijapur(CGH)",
    "statename": "CHATTISGARH"
  },
  {
    "pincode": "494444",
    "officename": "Dhanora B.O",
    "officeType": "B.O",
    "Deliverystatus": "Delivery",
    "divisionname": "Bastar",
    "regionname": "Raipur",
    "circlename": "Chattisgarh",
    "Taluk": "Bijapur",
    "Districtname": "Bijapur(CGH)",
    "statename": "CHATTISGARH"
  },
  {
    "pincode": "494444",
    "officename": "Etpal B.O",
    "officeType": "B.O",
    "Deliverystatus": "Delivery",
    "divisionname": "Bastar",
    "regionname": "Raipur",
    "circlename": "Chattisgarh",
    "Taluk": "Bijapur",
    "Districtname": "Bijapur(CGH)",
    "statename": "CHATTISGARH"
  },
  {
    "pincode": "494444",
    "officename": "Gangaloor B.O",
    "officeType": "B.O",
    "Deliverystatus": "Delivery",
    "divisionname": "Bastar",
    "regionname": "Raipur",
    "circlename": "Chattisgarh",
    "Taluk": "Bijapur",
    "Districtname": "Bijapur(CGH)",
    "statename": "CHATTISGARH"
  },
  {
    "pincode": "494444",
    "officename": "Kaika B.O",
    "officeType": "B.O",
    "Deliverystatus": "Delivery",
    "divisionname": "Bastar",
    "regionname": "Raipur",
    "circlename": "Chattisgarh",
    "Taluk": "Bijapur",
    "Districtname": "Bijapur(CGH)",
    "statename": "CHATTISGARH"
  },
  {
    "pincode": "494444",
    "officename": "Nemed B.O",
    "officeType": "B.O",
    "Deliverystatus": "Delivery",
    "divisionname": "Bastar",
    "regionname": "Raipur",
    "circlename": "Chattisgarh",
    "Taluk": "Bijapur",
    "Districtname": "Bijapur(CGH)",
    "statename": "CHATTISGARH"
  },
  {
    "pincode": "494444",
    "officename": "Padeda B.O",
    "officeType": "B.O",
    "Deliverystatus": "Delivery",
    "divisionname": "Bastar",
    "regionname": "Raipur",
    "circlename": "Chattisgarh",
    "Taluk": "Bijapur",
    "Districtname": "Bijapur(CGH)",
    "statename": "CHATTISGARH"
  },
  {
    "pincode": "494444",
    "officename": "Pidiya B.O",
    "officeType": "B.O",
    "Deliverystatus": "Delivery",
    "divisionname": "Bastar",
    "regionname": "Raipur",
    "circlename": "Chattisgarh",
    "Taluk": "Bijapur",
    "Districtname": "Bijapur(CGH)",
    "statename": "CHATTISGARH"
  },
  {
    "pincode": "494444",
    "officename": "Pusnar B.O",
    "officeType": "B.O",
    "Deliverystatus": "Delivery",
    "divisionname": "Bastar",
    "regionname": "Raipur",
    "circlename": "Chattisgarh",
    "Taluk": "Bijapur",
    "Districtname": "Bijapur(CGH)",
    "statename": "CHATTISGARH"
  },
  {
    "pincode": "494444",
    "officename": "Toynar B.O",
    "officeType": "B.O",
    "Deliverystatus": "Delivery",
    "divisionname": "Bastar",
    "regionname": "Raipur",
    "circlename": "Chattisgarh",
    "Taluk": "Bijapur",
    "Districtname": "Bijapur(CGH)",
    "statename": "CHATTISGARH"
  },
  {
    "pincode": "494444",
    "officename": "Tumnar B.O",
    "officeType": "B.O",
    "Deliverystatus": "Delivery",
    "divisionname": "Bastar",
    "regionname": "Raipur",
    "circlename": "Chattisgarh",
    "Taluk": "Bijapur",
    "Districtname": "Bijapur(CGH)",
    "statename": "CHATTISGARH"
  }
]
