[
  {
    "pincode": "494556",
    "officename": "Aranpur B.O",
    "officeType": "B.O",
    "Deliverystatus": "Delivery",
    "divisionname": "Bastar",
    "regionname": "Raipur",
    "circlename": "Chattisgarh",
    "Taluk": "Dantewada",
    "Districtname": "Dantewada",
    "statename": "CHATTISGARH"
  },
  {
    "pincode": "494556",
    "officename": "Bangali Camp B.O",
    "officeType": "B.O",
    "Deliverystatus": "Delivery",
    "divisionname": "Bastar",
    "regionname": "Raipur",
    "circlename": "Chattisgarh",
    "Taluk": "Dantewada",
    "Districtname": "Dantewada",
    "statename": "CHATTISGARH"
  },
  {
    "pincode": "494556",
    "officename": "Burgum B.O",
    "officeType": "B.O",
    "Deliverystatus": "Delivery",
    "divisionname": "Bastar",
    "regionname": "Raipur",
    "circlename": "Chattisgarh",
    "Taluk": "Dantewada",
    "Districtname": "Dantewada",
    "statename": "CHATTISGARH"
  },
  {
    "pincode": "494556",
    "officename": "Gondras B.O",
    "officeType": "B.O",
    "Deliverystatus": "Delivery",
    "divisionname": "Bastar",
    "regionname": "Raipur",
    "circlename": "Chattisgarh",
    "Taluk": "Dantewada",
    "Districtname": "Dantewada",
    "statename": "CHATTISGARH"
  },
  {
    "pincode": "494556",
    "officename": "Gumyapal B.O",
    "officeType": "B.O",
    "Deliverystatus": "Delivery",
    "divisionname": "Bastar",
    "regionname": "Raipur",
    "circlename": "Chattisgarh",
    "Taluk": "Dantewada",
    "Districtname": "Dantewada",
    "statename": "CHATTISGARH"
  },
  {
    "pincode": "494556",
    "officename": "Guphadi B.O",
    "officeType": "B.O",
    "Deliverystatus": "Delivery",
    "divisionname": "Bastar",
    "regionname": "Raipur",
    "circlename": "Chattisgarh",
    "Taluk": "Dantewada",
    "Districtname": "Dantewada",
    "statename": "CHATTISGARH"
  },
  {
    "pincode": "494556",
    "officename": "Kakadi B.O",
    "officeType": "B.O",
    "Deliverystatus": "Delivery",
    "divisionname": "Bastar",
    "regionname": "Raipur",
    "circlename": "Chattisgarh",
    "Taluk": "Dantewda",
    "Districtname": "Dantewada",
    "statename": "CHATTISGARH"
  },
  {
    "pincode": "494556",
    "officename": "Kirandul Hill Top B.O",
    "officeType": "B.O",
    "Deliverystatus": "Delivery",
    "divisionname": "Bastar",
    "regionname": "Raipur",
    "circlename": "Chattisgarh",
    "Taluk": "Dantewada",
    "Districtname": "Dantewada",
    "statename": "CHATTISGARH"
  },
  {
    "pincode": "494556",
    "officename": "Kirandul R.S. B.O",
    "officeType": "B.O",
    "Deliverystatus": "Delivery",
    "divisionname": "Bastar",
    "regionname": "Raipur",
    "circlename": "Chattisgarh",
    "Taluk": "Dantewada",
    "Districtname": "Dantewada",
    "statename": "CHATTISGARH"
  },
  {
    "pincode": "494556",
    "officename": "Kirandul S.O",
    "officeType": "S.O",
    "Deliverystatus": "Delivery",
    "divisionname": "Bastar",
    "regionname": "Raipur",
    "circlename": "Chattisgarh",
    "Taluk": "Dantewada",
    "Districtname": "Dantewada",
    "statename": "CHATTISGARH"
  },
  {
    "pincode": "494556",
    "officename": "Kondasawli B.O",
    "officeType": "B.O",
    "Deliverystatus": "Delivery",
    "divisionname": "Bastar",
    "regionname": "Raipur",
    "circlename": "Chattisgarh",
    "Taluk": "Dantewada",
    "Districtname": "Dantewada",
    "statename": "CHATTISGARH"
  },
  {
    "pincode": "494556",
    "officename": "Potali B.O",
    "officeType": "B.O",
    "Deliverystatus": "Delivery",
    "divisionname": "Bastar",
    "regionname": "Raipur",
    "circlename": "Chattisgarh",
    "Taluk": "Dantewada",
    "Districtname": "Dantewada",
    "statename": "CHATTISGARH"
  }
]
