[
  {
    "pincode": "494635",
    "officename": "Aridongri B.O",
    "officeType": "B.O",
    "Deliverystatus": "Delivery",
    "divisionname": "Bastar",
    "regionname": "Raipur",
    "circlename": "Chattisgarh",
    "Taluk": "Bhanupratappur",
    "Districtname": "Kanker",
    "statename": "CHATTISGARH"
  },
  {
    "pincode": "494635",
    "officename": "Damkasa B.O",
    "officeType": "B.O",
    "Deliverystatus": "Delivery",
    "divisionname": "Bastar",
    "regionname": "Raipur",
    "circlename": "Chattisgarh",
    "Taluk": "Bhanupratappur",
    "Districtname": "Kanker",
    "statename": "CHATTISGARH"
  },
  {
    "pincode": "494635",
    "officename": "Hatkondal B.O",
    "officeType": "B.O",
    "Deliverystatus": "Delivery",
    "divisionname": "Bastar",
    "regionname": "Raipur",
    "circlename": "Chattisgarh",
    "Taluk": "Bhanupratappur",
    "Districtname": "Kanker",
    "statename": "CHATTISGARH"
  },
  {
    "pincode": "494635",
    "officename": "Jodekursi B.O",
    "officeType": "B.O",
    "Deliverystatus": "Delivery",
    "divisionname": "Bastar",
    "regionname": "Raipur",
    "circlename": "Chattisgarh",
    "Taluk": "Bhanupratappur",
    "Districtname": "Kanker",
    "statename": "CHATTISGARH"
  },
  {
    "pincode": "494635",
    "officename": "Karmoti B.O",
    "officeType": "B.O",
    "Deliverystatus": "Delivery",
    "divisionname": "Bastar",
    "regionname": "Raipur",
    "circlename": "Chattisgarh",
    "Taluk": "Bhanupratappur",
    "Districtname": "Kanker",
    "statename": "CHATTISGARH"
  },
  {
    "pincode": "494635",
    "officename": "Lohattar B.O",
    "officeType": "B.O",
    "Deliverystatus": "Delivery",
    "divisionname": "Bastar",
    "regionname": "Raipur",
    "circlename": "Chattisgarh",
    "Taluk": "Bhanupratappur",
    "Districtname": "Kanker",
    "statename": "CHATTISGARH"
  },
  {
    "pincode": "494635",
    "officename": "Salhe B.O",
    "officeType": "B.O",
    "Deliverystatus": "Delivery",
    "divisionname": "Bastar",
    "regionname": "Raipur",
    "circlename": "Chattisgarh",
    "Taluk": "Bhanupratappur",
    "Districtname": "Kanker",
    "statename": "CHATTISGARH"
  },
  {
    "pincode": "494635",
    "officename": "Sambalpur S.O",
    "officeType": "S.O",
    "Deliverystatus": "Delivery",
    "divisionname": "Bastar",
    "regionname": "Raipur",
    "circlename": "Chattisgarh",
    "Taluk": "Bhanupratappur",
    "Districtname": "Kanker",
    "statename": "CHATTISGARH"
  },
  {
    "pincode": "494635",
    "officename": "Tarhul B.O",
    "officeType": "B.O",
    "Deliverystatus": "Delivery",
    "divisionname": "Bastar",
    "regionname": "Raipur",
    "circlename": "Chattisgarh",
    "Taluk": "Bhanupratappur",
    "Districtname": "Kanker",
    "statename": "CHATTISGARH"
  },
  {
    "pincode": "494635",
    "officename": "Traighotiya B.O",
    "officeType": "B.O",
    "Deliverystatus": "Delivery",
    "divisionname": "Bastar",
    "regionname": "Raipur",
    "circlename": "Chattisgarh",
    "Taluk": "Bhanupratappur",
    "Districtname": "Kanker",
    "statename": "CHATTISGARH"
  }
]
