[
  {
    "pincode": "494661",
    "officename": "Bakulbahi B.O",
    "officeType": "B.O",
    "Deliverystatus": "Delivery",
    "divisionname": "Bastar",
    "regionname": "Raipur",
    "circlename": "Chattisgarh",
    "Taluk": "Narayanpur",
    "Districtname": "Narayanpur",
    "statename": "CHATTISGARH"
  },
  {
    "pincode": "494661",
    "officename": "Bandapal B.O",
    "officeType": "B.O",
    "Deliverystatus": "Delivery",
    "divisionname": "Bastar",
    "regionname": "Raipur",
    "circlename": "Chattisgarh",
    "Taluk": "Narayanpur",
    "Districtname": "Narayanpur",
    "statename": "CHATTISGARH"
  },
  {
    "pincode": "494661",
    "officename": "Benur B.O",
    "officeType": "B.O",
    "Deliverystatus": "Delivery",
    "divisionname": "Bastar",
    "regionname": "Raipur",
    "circlename": "Chattisgarh",
    "Taluk": "Narayanpur",
    "Districtname": "Narayanpur",
    "statename": "CHATTISGARH"
  },
  {
    "pincode": "494661",
    "officename": "Bijli B.O",
    "officeType": "B.O",
    "Deliverystatus": "Delivery",
    "divisionname": "Bastar",
    "regionname": "Raipur",
    "circlename": "Chattisgarh",
    "Taluk": "Narayanpur",
    "Districtname": "Narayanpur",
    "statename": "CHATTISGARH"
  },
  {
    "pincode": "494661",
    "officename": "Chingnar B.O",
    "officeType": "B.O",
    "Deliverystatus": "Delivery",
    "divisionname": "Bastar",
    "regionname": "Raipur",
    "circlename": "Chattisgarh",
    "Taluk": "Narayanpur",
    "Districtname": "Narayanpur",
    "statename": "CHATTISGARH"
  },
  {
    "pincode": "494661",
    "officename": "Chotedongar B.O",
    "officeType": "B.O",
    "Deliverystatus": "Delivery",
    "divisionname": "Bastar",
    "regionname": "Raipur",
    "circlename": "Chattisgarh",
    "Taluk": "Narayanpur",
    "Districtname": "Narayanpur",
    "statename": "CHATTISGARH"
  },
  {
    "pincode": "494661",
    "officename": "Dandwan B.O",
    "officeType": "B.O",
    "Deliverystatus": "Delivery",
    "divisionname": "Bastar",
    "regionname": "Raipur",
    "circlename": "Chattisgarh",
    "Taluk": "Narayanpur",
    "Districtname": "Narayanpur",
    "statename": "CHATTISGARH"
  },
  {
    "pincode": "494661",
    "officename": "Devgaon B.O",
    "officeType": "B.O",
    "Deliverystatus": "Delivery",
    "divisionname": "Bastar",
    "regionname": "Raipur",
    "circlename": "Chattisgarh",
    "Taluk": "Narayanpur",
    "Districtname": "Narayanpur",
    "statename": "CHATTISGARH"
  },
  {
    "pincode": "494661",
    "officename": "Dhanora B.O",
    "officeType": "B.O",
    "Deliverystatus": "Delivery",
    "divisionname": "Bastar",
    "regionname": "Raipur",
    "circlename": "Chattisgarh",
    "Taluk": "Narayanpur",
    "Districtname": "Narayanpur",
    "statename": "CHATTISGARH"
  },
  {
    "pincode": "494661",
    "officename": "Dhaudai B.O",
    "officeType": "B.O",
    "Deliverystatus": "Delivery",
    "divisionname": "Bastar",
    "regionname": "Raipur",
    "circlename": "Chattisgarh",
    "Taluk": "Narayanpur",
    "Districtname": "Narayanpur",
    "statename": "CHATTISGARH"
  },
  {
    "pincode": "494661",
    "officename": "Edka B.O",
    "officeType": "B.O",
    "Deliverystatus": "Delivery",
    "divisionname": "Bastar",
    "regionname": "Raipur",
    "circlename": "Chattisgarh",
    "Taluk": "Narayanpur",
    "Districtname": "Narayanpur",
    "statename": "CHATTISGARH"
  },
  {
    "pincode": "494661",
    "officename": "Gadhbengal B.O",
    "officeType": "B.O",
    "Deliverystatus": "Delivery",
    "divisionname": "Bastar",
    "regionname": "Raipur",
    "circlename": "Chattisgarh",
    "Taluk": "Narayanpur",
    "Districtname": "Narayanpur",
    "statename": "CHATTISGARH"
  },
  {
    "pincode": "494661",
    "officename": "Kanhargaon B.O",
    "officeType": "B.O",
    "Deliverystatus": "Delivery",
    "divisionname": "Bastar",
    "regionname": "Raipur",
    "circlename": "Chattisgarh",
    "Taluk": "Narayanpur",
    "Districtname": "Narayanpur",
    "statename": "CHATTISGARH"
  },
  {
    "pincode": "494661",
    "officename": "Kohkameta B.O",
    "officeType": "B.O",
    "Deliverystatus": "Delivery",
    "divisionname": "Bastar",
    "regionname": "Raipur",
    "circlename": "Chattisgarh",
    "Taluk": "Narayanpur",
    "Districtname": "Narayanpur",
    "statename": "CHATTISGARH"
  },
  {
    "pincode": "494661",
    "officename": "Narayanpur S.O (Narayanpur)",
    "officeType": "S.O",
    "Deliverystatus": "Delivery",
    "divisionname": "Bastar",
    "regionname": "Raipur",
    "circlename": "Chattisgarh",
    "Taluk": "Narayanpur",
    "Districtname": "Narayanpur",
    "statename": "CHATTISGARH"
  },
  {
    "pincode": "494661",
    "officename": "Orcha B.O",
    "officeType": "B.O",
    "Deliverystatus": "Delivery",
    "divisionname": "Bastar",
    "regionname": "Raipur",
    "circlename": "Chattisgarh",
    "Taluk": "Narayanpur",
    "Districtname": "Narayanpur",
    "statename": "CHATTISGARH"
  },
  {
    "pincode": "494661",
    "officename": "Pharasgaon B.O",
    "officeType": "B.O",
    "Deliverystatus": "Delivery",
    "divisionname": "Bastar",
    "regionname": "Raipur",
    "circlename": "Chattisgarh",
    "Taluk": "Narayanpur",
    "Districtname": "Narayanpur",
    "statename": "CHATTISGARH"
  },
  {
    "pincode": "494661",
    "officename": "Remawand B.O",
    "officeType": "B.O",
    "Deliverystatus": "Delivery",
    "divisionname": "Bastar",
    "regionname": "Raipur",
    "circlename": "Chattisgarh",
    "Taluk": "Narayanpur",
    "Districtname": "Narayanpur",
    "statename": "CHATTISGARH"
  }
]
