[
  {
    "pincode": "494777",
    "officename": "Bandecolony S.O",
    "officeType": "S.O",
    "Deliverystatus": "Delivery",
    "divisionname": "Bastar",
    "regionname": "Raipur",
    "circlename": "Chattisgarh",
    "Taluk": "Pakhanjore",
    "Districtname": "Kanker",
    "statename": "CHATTISGARH"
  },
  {
    "pincode": "494777",
    "officename": "Erpanar B.O",
    "officeType": "B.O",
    "Deliverystatus": "Delivery",
    "divisionname": "Bastar",
    "regionname": "Raipur",
    "circlename": "Chattisgarh",
    "Taluk": "Pakhanjore",
    "Districtname": "Kanker",
    "statename": "CHATTISGARH"
  },
  {
    "pincode": "494777",
    "officename": "Kurenar B.O",
    "officeType": "B.O",
    "Deliverystatus": "Delivery",
    "divisionname": "Bastar",
    "regionname": "Raipur",
    "circlename": "Chattisgarh",
    "Taluk": "Pakhanjore",
    "Districtname": "Kanker",
    "statename": "CHATTISGARH"
  },
  {
    "pincode": "494777",
    "officename": "Maroda B.O",
    "officeType": "B.O",
    "Deliverystatus": "Delivery",
    "divisionname": "Bastar",
    "regionname": "Raipur",
    "circlename": "Chattisgarh",
    "Taluk": "Pakhanjore",
    "Districtname": "Kanker",
    "statename": "CHATTISGARH"
  },
  {
    "pincode": "494777",
    "officename": "Nagaldand B.O",
    "officeType": "B.O",
    "Deliverystatus": "Delivery",
    "divisionname": "Bastar",
    "regionname": "Raipur",
    "circlename": "Chattisgarh",
    "Taluk": "Pakhanjore",
    "Districtname": "Kanker",
    "statename": "CHATTISGARH"
  },
  {
    "pincode": "494777",
    "officename": "PV-92 B.O",
    "officeType": "B.O",
    "Deliverystatus": "Delivery",
    "divisionname": "Bastar",
    "regionname": "Raipur",
    "circlename": "Chattisgarh",
    "Taluk": "Pakhanjore",
    "Districtname": "Kanker",
    "statename": "CHATTISGARH"
  },
  {
    "pincode": "494777",
    "officename": "Padenga B.O",
    "officeType": "B.O",
    "Deliverystatus": "Delivery",
    "divisionname": "Bastar",
    "regionname": "Raipur",
    "circlename": "Chattisgarh",
    "Taluk": "Pakhanjore",
    "Districtname": "Kanker",
    "statename": "CHATTISGARH"
  },
  {
    "pincode": "494777",
    "officename": "Panwar B.O",
    "officeType": "B.O",
    "Deliverystatus": "Delivery",
    "divisionname": "Bastar",
    "regionname": "Raipur",
    "circlename": "Chattisgarh",
    "Taluk": "Pakhanjore",
    "Districtname": "Kanker",
    "statename": "CHATTISGARH"
  },
  {
    "pincode": "494777",
    "officename": "Rengawahi B.O",
    "officeType": "B.O",
    "Deliverystatus": "Delivery",
    "divisionname": "Bastar",
    "regionname": "Raipur",
    "circlename": "Chattisgarh",
    "Taluk": "Pakhanjore",
    "Districtname": "Kanker",
    "statename": "CHATTISGARH"
  },
  {
    "pincode": "494777",
    "officename": "Tekameta B.O",
    "officeType": "B.O",
    "Deliverystatus": "Delivery",
    "divisionname": "Bastar",
    "regionname": "Raipur",
    "circlename": "Chattisgarh",
    "Taluk": "Pakhanjore",
    "Districtname": "Kanker",
    "statename": "CHATTISGARH"
  }
]
