[
  {
    "pincode": "495334",
    "officename": "Banki B.O",
    "officeType": "B.O",
    "Deliverystatus": "Delivery",
    "divisionname": "Bilaspur",
    "regionname": "Raipur",
    "circlename": "Chattisgarh",
    "Taluk": "Mungeli",
    "Districtname": "Bilaspur(CGH)",
    "statename": "CHATTISGARH"
  },
  {
    "pincode": "495334",
    "officename": "Bhalapur B.O",
    "officeType": "B.O",
    "Deliverystatus": "Delivery",
    "divisionname": "Bilaspur",
    "regionname": "Raipur",
    "circlename": "Chattisgarh",
    "Taluk": "Mungeli",
    "Districtname": "Bilaspur(CGH)",
    "statename": "CHATTISGARH"
  },
  {
    "pincode": "495334",
    "officename": "Bhalukhondhra B.O",
    "officeType": "B.O",
    "Deliverystatus": "Delivery",
    "divisionname": "Bilaspur",
    "regionname": "Raipur",
    "circlename": "Chattisgarh",
    "Taluk": "Mungeli",
    "Districtname": "Bilaspur(CGH)",
    "statename": "CHATTISGARH"
  },
  {
    "pincode": "495334",
    "officename": "Bijatarai B.O",
    "officeType": "B.O",
    "Deliverystatus": "Delivery",
    "divisionname": "Bilaspur",
    "regionname": "Raipur",
    "circlename": "Chattisgarh",
    "Taluk": "Mungeli",
    "Districtname": "Bilaspur(CGH)",
    "statename": "CHATTISGARH"
  },
  {
    "pincode": "495334",
    "officename": "Chakrabhatha B.O",
    "officeType": "B.O",
    "Deliverystatus": "Delivery",
    "divisionname": "Bilaspur",
    "regionname": "Raipur",
    "circlename": "Chattisgarh",
    "Taluk": "Mungeli",
    "Districtname": "Bilaspur(CGH)",
    "statename": "CHATTISGARH"
  },
  {
    "pincode": "495334",
    "officename": "Chhatan B.O",
    "officeType": "B.O",
    "Deliverystatus": "Delivery",
    "divisionname": "Bilaspur",
    "regionname": "Raipur",
    "circlename": "Chattisgarh",
    "Taluk": "Mungeli",
    "Districtname": "Bilaspur(CGH)",
    "statename": "CHATTISGARH"
  },
  {
    "pincode": "495334",
    "officename": "Chhindbhog B.O",
    "officeType": "B.O",
    "Deliverystatus": "Delivery",
    "divisionname": "Bilaspur",
    "regionname": "Raipur",
    "circlename": "Chattisgarh",
    "Taluk": "Mungeli",
    "Districtname": "Bilaspur(CGH)",
    "statename": "CHATTISGARH"
  },
  {
    "pincode": "495334",
    "officename": "Chirhula B.O",
    "officeType": "B.O",
    "Deliverystatus": "Delivery",
    "divisionname": "Bilaspur",
    "regionname": "Raipur",
    "circlename": "Chattisgarh",
    "Taluk": "Mungeli",
    "Districtname": "Bilaspur(CGH)",
    "statename": "CHATTISGARH"
  },
  {
    "pincode": "495334",
    "officename": "Deori B.O",
    "officeType": "B.O",
    "Deliverystatus": "Delivery",
    "divisionname": "Bilaspur",
    "regionname": "Raipur",
    "circlename": "Chattisgarh",
    "Taluk": "Mungeli",
    "Districtname": "Bilaspur(CGH)",
    "statename": "CHATTISGARH"
  },
  {
    "pincode": "495334",
    "officename": "Dharampura B.O",
    "officeType": "B.O",
    "Deliverystatus": "Delivery",
    "divisionname": "Bilaspur",
    "regionname": "Raipur",
    "circlename": "Chattisgarh",
    "Taluk": "Mungeli",
    "Districtname": "Bilaspur(CGH)",
    "statename": "CHATTISGARH"
  },
  {
    "pincode": "495334",
    "officename": "Donda B.O",
    "officeType": "B.O",
    "Deliverystatus": "Delivery",
    "divisionname": "Bilaspur",
    "regionname": "Raipur",
    "circlename": "Chattisgarh",
    "Taluk": "Mungeli",
    "Districtname": "Bilaspur(CGH)",
    "statename": "CHATTISGARH"
  },
  {
    "pincode": "495334",
    "officename": "Fasterpur B.O",
    "officeType": "B.O",
    "Deliverystatus": "Delivery",
    "divisionname": "Bilaspur",
    "regionname": "Raipur",
    "circlename": "Chattisgarh",
    "Taluk": "Mungeli",
    "Districtname": "Bilaspur(CGH)",
    "statename": "CHATTISGARH"
  },
  {
    "pincode": "495334",
    "officename": "Gidha B.O",
    "officeType": "B.O",
    "Deliverystatus": "Delivery",
    "divisionname": "Bilaspur",
    "regionname": "Raipur",
    "circlename": "Chattisgarh",
    "Taluk": "Mungeli",
    "Districtname": "Bilaspur(CGH)",
    "statename": "CHATTISGARH"
  },
  {
    "pincode": "495334",
    "officename": "Kanteli B.O",
    "officeType": "B.O",
    "Deliverystatus": "Delivery",
    "divisionname": "Bilaspur",
    "regionname": "Raipur",
    "circlename": "Chattisgarh",
    "Taluk": "Mungeli",
    "Districtname": "Bilaspur(CGH)",
    "statename": "CHATTISGARH"
  },
  {
    "pincode": "495334",
    "officename": "Karesara B.O",
    "officeType": "B.O",
    "Deliverystatus": "Delivery",
    "divisionname": "Bilaspur",
    "regionname": "Raipur",
    "circlename": "Chattisgarh",
    "Taluk": "Mungeli",
    "Districtname": "Bilaspur(CGH)",
    "statename": "CHATTISGARH"
  },
  {
    "pincode": "495334",
    "officename": "Karhi B.O",
    "officeType": "B.O",
    "Deliverystatus": "Delivery",
    "divisionname": "Bilaspur",
    "regionname": "Raipur",
    "circlename": "Chattisgarh",
    "Taluk": "Mungeli",
    "Districtname": "Bilaspur(CGH)",
    "statename": "CHATTISGARH"
  },
  {
    "pincode": "495334",
    "officename": "Khairwar B.O",
    "officeType": "B.O",
    "Deliverystatus": "Delivery",
    "divisionname": "Bilaspur",
    "regionname": "Raipur",
    "circlename": "Chattisgarh",
    "Taluk": "Mungeli",
    "Districtname": "Bilaspur(CGH)",
    "statename": "CHATTISGARH"
  },
  {
    "pincode": "495334",
    "officename": "Kodwa B.O",
    "officeType": "B.O",
    "Deliverystatus": "Delivery",
    "divisionname": "Bilaspur",
    "regionname": "Raipur",
    "circlename": "Chattisgarh",
    "Taluk": "Mungeli",
    "Districtname": "Bilaspur(CGH)",
    "statename": "CHATTISGARH"
  },
  {
    "pincode": "495334",
    "officename": "Kosamtara B.O",
    "officeType": "B.O",
    "Deliverystatus": "Delivery",
    "divisionname": "Bilaspur",
    "regionname": "Raipur",
    "circlename": "Chattisgarh",
    "Taluk": "Mungeli",
    "Districtname": "Bilaspur(CGH)",
    "statename": "CHATTISGARH"
  },
  {
    "pincode": "495334",
    "officename": "Lalpur B.O",
    "officeType": "B.O",
    "Deliverystatus": "Delivery",
    "divisionname": "Bilaspur",
    "regionname": "Raipur",
    "circlename": "Chattisgarh",
    "Taluk": "Mungeli",
    "Districtname": "Bilaspur(CGH)",
    "statename": "CHATTISGARH"
  },
  {
    "pincode": "495334",
    "officename": "Manoharpur B.O",
    "officeType": "B.O",
    "Deliverystatus": "Delivery",
    "divisionname": "Bilaspur",
    "regionname": "Raipur",
    "circlename": "Chattisgarh",
    "Taluk": "",
    "Districtname": "Bilaspur(CGH)",
    "statename": "CHATTISGARH"
  },
  {
    "pincode": "495334",
    "officename": "Mungeli S.O",
    "officeType": "S.O",
    "Deliverystatus": "Delivery",
    "divisionname": "Bilaspur",
    "regionname": "Raipur",
    "circlename": "Chattisgarh",
    "Taluk": "Mungeli",
    "Districtname": "Bilaspur(CGH)",
    "statename": "CHATTISGARH"
  },
  {
    "pincode": "495334",
    "officename": "Nawagaon B.O",
    "officeType": "B.O",
    "Deliverystatus": "Delivery",
    "divisionname": "Bilaspur",
    "regionname": "Raipur",
    "circlename": "Chattisgarh",
    "Taluk": "Mungeli",
    "Districtname": "Bilaspur(CGH)",
    "statename": "CHATTISGARH"
  },
  {
    "pincode": "495334",
    "officename": "Nawaspur B.O",
    "officeType": "B.O",
    "Deliverystatus": "Delivery",
    "divisionname": "Bilaspur",
    "regionname": "Raipur",
    "circlename": "Chattisgarh",
    "Taluk": "Mungeli",
    "Districtname": "Bilaspur(CGH)",
    "statename": "CHATTISGARH"
  },
  {
    "pincode": "495334",
    "officename": "Nirjam B.O",
    "officeType": "B.O",
    "Deliverystatus": "Delivery",
    "divisionname": "Bilaspur",
    "regionname": "Raipur",
    "circlename": "Chattisgarh",
    "Taluk": "Mungeli",
    "Districtname": "Bilaspur(CGH)",
    "statename": "CHATTISGARH"
  },
  {
    "pincode": "495334",
    "officename": "Pandarbhattha B.O",
    "officeType": "B.O",
    "Deliverystatus": "Delivery",
    "divisionname": "Bilaspur",
    "regionname": "Raipur",
    "circlename": "Chattisgarh",
    "Taluk": "Mungeli",
    "Districtname": "Bilaspur(CGH)",
    "statename": "CHATTISGARH"
  },
  {
    "pincode": "495334",
    "officename": "Phandwani B.O",
    "officeType": "B.O",
    "Deliverystatus": "Delivery",
    "divisionname": "Bilaspur",
    "regionname": "Raipur",
    "circlename": "Chattisgarh",
    "Taluk": "Mungeli",
    "Districtname": "Bilaspur(CGH)",
    "statename": "CHATTISGARH"
  },
  {
    "pincode": "495334",
    "officename": "Puran B.O",
    "officeType": "B.O",
    "Deliverystatus": "Delivery",
    "divisionname": "Bilaspur",
    "regionname": "Raipur",
    "circlename": "Chattisgarh",
    "Taluk": "Mungeli",
    "Districtname": "Bilaspur(CGH)",
    "statename": "CHATTISGARH"
  },
  {
    "pincode": "495334",
    "officename": "Rajpur (S) B.O",
    "officeType": "B.O",
    "Deliverystatus": "Delivery",
    "divisionname": "Bilaspur",
    "regionname": "Raipur",
    "circlename": "Chattisgarh",
    "Taluk": "Mungeli",
    "Districtname": "Bilaspur(CGH)",
    "statename": "CHATTISGARH"
  },
  {
    "pincode": "495334",
    "officename": "Terhadhaura B.O",
    "officeType": "B.O",
    "Deliverystatus": "Delivery",
    "divisionname": "Bilaspur",
    "regionname": "Raipur",
    "circlename": "Chattisgarh",
    "Taluk": "Mungeli",
    "Districtname": "Bilaspur(CGH)",
    "statename": "CHATTISGARH"
  }
]
