[
  {
    "pincode": "495335",
    "officename": "Badrabukhari B.O",
    "officeType": "B.O",
    "Deliverystatus": "Delivery",
    "divisionname": "Bilaspur",
    "regionname": "Raipur",
    "circlename": "Chattisgarh",
    "Taluk": "Patharia",
    "Districtname": "Bilaspur(CGH)",
    "statename": "CHATTISGARH"
  },
  {
    "pincode": "495335",
    "officename": "Bhatgaon B.O",
    "officeType": "B.O",
    "Deliverystatus": "Delivery",
    "divisionname": "Bilaspur",
    "regionname": "Raipur",
    "circlename": "Chattisgarh",
    "Taluk": "Patharia",
    "Districtname": "Bilaspur(CGH)",
    "statename": "CHATTISGARH"
  },
  {
    "pincode": "495335",
    "officename": "Goindri B.O",
    "officeType": "B.O",
    "Deliverystatus": "Delivery",
    "divisionname": "Bilaspur",
    "regionname": "Raipur",
    "circlename": "Chattisgarh",
    "Taluk": "Patharia",
    "Districtname": "Bilaspur(CGH)",
    "statename": "CHATTISGARH"
  },
  {
    "pincode": "495335",
    "officename": "Jareli B.O",
    "officeType": "B.O",
    "Deliverystatus": "Delivery",
    "divisionname": "Bilaspur",
    "regionname": "Raipur",
    "circlename": "Chattisgarh",
    "Taluk": "Patharia",
    "Districtname": "Bilaspur(CGH)",
    "statename": "CHATTISGARH"
  },
  {
    "pincode": "495335",
    "officename": "Kukusda B.O",
    "officeType": "B.O",
    "Deliverystatus": "Delivery",
    "divisionname": "Bilaspur",
    "regionname": "Raipur",
    "circlename": "Chattisgarh",
    "Taluk": "Patharia",
    "Districtname": "Bilaspur(CGH)",
    "statename": "CHATTISGARH"
  },
  {
    "pincode": "495335",
    "officename": "Lauda B.O",
    "officeType": "B.O",
    "Deliverystatus": "Delivery",
    "divisionname": "Bilaspur",
    "regionname": "Raipur",
    "circlename": "Chattisgarh",
    "Taluk": "Patharia",
    "Districtname": "Bilaspur(CGH)",
    "statename": "CHATTISGARH"
  },
  {
    "pincode": "495335",
    "officename": "Pandiyain B.O",
    "officeType": "B.O",
    "Deliverystatus": "Delivery",
    "divisionname": "Bilaspur",
    "regionname": "Raipur",
    "circlename": "Chattisgarh",
    "Taluk": "Patharia",
    "Districtname": "Bilaspur(CGH)",
    "statename": "CHATTISGARH"
  },
  {
    "pincode": "495335",
    "officename": "Patharia S.O",
    "officeType": "S.O",
    "Deliverystatus": "Delivery",
    "divisionname": "Bilaspur",
    "regionname": "Raipur",
    "circlename": "Chattisgarh",
    "Taluk": "Mungeli",
    "Districtname": "Bilaspur(CGH)",
    "statename": "CHATTISGARH"
  },
  {
    "pincode": "495335",
    "officename": "Puchheli B.O",
    "officeType": "B.O",
    "Deliverystatus": "Delivery",
    "divisionname": "Bilaspur",
    "regionname": "Raipur",
    "circlename": "Chattisgarh",
    "Taluk": "Patharia",
    "Districtname": "Bilaspur(CGH)",
    "statename": "CHATTISGARH"
  },
  {
    "pincode": "495335",
    "officename": "Sildaha B.O",
    "officeType": "B.O",
    "Deliverystatus": "Delivery",
    "divisionname": "Bilaspur",
    "regionname": "Raipur",
    "circlename": "Chattisgarh",
    "Taluk": "Patharia",
    "Districtname": "Bilaspur(CGH)",
    "statename": "CHATTISGARH"
  },
  {
    "pincode": "495335",
    "officename": "Siltara B.O",
    "officeType": "B.O",
    "Deliverystatus": "Delivery",
    "divisionname": "Bilaspur",
    "regionname": "Raipur",
    "circlename": "Chattisgarh",
    "Taluk": "Patharia",
    "Districtname": "Bilaspur(CGH)",
    "statename": "CHATTISGARH"
  },
  {
    "pincode": "495335",
    "officename": "Sonthi (M) B.O",
    "officeType": "B.O",
    "Deliverystatus": "Delivery",
    "divisionname": "Bilaspur",
    "regionname": "Raipur",
    "circlename": "Chattisgarh",
    "Taluk": "Patharia",
    "Districtname": "Bilaspur(CGH)",
    "statename": "CHATTISGARH"
  }
]
