[
  {
    "pincode": "495330",
    "officename": "Amora B.O",
    "officeType": "B.O",
    "Deliverystatus": "Delivery",
    "divisionname": "Bilaspur",
    "regionname": "Raipur",
    "circlename": "Chattisgarh",
    "Taluk": "Takhatpur",
    "Districtname": "Bilaspur(CGH)",
    "statename": "CHATTISGARH"
  },
  {
    "pincode": "495330",
    "officename": "Barela B.O",
    "officeType": "B.O",
    "Deliverystatus": "Delivery",
    "divisionname": "Bilaspur",
    "regionname": "Raipur",
    "circlename": "Chattisgarh",
    "Taluk": "Takhatpur",
    "Districtname": "Bilaspur(CGH)",
    "statename": "CHATTISGARH"
  },
  {
    "pincode": "495330",
    "officename": "Belsari B.O",
    "officeType": "B.O",
    "Deliverystatus": "Delivery",
    "divisionname": "Bilaspur",
    "regionname": "Raipur",
    "circlename": "Chattisgarh",
    "Taluk": "Takhatpur",
    "Districtname": "Bilaspur(CGH)",
    "statename": "CHATTISGARH"
  },
  {
    "pincode": "495330",
    "officename": "Birgaon B.O",
    "officeType": "B.O",
    "Deliverystatus": "Delivery",
    "divisionname": "Bilaspur",
    "regionname": "Raipur",
    "circlename": "Chattisgarh",
    "Taluk": "Takhatpur",
    "Districtname": "Bilaspur(CGH)",
    "statename": "CHATTISGARH"
  },
  {
    "pincode": "495330",
    "officename": "Dashrangpur B.O",
    "officeType": "B.O",
    "Deliverystatus": "Delivery",
    "divisionname": "Bilaspur",
    "regionname": "Raipur",
    "circlename": "Chattisgarh",
    "Taluk": "Takhatpur",
    "Districtname": "Bilaspur(CGH)",
    "statename": "CHATTISGARH"
  },
  {
    "pincode": "495330",
    "officename": "Dhandhan B.O",
    "officeType": "B.O",
    "Deliverystatus": "Delivery",
    "divisionname": "Bilaspur",
    "regionname": "Raipur",
    "circlename": "Chattisgarh",
    "Taluk": "Takhatpur",
    "Districtname": "Bilaspur(CGH)",
    "statename": "CHATTISGARH"
  },
  {
    "pincode": "495330",
    "officename": "Dhangaongosai B.O",
    "officeType": "B.O",
    "Deliverystatus": "Delivery",
    "divisionname": "Bilaspur",
    "regionname": "Raipur",
    "circlename": "Chattisgarh",
    "Taluk": "Takhatpur",
    "Districtname": "Bilaspur(CGH)",
    "statename": "CHATTISGARH"
  },
  {
    "pincode": "495330",
    "officename": "Jarhagaon B.O",
    "officeType": "B.O",
    "Deliverystatus": "Delivery",
    "divisionname": "Bilaspur",
    "regionname": "Raipur",
    "circlename": "Chattisgarh",
    "Taluk": "Takhatpur",
    "Districtname": "Bilaspur(CGH)",
    "statename": "CHATTISGARH"
  },
  {
    "pincode": "495330",
    "officename": "Jarondha B.O",
    "officeType": "B.O",
    "Deliverystatus": "Delivery",
    "divisionname": "Bilaspur",
    "regionname": "Raipur",
    "circlename": "Chattisgarh",
    "Taluk": "Takhatpur",
    "Districtname": "Bilaspur(CGH)",
    "statename": "CHATTISGARH"
  },
  {
    "pincode": "495330",
    "officename": "Matsagra B.O",
    "officeType": "B.O",
    "Deliverystatus": "Delivery",
    "divisionname": "Bilaspur",
    "regionname": "Raipur",
    "circlename": "Chattisgarh",
    "Taluk": "Takhatpur",
    "Districtname": "Bilaspur(CGH)",
    "statename": "CHATTISGARH"
  },
  {
    "pincode": "495330",
    "officename": "Padampur B.O",
    "officeType": "B.O",
    "Deliverystatus": "Delivery",
    "divisionname": "Bilaspur",
    "regionname": "Raipur",
    "circlename": "Chattisgarh",
    "Taluk": "Takhatpur",
    "Districtname": "Bilaspur(CGH)",
    "statename": "CHATTISGARH"
  },
  {
    "pincode": "495330",
    "officename": "Pharhada B.O",
    "officeType": "B.O",
    "Deliverystatus": "Delivery",
    "divisionname": "Bilaspur",
    "regionname": "Raipur",
    "circlename": "Chattisgarh",
    "Taluk": "Takhatpur",
    "Districtname": "Bilaspur(CGH)",
    "statename": "CHATTISGARH"
  },
  {
    "pincode": "495330",
    "officename": "Pura B.O",
    "officeType": "B.O",
    "Deliverystatus": "Delivery",
    "divisionname": "Bilaspur",
    "regionname": "Raipur",
    "circlename": "Chattisgarh",
    "Taluk": "Takhatpur",
    "Districtname": "Bilaspur(CGH)",
    "statename": "CHATTISGARH"
  },
  {
    "pincode": "495330",
    "officename": "Rajpur B.O",
    "officeType": "B.O",
    "Deliverystatus": "Delivery",
    "divisionname": "Bilaspur",
    "regionname": "Raipur",
    "circlename": "Chattisgarh",
    "Taluk": "Takhatpur",
    "Districtname": "Bilaspur(CGH)",
    "statename": "CHATTISGARH"
  },
  {
    "pincode": "495330",
    "officename": "Semarsal B.O",
    "officeType": "B.O",
    "Deliverystatus": "Delivery",
    "divisionname": "Bilaspur",
    "regionname": "Raipur",
    "circlename": "Chattisgarh",
    "Taluk": "Takhatpur",
    "Districtname": "Bilaspur(CGH)",
    "statename": "CHATTISGARH"
  },
  {
    "pincode": "495330",
    "officename": "Siltara B.O",
    "officeType": "B.O",
    "Deliverystatus": "Delivery",
    "divisionname": "Bilaspur",
    "regionname": "Raipur",
    "circlename": "Chattisgarh",
    "Taluk": "Takhatpur",
    "Districtname": "Bilaspur(CGH)",
    "statename": "CHATTISGARH"
  },
  {
    "pincode": "495330",
    "officename": "Takhatpur S.O",
    "officeType": "S.O",
    "Deliverystatus": "Delivery",
    "divisionname": "Bilaspur",
    "regionname": "Raipur",
    "circlename": "Chattisgarh",
    "Taluk": "Takhatpur",
    "Districtname": "Bilaspur(CGH)",
    "statename": "CHATTISGARH"
  }
]
