[
  {
    "pincode": "495446",
    "officename": "Birda B.O",
    "officeType": "B.O",
    "Deliverystatus": "Delivery",
    "divisionname": "Bilaspur",
    "regionname": "Raipur",
    "circlename": "Chattisgarh",
    "Taluk": "Hardibazar",
    "Districtname": "Korba",
    "statename": "CHATTISGARH"
  },
  {
    "pincode": "495446",
    "officename": "Boida B.O",
    "officeType": "B.O",
    "Deliverystatus": "Delivery",
    "divisionname": "Bilaspur",
    "regionname": "Raipur",
    "circlename": "Chattisgarh",
    "Taluk": "Hardibazar",
    "Districtname": "Korba",
    "statename": "CHATTISGARH"
  },
  {
    "pincode": "495446",
    "officename": "Chainpur B.O",
    "officeType": "B.O",
    "Deliverystatus": "Delivery",
    "divisionname": "Bilaspur",
    "regionname": "Raipur",
    "circlename": "Chattisgarh",
    "Taluk": "Hardibazar",
    "Districtname": "Korba",
    "statename": "CHATTISGARH"
  },
  {
    "pincode": "495446",
    "officename": "Hardi Bazar S.O",
    "officeType": "S.O",
    "Deliverystatus": "Delivery",
    "divisionname": "Bilaspur",
    "regionname": "Raipur",
    "circlename": "Chattisgarh",
    "Taluk": "Korba",
    "Districtname": "Korba",
    "statename": "CHATTISGARH"
  },
  {
    "pincode": "495446",
    "officename": "Jevra B.O",
    "officeType": "B.O",
    "Deliverystatus": "Delivery",
    "divisionname": "Bilaspur",
    "regionname": "Raipur",
    "circlename": "Chattisgarh",
    "Taluk": "Hardibazar",
    "Districtname": "Korba",
    "statename": "CHATTISGARH"
  },
  {
    "pincode": "495446",
    "officename": "Kanki B.O",
    "officeType": "B.O",
    "Deliverystatus": "Delivery",
    "divisionname": "Bilaspur",
    "regionname": "Raipur",
    "circlename": "Chattisgarh",
    "Taluk": "Hardibazar",
    "Districtname": "Korba",
    "statename": "CHATTISGARH"
  },
  {
    "pincode": "495446",
    "officename": "Khamharia B.O",
    "officeType": "B.O",
    "Deliverystatus": "Delivery",
    "divisionname": "Bilaspur",
    "regionname": "Raipur",
    "circlename": "Chattisgarh",
    "Taluk": "Hardibazar",
    "Districtname": "Korba",
    "statename": "CHATTISGARH"
  },
  {
    "pincode": "495446",
    "officename": "Korbi B.O",
    "officeType": "B.O",
    "Deliverystatus": "Delivery",
    "divisionname": "Bilaspur",
    "regionname": "Raipur",
    "circlename": "Chattisgarh",
    "Taluk": "Hardibazar",
    "Districtname": "Korba",
    "statename": "CHATTISGARH"
  },
  {
    "pincode": "495446",
    "officename": "Mudhali B.O",
    "officeType": "B.O",
    "Deliverystatus": "Delivery",
    "divisionname": "Bilaspur",
    "regionname": "Raipur",
    "circlename": "Chattisgarh",
    "Taluk": "Hardibazar",
    "Districtname": "Korba",
    "statename": "CHATTISGARH"
  },
  {
    "pincode": "495446",
    "officename": "Murli B.O",
    "officeType": "B.O",
    "Deliverystatus": "Delivery",
    "divisionname": "Bilaspur",
    "regionname": "Raipur",
    "circlename": "Chattisgarh",
    "Taluk": "Hardibazar",
    "Districtname": "Korba",
    "statename": "CHATTISGARH"
  },
  {
    "pincode": "495446",
    "officename": "Pantora B.O",
    "officeType": "B.O",
    "Deliverystatus": "Delivery",
    "divisionname": "Bilaspur",
    "regionname": "Raipur",
    "circlename": "Chattisgarh",
    "Taluk": "Hardibazar",
    "Districtname": "Korba",
    "statename": "CHATTISGARH"
  },
  {
    "pincode": "495446",
    "officename": "Tarod B.O",
    "officeType": "B.O",
    "Deliverystatus": "Delivery",
    "divisionname": "Bilaspur",
    "regionname": "Raipur",
    "circlename": "Chattisgarh",
    "Taluk": "Hardibazar",
    "Districtname": "Korba",
    "statename": "CHATTISGARH"
  },
  {
    "pincode": "495446",
    "officename": "Utarda B.O",
    "officeType": "B.O",
    "Deliverystatus": "Delivery",
    "divisionname": "Bilaspur",
    "regionname": "Raipur",
    "circlename": "Chattisgarh",
    "Taluk": "Hardibazar",
    "Districtname": "Korba",
    "statename": "CHATTISGARH"
  }
]
