[
  {
    "pincode": "495449",
    "officename": "Baksahi B.O",
    "officeType": "B.O",
    "Deliverystatus": "Delivery",
    "divisionname": "Bilaspur",
    "regionname": "Raipur",
    "circlename": "Chattisgarh",
    "Taluk": "Pali",
    "Districtname": "Korba",
    "statename": "CHATTISGARH"
  },
  {
    "pincode": "495449",
    "officename": "Batra B.O",
    "officeType": "B.O",
    "Deliverystatus": "Delivery",
    "divisionname": "Bilaspur",
    "regionname": "Raipur",
    "circlename": "Chattisgarh",
    "Taluk": "Pali",
    "Districtname": "Korba",
    "statename": "CHATTISGARH"
  },
  {
    "pincode": "495449",
    "officename": "Beltara B.O",
    "officeType": "B.O",
    "Deliverystatus": "Delivery",
    "divisionname": "Bilaspur",
    "regionname": "Raipur",
    "circlename": "Chattisgarh",
    "Taluk": "Pali",
    "Districtname": "Korba",
    "statename": "CHATTISGARH"
  },
  {
    "pincode": "495449",
    "officename": "Chaitma B.O",
    "officeType": "B.O",
    "Deliverystatus": "Delivery",
    "divisionname": "Bilaspur",
    "regionname": "Raipur",
    "circlename": "Chattisgarh",
    "Taluk": "Pali",
    "Districtname": "Korba",
    "statename": "CHATTISGARH"
  },
  {
    "pincode": "495449",
    "officename": "Jali B.O",
    "officeType": "B.O",
    "Deliverystatus": "Delivery",
    "divisionname": "Bilaspur",
    "regionname": "Raipur",
    "circlename": "Chattisgarh",
    "Taluk": "Pali",
    "Districtname": "Korba",
    "statename": "CHATTISGARH"
  },
  {
    "pincode": "495449",
    "officename": "Kapot B.O",
    "officeType": "B.O",
    "Deliverystatus": "Delivery",
    "divisionname": "Bilaspur",
    "regionname": "Raipur",
    "circlename": "Chattisgarh",
    "Taluk": "Pali",
    "Districtname": "Korba",
    "statename": "CHATTISGARH"
  },
  {
    "pincode": "495449",
    "officename": "Lafa B.O",
    "officeType": "B.O",
    "Deliverystatus": "Delivery",
    "divisionname": "Bilaspur",
    "regionname": "Raipur",
    "circlename": "Chattisgarh",
    "Taluk": "Pali",
    "Districtname": "Korba",
    "statename": "CHATTISGARH"
  },
  {
    "pincode": "495449",
    "officename": "Nonbirra B.O",
    "officeType": "B.O",
    "Deliverystatus": "Delivery",
    "divisionname": "Bilaspur",
    "regionname": "Raipur",
    "circlename": "Chattisgarh",
    "Taluk": "Pali",
    "Districtname": "Korba",
    "statename": "CHATTISGARH"
  },
  {
    "pincode": "495449",
    "officename": "Nunera B.O",
    "officeType": "B.O",
    "Deliverystatus": "Delivery",
    "divisionname": "Bilaspur",
    "regionname": "Raipur",
    "circlename": "Chattisgarh",
    "Taluk": "Pali",
    "Districtname": "Korba",
    "statename": "CHATTISGARH"
  },
  {
    "pincode": "495449",
    "officename": "Pali S.O (Korba)",
    "officeType": "S.O",
    "Deliverystatus": "Delivery",
    "divisionname": "Bilaspur",
    "regionname": "Raipur",
    "circlename": "Chattisgarh",
    "Taluk": "Katghora",
    "Districtname": "Korba",
    "statename": "CHATTISGARH"
  },
  {
    "pincode": "495449",
    "officename": "Patpara B.O",
    "officeType": "B.O",
    "Deliverystatus": "Delivery",
    "divisionname": "Bilaspur",
    "regionname": "Raipur",
    "circlename": "Chattisgarh",
    "Taluk": "Pali",
    "Districtname": "Korba",
    "statename": "CHATTISGARH"
  },
  {
    "pincode": "495449",
    "officename": "Pondilafa B.O",
    "officeType": "B.O",
    "Deliverystatus": "Delivery",
    "divisionname": "Bilaspur",
    "regionname": "Raipur",
    "circlename": "Chattisgarh",
    "Taluk": "Pali",
    "Districtname": "Korba",
    "statename": "CHATTISGARH"
  },
  {
    "pincode": "495449",
    "officename": "Ranjana B.O",
    "officeType": "B.O",
    "Deliverystatus": "Delivery",
    "divisionname": "Bilaspur",
    "regionname": "Raipur",
    "circlename": "Chattisgarh",
    "Taluk": "Pali",
    "Districtname": "Korba",
    "statename": "CHATTISGARH"
  },
  {
    "pincode": "495449",
    "officename": "Shish B.O",
    "officeType": "B.O",
    "Deliverystatus": "Delivery",
    "divisionname": "Bilaspur",
    "regionname": "Raipur",
    "circlename": "Chattisgarh",
    "Taluk": "Pali",
    "Districtname": "Korba",
    "statename": "CHATTISGARH"
  },
  {
    "pincode": "495449",
    "officename": "Tiwarta B.O",
    "officeType": "B.O",
    "Deliverystatus": "Delivery",
    "divisionname": "Bilaspur",
    "regionname": "Raipur",
    "circlename": "Chattisgarh",
    "Taluk": "Pali",
    "Districtname": "Korba",
    "statename": "CHATTISGARH"
  }
]
