[
  {
    "pincode": "495551",
    "officename": "Bharari B.O",
    "officeType": "B.O",
    "Deliverystatus": "Delivery",
    "divisionname": "Bilaspur",
    "regionname": "Raipur",
    "circlename": "Chattisgarh",
    "Taluk": "Masturi",
    "Districtname": "Bilaspur(CGH)",
    "statename": "CHATTISGARH"
  },
  {
    "pincode": "495551",
    "officename": "Bhatchaura B.O",
    "officeType": "B.O",
    "Deliverystatus": "Delivery",
    "divisionname": "Bilaspur",
    "regionname": "Raipur",
    "circlename": "Chattisgarh",
    "Taluk": "Masturi",
    "Districtname": "Bilaspur(CGH)",
    "statename": "CHATTISGARH"
  },
  {
    "pincode": "495551",
    "officename": "Darrighat B.O",
    "officeType": "B.O",
    "Deliverystatus": "Delivery",
    "divisionname": "Bilaspur",
    "regionname": "Raipur",
    "circlename": "Chattisgarh",
    "Taluk": "Masturi",
    "Districtname": "Bilaspur(CGH)",
    "statename": "CHATTISGARH"
  },
  {
    "pincode": "495551",
    "officename": "Deogaon B.O",
    "officeType": "B.O",
    "Deliverystatus": "Delivery",
    "divisionname": "Bilaspur",
    "regionname": "Raipur",
    "circlename": "Chattisgarh",
    "Taluk": "Masturi",
    "Districtname": "Bilaspur(CGH)",
    "statename": "CHATTISGARH"
  },
  {
    "pincode": "495551",
    "officename": "Gondadih B.O",
    "officeType": "B.O",
    "Deliverystatus": "Delivery",
    "divisionname": "Bilaspur",
    "regionname": "Raipur",
    "circlename": "Chattisgarh",
    "Taluk": "Masturi",
    "Districtname": "Bilaspur(CGH)",
    "statename": "CHATTISGARH"
  },
  {
    "pincode": "495551",
    "officename": "Jondhra B.O",
    "officeType": "B.O",
    "Deliverystatus": "Delivery",
    "divisionname": "Bilaspur",
    "regionname": "Raipur",
    "circlename": "Chattisgarh",
    "Taluk": "Masturi",
    "Districtname": "Bilaspur(CGH)",
    "statename": "CHATTISGARH"
  },
  {
    "pincode": "495551",
    "officename": "Koni B.O",
    "officeType": "B.O",
    "Deliverystatus": "Delivery",
    "divisionname": "Bilaspur",
    "regionname": "Raipur",
    "circlename": "Chattisgarh",
    "Taluk": "Masturi",
    "Districtname": "Bilaspur(CGH)",
    "statename": "CHATTISGARH"
  },
  {
    "pincode": "495551",
    "officename": "Loharsison B.O",
    "officeType": "B.O",
    "Deliverystatus": "Delivery",
    "divisionname": "Bilaspur",
    "regionname": "Raipur",
    "circlename": "Chattisgarh",
    "Taluk": "Masturi",
    "Districtname": "Bilaspur(CGH)",
    "statename": "CHATTISGARH"
  },
  {
    "pincode": "495551",
    "officename": "Malhar B.O",
    "officeType": "B.O",
    "Deliverystatus": "Delivery",
    "divisionname": "Bilaspur",
    "regionname": "Raipur",
    "circlename": "Chattisgarh",
    "Taluk": "Masturi",
    "Districtname": "Bilaspur(CGH)",
    "statename": "CHATTISGARH"
  },
  {
    "pincode": "495551",
    "officename": "Manikchauri B.O",
    "officeType": "B.O",
    "Deliverystatus": "Delivery",
    "divisionname": "Bilaspur",
    "regionname": "Raipur",
    "circlename": "Chattisgarh",
    "Taluk": "Masturi",
    "Districtname": "Bilaspur(CGH)",
    "statename": "CHATTISGARH"
  },
  {
    "pincode": "495551",
    "officename": "Masturi S.O",
    "officeType": "S.O",
    "Deliverystatus": "Delivery",
    "divisionname": "Bilaspur",
    "regionname": "Raipur",
    "circlename": "Chattisgarh",
    "Taluk": "Masturi",
    "Districtname": "Bilaspur(CGH)",
    "statename": "CHATTISGARH"
  },
  {
    "pincode": "495551",
    "officename": "Okhar B.O",
    "officeType": "B.O",
    "Deliverystatus": "Delivery",
    "divisionname": "Bilaspur",
    "regionname": "Raipur",
    "circlename": "Chattisgarh",
    "Taluk": "Masturi",
    "Districtname": "Bilaspur(CGH)",
    "statename": "CHATTISGARH"
  },
  {
    "pincode": "495551",
    "officename": "Pachpedi B.O",
    "officeType": "B.O",
    "Deliverystatus": "Delivery",
    "divisionname": "Bilaspur",
    "regionname": "Raipur",
    "circlename": "Chattisgarh",
    "Taluk": "Masturi",
    "Districtname": "Bilaspur(CGH)",
    "statename": "CHATTISGARH"
  },
  {
    "pincode": "495551",
    "officename": "Risda B.O",
    "officeType": "B.O",
    "Deliverystatus": "Delivery",
    "divisionname": "Bilaspur",
    "regionname": "Raipur",
    "circlename": "Chattisgarh",
    "Taluk": "Masturi",
    "Districtname": "Bilaspur(CGH)",
    "statename": "CHATTISGARH"
  },
  {
    "pincode": "495551",
    "officename": "Son B.O",
    "officeType": "B.O",
    "Deliverystatus": "Delivery",
    "divisionname": "Bilaspur",
    "regionname": "Raipur",
    "circlename": "Chattisgarh",
    "Taluk": "Masturi",
    "Districtname": "Bilaspur(CGH)",
    "statename": "CHATTISGARH"
  },
  {
    "pincode": "495551",
    "officename": "Sukulkari B.O",
    "officeType": "B.O",
    "Deliverystatus": "Delivery",
    "divisionname": "Bilaspur",
    "regionname": "Raipur",
    "circlename": "Chattisgarh",
    "Taluk": "Masturi",
    "Districtname": "Bilaspur(CGH)",
    "statename": "CHATTISGARH"
  },
  {
    "pincode": "495551",
    "officename": "Tikari B.O",
    "officeType": "B.O",
    "Deliverystatus": "Delivery",
    "divisionname": "Bilaspur",
    "regionname": "Raipur",
    "circlename": "Chattisgarh",
    "Taluk": "Masturi",
    "Districtname": "Bilaspur(CGH)",
    "statename": "CHATTISGARH"
  }
]
