[
  {
    "pincode": "495552",
    "officename": "Akaltara S.O",
    "officeType": "S.O",
    "Deliverystatus": "Delivery",
    "divisionname": "Bilaspur",
    "regionname": "Raipur",
    "circlename": "Chattisgarh",
    "Taluk": "",
    "Districtname": "Bilaspur(CGH)",
    "statename": "CHATTISGARH"
  },
  {
    "pincode": "495552",
    "officename": "Arjuni B.O",
    "officeType": "B.O",
    "Deliverystatus": "Delivery",
    "divisionname": "Bilaspur",
    "regionname": "Raipur",
    "circlename": "Chattisgarh",
    "Taluk": "Dabhara",
    "Districtname": "Janjgir-champa",
    "statename": "CHATTISGARH"
  },
  {
    "pincode": "495552",
    "officename": "Bargawan B.O",
    "officeType": "B.O",
    "Deliverystatus": "Delivery",
    "divisionname": "Bilaspur",
    "regionname": "Raipur",
    "circlename": "Chattisgarh",
    "Taluk": "Akaltara",
    "Districtname": "Janjgir-champa",
    "statename": "CHATTISGARH"
  },
  {
    "pincode": "495552",
    "officename": "Birkoni B.O",
    "officeType": "B.O",
    "Deliverystatus": "Delivery",
    "divisionname": "Bilaspur",
    "regionname": "Raipur",
    "circlename": "Chattisgarh",
    "Taluk": "Akaltara",
    "Districtname": "Janjgir-champa",
    "statename": "CHATTISGARH"
  },
  {
    "pincode": "495552",
    "officename": "Changori B.O",
    "officeType": "B.O",
    "Deliverystatus": "Delivery",
    "divisionname": "Bilaspur",
    "regionname": "Raipur",
    "circlename": "Chattisgarh",
    "Taluk": "Akaltara",
    "Districtname": "Janjgir-champa",
    "statename": "CHATTISGARH"
  },
  {
    "pincode": "495552",
    "officename": "Katnai B.O",
    "officeType": "B.O",
    "Deliverystatus": "Delivery",
    "divisionname": "Bilaspur",
    "regionname": "Raipur",
    "circlename": "Chattisgarh",
    "Taluk": "Akaltara",
    "Districtname": "Janjgir-champa",
    "statename": "CHATTISGARH"
  },
  {
    "pincode": "495552",
    "officename": "Kotmisonar B.O",
    "officeType": "B.O",
    "Deliverystatus": "Delivery",
    "divisionname": "Bilaspur",
    "regionname": "Raipur",
    "circlename": "Chattisgarh",
    "Taluk": "Akaltara",
    "Districtname": "Janjgir-champa",
    "statename": "CHATTISGARH"
  },
  {
    "pincode": "495552",
    "officename": "Pandania B.O",
    "officeType": "B.O",
    "Deliverystatus": "Delivery",
    "divisionname": "Bilaspur",
    "regionname": "Raipur",
    "circlename": "Chattisgarh",
    "Taluk": "Akaltara",
    "Districtname": "Janjgir-champa",
    "statename": "CHATTISGARH"
  },
  {
    "pincode": "495552",
    "officename": "Pondidalha B.O",
    "officeType": "B.O",
    "Deliverystatus": "Delivery",
    "divisionname": "Bilaspur",
    "regionname": "Raipur",
    "circlename": "Chattisgarh",
    "Taluk": "Akaltara",
    "Districtname": "Janjgir-champa",
    "statename": "CHATTISGARH"
  },
  {
    "pincode": "495552",
    "officename": "Sankar B.O",
    "officeType": "B.O",
    "Deliverystatus": "Delivery",
    "divisionname": "Bilaspur",
    "regionname": "Raipur",
    "circlename": "Chattisgarh",
    "Taluk": "Akaltara",
    "Districtname": "Janjgir-champa",
    "statename": "CHATTISGARH"
  }
]
