[
  {
    "pincode": "495557",
    "officename": "Bhathali B.O",
    "officeType": "B.O",
    "Deliverystatus": "Delivery",
    "divisionname": "Bilaspur",
    "regionname": "Raipur",
    "circlename": "Chattisgarh",
    "Taluk": "Seorinarayan",
    "Districtname": "Janjgir-champa",
    "statename": "CHATTISGARH"
  },
  {
    "pincode": "495557",
    "officename": "Kansda B.O",
    "officeType": "B.O",
    "Deliverystatus": "Delivery",
    "divisionname": "Bilaspur",
    "regionname": "Raipur",
    "circlename": "Chattisgarh",
    "Taluk": "Seorinarayan",
    "Districtname": "Janjgir-champa",
    "statename": "CHATTISGARH"
  },
  {
    "pincode": "495557",
    "officename": "Kataud B.O",
    "officeType": "B.O",
    "Deliverystatus": "Delivery",
    "divisionname": "Bilaspur",
    "regionname": "Raipur",
    "circlename": "Chattisgarh",
    "Taluk": "Seorinarayan",
    "Districtname": "Janjgir-champa",
    "statename": "CHATTISGARH"
  },
  {
    "pincode": "495557",
    "officename": "Kera B.O",
    "officeType": "B.O",
    "Deliverystatus": "Delivery",
    "divisionname": "Bilaspur",
    "regionname": "Raipur",
    "circlename": "Chattisgarh",
    "Taluk": "Seorinarayan",
    "Districtname": "Janjgir-champa",
    "statename": "CHATTISGARH"
  },
  {
    "pincode": "495557",
    "officename": "Kirit B.O",
    "officeType": "B.O",
    "Deliverystatus": "Delivery",
    "divisionname": "Bilaspur",
    "regionname": "Raipur",
    "circlename": "Chattisgarh",
    "Taluk": "Seorinarayan",
    "Districtname": "Janjgir-champa",
    "statename": "CHATTISGARH"
  },
  {
    "pincode": "495557",
    "officename": "Misda B.O",
    "officeType": "B.O",
    "Deliverystatus": "Delivery",
    "divisionname": "Bilaspur",
    "regionname": "Raipur",
    "circlename": "Chattisgarh",
    "Taluk": "Seorinarayan",
    "Districtname": "Janjgir-champa",
    "statename": "CHATTISGARH"
  },
  {
    "pincode": "495557",
    "officename": "Nawagarh B.O",
    "officeType": "B.O",
    "Deliverystatus": "Delivery",
    "divisionname": "Bilaspur",
    "regionname": "Raipur",
    "circlename": "Chattisgarh",
    "Taluk": "Seorinarayan",
    "Districtname": "Janjgir-champa",
    "statename": "CHATTISGARH"
  },
  {
    "pincode": "495557",
    "officename": "Seorinarayan S.O",
    "officeType": "S.O",
    "Deliverystatus": "Delivery",
    "divisionname": "Bilaspur",
    "regionname": "Raipur",
    "circlename": "Chattisgarh",
    "Taluk": "Seorinarayan",
    "Districtname": "Janjgir-champa",
    "statename": "CHATTISGARH"
  },
  {
    "pincode": "495557",
    "officename": "Tusma B.O",
    "officeType": "B.O",
    "Deliverystatus": "Delivery",
    "divisionname": "Bilaspur",
    "regionname": "Raipur",
    "circlename": "Chattisgarh",
    "Taluk": "Seorinarayan",
    "Districtname": "Janjgir-champa",
    "statename": "CHATTISGARH"
  }
]
