[
  {
    "pincode": "495671",
    "officename": "Basantpur B.O",
    "officeType": "B.O",
    "Deliverystatus": "Delivery",
    "divisionname": "Bilaspur",
    "regionname": "Raipur",
    "circlename": "Chattisgarh",
    "Taluk": "Champa",
    "Districtname": "Janjgir-champa",
    "statename": "CHATTISGARH"
  },
  {
    "pincode": "495671",
    "officename": "Birgahni B.O",
    "officeType": "B.O",
    "Deliverystatus": "Delivery",
    "divisionname": "Bilaspur",
    "regionname": "Raipur",
    "circlename": "Chattisgarh",
    "Taluk": "Champa",
    "Districtname": "Janjgir-champa",
    "statename": "CHATTISGARH"
  },
  {
    "pincode": "495671",
    "officename": "Champa R.S. S.O",
    "officeType": "S.O",
    "Deliverystatus": "Non-Delivery",
    "divisionname": "Bilaspur",
    "regionname": "Raipur",
    "circlename": "Chattisgarh",
    "Taluk": "Champa",
    "Districtname": "Janjgir-champa",
    "statename": "CHATTISGARH"
  },
  {
    "pincode": "495671",
    "officename": "Champa S.O",
    "officeType": "S.O",
    "Deliverystatus": "Delivery",
    "divisionname": "Bilaspur",
    "regionname": "Raipur",
    "circlename": "Chattisgarh",
    "Taluk": "Champa",
    "Districtname": "Janjgir-champa",
    "statename": "CHATTISGARH"
  },
  {
    "pincode": "495671",
    "officename": "Chicholi B.O",
    "officeType": "B.O",
    "Deliverystatus": "Delivery",
    "divisionname": "Bilaspur",
    "regionname": "Raipur",
    "circlename": "Chattisgarh",
    "Taluk": "Champa",
    "Districtname": "Janjgir-champa",
    "statename": "CHATTISGARH"
  },
  {
    "pincode": "495671",
    "officename": "Faraswani B.O",
    "officeType": "B.O",
    "Deliverystatus": "Delivery",
    "divisionname": "Bilaspur",
    "regionname": "Raipur",
    "circlename": "Chattisgarh",
    "Taluk": "Champa",
    "Districtname": "Janjgir-champa",
    "statename": "CHATTISGARH"
  },
  {
    "pincode": "495671",
    "officename": "Gaud B.O",
    "officeType": "B.O",
    "Deliverystatus": "Delivery",
    "divisionname": "Bilaspur",
    "regionname": "Raipur",
    "circlename": "Chattisgarh",
    "Taluk": "Champa",
    "Districtname": "Janjgir-champa",
    "statename": "CHATTISGARH"
  },
  {
    "pincode": "495671",
    "officename": "Hathnewra B.O",
    "officeType": "B.O",
    "Deliverystatus": "Delivery",
    "divisionname": "Bilaspur",
    "regionname": "Raipur",
    "circlename": "Chattisgarh",
    "Taluk": "Champa",
    "Districtname": "Janjgir-champa",
    "statename": "CHATTISGARH"
  },
  {
    "pincode": "495671",
    "officename": "Karainara B.O",
    "officeType": "B.O",
    "Deliverystatus": "Delivery",
    "divisionname": "Bilaspur",
    "regionname": "Raipur",
    "circlename": "Chattisgarh",
    "Taluk": "Champa",
    "Districtname": "Janjgir-champa",
    "statename": "CHATTISGARH"
  },
  {
    "pincode": "495671",
    "officename": "Katrenagar B.O",
    "officeType": "B.O",
    "Deliverystatus": "Delivery",
    "divisionname": "Bilaspur",
    "regionname": "Raipur",
    "circlename": "Chattisgarh",
    "Taluk": "Champa",
    "Districtname": "Janjgir-champa",
    "statename": "CHATTISGARH"
  },
  {
    "pincode": "495671",
    "officename": "Kosmanda B.O",
    "officeType": "B.O",
    "Deliverystatus": "Delivery",
    "divisionname": "Bilaspur",
    "regionname": "Raipur",
    "circlename": "Chattisgarh",
    "Taluk": "Champa",
    "Districtname": "Janjgir-champa",
    "statename": "CHATTISGARH"
  },
  {
    "pincode": "495671",
    "officename": "Kothari B.O",
    "officeType": "B.O",
    "Deliverystatus": "Delivery",
    "divisionname": "Bilaspur",
    "regionname": "Raipur",
    "circlename": "Chattisgarh",
    "Taluk": "Champa",
    "Districtname": "Janjgir-champa",
    "statename": "CHATTISGARH"
  },
  {
    "pincode": "495671",
    "officename": "Kurda B.O",
    "officeType": "B.O",
    "Deliverystatus": "Delivery",
    "divisionname": "Bilaspur",
    "regionname": "Raipur",
    "circlename": "Chattisgarh",
    "Taluk": "Champa",
    "Districtname": "Janjgir-champa",
    "statename": "CHATTISGARH"
  },
  {
    "pincode": "495671",
    "officename": "Mahuda B.O",
    "officeType": "B.O",
    "Deliverystatus": "Delivery",
    "divisionname": "Bilaspur",
    "regionname": "Raipur",
    "circlename": "Chattisgarh",
    "Taluk": "Champa",
    "Districtname": "Janjgir-champa",
    "statename": "CHATTISGARH"
  },
  {
    "pincode": "495671",
    "officename": "Pathiapali B.O",
    "officeType": "B.O",
    "Deliverystatus": "Delivery",
    "divisionname": "Bilaspur",
    "regionname": "Raipur",
    "circlename": "Chattisgarh",
    "Taluk": "Champa",
    "Districtname": "Janjgir-champa",
    "statename": "CHATTISGARH"
  },
  {
    "pincode": "495671",
    "officename": "Pisaud B.O",
    "officeType": "B.O",
    "Deliverystatus": "Delivery",
    "divisionname": "Bilaspur",
    "regionname": "Raipur",
    "circlename": "Chattisgarh",
    "Taluk": "Champa",
    "Districtname": "Janjgir-champa",
    "statename": "CHATTISGARH"
  },
  {
    "pincode": "495671",
    "officename": "Pithampur B.O",
    "officeType": "B.O",
    "Deliverystatus": "Delivery",
    "divisionname": "Bilaspur",
    "regionname": "Raipur",
    "circlename": "Chattisgarh",
    "Taluk": "Champa",
    "Districtname": "Janjgir-champa",
    "statename": "CHATTISGARH"
  },
  {
    "pincode": "495671",
    "officename": "Seoni B.O",
    "officeType": "B.O",
    "Deliverystatus": "Delivery",
    "divisionname": "Bilaspur",
    "regionname": "Raipur",
    "circlename": "Chattisgarh",
    "Taluk": "Champa",
    "Districtname": "Janjgir-champa",
    "statename": "CHATTISGARH"
  },
  {
    "pincode": "495671",
    "officename": "Sohagpur B.O",
    "officeType": "B.O",
    "Deliverystatus": "Delivery",
    "divisionname": "Bilaspur",
    "regionname": "Raipur",
    "circlename": "Chattisgarh",
    "Taluk": "Champa",
    "Districtname": "Janjgir-champa",
    "statename": "CHATTISGARH"
  },
  {
    "pincode": "495671",
    "officename": "Sukhrikala B.O",
    "officeType": "B.O",
    "Deliverystatus": "Delivery",
    "divisionname": "Bilaspur",
    "regionname": "Raipur",
    "circlename": "Chattisgarh",
    "Taluk": "Champa",
    "Districtname": "Janjgir-champa",
    "statename": "CHATTISGARH"
  },
  {
    "pincode": "495671",
    "officename": "Umreli B.O",
    "officeType": "B.O",
    "Deliverystatus": "Delivery",
    "divisionname": "Bilaspur",
    "regionname": "Raipur",
    "circlename": "Chattisgarh",
    "Taluk": "Champa",
    "Districtname": "Janjgir-champa",
    "statename": "CHATTISGARH"
  }
]
