[
  {
    "pincode": "495692",
    "officename": "Akoljamora B.O",
    "officeType": "B.O",
    "Deliverystatus": "Delivery",
    "divisionname": "Bilaspur",
    "regionname": "Raipur",
    "circlename": "Chattisgarh",
    "Taluk": "Chandrapur",
    "Districtname": "Janjgir-champa",
    "statename": "CHATTISGARH"
  },
  {
    "pincode": "495692",
    "officename": "Amaldiha B.O",
    "officeType": "B.O",
    "Deliverystatus": "Delivery",
    "divisionname": "Bilaspur",
    "regionname": "Raipur",
    "circlename": "Chattisgarh",
    "Taluk": "Chandrapur",
    "Districtname": "Janjgir-champa",
    "statename": "CHATTISGARH"
  },
  {
    "pincode": "495692",
    "officename": "Baghod B.O",
    "officeType": "B.O",
    "Deliverystatus": "Delivery",
    "divisionname": "Bilaspur",
    "regionname": "Raipur",
    "circlename": "Chattisgarh",
    "Taluk": "",
    "Districtname": "Janjgir-champa",
    "statename": "CHATTISGARH"
  },
  {
    "pincode": "495692",
    "officename": "Balpur B.O",
    "officeType": "B.O",
    "Deliverystatus": "Delivery",
    "divisionname": "Bilaspur",
    "regionname": "Raipur",
    "circlename": "Chattisgarh",
    "Taluk": "",
    "Districtname": "Janjgir-champa",
    "statename": "CHATTISGARH"
  },
  {
    "pincode": "495692",
    "officename": "Barapipar B.O",
    "officeType": "B.O",
    "Deliverystatus": "Delivery",
    "divisionname": "Bilaspur",
    "regionname": "Raipur",
    "circlename": "Chattisgarh",
    "Taluk": "Chandrapur",
    "Districtname": "Janjgir-champa",
    "statename": "CHATTISGARH"
  },
  {
    "pincode": "495692",
    "officename": "Chandrapur S.O (Janjgir-champa)",
    "officeType": "S.O",
    "Deliverystatus": "Delivery",
    "divisionname": "Bilaspur",
    "regionname": "Raipur",
    "circlename": "Chattisgarh",
    "Taluk": "Dabhra",
    "Districtname": "Janjgir-champa",
    "statename": "CHATTISGARH"
  },
  {
    "pincode": "495692",
    "officename": "Dhurkot B.O",
    "officeType": "B.O",
    "Deliverystatus": "Delivery",
    "divisionname": "Bilaspur",
    "regionname": "Raipur",
    "circlename": "Chattisgarh",
    "Taluk": "Chandrapur",
    "Districtname": "Janjgir-champa",
    "statename": "CHATTISGARH"
  },
  {
    "pincode": "495692",
    "officename": "Girgira B.O",
    "officeType": "B.O",
    "Deliverystatus": "Delivery",
    "divisionname": "Bilaspur",
    "regionname": "Raipur",
    "circlename": "Chattisgarh",
    "Taluk": "Chandrapur",
    "Districtname": "Janjgir-champa",
    "statename": "CHATTISGARH"
  },
  {
    "pincode": "495692",
    "officename": "Gopalpur B.O",
    "officeType": "B.O",
    "Deliverystatus": "Delivery",
    "divisionname": "Bilaspur",
    "regionname": "Raipur",
    "circlename": "Chattisgarh",
    "Taluk": "Chandrapur",
    "Districtname": "Janjgir-champa",
    "statename": "CHATTISGARH"
  },
  {
    "pincode": "495692",
    "officename": "Jawali B.O",
    "officeType": "B.O",
    "Deliverystatus": "Delivery",
    "divisionname": "Bilaspur",
    "regionname": "Raipur",
    "circlename": "Chattisgarh",
    "Taluk": "Chandrapur",
    "Districtname": "Janjgir-champa",
    "statename": "CHATTISGARH"
  },
  {
    "pincode": "495692",
    "officename": "Kirari B.O",
    "officeType": "B.O",
    "Deliverystatus": "Delivery",
    "divisionname": "Bilaspur",
    "regionname": "Raipur",
    "circlename": "Chattisgarh",
    "Taluk": "Chandrapur",
    "Districtname": "Janjgir-champa",
    "statename": "CHATTISGARH"
  },
  {
    "pincode": "495692",
    "officename": "Kotmi B.O",
    "officeType": "B.O",
    "Deliverystatus": "Delivery",
    "divisionname": "Bilaspur",
    "regionname": "Raipur",
    "circlename": "Chattisgarh",
    "Taluk": "Chandrapur",
    "Districtname": "Janjgir-champa",
    "statename": "CHATTISGARH"
  },
  {
    "pincode": "495692",
    "officename": "Latesara B.O",
    "officeType": "B.O",
    "Deliverystatus": "Delivery",
    "divisionname": "Bilaspur",
    "regionname": "Raipur",
    "circlename": "Chattisgarh",
    "Taluk": "Chandrapur",
    "Districtname": "Janjgir-champa",
    "statename": "CHATTISGARH"
  },
  {
    "pincode": "495692",
    "officename": "Madwa B.O",
    "officeType": "B.O",
    "Deliverystatus": "Delivery",
    "divisionname": "Bilaspur",
    "regionname": "Raipur",
    "circlename": "Chattisgarh",
    "Taluk": "Chandrapur",
    "Districtname": "Janjgir-champa",
    "statename": "CHATTISGARH"
  },
  {
    "pincode": "495692",
    "officename": "Pendarwa B.O",
    "officeType": "B.O",
    "Deliverystatus": "Delivery",
    "divisionname": "Bilaspur",
    "regionname": "Raipur",
    "circlename": "Chattisgarh",
    "Taluk": "Chandrapur",
    "Districtname": "Janjgir-champa",
    "statename": "CHATTISGARH"
  },
  {
    "pincode": "495692",
    "officename": "Reda B.O",
    "officeType": "B.O",
    "Deliverystatus": "Delivery",
    "divisionname": "Bilaspur",
    "regionname": "Raipur",
    "circlename": "Chattisgarh",
    "Taluk": "Chandrapur",
    "Districtname": "Janjgir-champa",
    "statename": "CHATTISGARH"
  },
  {
    "pincode": "495692",
    "officename": "Salhe B.O",
    "officeType": "B.O",
    "Deliverystatus": "Delivery",
    "divisionname": "Bilaspur",
    "regionname": "Raipur",
    "circlename": "Chattisgarh",
    "Taluk": "Chandrapur",
    "Districtname": "Janjgir-champa",
    "statename": "CHATTISGARH"
  },
  {
    "pincode": "495692",
    "officename": "Sapos B.O",
    "officeType": "B.O",
    "Deliverystatus": "Delivery",
    "divisionname": "Bilaspur",
    "regionname": "Raipur",
    "circlename": "Chattisgarh",
    "Taluk": "Chandrapur",
    "Districtname": "Janjgir-champa",
    "statename": "CHATTISGARH"
  }
]
