[
  {
    "pincode": "495674",
    "officename": "Barpali (J) B.O",
    "officeType": "B.O",
    "Deliverystatus": "Delivery",
    "divisionname": "Bilaspur",
    "regionname": "Raipur",
    "circlename": "Chattisgarh",
    "Taluk": "Bhaisma",
    "Districtname": "Korba",
    "statename": "CHATTISGARH"
  },
  {
    "pincode": "495674",
    "officename": "Barpali (S) B.O",
    "officeType": "B.O",
    "Deliverystatus": "Delivery",
    "divisionname": "Bilaspur",
    "regionname": "Raipur",
    "circlename": "Chattisgarh",
    "Taluk": "Bhaisma",
    "Districtname": "Korba",
    "statename": "CHATTISGARH"
  },
  {
    "pincode": "495674",
    "officename": "Beharchuwa B.O",
    "officeType": "B.O",
    "Deliverystatus": "Delivery",
    "divisionname": "Bilaspur",
    "regionname": "Raipur",
    "circlename": "Chattisgarh",
    "Taluk": "Bhaisma",
    "Districtname": "Korba",
    "statename": "CHATTISGARH"
  },
  {
    "pincode": "495674",
    "officename": "Bhaisma S.O",
    "officeType": "S.O",
    "Deliverystatus": "Delivery",
    "divisionname": "Bilaspur",
    "regionname": "Raipur",
    "circlename": "Chattisgarh",
    "Taluk": "Korba",
    "Districtname": "Korba",
    "statename": "CHATTISGARH"
  },
  {
    "pincode": "495674",
    "officename": "Chachia B.O",
    "officeType": "B.O",
    "Deliverystatus": "Delivery",
    "divisionname": "Bilaspur",
    "regionname": "Raipur",
    "circlename": "Chattisgarh",
    "Taluk": "Bhaisma",
    "Districtname": "Korba",
    "statename": "CHATTISGARH"
  },
  {
    "pincode": "495674",
    "officename": "Champa B.O",
    "officeType": "B.O",
    "Deliverystatus": "Delivery",
    "divisionname": "Bilaspur",
    "regionname": "Raipur",
    "circlename": "Chattisgarh",
    "Taluk": "Bhaisma",
    "Districtname": "Korba",
    "statename": "CHATTISGARH"
  },
  {
    "pincode": "495674",
    "officename": "Chiknipali B.O",
    "officeType": "B.O",
    "Deliverystatus": "Delivery",
    "divisionname": "Bilaspur",
    "regionname": "Raipur",
    "circlename": "Chattisgarh",
    "Taluk": "Bhaisma",
    "Districtname": "Korba",
    "statename": "CHATTISGARH"
  },
  {
    "pincode": "495674",
    "officename": "Chirra B.O",
    "officeType": "B.O",
    "Deliverystatus": "Delivery",
    "divisionname": "Bilaspur",
    "regionname": "Raipur",
    "circlename": "Chattisgarh",
    "Taluk": "Bhaisma",
    "Districtname": "Korba",
    "statename": "CHATTISGARH"
  },
  {
    "pincode": "495674",
    "officename": "Chorbhatti B.O",
    "officeType": "B.O",
    "Deliverystatus": "Delivery",
    "divisionname": "Bilaspur",
    "regionname": "Raipur",
    "circlename": "Chattisgarh",
    "Taluk": "Bhaisma",
    "Districtname": "Korba",
    "statename": "CHATTISGARH"
  },
  {
    "pincode": "495674",
    "officename": "Dadarkala B.O",
    "officeType": "B.O",
    "Deliverystatus": "Delivery",
    "divisionname": "Bilaspur",
    "regionname": "Raipur",
    "circlename": "Chattisgarh",
    "Taluk": "Bhaisma",
    "Districtname": "Korba",
    "statename": "CHATTISGARH"
  },
  {
    "pincode": "495674",
    "officename": "Ghinara B.O",
    "officeType": "B.O",
    "Deliverystatus": "Delivery",
    "divisionname": "Bilaspur",
    "regionname": "Raipur",
    "circlename": "Chattisgarh",
    "Taluk": "Bhaisma",
    "Districtname": "Korba",
    "statename": "CHATTISGARH"
  },
  {
    "pincode": "495674",
    "officename": "Gidhkunwari B.O",
    "officeType": "B.O",
    "Deliverystatus": "Delivery",
    "divisionname": "Bilaspur",
    "regionname": "Raipur",
    "circlename": "Chattisgarh",
    "Taluk": "Bhaisma",
    "Districtname": "Korba",
    "statename": "CHATTISGARH"
  },
  {
    "pincode": "495674",
    "officename": "Jarwe B.O",
    "officeType": "B.O",
    "Deliverystatus": "Delivery",
    "divisionname": "Bilaspur",
    "regionname": "Raipur",
    "circlename": "Chattisgarh",
    "Taluk": "Bhaisma",
    "Districtname": "Korba",
    "statename": "CHATTISGARH"
  },
  {
    "pincode": "495674",
    "officename": "Jilga B.O",
    "officeType": "B.O",
    "Deliverystatus": "Delivery",
    "divisionname": "Bilaspur",
    "regionname": "Raipur",
    "circlename": "Chattisgarh",
    "Taluk": "Bhaisma",
    "Districtname": "Korba",
    "statename": "CHATTISGARH"
  },
  {
    "pincode": "495674",
    "officename": "Kartalachak B.O",
    "officeType": "B.O",
    "Deliverystatus": "Delivery",
    "divisionname": "Bilaspur",
    "regionname": "Raipur",
    "circlename": "Chattisgarh",
    "Taluk": "Bhaisma",
    "Districtname": "Korba",
    "statename": "CHATTISGARH"
  },
  {
    "pincode": "495674",
    "officename": "Kotmer B.O",
    "officeType": "B.O",
    "Deliverystatus": "Delivery",
    "divisionname": "Bilaspur",
    "regionname": "Raipur",
    "circlename": "Chattisgarh",
    "Taluk": "Bhaisma",
    "Districtname": "Korba",
    "statename": "CHATTISGARH"
  },
  {
    "pincode": "495674",
    "officename": "Kudmura B.O",
    "officeType": "B.O",
    "Deliverystatus": "Delivery",
    "divisionname": "Bilaspur",
    "regionname": "Raipur",
    "circlename": "Chattisgarh",
    "Taluk": "Bhaisma",
    "Districtname": "Korba",
    "statename": "CHATTISGARH"
  },
  {
    "pincode": "495674",
    "officename": "Kudurmal B.O",
    "officeType": "B.O",
    "Deliverystatus": "Delivery",
    "divisionname": "Bilaspur",
    "regionname": "Raipur",
    "circlename": "Chattisgarh",
    "Taluk": "Bhaisma",
    "Districtname": "Korba",
    "statename": "CHATTISGARH"
  },
  {
    "pincode": "495674",
    "officename": "Nonbirra B.O",
    "officeType": "B.O",
    "Deliverystatus": "Delivery",
    "divisionname": "Bilaspur",
    "regionname": "Raipur",
    "circlename": "Chattisgarh",
    "Taluk": "Bhaisma",
    "Districtname": "Korba",
    "statename": "CHATTISGARH"
  },
  {
    "pincode": "495674",
    "officename": "Pidia B.O",
    "officeType": "B.O",
    "Deliverystatus": "Delivery",
    "divisionname": "Bilaspur",
    "regionname": "Raipur",
    "circlename": "Chattisgarh",
    "Taluk": "Bhaisma",
    "Districtname": "Korba",
    "statename": "CHATTISGARH"
  },
  {
    "pincode": "495674",
    "officename": "Rampur B.O",
    "officeType": "B.O",
    "Deliverystatus": "Delivery",
    "divisionname": "Bilaspur",
    "regionname": "Raipur",
    "circlename": "Chattisgarh",
    "Taluk": "Bhaisma",
    "Districtname": "Korba",
    "statename": "CHATTISGARH"
  },
  {
    "pincode": "495674",
    "officename": "Saragbundia B.O",
    "officeType": "B.O",
    "Deliverystatus": "Delivery",
    "divisionname": "Bilaspur",
    "regionname": "Raipur",
    "circlename": "Chattisgarh",
    "Taluk": "Bhaisma",
    "Districtname": "Korba",
    "statename": "CHATTISGARH"
  },
  {
    "pincode": "495674",
    "officename": "Sendripali B.O",
    "officeType": "B.O",
    "Deliverystatus": "Delivery",
    "divisionname": "Bilaspur",
    "regionname": "Raipur",
    "circlename": "Chattisgarh",
    "Taluk": "Bhaisma",
    "Districtname": "Korba",
    "statename": "CHATTISGARH"
  },
  {
    "pincode": "495674",
    "officename": "Solwan B.O",
    "officeType": "B.O",
    "Deliverystatus": "Delivery",
    "divisionname": "Bilaspur",
    "regionname": "Raipur",
    "circlename": "Chattisgarh",
    "Taluk": "Bhaisma",
    "Districtname": "Korba",
    "statename": "CHATTISGARH"
  },
  {
    "pincode": "495674",
    "officename": "Syang B.O",
    "officeType": "B.O",
    "Deliverystatus": "Delivery",
    "divisionname": "Bilaspur",
    "regionname": "Raipur",
    "circlename": "Chattisgarh",
    "Taluk": "Bhaisma",
    "Districtname": "Korba",
    "statename": "CHATTISGARH"
  },
  {
    "pincode": "495674",
    "officename": "Tilkeja B.O",
    "officeType": "B.O",
    "Deliverystatus": "Delivery",
    "divisionname": "Bilaspur",
    "regionname": "Raipur",
    "circlename": "Chattisgarh",
    "Taluk": "Bhaisma",
    "Districtname": "Korba",
    "statename": "CHATTISGARH"
  },
  {
    "pincode": "495674",
    "officename": "Tuman B.O",
    "officeType": "B.O",
    "Deliverystatus": "Delivery",
    "divisionname": "Bilaspur",
    "regionname": "Raipur",
    "circlename": "Chattisgarh",
    "Taluk": "Bhaisma",
    "Districtname": "Korba",
    "statename": "CHATTISGARH"
  }
]
