[
  {
    "pincode": "495687",
    "officename": "Baradwar S.O",
    "officeType": "S.O",
    "Deliverystatus": "Delivery",
    "divisionname": "Bilaspur",
    "regionname": "Raipur",
    "circlename": "Chattisgarh",
    "Taluk": "Sakti",
    "Districtname": "Janjgir-champa",
    "statename": "CHATTISGARH"
  },
  {
    "pincode": "495687",
    "officename": "Basti Baradwar B.O",
    "officeType": "B.O",
    "Deliverystatus": "Delivery",
    "divisionname": "Bilaspur",
    "regionname": "Raipur",
    "circlename": "Chattisgarh",
    "Taluk": "Baradwar",
    "Districtname": "Janjgir-champa",
    "statename": "CHATTISGARH"
  },
  {
    "pincode": "495687",
    "officename": "Choria B.O",
    "officeType": "B.O",
    "Deliverystatus": "Delivery",
    "divisionname": "Bilaspur",
    "regionname": "Raipur",
    "circlename": "Chattisgarh",
    "Taluk": "Baradwar",
    "Districtname": "Korba",
    "statename": "CHATTISGARH"
  },
  {
    "pincode": "495687",
    "officename": "Darang B.O",
    "officeType": "B.O",
    "Deliverystatus": "Delivery",
    "divisionname": "Bilaspur",
    "regionname": "Raipur",
    "circlename": "Chattisgarh",
    "Taluk": "Baradwar",
    "Districtname": "Janjgir-champa",
    "statename": "CHATTISGARH"
  },
  {
    "pincode": "495687",
    "officename": "Dumarpara B.O",
    "officeType": "B.O",
    "Deliverystatus": "Delivery",
    "divisionname": "Bilaspur",
    "regionname": "Raipur",
    "circlename": "Chattisgarh",
    "Taluk": "Baradwar",
    "Districtname": "Janjgir-champa",
    "statename": "CHATTISGARH"
  },
  {
    "pincode": "495687",
    "officename": "Jarwe B.O",
    "officeType": "B.O",
    "Deliverystatus": "Delivery",
    "divisionname": "Bilaspur",
    "regionname": "Raipur",
    "circlename": "Chattisgarh",
    "Taluk": "Baradwar",
    "Districtname": "Janjgir-champa",
    "statename": "CHATTISGARH"
  },
  {
    "pincode": "495687",
    "officename": "Jharna B.O",
    "officeType": "B.O",
    "Deliverystatus": "Delivery",
    "divisionname": "Bilaspur",
    "regionname": "Raipur",
    "circlename": "Chattisgarh",
    "Taluk": "Baradwar",
    "Districtname": "Janjgir-champa",
    "statename": "CHATTISGARH"
  },
  {
    "pincode": "495687",
    "officename": "Kirari B.O",
    "officeType": "B.O",
    "Deliverystatus": "Delivery",
    "divisionname": "Bilaspur",
    "regionname": "Raipur",
    "circlename": "Chattisgarh",
    "Taluk": "Baradwar",
    "Districtname": "Janjgir-champa",
    "statename": "CHATTISGARH"
  },
  {
    "pincode": "495687",
    "officename": "Muktaraja B.O",
    "officeType": "B.O",
    "Deliverystatus": "Delivery",
    "divisionname": "Bilaspur",
    "regionname": "Raipur",
    "circlename": "Chattisgarh",
    "Taluk": "Baradwar",
    "Districtname": "Janjgir-champa",
    "statename": "CHATTISGARH"
  },
  {
    "pincode": "495687",
    "officename": "Nagarda B.O",
    "officeType": "B.O",
    "Deliverystatus": "Delivery",
    "divisionname": "Bilaspur",
    "regionname": "Raipur",
    "circlename": "Chattisgarh",
    "Taluk": "Baradwar",
    "Districtname": "Janjgir-champa",
    "statename": "CHATTISGARH"
  },
  {
    "pincode": "495687",
    "officename": "Reda B.O",
    "officeType": "B.O",
    "Deliverystatus": "Delivery",
    "divisionname": "Bilaspur",
    "regionname": "Raipur",
    "circlename": "Chattisgarh",
    "Taluk": "Baradwar",
    "Districtname": "Janjgir-champa",
    "statename": "CHATTISGARH"
  },
  {
    "pincode": "495687",
    "officename": "Sakreli B.O",
    "officeType": "B.O",
    "Deliverystatus": "Delivery",
    "divisionname": "Bilaspur",
    "regionname": "Raipur",
    "circlename": "Chattisgarh",
    "Taluk": "Baradwar",
    "Districtname": "Janjgir-champa",
    "statename": "CHATTISGARH"
  },
  {
    "pincode": "495687",
    "officename": "Sarhar B.O",
    "officeType": "B.O",
    "Deliverystatus": "Delivery",
    "divisionname": "Bilaspur",
    "regionname": "Raipur",
    "circlename": "Chattisgarh",
    "Taluk": "Baradwar",
    "Districtname": "Janjgir-champa",
    "statename": "CHATTISGARH"
  }
]
