[
  {
    "pincode": "496001",
    "officename": "Bangursiya B.O",
    "officeType": "B.O",
    "Deliverystatus": "Delivery",
    "divisionname": "Raigarh",
    "regionname": "Raipur",
    "circlename": "Chattisgarh",
    "Taluk": "Raigarh",
    "Districtname": "Raigarh",
    "statename": "CHATTISGARH"
  },
  {
    "pincode": "496001",
    "officename": "Banora B.O",
    "officeType": "B.O",
    "Deliverystatus": "Delivery",
    "divisionname": "Raigarh",
    "regionname": "Raipur",
    "circlename": "Chattisgarh",
    "Taluk": "Raigarh",
    "Districtname": "Raigarh",
    "statename": "CHATTISGARH"
  },
  {
    "pincode": "496001",
    "officename": "Bhagora B.O",
    "officeType": "B.O",
    "Deliverystatus": "Delivery",
    "divisionname": "Raigarh",
    "regionname": "Raipur",
    "circlename": "Chattisgarh",
    "Taluk": "Raigarh",
    "Districtname": "Raigarh",
    "statename": "CHATTISGARH"
  },
  {
    "pincode": "496001",
    "officename": "Boirdadar B.O",
    "officeType": "B.O",
    "Deliverystatus": "Delivery",
    "divisionname": "Raigarh",
    "regionname": "Raipur",
    "circlename": "Chattisgarh",
    "Taluk": "",
    "Districtname": "Raigarh",
    "statename": "CHATTISGARH"
  },
  {
    "pincode": "496001",
    "officename": "Chakradharnagar S.O",
    "officeType": "S.O",
    "Deliverystatus": "Non-Delivery",
    "divisionname": "Raigarh",
    "regionname": "Raipur",
    "circlename": "Chattisgarh",
    "Taluk": "Raigarh",
    "Districtname": "Raigarh",
    "statename": "CHATTISGARH"
  },
  {
    "pincode": "496001",
    "officename": "Chhatamura B.O",
    "officeType": "B.O",
    "Deliverystatus": "Delivery",
    "divisionname": "Raigarh",
    "regionname": "Raipur",
    "circlename": "Chattisgarh",
    "Taluk": "Raigarh",
    "Districtname": "Raigarh",
    "statename": "CHATTISGARH"
  },
  {
    "pincode": "496001",
    "officename": "Dhanagar B.O",
    "officeType": "B.O",
    "Deliverystatus": "Delivery",
    "divisionname": "Raigarh",
    "regionname": "Raipur",
    "circlename": "Chattisgarh",
    "Taluk": "Raigarh",
    "Districtname": "Raigarh",
    "statename": "CHATTISGARH"
  },
  {
    "pincode": "496001",
    "officename": "Garh-umaria B.O",
    "officeType": "B.O",
    "Deliverystatus": "Delivery",
    "divisionname": "Raigarh",
    "regionname": "Raipur",
    "circlename": "Chattisgarh",
    "Taluk": "Raigarh",
    "Districtname": "Raigarh",
    "statename": "CHATTISGARH"
  },
  {
    "pincode": "496001",
    "officename": "Gerwani B.O",
    "officeType": "B.O",
    "Deliverystatus": "Delivery",
    "divisionname": "Raigarh",
    "regionname": "Raipur",
    "circlename": "Chattisgarh",
    "Taluk": "Raigarh",
    "Districtname": "Raigarh",
    "statename": "CHATTISGARH"
  },
  {
    "pincode": "496001",
    "officename": "Gorkha B.O",
    "officeType": "B.O",
    "Deliverystatus": "Delivery",
    "divisionname": "Raigarh",
    "regionname": "Raipur",
    "circlename": "Chattisgarh",
    "Taluk": "Raigarh",
    "Districtname": "Raigarh",
    "statename": "CHATTISGARH"
  },
  {
    "pincode": "496001",
    "officename": "Gorra B.O",
    "officeType": "B.O",
    "Deliverystatus": "Delivery",
    "divisionname": "Raigarh",
    "regionname": "Raipur",
    "circlename": "Chattisgarh",
    "Taluk": "Raigarh",
    "Districtname": "Raigarh",
    "statename": "CHATTISGARH"
  },
  {
    "pincode": "496001",
    "officename": "Jamgaon B.O",
    "officeType": "B.O",
    "Deliverystatus": "Delivery",
    "divisionname": "Raigarh",
    "regionname": "Raipur",
    "circlename": "Chattisgarh",
    "Taluk": "Raigarh",
    "Districtname": "Raigarh",
    "statename": "CHATTISGARH"
  },
  {
    "pincode": "496001",
    "officename": "Jhalmala B.O",
    "officeType": "B.O",
    "Deliverystatus": "Delivery",
    "divisionname": "Raigarh",
    "regionname": "Raipur",
    "circlename": "Chattisgarh",
    "Taluk": "Raigarh",
    "Districtname": "Raigarh",
    "statename": "CHATTISGARH"
  },
  {
    "pincode": "496001",
    "officename": "Jivri B.O",
    "officeType": "B.O",
    "Deliverystatus": "Delivery",
    "divisionname": "Raigarh",
    "regionname": "Raipur",
    "circlename": "Chattisgarh",
    "Taluk": "Raigarh",
    "Districtname": "Raigarh",
    "statename": "CHATTISGARH"
  },
  {
    "pincode": "496001",
    "officename": "Jurda B.O",
    "officeType": "B.O",
    "Deliverystatus": "Delivery",
    "divisionname": "Raigarh",
    "regionname": "Raipur",
    "circlename": "Chattisgarh",
    "Taluk": "Raigarh",
    "Districtname": "Raigarh",
    "statename": "CHATTISGARH"
  },
  {
    "pincode": "496001",
    "officename": "Kantaahardi B.O",
    "officeType": "B.O",
    "Deliverystatus": "Delivery",
    "divisionname": "Raigarh",
    "regionname": "Raipur",
    "circlename": "Chattisgarh",
    "Taluk": "Raigarh",
    "Districtname": "Raigarh",
    "statename": "CHATTISGARH"
  },
  {
    "pincode": "496001",
    "officename": "Kirodimalnagar B.O",
    "officeType": "B.O",
    "Deliverystatus": "Delivery",
    "divisionname": "Raigarh",
    "regionname": "Raipur",
    "circlename": "Chattisgarh",
    "Taluk": "Raigarh",
    "Districtname": "Raigarh",
    "statename": "CHATTISGARH"
  },
  {
    "pincode": "496001",
    "officename": "Kotarlia B.O",
    "officeType": "B.O",
    "Deliverystatus": "Delivery",
    "divisionname": "Raigarh",
    "regionname": "Raipur",
    "circlename": "Chattisgarh",
    "Taluk": "Raigarh",
    "Districtname": "Raigarh",
    "statename": "CHATTISGARH"
  },
  {
    "pincode": "496001",
    "officename": "Kotra B.O",
    "officeType": "B.O",
    "Deliverystatus": "Delivery",
    "divisionname": "Raigarh",
    "regionname": "Raipur",
    "circlename": "Chattisgarh",
    "Taluk": "Raigarh",
    "Districtname": "Raigarh",
    "statename": "CHATTISGARH"
  },
  {
    "pincode": "496001",
    "officename": "Kukurda B.O",
    "officeType": "B.O",
    "Deliverystatus": "Delivery",
    "divisionname": "Raigarh",
    "regionname": "Raipur",
    "circlename": "Chattisgarh",
    "Taluk": "Raigarh",
    "Districtname": "Raigarh",
    "statename": "CHATTISGARH"
  },
  {
    "pincode": "496001",
    "officename": "Loing B.O",
    "officeType": "B.O",
    "Deliverystatus": "Delivery",
    "divisionname": "Raigarh",
    "regionname": "Raipur",
    "circlename": "Chattisgarh",
    "Taluk": "Raigarh",
    "Districtname": "Raigarh",
    "statename": "CHATTISGARH"
  },
  {
    "pincode": "496001",
    "officename": "Nandeli B.O",
    "officeType": "B.O",
    "Deliverystatus": "Delivery",
    "divisionname": "Raigarh",
    "regionname": "Raipur",
    "circlename": "Chattisgarh",
    "Taluk": "Raigarh",
    "Districtname": "Raigarh",
    "statename": "CHATTISGARH"
  },
  {
    "pincode": "496001",
    "officename": "Naurngpur B.O",
    "officeType": "B.O",
    "Deliverystatus": "Delivery",
    "divisionname": "Raigarh",
    "regionname": "Raipur",
    "circlename": "Chattisgarh",
    "Taluk": "Raigarh",
    "Districtname": "Raigarh",
    "statename": "CHATTISGARH"
  },
  {
    "pincode": "496001",
    "officename": "Nawapara B.O",
    "officeType": "B.O",
    "Deliverystatus": "Delivery",
    "divisionname": "Raigarh",
    "regionname": "Raipur",
    "circlename": "Chattisgarh",
    "Taluk": "Raigarh",
    "Districtname": "Raigarh",
    "statename": "CHATTISGARH"
  },
  {
    "pincode": "496001",
    "officename": "Patrapali B.O",
    "officeType": "B.O",
    "Deliverystatus": "Delivery",
    "divisionname": "Raigarh",
    "regionname": "Raipur",
    "circlename": "Chattisgarh",
    "Taluk": "Raigarh",
    "Districtname": "Raigarh",
    "statename": "CHATTISGARH"
  },
  {
    "pincode": "496001",
    "officename": "Putkapuri B.O",
    "officeType": "B.O",
    "Deliverystatus": "Delivery",
    "divisionname": "Raigarh",
    "regionname": "Raipur",
    "circlename": "Chattisgarh",
    "Taluk": "Raigarh",
    "Districtname": "Raigarh",
    "statename": "CHATTISGARH"
  },
  {
    "pincode": "496001",
    "officename": "Raigarh H.O",
    "officeType": "H.O",
    "Deliverystatus": "Delivery",
    "divisionname": "Raigarh",
    "regionname": "Raipur",
    "circlename": "Chattisgarh",
    "Taluk": "",
    "Districtname": "Raigarh",
    "statename": "CHATTISGARH"
  },
  {
    "pincode": "496001",
    "officename": "Raigarh Jute Mill S.O",
    "officeType": "S.O",
    "Deliverystatus": "Non-Delivery",
    "divisionname": "Raigarh",
    "regionname": "Raipur",
    "circlename": "Chattisgarh",
    "Taluk": "Raigarh",
    "Districtname": "Raigarh",
    "statename": "CHATTISGARH"
  },
  {
    "pincode": "496001",
    "officename": "Raigarh Sadar Bazar S.O",
    "officeType": "S.O",
    "Deliverystatus": "Non-Delivery",
    "divisionname": "Raigarh",
    "regionname": "Raipur",
    "circlename": "Chattisgarh",
    "Taluk": "Raigarh",
    "Districtname": "Raigarh",
    "statename": "CHATTISGARH"
  },
  {
    "pincode": "496001",
    "officename": "Sambalpuri B.O",
    "officeType": "B.O",
    "Deliverystatus": "Delivery",
    "divisionname": "Raigarh",
    "regionname": "Raipur",
    "circlename": "Chattisgarh",
    "Taluk": "Raigarh",
    "Districtname": "Raigarh",
    "statename": "CHATTISGARH"
  },
  {
    "pincode": "496001",
    "officename": "Saraipali B.O",
    "officeType": "B.O",
    "Deliverystatus": "Delivery",
    "divisionname": "Raigarh",
    "regionname": "Raipur",
    "circlename": "Chattisgarh",
    "Taluk": "Raigarh",
    "Districtname": "Raigarh",
    "statename": "CHATTISGARH"
  },
  {
    "pincode": "496001",
    "officename": "Tarapur B.O",
    "officeType": "B.O",
    "Deliverystatus": "Delivery",
    "divisionname": "Raigarh",
    "regionname": "Raipur",
    "circlename": "Chattisgarh",
    "Taluk": "Raigarh",
    "Districtname": "Raigarh",
    "statename": "CHATTISGARH"
  },
  {
    "pincode": "496001",
    "officename": "Tarkela B.O",
    "officeType": "B.O",
    "Deliverystatus": "Delivery",
    "divisionname": "Raigarh",
    "regionname": "Raipur",
    "circlename": "Chattisgarh",
    "Taluk": "Raigarh",
    "Districtname": "Raigarh",
    "statename": "CHATTISGARH"
  },
  {
    "pincode": "496001",
    "officename": "Urdana Camp B.O",
    "officeType": "B.O",
    "Deliverystatus": "Delivery",
    "divisionname": "Raigarh",
    "regionname": "Raipur",
    "circlename": "Chattisgarh",
    "Taluk": "Raigarh",
    "Districtname": "Raigarh",
    "statename": "CHATTISGARH"
  },
  {
    "pincode": "496001",
    "officename": "Usrot B.O",
    "officeType": "B.O",
    "Deliverystatus": "Delivery",
    "divisionname": "Raigarh",
    "regionname": "Raipur",
    "circlename": "Chattisgarh",
    "Taluk": "Raigarh",
    "Districtname": "Raigarh",
    "statename": "CHATTISGARH"
  }
]
