[
  {
    "pincode": "496115",
    "officename": "Bagudega B.O",
    "officeType": "B.O",
    "Deliverystatus": "Delivery",
    "divisionname": "Raigarh",
    "regionname": "Raipur",
    "circlename": "Chattisgarh",
    "Taluk": "",
    "Districtname": "Raigarh",
    "statename": "CHATTISGARH"
  },
  {
    "pincode": "496115",
    "officename": "Bhedimuda B.O",
    "officeType": "B.O",
    "Deliverystatus": "Delivery",
    "divisionname": "Raigarh",
    "regionname": "Raipur",
    "circlename": "Chattisgarh",
    "Taluk": "",
    "Districtname": "Raigarh",
    "statename": "CHATTISGARH"
  },
  {
    "pincode": "496115",
    "officename": "Choranga B.O",
    "officeType": "B.O",
    "Deliverystatus": "Delivery",
    "divisionname": "Raigarh",
    "regionname": "Raipur",
    "circlename": "Chattisgarh",
    "Taluk": "Raigarh",
    "Districtname": "Raigarh",
    "statename": "CHATTISGARH"
  },
  {
    "pincode": "496115",
    "officename": "Gahnajharia B.O",
    "officeType": "B.O",
    "Deliverystatus": "Delivery",
    "divisionname": "Raigarh",
    "regionname": "Raipur",
    "circlename": "Chattisgarh",
    "Taluk": "Raigarh",
    "Districtname": "Raigarh",
    "statename": "CHATTISGARH"
  },
  {
    "pincode": "496115",
    "officename": "Karra B.O",
    "officeType": "B.O",
    "Deliverystatus": "Delivery",
    "divisionname": "Raigarh",
    "regionname": "Raipur",
    "circlename": "Chattisgarh",
    "Taluk": "Raigarh",
    "Districtname": "Raigarh",
    "statename": "CHATTISGARH"
  },
  {
    "pincode": "496115",
    "officename": "Kodasia B.O",
    "officeType": "B.O",
    "Deliverystatus": "Delivery",
    "divisionname": "Raigarh",
    "regionname": "Raipur",
    "circlename": "Chattisgarh",
    "Taluk": "Raigarh",
    "Districtname": "Raigarh",
    "statename": "CHATTISGARH"
  },
  {
    "pincode": "496115",
    "officename": "Mudagaon B.O",
    "officeType": "B.O",
    "Deliverystatus": "Delivery",
    "divisionname": "Raigarh",
    "regionname": "Raipur",
    "circlename": "Chattisgarh",
    "Taluk": "",
    "Districtname": "Raigarh",
    "statename": "CHATTISGARH"
  },
  {
    "pincode": "496115",
    "officename": "Rajkot B.O",
    "officeType": "B.O",
    "Deliverystatus": "Delivery",
    "divisionname": "Raigarh",
    "regionname": "Raipur",
    "circlename": "Chattisgarh",
    "Taluk": "Raigarh",
    "Districtname": "Raigarh",
    "statename": "CHATTISGARH"
  },
  {
    "pincode": "496115",
    "officename": "Rajpur (RIH) S.O",
    "officeType": "S.O",
    "Deliverystatus": "Delivery",
    "divisionname": "Raigarh",
    "regionname": "Raipur",
    "circlename": "Chattisgarh",
    "Taluk": "Raigarh",
    "Districtname": "Raigarh",
    "statename": "CHATTISGARH"
  },
  {
    "pincode": "496115",
    "officename": "Salakia B.O",
    "officeType": "B.O",
    "Deliverystatus": "Delivery",
    "divisionname": "Raigarh",
    "regionname": "Raipur",
    "circlename": "Chattisgarh",
    "Taluk": "Raigarh",
    "Districtname": "Raigarh",
    "statename": "CHATTISGARH"
  }
]
