[
  {
    "pincode": "496220",
    "officename": "Bagbahar B.O",
    "officeType": "B.O",
    "Deliverystatus": "Delivery",
    "divisionname": "Raigarh",
    "regionname": "Raipur",
    "circlename": "Chattisgarh",
    "Taluk": "Jashpurnagar",
    "Districtname": "Jashpur",
    "statename": "CHATTISGARH"
  },
  {
    "pincode": "496220",
    "officename": "Bahma B.O",
    "officeType": "B.O",
    "Deliverystatus": "Delivery",
    "divisionname": "Raigarh",
    "regionname": "Raipur",
    "circlename": "Chattisgarh",
    "Taluk": "",
    "Districtname": "Jashpur",
    "statename": "CHATTISGARH"
  },
  {
    "pincode": "496220",
    "officename": "Buldega B.O",
    "officeType": "B.O",
    "Deliverystatus": "Delivery",
    "divisionname": "Raigarh",
    "regionname": "Raipur",
    "circlename": "Chattisgarh",
    "Taluk": "",
    "Districtname": "Jashpur",
    "statename": "CHATTISGARH"
  },
  {
    "pincode": "496220",
    "officename": "Chiknipani B.O",
    "officeType": "B.O",
    "Deliverystatus": "Delivery",
    "divisionname": "Raigarh",
    "regionname": "Raipur",
    "circlename": "Chattisgarh",
    "Taluk": "Jashpurnagar",
    "Districtname": "Jashpur",
    "statename": "CHATTISGARH"
  },
  {
    "pincode": "496220",
    "officename": "Farsatoli B.O",
    "officeType": "B.O",
    "Deliverystatus": "Delivery",
    "divisionname": "Raigarh",
    "regionname": "Raipur",
    "circlename": "Chattisgarh",
    "Taluk": "Jashpurnagar",
    "Districtname": "Jashpur",
    "statename": "CHATTISGARH"
  },
  {
    "pincode": "496220",
    "officename": "Jamargi B.O",
    "officeType": "B.O",
    "Deliverystatus": "Delivery",
    "divisionname": "Raigarh",
    "regionname": "Raipur",
    "circlename": "Chattisgarh",
    "Taluk": "Jashpurnagar",
    "Districtname": "Jashpur",
    "statename": "CHATTISGARH"
  },
  {
    "pincode": "496220",
    "officename": "Jamjhor B.O",
    "officeType": "B.O",
    "Deliverystatus": "Delivery",
    "divisionname": "Raigarh",
    "regionname": "Raipur",
    "circlename": "Chattisgarh",
    "Taluk": "Jashpurnagar",
    "Districtname": "Jashpur",
    "statename": "CHATTISGARH"
  },
  {
    "pincode": "496220",
    "officename": "Kadro B.O",
    "officeType": "B.O",
    "Deliverystatus": "Delivery",
    "divisionname": "Raigarh",
    "regionname": "Raipur",
    "circlename": "Chattisgarh",
    "Taluk": "Jashpurnagar",
    "Districtname": "Jashpur",
    "statename": "CHATTISGARH"
  },
  {
    "pincode": "496220",
    "officename": "Kokiakhar B.O",
    "officeType": "B.O",
    "Deliverystatus": "Delivery",
    "divisionname": "Raigarh",
    "regionname": "Raipur",
    "circlename": "Chattisgarh",
    "Taluk": "Jashpurnagar",
    "Districtname": "Jashpur",
    "statename": "CHATTISGARH"
  },
  {
    "pincode": "496220",
    "officename": "Kolhejharia B.O",
    "officeType": "B.O",
    "Deliverystatus": "Delivery",
    "divisionname": "Raigarh",
    "regionname": "Raipur",
    "circlename": "Chattisgarh",
    "Taluk": "Jashpurnagar",
    "Districtname": "Jashpur",
    "statename": "CHATTISGARH"
  },
  {
    "pincode": "496220",
    "officename": "Kotba B.O",
    "officeType": "B.O",
    "Deliverystatus": "Delivery",
    "divisionname": "Raigarh",
    "regionname": "Raipur",
    "circlename": "Chattisgarh",
    "Taluk": "Jashpurnagar",
    "Districtname": "Jashpur",
    "statename": "CHATTISGARH"
  },
  {
    "pincode": "496220",
    "officename": "Kukurbhaka B.O",
    "officeType": "B.O",
    "Deliverystatus": "Delivery",
    "divisionname": "Raigarh",
    "regionname": "Raipur",
    "circlename": "Chattisgarh",
    "Taluk": "Jashpurnagar",
    "Districtname": "Jashpur",
    "statename": "CHATTISGARH"
  },
  {
    "pincode": "496220",
    "officename": "Kukurgaon B.O",
    "officeType": "B.O",
    "Deliverystatus": "Delivery",
    "divisionname": "Raigarh",
    "regionname": "Raipur",
    "circlename": "Chattisgarh",
    "Taluk": "Jashpurnagar",
    "Districtname": "Jashpur",
    "statename": "CHATTISGARH"
  },
  {
    "pincode": "496220",
    "officename": "Ludeg S.O",
    "officeType": "S.O",
    "Deliverystatus": "Delivery",
    "divisionname": "Raigarh",
    "regionname": "Raipur",
    "circlename": "Chattisgarh",
    "Taluk": "Jashpurnagar",
    "Districtname": "Jashpur",
    "statename": "CHATTISGARH"
  },
  {
    "pincode": "496220",
    "officename": "Pandaripani B.O",
    "officeType": "B.O",
    "Deliverystatus": "Delivery",
    "divisionname": "Raigarh",
    "regionname": "Raipur",
    "circlename": "Chattisgarh",
    "Taluk": "Pathalgaon",
    "Districtname": "Jashpur",
    "statename": "CHATTISGARH"
  },
  {
    "pincode": "496220",
    "officename": "Pangsuwa B.O",
    "officeType": "B.O",
    "Deliverystatus": "Delivery",
    "divisionname": "Raigarh",
    "regionname": "Raipur",
    "circlename": "Chattisgarh",
    "Taluk": "Jashpurnagar",
    "Districtname": "Jashpur",
    "statename": "CHATTISGARH"
  },
  {
    "pincode": "496220",
    "officename": "Sekharpur B.O",
    "officeType": "B.O",
    "Deliverystatus": "Delivery",
    "divisionname": "Raigarh",
    "regionname": "Raipur",
    "circlename": "Chattisgarh",
    "Taluk": "Jashpurnagar",
    "Districtname": "Jashpur",
    "statename": "CHATTISGARH"
  }
]
