[
  {
    "pincode": "496331",
    "officename": "Arra B.O",
    "officeType": "B.O",
    "Deliverystatus": "Delivery",
    "divisionname": "Raigarh",
    "regionname": "Raipur",
    "circlename": "Chattisgarh",
    "Taluk": "",
    "Districtname": "Jashpur",
    "statename": "CHATTISGARH"
  },
  {
    "pincode": "496331",
    "officename": "Gamharia B.O",
    "officeType": "B.O",
    "Deliverystatus": "Delivery",
    "divisionname": "Raigarh",
    "regionname": "Raipur",
    "circlename": "Chattisgarh",
    "Taluk": "Jashpurnagar",
    "Districtname": "Jashpur",
    "statename": "CHATTISGARH"
  },
  {
    "pincode": "496331",
    "officename": "Ichkela B.O",
    "officeType": "B.O",
    "Deliverystatus": "Delivery",
    "divisionname": "Raigarh",
    "regionname": "Raipur",
    "circlename": "Chattisgarh",
    "Taluk": "",
    "Districtname": "Jashpur",
    "statename": "CHATTISGARH"
  },
  {
    "pincode": "496331",
    "officename": "Jaria B.O",
    "officeType": "B.O",
    "Deliverystatus": "Delivery",
    "divisionname": "Raigarh",
    "regionname": "Raipur",
    "circlename": "Chattisgarh",
    "Taluk": "",
    "Districtname": "Jashpur",
    "statename": "CHATTISGARH"
  },
  {
    "pincode": "496331",
    "officename": "Jashpurnagar S.O",
    "officeType": "S.O",
    "Deliverystatus": "Delivery",
    "divisionname": "Raigarh",
    "regionname": "Raipur",
    "circlename": "Chattisgarh",
    "Taluk": "",
    "Districtname": "Jashpur",
    "statename": "CHATTISGARH"
  },
  {
    "pincode": "496331",
    "officename": "Kasira B.O",
    "officeType": "B.O",
    "Deliverystatus": "Delivery",
    "divisionname": "Raigarh",
    "regionname": "Raipur",
    "circlename": "Chattisgarh",
    "Taluk": "",
    "Districtname": "Jashpur",
    "statename": "CHATTISGARH"
  },
  {
    "pincode": "496331",
    "officename": "Kharsouna B.O",
    "officeType": "B.O",
    "Deliverystatus": "Delivery",
    "divisionname": "Raigarh",
    "regionname": "Raipur",
    "circlename": "Chattisgarh",
    "Taluk": "Jashpurnagar",
    "Districtname": "Jashpur",
    "statename": "CHATTISGARH"
  },
  {
    "pincode": "496331",
    "officename": "Komdo B.O",
    "officeType": "B.O",
    "Deliverystatus": "Delivery",
    "divisionname": "Raigarh",
    "regionname": "Raipur",
    "circlename": "Chattisgarh",
    "Taluk": "Jashpurnagar",
    "Districtname": "Jashpur",
    "statename": "CHATTISGARH"
  },
  {
    "pincode": "496331",
    "officename": "Sitonga B.O",
    "officeType": "B.O",
    "Deliverystatus": "Delivery",
    "divisionname": "Raigarh",
    "regionname": "Raipur",
    "circlename": "Chattisgarh",
    "Taluk": "Jashpurnagar",
    "Districtname": "Jashpur",
    "statename": "CHATTISGARH"
  },
  {
    "pincode": "496331",
    "officename": "Sogada B.O",
    "officeType": "B.O",
    "Deliverystatus": "Delivery",
    "divisionname": "Raigarh",
    "regionname": "Raipur",
    "circlename": "Chattisgarh",
    "Taluk": "Jashpurnagar",
    "Districtname": "Jashpur",
    "statename": "CHATTISGARH"
  }
]
