[
  {
    "pincode": "496338",
    "officename": "Bada Karonja B.O",
    "officeType": "B.O",
    "Deliverystatus": "Delivery",
    "divisionname": "Raigarh",
    "regionname": "Raipur",
    "circlename": "Chattisgarh",
    "Taluk": "",
    "Districtname": "Jashpur",
    "statename": "CHATTISGARH"
  },
  {
    "pincode": "496338",
    "officename": "Gholeng S.O",
    "officeType": "S.O",
    "Deliverystatus": "Delivery",
    "divisionname": "Raigarh",
    "regionname": "Raipur",
    "circlename": "Chattisgarh",
    "Taluk": "Jashpurnagar",
    "Districtname": "Jashpur",
    "statename": "CHATTISGARH"
  },
  {
    "pincode": "496338",
    "officename": "Lodam B.O",
    "officeType": "B.O",
    "Deliverystatus": "Delivery",
    "divisionname": "Raigarh",
    "regionname": "Raipur",
    "circlename": "Chattisgarh",
    "Taluk": "Jashpurnagar",
    "Districtname": "Jashpur",
    "statename": "CHATTISGARH"
  },
  {
    "pincode": "496338",
    "officename": "Lokhandi B.O",
    "officeType": "B.O",
    "Deliverystatus": "Delivery",
    "divisionname": "Raigarh",
    "regionname": "Raipur",
    "circlename": "Chattisgarh",
    "Taluk": "",
    "Districtname": "Jashpur",
    "statename": "CHATTISGARH"
  },
  {
    "pincode": "496338",
    "officename": "Paiku B.O",
    "officeType": "B.O",
    "Deliverystatus": "Delivery",
    "divisionname": "Raigarh",
    "regionname": "Raipur",
    "circlename": "Chattisgarh",
    "Taluk": "Jashpurnagar",
    "Districtname": "Jashpur",
    "statename": "CHATTISGARH"
  },
  {
    "pincode": "496338",
    "officename": "Patratoli B.O",
    "officeType": "B.O",
    "Deliverystatus": "Delivery",
    "divisionname": "Raigarh",
    "regionname": "Raipur",
    "circlename": "Chattisgarh",
    "Taluk": "Jashpurnagar",
    "Districtname": "Jashpur",
    "statename": "CHATTISGARH"
  },
  {
    "pincode": "496338",
    "officename": "Pilkhi B.O",
    "officeType": "B.O",
    "Deliverystatus": "Delivery",
    "divisionname": "Raigarh",
    "regionname": "Raipur",
    "circlename": "Chattisgarh",
    "Taluk": "Jashpurnagar",
    "Districtname": "Jashpur",
    "statename": "CHATTISGARH"
  },
  {
    "pincode": "496338",
    "officename": "Portenga B.O",
    "officeType": "B.O",
    "Deliverystatus": "Delivery",
    "divisionname": "Raigarh",
    "regionname": "Raipur",
    "circlename": "Chattisgarh",
    "Taluk": "Jashpurnagar",
    "Districtname": "Jashpur",
    "statename": "CHATTISGARH"
  }
]
