[
  {
    "pincode": "496334",
    "officename": "Bangurkela B.O",
    "officeType": "B.O",
    "Deliverystatus": "Delivery",
    "divisionname": "Raigarh",
    "regionname": "Raipur",
    "circlename": "Chattisgarh",
    "Taluk": "Kunkuri",
    "Districtname": "Jashpur",
    "statename": "CHATTISGARH"
  },
  {
    "pincode": "496334",
    "officename": "Basantala B.O",
    "officeType": "B.O",
    "Deliverystatus": "Delivery",
    "divisionname": "Raigarh",
    "regionname": "Raipur",
    "circlename": "Chattisgarh",
    "Taluk": "Kunkuri",
    "Districtname": "Jashpur",
    "statename": "CHATTISGARH"
  },
  {
    "pincode": "496334",
    "officename": "Charaidand B.O",
    "officeType": "B.O",
    "Deliverystatus": "Delivery",
    "divisionname": "Raigarh",
    "regionname": "Raipur",
    "circlename": "Chattisgarh",
    "Taluk": "Kunkuri",
    "Districtname": "Jashpur",
    "statename": "CHATTISGARH"
  },
  {
    "pincode": "496334",
    "officename": "Dandadih B.O",
    "officeType": "B.O",
    "Deliverystatus": "Delivery",
    "divisionname": "Raigarh",
    "regionname": "Raipur",
    "circlename": "Chattisgarh",
    "Taluk": "Kunkuri",
    "Districtname": "Jashpur",
    "statename": "CHATTISGARH"
  },
  {
    "pincode": "496334",
    "officename": "Duldula S.O",
    "officeType": "S.O",
    "Deliverystatus": "Delivery",
    "divisionname": "Raigarh",
    "regionname": "Raipur",
    "circlename": "Chattisgarh",
    "Taluk": "Kunkuri",
    "Districtname": "Jashpur",
    "statename": "CHATTISGARH"
  },
  {
    "pincode": "496334",
    "officename": "Jaikari B.O",
    "officeType": "B.O",
    "Deliverystatus": "Delivery",
    "divisionname": "Raigarh",
    "regionname": "Raipur",
    "circlename": "Chattisgarh",
    "Taluk": "Kunkuri",
    "Districtname": "Jashpur",
    "statename": "CHATTISGARH"
  },
  {
    "pincode": "496334",
    "officename": "Kastura B.O",
    "officeType": "B.O",
    "Deliverystatus": "Delivery",
    "divisionname": "Raigarh",
    "regionname": "Raipur",
    "circlename": "Chattisgarh",
    "Taluk": "Kunkuri",
    "Districtname": "Jashpur",
    "statename": "CHATTISGARH"
  },
  {
    "pincode": "496334",
    "officename": "Keradih B.O",
    "officeType": "B.O",
    "Deliverystatus": "Delivery",
    "divisionname": "Raigarh",
    "regionname": "Raipur",
    "circlename": "Chattisgarh",
    "Taluk": "Kunkuri",
    "Districtname": "Jashpur",
    "statename": "CHATTISGARH"
  },
  {
    "pincode": "496334",
    "officename": "Makribandha B.O",
    "officeType": "B.O",
    "Deliverystatus": "Delivery",
    "divisionname": "Raigarh",
    "regionname": "Raipur",
    "circlename": "Chattisgarh",
    "Taluk": "Kunkuri",
    "Districtname": "Jashpur",
    "statename": "CHATTISGARH"
  },
  {
    "pincode": "496334",
    "officename": "Patratoli B.O",
    "officeType": "B.O",
    "Deliverystatus": "Delivery",
    "divisionname": "Raigarh",
    "regionname": "Raipur",
    "circlename": "Chattisgarh",
    "Taluk": "Kunkuri",
    "Districtname": "Jashpur",
    "statename": "CHATTISGARH"
  },
  {
    "pincode": "496334",
    "officename": "Simda B.O",
    "officeType": "B.O",
    "Deliverystatus": "Delivery",
    "divisionname": "Raigarh",
    "regionname": "Raipur",
    "circlename": "Chattisgarh",
    "Taluk": "Kunkuri",
    "Districtname": "Jashpur",
    "statename": "CHATTISGARH"
  }
]
