[
  {
    "pincode": "496450",
    "officename": "Badegantuli` B.O",
    "officeType": "B.O",
    "Deliverystatus": "Delivery",
    "divisionname": "Raigarh",
    "regionname": "Raipur",
    "circlename": "Chattisgarh",
    "Taluk": "Sarangarh",
    "Districtname": "Raigarh",
    "statename": "CHATTISGARH"
  },
  {
    "pincode": "496450",
    "officename": "Bhedwan B.O",
    "officeType": "B.O",
    "Deliverystatus": "Delivery",
    "divisionname": "Raigarh",
    "regionname": "Raipur",
    "circlename": "Chattisgarh",
    "Taluk": "",
    "Districtname": "Raigarh",
    "statename": "CHATTISGARH"
  },
  {
    "pincode": "496450",
    "officename": "Bhothli B.O",
    "officeType": "B.O",
    "Deliverystatus": "Delivery",
    "divisionname": "Raigarh",
    "regionname": "Raipur",
    "circlename": "Chattisgarh",
    "Taluk": "",
    "Districtname": "Raigarh",
    "statename": "CHATTISGARH"
  },
  {
    "pincode": "496450",
    "officename": "Chhte Khaira B.O",
    "officeType": "B.O",
    "Deliverystatus": "Delivery",
    "divisionname": "Raigarh",
    "regionname": "Raipur",
    "circlename": "Chattisgarh",
    "Taluk": "Sarangarh",
    "Districtname": "Raigarh",
    "statename": "CHATTISGARH"
  },
  {
    "pincode": "496450",
    "officename": "Dahida B.O",
    "officeType": "B.O",
    "Deliverystatus": "Delivery",
    "divisionname": "Raigarh",
    "regionname": "Raipur",
    "circlename": "Chattisgarh",
    "Taluk": "Sarangarh",
    "Districtname": "Raigarh",
    "statename": "CHATTISGARH"
  },
  {
    "pincode": "496450",
    "officename": "Gatadih B.O",
    "officeType": "B.O",
    "Deliverystatus": "Delivery",
    "divisionname": "Raigarh",
    "regionname": "Raipur",
    "circlename": "Chattisgarh",
    "Taluk": "Sarangarh",
    "Districtname": "Raigarh",
    "statename": "CHATTISGARH"
  },
  {
    "pincode": "496450",
    "officename": "Godam B.O",
    "officeType": "B.O",
    "Deliverystatus": "Delivery",
    "divisionname": "Raigarh",
    "regionname": "Raipur",
    "circlename": "Chattisgarh",
    "Taluk": "Sarangarh",
    "Districtname": "Raigarh",
    "statename": "CHATTISGARH"
  },
  {
    "pincode": "496450",
    "officename": "Gudeli B.O",
    "officeType": "B.O",
    "Deliverystatus": "Delivery",
    "divisionname": "Raigarh",
    "regionname": "Raipur",
    "circlename": "Chattisgarh",
    "Taluk": "Sarangarh",
    "Districtname": "Raigarh",
    "statename": "CHATTISGARH"
  },
  {
    "pincode": "496450",
    "officename": "Hardi S.O (Raigarh)",
    "officeType": "S.O",
    "Deliverystatus": "Delivery",
    "divisionname": "Raigarh",
    "regionname": "Raipur",
    "circlename": "Chattisgarh",
    "Taluk": "Sarangarh",
    "Districtname": "Raigarh",
    "statename": "CHATTISGARH"
  },
  {
    "pincode": "496450",
    "officename": "Jewra B.O",
    "officeType": "B.O",
    "Deliverystatus": "Delivery",
    "divisionname": "Raigarh",
    "regionname": "Raipur",
    "circlename": "Chattisgarh",
    "Taluk": "Sarangarh",
    "Districtname": "Raigarh",
    "statename": "CHATTISGARH"
  },
  {
    "pincode": "496450",
    "officename": "Kapisda B.O",
    "officeType": "B.O",
    "Deliverystatus": "Delivery",
    "divisionname": "Raigarh",
    "regionname": "Raipur",
    "circlename": "Chattisgarh",
    "Taluk": "Sarangarh",
    "Districtname": "Raigarh",
    "statename": "CHATTISGARH"
  },
  {
    "pincode": "496450",
    "officename": "Kotri B.O",
    "officeType": "B.O",
    "Deliverystatus": "Delivery",
    "divisionname": "Raigarh",
    "regionname": "Raipur",
    "circlename": "Chattisgarh",
    "Taluk": "Sarangarh",
    "Districtname": "Raigarh",
    "statename": "CHATTISGARH"
  },
  {
    "pincode": "496450",
    "officename": "Mudpar B.O",
    "officeType": "B.O",
    "Deliverystatus": "Delivery",
    "divisionname": "Raigarh",
    "regionname": "Raipur",
    "circlename": "Chattisgarh",
    "Taluk": "Sarnagarh",
    "Districtname": "Raigarh",
    "statename": "CHATTISGARH"
  },
  {
    "pincode": "496450",
    "officename": "Navrangpur B.O",
    "officeType": "B.O",
    "Deliverystatus": "Delivery",
    "divisionname": "Raigarh",
    "regionname": "Raipur",
    "circlename": "Chattisgarh",
    "Taluk": "Sarangarh",
    "Districtname": "Raigarh",
    "statename": "CHATTISGARH"
  },
  {
    "pincode": "496450",
    "officename": "Paseed B.O",
    "officeType": "B.O",
    "Deliverystatus": "Delivery",
    "divisionname": "Raigarh",
    "regionname": "Raipur",
    "circlename": "Chattisgarh",
    "Taluk": "Sarangarh",
    "Districtname": "Raigarh",
    "statename": "CHATTISGARH"
  },
  {
    "pincode": "496450",
    "officename": "Pendri B.O",
    "officeType": "B.O",
    "Deliverystatus": "Delivery",
    "divisionname": "Raigarh",
    "regionname": "Raipur",
    "circlename": "Chattisgarh",
    "Taluk": "Sarangarh",
    "Districtname": "Raigarh",
    "statename": "CHATTISGARH"
  },
  {
    "pincode": "496450",
    "officename": "Reda B.O",
    "officeType": "B.O",
    "Deliverystatus": "Delivery",
    "divisionname": "Raigarh",
    "regionname": "Raipur",
    "circlename": "Chattisgarh",
    "Taluk": "",
    "Districtname": "Raigarh",
    "statename": "CHATTISGARH"
  },
  {
    "pincode": "496450",
    "officename": "Timarlaga B.O",
    "officeType": "B.O",
    "Deliverystatus": "Delivery",
    "divisionname": "Raigarh",
    "regionname": "Raipur",
    "circlename": "Chattisgarh",
    "Taluk": "",
    "Districtname": "Raigarh",
    "statename": "CHATTISGARH"
  },
  {
    "pincode": "496450",
    "officename": "Uchbhitti B.O",
    "officeType": "B.O",
    "Deliverystatus": "Delivery",
    "divisionname": "Raigarh",
    "regionname": "Raipur",
    "circlename": "Chattisgarh",
    "Taluk": "Sarangarh",
    "Districtname": "Raigarh",
    "statename": "CHATTISGARH"
  },
  {
    "pincode": "496450",
    "officename": "Ulkhar B.O",
    "officeType": "B.O",
    "Deliverystatus": "Delivery",
    "divisionname": "Raigarh",
    "regionname": "Raipur",
    "circlename": "Chattisgarh",
    "Taluk": "Sarangarh",
    "Districtname": "Raigarh",
    "statename": "CHATTISGARH"
  }
]
