[
  {
    "pincode": "496554",
    "officename": "Badenawapara B.O",
    "officeType": "B.O",
    "Deliverystatus": "Delivery",
    "divisionname": "Raigarh",
    "regionname": "Raipur",
    "circlename": "Chattisgarh",
    "Taluk": "Sarangarh",
    "Districtname": "Raigarh",
    "statename": "CHATTISGARH"
  },
  {
    "pincode": "496554",
    "officename": "Bar B.O",
    "officeType": "B.O",
    "Deliverystatus": "Delivery",
    "divisionname": "Raigarh",
    "regionname": "Raipur",
    "circlename": "Chattisgarh",
    "Taluk": "",
    "Districtname": "Raigarh",
    "statename": "CHATTISGARH"
  },
  {
    "pincode": "496554",
    "officename": "Barpali B.O",
    "officeType": "B.O",
    "Deliverystatus": "Delivery",
    "divisionname": "Raigarh",
    "regionname": "Raipur",
    "circlename": "Chattisgarh",
    "Taluk": "",
    "Districtname": "Raigarh",
    "statename": "CHATTISGARH"
  },
  {
    "pincode": "496554",
    "officename": "Bonda B.O",
    "officeType": "B.O",
    "Deliverystatus": "Delivery",
    "divisionname": "Raigarh",
    "regionname": "Raipur",
    "circlename": "Chattisgarh",
    "Taluk": "",
    "Districtname": "Raigarh",
    "statename": "CHATTISGARH"
  },
  {
    "pincode": "496554",
    "officename": "Deogaon B.O",
    "officeType": "B.O",
    "Deliverystatus": "Delivery",
    "divisionname": "Raigarh",
    "regionname": "Raipur",
    "circlename": "Chattisgarh",
    "Taluk": "Sarangarh",
    "Districtname": "Raigarh",
    "statename": "CHATTISGARH"
  },
  {
    "pincode": "496554",
    "officename": "Gobersingha B.O",
    "officeType": "B.O",
    "Deliverystatus": "Delivery",
    "divisionname": "Raigarh",
    "regionname": "Raipur",
    "circlename": "Chattisgarh",
    "Taluk": "Sarangarh",
    "Districtname": "Raigarh",
    "statename": "CHATTISGARH"
  },
  {
    "pincode": "496554",
    "officename": "Lukapara B.O",
    "officeType": "B.O",
    "Deliverystatus": "Delivery",
    "divisionname": "Raigarh",
    "regionname": "Raipur",
    "circlename": "Chattisgarh",
    "Taluk": "Sarangarh",
    "Districtname": "Raigarh",
    "statename": "CHATTISGARH"
  },
  {
    "pincode": "496554",
    "officename": "Manikpur B.O",
    "officeType": "B.O",
    "Deliverystatus": "Delivery",
    "divisionname": "Raigarh",
    "regionname": "Raipur",
    "circlename": "Chattisgarh",
    "Taluk": "Sarangarh",
    "Districtname": "Raigarh",
    "statename": "CHATTISGARH"
  },
  {
    "pincode": "496554",
    "officename": "Nadigaon B.O",
    "officeType": "B.O",
    "Deliverystatus": "Delivery",
    "divisionname": "Raigarh",
    "regionname": "Raipur",
    "circlename": "Chattisgarh",
    "Taluk": "",
    "Districtname": "Raigarh",
    "statename": "CHATTISGARH"
  },
  {
    "pincode": "496554",
    "officename": "Panchdhar B.O",
    "officeType": "B.O",
    "Deliverystatus": "Delivery",
    "divisionname": "Raigarh",
    "regionname": "Raipur",
    "circlename": "Chattisgarh",
    "Taluk": "Sarangarh",
    "Districtname": "Raigarh",
    "statename": "CHATTISGARH"
  },
  {
    "pincode": "496554",
    "officename": "Rissora B.O",
    "officeType": "B.O",
    "Deliverystatus": "Delivery",
    "divisionname": "Raigarh",
    "regionname": "Raipur",
    "circlename": "Chattisgarh",
    "Taluk": "Sarangarh",
    "Districtname": "Raigarh",
    "statename": "CHATTISGARH"
  },
  {
    "pincode": "496554",
    "officename": "Salheona B.O",
    "officeType": "B.O",
    "Deliverystatus": "Delivery",
    "divisionname": "Raigarh",
    "regionname": "Raipur",
    "circlename": "Chattisgarh",
    "Taluk": "Sarangarh",
    "Districtname": "Raigarh",
    "statename": "CHATTISGARH"
  },
  {
    "pincode": "496554",
    "officename": "Sankra B.O",
    "officeType": "B.O",
    "Deliverystatus": "Delivery",
    "divisionname": "Raigarh",
    "regionname": "Raipur",
    "circlename": "Chattisgarh",
    "Taluk": "Sarangarh",
    "Districtname": "Raigarh",
    "statename": "CHATTISGARH"
  },
  {
    "pincode": "496554",
    "officename": "Saria S.O",
    "officeType": "S.O",
    "Deliverystatus": "Delivery",
    "divisionname": "Raigarh",
    "regionname": "Raipur",
    "circlename": "Chattisgarh",
    "Taluk": "Saria",
    "Districtname": "Raigarh",
    "statename": "CHATTISGARH"
  }
]
