[
  {
    "pincode": "496665",
    "officename": "Bangursia B.O",
    "officeType": "B.O",
    "Deliverystatus": "Delivery",
    "divisionname": "Raigarh",
    "regionname": "Raipur",
    "circlename": "Chattisgarh",
    "Taluk": "Udaipur (Dharamjaigarh)",
    "Districtname": "Raigarh",
    "statename": "CHATTISGARH"
  },
  {
    "pincode": "496665",
    "officename": "Banhar B.O",
    "officeType": "B.O",
    "Deliverystatus": "Delivery",
    "divisionname": "Raigarh",
    "regionname": "Raipur",
    "circlename": "Chattisgarh",
    "Taluk": "",
    "Districtname": "Raigarh",
    "statename": "CHATTISGARH"
  },
  {
    "pincode": "496665",
    "officename": "Barbhouna B.O",
    "officeType": "B.O",
    "Deliverystatus": "Delivery",
    "divisionname": "Raigarh",
    "regionname": "Raipur",
    "circlename": "Chattisgarh",
    "Taluk": "Kharsia",
    "Districtname": "Raigarh",
    "statename": "CHATTISGARH"
  },
  {
    "pincode": "496665",
    "officename": "Barra B.O",
    "officeType": "B.O",
    "Deliverystatus": "Delivery",
    "divisionname": "Raigarh",
    "regionname": "Raipur",
    "circlename": "Chattisgarh",
    "Taluk": "Kharsia",
    "Districtname": "Raigarh",
    "statename": "CHATTISGARH"
  },
  {
    "pincode": "496665",
    "officename": "Bojia B.O",
    "officeType": "B.O",
    "Deliverystatus": "Delivery",
    "divisionname": "Raigarh",
    "regionname": "Raipur",
    "circlename": "Chattisgarh",
    "Taluk": "Udaipur (Dharamjaigarh)",
    "Districtname": "Raigarh",
    "statename": "CHATTISGARH"
  },
  {
    "pincode": "496665",
    "officename": "Chandrasekharpur B.O",
    "officeType": "B.O",
    "Deliverystatus": "Delivery",
    "divisionname": "Raigarh",
    "regionname": "Raipur",
    "circlename": "Chattisgarh",
    "Taluk": "Udaipur (Dharamjaigarh)",
    "Districtname": "Raigarh",
    "statename": "CHATTISGARH"
  },
  {
    "pincode": "496665",
    "officename": "Chhal S.O",
    "officeType": "S.O",
    "Deliverystatus": "Delivery",
    "divisionname": "Raigarh",
    "regionname": "Raipur",
    "circlename": "Chattisgarh",
    "Taluk": "",
    "Districtname": "Raigarh",
    "statename": "CHATTISGARH"
  },
  {
    "pincode": "496665",
    "officename": "Dehjari B.O",
    "officeType": "B.O",
    "Deliverystatus": "Delivery",
    "divisionname": "Raigarh",
    "regionname": "Raipur",
    "circlename": "Chattisgarh",
    "Taluk": "Dharmajaigarh",
    "Districtname": "Raigarh",
    "statename": "CHATTISGARH"
  },
  {
    "pincode": "496665",
    "officename": "Farkanara B.O",
    "officeType": "B.O",
    "Deliverystatus": "Delivery",
    "divisionname": "Raigarh",
    "regionname": "Raipur",
    "circlename": "Chattisgarh",
    "Taluk": "Dharmajaigarh",
    "Districtname": "Raigarh",
    "statename": "CHATTISGARH"
  },
  {
    "pincode": "496665",
    "officename": "Gorpar B.O",
    "officeType": "B.O",
    "Deliverystatus": "Delivery",
    "divisionname": "Raigarh",
    "regionname": "Raipur",
    "circlename": "Chattisgarh",
    "Taluk": "Dharmajaigarh",
    "Districtname": "Raigarh",
    "statename": "CHATTISGARH"
  },
  {
    "pincode": "496665",
    "officename": "Gurda B.O",
    "officeType": "B.O",
    "Deliverystatus": "Delivery",
    "divisionname": "Raigarh",
    "regionname": "Raipur",
    "circlename": "Chattisgarh",
    "Taluk": "Dharmajaigarh",
    "Districtname": "Raigarh",
    "statename": "CHATTISGARH"
  },
  {
    "pincode": "496665",
    "officename": "Jobi B.O",
    "officeType": "B.O",
    "Deliverystatus": "Delivery",
    "divisionname": "Raigarh",
    "regionname": "Raipur",
    "circlename": "Chattisgarh",
    "Taluk": "Dharmajaigarh",
    "Districtname": "Raigarh",
    "statename": "CHATTISGARH"
  },
  {
    "pincode": "496665",
    "officename": "Karaipali B.O",
    "officeType": "B.O",
    "Deliverystatus": "Delivery",
    "divisionname": "Raigarh",
    "regionname": "Raipur",
    "circlename": "Chattisgarh",
    "Taluk": "Dharmajaigarh",
    "Districtname": "Raigarh",
    "statename": "CHATTISGARH"
  },
  {
    "pincode": "496665",
    "officename": "Khamhar B.O",
    "officeType": "B.O",
    "Deliverystatus": "Delivery",
    "divisionname": "Raigarh",
    "regionname": "Raipur",
    "circlename": "Chattisgarh",
    "Taluk": "Udaipur (Dharamjaigarh)",
    "Districtname": "Raigarh",
    "statename": "CHATTISGARH"
  },
  {
    "pincode": "496665",
    "officename": "Kudekela B.O",
    "officeType": "B.O",
    "Deliverystatus": "Delivery",
    "divisionname": "Raigarh",
    "regionname": "Raipur",
    "circlename": "Chattisgarh",
    "Taluk": "Udaipur (Dharamjaigarh)",
    "Districtname": "Raigarh",
    "statename": "CHATTISGARH"
  },
  {
    "pincode": "496665",
    "officename": "Nagoi B.O",
    "officeType": "B.O",
    "Deliverystatus": "Delivery",
    "divisionname": "Raigarh",
    "regionname": "Raipur",
    "circlename": "Chattisgarh",
    "Taluk": "Dharmajaigarh",
    "Districtname": "Raigarh",
    "statename": "CHATTISGARH"
  },
  {
    "pincode": "496665",
    "officename": "Nawapara B.O",
    "officeType": "B.O",
    "Deliverystatus": "Delivery",
    "divisionname": "Raigarh",
    "regionname": "Raipur",
    "circlename": "Chattisgarh",
    "Taluk": "Dharmajaigarh",
    "Districtname": "Raigarh",
    "statename": "CHATTISGARH"
  },
  {
    "pincode": "496665",
    "officename": "Pusalda B.O",
    "officeType": "B.O",
    "Deliverystatus": "Delivery",
    "divisionname": "Raigarh",
    "regionname": "Raipur",
    "circlename": "Chattisgarh",
    "Taluk": "",
    "Districtname": "Raigarh",
    "statename": "CHATTISGARH"
  },
  {
    "pincode": "496665",
    "officename": "Relo B.O",
    "officeType": "B.O",
    "Deliverystatus": "Delivery",
    "divisionname": "Raigarh",
    "regionname": "Raipur",
    "circlename": "Chattisgarh",
    "Taluk": "Udaipur (Dharamjaigarh)",
    "Districtname": "Raigarh",
    "statename": "CHATTISGARH"
  }
]
