[
  {
    "pincode": "497111",
    "officename": "Bataikela B.O",
    "officeType": "B.O",
    "Deliverystatus": "Delivery",
    "divisionname": "Raigarh",
    "regionname": "Raipur",
    "circlename": "Chattisgarh",
    "Taluk": "",
    "Districtname": "Surguja",
    "statename": "CHATTISGARH"
  },
  {
    "pincode": "497111",
    "officename": "Bhusu B.O",
    "officeType": "B.O",
    "Deliverystatus": "Delivery",
    "divisionname": "Raigarh",
    "regionname": "Raipur",
    "circlename": "Chattisgarh",
    "Taluk": "",
    "Districtname": "Surguja",
    "statename": "CHATTISGARH"
  },
  {
    "pincode": "497111",
    "officename": "Deogarh B.O",
    "officeType": "B.O",
    "Deliverystatus": "Delivery",
    "divisionname": "Raigarh",
    "regionname": "Raipur",
    "circlename": "Chattisgarh",
    "Taluk": "Sitapur",
    "Districtname": "Surguja",
    "statename": "CHATTISGARH"
  },
  {
    "pincode": "497111",
    "officename": "Dhodhagaon B.O",
    "officeType": "B.O",
    "Deliverystatus": "Delivery",
    "divisionname": "Raigarh",
    "regionname": "Raipur",
    "circlename": "Chattisgarh",
    "Taluk": "Sitapur",
    "Districtname": "Surguja",
    "statename": "CHATTISGARH"
  },
  {
    "pincode": "497111",
    "officename": "Girhuildih B.O",
    "officeType": "B.O",
    "Deliverystatus": "Delivery",
    "divisionname": "Raigarh",
    "regionname": "Raipur",
    "circlename": "Chattisgarh",
    "Taluk": "Sitapur",
    "Districtname": "Surguja",
    "statename": "CHATTISGARH"
  },
  {
    "pincode": "497111",
    "officename": "Jajga B.O",
    "officeType": "B.O",
    "Deliverystatus": "Delivery",
    "divisionname": "Raigarh",
    "regionname": "Raipur",
    "circlename": "Chattisgarh",
    "Taluk": "Sitapur",
    "Districtname": "Surguja",
    "statename": "CHATTISGARH"
  },
  {
    "pincode": "497111",
    "officename": "Kamleshwarpur B.O",
    "officeType": "B.O",
    "Deliverystatus": "Delivery",
    "divisionname": "Raigarh",
    "regionname": "Raipur",
    "circlename": "Chattisgarh",
    "Taluk": "Sitapur",
    "Districtname": "Surguja",
    "statename": "CHATTISGARH"
  },
  {
    "pincode": "497111",
    "officename": "Katkalo B.O",
    "officeType": "B.O",
    "Deliverystatus": "Delivery",
    "divisionname": "Raigarh",
    "regionname": "Raipur",
    "circlename": "Chattisgarh",
    "Taluk": "Sitapur",
    "Districtname": "Surguja",
    "statename": "CHATTISGARH"
  },
  {
    "pincode": "497111",
    "officename": "Khadadorna B.O",
    "officeType": "B.O",
    "Deliverystatus": "Delivery",
    "divisionname": "Raigarh",
    "regionname": "Raipur",
    "circlename": "Chattisgarh",
    "Taluk": "Sitapur",
    "Districtname": "Surguja",
    "statename": "CHATTISGARH"
  },
  {
    "pincode": "497111",
    "officename": "Kot B.O",
    "officeType": "B.O",
    "Deliverystatus": "Delivery",
    "divisionname": "Raigarh",
    "regionname": "Raipur",
    "circlename": "Chattisgarh",
    "Taluk": "Sitapur",
    "Districtname": "Surguja",
    "statename": "CHATTISGARH"
  },
  {
    "pincode": "497111",
    "officename": "Narbadapur B.O",
    "officeType": "B.O",
    "Deliverystatus": "Delivery",
    "divisionname": "Raigarh",
    "regionname": "Raipur",
    "circlename": "Chattisgarh",
    "Taluk": "Sitapur",
    "Districtname": "Surguja",
    "statename": "CHATTISGARH"
  },
  {
    "pincode": "497111",
    "officename": "Petla B.O",
    "officeType": "B.O",
    "Deliverystatus": "Delivery",
    "divisionname": "Raigarh",
    "regionname": "Raipur",
    "circlename": "Chattisgarh",
    "Taluk": "Sitapur",
    "Districtname": "Surguja",
    "statename": "CHATTISGARH"
  },
  {
    "pincode": "497111",
    "officename": "Sarga B.O",
    "officeType": "B.O",
    "Deliverystatus": "Delivery",
    "divisionname": "Raigarh",
    "regionname": "Raipur",
    "circlename": "Chattisgarh",
    "Taluk": "Sitapur",
    "Districtname": "Surguja",
    "statename": "CHATTISGARH"
  },
  {
    "pincode": "497111",
    "officename": "Sitapur S.O",
    "officeType": "S.O",
    "Deliverystatus": "Delivery",
    "divisionname": "Raigarh",
    "regionname": "Raipur",
    "circlename": "Chattisgarh",
    "Taluk": "Sitapur",
    "Districtname": "Surguja",
    "statename": "CHATTISGARH"
  },
  {
    "pincode": "497111",
    "officename": "Sur B.O",
    "officeType": "B.O",
    "Deliverystatus": "Delivery",
    "divisionname": "Raigarh",
    "regionname": "Raipur",
    "circlename": "Chattisgarh",
    "Taluk": "Sitapur",
    "Districtname": "Surguja",
    "statename": "CHATTISGARH"
  }
]
