[
  {
    "pincode": "497220",
    "officename": "Annapara B.O",
    "officeType": "B.O",
    "Deliverystatus": "Delivery",
    "divisionname": "Raigarh",
    "regionname": "Raipur",
    "circlename": "Chattisgarh",
    "Taluk": "",
    "Districtname": "Surguja",
    "statename": "CHATTISGARH"
  },
  {
    "pincode": "497220",
    "officename": "Aragarhi Camp B.O",
    "officeType": "B.O",
    "Deliverystatus": "Delivery",
    "divisionname": "Raigarh",
    "regionname": "Raipur",
    "circlename": "Chattisgarh",
    "Taluk": "",
    "Districtname": "Surguja",
    "statename": "CHATTISGARH"
  },
  {
    "pincode": "497220",
    "officename": "Chaki B.O",
    "officeType": "B.O",
    "Deliverystatus": "Delivery",
    "divisionname": "Raigarh",
    "regionname": "Raipur",
    "circlename": "Chattisgarh",
    "Taluk": "",
    "Districtname": "Surguja",
    "statename": "CHATTISGARH"
  },
  {
    "pincode": "497220",
    "officename": "Chandranagar B.O",
    "officeType": "B.O",
    "Deliverystatus": "Delivery",
    "divisionname": "Raigarh",
    "regionname": "Raipur",
    "circlename": "Chattisgarh",
    "Taluk": "",
    "Districtname": "Surguja",
    "statename": "CHATTISGARH"
  },
  {
    "pincode": "497220",
    "officename": "Chhattarpur B.O",
    "officeType": "B.O",
    "Deliverystatus": "Delivery",
    "divisionname": "Raigarh",
    "regionname": "Raipur",
    "circlename": "Chattisgarh",
    "Taluk": "Surguja",
    "Districtname": "Surguja",
    "statename": "CHATTISGARH"
  },
  {
    "pincode": "497220",
    "officename": "Chiniya B.O",
    "officeType": "B.O",
    "Deliverystatus": "Delivery",
    "divisionname": "Raigarh",
    "regionname": "Raipur",
    "circlename": "Chattisgarh",
    "Taluk": "Surguja",
    "Districtname": "Surguja",
    "statename": "CHATTISGARH"
  },
  {
    "pincode": "497220",
    "officename": "Dolangi B.O",
    "officeType": "B.O",
    "Deliverystatus": "Delivery",
    "divisionname": "Raigarh",
    "regionname": "Raipur",
    "circlename": "Chattisgarh",
    "Taluk": "Surguja",
    "Districtname": "Surguja",
    "statename": "CHATTISGARH"
  },
  {
    "pincode": "497220",
    "officename": "Ganjar B.O",
    "officeType": "B.O",
    "Deliverystatus": "Delivery",
    "divisionname": "Raigarh",
    "regionname": "Raipur",
    "circlename": "Chattisgarh",
    "Taluk": "Surguja",
    "Districtname": "Surguja",
    "statename": "CHATTISGARH"
  },
  {
    "pincode": "497220",
    "officename": "Krishnanagar B.O",
    "officeType": "B.O",
    "Deliverystatus": "Delivery",
    "divisionname": "Raigarh",
    "regionname": "Raipur",
    "circlename": "Chattisgarh",
    "Taluk": "Surguja",
    "Districtname": "Surguja",
    "statename": "CHATTISGARH"
  },
  {
    "pincode": "497220",
    "officename": "Lodha B.O",
    "officeType": "B.O",
    "Deliverystatus": "Delivery",
    "divisionname": "Raigarh",
    "regionname": "Raipur",
    "circlename": "Chattisgarh",
    "Taluk": "Surguja",
    "Districtname": "Surguja",
    "statename": "CHATTISGARH"
  },
  {
    "pincode": "497220",
    "officename": "Mitgai B.O",
    "officeType": "B.O",
    "Deliverystatus": "Delivery",
    "divisionname": "Raigarh",
    "regionname": "Raipur",
    "circlename": "Chattisgarh",
    "Taluk": "Surguja",
    "Districtname": "Surguja",
    "statename": "CHATTISGARH"
  },
  {
    "pincode": "497220",
    "officename": "Ramanujganj S.O",
    "officeType": "S.O",
    "Deliverystatus": "Delivery",
    "divisionname": "Raigarh",
    "regionname": "Raipur",
    "circlename": "Chattisgarh",
    "Taluk": "",
    "Districtname": "Surguja",
    "statename": "CHATTISGARH"
  },
  {
    "pincode": "497220",
    "officename": "Ramchandranagar B.O",
    "officeType": "B.O",
    "Deliverystatus": "Delivery",
    "divisionname": "Raigarh",
    "regionname": "Raipur",
    "circlename": "Chattisgarh",
    "Taluk": "Surguja",
    "Districtname": "Surguja",
    "statename": "CHATTISGARH"
  },
  {
    "pincode": "497220",
    "officename": "Sonawal B.O",
    "officeType": "B.O",
    "Deliverystatus": "Delivery",
    "divisionname": "Raigarh",
    "regionname": "Raipur",
    "circlename": "Chattisgarh",
    "Taluk": "Surguja",
    "Districtname": "Surguja",
    "statename": "CHATTISGARH"
  },
  {
    "pincode": "497220",
    "officename": "Tatapani B.O",
    "officeType": "B.O",
    "Deliverystatus": "Delivery",
    "divisionname": "Raigarh",
    "regionname": "Raipur",
    "circlename": "Chattisgarh",
    "Taluk": "Surguja",
    "Districtname": "Surguja",
    "statename": "CHATTISGARH"
  },
  {
    "pincode": "497220",
    "officename": "Vijaynagar B.O",
    "officeType": "B.O",
    "Deliverystatus": "Delivery",
    "divisionname": "Raigarh",
    "regionname": "Raipur",
    "circlename": "Chattisgarh",
    "Taluk": "Surguja",
    "Districtname": "Surguja",
    "statename": "CHATTISGARH"
  }
]
