[
  {
    "pincode": "497231",
    "officename": "Baijnathpur B.O",
    "officeType": "B.O",
    "Deliverystatus": "Delivery",
    "divisionname": "Raigarh",
    "regionname": "Raipur",
    "circlename": "Chattisgarh",
    "Taluk": "",
    "Districtname": "Surguja",
    "statename": "CHATTISGARH"
  },
  {
    "pincode": "497231",
    "officename": "Banja B.O",
    "officeType": "B.O",
    "Deliverystatus": "Delivery",
    "divisionname": "Raigarh",
    "regionname": "Raipur",
    "circlename": "Chattisgarh",
    "Taluk": "",
    "Districtname": "Surguja",
    "statename": "CHATTISGARH"
  },
  {
    "pincode": "497231",
    "officename": "Basdei B.O",
    "officeType": "B.O",
    "Deliverystatus": "Delivery",
    "divisionname": "Raigarh",
    "regionname": "Raipur",
    "circlename": "Chattisgarh",
    "Taluk": "",
    "Districtname": "Surguja",
    "statename": "CHATTISGARH"
  },
  {
    "pincode": "497231",
    "officename": "Bhaiyathan S.O",
    "officeType": "S.O",
    "Deliverystatus": "Delivery",
    "divisionname": "Raigarh",
    "regionname": "Raipur",
    "circlename": "Chattisgarh",
    "Taluk": "",
    "Districtname": "Surguja",
    "statename": "CHATTISGARH"
  },
  {
    "pincode": "497231",
    "officename": "Darripara B.O",
    "officeType": "B.O",
    "Deliverystatus": "Delivery",
    "divisionname": "Raigarh",
    "regionname": "Raipur",
    "circlename": "Chattisgarh",
    "Taluk": "Surajpur",
    "Districtname": "Surguja",
    "statename": "CHATTISGARH"
  },
  {
    "pincode": "497231",
    "officename": "Lanjit B.O",
    "officeType": "B.O",
    "Deliverystatus": "Delivery",
    "divisionname": "Raigarh",
    "regionname": "Raipur",
    "circlename": "Chattisgarh",
    "Taluk": "Surajpur",
    "Districtname": "Surguja",
    "statename": "CHATTISGARH"
  },
  {
    "pincode": "497231",
    "officename": "Odgi B.O",
    "officeType": "B.O",
    "Deliverystatus": "Delivery",
    "divisionname": "Raigarh",
    "regionname": "Raipur",
    "circlename": "Chattisgarh",
    "Taluk": "Surajpur",
    "Districtname": "Surguja",
    "statename": "CHATTISGARH"
  },
  {
    "pincode": "497231",
    "officename": "Sirsi B.O",
    "officeType": "B.O",
    "Deliverystatus": "Delivery",
    "divisionname": "Raigarh",
    "regionname": "Raipur",
    "circlename": "Chattisgarh",
    "Taluk": "Surajpur",
    "Districtname": "Surguja",
    "statename": "CHATTISGARH"
  }
]
