[
  {
    "pincode": "497224",
    "officename": "Bhulsikala B.O",
    "officeType": "B.O",
    "Deliverystatus": "Delivery",
    "divisionname": "Raigarh",
    "regionname": "Raipur",
    "circlename": "Chattisgarh",
    "Taluk": "",
    "Districtname": "Surguja",
    "statename": "CHATTISGARH"
  },
  {
    "pincode": "497224",
    "officename": "Dumarkhola B.O",
    "officeType": "B.O",
    "Deliverystatus": "Delivery",
    "divisionname": "Raigarh",
    "regionname": "Raipur",
    "circlename": "Chattisgarh",
    "Taluk": "Kusmi",
    "Districtname": "Surguja",
    "statename": "CHATTISGARH"
  },
  {
    "pincode": "497224",
    "officename": "Gajadharpur B.O",
    "officeType": "B.O",
    "Deliverystatus": "Delivery",
    "divisionname": "Raigarh",
    "regionname": "Raipur",
    "circlename": "Chattisgarh",
    "Taluk": "Kusmi",
    "Districtname": "Surguja",
    "statename": "CHATTISGARH"
  },
  {
    "pincode": "497224",
    "officename": "Jamirapath B.O",
    "officeType": "B.O",
    "Deliverystatus": "Delivery",
    "divisionname": "Raigarh",
    "regionname": "Raipur",
    "circlename": "Chattisgarh",
    "Taluk": "Kusmi",
    "Districtname": "Surguja",
    "statename": "CHATTISGARH"
  },
  {
    "pincode": "497224",
    "officename": "Jawaharnagar B.O",
    "officeType": "B.O",
    "Deliverystatus": "Delivery",
    "divisionname": "Raigarh",
    "regionname": "Raipur",
    "circlename": "Chattisgarh",
    "Taluk": "Kusmi",
    "Districtname": "Surguja",
    "statename": "CHATTISGARH"
  },
  {
    "pincode": "497224",
    "officename": "Karoundha B.O",
    "officeType": "B.O",
    "Deliverystatus": "Delivery",
    "divisionname": "Raigarh",
    "regionname": "Raipur",
    "circlename": "Chattisgarh",
    "Taluk": "Kusmi",
    "Districtname": "Surguja",
    "statename": "CHATTISGARH"
  },
  {
    "pincode": "497224",
    "officename": "Katima B.O",
    "officeType": "B.O",
    "Deliverystatus": "Delivery",
    "divisionname": "Raigarh",
    "regionname": "Raipur",
    "circlename": "Chattisgarh",
    "Taluk": "Kusmi",
    "Districtname": "Surguja",
    "statename": "CHATTISGARH"
  },
  {
    "pincode": "497224",
    "officename": "Kusmi S.O",
    "officeType": "S.O",
    "Deliverystatus": "Delivery",
    "divisionname": "Raigarh",
    "regionname": "Raipur",
    "circlename": "Chattisgarh",
    "Taluk": "Kusmi",
    "Districtname": "Surguja",
    "statename": "CHATTISGARH"
  },
  {
    "pincode": "497224",
    "officename": "Larima B.O",
    "officeType": "B.O",
    "Deliverystatus": "Delivery",
    "divisionname": "Raigarh",
    "regionname": "Raipur",
    "circlename": "Chattisgarh",
    "Taluk": "Kusmi",
    "Districtname": "Surguja",
    "statename": "CHATTISGARH"
  },
  {
    "pincode": "497224",
    "officename": "Madguri B.O",
    "officeType": "B.O",
    "Deliverystatus": "Delivery",
    "divisionname": "Raigarh",
    "regionname": "Raipur",
    "circlename": "Chattisgarh",
    "Taluk": "Kusmi",
    "Districtname": "Surguja",
    "statename": "CHATTISGARH"
  },
  {
    "pincode": "497224",
    "officename": "Rehda B.O",
    "officeType": "B.O",
    "Deliverystatus": "Delivery",
    "divisionname": "Raigarh",
    "regionname": "Raipur",
    "circlename": "Chattisgarh",
    "Taluk": "Kusmi",
    "Districtname": "Surguja",
    "statename": "CHATTISGARH"
  },
  {
    "pincode": "497224",
    "officename": "Sabag B.O",
    "officeType": "B.O",
    "Deliverystatus": "Delivery",
    "divisionname": "Raigarh",
    "regionname": "Raipur",
    "circlename": "Chattisgarh",
    "Taluk": "Kusmi",
    "Districtname": "Surguja",
    "statename": "CHATTISGARH"
  },
  {
    "pincode": "497224",
    "officename": "Samri B.O",
    "officeType": "B.O",
    "Deliverystatus": "Delivery",
    "divisionname": "Raigarh",
    "regionname": "Raipur",
    "circlename": "Chattisgarh",
    "Taluk": "Kusmi",
    "Districtname": "Surguja",
    "statename": "CHATTISGARH"
  },
  {
    "pincode": "497224",
    "officename": "Umko B.O",
    "officeType": "B.O",
    "Deliverystatus": "Delivery",
    "divisionname": "Raigarh",
    "regionname": "Raipur",
    "circlename": "Chattisgarh",
    "Taluk": "Kusmi",
    "Districtname": "Surguja",
    "statename": "CHATTISGARH"
  }
]
