[
  {
    "pincode": "497333",
    "officename": "Bakalo B.O",
    "officeType": "B.O",
    "Deliverystatus": "Delivery",
    "divisionname": "Raigarh",
    "regionname": "Raipur",
    "circlename": "Chattisgarh",
    "Taluk": "",
    "Districtname": "Surguja",
    "statename": "CHATTISGARH"
  },
  {
    "pincode": "497333",
    "officename": "Bhuneshwarpur B.O",
    "officeType": "B.O",
    "Deliverystatus": "Delivery",
    "divisionname": "Raigarh",
    "regionname": "Raipur",
    "circlename": "Chattisgarh",
    "Taluk": "",
    "Districtname": "Surguja",
    "statename": "CHATTISGARH"
  },
  {
    "pincode": "497333",
    "officename": "Deonagar B.O",
    "officeType": "B.O",
    "Deliverystatus": "Delivery",
    "divisionname": "Raigarh",
    "regionname": "Raipur",
    "circlename": "Chattisgarh",
    "Taluk": "Surajpur",
    "Districtname": "Surguja",
    "statename": "CHATTISGARH"
  },
  {
    "pincode": "497333",
    "officename": "Ganeshpur B.O",
    "officeType": "B.O",
    "Deliverystatus": "Delivery",
    "divisionname": "Raigarh",
    "regionname": "Raipur",
    "circlename": "Chattisgarh",
    "Taluk": "Surajpur",
    "Districtname": "Surguja",
    "statename": "CHATTISGARH"
  },
  {
    "pincode": "497333",
    "officename": "Kanchanpur B.O",
    "officeType": "B.O",
    "Deliverystatus": "Delivery",
    "divisionname": "Raigarh",
    "regionname": "Raipur",
    "circlename": "Chattisgarh",
    "Taluk": "Surajpur",
    "Districtname": "Surguja",
    "statename": "CHATTISGARH"
  },
  {
    "pincode": "497333",
    "officename": "Madanpur B.O",
    "officeType": "B.O",
    "Deliverystatus": "Delivery",
    "divisionname": "Raigarh",
    "regionname": "Raipur",
    "circlename": "Chattisgarh",
    "Taluk": "",
    "Districtname": "Surguja",
    "statename": "CHATTISGARH"
  },
  {
    "pincode": "497333",
    "officename": "Nawapurakalan B.O",
    "officeType": "B.O",
    "Deliverystatus": "Delivery",
    "divisionname": "Raigarh",
    "regionname": "Raipur",
    "circlename": "Chattisgarh",
    "Taluk": "Surajpur",
    "Districtname": "Surguja",
    "statename": "CHATTISGARH"
  },
  {
    "pincode": "497333",
    "officename": "Parshurampur B.O",
    "officeType": "B.O",
    "Deliverystatus": "Delivery",
    "divisionname": "Raigarh",
    "regionname": "Raipur",
    "circlename": "Chattisgarh",
    "Taluk": "Surajpur",
    "Districtname": "Surguja",
    "statename": "CHATTISGARH"
  },
  {
    "pincode": "497333",
    "officename": "Patrapali B.O",
    "officeType": "B.O",
    "Deliverystatus": "Delivery",
    "divisionname": "Raigarh",
    "regionname": "Raipur",
    "circlename": "Chattisgarh",
    "Taluk": "Surajpur",
    "Districtname": "Surguja",
    "statename": "CHATTISGARH"
  },
  {
    "pincode": "497333",
    "officename": "Premnagar B.O",
    "officeType": "B.O",
    "Deliverystatus": "Delivery",
    "divisionname": "Raigarh",
    "regionname": "Raipur",
    "circlename": "Chattisgarh",
    "Taluk": "Surajpur",
    "Districtname": "Surguja",
    "statename": "CHATTISGARH"
  },
  {
    "pincode": "497333",
    "officename": "Ramanujnagar S.O",
    "officeType": "S.O",
    "Deliverystatus": "Delivery",
    "divisionname": "Raigarh",
    "regionname": "Raipur",
    "circlename": "Chattisgarh",
    "Taluk": "Surajpur",
    "Districtname": "Surguja",
    "statename": "CHATTISGARH"
  },
  {
    "pincode": "497333",
    "officename": "Tiwragudi B.O",
    "officeType": "B.O",
    "Deliverystatus": "Delivery",
    "divisionname": "Raigarh",
    "regionname": "Raipur",
    "circlename": "Chattisgarh",
    "Taluk": "Surajpur",
    "Districtname": "Surguja",
    "statename": "CHATTISGARH"
  },
  {
    "pincode": "497333",
    "officename": "Umeshwarpur B.O",
    "officeType": "B.O",
    "Deliverystatus": "Delivery",
    "divisionname": "Raigarh",
    "regionname": "Raipur",
    "circlename": "Chattisgarh",
    "Taluk": "Surajpur",
    "Districtname": "Surguja",
    "statename": "CHATTISGARH"
  }
]
