[
  {
    "pincode": "497449",
    "officename": "Bardar B.O",
    "officeType": "B.O",
    "Deliverystatus": "Delivery",
    "divisionname": "Raigarh",
    "regionname": "Raipur",
    "circlename": "Chattisgarh",
    "Taluk": "",
    "Districtname": "Koriya",
    "statename": "CHATTISGARH"
  },
  {
    "pincode": "497449",
    "officename": "Chirimiri Colly S.O",
    "officeType": "S.O",
    "Deliverystatus": "Delivery",
    "divisionname": "Raigarh",
    "regionname": "Raipur",
    "circlename": "Chattisgarh",
    "Taluk": "Manendragarh",
    "Districtname": "Koriya",
    "statename": "CHATTISGARH"
  },
  {
    "pincode": "497449",
    "officename": "Chirmi B.O",
    "officeType": "B.O",
    "Deliverystatus": "Delivery",
    "divisionname": "Raigarh",
    "regionname": "Raipur",
    "circlename": "Chattisgarh",
    "Taluk": "Manendragarh",
    "Districtname": "Koriya",
    "statename": "CHATTISGARH"
  },
  {
    "pincode": "497449",
    "officename": "Devadand B.O",
    "officeType": "B.O",
    "Deliverystatus": "Delivery",
    "divisionname": "Raigarh",
    "regionname": "Raipur",
    "circlename": "Chattisgarh",
    "Taluk": "Manendragarh",
    "Districtname": "Koriya",
    "statename": "CHATTISGARH"
  },
  {
    "pincode": "497449",
    "officename": "Katkona B.O",
    "officeType": "B.O",
    "Deliverystatus": "Delivery",
    "divisionname": "Raigarh",
    "regionname": "Raipur",
    "circlename": "Chattisgarh",
    "Taluk": "Manendragarh",
    "Districtname": "Koriya",
    "statename": "CHATTISGARH"
  },
  {
    "pincode": "497449",
    "officename": "Khadgaon B.O",
    "officeType": "B.O",
    "Deliverystatus": "Delivery",
    "divisionname": "Raigarh",
    "regionname": "Raipur",
    "circlename": "Chattisgarh",
    "Taluk": "Manendragarh",
    "Districtname": "Koriya",
    "statename": "CHATTISGARH"
  },
  {
    "pincode": "497449",
    "officename": "Koda B.O",
    "officeType": "B.O",
    "Deliverystatus": "Delivery",
    "divisionname": "Raigarh",
    "regionname": "Raipur",
    "circlename": "Chattisgarh",
    "Taluk": "Manendragarh",
    "Districtname": "Koriya",
    "statename": "CHATTISGARH"
  },
  {
    "pincode": "497449",
    "officename": "Pondi B.O",
    "officeType": "B.O",
    "Deliverystatus": "Delivery",
    "divisionname": "Raigarh",
    "regionname": "Raipur",
    "circlename": "Chattisgarh",
    "Taluk": "Manendragarh",
    "Districtname": "Koriya",
    "statename": "CHATTISGARH"
  },
  {
    "pincode": "497449",
    "officename": "Sons B.O",
    "officeType": "B.O",
    "Deliverystatus": "Delivery",
    "divisionname": "Raigarh",
    "regionname": "Raipur",
    "circlename": "Chattisgarh",
    "Taluk": "Manendragarh",
    "Districtname": "Koriya",
    "statename": "CHATTISGARH"
  },
  {
    "pincode": "497449",
    "officename": "Tamdand B.O",
    "officeType": "B.O",
    "Deliverystatus": "Delivery",
    "divisionname": "Raigarh",
    "regionname": "Raipur",
    "circlename": "Chattisgarh",
    "Taluk": "Manendragarh",
    "Districtname": "Koriya",
    "statename": "CHATTISGARH"
  },
  {
    "pincode": "497449",
    "officename": "Udhnapur B.O",
    "officeType": "B.O",
    "Deliverystatus": "Delivery",
    "divisionname": "Raigarh",
    "regionname": "Raipur",
    "circlename": "Chattisgarh",
    "Taluk": "Manendrgarh",
    "Districtname": "Koriya",
    "statename": "CHATTISGARH"
  }
]
