[
  {
    "pincode": "497778",
    "officename": "Baharasi B.O",
    "officeType": "B.O",
    "Deliverystatus": "Delivery",
    "divisionname": "Raigarh",
    "regionname": "Raipur",
    "circlename": "Chattisgarh",
    "Taluk": "",
    "Districtname": "Koriya",
    "statename": "CHATTISGARH"
  },
  {
    "pincode": "497778",
    "officename": "Bhagwanpur B.O",
    "officeType": "B.O",
    "Deliverystatus": "Delivery",
    "divisionname": "Raigarh",
    "regionname": "Raipur",
    "circlename": "Chattisgarh",
    "Taluk": "",
    "Districtname": "Koriya",
    "statename": "CHATTISGARH"
  },
  {
    "pincode": "497778",
    "officename": "Chanti B.O",
    "officeType": "B.O",
    "Deliverystatus": "Delivery",
    "divisionname": "Raigarh",
    "regionname": "Raipur",
    "circlename": "Chattisgarh",
    "Taluk": "Janakpur",
    "Districtname": "Koriya",
    "statename": "CHATTISGARH"
  },
  {
    "pincode": "497778",
    "officename": "Deogarh B.O",
    "officeType": "B.O",
    "Deliverystatus": "Delivery",
    "divisionname": "Raigarh",
    "regionname": "Raipur",
    "circlename": "Chattisgarh",
    "Taluk": "Janakpur",
    "Districtname": "Koriya",
    "statename": "CHATTISGARH"
  },
  {
    "pincode": "497778",
    "officename": "Ghaghra B.O",
    "officeType": "B.O",
    "Deliverystatus": "Delivery",
    "divisionname": "Raigarh",
    "regionname": "Raipur",
    "circlename": "Chattisgarh",
    "Taluk": "Janakpur",
    "Districtname": "Koriya",
    "statename": "CHATTISGARH"
  },
  {
    "pincode": "497778",
    "officename": "Janakpur S.O",
    "officeType": "S.O",
    "Deliverystatus": "Delivery",
    "divisionname": "Raigarh",
    "regionname": "Raipur",
    "circlename": "Chattisgarh",
    "Taluk": "Janakpur",
    "Districtname": "Koriya",
    "statename": "CHATTISGARH"
  },
  {
    "pincode": "497778",
    "officename": "Kamarjee B.O",
    "officeType": "B.O",
    "Deliverystatus": "Delivery",
    "divisionname": "Raigarh",
    "regionname": "Raipur",
    "circlename": "Chattisgarh",
    "Taluk": "Janakpur",
    "Districtname": "Koriya",
    "statename": "CHATTISGARH"
  },
  {
    "pincode": "497778",
    "officename": "Kanjia B.O",
    "officeType": "B.O",
    "Deliverystatus": "Delivery",
    "divisionname": "Raigarh",
    "regionname": "Raipur",
    "circlename": "Chattisgarh",
    "Taluk": "Janakpur",
    "Districtname": "Koriya",
    "statename": "CHATTISGARH"
  },
  {
    "pincode": "497778",
    "officename": "Kanwarpur B.O",
    "officeType": "B.O",
    "Deliverystatus": "Delivery",
    "divisionname": "Raigarh",
    "regionname": "Raipur",
    "circlename": "Chattisgarh",
    "Taluk": "Janakpur",
    "Districtname": "Koriya",
    "statename": "CHATTISGARH"
  },
  {
    "pincode": "497778",
    "officename": "Khamrodh B.O",
    "officeType": "B.O",
    "Deliverystatus": "Delivery",
    "divisionname": "Raigarh",
    "regionname": "Raipur",
    "circlename": "Chattisgarh",
    "Taluk": "Janakpur",
    "Districtname": "Koriya",
    "statename": "CHATTISGARH"
  },
  {
    "pincode": "497778",
    "officename": "Kotadol B.O",
    "officeType": "B.O",
    "Deliverystatus": "Delivery",
    "divisionname": "Raigarh",
    "regionname": "Raipur",
    "circlename": "Chattisgarh",
    "Taluk": "Janakpur",
    "Districtname": "Koriya",
    "statename": "CHATTISGARH"
  },
  {
    "pincode": "497778",
    "officename": "Mandisarai B.O",
    "officeType": "B.O",
    "Deliverystatus": "Delivery",
    "divisionname": "Raigarh",
    "regionname": "Raipur",
    "circlename": "Chattisgarh",
    "Taluk": "Janakpur",
    "Districtname": "Koriya",
    "statename": "CHATTISGARH"
  },
  {
    "pincode": "497778",
    "officename": "Ramgarh B.O",
    "officeType": "B.O",
    "Deliverystatus": "Delivery",
    "divisionname": "Raigarh",
    "regionname": "Raipur",
    "circlename": "Chattisgarh",
    "Taluk": "Janakpur",
    "Districtname": "Koriya",
    "statename": "CHATTISGARH"
  },
  {
    "pincode": "497778",
    "officename": "Singrouli B.O",
    "officeType": "B.O",
    "Deliverystatus": "Delivery",
    "divisionname": "Raigarh",
    "regionname": "Raipur",
    "circlename": "Chattisgarh",
    "Taluk": "Janakpur",
    "Districtname": "Koriya",
    "statename": "CHATTISGARH"
  }
]
