[
  {
    "pincode": "500078",
    "officename": "BITS B.O",
    "officeType": "B.O",
    "Deliverystatus": "Delivery",
    "divisionname": "Secunderabad",
    "regionname": "Hyderabad City",
    "circlename": "Andhra Pradesh",
    "Taluk": "Tirumalagiri",
    "Districtname": "Hyderabad",
    "statename": "ANDHRA PRADESH"
  },
  {
    "pincode": "500078",
    "officename": "Bomraspet B.O",
    "officeType": "B.O",
    "Deliverystatus": "Delivery",
    "divisionname": "Secunderabad",
    "regionname": "Hyderabad City",
    "circlename": "Andhra Pradesh",
    "Taluk": "Rangareddy",
    "Districtname": "K.V.Rangareddy",
    "statename": "ANDHRA PRADESH"
  },
  {
    "pincode": "500078",
    "officename": "CRPF B.O",
    "officeType": "B.O",
    "Deliverystatus": "Delivery",
    "divisionname": "Secunderabad",
    "regionname": "Hyderabad City",
    "circlename": "Andhra Pradesh",
    "Taluk": "Tirumalagiri",
    "Districtname": "Hyderabad",
    "statename": "ANDHRA PRADESH"
  },
  {
    "pincode": "500078",
    "officename": "Devaryamjal B.O",
    "officeType": "B.O",
    "Deliverystatus": "Delivery",
    "divisionname": "Secunderabad",
    "regionname": "Hyderabad City",
    "circlename": "Andhra Pradesh",
    "Taluk": "Shamirpet",
    "Districtname": "K.V.Rangareddy",
    "statename": "ANDHRA PRADESH"
  },
  {
    "pincode": "500078",
    "officename": "Nisa Hakimpet S.O",
    "officeType": "S.O",
    "Deliverystatus": "Delivery",
    "divisionname": "Secunderabad",
    "regionname": "Hyderabad City",
    "circlename": "Andhra Pradesh",
    "Taluk": "Tirumalagiri",
    "Districtname": "Hyderabad",
    "statename": "ANDHRA PRADESH"
  },
  {
    "pincode": "500078",
    "officename": "Ponnal B.O",
    "officeType": "B.O",
    "Deliverystatus": "Delivery",
    "divisionname": "Secunderabad",
    "regionname": "Hyderabad City",
    "circlename": "Andhra Pradesh",
    "Taluk": "Rangareddy",
    "Districtname": "K.V.Rangareddy",
    "statename": "ANDHRA PRADESH"
  },
  {
    "pincode": "500078",
    "officename": "Thumkunta B.O",
    "officeType": "B.O",
    "Deliverystatus": "Delivery",
    "divisionname": "Secunderabad",
    "regionname": "Hyderabad City",
    "circlename": "Andhra Pradesh",
    "Taluk": "Hyd",
    "Districtname": "Hyderabad",
    "statename": "ANDHRA PRADESH"
  },
  {
    "pincode": "500078",
    "officename": "Uddemarri B.O",
    "officeType": "B.O",
    "Deliverystatus": "Delivery",
    "divisionname": "Secunderabad",
    "regionname": "Hyderabad City",
    "circlename": "Andhra Pradesh",
    "Taluk": "Shameerpet",
    "Districtname": "K.V.Rangareddy",
    "statename": "ANDHRA PRADESH"
  }
]
