[
  {
    "pincode": "501144",
    "officename": "Agnoor B.O",
    "officeType": "B.O",
    "Deliverystatus": "Delivery",
    "divisionname": "Secunderabad",
    "regionname": "Hyderabad City",
    "circlename": "Andhra Pradesh",
    "Taluk": "Rangareddy",
    "Districtname": "K.V.Rangareddy",
    "statename": "ANDHRA PRADESH"
  },
  {
    "pincode": "501144",
    "officename": "Bennur B.O",
    "officeType": "B.O",
    "Deliverystatus": "Delivery",
    "divisionname": "Secunderabad",
    "regionname": "Hyderabad City",
    "circlename": "Andhra Pradesh",
    "Taluk": "Rr.",
    "Districtname": "K.V.Rangareddy",
    "statename": "ANDHRA PRADESH"
  },
  {
    "pincode": "501144",
    "officename": "Chennaram B.O",
    "officeType": "B.O",
    "Deliverystatus": "Delivery",
    "divisionname": "Secunderabad",
    "regionname": "Hyderabad City",
    "circlename": "Andhra Pradesh",
    "Taluk": "Rangareddy",
    "Districtname": "K.V.Rangareddy",
    "statename": "ANDHRA PRADESH"
  },
  {
    "pincode": "501144",
    "officename": "Devnoor B.O",
    "officeType": "B.O",
    "Deliverystatus": "Delivery",
    "divisionname": "Secunderabad",
    "regionname": "Hyderabad City",
    "circlename": "Andhra Pradesh",
    "Taluk": "Rangareddy",
    "Districtname": "K.V.Rangareddy",
    "statename": "ANDHRA PRADESH"
  },
  {
    "pincode": "501144",
    "officename": "Juntapalli B.O",
    "officeType": "B.O",
    "Deliverystatus": "Delivery",
    "divisionname": "Secunderabad",
    "regionname": "Hyderabad City",
    "circlename": "Andhra Pradesh",
    "Taluk": "Rangareddy",
    "Districtname": "K.V.Rangareddy",
    "statename": "ANDHRA PRADESH"
  },
  {
    "pincode": "501144",
    "officename": "Pagdyal B.O",
    "officeType": "B.O",
    "Deliverystatus": "Delivery",
    "divisionname": "Secunderabad",
    "regionname": "Hyderabad City",
    "circlename": "Andhra Pradesh",
    "Taluk": "Rangareddy",
    "Districtname": "K.V.Rangareddy",
    "statename": "ANDHRA PRADESH"
  },
  {
    "pincode": "501144",
    "officename": "Timmaipalli B.O",
    "officeType": "B.O",
    "Deliverystatus": "Delivery",
    "divisionname": "Secunderabad",
    "regionname": "Hyderabad City",
    "circlename": "Andhra Pradesh",
    "Taluk": "Rangareddy",
    "Districtname": "K.V.Rangareddy",
    "statename": "ANDHRA PRADESH"
  },
  {
    "pincode": "501144",
    "officename": "Yalal S.O",
    "officeType": "S.O",
    "Deliverystatus": "Delivery",
    "divisionname": "Secunderabad",
    "regionname": "Hyderabad City",
    "circlename": "Andhra Pradesh",
    "Taluk": "Rangareddy",
    "Districtname": "K.V.Rangareddy",
    "statename": "ANDHRA PRADESH"
  }
]
