[
  {
    "pincode": "501121",
    "officename": "Dharur S.O",
    "officeType": "S.O",
    "Deliverystatus": "Delivery",
    "divisionname": "Secunderabad",
    "regionname": "Hyderabad City",
    "circlename": "Andhra Pradesh",
    "Taluk": "Rangareddy",
    "Districtname": "K.V.Rangareddy",
    "statename": "ANDHRA PRADESH"
  },
  {
    "pincode": "501121",
    "officename": "Dornal B.O",
    "officeType": "B.O",
    "Deliverystatus": "Delivery",
    "divisionname": "Secunderabad",
    "regionname": "Hyderabad City",
    "circlename": "Andhra Pradesh",
    "Taluk": "Rangareddy",
    "Districtname": "K.V.Rangareddy",
    "statename": "ANDHRA PRADESH"
  },
  {
    "pincode": "501121",
    "officename": "Ghatepalli B.O",
    "officeType": "B.O",
    "Deliverystatus": "Delivery",
    "divisionname": "Secunderabad",
    "regionname": "Hyderabad City",
    "circlename": "Andhra Pradesh",
    "Taluk": "",
    "Districtname": "K.V.Rangareddy",
    "statename": "ANDHRA PRADESH"
  },
  {
    "pincode": "501121",
    "officename": "Haridasapalli B.O",
    "officeType": "B.O",
    "Deliverystatus": "Delivery",
    "divisionname": "Secunderabad",
    "regionname": "Hyderabad City",
    "circlename": "Andhra Pradesh",
    "Taluk": "",
    "Districtname": "K.V.Rangareddy",
    "statename": "ANDHRA PRADESH"
  },
  {
    "pincode": "501121",
    "officename": "Karvelli B.O",
    "officeType": "B.O",
    "Deliverystatus": "Delivery",
    "divisionname": "Secunderabad",
    "regionname": "Hyderabad City",
    "circlename": "Andhra Pradesh",
    "Taluk": "",
    "Districtname": "K.V.Rangareddy",
    "statename": "ANDHRA PRADESH"
  },
  {
    "pincode": "501121",
    "officename": "Kukonda B.O",
    "officeType": "B.O",
    "Deliverystatus": "Delivery",
    "divisionname": "Secunderabad",
    "regionname": "Hyderabad City",
    "circlename": "Andhra Pradesh",
    "Taluk": "",
    "Districtname": "K.V.Rangareddy",
    "statename": "ANDHRA PRADESH"
  },
  {
    "pincode": "501121",
    "officename": "Mominkalan B.O",
    "officeType": "B.O",
    "Deliverystatus": "Delivery",
    "divisionname": "Secunderabad",
    "regionname": "Hyderabad City",
    "circlename": "Andhra Pradesh",
    "Taluk": "",
    "Districtname": "K.V.Rangareddy",
    "statename": "ANDHRA PRADESH"
  },
  {
    "pincode": "501121",
    "officename": "Nagawaram B.O",
    "officeType": "B.O",
    "Deliverystatus": "Delivery",
    "divisionname": "Secunderabad",
    "regionname": "Hyderabad City",
    "circlename": "Andhra Pradesh",
    "Taluk": "",
    "Districtname": "K.V.Rangareddy",
    "statename": "ANDHRA PRADESH"
  },
  {
    "pincode": "501121",
    "officename": "Rasnam B.O",
    "officeType": "B.O",
    "Deliverystatus": "Delivery",
    "divisionname": "Secunderabad",
    "regionname": "Hyderabad City",
    "circlename": "Andhra Pradesh",
    "Taluk": "",
    "Districtname": "K.V.Rangareddy",
    "statename": "ANDHRA PRADESH"
  },
  {
    "pincode": "501121",
    "officename": "Tarigopula B.O",
    "officeType": "B.O",
    "Deliverystatus": "Delivery",
    "divisionname": "Secunderabad",
    "regionname": "Hyderabad City",
    "circlename": "Andhra Pradesh",
    "Taluk": "",
    "Districtname": "K.V.Rangareddy",
    "statename": "ANDHRA PRADESH"
  }
]
