[
  {
    "pincode": "501301",
    "officename": "Ankireddipalli B.O",
    "officeType": "B.O",
    "Deliverystatus": "Delivery",
    "divisionname": "Secunderabad",
    "regionname": "Hyderabad City",
    "circlename": "Andhra Pradesh",
    "Taluk": "Hyd",
    "Districtname": "Hyderabad",
    "statename": "ANDHRA PRADESH"
  },
  {
    "pincode": "501301",
    "officename": "Ankushapur B.O",
    "officeType": "B.O",
    "Deliverystatus": "Delivery",
    "divisionname": "Secunderabad",
    "regionname": "Hyderabad City",
    "circlename": "Andhra Pradesh",
    "Taluk": "Hyd",
    "Districtname": "Hyderabad",
    "statename": "ANDHRA PRADESH"
  },
  {
    "pincode": "501301",
    "officename": "Bogaram B.O",
    "officeType": "B.O",
    "Deliverystatus": "Delivery",
    "divisionname": "Secunderabad",
    "regionname": "Hyderabad City",
    "circlename": "Andhra Pradesh",
    "Taluk": "Hyd",
    "Districtname": "Hyderabad",
    "statename": "ANDHRA PRADESH"
  },
  {
    "pincode": "501301",
    "officename": "Cherial B.O",
    "officeType": "B.O",
    "Deliverystatus": "Delivery",
    "divisionname": "Secunderabad",
    "regionname": "Hyderabad City",
    "circlename": "Andhra Pradesh",
    "Taluk": "Hyd",
    "Districtname": "Hyderabad",
    "statename": "ANDHRA PRADESH"
  },
  {
    "pincode": "501301",
    "officename": "Cherlapalli B.O",
    "officeType": "B.O",
    "Deliverystatus": "Delivery",
    "divisionname": "Secunderabad",
    "regionname": "Hyderabad City",
    "circlename": "Andhra Pradesh",
    "Taluk": "Hyd",
    "Districtname": "Hyderabad",
    "statename": "ANDHRA PRADESH"
  },
  {
    "pincode": "501301",
    "officename": "Edulabad B.O",
    "officeType": "B.O",
    "Deliverystatus": "Delivery",
    "divisionname": "Secunderabad",
    "regionname": "Hyderabad City",
    "circlename": "Andhra Pradesh",
    "Taluk": "Ghatkesar",
    "Districtname": "K.V.Rangareddy",
    "statename": "ANDHRA PRADESH"
  },
  {
    "pincode": "501301",
    "officename": "Ghatkesar S.O",
    "officeType": "S.O",
    "Deliverystatus": "Delivery",
    "divisionname": "Secunderabad",
    "regionname": "Hyderabad City",
    "circlename": "Andhra Pradesh",
    "Taluk": "Hyd",
    "Districtname": "Hyderabad",
    "statename": "ANDHRA PRADESH"
  },
  {
    "pincode": "501301",
    "officename": "Keesara B.O",
    "officeType": "B.O",
    "Deliverystatus": "Delivery",
    "divisionname": "Secunderabad",
    "regionname": "Hyderabad City",
    "circlename": "Andhra Pradesh",
    "Taluk": "Hyd",
    "Districtname": "Hyderabad",
    "statename": "ANDHRA PRADESH"
  },
  {
    "pincode": "501301",
    "officename": "Keesaragutta B.O",
    "officeType": "B.O",
    "Deliverystatus": "Delivery",
    "divisionname": "Secunderabad",
    "regionname": "Hyderabad City",
    "circlename": "Andhra Pradesh",
    "Taluk": "Hyd",
    "Districtname": "Hyderabad",
    "statename": "ANDHRA PRADESH"
  },
  {
    "pincode": "501301",
    "officename": "Rampallidiara B.O",
    "officeType": "B.O",
    "Deliverystatus": "Delivery",
    "divisionname": "Secunderabad",
    "regionname": "Hyderabad City",
    "circlename": "Andhra Pradesh",
    "Taluk": "Hyd",
    "Districtname": "Hyderabad",
    "statename": "ANDHRA PRADESH"
  },
  {
    "pincode": "501301",
    "officename": "Rompalli B.O",
    "officeType": "B.O",
    "Deliverystatus": "Delivery",
    "divisionname": "Secunderabad",
    "regionname": "Hyderabad City",
    "circlename": "Andhra Pradesh",
    "Taluk": "Hyd",
    "Districtname": "Hyderabad",
    "statename": "ANDHRA PRADESH"
  },
  {
    "pincode": "501301",
    "officename": "Thimmaipalli B.O",
    "officeType": "B.O",
    "Deliverystatus": "Delivery",
    "divisionname": "Secunderabad",
    "regionname": "Hyderabad City",
    "circlename": "Andhra Pradesh",
    "Taluk": "Hyd",
    "Districtname": "Hyderabad",
    "statename": "ANDHRA PRADESH"
  },
  {
    "pincode": "501301",
    "officename": "Yadgarpalli B.O",
    "officeType": "B.O",
    "Deliverystatus": "Delivery",
    "divisionname": "Secunderabad",
    "regionname": "Hyderabad City",
    "circlename": "Andhra Pradesh",
    "Taluk": "Hyd",
    "Districtname": "Hyderabad",
    "statename": "ANDHRA PRADESH"
  }
]
