[
  {
    "pincode": "502293",
    "officename": "Baswapur B.O",
    "officeType": "B.O",
    "Deliverystatus": "Delivery",
    "divisionname": "Sangareddy",
    "regionname": "Hyderabad",
    "circlename": "Andhra Pradesh",
    "Taluk": "Sangareddy",
    "Districtname": "Medak",
    "statename": "ANDHRA PRADESH"
  },
  {
    "pincode": "502293",
    "officename": "Gonglur B.O",
    "officeType": "B.O",
    "Deliverystatus": "Delivery",
    "divisionname": "Sangareddy",
    "regionname": "Hyderabad",
    "circlename": "Andhra Pradesh",
    "Taluk": "Sangareddy",
    "Districtname": "Medak",
    "statename": "ANDHRA PRADESH"
  },
  {
    "pincode": "502293",
    "officename": "Manthoor B.O",
    "officeType": "B.O",
    "Deliverystatus": "Delivery",
    "divisionname": "Sangareddy",
    "regionname": "Hyderabad",
    "circlename": "Andhra Pradesh",
    "Taluk": "Sangareddy",
    "Districtname": "Medak",
    "statename": "ANDHRA PRADESH"
  },
  {
    "pincode": "502293",
    "officename": "Minpur B.O",
    "officeType": "B.O",
    "Deliverystatus": "Delivery",
    "divisionname": "Sangareddy",
    "regionname": "Hyderabad",
    "circlename": "Andhra Pradesh",
    "Taluk": "Sangareddy",
    "Districtname": "Medak",
    "statename": "ANDHRA PRADESH"
  },
  {
    "pincode": "502293",
    "officename": "Peddareddypet B.O",
    "officeType": "B.O",
    "Deliverystatus": "Delivery",
    "divisionname": "Sangareddy",
    "regionname": "Hyderabad",
    "circlename": "Andhra Pradesh",
    "Taluk": "Sangareddy",
    "Districtname": "Medak",
    "statename": "ANDHRA PRADESH"
  },
  {
    "pincode": "502293",
    "officename": "Pocharam B.O",
    "officeType": "B.O",
    "Deliverystatus": "Delivery",
    "divisionname": "Sangareddy",
    "regionname": "Hyderabad",
    "circlename": "Andhra Pradesh",
    "Taluk": "Sangareddy",
    "Districtname": "Medak",
    "statename": "ANDHRA PRADESH"
  },
  {
    "pincode": "502293",
    "officename": "Pulkal B.O",
    "officeType": "B.O",
    "Deliverystatus": "Delivery",
    "divisionname": "Sangareddy",
    "regionname": "Hyderabad",
    "circlename": "Andhra Pradesh",
    "Taluk": "Sangareddy",
    "Districtname": "Medak",
    "statename": "ANDHRA PRADESH"
  },
  {
    "pincode": "502293",
    "officename": "Singoor Project S.O",
    "officeType": "S.O",
    "Deliverystatus": "Delivery",
    "divisionname": "Sangareddy",
    "regionname": "Hyderabad",
    "circlename": "Andhra Pradesh",
    "Taluk": "Sangareddy",
    "Districtname": "Medak",
    "statename": "ANDHRA PRADESH"
  }
]
