[
  {
    "pincode": "502316",
    "officename": "Kanchanpally B.O",
    "officeType": "B.O",
    "Deliverystatus": "Delivery",
    "divisionname": "Sangareddy",
    "regionname": "Hyderabad",
    "circlename": "Andhra Pradesh",
    "Taluk": "Narsapur",
    "Districtname": "Medak",
    "statename": "ANDHRA PRADESH"
  },
  {
    "pincode": "502316",
    "officename": "Khajipet B.O",
    "officeType": "B.O",
    "Deliverystatus": "Delivery",
    "divisionname": "Sangareddy",
    "regionname": "Hyderabad",
    "circlename": "Andhra Pradesh",
    "Taluk": "Narsapur",
    "Districtname": "Medak",
    "statename": "ANDHRA PRADESH"
  },
  {
    "pincode": "502316",
    "officename": "Kowdipally S.O",
    "officeType": "S.O",
    "Deliverystatus": "Delivery",
    "divisionname": "Sangareddy",
    "regionname": "Hyderabad",
    "circlename": "Andhra Pradesh",
    "Taluk": "Narsapur",
    "Districtname": "Medak",
    "statename": "ANDHRA PRADESH"
  },
  {
    "pincode": "502316",
    "officename": "Mohammed Nagar B.O",
    "officeType": "B.O",
    "Deliverystatus": "Delivery",
    "divisionname": "Sangareddy",
    "regionname": "Hyderabad",
    "circlename": "Andhra Pradesh",
    "Taluk": "Narsapur",
    "Districtname": "Medak",
    "statename": "ANDHRA PRADESH"
  },
  {
    "pincode": "502316",
    "officename": "Mutrajpally B.O",
    "officeType": "B.O",
    "Deliverystatus": "Delivery",
    "divisionname": "Sangareddy",
    "regionname": "Hyderabad",
    "circlename": "Andhra Pradesh",
    "Taluk": "Narsapur",
    "Districtname": "Medak",
    "statename": "ANDHRA PRADESH"
  },
  {
    "pincode": "502316",
    "officename": "Rayalapur B.O",
    "officeType": "B.O",
    "Deliverystatus": "Delivery",
    "divisionname": "Sangareddy",
    "regionname": "Hyderabad",
    "circlename": "Andhra Pradesh",
    "Taluk": "Narsapur",
    "Districtname": "Medak",
    "statename": "ANDHRA PRADESH"
  },
  {
    "pincode": "502316",
    "officename": "Tunki B.O",
    "officeType": "B.O",
    "Deliverystatus": "Delivery",
    "divisionname": "Sangareddy",
    "regionname": "Hyderabad",
    "circlename": "Andhra Pradesh",
    "Taluk": "Narsapur",
    "Districtname": "Medak",
    "statename": "ANDHRA PRADESH"
  },
  {
    "pincode": "502316",
    "officename": "Yelmakanna B.O",
    "officeType": "B.O",
    "Deliverystatus": "Delivery",
    "divisionname": "Sangareddy",
    "regionname": "Hyderabad",
    "circlename": "Andhra Pradesh",
    "Taluk": "Narsapur",
    "Districtname": "Medak",
    "statename": "ANDHRA PRADESH"
  }
]
