[
  {
    "pincode": "502302",
    "officename": "Arkela B.O",
    "officeType": "B.O",
    "Deliverystatus": "Delivery",
    "divisionname": "Medak",
    "regionname": "Hyderabad",
    "circlename": "Andhra Pradesh",
    "Taluk": "",
    "Districtname": "Medak",
    "statename": "ANDHRA PRADESH"
  },
  {
    "pincode": "502302",
    "officename": "Bacharam B.O",
    "officeType": "B.O",
    "Deliverystatus": "Delivery",
    "divisionname": "Medak",
    "regionname": "Hyderabad",
    "circlename": "Andhra Pradesh",
    "Taluk": "",
    "Districtname": "Medak",
    "statename": "ANDHRA PRADESH"
  },
  {
    "pincode": "502302",
    "officename": "Bodagattu B.O",
    "officeType": "B.O",
    "Deliverystatus": "Delivery",
    "divisionname": "Medak",
    "regionname": "Hyderabad",
    "circlename": "Andhra Pradesh",
    "Taluk": "",
    "Districtname": "Medak",
    "statename": "ANDHRA PRADESH"
  },
  {
    "pincode": "502302",
    "officename": "Dhanoora B.O",
    "officeType": "B.O",
    "Deliverystatus": "Delivery",
    "divisionname": "Medak",
    "regionname": "Hyderabad",
    "circlename": "Andhra Pradesh",
    "Taluk": "",
    "Districtname": "Medak",
    "statename": "ANDHRA PRADESH"
  },
  {
    "pincode": "502302",
    "officename": "Elakurthy B.O",
    "officeType": "B.O",
    "Deliverystatus": "Delivery",
    "divisionname": "Medak",
    "regionname": "Hyderabad",
    "circlename": "Andhra Pradesh",
    "Taluk": "",
    "Districtname": "Medak",
    "statename": "ANDHRA PRADESH"
  },
  {
    "pincode": "502302",
    "officename": "Kadloor B.O",
    "officeType": "B.O",
    "Deliverystatus": "Delivery",
    "divisionname": "Medak",
    "regionname": "Hyderabad",
    "circlename": "Andhra Pradesh",
    "Taluk": "",
    "Districtname": "Medak",
    "statename": "ANDHRA PRADESH"
  },
  {
    "pincode": "502302",
    "officename": "Mupparam B.O",
    "officeType": "B.O",
    "Deliverystatus": "Delivery",
    "divisionname": "Medak",
    "regionname": "Hyderabad",
    "circlename": "Andhra Pradesh",
    "Taluk": "",
    "Districtname": "Medak",
    "statename": "ANDHRA PRADESH"
  },
  {
    "pincode": "502302",
    "officename": "Palvancha B.O",
    "officeType": "B.O",
    "Deliverystatus": "Delivery",
    "divisionname": "Medak",
    "regionname": "Hyderabad",
    "circlename": "Andhra Pradesh",
    "Taluk": "",
    "Districtname": "Medak",
    "statename": "ANDHRA PRADESH"
  },
  {
    "pincode": "502302",
    "officename": "Tampulur B.O",
    "officeType": "B.O",
    "Deliverystatus": "Delivery",
    "divisionname": "Medak",
    "regionname": "Hyderabad",
    "circlename": "Andhra Pradesh",
    "Taluk": "",
    "Districtname": "Medak",
    "statename": "ANDHRA PRADESH"
  },
  {
    "pincode": "502302",
    "officename": "Tekmal S.O",
    "officeType": "S.O",
    "Deliverystatus": "Delivery",
    "divisionname": "Medak",
    "regionname": "Hyderabad",
    "circlename": "Andhra Pradesh",
    "Taluk": "",
    "Districtname": "Medak",
    "statename": "ANDHRA PRADESH"
  },
  {
    "pincode": "502302",
    "officename": "Yelapgonda B.O",
    "officeType": "B.O",
    "Deliverystatus": "Delivery",
    "divisionname": "Medak",
    "regionname": "Hyderabad",
    "circlename": "Andhra Pradesh",
    "Taluk": "",
    "Districtname": "Medak",
    "statename": "ANDHRA PRADESH"
  }
]
