[
  {
    "pincode": "502321",
    "officename": "Chilkepally B.O",
    "officeType": "B.O",
    "Deliverystatus": "Delivery",
    "divisionname": "Sangareddy",
    "regionname": "Hyderabad",
    "circlename": "Andhra Pradesh",
    "Taluk": "Zaheerabad",
    "Districtname": "Medak",
    "statename": "ANDHRA PRADESH"
  },
  {
    "pincode": "502321",
    "officename": "Chintalghat B.O",
    "officeType": "B.O",
    "Deliverystatus": "Delivery",
    "divisionname": "Sangareddy",
    "regionname": "Hyderabad",
    "circlename": "Andhra Pradesh",
    "Taluk": "Zaheerabad",
    "Districtname": "Medak",
    "statename": "ANDHRA PRADESH"
  },
  {
    "pincode": "502321",
    "officename": "Digwal S.O",
    "officeType": "S.O",
    "Deliverystatus": "Delivery",
    "divisionname": "Sangareddy",
    "regionname": "Hyderabad",
    "circlename": "Andhra Pradesh",
    "Taluk": "Zaheerabad",
    "Districtname": "Medak",
    "statename": "ANDHRA PRADESH"
  },
  {
    "pincode": "502321",
    "officename": "Edulapally B.O",
    "officeType": "B.O",
    "Deliverystatus": "Delivery",
    "divisionname": "Sangareddy",
    "regionname": "Hyderabad",
    "circlename": "Andhra Pradesh",
    "Taluk": "Zaheerabad",
    "Districtname": "Medak",
    "statename": "ANDHRA PRADESH"
  },
  {
    "pincode": "502321",
    "officename": "Guruzwada B.O",
    "officeType": "B.O",
    "Deliverystatus": "Delivery",
    "divisionname": "Sangareddy",
    "regionname": "Hyderabad",
    "circlename": "Andhra Pradesh",
    "Taluk": "Zaheerabad",
    "Districtname": "Medak",
    "statename": "ANDHRA PRADESH"
  },
  {
    "pincode": "502321",
    "officename": "Kaveli B.O",
    "officeType": "B.O",
    "Deliverystatus": "Delivery",
    "divisionname": "Sangareddy",
    "regionname": "Hyderabad",
    "circlename": "Andhra Pradesh",
    "Taluk": "Zaheerabad",
    "Districtname": "Medak",
    "statename": "ANDHRA PRADESH"
  },
  {
    "pincode": "502321",
    "officename": "Madri B.O",
    "officeType": "B.O",
    "Deliverystatus": "Delivery",
    "divisionname": "Sangareddy",
    "regionname": "Hyderabad",
    "circlename": "Andhra Pradesh",
    "Taluk": "Zaheerabad",
    "Districtname": "Medak",
    "statename": "ANDHRA PRADESH"
  },
  {
    "pincode": "502321",
    "officename": "Rajnelli B.O",
    "officeType": "B.O",
    "Deliverystatus": "Delivery",
    "divisionname": "Sangareddy",
    "regionname": "Hyderabad",
    "circlename": "Andhra Pradesh",
    "Taluk": "Zaheerabad",
    "Districtname": "Medak",
    "statename": "ANDHRA PRADESH"
  },
  {
    "pincode": "502321",
    "officename": "Venkatapur B.O",
    "officeType": "B.O",
    "Deliverystatus": "Delivery",
    "divisionname": "Sangareddy",
    "regionname": "Hyderabad",
    "circlename": "Andhra Pradesh",
    "Taluk": "Zaheerabad",
    "Districtname": "Medak",
    "statename": "ANDHRA PRADESH"
  },
  {
    "pincode": "502321",
    "officename": "Yedakulapalli B.O",
    "officeType": "B.O",
    "Deliverystatus": "Delivery",
    "divisionname": "Sangareddy",
    "regionname": "Hyderabad",
    "circlename": "Andhra Pradesh",
    "Taluk": "Zaheerabad",
    "Districtname": "Medak",
    "statename": "ANDHRA PRADESH"
  }
]
