[
  {
    "pincode": "502301",
    "officename": "Chatlapally B.O",
    "officeType": "B.O",
    "Deliverystatus": "Delivery",
    "divisionname": "Medak",
    "regionname": "Hyderabad",
    "circlename": "Andhra Pradesh",
    "Taluk": "",
    "Districtname": "Medak",
    "statename": "ANDHRA PRADESH"
  },
  {
    "pincode": "502301",
    "officename": "Chinna Kistapur B.O",
    "officeType": "B.O",
    "Deliverystatus": "Delivery",
    "divisionname": "Medak",
    "regionname": "Hyderabad",
    "circlename": "Andhra Pradesh",
    "Taluk": "",
    "Districtname": "Medak",
    "statename": "ANDHRA PRADESH"
  },
  {
    "pincode": "502301",
    "officename": "Errabally B.O",
    "officeType": "B.O",
    "Deliverystatus": "Delivery",
    "divisionname": "Medak",
    "regionname": "Hyderabad",
    "circlename": "Andhra Pradesh",
    "Taluk": "",
    "Districtname": "Medak",
    "statename": "ANDHRA PRADESH"
  },
  {
    "pincode": "502301",
    "officename": "Etigadda Kistapur B.O",
    "officeType": "B.O",
    "Deliverystatus": "Delivery",
    "divisionname": "Medak",
    "regionname": "Hyderabad",
    "circlename": "Andhra Pradesh",
    "Taluk": "",
    "Districtname": "Medak",
    "statename": "ANDHRA PRADESH"
  },
  {
    "pincode": "502301",
    "officename": "Kuknoorpally S.O",
    "officeType": "S.O",
    "Deliverystatus": "Delivery",
    "divisionname": "Medak",
    "regionname": "Hyderabad",
    "circlename": "Andhra Pradesh",
    "Taluk": "",
    "Districtname": "Medak",
    "statename": "ANDHRA PRADESH"
  },
  {
    "pincode": "502301",
    "officename": "Mangole B.O",
    "officeType": "B.O",
    "Deliverystatus": "Delivery",
    "divisionname": "Medak",
    "regionname": "Hyderabad",
    "circlename": "Andhra Pradesh",
    "Taluk": "",
    "Districtname": "Medak",
    "statename": "ANDHRA PRADESH"
  },
  {
    "pincode": "502301",
    "officename": "Pallepahad B.O",
    "officeType": "B.O",
    "Deliverystatus": "Delivery",
    "divisionname": "Medak",
    "regionname": "Hyderabad",
    "circlename": "Andhra Pradesh",
    "Taluk": "",
    "Districtname": "Medak",
    "statename": "ANDHRA PRADESH"
  },
  {
    "pincode": "502301",
    "officename": "Teegul Narsapur B.O",
    "officeType": "B.O",
    "Deliverystatus": "Delivery",
    "divisionname": "Medak",
    "regionname": "Hyderabad",
    "circlename": "Andhra Pradesh",
    "Taluk": "",
    "Districtname": "Medak",
    "statename": "ANDHRA PRADESH"
  },
  {
    "pincode": "502301",
    "officename": "Tipparam B.O",
    "officeType": "B.O",
    "Deliverystatus": "Delivery",
    "divisionname": "Medak",
    "regionname": "Hyderabad",
    "circlename": "Andhra Pradesh",
    "Taluk": "",
    "Districtname": "Medak",
    "statename": "ANDHRA PRADESH"
  },
  {
    "pincode": "502301",
    "officename": "Vemulagattu B.O",
    "officeType": "B.O",
    "Deliverystatus": "Delivery",
    "divisionname": "Medak",
    "regionname": "Hyderabad",
    "circlename": "Andhra Pradesh",
    "Taluk": "",
    "Districtname": "Medak",
    "statename": "ANDHRA PRADESH"
  }
]
