[
  {
    "pincode": "502314",
    "officename": "Ajjamarry B.O",
    "officeType": "B.O",
    "Deliverystatus": "Delivery",
    "divisionname": "Sangareddy",
    "regionname": "Hyderabad",
    "circlename": "Andhra Pradesh",
    "Taluk": "Narsapur",
    "Districtname": "Medak",
    "statename": "ANDHRA PRADESH"
  },
  {
    "pincode": "502314",
    "officename": "Chandur B.O",
    "officeType": "B.O",
    "Deliverystatus": "Delivery",
    "divisionname": "Sangareddy",
    "regionname": "Hyderabad",
    "circlename": "Andhra Pradesh",
    "Taluk": "Narsapur",
    "Districtname": "Medak",
    "statename": "ANDHRA PRADESH"
  },
  {
    "pincode": "502314",
    "officename": "Cheelpechedu B.O",
    "officeType": "B.O",
    "Deliverystatus": "Delivery",
    "divisionname": "Sangareddy",
    "regionname": "Hyderabad",
    "circlename": "Andhra Pradesh",
    "Taluk": "Narsapur",
    "Districtname": "Medak",
    "statename": "ANDHRA PRADESH"
  },
  {
    "pincode": "502314",
    "officename": "Faizabad B.O",
    "officeType": "B.O",
    "Deliverystatus": "Delivery",
    "divisionname": "Sangareddy",
    "regionname": "Hyderabad",
    "circlename": "Andhra Pradesh",
    "Taluk": "Narsapur",
    "Districtname": "Medak",
    "statename": "ANDHRA PRADESH"
  },
  {
    "pincode": "502314",
    "officename": "Konyal B.O",
    "officeType": "B.O",
    "Deliverystatus": "Delivery",
    "divisionname": "Sangareddy",
    "regionname": "Hyderabad",
    "circlename": "Andhra Pradesh",
    "Taluk": "Narsapur",
    "Districtname": "Medak",
    "statename": "ANDHRA PRADESH"
  },
  {
    "pincode": "502314",
    "officename": "Lingapur B.O",
    "officeType": "B.O",
    "Deliverystatus": "Delivery",
    "divisionname": "Sangareddy",
    "regionname": "Hyderabad",
    "circlename": "Andhra Pradesh",
    "Taluk": "Narsapur",
    "Districtname": "Medak",
    "statename": "ANDHRA PRADESH"
  },
  {
    "pincode": "502314",
    "officename": "Panyal B.O",
    "officeType": "B.O",
    "Deliverystatus": "Delivery",
    "divisionname": "Sangareddy",
    "regionname": "Hyderabad",
    "circlename": "Andhra Pradesh",
    "Taluk": "Narsapur",
    "Districtname": "Medak",
    "statename": "ANDHRA PRADESH"
  },
  {
    "pincode": "502314",
    "officename": "Sirpura S.O",
    "officeType": "S.O",
    "Deliverystatus": "Delivery",
    "divisionname": "Sangareddy",
    "regionname": "Hyderabad",
    "circlename": "Andhra Pradesh",
    "Taluk": "Narsapur",
    "Districtname": "Medak",
    "statename": "ANDHRA PRADESH"
  },
  {
    "pincode": "502314",
    "officename": "Sommakkapet B.O",
    "officeType": "B.O",
    "Deliverystatus": "Delivery",
    "divisionname": "Sangareddy",
    "regionname": "Hyderabad",
    "circlename": "Andhra Pradesh",
    "Taluk": "Narsapur",
    "Districtname": "Medak",
    "statename": "ANDHRA PRADESH"
  }
]
