[
  {
    "pincode": "503122",
    "officename": "Adivilingal B.O",
    "officeType": "B.O",
    "Deliverystatus": "Delivery",
    "divisionname": "Nizamabad",
    "regionname": "Hyderabad",
    "circlename": "Andhra Pradesh",
    "Taluk": "Yellareddy",
    "Districtname": "Nizamabad",
    "statename": "ANDHRA PRADESH"
  },
  {
    "pincode": "503122",
    "officename": "Atmakur B.O",
    "officeType": "B.O",
    "Deliverystatus": "Delivery",
    "divisionname": "Nizamabad",
    "regionname": "Hyderabad",
    "circlename": "Andhra Pradesh",
    "Taluk": "Yellareddy",
    "Districtname": "Nizamabad",
    "statename": "ANDHRA PRADESH"
  },
  {
    "pincode": "503122",
    "officename": "Bhavanipet B.O",
    "officeType": "B.O",
    "Deliverystatus": "Delivery",
    "divisionname": "Nizamabad",
    "regionname": "Hyderabad",
    "circlename": "Andhra Pradesh",
    "Taluk": "Yellareddy",
    "Districtname": "Nizamabad",
    "statename": "ANDHRA PRADESH"
  },
  {
    "pincode": "503122",
    "officename": "Bikkanur B.O",
    "officeType": "B.O",
    "Deliverystatus": "Delivery",
    "divisionname": "Nizamabad",
    "regionname": "Hyderabad",
    "circlename": "Andhra Pradesh",
    "Taluk": "Yellareddy",
    "Districtname": "Nizamabad",
    "statename": "ANDHRA PRADESH"
  },
  {
    "pincode": "503122",
    "officename": "Bollaram B.O",
    "officeType": "B.O",
    "Deliverystatus": "Delivery",
    "divisionname": "Nizamabad",
    "regionname": "Hyderabad",
    "circlename": "Andhra Pradesh",
    "Taluk": "Yellareddy",
    "Districtname": "Nizamabad",
    "statename": "ANDHRA PRADESH"
  },
  {
    "pincode": "503122",
    "officename": "Gundiwait B.O",
    "officeType": "B.O",
    "Deliverystatus": "Delivery",
    "divisionname": "Nizamabad",
    "regionname": "Hyderabad",
    "circlename": "Andhra Pradesh",
    "Taluk": "Yellareddy",
    "Districtname": "Nizamabad",
    "statename": "ANDHRA PRADESH"
  },
  {
    "pincode": "503122",
    "officename": "Jalalpur B.O",
    "officeType": "B.O",
    "Deliverystatus": "Delivery",
    "divisionname": "Nizamabad",
    "regionname": "Hyderabad",
    "circlename": "Andhra Pradesh",
    "Taluk": "Yellareddy",
    "Districtname": "Nizamabad",
    "statename": "ANDHRA PRADESH"
  },
  {
    "pincode": "503122",
    "officename": "Jangamaipalli B.O",
    "officeType": "B.O",
    "Deliverystatus": "Delivery",
    "divisionname": "Nizamabad",
    "regionname": "Hyderabad",
    "circlename": "Andhra Pradesh",
    "Taluk": "Yellareddy",
    "Districtname": "Nizamabad",
    "statename": "ANDHRA PRADESH"
  },
  {
    "pincode": "503122",
    "officename": "Kalyani B.O",
    "officeType": "B.O",
    "Deliverystatus": "Delivery",
    "divisionname": "Nizamabad",
    "regionname": "Hyderabad",
    "circlename": "Andhra Pradesh",
    "Taluk": "Yellareddy",
    "Districtname": "Nizamabad",
    "statename": "ANDHRA PRADESH"
  },
  {
    "pincode": "503122",
    "officename": "Lingareddy B.O",
    "officeType": "B.O",
    "Deliverystatus": "Delivery",
    "divisionname": "Nizamabad",
    "regionname": "Hyderabad",
    "circlename": "Andhra Pradesh",
    "Taluk": "Yellareddy",
    "Districtname": "Nizamabad",
    "statename": "ANDHRA PRADESH"
  },
  {
    "pincode": "503122",
    "officename": "Machapur B.O",
    "officeType": "B.O",
    "Deliverystatus": "Delivery",
    "divisionname": "Nizamabad",
    "regionname": "Hyderabad",
    "circlename": "Andhra Pradesh",
    "Taluk": "Yellareddy",
    "Districtname": "Nizamabad",
    "statename": "ANDHRA PRADESH"
  },
  {
    "pincode": "503122",
    "officename": "Masanipet B.O",
    "officeType": "B.O",
    "Deliverystatus": "Delivery",
    "divisionname": "Nizamabad",
    "regionname": "Hyderabad",
    "circlename": "Andhra Pradesh",
    "Taluk": "Yellareddy",
    "Districtname": "Nizamabad",
    "statename": "ANDHRA PRADESH"
  },
  {
    "pincode": "503122",
    "officename": "Mathumal B.O",
    "officeType": "B.O",
    "Deliverystatus": "Delivery",
    "divisionname": "Nizamabad",
    "regionname": "Hyderabad",
    "circlename": "Andhra Pradesh",
    "Taluk": "Yellareddy",
    "Districtname": "Nizamabad",
    "statename": "ANDHRA PRADESH"
  },
  {
    "pincode": "503122",
    "officename": "Rudraram B.O",
    "officeType": "B.O",
    "Deliverystatus": "Delivery",
    "divisionname": "Nizamabad",
    "regionname": "Hyderabad",
    "circlename": "Andhra Pradesh",
    "Taluk": "Yellareddy",
    "Districtname": "Nizamabad",
    "statename": "ANDHRA PRADESH"
  },
  {
    "pincode": "503122",
    "officename": "Timmapur B.O",
    "officeType": "B.O",
    "Deliverystatus": "Delivery",
    "divisionname": "Nizamabad",
    "regionname": "Hyderabad",
    "circlename": "Andhra Pradesh",
    "Taluk": "Yellareddy",
    "Districtname": "Nizamabad",
    "statename": "ANDHRA PRADESH"
  },
  {
    "pincode": "503122",
    "officename": "Yellareddy S.O",
    "officeType": "S.O",
    "Deliverystatus": "Delivery",
    "divisionname": "Nizamabad",
    "regionname": "Hyderabad",
    "circlename": "Andhra Pradesh",
    "Taluk": "Yellareddy",
    "Districtname": "Nizamabad",
    "statename": "ANDHRA PRADESH"
  },
  {
    "pincode": "503122",
    "officename": "Yellutla B.O",
    "officeType": "B.O",
    "Deliverystatus": "Delivery",
    "divisionname": "Nizamabad",
    "regionname": "Hyderabad",
    "circlename": "Andhra Pradesh",
    "Taluk": "Yellareddy",
    "Districtname": "Nizamabad",
    "statename": "ANDHRA PRADESH"
  }
]
