[
  {
    "pincode": "503175",
    "officename": "Chakarnpalli B.O",
    "officeType": "B.O",
    "Deliverystatus": "Delivery",
    "divisionname": "Nizamabad",
    "regionname": "Hyderabad",
    "circlename": "Andhra Pradesh",
    "Taluk": "Armoor",
    "Districtname": "Nizamabad",
    "statename": "ANDHRA PRADESH"
  },
  {
    "pincode": "503175",
    "officename": "Dichpalli B.O",
    "officeType": "B.O",
    "Deliverystatus": "Delivery",
    "divisionname": "Nizamabad",
    "regionname": "Hyderabad",
    "circlename": "Andhra Pradesh",
    "Taluk": "Armoor",
    "Districtname": "Nizamabad",
    "statename": "ANDHRA PRADESH"
  },
  {
    "pincode": "503175",
    "officename": "Dichpalli RS S.O",
    "officeType": "S.O",
    "Deliverystatus": "Delivery",
    "divisionname": "Nizamabad",
    "regionname": "Hyderabad",
    "circlename": "Andhra Pradesh",
    "Taluk": "Dichpalle",
    "Districtname": "Nizamabad",
    "statename": "ANDHRA PRADESH"
  },
  {
    "pincode": "503175",
    "officename": "Doosgaon B.O",
    "officeType": "B.O",
    "Deliverystatus": "Delivery",
    "divisionname": "Nizamabad",
    "regionname": "Hyderabad",
    "circlename": "Andhra Pradesh",
    "Taluk": "Armoor",
    "Districtname": "Nizamabad",
    "statename": "ANDHRA PRADESH"
  },
  {
    "pincode": "503175",
    "officename": "Kaligot B.O",
    "officeType": "B.O",
    "Deliverystatus": "Delivery",
    "divisionname": "Nizamabad",
    "regionname": "Hyderabad",
    "circlename": "Andhra Pradesh",
    "Taluk": "Armoor",
    "Districtname": "Nizamabad",
    "statename": "ANDHRA PRADESH"
  },
  {
    "pincode": "503175",
    "officename": "Kanjar B.O",
    "officeType": "B.O",
    "Deliverystatus": "Delivery",
    "divisionname": "Nizamabad",
    "regionname": "Hyderabad",
    "circlename": "Andhra Pradesh",
    "Taluk": "Armoor",
    "Districtname": "Nizamabad",
    "statename": "ANDHRA PRADESH"
  },
  {
    "pincode": "503175",
    "officename": "Keshpalli B.O",
    "officeType": "B.O",
    "Deliverystatus": "Delivery",
    "divisionname": "Nizamabad",
    "regionname": "Hyderabad",
    "circlename": "Andhra Pradesh",
    "Taluk": "Armoor",
    "Districtname": "Nizamabad",
    "statename": "ANDHRA PRADESH"
  },
  {
    "pincode": "503175",
    "officename": "Koratpalli B.O",
    "officeType": "B.O",
    "Deliverystatus": "Delivery",
    "divisionname": "Nizamabad",
    "regionname": "Hyderabad",
    "circlename": "Andhra Pradesh",
    "Taluk": "Armoor",
    "Districtname": "Nizamabad",
    "statename": "ANDHRA PRADESH"
  },
  {
    "pincode": "503175",
    "officename": "Kulaspur B.O",
    "officeType": "B.O",
    "Deliverystatus": "Delivery",
    "divisionname": "Nizamabad",
    "regionname": "Hyderabad",
    "circlename": "Andhra Pradesh",
    "Taluk": "Armoor",
    "Districtname": "Nizamabad",
    "statename": "ANDHRA PRADESH"
  },
  {
    "pincode": "503175",
    "officename": "Mentrajpalli B.O",
    "officeType": "B.O",
    "Deliverystatus": "Delivery",
    "divisionname": "Nizamabad",
    "regionname": "Hyderabad",
    "circlename": "Andhra Pradesh",
    "Taluk": "Armoor",
    "Districtname": "Nizamabad",
    "statename": "ANDHRA PRADESH"
  },
  {
    "pincode": "503175",
    "officename": "Mullangi B.O",
    "officeType": "B.O",
    "Deliverystatus": "Delivery",
    "divisionname": "Nizamabad",
    "regionname": "Hyderabad",
    "circlename": "Andhra Pradesh",
    "Taluk": "Armoor",
    "Districtname": "Nizamabad",
    "statename": "ANDHRA PRADESH"
  },
  {
    "pincode": "503175",
    "officename": "Nadpalli B.O",
    "officeType": "B.O",
    "Deliverystatus": "Delivery",
    "divisionname": "Nizamabad",
    "regionname": "Hyderabad",
    "circlename": "Andhra Pradesh",
    "Taluk": "Armoor",
    "Districtname": "Nizamabad",
    "statename": "ANDHRA PRADESH"
  },
  {
    "pincode": "503175",
    "officename": "Padkal B.O",
    "officeType": "B.O",
    "Deliverystatus": "Delivery",
    "divisionname": "Nizamabad",
    "regionname": "Hyderabad",
    "circlename": "Andhra Pradesh",
    "Taluk": "Armoor",
    "Districtname": "Nizamabad",
    "statename": "ANDHRA PRADESH"
  },
  {
    "pincode": "503175",
    "officename": "Sikkindrapur B.O",
    "officeType": "B.O",
    "Deliverystatus": "Delivery",
    "divisionname": "Nizamabad",
    "regionname": "Hyderabad",
    "circlename": "Andhra Pradesh",
    "Taluk": "Armoor",
    "Districtname": "Nizamabad",
    "statename": "ANDHRA PRADESH"
  },
  {
    "pincode": "503175",
    "officename": "Suddapalli B.O",
    "officeType": "B.O",
    "Deliverystatus": "Delivery",
    "divisionname": "Nizamabad",
    "regionname": "Hyderabad",
    "circlename": "Andhra Pradesh",
    "Taluk": "Armoor",
    "Districtname": "Nizamabad",
    "statename": "ANDHRA PRADESH"
  },
  {
    "pincode": "503175",
    "officename": "Yanampalli B.O",
    "officeType": "B.O",
    "Deliverystatus": "Delivery",
    "divisionname": "Nizamabad",
    "regionname": "Hyderabad",
    "circlename": "Andhra Pradesh",
    "Taluk": "Armoor",
    "Districtname": "Nizamabad",
    "statename": "ANDHRA PRADESH"
  }
]
