[
  {
    "pincode": "503111",
    "officename": "Adloor B.O",
    "officeType": "B.O",
    "Deliverystatus": "Delivery",
    "divisionname": "Nizamabad",
    "regionname": "Hyderabad",
    "circlename": "Andhra Pradesh",
    "Taluk": "Kamareddy",
    "Districtname": "Nizamabad",
    "statename": "ANDHRA PRADESH"
  },
  {
    "pincode": "503111",
    "officename": "Bhavanipet B.O",
    "officeType": "B.O",
    "Deliverystatus": "Delivery",
    "divisionname": "Nizamabad",
    "regionname": "Hyderabad",
    "circlename": "Andhra Pradesh",
    "Taluk": "Kamareddy",
    "Districtname": "Nizamabad",
    "statename": "ANDHRA PRADESH"
  },
  {
    "pincode": "503111",
    "officename": "Brahmanpalli B.O",
    "officeType": "B.O",
    "Deliverystatus": "Delivery",
    "divisionname": "Nizamabad",
    "regionname": "Hyderabad",
    "circlename": "Andhra Pradesh",
    "Taluk": "Kamareddy",
    "Districtname": "Nizamabad",
    "statename": "ANDHRA PRADESH"
  },
  {
    "pincode": "503111",
    "officename": "Chukkapur B.O",
    "officeType": "B.O",
    "Deliverystatus": "Delivery",
    "divisionname": "Nizamabad",
    "regionname": "Hyderabad",
    "circlename": "Andhra Pradesh",
    "Taluk": "Kamareddy",
    "Districtname": "Nizamabad",
    "statename": "ANDHRA PRADESH"
  },
  {
    "pincode": "503111",
    "officename": "Devanappli B.O",
    "officeType": "B.O",
    "Deliverystatus": "Delivery",
    "divisionname": "Nizamabad",
    "regionname": "Hyderabad",
    "circlename": "Andhra Pradesh",
    "Taluk": "Kamareddy",
    "Districtname": "Nizamabad",
    "statename": "ANDHRA PRADESH"
  },
  {
    "pincode": "503111",
    "officename": "Ghanpur B.O",
    "officeType": "B.O",
    "Deliverystatus": "Delivery",
    "divisionname": "Nizamabad",
    "regionname": "Hyderabad",
    "circlename": "Andhra Pradesh",
    "Taluk": "Machareddy",
    "Districtname": "Nizamabad",
    "statename": "ANDHRA PRADESH"
  },
  {
    "pincode": "503111",
    "officename": "Kakatiyanagar Colony S.O",
    "officeType": "S.O",
    "Deliverystatus": "Non-Delivery",
    "divisionname": "Nizamabad",
    "regionname": "Hyderabad",
    "circlename": "Andhra Pradesh",
    "Taluk": "Kamareddy",
    "Districtname": "Nizamabad",
    "statename": "ANDHRA PRADESH"
  },
  {
    "pincode": "503111",
    "officename": "Kamareddy Arts & Science B.O",
    "officeType": "B.O",
    "Deliverystatus": "Delivery",
    "divisionname": "Nizamabad",
    "regionname": "Hyderabad",
    "circlename": "Andhra Pradesh",
    "Taluk": "Kamareddy",
    "Districtname": "Nizamabad",
    "statename": "ANDHRA PRADESH"
  },
  {
    "pincode": "503111",
    "officename": "Kamareddy H.O",
    "officeType": "H.O",
    "Deliverystatus": "Delivery",
    "divisionname": "Nizamabad",
    "regionname": "Hyderabad",
    "circlename": "Andhra Pradesh",
    "Taluk": "Nizamabad",
    "Districtname": "Nizamabad",
    "statename": "ANDHRA PRADESH"
  },
  {
    "pincode": "503111",
    "officename": "Kamareddy RS S.O",
    "officeType": "S.O",
    "Deliverystatus": "Non-Delivery",
    "divisionname": "Nizamabad",
    "regionname": "Hyderabad",
    "circlename": "Andhra Pradesh",
    "Taluk": "Kamareddy",
    "Districtname": "Nizamabad",
    "statename": "ANDHRA PRADESH"
  },
  {
    "pincode": "503111",
    "officename": "Keysanpalli B.O",
    "officeType": "B.O",
    "Deliverystatus": "Delivery",
    "divisionname": "Nizamabad",
    "regionname": "Hyderabad",
    "circlename": "Andhra Pradesh",
    "Taluk": "Kamareddy",
    "Districtname": "Nizamabad",
    "statename": "ANDHRA PRADESH"
  },
  {
    "pincode": "503111",
    "officename": "Krishnajivadi B.O",
    "officeType": "B.O",
    "Deliverystatus": "Delivery",
    "divisionname": "Nizamabad",
    "regionname": "Hyderabad",
    "circlename": "Andhra Pradesh",
    "Taluk": "Kamareddy",
    "Districtname": "Nizamabad",
    "statename": "ANDHRA PRADESH"
  },
  {
    "pincode": "503111",
    "officename": "Lachapet B.O",
    "officeType": "B.O",
    "Deliverystatus": "Delivery",
    "divisionname": "Nizamabad",
    "regionname": "Hyderabad",
    "circlename": "Andhra Pradesh",
    "Taluk": "Kamareddy",
    "Districtname": "Nizamabad",
    "statename": "ANDHRA PRADESH"
  },
  {
    "pincode": "503111",
    "officename": "Lingapur B.O",
    "officeType": "B.O",
    "Deliverystatus": "Delivery",
    "divisionname": "Nizamabad",
    "regionname": "Hyderabad",
    "circlename": "Andhra Pradesh",
    "Taluk": "Kamareddy",
    "Districtname": "Nizamabad",
    "statename": "ANDHRA PRADESH"
  },
  {
    "pincode": "503111",
    "officename": "Machareddy B.O",
    "officeType": "B.O",
    "Deliverystatus": "Delivery",
    "divisionname": "Nizamabad",
    "regionname": "Hyderabad",
    "circlename": "Andhra Pradesh",
    "Taluk": "Kamareddy",
    "Districtname": "Nizamabad",
    "statename": "ANDHRA PRADESH"
  },
  {
    "pincode": "503111",
    "officename": "Palvancha B.O",
    "officeType": "B.O",
    "Deliverystatus": "Delivery",
    "divisionname": "Nizamabad",
    "regionname": "Hyderabad",
    "circlename": "Andhra Pradesh",
    "Taluk": "Machareddy",
    "Districtname": "Nizamabad",
    "statename": "ANDHRA PRADESH"
  },
  {
    "pincode": "503111",
    "officename": "Tekriyal B.O",
    "officeType": "B.O",
    "Deliverystatus": "Delivery",
    "divisionname": "Nizamabad",
    "regionname": "Hyderabad",
    "circlename": "Andhra Pradesh",
    "Taluk": "Kamareddy",
    "Districtname": "Nizamabad",
    "statename": "ANDHRA PRADESH"
  },
  {
    "pincode": "503111",
    "officename": "Ugrawai B.O",
    "officeType": "B.O",
    "Deliverystatus": "Delivery",
    "divisionname": "Nizamabad",
    "regionname": "Hyderabad",
    "circlename": "Andhra Pradesh",
    "Taluk": "Kamareddy",
    "Districtname": "Nizamabad",
    "statename": "ANDHRA PRADESH"
  },
  {
    "pincode": "503111",
    "officename": "Yellappagonda B.O",
    "officeType": "B.O",
    "Deliverystatus": "Delivery",
    "divisionname": "Nizamabad",
    "regionname": "Hyderabad",
    "circlename": "Andhra Pradesh",
    "Taluk": "Kamareddy",
    "Districtname": "Nizamabad",
    "statename": "ANDHRA PRADESH"
  }
]
