[
  {
    "pincode": "503212",
    "officename": "Badguni B.O",
    "officeType": "B.O",
    "Deliverystatus": "Delivery",
    "divisionname": "Nizamabad",
    "regionname": "Hyderabad",
    "circlename": "Andhra Pradesh",
    "Taluk": "Armoor",
    "Districtname": "Nizamabad",
    "statename": "ANDHRA PRADESH"
  },
  {
    "pincode": "503212",
    "officename": "Chimrajpalli B.O",
    "officeType": "B.O",
    "Deliverystatus": "Delivery",
    "divisionname": "Nizamabad",
    "regionname": "Hyderabad",
    "circlename": "Andhra Pradesh",
    "Taluk": "Armoor",
    "Districtname": "Nizamabad",
    "statename": "ANDHRA PRADESH"
  },
  {
    "pincode": "503212",
    "officename": "Dattapur B.O",
    "officeType": "B.O",
    "Deliverystatus": "Delivery",
    "divisionname": "Nizamabad",
    "regionname": "Hyderabad",
    "circlename": "Andhra Pradesh",
    "Taluk": "Armoor",
    "Districtname": "Nizamabad",
    "statename": "ANDHRA PRADESH"
  },
  {
    "pincode": "503212",
    "officename": "Donkeshwar B.O",
    "officeType": "B.O",
    "Deliverystatus": "Delivery",
    "divisionname": "Nizamabad",
    "regionname": "Hyderabad",
    "circlename": "Andhra Pradesh",
    "Taluk": "Armoor",
    "Districtname": "Nizamabad",
    "statename": "ANDHRA PRADESH"
  },
  {
    "pincode": "503212",
    "officename": "Gadepalli B.O",
    "officeType": "B.O",
    "Deliverystatus": "Delivery",
    "divisionname": "Nizamabad",
    "regionname": "Hyderabad",
    "circlename": "Andhra Pradesh",
    "Taluk": "Armoor",
    "Districtname": "Nizamabad",
    "statename": "ANDHRA PRADESH"
  },
  {
    "pincode": "503212",
    "officename": "Khudwanpur B.O",
    "officeType": "B.O",
    "Deliverystatus": "Delivery",
    "divisionname": "Nizamabad",
    "regionname": "Hyderabad",
    "circlename": "Andhra Pradesh",
    "Taluk": "Armoor",
    "Districtname": "Nizamabad",
    "statename": "ANDHRA PRADESH"
  },
  {
    "pincode": "503212",
    "officename": "Kondur B.O",
    "officeType": "B.O",
    "Deliverystatus": "Delivery",
    "divisionname": "Nizamabad",
    "regionname": "Hyderabad",
    "circlename": "Andhra Pradesh",
    "Taluk": "Armoor",
    "Districtname": "Nizamabad",
    "statename": "ANDHRA PRADESH"
  },
  {
    "pincode": "503212",
    "officename": "Marampalli B.O",
    "officeType": "B.O",
    "Deliverystatus": "Delivery",
    "divisionname": "Nizamabad",
    "regionname": "Hyderabad",
    "circlename": "Andhra Pradesh",
    "Taluk": "Armoor",
    "Districtname": "Nizamabad",
    "statename": "ANDHRA PRADESH"
  },
  {
    "pincode": "503212",
    "officename": "Nandipet S.O",
    "officeType": "S.O",
    "Deliverystatus": "Delivery",
    "divisionname": "Nizamabad",
    "regionname": "Hyderabad",
    "circlename": "Andhra Pradesh",
    "Taluk": "Armoor",
    "Districtname": "Nizamabad",
    "statename": "ANDHRA PRADESH"
  },
  {
    "pincode": "503212",
    "officename": "Narkoda Jagir B.O",
    "officeType": "B.O",
    "Deliverystatus": "Delivery",
    "divisionname": "Nizamabad",
    "regionname": "Hyderabad",
    "circlename": "Andhra Pradesh",
    "Taluk": "Armoor",
    "Districtname": "Nizamabad",
    "statename": "ANDHRA PRADESH"
  },
  {
    "pincode": "503212",
    "officename": "Noothpalli B.O",
    "officeType": "B.O",
    "Deliverystatus": "Delivery",
    "divisionname": "Nizamabad",
    "regionname": "Hyderabad",
    "circlename": "Andhra Pradesh",
    "Taluk": "Armoor",
    "Districtname": "Nizamabad",
    "statename": "ANDHRA PRADESH"
  },
  {
    "pincode": "503212",
    "officename": "Shapur B.O",
    "officeType": "B.O",
    "Deliverystatus": "Delivery",
    "divisionname": "Nizamabad",
    "regionname": "Hyderabad",
    "circlename": "Andhra Pradesh",
    "Taluk": "Armoor",
    "Districtname": "Nizamabad",
    "statename": "ANDHRA PRADESH"
  },
  {
    "pincode": "503212",
    "officename": "Talveda B.O",
    "officeType": "B.O",
    "Deliverystatus": "Delivery",
    "divisionname": "Nizamabad",
    "regionname": "Hyderabad",
    "circlename": "Andhra Pradesh",
    "Taluk": "Armoor",
    "Districtname": "Nizamabad",
    "statename": "ANDHRA PRADESH"
  },
  {
    "pincode": "503212",
    "officename": "Ummeda B.O",
    "officeType": "B.O",
    "Deliverystatus": "Delivery",
    "divisionname": "Nizamabad",
    "regionname": "Hyderabad",
    "circlename": "Andhra Pradesh",
    "Taluk": "Armoor",
    "Districtname": "Nizamabad",
    "statename": "ANDHRA PRADESH"
  },
  {
    "pincode": "503212",
    "officename": "Vannel \"k\" B.O",
    "officeType": "B.O",
    "Deliverystatus": "Delivery",
    "divisionname": "Nizamabad",
    "regionname": "Hyderabad",
    "circlename": "Andhra Pradesh",
    "Taluk": "Armoor",
    "Districtname": "Nizamabad",
    "statename": "ANDHRA PRADESH"
  }
]
