[
  {
    "pincode": "503230",
    "officename": "Badsi B.O",
    "officeType": "B.O",
    "Deliverystatus": "Delivery",
    "divisionname": "Nizamabad",
    "regionname": "Hyderabad",
    "circlename": "Andhra Pradesh",
    "Taluk": "Nizamabad",
    "Districtname": "Nizamabad",
    "statename": "ANDHRA PRADESH"
  },
  {
    "pincode": "503230",
    "officename": "Bardipur B.O",
    "officeType": "B.O",
    "Deliverystatus": "Delivery",
    "divisionname": "Nizamabad",
    "regionname": "Hyderabad",
    "circlename": "Andhra Pradesh",
    "Taluk": "Nizamabad",
    "Districtname": "Nizamabad",
    "statename": "ANDHRA PRADESH"
  },
  {
    "pincode": "503230",
    "officename": "Boregaon B.O",
    "officeType": "B.O",
    "Deliverystatus": "Delivery",
    "divisionname": "Nizamabad",
    "regionname": "Hyderabad",
    "circlename": "Andhra Pradesh",
    "Taluk": "Nizamabad",
    "Districtname": "Nizamabad",
    "statename": "ANDHRA PRADESH"
  },
  {
    "pincode": "503230",
    "officename": "Dharmaram S.O (Nizamabad)",
    "officeType": "S.O",
    "Deliverystatus": "Delivery",
    "divisionname": "Nizamabad",
    "regionname": "Hyderabad",
    "circlename": "Andhra Pradesh",
    "Taluk": "Nizamabad",
    "Districtname": "Nizamabad",
    "statename": "ANDHRA PRADESH"
  },
  {
    "pincode": "503230",
    "officename": "Madhavnagar B.O",
    "officeType": "B.O",
    "Deliverystatus": "Delivery",
    "divisionname": "Nizamabad",
    "regionname": "Hyderabad",
    "circlename": "Andhra Pradesh",
    "Taluk": "Nizamabad",
    "Districtname": "Nizamabad",
    "statename": "ANDHRA PRADESH"
  },
  {
    "pincode": "503230",
    "officename": "Manchippa B.O",
    "officeType": "B.O",
    "Deliverystatus": "Delivery",
    "divisionname": "Nizamabad",
    "regionname": "Hyderabad",
    "circlename": "Andhra Pradesh",
    "Taluk": "Nizamabad",
    "Districtname": "Nizamabad",
    "statename": "ANDHRA PRADESH"
  },
  {
    "pincode": "503230",
    "officename": "Mudakpalli B.O",
    "officeType": "B.O",
    "Deliverystatus": "Delivery",
    "divisionname": "Nizamabad",
    "regionname": "Hyderabad",
    "circlename": "Andhra Pradesh",
    "Taluk": "Nizamabad",
    "Districtname": "Nizamabad",
    "statename": "ANDHRA PRADESH"
  },
  {
    "pincode": "503230",
    "officename": "Mupkal B.O",
    "officeType": "B.O",
    "Deliverystatus": "Delivery",
    "divisionname": "Nizamabad",
    "regionname": "Hyderabad",
    "circlename": "Andhra Pradesh",
    "Taluk": "Nizamabad",
    "Districtname": "Nizamabad",
    "statename": "ANDHRA PRADESH"
  },
  {
    "pincode": "503230",
    "officename": "Narsingpalli B.O",
    "officeType": "B.O",
    "Deliverystatus": "Delivery",
    "divisionname": "Nizamabad",
    "regionname": "Hyderabad",
    "circlename": "Andhra Pradesh",
    "Taluk": "Nizamabad",
    "Districtname": "Nizamabad",
    "statename": "ANDHRA PRADESH"
  },
  {
    "pincode": "503230",
    "officename": "Nyalkal B.O",
    "officeType": "B.O",
    "Deliverystatus": "Delivery",
    "divisionname": "Nizamabad",
    "regionname": "Hyderabad",
    "circlename": "Andhra Pradesh",
    "Taluk": "Nizamabad",
    "Districtname": "Nizamabad",
    "statename": "ANDHRA PRADESH"
  },
  {
    "pincode": "503230",
    "officename": "Sirpur B.O",
    "officeType": "B.O",
    "Deliverystatus": "Delivery",
    "divisionname": "Nizamabad",
    "regionname": "Hyderabad",
    "circlename": "Andhra Pradesh",
    "Taluk": "Nizamabad",
    "Districtname": "Nizamabad",
    "statename": "ANDHRA PRADESH"
  }
]
