[
  {
    "pincode": "504101",
    "officename": "Ashta B.O",
    "officeType": "B.O",
    "Deliverystatus": "Delivery",
    "divisionname": "Adilabad",
    "regionname": "Hyderabad",
    "circlename": "Andhra Pradesh",
    "Taluk": "Mudhole",
    "Districtname": "Adilabad",
    "statename": "ANDHRA PRADESH"
  },
  {
    "pincode": "504101",
    "officename": "Basar S.O (Adilabad)",
    "officeType": "S.O",
    "Deliverystatus": "Delivery",
    "divisionname": "Adilabad",
    "regionname": "Hyderabad",
    "circlename": "Andhra Pradesh",
    "Taluk": "Mudhole",
    "Districtname": "Adilabad",
    "statename": "ANDHRA PRADESH"
  },
  {
    "pincode": "504101",
    "officename": "Bidrelli B.O",
    "officeType": "B.O",
    "Deliverystatus": "Delivery",
    "divisionname": "Adilabad",
    "regionname": "Hyderabad",
    "circlename": "Andhra Pradesh",
    "Taluk": "Mudhole",
    "Districtname": "Adilabad",
    "statename": "ANDHRA PRADESH"
  },
  {
    "pincode": "504101",
    "officename": "Boregaon B.O",
    "officeType": "B.O",
    "Deliverystatus": "Delivery",
    "divisionname": "Adilabad",
    "regionname": "Hyderabad",
    "circlename": "Andhra Pradesh",
    "Taluk": "Mudhole",
    "Districtname": "Adilabad",
    "statename": "ANDHRA PRADESH"
  },
  {
    "pincode": "504101",
    "officename": "Brahmangaon B.O",
    "officeType": "B.O",
    "Deliverystatus": "Delivery",
    "divisionname": "Adilabad",
    "regionname": "Hyderabad",
    "circlename": "Andhra Pradesh",
    "Taluk": "Mudhole",
    "Districtname": "Adilabad",
    "statename": "ANDHRA PRADESH"
  },
  {
    "pincode": "504101",
    "officename": "Kankapur B.O",
    "officeType": "B.O",
    "Deliverystatus": "Delivery",
    "divisionname": "Adilabad",
    "regionname": "Hyderabad",
    "circlename": "Andhra Pradesh",
    "Taluk": "Mudhole",
    "Districtname": "Adilabad",
    "statename": "ANDHRA PRADESH"
  },
  {
    "pincode": "504101",
    "officename": "Kirgul B.O",
    "officeType": "B.O",
    "Deliverystatus": "Delivery",
    "divisionname": "Adilabad",
    "regionname": "Hyderabad",
    "circlename": "Andhra Pradesh",
    "Taluk": "Mudhole",
    "Districtname": "Adilabad",
    "statename": "ANDHRA PRADESH"
  },
  {
    "pincode": "504101",
    "officename": "Yellawath B.O",
    "officeType": "B.O",
    "Deliverystatus": "Delivery",
    "divisionname": "Adilabad",
    "regionname": "Hyderabad",
    "circlename": "Andhra Pradesh",
    "Taluk": "Mudhole",
    "Districtname": "Adilabad",
    "statename": "ANDHRA PRADESH"
  }
]
