[
  {
    "pincode": "504109",
    "officename": "Andukur B.O",
    "officeType": "B.O",
    "Deliverystatus": "Delivery",
    "divisionname": "Adilabad",
    "regionname": "Hyderabad",
    "circlename": "Andhra Pradesh",
    "Taluk": "Nirmal",
    "Districtname": "Adilabad",
    "statename": "ANDHRA PRADESH"
  },
  {
    "pincode": "504109",
    "officename": "Gulmadugu B.O",
    "officeType": "B.O",
    "Deliverystatus": "Delivery",
    "divisionname": "Adilabad",
    "regionname": "Hyderabad",
    "circlename": "Andhra Pradesh",
    "Taluk": "Nirmal",
    "Districtname": "Adilabad",
    "statename": "ANDHRA PRADESH"
  },
  {
    "pincode": "504109",
    "officename": "Kallur B.O",
    "officeType": "B.O",
    "Deliverystatus": "Delivery",
    "divisionname": "Adilabad",
    "regionname": "Hyderabad",
    "circlename": "Andhra Pradesh",
    "Taluk": "Nirmal",
    "Districtname": "Adilabad",
    "statename": "ANDHRA PRADESH"
  },
  {
    "pincode": "504109",
    "officename": "Kuntala S.O",
    "officeType": "S.O",
    "Deliverystatus": "Delivery",
    "divisionname": "Adilabad",
    "regionname": "Hyderabad",
    "circlename": "Andhra Pradesh",
    "Taluk": "Mudhole",
    "Districtname": "Adilabad",
    "statename": "ANDHRA PRADESH"
  },
  {
    "pincode": "504109",
    "officename": "Limba (K) B.O",
    "officeType": "B.O",
    "Deliverystatus": "Delivery",
    "divisionname": "Adilabad",
    "regionname": "Hyderabad",
    "circlename": "Andhra Pradesh",
    "Taluk": "Nirmal",
    "Districtname": "Adilabad",
    "statename": "ANDHRA PRADESH"
  },
  {
    "pincode": "504109",
    "officename": "Ola B.O",
    "officeType": "B.O",
    "Deliverystatus": "Delivery",
    "divisionname": "Adilabad",
    "regionname": "Hyderabad",
    "circlename": "Andhra Pradesh",
    "Taluk": "Nirmal",
    "Districtname": "Adilabad",
    "statename": "ANDHRA PRADESH"
  },
  {
    "pincode": "504109",
    "officename": "Pendapally B.O",
    "officeType": "B.O",
    "Deliverystatus": "Delivery",
    "divisionname": "Adilabad",
    "regionname": "Hyderabad",
    "circlename": "Andhra Pradesh",
    "Taluk": "Nirmal",
    "Districtname": "Adilabad",
    "statename": "ANDHRA PRADESH"
  },
  {
    "pincode": "504109",
    "officename": "Sunkli B.O",
    "officeType": "B.O",
    "Deliverystatus": "Delivery",
    "divisionname": "Adilabad",
    "regionname": "Hyderabad",
    "circlename": "Andhra Pradesh",
    "Taluk": "Nirmal",
    "Districtname": "Adilabad",
    "statename": "ANDHRA PRADESH"
  },
  {
    "pincode": "504109",
    "officename": "Thammapur B.O",
    "officeType": "B.O",
    "Deliverystatus": "Delivery",
    "divisionname": "Adilabad",
    "regionname": "Hyderabad",
    "circlename": "Andhra Pradesh",
    "Taluk": "Nirmal",
    "Districtname": "Adilabad",
    "statename": "ANDHRA PRADESH"
  }
]
