[
  {
    "pincode": "504215",
    "officename": "Chandaram B.O",
    "officeType": "B.O",
    "Deliverystatus": "Delivery",
    "divisionname": "Adilabad",
    "regionname": "Hyderabad",
    "circlename": "Andhra Pradesh",
    "Taluk": "Luxettipet",
    "Districtname": "Adilabad",
    "statename": "ANDHRA PRADESH"
  },
  {
    "pincode": "504215",
    "officename": "Dowdepally B.O",
    "officeType": "B.O",
    "Deliverystatus": "Delivery",
    "divisionname": "Adilabad",
    "regionname": "Hyderabad",
    "circlename": "Andhra Pradesh",
    "Taluk": "Luxettipet",
    "Districtname": "Adilabad",
    "statename": "ANDHRA PRADESH"
  },
  {
    "pincode": "504215",
    "officename": "Gudem B.O",
    "officeType": "B.O",
    "Deliverystatus": "Delivery",
    "divisionname": "Adilabad",
    "regionname": "Hyderabad",
    "circlename": "Andhra Pradesh",
    "Taluk": "Luxettipet",
    "Districtname": "Adilabad",
    "statename": "ANDHRA PRADESH"
  },
  {
    "pincode": "504215",
    "officename": "Itikyal B.O",
    "officeType": "B.O",
    "Deliverystatus": "Delivery",
    "divisionname": "Adilabad",
    "regionname": "Hyderabad",
    "circlename": "Andhra Pradesh",
    "Taluk": "Luxettipet",
    "Districtname": "Adilabad",
    "statename": "ANDHRA PRADESH"
  },
  {
    "pincode": "504215",
    "officename": "Korvichelma B.O",
    "officeType": "B.O",
    "Deliverystatus": "Delivery",
    "divisionname": "Adilabad",
    "regionname": "Hyderabad",
    "circlename": "Andhra Pradesh",
    "Taluk": "Luxettipet",
    "Districtname": "Adilabad",
    "statename": "ANDHRA PRADESH"
  },
  {
    "pincode": "504215",
    "officename": "Luxettipet S.O",
    "officeType": "S.O",
    "Deliverystatus": "Delivery",
    "divisionname": "Adilabad",
    "regionname": "Hyderabad",
    "circlename": "Andhra Pradesh",
    "Taluk": "Luxettipet",
    "Districtname": "Adilabad",
    "statename": "ANDHRA PRADESH"
  },
  {
    "pincode": "504215",
    "officename": "Modela B.O",
    "officeType": "B.O",
    "Deliverystatus": "Delivery",
    "divisionname": "Adilabad",
    "regionname": "Hyderabad",
    "circlename": "Andhra Pradesh",
    "Taluk": "Luxettipet",
    "Districtname": "Adilabad",
    "statename": "ANDHRA PRADESH"
  },
  {
    "pincode": "504215",
    "officename": "Rebbanapally B.O",
    "officeType": "B.O",
    "Deliverystatus": "Delivery",
    "divisionname": "Adilabad",
    "regionname": "Hyderabad",
    "circlename": "Andhra Pradesh",
    "Taluk": "Luxettipet",
    "Districtname": "Adilabad",
    "statename": "ANDHRA PRADESH"
  },
  {
    "pincode": "504215",
    "officename": "Velagnur B.O",
    "officeType": "B.O",
    "Deliverystatus": "Delivery",
    "divisionname": "Adilabad",
    "regionname": "Hyderabad",
    "circlename": "Andhra Pradesh",
    "Taluk": "Luxettipet",
    "Districtname": "Adilabad",
    "statename": "ANDHRA PRADESH"
  },
  {
    "pincode": "504215",
    "officename": "Venkatraopet B.O",
    "officeType": "B.O",
    "Deliverystatus": "Delivery",
    "divisionname": "Adilabad",
    "regionname": "Hyderabad",
    "circlename": "Andhra Pradesh",
    "Taluk": "Luxettipet",
    "Districtname": "Adilabad",
    "statename": "ANDHRA PRADESH"
  }
]
