[
  {
    "pincode": "504296",
    "officename": "Andavelli B.O",
    "officeType": "B.O",
    "Deliverystatus": "Delivery",
    "divisionname": "Adilabad",
    "regionname": "Hyderabad",
    "circlename": "Andhra Pradesh",
    "Taluk": "Sirpur (t)",
    "Districtname": "Adilabad",
    "statename": "ANDHRA PRADESH"
  },
  {
    "pincode": "504296",
    "officename": "Bareguda B.O",
    "officeType": "B.O",
    "Deliverystatus": "Delivery",
    "divisionname": "Adilabad",
    "regionname": "Hyderabad",
    "circlename": "Andhra Pradesh",
    "Taluk": "Asifabad",
    "Districtname": "Adilabad",
    "statename": "ANDHRA PRADESH"
  },
  {
    "pincode": "504296",
    "officename": "Chedwai B.O",
    "officeType": "B.O",
    "Deliverystatus": "Delivery",
    "divisionname": "Adilabad",
    "regionname": "Hyderabad",
    "circlename": "Andhra Pradesh",
    "Taluk": "Sirpur (t)",
    "Districtname": "Adilabad",
    "statename": "ANDHRA PRADESH"
  },
  {
    "pincode": "504296",
    "officename": "Chintaguda B.O",
    "officeType": "B.O",
    "Deliverystatus": "Delivery",
    "divisionname": "Adilabad",
    "regionname": "Hyderabad",
    "circlename": "Andhra Pradesh",
    "Taluk": "Sirpur (t)",
    "Districtname": "Adilabad",
    "statename": "ANDHRA PRADESH"
  },
  {
    "pincode": "504296",
    "officename": "Easgaon - V B.O",
    "officeType": "B.O",
    "Deliverystatus": "Delivery",
    "divisionname": "Adilabad",
    "regionname": "Hyderabad",
    "circlename": "Andhra Pradesh",
    "Taluk": "Kagaznagar",
    "Districtname": "Adilabad",
    "statename": "ANDHRA PRADESH"
  },
  {
    "pincode": "504296",
    "officename": "Easgaon Camp B.O",
    "officeType": "B.O",
    "Deliverystatus": "Delivery",
    "divisionname": "Adilabad",
    "regionname": "Hyderabad",
    "circlename": "Andhra Pradesh",
    "Taluk": "Sirpur (t)",
    "Districtname": "Adilabad",
    "statename": "ANDHRA PRADESH"
  },
  {
    "pincode": "504296",
    "officename": "Harnath Colony B.O",
    "officeType": "B.O",
    "Deliverystatus": "Non-Delivery",
    "divisionname": "Adilabad",
    "regionname": "Hyderabad",
    "circlename": "Andhra Pradesh",
    "Taluk": "Kagaznagar",
    "Districtname": "Adilabad",
    "statename": "ANDHRA PRADESH"
  },
  {
    "pincode": "504296",
    "officename": "Industrial Area S.O (Adilabad)",
    "officeType": "S.O",
    "Deliverystatus": "Non-Delivery",
    "divisionname": "Adilabad",
    "regionname": "Hyderabad",
    "circlename": "Andhra Pradesh",
    "Taluk": "Kagaznagar",
    "Districtname": "Adilabad",
    "statename": "ANDHRA PRADESH"
  },
  {
    "pincode": "504296",
    "officename": "M.G. Road S.O",
    "officeType": "S.O",
    "Deliverystatus": "Non-Delivery",
    "divisionname": "Adilabad",
    "regionname": "Hyderabad",
    "circlename": "Andhra Pradesh",
    "Taluk": "Kagaznagar",
    "Districtname": "Adilabad",
    "statename": "ANDHRA PRADESH"
  },
  {
    "pincode": "504296",
    "officename": "Mosam B.O",
    "officeType": "B.O",
    "Deliverystatus": "Delivery",
    "divisionname": "Adilabad",
    "regionname": "Hyderabad",
    "circlename": "Andhra Pradesh",
    "Taluk": "Sirpur (t)",
    "Districtname": "Adilabad",
    "statename": "ANDHRA PRADESH"
  },
  {
    "pincode": "504296",
    "officename": "Old Town B.O",
    "officeType": "B.O",
    "Deliverystatus": "Non-Delivery",
    "divisionname": "Adilabad",
    "regionname": "Hyderabad",
    "circlename": "Andhra Pradesh",
    "Taluk": "Kagaznagar",
    "Districtname": "Adilabad",
    "statename": "ANDHRA PRADESH"
  },
  {
    "pincode": "504296",
    "officename": "Penchikalpet B.O",
    "officeType": "B.O",
    "Deliverystatus": "Delivery",
    "divisionname": "Adilabad",
    "regionname": "Hyderabad",
    "circlename": "Andhra Pradesh",
    "Taluk": "Sirpur (t)",
    "Districtname": "Adilabad",
    "statename": "ANDHRA PRADESH"
  },
  {
    "pincode": "504296",
    "officename": "Raspalli B.O",
    "officeType": "B.O",
    "Deliverystatus": "Delivery",
    "divisionname": "Adilabad",
    "regionname": "Hyderabad",
    "circlename": "Andhra Pradesh",
    "Taluk": "Sirpur (t)",
    "Districtname": "Adilabad",
    "statename": "ANDHRA PRADESH"
  },
  {
    "pincode": "504296",
    "officename": "Rp Colony B.O",
    "officeType": "B.O",
    "Deliverystatus": "Non-Delivery",
    "divisionname": "Adilabad",
    "regionname": "Hyderabad",
    "circlename": "Andhra Pradesh",
    "Taluk": "Kagaznagar",
    "Districtname": "Adilabad",
    "statename": "ANDHRA PRADESH"
  },
  {
    "pincode": "504296",
    "officename": "Sanjeevnagar B.O",
    "officeType": "B.O",
    "Deliverystatus": "Delivery",
    "divisionname": "Adilabad",
    "regionname": "Hyderabad",
    "circlename": "Andhra Pradesh",
    "Taluk": "Bejjur",
    "Districtname": "Adilabad",
    "statename": "ANDHRA PRADESH"
  },
  {
    "pincode": "504296",
    "officename": "Sirpur Khagaznagar S.O",
    "officeType": "S.O",
    "Deliverystatus": "Delivery",
    "divisionname": "Adilabad",
    "regionname": "Hyderabad",
    "circlename": "Andhra Pradesh",
    "Taluk": "Sirpur (t)",
    "Districtname": "Adilabad",
    "statename": "ANDHRA PRADESH"
  },
  {
    "pincode": "504296",
    "officename": "Tungeda B.O",
    "officeType": "B.O",
    "Deliverystatus": "Delivery",
    "divisionname": "Adilabad",
    "regionname": "Hyderabad",
    "circlename": "Andhra Pradesh",
    "Taluk": "Sirpur (t)",
    "Districtname": "Adilabad",
    "statename": "ANDHRA PRADESH"
  },
  {
    "pincode": "504296",
    "officename": "Vempalli B.O",
    "officeType": "B.O",
    "Deliverystatus": "Delivery",
    "divisionname": "Adilabad",
    "regionname": "Hyderabad",
    "circlename": "Andhra Pradesh",
    "Taluk": "Sirpur(t)",
    "Districtname": "Adilabad",
    "statename": "ANDHRA PRADESH"
  }
]
