[
  {
    "pincode": "504205",
    "officename": "Badampally B.O",
    "officeType": "B.O",
    "Deliverystatus": "Delivery",
    "divisionname": "Adilabad",
    "regionname": "Hyderabad",
    "circlename": "Andhra Pradesh",
    "Taluk": "Luxettipet",
    "Districtname": "Adilabad",
    "statename": "ANDHRA PRADESH"
  },
  {
    "pincode": "504205",
    "officename": "Chintaguda B.O",
    "officeType": "B.O",
    "Deliverystatus": "Delivery",
    "divisionname": "Adilabad",
    "regionname": "Hyderabad",
    "circlename": "Andhra Pradesh",
    "Taluk": "Luxettipet",
    "Districtname": "Adilabad",
    "statename": "ANDHRA PRADESH"
  },
  {
    "pincode": "504205",
    "officename": "Dharmaram B.O",
    "officeType": "B.O",
    "Deliverystatus": "Delivery",
    "divisionname": "Adilabad",
    "regionname": "Hyderabad",
    "circlename": "Andhra Pradesh",
    "Taluk": "Luxettipet",
    "Districtname": "Adilabad",
    "statename": "ANDHRA PRADESH"
  },
  {
    "pincode": "504205",
    "officename": "Indanpally B.O",
    "officeType": "B.O",
    "Deliverystatus": "Delivery",
    "divisionname": "Adilabad",
    "regionname": "Hyderabad",
    "circlename": "Andhra Pradesh",
    "Taluk": "Luxettipet",
    "Districtname": "Adilabad",
    "statename": "ANDHRA PRADESH"
  },
  {
    "pincode": "504205",
    "officename": "Jannaram S.O",
    "officeType": "S.O",
    "Deliverystatus": "Delivery",
    "divisionname": "Adilabad",
    "regionname": "Hyderabad",
    "circlename": "Andhra Pradesh",
    "Taluk": "Luxettipet",
    "Districtname": "Adilabad",
    "statename": "ANDHRA PRADESH"
  },
  {
    "pincode": "504205",
    "officename": "Kalamadugu B.O",
    "officeType": "B.O",
    "Deliverystatus": "Delivery",
    "divisionname": "Adilabad",
    "regionname": "Hyderabad",
    "circlename": "Andhra Pradesh",
    "Taluk": "Luxettipet",
    "Districtname": "Adilabad",
    "statename": "ANDHRA PRADESH"
  },
  {
    "pincode": "504205",
    "officename": "Kistapur B.O",
    "officeType": "B.O",
    "Deliverystatus": "Delivery",
    "divisionname": "Adilabad",
    "regionname": "Hyderabad",
    "circlename": "Andhra Pradesh",
    "Taluk": "Luxettipet",
    "Districtname": "Adilabad",
    "statename": "ANDHRA PRADESH"
  },
  {
    "pincode": "504205",
    "officename": "Mulmadugu B.O",
    "officeType": "B.O",
    "Deliverystatus": "Delivery",
    "divisionname": "Adilabad",
    "regionname": "Hyderabad",
    "circlename": "Andhra Pradesh",
    "Taluk": "Luxettipet",
    "Districtname": "Adilabad",
    "statename": "ANDHRA PRADESH"
  },
  {
    "pincode": "504205",
    "officename": "Ponkal B.O",
    "officeType": "B.O",
    "Deliverystatus": "Delivery",
    "divisionname": "Adilabad",
    "regionname": "Hyderabad",
    "circlename": "Andhra Pradesh",
    "Taluk": "Luxettipet",
    "Districtname": "Adilabad",
    "statename": "ANDHRA PRADESH"
  },
  {
    "pincode": "504205",
    "officename": "Qawal B.O",
    "officeType": "B.O",
    "Deliverystatus": "Delivery",
    "divisionname": "Adilabad",
    "regionname": "Hyderabad",
    "circlename": "Andhra Pradesh",
    "Taluk": "Luxettipet",
    "Districtname": "Adilabad",
    "statename": "ANDHRA PRADESH"
  },
  {
    "pincode": "504205",
    "officename": "Udumpur B.O",
    "officeType": "B.O",
    "Deliverystatus": "Delivery",
    "divisionname": "Adilabad",
    "regionname": "Hyderabad",
    "circlename": "Andhra Pradesh",
    "Taluk": "Luxettipet",
    "Districtname": "Adilabad",
    "statename": "ANDHRA PRADESH"
  }
]
