[
  {
    "pincode": "505001",
    "officename": "Arepalli B.O",
    "officeType": "B.O",
    "Deliverystatus": "Delivery",
    "divisionname": "Karimnagar",
    "regionname": "Hyderabad",
    "circlename": "Andhra Pradesh",
    "Taluk": "",
    "Districtname": "Karim Nagar",
    "statename": "ANDHRA PRADESH"
  },
  {
    "pincode": "505001",
    "officename": "Bommakal B.O",
    "officeType": "B.O",
    "Deliverystatus": "Delivery",
    "divisionname": "Karimnagar",
    "regionname": "Hyderabad",
    "circlename": "Andhra Pradesh",
    "Taluk": "Karimnagar",
    "Districtname": "Karim Nagar",
    "statename": "ANDHRA PRADESH"
  },
  {
    "pincode": "505001",
    "officename": "Chegurthi B.O",
    "officeType": "B.O",
    "Deliverystatus": "Delivery",
    "divisionname": "Karimnagar",
    "regionname": "Hyderabad",
    "circlename": "Andhra Pradesh",
    "Taluk": "Karimnagar",
    "Districtname": "Karim Nagar",
    "statename": "ANDHRA PRADESH"
  },
  {
    "pincode": "505001",
    "officename": "Chinthakunta B.O",
    "officeType": "B.O",
    "Deliverystatus": "Delivery",
    "divisionname": "Karimnagar",
    "regionname": "Hyderabad",
    "circlename": "Andhra Pradesh",
    "Taluk": "Karimnagar",
    "Districtname": "Karim Nagar",
    "statename": "ANDHRA PRADESH"
  },
  {
    "pincode": "505001",
    "officename": "Collectorate Complex S.O",
    "officeType": "S.O",
    "Deliverystatus": "Non-Delivery",
    "divisionname": "Karimnagar",
    "regionname": "Hyderabad",
    "circlename": "Andhra Pradesh",
    "Taluk": "Karimnagar",
    "Districtname": "Karim Nagar",
    "statename": "ANDHRA PRADESH"
  },
  {
    "pincode": "505001",
    "officename": "Dist. Court Building S.O",
    "officeType": "S.O",
    "Deliverystatus": "Non-Delivery",
    "divisionname": "Karimnagar",
    "regionname": "Hyderabad",
    "circlename": "Andhra Pradesh",
    "Taluk": "Karimnagar",
    "Districtname": "Karim Nagar",
    "statename": "ANDHRA PRADESH"
  },
  {
    "pincode": "505001",
    "officename": "Durshed B.O",
    "officeType": "B.O",
    "Deliverystatus": "Delivery",
    "divisionname": "Karimnagar",
    "regionname": "Hyderabad",
    "circlename": "Andhra Pradesh",
    "Taluk": "Karimnagar",
    "Districtname": "Karim Nagar",
    "statename": "ANDHRA PRADESH"
  },
  {
    "pincode": "505001",
    "officename": "Jawaharnagar S.O (Karim Nagar)",
    "officeType": "S.O",
    "Deliverystatus": "Non-Delivery",
    "divisionname": "Karimnagar",
    "regionname": "Hyderabad",
    "circlename": "Andhra Pradesh",
    "Taluk": "Karimnagar",
    "Districtname": "Karim Nagar",
    "statename": "ANDHRA PRADESH"
  },
  {
    "pincode": "505001",
    "officename": "Jublikaman S.O",
    "officeType": "S.O",
    "Deliverystatus": "Non-Delivery",
    "divisionname": "Karimnagar",
    "regionname": "Hyderabad",
    "circlename": "Andhra Pradesh",
    "Taluk": "Karimnagar",
    "Districtname": "Karim Nagar",
    "statename": "ANDHRA PRADESH"
  },
  {
    "pincode": "505001",
    "officename": "Kamanpur B.O",
    "officeType": "B.O",
    "Deliverystatus": "Delivery",
    "divisionname": "Karimnagar",
    "regionname": "Hyderabad",
    "circlename": "Andhra Pradesh",
    "Taluk": "Karimnagar",
    "Districtname": "Karim Nagar",
    "statename": "ANDHRA PRADESH"
  },
  {
    "pincode": "505001",
    "officename": "Karimnagar H.O",
    "officeType": "H.O",
    "Deliverystatus": "Delivery",
    "divisionname": "Karimnagar",
    "regionname": "Hyderabad",
    "circlename": "Andhra Pradesh",
    "Taluk": "Karimnagar",
    "Districtname": "Karim Nagar",
    "statename": "ANDHRA PRADESH"
  },
  {
    "pincode": "505001",
    "officename": "Left Flank Katta Rampur B.O",
    "officeType": "B.O",
    "Deliverystatus": "Non-Delivery",
    "divisionname": "Karimnagar",
    "regionname": "Hyderabad",
    "circlename": "Andhra Pradesh",
    "Taluk": "Karimnagar",
    "Districtname": "Karim Nagar",
    "statename": "ANDHRA PRADESH"
  },
  {
    "pincode": "505001",
    "officename": "Mukarampura S.O",
    "officeType": "S.O",
    "Deliverystatus": "Non-Delivery",
    "divisionname": "Karimnagar",
    "regionname": "Hyderabad",
    "circlename": "Andhra Pradesh",
    "Taluk": "Karimnagar",
    "Districtname": "Karim Nagar",
    "statename": "ANDHRA PRADESH"
  },
  {
    "pincode": "505001",
    "officename": "Ramnagar S.O (Karim Nagar)",
    "officeType": "S.O",
    "Deliverystatus": "Non-Delivery",
    "divisionname": "Karimnagar",
    "regionname": "Hyderabad",
    "circlename": "Andhra Pradesh",
    "Taluk": "Karimnagar",
    "Districtname": "Karim Nagar",
    "statename": "ANDHRA PRADESH"
  },
  {
    "pincode": "505001",
    "officename": "Rampur B.O",
    "officeType": "B.O",
    "Deliverystatus": "Non-Delivery",
    "divisionname": "Karimnagar",
    "regionname": "Hyderabad",
    "circlename": "Andhra Pradesh",
    "Taluk": "Karimnagar",
    "Districtname": "Karim Nagar",
    "statename": "ANDHRA PRADESH"
  }
]
