[
  {
    "pincode": "505185",
    "officename": "Gattepalli B.O",
    "officeType": "B.O",
    "Deliverystatus": "Delivery",
    "divisionname": "Peddapalli",
    "regionname": "Hyderabad",
    "circlename": "Andhra Pradesh",
    "Taluk": "",
    "Districtname": "Karim Nagar",
    "statename": "ANDHRA PRADESH"
  },
  {
    "pincode": "505185",
    "officename": "Kanukula B.O",
    "officeType": "B.O",
    "Deliverystatus": "Delivery",
    "divisionname": "Peddapalli",
    "regionname": "Hyderabad",
    "circlename": "Andhra Pradesh",
    "Taluk": "",
    "Districtname": "Karim Nagar",
    "statename": "ANDHRA PRADESH"
  },
  {
    "pincode": "505185",
    "officename": "Kodurupaka B.O",
    "officeType": "B.O",
    "Deliverystatus": "Delivery",
    "divisionname": "Peddapalli",
    "regionname": "Hyderabad",
    "circlename": "Andhra Pradesh",
    "Taluk": "",
    "Districtname": "Karim Nagar",
    "statename": "ANDHRA PRADESH"
  },
  {
    "pincode": "505185",
    "officename": "Narayanapur B.O",
    "officeType": "B.O",
    "Deliverystatus": "Delivery",
    "divisionname": "Peddapalli",
    "regionname": "Hyderabad",
    "circlename": "Andhra Pradesh",
    "Taluk": "Sultanabad",
    "Districtname": "Karim Nagar",
    "statename": "ANDHRA PRADESH"
  },
  {
    "pincode": "505185",
    "officename": "Neerukulla B.O",
    "officeType": "B.O",
    "Deliverystatus": "Delivery",
    "divisionname": "Peddapalli",
    "regionname": "Hyderabad",
    "circlename": "Andhra Pradesh",
    "Taluk": "",
    "Districtname": "Karim Nagar",
    "statename": "ANDHRA PRADESH"
  },
  {
    "pincode": "505185",
    "officename": "Poosala B.O",
    "officeType": "B.O",
    "Deliverystatus": "Delivery",
    "divisionname": "Peddapalli",
    "regionname": "Hyderabad",
    "circlename": "Andhra Pradesh",
    "Taluk": "",
    "Districtname": "Karim Nagar",
    "statename": "ANDHRA PRADESH"
  },
  {
    "pincode": "505185",
    "officename": "Raikaldevpalli B.O",
    "officeType": "B.O",
    "Deliverystatus": "Delivery",
    "divisionname": "Peddapalli",
    "regionname": "Hyderabad",
    "circlename": "Andhra Pradesh",
    "Taluk": "",
    "Districtname": "Karim Nagar",
    "statename": "ANDHRA PRADESH"
  },
  {
    "pincode": "505185",
    "officename": "Suddala B.O",
    "officeType": "B.O",
    "Deliverystatus": "Delivery",
    "divisionname": "Peddapalli",
    "regionname": "Hyderabad",
    "circlename": "Andhra Pradesh",
    "Taluk": "",
    "Districtname": "Karim Nagar",
    "statename": "ANDHRA PRADESH"
  },
  {
    "pincode": "505185",
    "officename": "Sultanabad S.O",
    "officeType": "S.O",
    "Deliverystatus": "Delivery",
    "divisionname": "Peddapalli",
    "regionname": "Hyderabad",
    "circlename": "Andhra Pradesh",
    "Taluk": "",
    "Districtname": "Karim Nagar",
    "statename": "ANDHRA PRADESH"
  },
  {
    "pincode": "505185",
    "officename": "Togarrai B.O",
    "officeType": "B.O",
    "Deliverystatus": "Delivery",
    "divisionname": "Peddapalli",
    "regionname": "Hyderabad",
    "circlename": "Andhra Pradesh",
    "Taluk": "",
    "Districtname": "Karim Nagar",
    "statename": "ANDHRA PRADESH"
  }
]
