[
  {
    "pincode": "505212",
    "officename": "Adivarampet B.O",
    "officeType": "B.O",
    "Deliverystatus": "Delivery",
    "divisionname": "Peddapalli",
    "regionname": "Hyderabad",
    "circlename": "Andhra Pradesh",
    "Taluk": "",
    "Districtname": "Karim Nagar",
    "statename": "ANDHRA PRADESH"
  },
  {
    "pincode": "505212",
    "officename": "Begampet B.O",
    "officeType": "B.O",
    "Deliverystatus": "Delivery",
    "divisionname": "Peddapalli",
    "regionname": "Hyderabad",
    "circlename": "Andhra Pradesh",
    "Taluk": "",
    "Districtname": "Karim Nagar",
    "statename": "ANDHRA PRADESH"
  },
  {
    "pincode": "505212",
    "officename": "Centinary Colony S.O",
    "officeType": "S.O",
    "Deliverystatus": "Delivery",
    "divisionname": "Peddapalli",
    "regionname": "Hyderabad",
    "circlename": "Andhra Pradesh",
    "Taluk": "Kamanpur",
    "Districtname": "Karim Nagar",
    "statename": "ANDHRA PRADESH"
  },
  {
    "pincode": "505212",
    "officename": "Kalvacharla B.O",
    "officeType": "B.O",
    "Deliverystatus": "Delivery",
    "divisionname": "Peddapalli",
    "regionname": "Hyderabad",
    "circlename": "Andhra Pradesh",
    "Taluk": "",
    "Districtname": "Karim Nagar",
    "statename": "ANDHRA PRADESH"
  },
  {
    "pincode": "505212",
    "officename": "Ladnapur B.O",
    "officeType": "B.O",
    "Deliverystatus": "Delivery",
    "divisionname": "Peddapalli",
    "regionname": "Hyderabad",
    "circlename": "Andhra Pradesh",
    "Taluk": "",
    "Districtname": "Karim Nagar",
    "statename": "ANDHRA PRADESH"
  },
  {
    "pincode": "505212",
    "officename": "Lakkaram B.O",
    "officeType": "B.O",
    "Deliverystatus": "Delivery",
    "divisionname": "Peddapalli",
    "regionname": "Hyderabad",
    "circlename": "Andhra Pradesh",
    "Taluk": "",
    "Districtname": "Karim Nagar",
    "statename": "ANDHRA PRADESH"
  },
  {
    "pincode": "505212",
    "officename": "Maidambanda B.O",
    "officeType": "B.O",
    "Deliverystatus": "Delivery",
    "divisionname": "Peddapalli",
    "regionname": "Hyderabad",
    "circlename": "Andhra Pradesh",
    "Taluk": "",
    "Districtname": "Karim Nagar",
    "statename": "ANDHRA PRADESH"
  },
  {
    "pincode": "505212",
    "officename": "Rathnapur B.O",
    "officeType": "B.O",
    "Deliverystatus": "Delivery",
    "divisionname": "Peddapalli",
    "regionname": "Hyderabad",
    "circlename": "Andhra Pradesh",
    "Taluk": "",
    "Districtname": "Karim Nagar",
    "statename": "ANDHRA PRADESH"
  }
]
