[
  {
    "pincode": "505331",
    "officename": "Chittapur B.O",
    "officeType": "B.O",
    "Deliverystatus": "Delivery",
    "divisionname": "Karimnagar",
    "regionname": "Hyderabad",
    "circlename": "Andhra Pradesh",
    "Taluk": "Mallapur",
    "Districtname": "Karim Nagar",
    "statename": "ANDHRA PRADESH"
  },
  {
    "pincode": "505331",
    "officename": "Dharmarajpalli B.O",
    "officeType": "B.O",
    "Deliverystatus": "Delivery",
    "divisionname": "Karimnagar",
    "regionname": "Hyderabad",
    "circlename": "Andhra Pradesh",
    "Taluk": "Mallapur",
    "Districtname": "Karim Nagar",
    "statename": "ANDHRA PRADESH"
  },
  {
    "pincode": "505331",
    "officename": "Mallapur B.O",
    "officeType": "B.O",
    "Deliverystatus": "Delivery",
    "divisionname": "Karimnagar",
    "regionname": "Hyderabad",
    "circlename": "Andhra Pradesh",
    "Taluk": "Mallapur",
    "Districtname": "Karim Nagar",
    "statename": "ANDHRA PRADESH"
  },
  {
    "pincode": "505331",
    "officename": "Mogalpet B.O",
    "officeType": "B.O",
    "Deliverystatus": "Delivery",
    "divisionname": "Karimnagar",
    "regionname": "Hyderabad",
    "circlename": "Andhra Pradesh",
    "Taluk": "Mallapur",
    "Districtname": "Karim Nagar",
    "statename": "ANDHRA PRADESH"
  },
  {
    "pincode": "505331",
    "officename": "Muthyampet S.O",
    "officeType": "S.O",
    "Deliverystatus": "Delivery",
    "divisionname": "Karimnagar",
    "regionname": "Hyderabad",
    "circlename": "Andhra Pradesh",
    "Taluk": "Mallapur",
    "Districtname": "Karim Nagar",
    "statename": "ANDHRA PRADESH"
  },
  {
    "pincode": "505331",
    "officename": "Ragavpet B.O",
    "officeType": "B.O",
    "Deliverystatus": "Delivery",
    "divisionname": "Karimnagar",
    "regionname": "Hyderabad",
    "circlename": "Andhra Pradesh",
    "Taluk": "Mallapur",
    "Districtname": "Karim Nagar",
    "statename": "ANDHRA PRADESH"
  },
  {
    "pincode": "505331",
    "officename": "Ratnapur B.O",
    "officeType": "B.O",
    "Deliverystatus": "Delivery",
    "divisionname": "Karimnagar",
    "regionname": "Hyderabad",
    "circlename": "Andhra Pradesh",
    "Taluk": "Mallapur",
    "Districtname": "Karim Nagar",
    "statename": "ANDHRA PRADESH"
  },
  {
    "pincode": "505331",
    "officename": "Sataram B.O",
    "officeType": "B.O",
    "Deliverystatus": "Delivery",
    "divisionname": "Karimnagar",
    "regionname": "Hyderabad",
    "circlename": "Andhra Pradesh",
    "Taluk": "Mallapur",
    "Districtname": "Karim Nagar",
    "statename": "ANDHRA PRADESH"
  },
  {
    "pincode": "505331",
    "officename": "Siripuram B.O",
    "officeType": "B.O",
    "Deliverystatus": "Delivery",
    "divisionname": "Karimnagar",
    "regionname": "Hyderabad",
    "circlename": "Andhra Pradesh",
    "Taluk": "Mallapur",
    "Districtname": "Karim Nagar",
    "statename": "ANDHRA PRADESH"
  },
  {
    "pincode": "505331",
    "officename": "Vempalli Venkatraopet B.O",
    "officeType": "B.O",
    "Deliverystatus": "Delivery",
    "divisionname": "Karimnagar",
    "regionname": "Hyderabad",
    "circlename": "Andhra Pradesh",
    "Taluk": "Mallapur",
    "Districtname": "Karim Nagar",
    "statename": "ANDHRA PRADESH"
  },
  {
    "pincode": "505331",
    "officename": "Vempet B.O",
    "officeType": "B.O",
    "Deliverystatus": "Delivery",
    "divisionname": "Karimnagar",
    "regionname": "Hyderabad",
    "circlename": "Andhra Pradesh",
    "Taluk": "Metpalli",
    "Districtname": "Karim Nagar",
    "statename": "ANDHRA PRADESH"
  }
]
