[
  {
    "pincode": "505475",
    "officename": "Bijgir Shariff B.O",
    "officeType": "B.O",
    "Deliverystatus": "Delivery",
    "divisionname": "Peddapalli",
    "regionname": "Hyderabad",
    "circlename": "Andhra Pradesh",
    "Taluk": "",
    "Districtname": "Karim Nagar",
    "statename": "ANDHRA PRADESH"
  },
  {
    "pincode": "505475",
    "officename": "Bijnur B.O",
    "officeType": "B.O",
    "Deliverystatus": "Delivery",
    "divisionname": "Peddapalli",
    "regionname": "Hyderabad",
    "circlename": "Andhra Pradesh",
    "Taluk": "",
    "Districtname": "Karim Nagar",
    "statename": "ANDHRA PRADESH"
  },
  {
    "pincode": "505475",
    "officename": "Rachapalli B.O",
    "officeType": "B.O",
    "Deliverystatus": "Delivery",
    "divisionname": "Peddapalli",
    "regionname": "Hyderabad",
    "circlename": "Andhra Pradesh",
    "Taluk": "",
    "Districtname": "Karim Nagar",
    "statename": "ANDHRA PRADESH"
  },
  {
    "pincode": "505475",
    "officename": "Tekurthi B.O",
    "officeType": "B.O",
    "Deliverystatus": "Delivery",
    "divisionname": "Peddapalli",
    "regionname": "Hyderabad",
    "circlename": "Andhra Pradesh",
    "Taluk": "",
    "Districtname": "Karim Nagar",
    "statename": "ANDHRA PRADESH"
  },
  {
    "pincode": "505475",
    "officename": "Thanugula B.O",
    "officeType": "B.O",
    "Deliverystatus": "Delivery",
    "divisionname": "Peddapalli",
    "regionname": "Hyderabad",
    "circlename": "Andhra Pradesh",
    "Taluk": "",
    "Districtname": "Karim Nagar",
    "statename": "ANDHRA PRADESH"
  },
  {
    "pincode": "505475",
    "officename": "Vanthadupula B.O",
    "officeType": "B.O",
    "Deliverystatus": "Delivery",
    "divisionname": "Peddapalli",
    "regionname": "Hyderabad",
    "circlename": "Andhra Pradesh",
    "Taluk": "",
    "Districtname": "Karim Nagar",
    "statename": "ANDHRA PRADESH"
  },
  {
    "pincode": "505475",
    "officename": "Vavilala S.O",
    "officeType": "S.O",
    "Deliverystatus": "Delivery",
    "divisionname": "Peddapalli",
    "regionname": "Hyderabad",
    "circlename": "Andhra Pradesh",
    "Taluk": "",
    "Districtname": "Karim Nagar",
    "statename": "ANDHRA PRADESH"
  },
  {
    "pincode": "505475",
    "officename": "Vilasagar B.O",
    "officeType": "B.O",
    "Deliverystatus": "Delivery",
    "divisionname": "Peddapalli",
    "regionname": "Hyderabad",
    "circlename": "Andhra Pradesh",
    "Taluk": "",
    "Districtname": "Karim Nagar",
    "statename": "ANDHRA PRADESH"
  }
]
