[
  {
    "pincode": "505473",
    "officename": "Baswapur B.O",
    "officeType": "B.O",
    "Deliverystatus": "Delivery",
    "divisionname": "Karimnagar",
    "regionname": "Hyderabad",
    "circlename": "Andhra Pradesh",
    "Taluk": "Koheda",
    "Districtname": "Karim Nagar",
    "statename": "ANDHRA PRADESH"
  },
  {
    "pincode": "505473",
    "officename": "Cheelapur B.O",
    "officeType": "B.O",
    "Deliverystatus": "Delivery",
    "divisionname": "Karimnagar",
    "regionname": "Hyderabad",
    "circlename": "Andhra Pradesh",
    "Taluk": "Bejjanki",
    "Districtname": "Karim Nagar",
    "statename": "ANDHRA PRADESH"
  },
  {
    "pincode": "505473",
    "officename": "Gundareddipalli B.O",
    "officeType": "B.O",
    "Deliverystatus": "Delivery",
    "divisionname": "Karimnagar",
    "regionname": "Hyderabad",
    "circlename": "Andhra Pradesh",
    "Taluk": "Koheda",
    "Districtname": "Karim Nagar",
    "statename": "ANDHRA PRADESH"
  },
  {
    "pincode": "505473",
    "officename": "Koheda B.O",
    "officeType": "B.O",
    "Deliverystatus": "Delivery",
    "divisionname": "Karimnagar",
    "regionname": "Hyderabad",
    "circlename": "Andhra Pradesh",
    "Taluk": "Koheda",
    "Districtname": "Karim Nagar",
    "statename": "ANDHRA PRADESH"
  },
  {
    "pincode": "505473",
    "officename": "Kurella B.O",
    "officeType": "B.O",
    "Deliverystatus": "Delivery",
    "divisionname": "Karimnagar",
    "regionname": "Hyderabad",
    "circlename": "Andhra Pradesh",
    "Taluk": "Koheda",
    "Districtname": "Karim Nagar",
    "statename": "ANDHRA PRADESH"
  },
  {
    "pincode": "505473",
    "officename": "Regulapalli B.O",
    "officeType": "B.O",
    "Deliverystatus": "Delivery",
    "divisionname": "Karimnagar",
    "regionname": "Hyderabad",
    "circlename": "Andhra Pradesh",
    "Taluk": "Bejjanki",
    "Districtname": "Karim Nagar",
    "statename": "ANDHRA PRADESH"
  },
  {
    "pincode": "505473",
    "officename": "Shanigaram S.O",
    "officeType": "S.O",
    "Deliverystatus": "Delivery",
    "divisionname": "Karimnagar",
    "regionname": "Hyderabad",
    "circlename": "Andhra Pradesh",
    "Taluk": "Koheda",
    "Districtname": "Karim Nagar",
    "statename": "ANDHRA PRADESH"
  },
  {
    "pincode": "505473",
    "officename": "Thangallapalli B.O",
    "officeType": "B.O",
    "Deliverystatus": "Delivery",
    "divisionname": "Karimnagar",
    "regionname": "Hyderabad",
    "circlename": "Andhra Pradesh",
    "Taluk": "Koheda",
    "Districtname": "Karim Nagar",
    "statename": "ANDHRA PRADESH"
  }
]
