[
  {
    "pincode": "505468",
    "officename": "Bornapalli B.O",
    "officeType": "B.O",
    "Deliverystatus": "Delivery",
    "divisionname": "Peddapalli",
    "regionname": "Hyderabad",
    "circlename": "Andhra Pradesh",
    "Taluk": "",
    "Districtname": "Karim Nagar",
    "statename": "ANDHRA PRADESH"
  },
  {
    "pincode": "505468",
    "officename": "Elabotharam B.O",
    "officeType": "B.O",
    "Deliverystatus": "Delivery",
    "divisionname": "Peddapalli",
    "regionname": "Hyderabad",
    "circlename": "Andhra Pradesh",
    "Taluk": "",
    "Districtname": "Karim Nagar",
    "statename": "ANDHRA PRADESH"
  },
  {
    "pincode": "505468",
    "officename": "Erukalagudem B.O",
    "officeType": "B.O",
    "Deliverystatus": "Delivery",
    "divisionname": "Peddapalli",
    "regionname": "Hyderabad",
    "circlename": "Andhra Pradesh",
    "Taluk": "Huzurabad",
    "Districtname": "Karim Nagar",
    "statename": "ANDHRA PRADESH"
  },
  {
    "pincode": "505468",
    "officename": "Godishala B.O",
    "officeType": "B.O",
    "Deliverystatus": "Delivery",
    "divisionname": "Peddapalli",
    "regionname": "Hyderabad",
    "circlename": "Andhra Pradesh",
    "Taluk": "",
    "Districtname": "Karim Nagar",
    "statename": "ANDHRA PRADESH"
  },
  {
    "pincode": "505468",
    "officename": "Huzurabad H.O",
    "officeType": "H.O",
    "Deliverystatus": "Delivery",
    "divisionname": "Peddapalli",
    "regionname": "Hyderabad",
    "circlename": "Andhra Pradesh",
    "Taluk": "Huzurabad",
    "Districtname": "Karim Nagar",
    "statename": "ANDHRA PRADESH"
  },
  {
    "pincode": "505468",
    "officename": "Pothireddypet B.O",
    "officeType": "B.O",
    "Deliverystatus": "Delivery",
    "divisionname": "Peddapalli",
    "regionname": "Hyderabad",
    "circlename": "Andhra Pradesh",
    "Taluk": "",
    "Districtname": "Karim Nagar",
    "statename": "ANDHRA PRADESH"
  },
  {
    "pincode": "505468",
    "officename": "Singapur B.O",
    "officeType": "B.O",
    "Deliverystatus": "Delivery",
    "divisionname": "Peddapalli",
    "regionname": "Hyderabad",
    "circlename": "Andhra Pradesh",
    "Taluk": "",
    "Districtname": "Karim Nagar",
    "statename": "ANDHRA PRADESH"
  },
  {
    "pincode": "505468",
    "officename": "Sirsapalli B.O",
    "officeType": "B.O",
    "Deliverystatus": "Delivery",
    "divisionname": "Peddapalli",
    "regionname": "Hyderabad",
    "circlename": "Andhra Pradesh",
    "Taluk": "",
    "Districtname": "Karim Nagar",
    "statename": "ANDHRA PRADESH"
  },
  {
    "pincode": "505468",
    "officename": "Thummanapalli B.O",
    "officeType": "B.O",
    "Deliverystatus": "Delivery",
    "divisionname": "Peddapalli",
    "regionname": "Hyderabad",
    "circlename": "Andhra Pradesh",
    "Taluk": "",
    "Districtname": "Karim Nagar",
    "statename": "ANDHRA PRADESH"
  }
]
