[
  {
    "pincode": "505531",
    "officename": "Aithpalli B.O",
    "officeType": "B.O",
    "Deliverystatus": "Delivery",
    "divisionname": "Karimnagar",
    "regionname": "Hyderabad",
    "circlename": "Andhra Pradesh",
    "Taluk": "Pegadapalli",
    "Districtname": "Karim Nagar",
    "statename": "ANDHRA PRADESH"
  },
  {
    "pincode": "505531",
    "officename": "Gopalraopet B.O",
    "officeType": "B.O",
    "Deliverystatus": "Delivery",
    "divisionname": "Karimnagar",
    "regionname": "Hyderabad",
    "circlename": "Andhra Pradesh",
    "Taluk": "Ramadugu",
    "Districtname": "Karim Nagar",
    "statename": "ANDHRA PRADESH"
  },
  {
    "pincode": "505531",
    "officename": "Gumlapur B.O",
    "officeType": "B.O",
    "Deliverystatus": "Delivery",
    "divisionname": "Karimnagar",
    "regionname": "Hyderabad",
    "circlename": "Andhra Pradesh",
    "Taluk": "Choppadandi",
    "Districtname": "Karim Nagar",
    "statename": "ANDHRA PRADESH"
  },
  {
    "pincode": "505531",
    "officename": "Gundi B.O",
    "officeType": "B.O",
    "Deliverystatus": "Delivery",
    "divisionname": "Karimnagar",
    "regionname": "Hyderabad",
    "circlename": "Andhra Pradesh",
    "Taluk": "Ramadugu",
    "Districtname": "Karim Nagar",
    "statename": "ANDHRA PRADESH"
  },
  {
    "pincode": "505531",
    "officename": "Katnapalli B.O",
    "officeType": "B.O",
    "Deliverystatus": "Delivery",
    "divisionname": "Karimnagar",
    "regionname": "Hyderabad",
    "circlename": "Andhra Pradesh",
    "Taluk": "Choppadandi",
    "Districtname": "Karim Nagar",
    "statename": "ANDHRA PRADESH"
  },
  {
    "pincode": "505531",
    "officename": "Laxmipur B.O",
    "officeType": "B.O",
    "Deliverystatus": "Delivery",
    "divisionname": "Karimnagar",
    "regionname": "Hyderabad",
    "circlename": "Andhra Pradesh",
    "Taluk": "Ramadugu",
    "Districtname": "Karim Nagar",
    "statename": "ANDHRA PRADESH"
  },
  {
    "pincode": "505531",
    "officename": "Mothe B.O",
    "officeType": "B.O",
    "Deliverystatus": "Delivery",
    "divisionname": "Karimnagar",
    "regionname": "Hyderabad",
    "circlename": "Andhra Pradesh",
    "Taluk": "Ramadugu",
    "Districtname": "Karim Nagar",
    "statename": "ANDHRA PRADESH"
  },
  {
    "pincode": "505531",
    "officename": "Namapur B.O",
    "officeType": "B.O",
    "Deliverystatus": "Delivery",
    "divisionname": "Karimnagar",
    "regionname": "Hyderabad",
    "circlename": "Andhra Pradesh",
    "Taluk": "Pegadapalli",
    "Districtname": "Karim Nagar",
    "statename": "ANDHRA PRADESH"
  },
  {
    "pincode": "505531",
    "officename": "Ramadugu S.O",
    "officeType": "S.O",
    "Deliverystatus": "Delivery",
    "divisionname": "Karimnagar",
    "regionname": "Hyderabad",
    "circlename": "Andhra Pradesh",
    "Taluk": "Ramadugu",
    "Districtname": "Karim Nagar",
    "statename": "ANDHRA PRADESH"
  },
  {
    "pincode": "505531",
    "officename": "Rudraram B.O",
    "officeType": "B.O",
    "Deliverystatus": "Delivery",
    "divisionname": "Karimnagar",
    "regionname": "Hyderabad",
    "circlename": "Andhra Pradesh",
    "Taluk": "Ramadugu",
    "Districtname": "Karim Nagar",
    "statename": "ANDHRA PRADESH"
  },
  {
    "pincode": "505531",
    "officename": "Ryalapalli B.O",
    "officeType": "B.O",
    "Deliverystatus": "Delivery",
    "divisionname": "Karimnagar",
    "regionname": "Hyderabad",
    "circlename": "Andhra Pradesh",
    "Taluk": "Gangadhara",
    "Districtname": "Karim Nagar",
    "statename": "ANDHRA PRADESH"
  },
  {
    "pincode": "505531",
    "officename": "Sarvareddypalli B.O",
    "officeType": "B.O",
    "Deliverystatus": "Delivery",
    "divisionname": "Karimnagar",
    "regionname": "Hyderabad",
    "circlename": "Andhra Pradesh",
    "Taluk": "Gangadhara",
    "Districtname": "Karim Nagar",
    "statename": "ANDHRA PRADESH"
  },
  {
    "pincode": "505531",
    "officename": "Shanagar B.O",
    "officeType": "B.O",
    "Deliverystatus": "Delivery",
    "divisionname": "Karimnagar",
    "regionname": "Hyderabad",
    "circlename": "Andhra Pradesh",
    "Taluk": "Ramadugu",
    "Districtname": "Karim Nagar",
    "statename": "ANDHRA PRADESH"
  },
  {
    "pincode": "505531",
    "officename": "Thirumalapur B.O",
    "officeType": "B.O",
    "Deliverystatus": "Delivery",
    "divisionname": "Karimnagar",
    "regionname": "Hyderabad",
    "circlename": "Andhra Pradesh",
    "Taluk": "Ramadugu",
    "Districtname": "Karim Nagar",
    "statename": "ANDHRA PRADESH"
  }
]
