[
  {
    "pincode": "506006",
    "officename": "Arepalli B.O",
    "officeType": "B.O",
    "Deliverystatus": "Delivery",
    "divisionname": "Warangal",
    "regionname": "Hyderabad",
    "circlename": "Andhra Pradesh",
    "Taluk": "Hanamkonda",
    "Districtname": "Warangal",
    "statename": "ANDHRA PRADESH"
  },
  {
    "pincode": "506006",
    "officename": "Damera B.O",
    "officeType": "B.O",
    "Deliverystatus": "Delivery",
    "divisionname": "Warangal",
    "regionname": "Hyderabad",
    "circlename": "Andhra Pradesh",
    "Taluk": "Hanamkonda Mandal",
    "Districtname": "Warangal",
    "statename": "ANDHRA PRADESH"
  },
  {
    "pincode": "506006",
    "officename": "Deshaipet S.O",
    "officeType": "S.O",
    "Deliverystatus": "Delivery",
    "divisionname": "Warangal",
    "regionname": "Hyderabad",
    "circlename": "Andhra Pradesh",
    "Taluk": "Warangal",
    "Districtname": "Warangal",
    "statename": "ANDHRA PRADESH"
  },
  {
    "pincode": "506006",
    "officename": "Gorrekunta B.O",
    "officeType": "B.O",
    "Deliverystatus": "Delivery",
    "divisionname": "Warangal",
    "regionname": "Hyderabad",
    "circlename": "Andhra Pradesh",
    "Taluk": "Geesungonda Mandal",
    "Districtname": "Warangal",
    "statename": "ANDHRA PRADESH"
  },
  {
    "pincode": "506006",
    "officename": "Kogilvai B.O",
    "officeType": "B.O",
    "Deliverystatus": "Delivery",
    "divisionname": "Warangal",
    "regionname": "Hyderabad",
    "circlename": "Andhra Pradesh",
    "Taluk": "Atmakur Mandall",
    "Districtname": "Warangal",
    "statename": "ANDHRA PRADESH"
  },
  {
    "pincode": "506006",
    "officename": "Kothapeta B.O",
    "officeType": "B.O",
    "Deliverystatus": "Delivery",
    "divisionname": "Warangal",
    "regionname": "Hyderabad",
    "circlename": "Andhra Pradesh",
    "Taluk": "Hanamkonda Mandal",
    "Districtname": "Warangal",
    "statename": "ANDHRA PRADESH"
  },
  {
    "pincode": "506006",
    "officename": "Ladella B.O",
    "officeType": "B.O",
    "Deliverystatus": "Delivery",
    "divisionname": "Warangal",
    "regionname": "Hyderabad",
    "circlename": "Andhra Pradesh",
    "Taluk": "Atmakur",
    "Districtname": "Warangal",
    "statename": "ANDHRA PRADESH"
  },
  {
    "pincode": "506006",
    "officename": "Mallareddipalli B.O",
    "officeType": "B.O",
    "Deliverystatus": "Delivery",
    "divisionname": "Warangal",
    "regionname": "Hyderabad",
    "circlename": "Andhra Pradesh",
    "Taluk": "Atmakur",
    "Districtname": "Warangal",
    "statename": "ANDHRA PRADESH"
  },
  {
    "pincode": "506006",
    "officename": "Mogilcherla B.O",
    "officeType": "B.O",
    "Deliverystatus": "Delivery",
    "divisionname": "Warangal",
    "regionname": "Hyderabad",
    "circlename": "Andhra Pradesh",
    "Taluk": "Geesugonda Mandal",
    "Districtname": "Warangal",
    "statename": "ANDHRA PRADESH"
  },
  {
    "pincode": "506006",
    "officename": "Paidipalli B.O",
    "officeType": "B.O",
    "Deliverystatus": "Delivery",
    "divisionname": "Warangal",
    "regionname": "Hyderabad",
    "circlename": "Andhra Pradesh",
    "Taluk": "Hanamkonda",
    "Districtname": "Warangal",
    "statename": "ANDHRA PRADESH"
  },
  {
    "pincode": "506006",
    "officename": "Siddapur B.O",
    "officeType": "B.O",
    "Deliverystatus": "Delivery",
    "divisionname": "Warangal",
    "regionname": "Hyderabad",
    "circlename": "Andhra Pradesh",
    "Taluk": "Hasnparthy",
    "Districtname": "Warangal",
    "statename": "ANDHRA PRADESH"
  },
  {
    "pincode": "506006",
    "officename": "Vangapahad B.O",
    "officeType": "B.O",
    "Deliverystatus": "Delivery",
    "divisionname": "Warangal",
    "regionname": "Hyderabad",
    "circlename": "Andhra Pradesh",
    "Taluk": "Hasanparthy",
    "Districtname": "Warangal",
    "statename": "ANDHRA PRADESH"
  },
  {
    "pincode": "506006",
    "officename": "Venkatapur B.O",
    "officeType": "B.O",
    "Deliverystatus": "Delivery",
    "divisionname": "Warangal",
    "regionname": "Hyderabad",
    "circlename": "Andhra Pradesh",
    "Taluk": "Atmakur",
    "Districtname": "Warangal",
    "statename": "ANDHRA PRADESH"
  }
]
