[
  {
    "pincode": "506132",
    "officename": "Ashoknagar B.O",
    "officeType": "B.O",
    "Deliverystatus": "Delivery",
    "divisionname": "Warangal",
    "regionname": "Hyderabad",
    "circlename": "Andhra Pradesh",
    "Taluk": "Narsampet",
    "Districtname": "Warangal",
    "statename": "ANDHRA PRADESH"
  },
  {
    "pincode": "506132",
    "officename": "Bhanjipet B.O",
    "officeType": "B.O",
    "Deliverystatus": "Delivery",
    "divisionname": "Warangal",
    "regionname": "Hyderabad",
    "circlename": "Andhra Pradesh",
    "Taluk": "Narsampet",
    "Districtname": "Warangal",
    "statename": "ANDHRA PRADESH"
  },
  {
    "pincode": "506132",
    "officename": "Dabeerpet B.O",
    "officeType": "B.O",
    "Deliverystatus": "Delivery",
    "divisionname": "Warangal",
    "regionname": "Hyderabad",
    "circlename": "Andhra Pradesh",
    "Taluk": "Narsampet",
    "Districtname": "Warangal",
    "statename": "ANDHRA PRADESH"
  },
  {
    "pincode": "506132",
    "officename": "Dwarakapet B.O",
    "officeType": "B.O",
    "Deliverystatus": "Delivery",
    "divisionname": "Warangal",
    "regionname": "Hyderabad",
    "circlename": "Andhra Pradesh",
    "Taluk": "Narsampet",
    "Districtname": "Warangal",
    "statename": "ANDHRA PRADESH"
  },
  {
    "pincode": "506132",
    "officename": "Govindapur B.O",
    "officeType": "B.O",
    "Deliverystatus": "Delivery",
    "divisionname": "Warangal",
    "regionname": "Hyderabad",
    "circlename": "Andhra Pradesh",
    "Taluk": "Narsampet",
    "Districtname": "Warangal",
    "statename": "ANDHRA PRADESH"
  },
  {
    "pincode": "506132",
    "officename": "Gundalpahad B.O",
    "officeType": "B.O",
    "Deliverystatus": "Delivery",
    "divisionname": "Warangal",
    "regionname": "Hyderabad",
    "circlename": "Andhra Pradesh",
    "Taluk": "Narsampet",
    "Districtname": "Warangal",
    "statename": "ANDHRA PRADESH"
  },
  {
    "pincode": "506132",
    "officename": "Itikalapalli B.O",
    "officeType": "B.O",
    "Deliverystatus": "Delivery",
    "divisionname": "Warangal",
    "regionname": "Hyderabad",
    "circlename": "Andhra Pradesh",
    "Taluk": "Narsampet",
    "Districtname": "Warangal",
    "statename": "ANDHRA PRADESH"
  },
  {
    "pincode": "506132",
    "officename": "Khanapur B.O",
    "officeType": "B.O",
    "Deliverystatus": "Delivery",
    "divisionname": "Warangal",
    "regionname": "Hyderabad",
    "circlename": "Andhra Pradesh",
    "Taluk": "Narsampet",
    "Districtname": "Warangal",
    "statename": "ANDHRA PRADESH"
  },
  {
    "pincode": "506132",
    "officename": "Kothur B.O",
    "officeType": "B.O",
    "Deliverystatus": "Delivery",
    "divisionname": "Warangal",
    "regionname": "Hyderabad",
    "circlename": "Andhra Pradesh",
    "Taluk": "Narsampet",
    "Districtname": "Warangal",
    "statename": "ANDHRA PRADESH"
  },
  {
    "pincode": "506132",
    "officename": "Madannapet B.O",
    "officeType": "B.O",
    "Deliverystatus": "Delivery",
    "divisionname": "Warangal",
    "regionname": "Hyderabad",
    "circlename": "Andhra Pradesh",
    "Taluk": "Narsampet",
    "Districtname": "Warangal",
    "statename": "ANDHRA PRADESH"
  },
  {
    "pincode": "506132",
    "officename": "Medapalli B.O",
    "officeType": "B.O",
    "Deliverystatus": "Delivery",
    "divisionname": "Warangal",
    "regionname": "Hyderabad",
    "circlename": "Andhra Pradesh",
    "Taluk": "Narsampet",
    "Districtname": "Warangal",
    "statename": "ANDHRA PRADESH"
  },
  {
    "pincode": "506132",
    "officename": "Muthojipet B.O",
    "officeType": "B.O",
    "Deliverystatus": "Delivery",
    "divisionname": "Warangal",
    "regionname": "Hyderabad",
    "circlename": "Andhra Pradesh",
    "Taluk": "Narsampet",
    "Districtname": "Warangal",
    "statename": "ANDHRA PRADESH"
  },
  {
    "pincode": "506132",
    "officename": "Narakkapet B.O",
    "officeType": "B.O",
    "Deliverystatus": "Delivery",
    "divisionname": "Warangal",
    "regionname": "Hyderabad",
    "circlename": "Andhra Pradesh",
    "Taluk": "Narsampet",
    "Districtname": "Warangal",
    "statename": "ANDHRA PRADESH"
  },
  {
    "pincode": "506132",
    "officename": "Narsampet S.O",
    "officeType": "S.O",
    "Deliverystatus": "Delivery",
    "divisionname": "Warangal",
    "regionname": "Hyderabad",
    "circlename": "Andhra Pradesh",
    "Taluk": "Narsampet",
    "Districtname": "Warangal",
    "statename": "ANDHRA PRADESH"
  }
]
