[
  {
    "pincode": "506163",
    "officename": "Ammapur B.O",
    "officeType": "B.O",
    "Deliverystatus": "Delivery",
    "divisionname": "Warangal",
    "regionname": "Hyderabad",
    "circlename": "Andhra Pradesh",
    "Taluk": "Turrur",
    "Districtname": "Warangal",
    "statename": "ANDHRA PRADESH"
  },
  {
    "pincode": "506163",
    "officename": "Cheralpalem B.O",
    "officeType": "B.O",
    "Deliverystatus": "Delivery",
    "divisionname": "Warangal",
    "regionname": "Hyderabad",
    "circlename": "Andhra Pradesh",
    "Taluk": "Turrur",
    "Districtname": "Warangal",
    "statename": "ANDHRA PRADESH"
  },
  {
    "pincode": "506163",
    "officename": "Fathepur B.O",
    "officeType": "B.O",
    "Deliverystatus": "Delivery",
    "divisionname": "Warangal",
    "regionname": "Hyderabad",
    "circlename": "Andhra Pradesh",
    "Taluk": "Turrur",
    "Districtname": "Warangal",
    "statename": "ANDHRA PRADESH"
  },
  {
    "pincode": "506163",
    "officename": "Gurthur B.O",
    "officeType": "B.O",
    "Deliverystatus": "Delivery",
    "divisionname": "Warangal",
    "regionname": "Hyderabad",
    "circlename": "Andhra Pradesh",
    "Taluk": "Turrur",
    "Districtname": "Warangal",
    "statename": "ANDHRA PRADESH"
  },
  {
    "pincode": "506163",
    "officename": "Haripirala B.O",
    "officeType": "B.O",
    "Deliverystatus": "Delivery",
    "divisionname": "Warangal",
    "regionname": "Hyderabad",
    "circlename": "Andhra Pradesh",
    "Taluk": "Turrrur",
    "Districtname": "Warangal",
    "statename": "ANDHRA PRADESH"
  },
  {
    "pincode": "506163",
    "officename": "Kantaipalem B.O",
    "officeType": "B.O",
    "Deliverystatus": "Delivery",
    "divisionname": "Warangal",
    "regionname": "Hyderabad",
    "circlename": "Andhra Pradesh",
    "Taluk": "Turrur",
    "Districtname": "Warangal",
    "statename": "ANDHRA PRADESH"
  },
  {
    "pincode": "506163",
    "officename": "Madhupalli' B.O",
    "officeType": "B.O",
    "Deliverystatus": "Delivery",
    "divisionname": "Warangal",
    "regionname": "Hyderabad",
    "circlename": "Andhra Pradesh",
    "Taluk": "Turrur",
    "Districtname": "Warangal",
    "statename": "ANDHRA PRADESH"
  },
  {
    "pincode": "506163",
    "officename": "Matair B.O",
    "officeType": "B.O",
    "Deliverystatus": "Delivery",
    "divisionname": "Warangal",
    "regionname": "Hyderabad",
    "circlename": "Andhra Pradesh",
    "Taluk": "Turrur",
    "Districtname": "Warangal",
    "statename": "ANDHRA PRADESH"
  },
  {
    "pincode": "506163",
    "officename": "Sannur B.O",
    "officeType": "B.O",
    "Deliverystatus": "Delivery",
    "divisionname": "Warangal",
    "regionname": "Hyderabad",
    "circlename": "Andhra Pradesh",
    "Taluk": "Turrur",
    "Districtname": "Warangal",
    "statename": "ANDHRA PRADESH"
  },
  {
    "pincode": "506163",
    "officename": "Turrur S.O",
    "officeType": "S.O",
    "Deliverystatus": "Delivery",
    "divisionname": "Warangal",
    "regionname": "Hyderabad",
    "circlename": "Andhra Pradesh",
    "Taluk": "Turrur",
    "Districtname": "Warangal",
    "statename": "ANDHRA PRADESH"
  },
  {
    "pincode": "506163",
    "officename": "Venkatapur B.O",
    "officeType": "B.O",
    "Deliverystatus": "Delivery",
    "divisionname": "Warangal",
    "regionname": "Hyderabad",
    "circlename": "Andhra Pradesh",
    "Taluk": "Turrur",
    "Districtname": "Warangal",
    "statename": "ANDHRA PRADESH"
  },
  {
    "pincode": "506163",
    "officename": "Yelkatte B.O",
    "officeType": "B.O",
    "Deliverystatus": "Delivery",
    "divisionname": "Warangal",
    "regionname": "Hyderabad",
    "circlename": "Andhra Pradesh",
    "Taluk": "Turrur",
    "Districtname": "Warangal",
    "statename": "ANDHRA PRADESH"
  }
]
