[
  {
    "pincode": "506222",
    "officename": "Chennur B.O",
    "officeType": "B.O",
    "Deliverystatus": "Delivery",
    "divisionname": "Warangal",
    "regionname": "Hyderabad",
    "circlename": "Andhra Pradesh",
    "Taluk": "Palakurthy",
    "Districtname": "Warangal",
    "statename": "ANDHRA PRADESH"
  },
  {
    "pincode": "506222",
    "officename": "Edunuthala B.O",
    "officeType": "B.O",
    "Deliverystatus": "Delivery",
    "divisionname": "Warangal",
    "regionname": "Hyderabad",
    "circlename": "Andhra Pradesh",
    "Taluk": "Palakurthy",
    "Districtname": "Warangal",
    "statename": "ANDHRA PRADESH"
  },
  {
    "pincode": "506222",
    "officename": "Kantharamavaram B.O",
    "officeType": "B.O",
    "Deliverystatus": "Delivery",
    "divisionname": "Warangal",
    "regionname": "Hyderabad",
    "circlename": "Andhra Pradesh",
    "Taluk": "Palakurthy",
    "Districtname": "Warangal",
    "statename": "ANDHRA PRADESH"
  },
  {
    "pincode": "506222",
    "officename": "Kodakondla S.O",
    "officeType": "S.O",
    "Deliverystatus": "Delivery",
    "divisionname": "Warangal",
    "regionname": "Hyderabad",
    "circlename": "Andhra Pradesh",
    "Taluk": "Kodakondla",
    "Districtname": "Warangal",
    "statename": "ANDHRA PRADESH"
  },
  {
    "pincode": "506222",
    "officename": "Manchuppal B.O",
    "officeType": "B.O",
    "Deliverystatus": "Delivery",
    "divisionname": "Warangal",
    "regionname": "Hyderabad",
    "circlename": "Andhra Pradesh",
    "Taluk": "Kodakondla",
    "Districtname": "Warangal",
    "statename": "ANDHRA PRADESH"
  },
  {
    "pincode": "506222",
    "officename": "Mutharam B.O",
    "officeType": "B.O",
    "Deliverystatus": "Delivery",
    "divisionname": "Warangal",
    "regionname": "Hyderabad",
    "circlename": "Andhra Pradesh",
    "Taluk": "Kodakandla",
    "Districtname": "Warangal",
    "statename": "ANDHRA PRADESH"
  },
  {
    "pincode": "506222",
    "officename": "Pakhal B.O",
    "officeType": "B.O",
    "Deliverystatus": "Delivery",
    "divisionname": "Warangal",
    "regionname": "Hyderabad",
    "circlename": "Andhra Pradesh",
    "Taluk": "Kodakondla",
    "Districtname": "Warangal",
    "statename": "ANDHRA PRADESH"
  },
  {
    "pincode": "506222",
    "officename": "Visnoor B.O",
    "officeType": "B.O",
    "Deliverystatus": "Delivery",
    "divisionname": "Warangal",
    "regionname": "Hyderabad",
    "circlename": "Andhra Pradesh",
    "Taluk": "Palakurthy",
    "Districtname": "Warangal",
    "statename": "ANDHRA PRADESH"
  },
  {
    "pincode": "506222",
    "officename": "Walmidi B.O",
    "officeType": "B.O",
    "Deliverystatus": "Delivery",
    "divisionname": "Warangal",
    "regionname": "Hyderabad",
    "circlename": "Andhra Pradesh",
    "Taluk": "Kodakondla",
    "Districtname": "Warangal",
    "statename": "ANDHRA PRADESH"
  }
]
