[
  {
    "pincode": "506244",
    "officename": "Aswaraopalli B.O",
    "officeType": "B.O",
    "Deliverystatus": "Delivery",
    "divisionname": "Hanamkonda",
    "regionname": "Hyderabad",
    "circlename": "Andhra Pradesh",
    "Taluk": "Raghunathapalli",
    "Districtname": "Warangal",
    "statename": "ANDHRA PRADESH"
  },
  {
    "pincode": "506244",
    "officename": "Banjipet B.O",
    "officeType": "B.O",
    "Deliverystatus": "Delivery",
    "divisionname": "Hanamkonda",
    "regionname": "Hyderabad",
    "circlename": "Andhra Pradesh",
    "Taluk": "Raghunathpalli",
    "Districtname": "Warangal",
    "statename": "ANDHRA PRADESH"
  },
  {
    "pincode": "506244",
    "officename": "Fatheshapur B.O",
    "officeType": "B.O",
    "Deliverystatus": "Delivery",
    "divisionname": "Hanamkonda",
    "regionname": "Hyderabad",
    "circlename": "Andhra Pradesh",
    "Taluk": "Raghunathpalli",
    "Districtname": "Warangal",
    "statename": "ANDHRA PRADESH"
  },
  {
    "pincode": "506244",
    "officename": "Gabbeta B.O",
    "officeType": "B.O",
    "Deliverystatus": "Delivery",
    "divisionname": "Hanamkonda",
    "regionname": "Hyderabad",
    "circlename": "Andhra Pradesh",
    "Taluk": "Raghunathpalli",
    "Districtname": "Warangal",
    "statename": "ANDHRA PRADESH"
  },
  {
    "pincode": "506244",
    "officename": "Ibrahimpur B.O",
    "officeType": "B.O",
    "Deliverystatus": "Delivery",
    "divisionname": "Hanamkonda",
    "regionname": "Hyderabad",
    "circlename": "Andhra Pradesh",
    "Taluk": "Raghunathpalli",
    "Districtname": "Warangal",
    "statename": "ANDHRA PRADESH"
  },
  {
    "pincode": "506244",
    "officename": "Iravennur B.O",
    "officeType": "B.O",
    "Deliverystatus": "Delivery",
    "divisionname": "Hanamkonda",
    "regionname": "Hyderabad",
    "circlename": "Andhra Pradesh",
    "Taluk": "Palakurthy",
    "Districtname": "Warangal",
    "statename": "ANDHRA PRADESH"
  },
  {
    "pincode": "506244",
    "officename": "Kanchanpalli B.O",
    "officeType": "B.O",
    "Deliverystatus": "Delivery",
    "divisionname": "Hanamkonda",
    "regionname": "Hyderabad",
    "circlename": "Andhra Pradesh",
    "Taluk": "Raghunathpalli",
    "Districtname": "Warangal",
    "statename": "ANDHRA PRADESH"
  },
  {
    "pincode": "506244",
    "officename": "Komandla B.O",
    "officeType": "B.O",
    "Deliverystatus": "Delivery",
    "divisionname": "Hanamkonda",
    "regionname": "Hyderabad",
    "circlename": "Andhra Pradesh",
    "Taluk": "Raghunathpalli",
    "Districtname": "Warangal",
    "statename": "ANDHRA PRADESH"
  },
  {
    "pincode": "506244",
    "officename": "Manchupahad B.O",
    "officeType": "B.O",
    "Deliverystatus": "Delivery",
    "divisionname": "Hanamkonda",
    "regionname": "Hyderabad",
    "circlename": "Andhra Pradesh",
    "Taluk": "Narmetta",
    "Districtname": "Warangal",
    "statename": "ANDHRA PRADESH"
  },
  {
    "pincode": "506244",
    "officename": "Mandelagudem B.O",
    "officeType": "B.O",
    "Deliverystatus": "Delivery",
    "divisionname": "Hanamkonda",
    "regionname": "Hyderabad",
    "circlename": "Andhra Pradesh",
    "Taluk": "Raghunathpalli",
    "Districtname": "Warangal",
    "statename": "ANDHRA PRADESH"
  },
  {
    "pincode": "506244",
    "officename": "Mekhal Ghat B.O",
    "officeType": "B.O",
    "Deliverystatus": "Delivery",
    "divisionname": "Hanamkonda",
    "regionname": "Hyderabad",
    "circlename": "Andhra Pradesh",
    "Taluk": "Raghunathpalli",
    "Districtname": "Warangal",
    "statename": "ANDHRA PRADESH"
  },
  {
    "pincode": "506244",
    "officename": "Narayanpur B.O",
    "officeType": "B.O",
    "Deliverystatus": "Delivery",
    "divisionname": "Hanamkonda",
    "regionname": "Hyderabad",
    "circlename": "Andhra Pradesh",
    "Taluk": "Raghunathpalli",
    "Districtname": "Warangal",
    "statename": "ANDHRA PRADESH"
  },
  {
    "pincode": "506244",
    "officename": "Nidigonda B.O",
    "officeType": "B.O",
    "Deliverystatus": "Delivery",
    "divisionname": "Hanamkonda",
    "regionname": "Hyderabad",
    "circlename": "Andhra Pradesh",
    "Taluk": "Raghunathplli",
    "Districtname": "Warangal",
    "statename": "ANDHRA PRADESH"
  },
  {
    "pincode": "506244",
    "officename": "Quilashapur B.O",
    "officeType": "B.O",
    "Deliverystatus": "Delivery",
    "divisionname": "Hanamkonda",
    "regionname": "Hyderabad",
    "circlename": "Andhra Pradesh",
    "Taluk": "Raghunathpalli",
    "Districtname": "Warangal",
    "statename": "ANDHRA PRADESH"
  },
  {
    "pincode": "506244",
    "officename": "Raghunath Pally S.O",
    "officeType": "S.O",
    "Deliverystatus": "Delivery",
    "divisionname": "Hanamkonda",
    "regionname": "Hyderabad",
    "circlename": "Andhra Pradesh",
    "Taluk": "Raghunathpalle",
    "Districtname": "Warangal",
    "statename": "ANDHRA PRADESH"
  },
  {
    "pincode": "506244",
    "officename": "Veldi B.O",
    "officeType": "B.O",
    "Deliverystatus": "Delivery",
    "divisionname": "Hanamkonda",
    "regionname": "Hyderabad",
    "circlename": "Andhra Pradesh",
    "Taluk": "Raghunathpalli",
    "Districtname": "Warangal",
    "statename": "ANDHRA PRADESH"
  }
]
