[
  {
    "pincode": "506348",
    "officename": "Dammannapet B.O",
    "officeType": "B.O",
    "Deliverystatus": "Delivery",
    "divisionname": "Hanamkonda",
    "regionname": "Hyderabad",
    "circlename": "Andhra Pradesh",
    "Taluk": "Regonda",
    "Districtname": "Warangal",
    "statename": "ANDHRA PRADESH"
  },
  {
    "pincode": "506348",
    "officename": "Gangireni Gudem B.O",
    "officeType": "B.O",
    "Deliverystatus": "Delivery",
    "divisionname": "Hanamkonda",
    "regionname": "Hyderabad",
    "circlename": "Andhra Pradesh",
    "Taluk": "Regonda",
    "Districtname": "Warangal",
    "statename": "ANDHRA PRADESH"
  },
  {
    "pincode": "506348",
    "officename": "Jaggaiahpet B.O",
    "officeType": "B.O",
    "Deliverystatus": "Delivery",
    "divisionname": "Hanamkonda",
    "regionname": "Hyderabad",
    "circlename": "Andhra Pradesh",
    "Taluk": "Regonda",
    "Districtname": "Warangal",
    "statename": "ANDHRA PRADESH"
  },
  {
    "pincode": "506348",
    "officename": "Kaniparthy (Ch) B.O",
    "officeType": "B.O",
    "Deliverystatus": "Delivery",
    "divisionname": "Hanamkonda",
    "regionname": "Hyderabad",
    "circlename": "Andhra Pradesh",
    "Taluk": "Regonda",
    "Districtname": "Warangal",
    "statename": "ANDHRA PRADESH"
  },
  {
    "pincode": "506348",
    "officename": "Kodavatancha B.O",
    "officeType": "B.O",
    "Deliverystatus": "Delivery",
    "divisionname": "Hanamkonda",
    "regionname": "Hyderabad",
    "circlename": "Andhra Pradesh",
    "Taluk": "Regonda",
    "Districtname": "Warangal",
    "statename": "ANDHRA PRADESH"
  },
  {
    "pincode": "506348",
    "officename": "Kothapalli(V) B.O",
    "officeType": "B.O",
    "Deliverystatus": "Delivery",
    "divisionname": "Hanamkonda",
    "regionname": "Hyderabad",
    "circlename": "Andhra Pradesh",
    "Taluk": "Regonda",
    "Districtname": "Warangal",
    "statename": "ANDHRA PRADESH"
  },
  {
    "pincode": "506348",
    "officename": "Lingal B.O",
    "officeType": "B.O",
    "Deliverystatus": "Delivery",
    "divisionname": "Hanamkonda",
    "regionname": "Hyderabad",
    "circlename": "Andhra Pradesh",
    "Taluk": "Regonda",
    "Districtname": "Warangal",
    "statename": "ANDHRA PRADESH"
  },
  {
    "pincode": "506348",
    "officename": "Madthapalli B.O",
    "officeType": "B.O",
    "Deliverystatus": "Delivery",
    "divisionname": "Hanamkonda",
    "regionname": "Hyderabad",
    "circlename": "Andhra Pradesh",
    "Taluk": "Regonda",
    "Districtname": "Warangal",
    "statename": "ANDHRA PRADESH"
  },
  {
    "pincode": "506348",
    "officename": "Ramannagudem B.O",
    "officeType": "B.O",
    "Deliverystatus": "Delivery",
    "divisionname": "Hanamkonda",
    "regionname": "Hyderabad",
    "circlename": "Andhra Pradesh",
    "Taluk": "Regonda",
    "Districtname": "Warangal",
    "statename": "ANDHRA PRADESH"
  },
  {
    "pincode": "506348",
    "officename": "Rangaiahpalli B.O",
    "officeType": "B.O",
    "Deliverystatus": "Delivery",
    "divisionname": "Hanamkonda",
    "regionname": "Hyderabad",
    "circlename": "Andhra Pradesh",
    "Taluk": "Regonda",
    "Districtname": "Warangal",
    "statename": "ANDHRA PRADESH"
  },
  {
    "pincode": "506348",
    "officename": "Regonda S.O",
    "officeType": "S.O",
    "Deliverystatus": "Delivery",
    "divisionname": "Hanamkonda",
    "regionname": "Hyderabad",
    "circlename": "Andhra Pradesh",
    "Taluk": "Regonda",
    "Districtname": "Warangal",
    "statename": "ANDHRA PRADESH"
  },
  {
    "pincode": "506348",
    "officename": "Repak B.O",
    "officeType": "B.O",
    "Deliverystatus": "Delivery",
    "divisionname": "Hanamkonda",
    "regionname": "Hyderabad",
    "circlename": "Andhra Pradesh",
    "Taluk": "Regonda",
    "Districtname": "Warangal",
    "statename": "ANDHRA PRADESH"
  },
  {
    "pincode": "506348",
    "officename": "Repakpalli B.O",
    "officeType": "B.O",
    "Deliverystatus": "Delivery",
    "divisionname": "Hanamkonda",
    "regionname": "Hyderabad",
    "circlename": "Andhra Pradesh",
    "Taluk": "Regonda",
    "Districtname": "Warangal",
    "statename": "ANDHRA PRADESH"
  },
  {
    "pincode": "506348",
    "officename": "Sultanpur B.O",
    "officeType": "B.O",
    "Deliverystatus": "Delivery",
    "divisionname": "Hanamkonda",
    "regionname": "Hyderabad",
    "circlename": "Andhra Pradesh",
    "Taluk": "Regonda",
    "Districtname": "Warangal",
    "statename": "ANDHRA PRADESH"
  },
  {
    "pincode": "506348",
    "officename": "Tirumalagiri B.O",
    "officeType": "B.O",
    "Deliverystatus": "Delivery",
    "divisionname": "Hanamkonda",
    "regionname": "Hyderabad",
    "circlename": "Andhra Pradesh",
    "Taluk": "Regonda",
    "Districtname": "Warangal",
    "statename": "ANDHRA PRADESH"
  }
]
