[
  {
    "pincode": "506324",
    "officename": "Agapet B.O",
    "officeType": "B.O",
    "Deliverystatus": "Delivery",
    "divisionname": "Warangal",
    "regionname": "Hyderabad",
    "circlename": "Andhra Pradesh",
    "Taluk": "Narasimulapet",
    "Districtname": "Warangal",
    "statename": "ANDHRA PRADESH"
  },
  {
    "pincode": "506324",
    "officename": "Beersettigudem B.O",
    "officeType": "B.O",
    "Deliverystatus": "Delivery",
    "divisionname": "Warangal",
    "regionname": "Hyderabad",
    "circlename": "Andhra Pradesh",
    "Taluk": "Narsimulapet",
    "Districtname": "Warangal",
    "statename": "ANDHRA PRADESH"
  },
  {
    "pincode": "506324",
    "officename": "Bodlada B.O",
    "officeType": "B.O",
    "Deliverystatus": "Delivery",
    "divisionname": "Warangal",
    "regionname": "Hyderabad",
    "circlename": "Andhra Pradesh",
    "Taluk": "Narasimulapet",
    "Districtname": "Warangal",
    "statename": "ANDHRA PRADESH"
  },
  {
    "pincode": "506324",
    "officename": "Brahmanakothapalli B.O",
    "officeType": "B.O",
    "Deliverystatus": "Delivery",
    "divisionname": "Warangal",
    "regionname": "Hyderabad",
    "circlename": "Andhra Pradesh",
    "Taluk": "Narasimulapet",
    "Districtname": "Warangal",
    "statename": "ANDHRA PRADESH"
  },
  {
    "pincode": "506324",
    "officename": "Dantalapalli S.O",
    "officeType": "S.O",
    "Deliverystatus": "Delivery",
    "divisionname": "Warangal",
    "regionname": "Hyderabad",
    "circlename": "Andhra Pradesh",
    "Taluk": "Narsimhulapet",
    "Districtname": "Warangal",
    "statename": "ANDHRA PRADESH"
  },
  {
    "pincode": "506324",
    "officename": "Datla B.O",
    "officeType": "B.O",
    "Deliverystatus": "Delivery",
    "divisionname": "Warangal",
    "regionname": "Hyderabad",
    "circlename": "Andhra Pradesh",
    "Taluk": "Narasimulapet",
    "Districtname": "Warangal",
    "statename": "ANDHRA PRADESH"
  },
  {
    "pincode": "506324",
    "officename": "Gunnepalli B.O",
    "officeType": "B.O",
    "Deliverystatus": "Delivery",
    "divisionname": "Warangal",
    "regionname": "Hyderabad",
    "circlename": "Andhra Pradesh",
    "Taluk": "Narasimulapet",
    "Districtname": "Warangal",
    "statename": "ANDHRA PRADESH"
  },
  {
    "pincode": "506324",
    "officename": "Jaipur B.O",
    "officeType": "B.O",
    "Deliverystatus": "Delivery",
    "divisionname": "Warangal",
    "regionname": "Hyderabad",
    "circlename": "Andhra Pradesh",
    "Taluk": "Narasimulapet",
    "Districtname": "Warangal",
    "statename": "ANDHRA PRADESH"
  },
  {
    "pincode": "506324",
    "officename": "Kommulavancha B.O",
    "officeType": "B.O",
    "Deliverystatus": "Delivery",
    "divisionname": "Warangal",
    "regionname": "Hyderabad",
    "circlename": "Andhra Pradesh",
    "Taluk": "Narasimulapet",
    "Districtname": "Warangal",
    "statename": "ANDHRA PRADESH"
  },
  {
    "pincode": "506324",
    "officename": "Kummarikunta B.O",
    "officeType": "B.O",
    "Deliverystatus": "Delivery",
    "divisionname": "Warangal",
    "regionname": "Hyderabad",
    "circlename": "Andhra Pradesh",
    "Taluk": "Narsimulapet",
    "Districtname": "Warangal",
    "statename": "ANDHRA PRADESH"
  },
  {
    "pincode": "506324",
    "officename": "Mungimadugu B.O",
    "officeType": "B.O",
    "Deliverystatus": "Delivery",
    "divisionname": "Warangal",
    "regionname": "Hyderabad",
    "circlename": "Andhra Pradesh",
    "Taluk": "Narasimulapet",
    "Districtname": "Warangal",
    "statename": "ANDHRA PRADESH"
  },
  {
    "pincode": "506324",
    "officename": "Mupparamkalan B.O",
    "officeType": "B.O",
    "Deliverystatus": "Delivery",
    "divisionname": "Warangal",
    "regionname": "Hyderabad",
    "circlename": "Andhra Pradesh",
    "Taluk": "Narsimulapet",
    "Districtname": "Warangal",
    "statename": "ANDHRA PRADESH"
  },
  {
    "pincode": "506324",
    "officename": "Nagaram B.O",
    "officeType": "B.O",
    "Deliverystatus": "Delivery",
    "divisionname": "Warangal",
    "regionname": "Hyderabad",
    "circlename": "Andhra Pradesh",
    "Taluk": "Narasimulapet",
    "Districtname": "Warangal",
    "statename": "ANDHRA PRADESH"
  },
  {
    "pincode": "506324",
    "officename": "Narasimulapet B.O",
    "officeType": "B.O",
    "Deliverystatus": "Delivery",
    "divisionname": "Warangal",
    "regionname": "Hyderabad",
    "circlename": "Andhra Pradesh",
    "Taluk": "Narasimulapet",
    "Districtname": "Warangal",
    "statename": "ANDHRA PRADESH"
  },
  {
    "pincode": "506324",
    "officename": "Reponi B.O",
    "officeType": "B.O",
    "Deliverystatus": "Delivery",
    "divisionname": "Warangal",
    "regionname": "Hyderabad",
    "circlename": "Andhra Pradesh",
    "Taluk": "Narasimulapet",
    "Districtname": "Warangal",
    "statename": "ANDHRA PRADESH"
  },
  {
    "pincode": "506324",
    "officename": "Vanthadapala B.O",
    "officeType": "B.O",
    "Deliverystatus": "Delivery",
    "divisionname": "Warangal",
    "regionname": "Hyderabad",
    "circlename": "Andhra Pradesh",
    "Taluk": "Narasimulapet",
    "Districtname": "Warangal",
    "statename": "ANDHRA PRADESH"
  }
]
