[
  {
    "pincode": "506352",
    "officename": "Ankannagudem B.O",
    "officeType": "B.O",
    "Deliverystatus": "Delivery",
    "divisionname": "Hanamkonda",
    "regionname": "Hyderabad",
    "circlename": "Andhra Pradesh",
    "Taluk": "Mulug",
    "Districtname": "Warangal",
    "statename": "ANDHRA PRADESH"
  },
  {
    "pincode": "506352",
    "officename": "Devagiripatnam B.O",
    "officeType": "B.O",
    "Deliverystatus": "Delivery",
    "divisionname": "Hanamkonda",
    "regionname": "Hyderabad",
    "circlename": "Andhra Pradesh",
    "Taluk": "Mulug",
    "Districtname": "Warangal",
    "statename": "ANDHRA PRADESH"
  },
  {
    "pincode": "506352",
    "officename": "Incherla B.O",
    "officeType": "B.O",
    "Deliverystatus": "Delivery",
    "divisionname": "Hanamkonda",
    "regionname": "Hyderabad",
    "circlename": "Andhra Pradesh",
    "Taluk": "Mulug",
    "Districtname": "Warangal",
    "statename": "ANDHRA PRADESH"
  },
  {
    "pincode": "506352",
    "officename": "Jangalapally S.O",
    "officeType": "S.O",
    "Deliverystatus": "Delivery",
    "divisionname": "Hanamkonda",
    "regionname": "Hyderabad",
    "circlename": "Andhra Pradesh",
    "Taluk": "Mulug",
    "Districtname": "Warangal",
    "statename": "ANDHRA PRADESH"
  },
  {
    "pincode": "506352",
    "officename": "Kannaigudem B.O",
    "officeType": "B.O",
    "Deliverystatus": "Delivery",
    "divisionname": "Hanamkonda",
    "regionname": "Hyderabad",
    "circlename": "Andhra Pradesh",
    "Taluk": "Mulug",
    "Districtname": "Warangal",
    "statename": "ANDHRA PRADESH"
  },
  {
    "pincode": "506352",
    "officename": "Kasimdevipet B.O",
    "officeType": "B.O",
    "Deliverystatus": "Delivery",
    "divisionname": "Hanamkonda",
    "regionname": "Hyderabad",
    "circlename": "Andhra Pradesh",
    "Taluk": "Mulug",
    "Districtname": "Warangal",
    "statename": "ANDHRA PRADESH"
  },
  {
    "pincode": "506352",
    "officename": "Kothur B.O",
    "officeType": "B.O",
    "Deliverystatus": "Delivery",
    "divisionname": "Hanamkonda",
    "regionname": "Hyderabad",
    "circlename": "Andhra Pradesh",
    "Taluk": "Mulug",
    "Districtname": "Warangal",
    "statename": "ANDHRA PRADESH"
  },
  {
    "pincode": "506352",
    "officename": "Pathipalli B.O",
    "officeType": "B.O",
    "Deliverystatus": "Delivery",
    "divisionname": "Hanamkonda",
    "regionname": "Hyderabad",
    "circlename": "Andhra Pradesh",
    "Taluk": "Mulug",
    "Districtname": "Warangal",
    "statename": "ANDHRA PRADESH"
  },
  {
    "pincode": "506352",
    "officename": "Sarvapur B.O",
    "officeType": "B.O",
    "Deliverystatus": "Delivery",
    "divisionname": "Hanamkonda",
    "regionname": "Hyderabad",
    "circlename": "Andhra Pradesh",
    "Taluk": "Mulug",
    "Districtname": "Warangal",
    "statename": "ANDHRA PRADESH"
  },
  {
    "pincode": "506352",
    "officename": "Venkatapur B.O",
    "officeType": "B.O",
    "Deliverystatus": "Delivery",
    "divisionname": "Hanamkonda",
    "regionname": "Hyderabad",
    "circlename": "Andhra Pradesh",
    "Taluk": "Venkatapur",
    "Districtname": "Warangal",
    "statename": "ANDHRA PRADESH"
  }
]
