[
  {
    "pincode": "506319",
    "officename": "Chennapur B.O",
    "officeType": "B.O",
    "Deliverystatus": "Delivery",
    "divisionname": "Hanamkonda",
    "regionname": "Hyderabad",
    "circlename": "Andhra Pradesh",
    "Taluk": "",
    "Districtname": "Warangal",
    "statename": "ANDHRA PRADESH"
  },
  {
    "pincode": "506319",
    "officename": "Chinnakodepak B.O",
    "officeType": "B.O",
    "Deliverystatus": "Delivery",
    "divisionname": "Hanamkonda",
    "regionname": "Hyderabad",
    "circlename": "Andhra Pradesh",
    "Taluk": "Regonda",
    "Districtname": "Warangal",
    "statename": "ANDHRA PRADESH"
  },
  {
    "pincode": "506319",
    "officename": "Gatlakaniparthy B.O",
    "officeType": "B.O",
    "Deliverystatus": "Delivery",
    "divisionname": "Hanamkonda",
    "regionname": "Hyderabad",
    "circlename": "Andhra Pradesh",
    "Taluk": "Shayampet",
    "Districtname": "Warangal",
    "statename": "ANDHRA PRADESH"
  },
  {
    "pincode": "506319",
    "officename": "Hussainpalli B.O",
    "officeType": "B.O",
    "Deliverystatus": "Delivery",
    "divisionname": "Hanamkonda",
    "regionname": "Hyderabad",
    "circlename": "Andhra Pradesh",
    "Taluk": "Shayampet",
    "Districtname": "Warangal",
    "statename": "ANDHRA PRADESH"
  },
  {
    "pincode": "506319",
    "officename": "Kamareddipalli B.O",
    "officeType": "B.O",
    "Deliverystatus": "Delivery",
    "divisionname": "Hanamkonda",
    "regionname": "Hyderabad",
    "circlename": "Andhra Pradesh",
    "Taluk": "Parkal",
    "Districtname": "Warangal",
    "statename": "ANDHRA PRADESH"
  },
  {
    "pincode": "506319",
    "officename": "Koppula B.O",
    "officeType": "B.O",
    "Deliverystatus": "Delivery",
    "divisionname": "Hanamkonda",
    "regionname": "Hyderabad",
    "circlename": "Andhra Pradesh",
    "Taluk": "Shayampet",
    "Districtname": "Warangal",
    "statename": "ANDHRA PRADESH"
  },
  {
    "pincode": "506319",
    "officename": "Kothagattu Singaram B.O",
    "officeType": "B.O",
    "Deliverystatus": "Delivery",
    "divisionname": "Hanamkonda",
    "regionname": "Hyderabad",
    "circlename": "Andhra Pradesh",
    "Taluk": "Shayampet",
    "Districtname": "Warangal",
    "statename": "ANDHRA PRADESH"
  },
  {
    "pincode": "506319",
    "officename": "Pathipak B.O",
    "officeType": "B.O",
    "Deliverystatus": "Delivery",
    "divisionname": "Hanamkonda",
    "regionname": "Hyderabad",
    "circlename": "Andhra Pradesh",
    "Taluk": "Shayampet",
    "Districtname": "Warangal",
    "statename": "ANDHRA PRADESH"
  },
  {
    "pincode": "506319",
    "officename": "Peddakodepak B.O",
    "officeType": "B.O",
    "Deliverystatus": "Delivery",
    "divisionname": "Hanamkonda",
    "regionname": "Hyderabad",
    "circlename": "Andhra Pradesh",
    "Taluk": "Shayampet",
    "Districtname": "Warangal",
    "statename": "ANDHRA PRADESH"
  },
  {
    "pincode": "506319",
    "officename": "Shayampet S.O",
    "officeType": "S.O",
    "Deliverystatus": "Delivery",
    "divisionname": "Hanamkonda",
    "regionname": "Hyderabad",
    "circlename": "Andhra Pradesh",
    "Taluk": "Shayampet",
    "Districtname": "Warangal",
    "statename": "ANDHRA PRADESH"
  },
  {
    "pincode": "506319",
    "officename": "Taharapur B.O",
    "officeType": "B.O",
    "Deliverystatus": "Delivery",
    "divisionname": "Hanamkonda",
    "regionname": "Hyderabad",
    "circlename": "Andhra Pradesh",
    "Taluk": "Shayampet",
    "Districtname": "Warangal",
    "statename": "ANDHRA PRADESH"
  }
]
