[
  {
    "pincode": "507169",
    "officename": "Appalanarasimhapuram B.O",
    "officeType": "B.O",
    "Deliverystatus": "Delivery",
    "divisionname": "Khammam",
    "regionname": "Vijayawada",
    "circlename": "Andhra Pradesh",
    "Taluk": "Ch.madharam",
    "Districtname": "Khammam",
    "statename": "ANDHRA PRADESH"
  },
  {
    "pincode": "507169",
    "officename": "Banapuram B.O",
    "officeType": "B.O",
    "Deliverystatus": "Delivery",
    "divisionname": "Khammam",
    "regionname": "Vijayawada",
    "circlename": "Andhra Pradesh",
    "Taluk": "Ch.madharam",
    "Districtname": "Khammam",
    "statename": "ANDHRA PRADESH"
  },
  {
    "pincode": "507169",
    "officename": "Buddaram B.O",
    "officeType": "B.O",
    "Deliverystatus": "Delivery",
    "divisionname": "Khammam",
    "regionname": "Vijayawada",
    "circlename": "Andhra Pradesh",
    "Taluk": "Ch.madharam",
    "Districtname": "Khammam",
    "statename": "ANDHRA PRADESH"
  },
  {
    "pincode": "507169",
    "officename": "Cheruvumadharam S.O",
    "officeType": "S.O",
    "Deliverystatus": "Delivery",
    "divisionname": "Khammam",
    "regionname": "Vijayawada",
    "circlename": "Andhra Pradesh",
    "Taluk": "Ch.madharam",
    "Districtname": "Khammam",
    "statename": "ANDHRA PRADESH"
  },
  {
    "pincode": "507169",
    "officename": "Kattukacharam B.O",
    "officeType": "B.O",
    "Deliverystatus": "Delivery",
    "divisionname": "Khammam",
    "regionname": "Vijayawada",
    "circlename": "Andhra Pradesh",
    "Taluk": "Ch.madharam",
    "Districtname": "Khammam",
    "statename": "ANDHRA PRADESH"
  },
  {
    "pincode": "507169",
    "officename": "Kongara B.O",
    "officeType": "B.O",
    "Deliverystatus": "Delivery",
    "divisionname": "Khammam",
    "regionname": "Vijayawada",
    "circlename": "Andhra Pradesh",
    "Taluk": "Ch.madharam",
    "Districtname": "Khammam",
    "statename": "ANDHRA PRADESH"
  },
  {
    "pincode": "507169",
    "officename": "Mallaram B.O",
    "officeType": "B.O",
    "Deliverystatus": "Delivery",
    "divisionname": "Khammam",
    "regionname": "Vijayawada",
    "circlename": "Andhra Pradesh",
    "Taluk": "Cheruvumadhram",
    "Districtname": "Khammam",
    "statename": "ANDHRA PRADESH"
  },
  {
    "pincode": "507169",
    "officename": "Mangapuram B.O",
    "officeType": "B.O",
    "Deliverystatus": "Delivery",
    "divisionname": "Khammam",
    "regionname": "Vijayawada",
    "circlename": "Andhra Pradesh",
    "Taluk": "Ch.madharam",
    "Districtname": "Khammam",
    "statename": "ANDHRA PRADESH"
  },
  {
    "pincode": "507169",
    "officename": "Pedamandava B.O",
    "officeType": "B.O",
    "Deliverystatus": "Delivery",
    "divisionname": "Khammam",
    "regionname": "Vijayawada",
    "circlename": "Andhra Pradesh",
    "Taluk": "Cheruvumadhram",
    "Districtname": "Khammam",
    "statename": "ANDHRA PRADESH"
  },
  {
    "pincode": "507169",
    "officename": "Rayagudem B.O",
    "officeType": "B.O",
    "Deliverystatus": "Delivery",
    "divisionname": "Khammam",
    "regionname": "Vijayawada",
    "circlename": "Andhra Pradesh",
    "Taluk": "Ch.madharam",
    "Districtname": "Khammam",
    "statename": "ANDHRA PRADESH"
  },
  {
    "pincode": "507169",
    "officename": "Vallabhi B.O",
    "officeType": "B.O",
    "Deliverystatus": "Delivery",
    "divisionname": "Khammam",
    "regionname": "Vijayawada",
    "circlename": "Andhra Pradesh",
    "Taluk": "Cheruvumadharam",
    "Districtname": "Khammam",
    "statename": "ANDHRA PRADESH"
  }
]
