[
  {
    "pincode": "507183",
    "officename": "Dammaigudem B.O",
    "officeType": "B.O",
    "Deliverystatus": "Delivery",
    "divisionname": "Khammam",
    "regionname": "Vijayawada",
    "circlename": "Andhra Pradesh",
    "Taluk": "Pindipole",
    "Districtname": "Khammam",
    "statename": "ANDHRA PRADESH"
  },
  {
    "pincode": "507183",
    "officename": "Edullacheruvu B.O",
    "officeType": "B.O",
    "Deliverystatus": "Delivery",
    "divisionname": "Khammam",
    "regionname": "Vijayawada",
    "circlename": "Andhra Pradesh",
    "Taluk": "Pindipole",
    "Districtname": "Khammam",
    "statename": "ANDHRA PRADESH"
  },
  {
    "pincode": "507183",
    "officename": "Hydersaipeta B.O",
    "officeType": "B.O",
    "Deliverystatus": "Delivery",
    "divisionname": "Khammam",
    "regionname": "Vijayawada",
    "circlename": "Andhra Pradesh",
    "Taluk": "Pindipole",
    "Districtname": "Khammam",
    "statename": "ANDHRA PRADESH"
  },
  {
    "pincode": "507183",
    "officename": "Jallepalli B.O",
    "officeType": "B.O",
    "Deliverystatus": "Delivery",
    "divisionname": "Khammam",
    "regionname": "Vijayawada",
    "circlename": "Andhra Pradesh",
    "Taluk": "Pindipole",
    "Districtname": "Khammam",
    "statename": "ANDHRA PRADESH"
  },
  {
    "pincode": "507183",
    "officename": "Patharlapahad B.O",
    "officeType": "B.O",
    "Deliverystatus": "Delivery",
    "divisionname": "Khammam",
    "regionname": "Vijayawada",
    "circlename": "Andhra Pradesh",
    "Taluk": "Pindipole",
    "Districtname": "Khammam",
    "statename": "ANDHRA PRADESH"
  },
  {
    "pincode": "507183",
    "officename": "Pindipolu S.O",
    "officeType": "S.O",
    "Deliverystatus": "Delivery",
    "divisionname": "Khammam",
    "regionname": "Vijayawada",
    "circlename": "Andhra Pradesh",
    "Taluk": "Pindipolu",
    "Districtname": "Khammam",
    "statename": "ANDHRA PRADESH"
  },
  {
    "pincode": "507183",
    "officename": "Tetlapahad B.O",
    "officeType": "B.O",
    "Deliverystatus": "Delivery",
    "divisionname": "Khammam",
    "regionname": "Vijayawada",
    "circlename": "Andhra Pradesh",
    "Taluk": "Pindipole",
    "Districtname": "Khammam",
    "statename": "ANDHRA PRADESH"
  },
  {
    "pincode": "507183",
    "officename": "Tippareddiguem B.O",
    "officeType": "B.O",
    "Deliverystatus": "Delivery",
    "divisionname": "Khammam",
    "regionname": "Vijayawada",
    "circlename": "Andhra Pradesh",
    "Taluk": "Pindipole",
    "Districtname": "Khammam",
    "statename": "ANDHRA PRADESH"
  }
]
