[
  {
    "pincode": "507211",
    "officename": "Balajipeta B.O",
    "officeType": "B.O",
    "Deliverystatus": "Delivery",
    "divisionname": "Khammam",
    "regionname": "Vijayawada",
    "circlename": "Andhra Pradesh",
    "Taluk": "Aswapuram",
    "Districtname": "Khammam",
    "statename": "ANDHRA PRADESH"
  },
  {
    "pincode": "507211",
    "officename": "Bayyaram S.O",
    "officeType": "S.O",
    "Deliverystatus": "Delivery",
    "divisionname": "Khammam",
    "regionname": "Vijayawada",
    "circlename": "Andhra Pradesh",
    "Taluk": "Bayyaram",
    "Districtname": "Khammam",
    "statename": "ANDHRA PRADESH"
  },
  {
    "pincode": "507211",
    "officename": "Gowraram B.O",
    "officeType": "B.O",
    "Deliverystatus": "Delivery",
    "divisionname": "Khammam",
    "regionname": "Vijayawada",
    "circlename": "Andhra Pradesh",
    "Taluk": "Bayyaram",
    "Districtname": "Khammam",
    "statename": "ANDHRA PRADESH"
  },
  {
    "pincode": "507211",
    "officename": "Irusulapuram B.O",
    "officeType": "B.O",
    "Deliverystatus": "Delivery",
    "divisionname": "Khammam",
    "regionname": "Vijayawada",
    "circlename": "Andhra Pradesh",
    "Taluk": "Bayyaram",
    "Districtname": "Khammam",
    "statename": "ANDHRA PRADESH"
  },
  {
    "pincode": "507211",
    "officename": "Kothapeta B.O",
    "officeType": "B.O",
    "Deliverystatus": "Delivery",
    "divisionname": "Khammam",
    "regionname": "Vijayawada",
    "circlename": "Andhra Pradesh",
    "Taluk": "Bayyaram",
    "Districtname": "Khammam",
    "statename": "ANDHRA PRADESH"
  },
  {
    "pincode": "507211",
    "officename": "Ramachandrapuram B.O",
    "officeType": "B.O",
    "Deliverystatus": "Delivery",
    "divisionname": "Khammam",
    "regionname": "Vijayawada",
    "circlename": "Andhra Pradesh",
    "Taluk": "Bayyaram",
    "Districtname": "Khammam",
    "statename": "ANDHRA PRADESH"
  },
  {
    "pincode": "507211",
    "officename": "S.N.Puram B.O",
    "officeType": "B.O",
    "Deliverystatus": "Delivery",
    "divisionname": "Khammam",
    "regionname": "Vijayawada",
    "circlename": "Andhra Pradesh",
    "Taluk": "Bayyaram",
    "Districtname": "Khammam",
    "statename": "ANDHRA PRADESH"
  },
  {
    "pincode": "507211",
    "officename": "Uppalapahad B.O",
    "officeType": "B.O",
    "Deliverystatus": "Delivery",
    "divisionname": "Khammam",
    "regionname": "Vijayawada",
    "circlename": "Andhra Pradesh",
    "Taluk": "Bayyaram",
    "Districtname": "Khammam",
    "statename": "ANDHRA PRADESH"
  },
  {
    "pincode": "507211",
    "officename": "V.R.Puram B.O",
    "officeType": "B.O",
    "Deliverystatus": "Delivery",
    "divisionname": "Khammam",
    "regionname": "Vijayawada",
    "circlename": "Andhra Pradesh",
    "Taluk": "Bayyaram",
    "Districtname": "Khammam",
    "statename": "ANDHRA PRADESH"
  }
]
