[
  {
    "pincode": "507209",
    "officename": "Bathulapalli B.O",
    "officeType": "B.O",
    "Deliverystatus": "Delivery",
    "divisionname": "Khammam",
    "regionname": "Vijayawada",
    "circlename": "Andhra Pradesh",
    "Taluk": "Kallur",
    "Districtname": "Khammam",
    "statename": "ANDHRA PRADESH"
  },
  {
    "pincode": "507209",
    "officename": "Chandrupatla B.O",
    "officeType": "B.O",
    "Deliverystatus": "Delivery",
    "divisionname": "Khammam",
    "regionname": "Vijayawada",
    "circlename": "Andhra Pradesh",
    "Taluk": "Kallur",
    "Districtname": "Khammam",
    "statename": "ANDHRA PRADESH"
  },
  {
    "pincode": "507209",
    "officename": "Chennur B.O",
    "officeType": "B.O",
    "Deliverystatus": "Delivery",
    "divisionname": "Khammam",
    "regionname": "Vijayawada",
    "circlename": "Andhra Pradesh",
    "Taluk": "Kallur",
    "Districtname": "Khammam",
    "statename": "ANDHRA PRADESH"
  },
  {
    "pincode": "507209",
    "officename": "Chinakorukondi B.O",
    "officeType": "B.O",
    "Deliverystatus": "Delivery",
    "divisionname": "Khammam",
    "regionname": "Vijayawada",
    "circlename": "Andhra Pradesh",
    "Taluk": "Kallur",
    "Districtname": "Khammam",
    "statename": "ANDHRA PRADESH"
  },
  {
    "pincode": "507209",
    "officename": "Kallur S.O (Khammam)",
    "officeType": "S.O",
    "Deliverystatus": "Delivery",
    "divisionname": "Khammam",
    "regionname": "Vijayawada",
    "circlename": "Andhra Pradesh",
    "Taluk": "Kallur",
    "Districtname": "Khammam",
    "statename": "ANDHRA PRADESH"
  },
  {
    "pincode": "507209",
    "officename": "Korlagudem B.O",
    "officeType": "B.O",
    "Deliverystatus": "Delivery",
    "divisionname": "Khammam",
    "regionname": "Vijayawada",
    "circlename": "Andhra Pradesh",
    "Taluk": "Kallur",
    "Districtname": "Khammam",
    "statename": "ANDHRA PRADESH"
  },
  {
    "pincode": "507209",
    "officename": "Mucharam B.O",
    "officeType": "B.O",
    "Deliverystatus": "Delivery",
    "divisionname": "Khammam",
    "regionname": "Vijayawada",
    "circlename": "Andhra Pradesh",
    "Taluk": "Kallur",
    "Districtname": "Khammam",
    "statename": "ANDHRA PRADESH"
  },
  {
    "pincode": "507209",
    "officename": "Muthagudem B.O",
    "officeType": "B.O",
    "Deliverystatus": "Delivery",
    "divisionname": "Khammam",
    "regionname": "Vijayawada",
    "circlename": "Andhra Pradesh",
    "Taluk": "Kallur",
    "Districtname": "Khammam",
    "statename": "ANDHRA PRADESH"
  },
  {
    "pincode": "507209",
    "officename": "Pedakorukondi B.O",
    "officeType": "B.O",
    "Deliverystatus": "Delivery",
    "divisionname": "Khammam",
    "regionname": "Vijayawada",
    "circlename": "Andhra Pradesh",
    "Taluk": "Kallur",
    "Districtname": "Khammam",
    "statename": "ANDHRA PRADESH"
  },
  {
    "pincode": "507209",
    "officename": "Peruvancha B.O",
    "officeType": "B.O",
    "Deliverystatus": "Delivery",
    "divisionname": "Khammam",
    "regionname": "Vijayawada",
    "circlename": "Andhra Pradesh",
    "Taluk": "Kallur",
    "Districtname": "Khammam",
    "statename": "ANDHRA PRADESH"
  },
  {
    "pincode": "507209",
    "officename": "Tallapenta B.O",
    "officeType": "B.O",
    "Deliverystatus": "Delivery",
    "divisionname": "Khammam",
    "regionname": "Vijayawada",
    "circlename": "Andhra Pradesh",
    "Taluk": "Kallur",
    "Districtname": "Khammam",
    "statename": "ANDHRA PRADESH"
  },
  {
    "pincode": "507209",
    "officename": "Talluri Venkatapuram B.O",
    "officeType": "B.O",
    "Deliverystatus": "Delivery",
    "divisionname": "Khammam",
    "regionname": "Vijayawada",
    "circlename": "Andhra Pradesh",
    "Taluk": "Kallur",
    "Districtname": "Khammam",
    "statename": "ANDHRA PRADESH"
  },
  {
    "pincode": "507209",
    "officename": "Tekulapalli B.O",
    "officeType": "B.O",
    "Deliverystatus": "Delivery",
    "divisionname": "Khammam",
    "regionname": "Vijayawada",
    "circlename": "Andhra Pradesh",
    "Taluk": "Kallur",
    "Districtname": "Khammam",
    "statename": "ANDHRA PRADESH"
  },
  {
    "pincode": "507209",
    "officename": "Telgaram B.O",
    "officeType": "B.O",
    "Deliverystatus": "Delivery",
    "divisionname": "Khammam",
    "regionname": "Vijayawada",
    "circlename": "Andhra Pradesh",
    "Taluk": "Kallur",
    "Districtname": "Khammam",
    "statename": "ANDHRA PRADESH"
  },
  {
    "pincode": "507209",
    "officename": "Yerraboinapalli B.O",
    "officeType": "B.O",
    "Deliverystatus": "Delivery",
    "divisionname": "Khammam",
    "regionname": "Vijayawada",
    "circlename": "Andhra Pradesh",
    "Taluk": "Kallur",
    "Districtname": "Khammam",
    "statename": "ANDHRA PRADESH"
  }
]
