[
  {
    "pincode": "507316",
    "officename": "Abbugudem B.O",
    "officeType": "B.O",
    "Deliverystatus": "Delivery",
    "divisionname": "Khammam",
    "regionname": "Vijayawada",
    "circlename": "Andhra Pradesh",
    "Taluk": "P.r.gudem",
    "Districtname": "Khammam",
    "statename": "ANDHRA PRADESH"
  },
  {
    "pincode": "507316",
    "officename": "Annapureddipalli B.O",
    "officeType": "B.O",
    "Deliverystatus": "Delivery",
    "divisionname": "Khammam",
    "regionname": "Vijayawada",
    "circlename": "Andhra Pradesh",
    "Taluk": "P.r.gudem",
    "Districtname": "Khammam",
    "statename": "ANDHRA PRADESH"
  },
  {
    "pincode": "507316",
    "officename": "Bhavannapalem B.O",
    "officeType": "B.O",
    "Deliverystatus": "Delivery",
    "divisionname": "Khammam",
    "regionname": "Vijayawada",
    "circlename": "Andhra Pradesh",
    "Taluk": "P.r.gudem",
    "Districtname": "Khammam",
    "statename": "ANDHRA PRADESH"
  },
  {
    "pincode": "507316",
    "officename": "Chapralla Palli B.O",
    "officeType": "B.O",
    "Deliverystatus": "Delivery",
    "divisionname": "Khammam",
    "regionname": "Vijayawada",
    "circlename": "Andhra Pradesh",
    "Taluk": "P.r.gudem",
    "Districtname": "Khammam",
    "statename": "ANDHRA PRADESH"
  },
  {
    "pincode": "507316",
    "officename": "Peddireddigudem S.O",
    "officeType": "S.O",
    "Deliverystatus": "Delivery",
    "divisionname": "Khammam",
    "regionname": "Vijayawada",
    "circlename": "Andhra Pradesh",
    "Taluk": "P R Gudem",
    "Districtname": "Khammam",
    "statename": "ANDHRA PRADESH"
  },
  {
    "pincode": "507316",
    "officename": "Pentlam B.O",
    "officeType": "B.O",
    "Deliverystatus": "Delivery",
    "divisionname": "Khammam",
    "regionname": "Vijayawada",
    "circlename": "Andhra Pradesh",
    "Taluk": "P.r.gudem",
    "Districtname": "Khammam",
    "statename": "ANDHRA PRADESH"
  },
  {
    "pincode": "507316",
    "officename": "Rajapuram B.O",
    "officeType": "B.O",
    "Deliverystatus": "Delivery",
    "divisionname": "Khammam",
    "regionname": "Vijayawada",
    "circlename": "Andhra Pradesh",
    "Taluk": "P.r.gudem",
    "Districtname": "Khammam",
    "statename": "ANDHRA PRADESH"
  },
  {
    "pincode": "507316",
    "officename": "Yatalakunta B.O",
    "officeType": "B.O",
    "Deliverystatus": "Delivery",
    "divisionname": "Khammam",
    "regionname": "Vijayawada",
    "circlename": "Andhra Pradesh",
    "Taluk": "P.r.gudem",
    "Districtname": "Khammam",
    "statename": "ANDHRA PRADESH"
  }
]
