[
  {
    "pincode": "508210",
    "officename": "Adloor B.O",
    "officeType": "B.O",
    "Deliverystatus": "Delivery",
    "divisionname": "Suryapet",
    "regionname": "Hyderabad",
    "circlename": "Andhra Pradesh",
    "Taluk": "Nakrekal",
    "Districtname": "Nalgonda",
    "statename": "ANDHRA PRADESH"
  },
  {
    "pincode": "508210",
    "officename": "Akaram B.O",
    "officeType": "B.O",
    "Deliverystatus": "Delivery",
    "divisionname": "Suryapet",
    "regionname": "Hyderabad",
    "circlename": "Andhra Pradesh",
    "Taluk": "Nakrekal",
    "Districtname": "Nalgonda",
    "statename": "ANDHRA PRADESH"
  },
  {
    "pincode": "508210",
    "officename": "Bhairavanibanda B.O",
    "officeType": "B.O",
    "Deliverystatus": "Delivery",
    "divisionname": "Suryapet",
    "regionname": "Hyderabad",
    "circlename": "Andhra Pradesh",
    "Taluk": "Nakrekal",
    "Districtname": "Nalgonda",
    "statename": "ANDHRA PRADESH"
  },
  {
    "pincode": "508210",
    "officename": "Chittaloor B.O",
    "officeType": "B.O",
    "Deliverystatus": "Delivery",
    "divisionname": "Suryapet",
    "regionname": "Hyderabad",
    "circlename": "Andhra Pradesh",
    "Taluk": "Nakrekal",
    "Districtname": "Nalgonda",
    "statename": "ANDHRA PRADESH"
  },
  {
    "pincode": "508210",
    "officename": "Gurajala B.O",
    "officeType": "B.O",
    "Deliverystatus": "Delivery",
    "divisionname": "Suryapet",
    "regionname": "Hyderabad",
    "circlename": "Andhra Pradesh",
    "Taluk": "Nakrekal",
    "Districtname": "Nalgonda",
    "statename": "ANDHRA PRADESH"
  },
  {
    "pincode": "508210",
    "officename": "Itukula Pahad B.O",
    "officeType": "B.O",
    "Deliverystatus": "Delivery",
    "divisionname": "Suryapet",
    "regionname": "Hyderabad",
    "circlename": "Andhra Pradesh",
    "Taluk": "Nakrekal",
    "Districtname": "Nalgonda",
    "statename": "ANDHRA PRADESH"
  },
  {
    "pincode": "508210",
    "officename": "Kodaparthy B.O",
    "officeType": "B.O",
    "Deliverystatus": "Delivery",
    "divisionname": "Suryapet",
    "regionname": "Hyderabad",
    "circlename": "Andhra Pradesh",
    "Taluk": "Nakrekal",
    "Districtname": "Nalgonda",
    "statename": "ANDHRA PRADESH"
  },
  {
    "pincode": "508210",
    "officename": "Madaram Kalan B.O",
    "officeType": "B.O",
    "Deliverystatus": "Delivery",
    "divisionname": "Suryapet",
    "regionname": "Hyderabad",
    "circlename": "Andhra Pradesh",
    "Taluk": "Nakrekal",
    "Districtname": "Nalgonda",
    "statename": "ANDHRA PRADESH"
  },
  {
    "pincode": "508210",
    "officename": "Manimadde B.O",
    "officeType": "B.O",
    "Deliverystatus": "Delivery",
    "divisionname": "Suryapet",
    "regionname": "Hyderabad",
    "circlename": "Andhra Pradesh",
    "Taluk": "Nakrekal",
    "Districtname": "Nalgonda",
    "statename": "ANDHRA PRADESH"
  },
  {
    "pincode": "508210",
    "officename": "Perkakondaram B.O",
    "officeType": "B.O",
    "Deliverystatus": "Delivery",
    "divisionname": "Suryapet",
    "regionname": "Hyderabad",
    "circlename": "Andhra Pradesh",
    "Taluk": "Nakrekal",
    "Districtname": "Nalgonda",
    "statename": "ANDHRA PRADESH"
  },
  {
    "pincode": "508210",
    "officename": "Ramagiri B.O",
    "officeType": "B.O",
    "Deliverystatus": "Delivery",
    "divisionname": "Suryapet",
    "regionname": "Hyderabad",
    "circlename": "Andhra Pradesh",
    "Taluk": "Nakrekal",
    "Districtname": "Nalgonda",
    "statename": "ANDHRA PRADESH"
  },
  {
    "pincode": "508210",
    "officename": "Shaligouraram B.O",
    "officeType": "B.O",
    "Deliverystatus": "Delivery",
    "divisionname": "Suryapet",
    "regionname": "Hyderabad",
    "circlename": "Andhra Pradesh",
    "Taluk": "Nakrekal",
    "Districtname": "Nalgonda",
    "statename": "ANDHRA PRADESH"
  },
  {
    "pincode": "508210",
    "officename": "Uppalancha B.O",
    "officeType": "B.O",
    "Deliverystatus": "Delivery",
    "divisionname": "Suryapet",
    "regionname": "Hyderabad",
    "circlename": "Andhra Pradesh",
    "Taluk": "Nakrekal",
    "Districtname": "Nalgonda",
    "statename": "ANDHRA PRADESH"
  },
  {
    "pincode": "508210",
    "officename": "Utkoor B.O",
    "officeType": "B.O",
    "Deliverystatus": "Delivery",
    "divisionname": "Suryapet",
    "regionname": "Hyderabad",
    "circlename": "Andhra Pradesh",
    "Taluk": "Nakrekal",
    "Districtname": "Nalgonda",
    "statename": "ANDHRA PRADESH"
  },
  {
    "pincode": "508210",
    "officename": "Vallala S.O",
    "officeType": "S.O",
    "Deliverystatus": "Delivery",
    "divisionname": "Suryapet",
    "regionname": "Hyderabad",
    "circlename": "Andhra Pradesh",
    "Taluk": "Nakrekal",
    "Districtname": "Nalgonda",
    "statename": "ANDHRA PRADESH"
  },
  {
    "pincode": "508210",
    "officename": "Wangamarthy B.O",
    "officeType": "B.O",
    "Deliverystatus": "Delivery",
    "divisionname": "Suryapet",
    "regionname": "Hyderabad",
    "circlename": "Andhra Pradesh",
    "Taluk": "Nakrekal",
    "Districtname": "Nalgonda",
    "statename": "ANDHRA PRADESH"
  }
]
