[
  {
    "pincode": "508238",
    "officename": "Ganapavaram B.O",
    "officeType": "B.O",
    "Deliverystatus": "Delivery",
    "divisionname": "Suryapet",
    "regionname": "Hyderabad",
    "circlename": "Andhra Pradesh",
    "Taluk": "Huzurnagar",
    "Districtname": "Nalgonda",
    "statename": "ANDHRA PRADESH"
  },
  {
    "pincode": "508238",
    "officename": "Gudibanda S.O (Nalgonda)",
    "officeType": "S.O",
    "Deliverystatus": "Delivery",
    "divisionname": "Suryapet",
    "regionname": "Hyderabad",
    "circlename": "Andhra Pradesh",
    "Taluk": "Huzurnagar",
    "Districtname": "Nalgonda",
    "statename": "ANDHRA PRADESH"
  },
  {
    "pincode": "508238",
    "officename": "Kandibanda B.O",
    "officeType": "B.O",
    "Deliverystatus": "Delivery",
    "divisionname": "Suryapet",
    "regionname": "Hyderabad",
    "circlename": "Andhra Pradesh",
    "Taluk": "Huzurnagar",
    "Districtname": "Nalgonda",
    "statename": "ANDHRA PRADESH"
  },
  {
    "pincode": "508238",
    "officename": "Kapugal B.O",
    "officeType": "B.O",
    "Deliverystatus": "Delivery",
    "divisionname": "Suryapet",
    "regionname": "Hyderabad",
    "circlename": "Andhra Pradesh",
    "Taluk": "Huzurnagar",
    "Districtname": "Nalgonda",
    "statename": "ANDHRA PRADESH"
  },
  {
    "pincode": "508238",
    "officename": "Kuchipudi B.O",
    "officeType": "B.O",
    "Deliverystatus": "Delivery",
    "divisionname": "Suryapet",
    "regionname": "Hyderabad",
    "circlename": "Andhra Pradesh",
    "Taluk": "Huzurnagar",
    "Districtname": "Nalgonda",
    "statename": "ANDHRA PRADESH"
  },
  {
    "pincode": "508238",
    "officename": "Pale Annaram B.O",
    "officeType": "B.O",
    "Deliverystatus": "Delivery",
    "divisionname": "Suryapet",
    "regionname": "Hyderabad",
    "circlename": "Andhra Pradesh",
    "Taluk": "Huzurnagar",
    "Districtname": "Nalgonda",
    "statename": "ANDHRA PRADESH"
  },
  {
    "pincode": "508238",
    "officename": "Ramalaxmipuram B.O",
    "officeType": "B.O",
    "Deliverystatus": "Delivery",
    "divisionname": "Suryapet",
    "regionname": "Hyderabad",
    "circlename": "Andhra Pradesh",
    "Taluk": "Huzurnagar",
    "Districtname": "Nalgonda",
    "statename": "ANDHRA PRADESH"
  },
  {
    "pincode": "508238",
    "officename": "Togarrai B.O",
    "officeType": "B.O",
    "Deliverystatus": "Delivery",
    "divisionname": "Suryapet",
    "regionname": "Hyderabad",
    "circlename": "Andhra Pradesh",
    "Taluk": "Huzurnagar",
    "Districtname": "Nalgonda",
    "statename": "ANDHRA PRADESH"
  },
  {
    "pincode": "508238",
    "officename": "Yerravaram B.O",
    "officeType": "B.O",
    "Deliverystatus": "Delivery",
    "divisionname": "Suryapet",
    "regionname": "Hyderabad",
    "circlename": "Andhra Pradesh",
    "Taluk": "Huzurnagar",
    "Districtname": "Nalgonda",
    "statename": "ANDHRA PRADESH"
  }
]
