[
  {
    "pincode": "508218",
    "officename": "Bodaladinne B.O",
    "officeType": "B.O",
    "Deliverystatus": "Delivery",
    "divisionname": "Suryapet",
    "regionname": "Hyderabad",
    "circlename": "Andhra Pradesh",
    "Taluk": "Miryalguda",
    "Districtname": "Nalgonda",
    "statename": "ANDHRA PRADESH"
  },
  {
    "pincode": "508218",
    "officename": "Bothalapalem B.O",
    "officeType": "B.O",
    "Deliverystatus": "Delivery",
    "divisionname": "Suryapet",
    "regionname": "Hyderabad",
    "circlename": "Andhra Pradesh",
    "Taluk": "Huzurnagar",
    "Districtname": "Nalgonda",
    "statename": "ANDHRA PRADESH"
  },
  {
    "pincode": "508218",
    "officename": "Dacharam B.O",
    "officeType": "B.O",
    "Deliverystatus": "Delivery",
    "divisionname": "Suryapet",
    "regionname": "Hyderabad",
    "circlename": "Andhra Pradesh",
    "Taluk": "Huzurnagar",
    "Districtname": "Nalgonda",
    "statename": "ANDHRA PRADESH"
  },
  {
    "pincode": "508218",
    "officename": "Dirsencharla B.O",
    "officeType": "B.O",
    "Deliverystatus": "Delivery",
    "divisionname": "Suryapet",
    "regionname": "Hyderabad",
    "circlename": "Andhra Pradesh",
    "Taluk": "Huzurnagar",
    "Districtname": "Nalgonda",
    "statename": "ANDHRA PRADESH"
  },
  {
    "pincode": "508218",
    "officename": "Guduguntlapalem B.O",
    "officeType": "B.O",
    "Deliverystatus": "Delivery",
    "divisionname": "Suryapet",
    "regionname": "Hyderabad",
    "circlename": "Andhra Pradesh",
    "Taluk": "Huzurnagar",
    "Districtname": "Nalgonda",
    "statename": "ANDHRA PRADESH"
  },
  {
    "pincode": "508218",
    "officename": "Gundlapahad B.O",
    "officeType": "B.O",
    "Deliverystatus": "Delivery",
    "divisionname": "Suryapet",
    "regionname": "Hyderabad",
    "circlename": "Andhra Pradesh",
    "Taluk": "Huzurnagar",
    "Districtname": "Nalgonda",
    "statename": "ANDHRA PRADESH"
  },
  {
    "pincode": "508218",
    "officename": "Janpahad B.O",
    "officeType": "B.O",
    "Deliverystatus": "Delivery",
    "divisionname": "Suryapet",
    "regionname": "Hyderabad",
    "circlename": "Andhra Pradesh",
    "Taluk": "Huzurnagar",
    "Districtname": "Nalgonda",
    "statename": "ANDHRA PRADESH"
  },
  {
    "pincode": "508218",
    "officename": "Neredcharla S.O",
    "officeType": "S.O",
    "Deliverystatus": "Delivery",
    "divisionname": "Suryapet",
    "regionname": "Hyderabad",
    "circlename": "Andhra Pradesh",
    "Taluk": "Miryalguda",
    "Districtname": "Nalgonda",
    "statename": "ANDHRA PRADESH"
  },
  {
    "pincode": "508218",
    "officename": "Palakeedu B.O",
    "officeType": "B.O",
    "Deliverystatus": "Delivery",
    "divisionname": "Suryapet",
    "regionname": "Hyderabad",
    "circlename": "Andhra Pradesh",
    "Taluk": "Huzurnagar",
    "Districtname": "Nalgonda",
    "statename": "ANDHRA PRADESH"
  },
  {
    "pincode": "508218",
    "officename": "Penchikal Dinna B.O",
    "officeType": "B.O",
    "Deliverystatus": "Delivery",
    "divisionname": "Suryapet",
    "regionname": "Hyderabad",
    "circlename": "Andhra Pradesh",
    "Taluk": "Huzurnagar",
    "Districtname": "Nalgonda",
    "statename": "ANDHRA PRADESH"
  },
  {
    "pincode": "508218",
    "officename": "Somavaram B.O",
    "officeType": "B.O",
    "Deliverystatus": "Delivery",
    "divisionname": "Suryapet",
    "regionname": "Hyderabad",
    "circlename": "Andhra Pradesh",
    "Taluk": "Huzurnagar",
    "Districtname": "Nalgonda",
    "statename": "ANDHRA PRADESH"
  }
]
