[
  {
    "pincode": "508204",
    "officename": "Amaravaram B.O",
    "officeType": "B.O",
    "Deliverystatus": "Delivery",
    "divisionname": "Suryapet",
    "regionname": "Hyderabad",
    "circlename": "Andhra Pradesh",
    "Taluk": "Huzurnagar",
    "Districtname": "Nalgonda",
    "statename": "ANDHRA PRADESH"
  },
  {
    "pincode": "508204",
    "officename": "Bethavolu B.O",
    "officeType": "B.O",
    "Deliverystatus": "Delivery",
    "divisionname": "Suryapet",
    "regionname": "Hyderabad",
    "circlename": "Andhra Pradesh",
    "Taluk": "Huzurnagar",
    "Districtname": "Nalgonda",
    "statename": "ANDHRA PRADESH"
  },
  {
    "pincode": "508204",
    "officename": "Booruggadda B.O",
    "officeType": "B.O",
    "Deliverystatus": "Delivery",
    "divisionname": "Suryapet",
    "regionname": "Hyderabad",
    "circlename": "Andhra Pradesh",
    "Taluk": "Huzurnagar",
    "Districtname": "Nalgonda",
    "statename": "ANDHRA PRADESH"
  },
  {
    "pincode": "508204",
    "officename": "Choutapally B.O",
    "officeType": "B.O",
    "Deliverystatus": "Delivery",
    "divisionname": "Suryapet",
    "regionname": "Hyderabad",
    "circlename": "Andhra Pradesh",
    "Taluk": "Huzurnagar",
    "Districtname": "Nalgonda",
    "statename": "ANDHRA PRADESH"
  },
  {
    "pincode": "508204",
    "officename": "Gundlapally B.O",
    "officeType": "B.O",
    "Deliverystatus": "Delivery",
    "divisionname": "Suryapet",
    "regionname": "Hyderabad",
    "circlename": "Andhra Pradesh",
    "Taluk": "Huzurnagar",
    "Districtname": "Nalgonda",
    "statename": "ANDHRA PRADESH"
  },
  {
    "pincode": "508204",
    "officename": "Huzurnagar S.O",
    "officeType": "S.O",
    "Deliverystatus": "Delivery",
    "divisionname": "Suryapet",
    "regionname": "Hyderabad",
    "circlename": "Andhra Pradesh",
    "Taluk": "Huzurnagar",
    "Districtname": "Nalgonda",
    "statename": "ANDHRA PRADESH"
  },
  {
    "pincode": "508204",
    "officename": "Jerripothula Gudem B.O",
    "officeType": "B.O",
    "Deliverystatus": "Delivery",
    "divisionname": "Suryapet",
    "regionname": "Hyderabad",
    "circlename": "Andhra Pradesh",
    "Taluk": "Huzurnagar",
    "Districtname": "Nalgonda",
    "statename": "ANDHRA PRADESH"
  },
  {
    "pincode": "508204",
    "officename": "Karakkayala Gudem B.O",
    "officeType": "B.O",
    "Deliverystatus": "Delivery",
    "divisionname": "Suryapet",
    "regionname": "Hyderabad",
    "circlename": "Andhra Pradesh",
    "Taluk": "Huzurnagar",
    "Districtname": "Nalgonda",
    "statename": "ANDHRA PRADESH"
  },
  {
    "pincode": "508204",
    "officename": "Kondapuram B.O",
    "officeType": "B.O",
    "Deliverystatus": "Delivery",
    "divisionname": "Suryapet",
    "regionname": "Hyderabad",
    "circlename": "Andhra Pradesh",
    "Taluk": "Huzurnagar",
    "Districtname": "Nalgonda",
    "statename": "ANDHRA PRADESH"
  },
  {
    "pincode": "508204",
    "officename": "Lakkavaram B.O",
    "officeType": "B.O",
    "Deliverystatus": "Delivery",
    "divisionname": "Suryapet",
    "regionname": "Hyderabad",
    "circlename": "Andhra Pradesh",
    "Taluk": "Huzurnagar",
    "Districtname": "Nalgonda",
    "statename": "ANDHRA PRADESH"
  },
  {
    "pincode": "508204",
    "officename": "Lingagiri B.O",
    "officeType": "B.O",
    "Deliverystatus": "Delivery",
    "divisionname": "Suryapet",
    "regionname": "Hyderabad",
    "circlename": "Andhra Pradesh",
    "Taluk": "Huzurnagar",
    "Districtname": "Nalgonda",
    "statename": "ANDHRA PRADESH"
  },
  {
    "pincode": "508204",
    "officename": "Mattampally B.O",
    "officeType": "B.O",
    "Deliverystatus": "Delivery",
    "divisionname": "Suryapet",
    "regionname": "Hyderabad",
    "circlename": "Andhra Pradesh",
    "Taluk": "Huzurnagar",
    "Districtname": "Nalgonda",
    "statename": "ANDHRA PRADESH"
  },
  {
    "pincode": "508204",
    "officename": "Pedaveedu B.O",
    "officeType": "B.O",
    "Deliverystatus": "Delivery",
    "divisionname": "Suryapet",
    "regionname": "Hyderabad",
    "circlename": "Andhra Pradesh",
    "Taluk": "Huzurnagar",
    "Districtname": "Nalgonda",
    "statename": "ANDHRA PRADESH"
  },
  {
    "pincode": "508204",
    "officename": "Raghunadhapalem B.O",
    "officeType": "B.O",
    "Deliverystatus": "Delivery",
    "divisionname": "Suryapet",
    "regionname": "Hyderabad",
    "circlename": "Andhra Pradesh",
    "Taluk": "Huzurnagar",
    "Districtname": "Nalgonda",
    "statename": "ANDHRA PRADESH"
  },
  {
    "pincode": "508204",
    "officename": "Sarvaram B.O",
    "officeType": "B.O",
    "Deliverystatus": "Delivery",
    "divisionname": "Suryapet",
    "regionname": "Hyderabad",
    "circlename": "Andhra Pradesh",
    "Taluk": "Huzurnagar",
    "Districtname": "Nalgonda",
    "statename": "ANDHRA PRADESH"
  },
  {
    "pincode": "508204",
    "officename": "Simhapuri B.O",
    "officeType": "B.O",
    "Deliverystatus": "Delivery",
    "divisionname": "Suryapet",
    "regionname": "Hyderabad",
    "circlename": "Andhra Pradesh",
    "Taluk": "Huzurnagar",
    "Districtname": "Nalgonda",
    "statename": "ANDHRA PRADESH"
  },
  {
    "pincode": "508204",
    "officename": "Wardhapuram B.O",
    "officeType": "B.O",
    "Deliverystatus": "Delivery",
    "divisionname": "Suryapet",
    "regionname": "Hyderabad",
    "circlename": "Andhra Pradesh",
    "Taluk": "Huzurnagar",
    "Districtname": "Nalgonda",
    "statename": "ANDHRA PRADESH"
  },
  {
    "pincode": "508204",
    "officename": "Yathavakilla B.O",
    "officeType": "B.O",
    "Deliverystatus": "Delivery",
    "divisionname": "Suryapet",
    "regionname": "Hyderabad",
    "circlename": "Andhra Pradesh",
    "Taluk": "Huzurnagar",
    "Districtname": "Nalgonda",
    "statename": "ANDHRA PRADESH"
  },
  {
    "pincode": "508204",
    "officename": "Yepalasingaram B.O",
    "officeType": "B.O",
    "Deliverystatus": "Delivery",
    "divisionname": "Suryapet",
    "regionname": "Hyderabad",
    "circlename": "Andhra Pradesh",
    "Taluk": "Huzurnagar",
    "Districtname": "Nalgonda",
    "statename": "ANDHRA PRADESH"
  }
]
