[
  {
    "pincode": "508245",
    "officename": "Anthampet B.O",
    "officeType": "B.O",
    "Deliverystatus": "Delivery",
    "divisionname": "Nalgonda",
    "regionname": "Hyderabad",
    "circlename": "Andhra Pradesh",
    "Taluk": "Nalgonda",
    "Districtname": "Nalgonda",
    "statename": "ANDHRA PRADESH"
  },
  {
    "pincode": "508245",
    "officename": "Damera B.O",
    "officeType": "B.O",
    "Deliverystatus": "Delivery",
    "divisionname": "Nalgonda",
    "regionname": "Hyderabad",
    "circlename": "Andhra Pradesh",
    "Taluk": "Nalgonda",
    "Districtname": "Nalgonda",
    "statename": "ANDHRA PRADESH"
  },
  {
    "pincode": "508245",
    "officename": "Damera Bheemanapally B.O",
    "officeType": "B.O",
    "Deliverystatus": "Delivery",
    "divisionname": "Nalgonda",
    "regionname": "Hyderabad",
    "circlename": "Andhra Pradesh",
    "Taluk": "Nalgonda",
    "Districtname": "Nalgonda",
    "statename": "ANDHRA PRADESH"
  },
  {
    "pincode": "508245",
    "officename": "Indurthy B.O",
    "officeType": "B.O",
    "Deliverystatus": "Delivery",
    "divisionname": "Nalgonda",
    "regionname": "Hyderabad",
    "circlename": "Andhra Pradesh",
    "Taluk": "Nalgonda",
    "Districtname": "Nalgonda",
    "statename": "ANDHRA PRADESH"
  },
  {
    "pincode": "508245",
    "officename": "Kudabakashpally B.O",
    "officeType": "B.O",
    "Deliverystatus": "Delivery",
    "divisionname": "Nalgonda",
    "regionname": "Hyderabad",
    "circlename": "Andhra Pradesh",
    "Taluk": "Nalgonda",
    "Districtname": "Nalgonda",
    "statename": "ANDHRA PRADESH"
  },
  {
    "pincode": "508245",
    "officename": "Lenkalapally B.O",
    "officeType": "B.O",
    "Deliverystatus": "Delivery",
    "divisionname": "Nalgonda",
    "regionname": "Hyderabad",
    "circlename": "Andhra Pradesh",
    "Taluk": "Nalgonda",
    "Districtname": "Nalgonda",
    "statename": "ANDHRA PRADESH"
  },
  {
    "pincode": "508245",
    "officename": "Lohepally B.O",
    "officeType": "B.O",
    "Deliverystatus": "Delivery",
    "divisionname": "Nalgonda",
    "regionname": "Hyderabad",
    "circlename": "Andhra Pradesh",
    "Taluk": "Marriguda",
    "Districtname": "Nalgonda",
    "statename": "ANDHRA PRADESH"
  },
  {
    "pincode": "508245",
    "officename": "Marriguda S.O",
    "officeType": "S.O",
    "Deliverystatus": "Delivery",
    "divisionname": "Nalgonda",
    "regionname": "Hyderabad",
    "circlename": "Andhra Pradesh",
    "Taluk": "Nalgonda",
    "Districtname": "Nalgonda",
    "statename": "ANDHRA PRADESH"
  },
  {
    "pincode": "508245",
    "officename": "Nerellapally B.O",
    "officeType": "B.O",
    "Deliverystatus": "Delivery",
    "divisionname": "Nalgonda",
    "regionname": "Hyderabad",
    "circlename": "Andhra Pradesh",
    "Taluk": "Marriguda",
    "Districtname": "Nalgonda",
    "statename": "ANDHRA PRADESH"
  },
  {
    "pincode": "508245",
    "officename": "Polepally Ramnagar B.O",
    "officeType": "B.O",
    "Deliverystatus": "Delivery",
    "divisionname": "Nalgonda",
    "regionname": "Hyderabad",
    "circlename": "Andhra Pradesh",
    "Taluk": "Nalgonda",
    "Districtname": "Nalgonda",
    "statename": "ANDHRA PRADESH"
  },
  {
    "pincode": "508245",
    "officename": "Sivannaguda B.O",
    "officeType": "B.O",
    "Deliverystatus": "Delivery",
    "divisionname": "Nalgonda",
    "regionname": "Hyderabad",
    "circlename": "Andhra Pradesh",
    "Taluk": "Marriguda",
    "Districtname": "Nalgonda",
    "statename": "ANDHRA PRADESH"
  },
  {
    "pincode": "508245",
    "officename": "Tirugandlapally B.O",
    "officeType": "B.O",
    "Deliverystatus": "Delivery",
    "divisionname": "Nalgonda",
    "regionname": "Hyderabad",
    "circlename": "Andhra Pradesh",
    "Taluk": "Nalgonda",
    "Districtname": "Nalgonda",
    "statename": "ANDHRA PRADESH"
  },
  {
    "pincode": "508245",
    "officename": "Vattiparthy B.O",
    "officeType": "B.O",
    "Deliverystatus": "Delivery",
    "divisionname": "Nalgonda",
    "regionname": "Hyderabad",
    "circlename": "Andhra Pradesh",
    "Taluk": "Nalgonda",
    "Districtname": "Nalgonda",
    "statename": "ANDHRA PRADESH"
  },
  {
    "pincode": "508245",
    "officename": "Venkateshwara Nagar B.O",
    "officeType": "B.O",
    "Deliverystatus": "Delivery",
    "divisionname": "Nalgonda",
    "regionname": "Hyderabad",
    "circlename": "Andhra Pradesh",
    "Taluk": "Marriguda",
    "Districtname": "Nalgonda",
    "statename": "ANDHRA PRADESH"
  },
  {
    "pincode": "508245",
    "officename": "Yeragandlapally B.O",
    "officeType": "B.O",
    "Deliverystatus": "Delivery",
    "divisionname": "Nalgonda",
    "regionname": "Hyderabad",
    "circlename": "Andhra Pradesh",
    "Taluk": "Nalgonda",
    "Districtname": "Nalgonda",
    "statename": "ANDHRA PRADESH"
  }
]
