[
  {
    "pincode": "508266",
    "officename": "Marepally B.O",
    "officeType": "B.O",
    "Deliverystatus": "Delivery",
    "divisionname": "Nalgonda",
    "regionname": "Hyderabad",
    "circlename": "Andhra Pradesh",
    "Taluk": "Nalgonda",
    "Districtname": "Nalgonda",
    "statename": "ANDHRA PRADESH"
  },
  {
    "pincode": "508266",
    "officename": "Medaram B.O",
    "officeType": "B.O",
    "Deliverystatus": "Delivery",
    "divisionname": "Nalgonda",
    "regionname": "Hyderabad",
    "circlename": "Andhra Pradesh",
    "Taluk": "Nalgonda",
    "Districtname": "Nalgonda",
    "statename": "ANDHRA PRADESH"
  },
  {
    "pincode": "508266",
    "officename": "Parvedula B.O",
    "officeType": "B.O",
    "Deliverystatus": "Delivery",
    "divisionname": "Nalgonda",
    "regionname": "Hyderabad",
    "circlename": "Andhra Pradesh",
    "Taluk": "Nalgonda",
    "Districtname": "Nalgonda",
    "statename": "ANDHRA PRADESH"
  },
  {
    "pincode": "508266",
    "officename": "Pedavoora S.O",
    "officeType": "S.O",
    "Deliverystatus": "Delivery",
    "divisionname": "Nalgonda",
    "regionname": "Hyderabad",
    "circlename": "Andhra Pradesh",
    "Taluk": "Nalgonda",
    "Districtname": "Nalgonda",
    "statename": "ANDHRA PRADESH"
  },
  {
    "pincode": "508266",
    "officename": "Pothunur B.O",
    "officeType": "B.O",
    "Deliverystatus": "Delivery",
    "divisionname": "Nalgonda",
    "regionname": "Hyderabad",
    "circlename": "Andhra Pradesh",
    "Taluk": "Nalgonda",
    "Districtname": "Nalgonda",
    "statename": "ANDHRA PRADESH"
  },
  {
    "pincode": "508266",
    "officename": "Pulicherla B.O",
    "officeType": "B.O",
    "Deliverystatus": "Delivery",
    "divisionname": "Nalgonda",
    "regionname": "Hyderabad",
    "circlename": "Andhra Pradesh",
    "Taluk": "Nalgonda",
    "Districtname": "Nalgonda",
    "statename": "ANDHRA PRADESH"
  },
  {
    "pincode": "508266",
    "officename": "Sirisanagandla B.O",
    "officeType": "B.O",
    "Deliverystatus": "Delivery",
    "divisionname": "Nalgonda",
    "regionname": "Hyderabad",
    "circlename": "Andhra Pradesh",
    "Taluk": "Nalgonda",
    "Districtname": "Nalgonda",
    "statename": "ANDHRA PRADESH"
  },
  {
    "pincode": "508266",
    "officename": "Teppalamadugu B.O",
    "officeType": "B.O",
    "Deliverystatus": "Delivery",
    "divisionname": "Nalgonda",
    "regionname": "Hyderabad",
    "circlename": "Andhra Pradesh",
    "Taluk": "Nalgonda",
    "Districtname": "Nalgonda",
    "statename": "ANDHRA PRADESH"
  },
  {
    "pincode": "508266",
    "officename": "Tungathurthy B.O",
    "officeType": "B.O",
    "Deliverystatus": "Delivery",
    "divisionname": "Nalgonda",
    "regionname": "Hyderabad",
    "circlename": "Andhra Pradesh",
    "Taluk": "Nalgonda",
    "Districtname": "Nalgonda",
    "statename": "ANDHRA PRADESH"
  },
  {
    "pincode": "508266",
    "officename": "Utlapally B.O",
    "officeType": "B.O",
    "Deliverystatus": "Delivery",
    "divisionname": "Nalgonda",
    "regionname": "Hyderabad",
    "circlename": "Andhra Pradesh",
    "Taluk": "Nalgonda",
    "Districtname": "Nalgonda",
    "statename": "ANDHRA PRADESH"
  },
  {
    "pincode": "508266",
    "officename": "Velmaguda B.O",
    "officeType": "B.O",
    "Deliverystatus": "Delivery",
    "divisionname": "Nalgonda",
    "regionname": "Hyderabad",
    "circlename": "Andhra Pradesh",
    "Taluk": "Nalgonda",
    "Districtname": "Nalgonda",
    "statename": "ANDHRA PRADESH"
  },
  {
    "pincode": "508266",
    "officename": "Yacharam B.O",
    "officeType": "B.O",
    "Deliverystatus": "Delivery",
    "divisionname": "Nalgonda",
    "regionname": "Hyderabad",
    "circlename": "Andhra Pradesh",
    "Taluk": "Nalgonda",
    "Districtname": "Nalgonda",
    "statename": "ANDHRA PRADESH"
  }
]
