[
  {
    "pincode": "508279",
    "officename": "D Kothapally B.O",
    "officeType": "B.O",
    "Deliverystatus": "Delivery",
    "divisionname": "Suryapet",
    "regionname": "Hyderabad",
    "circlename": "Andhra Pradesh",
    "Taluk": "Thungathurthy",
    "Districtname": "Nalgonda",
    "statename": "ANDHRA PRADESH"
  },
  {
    "pincode": "508279",
    "officename": "Etoor B.O",
    "officeType": "B.O",
    "Deliverystatus": "Delivery",
    "divisionname": "Suryapet",
    "regionname": "Hyderabad",
    "circlename": "Andhra Pradesh",
    "Taluk": "Thungathurthy",
    "Districtname": "Nalgonda",
    "statename": "ANDHRA PRADESH"
  },
  {
    "pincode": "508279",
    "officename": "Nagaram B.O",
    "officeType": "B.O",
    "Deliverystatus": "Delivery",
    "divisionname": "Suryapet",
    "regionname": "Hyderabad",
    "circlename": "Andhra Pradesh",
    "Taluk": "Thungathurthy",
    "Districtname": "Nalgonda",
    "statename": "ANDHRA PRADESH"
  },
  {
    "pincode": "508279",
    "officename": "Parsaipally B.O",
    "officeType": "B.O",
    "Deliverystatus": "Delivery",
    "divisionname": "Suryapet",
    "regionname": "Hyderabad",
    "circlename": "Andhra Pradesh",
    "Taluk": "Thungathurthy",
    "Districtname": "Nalgonda",
    "statename": "ANDHRA PRADESH"
  },
  {
    "pincode": "508279",
    "officename": "Pasthala B.O",
    "officeType": "B.O",
    "Deliverystatus": "Delivery",
    "divisionname": "Suryapet",
    "regionname": "Hyderabad",
    "circlename": "Andhra Pradesh",
    "Taluk": "Thungathurthi",
    "Districtname": "Nalgonda",
    "statename": "ANDHRA PRADESH"
  },
  {
    "pincode": "508279",
    "officename": "Pasunoor B.O",
    "officeType": "B.O",
    "Deliverystatus": "Delivery",
    "divisionname": "Suryapet",
    "regionname": "Hyderabad",
    "circlename": "Andhra Pradesh",
    "Taluk": "Thungathurthy",
    "Districtname": "Nalgonda",
    "statename": "ANDHRA PRADESH"
  },
  {
    "pincode": "508279",
    "officename": "Phanigiri S.O",
    "officeType": "S.O",
    "Deliverystatus": "Delivery",
    "divisionname": "Suryapet",
    "regionname": "Hyderabad",
    "circlename": "Andhra Pradesh",
    "Taluk": "Thungathurthi",
    "Districtname": "Nalgonda",
    "statename": "ANDHRA PRADESH"
  },
  {
    "pincode": "508279",
    "officename": "Wardhamankota B.O",
    "officeType": "B.O",
    "Deliverystatus": "Delivery",
    "divisionname": "Suryapet",
    "regionname": "Hyderabad",
    "circlename": "Andhra Pradesh",
    "Taluk": "Thungathurthy",
    "Districtname": "Nalgonda",
    "statename": "ANDHRA PRADESH"
  }
]
