[
  {
    "pincode": "509105",
    "officename": "Ayyavaripally B.O",
    "officeType": "B.O",
    "Deliverystatus": "Delivery",
    "divisionname": "Wanaparthy",
    "regionname": "Hyderabad",
    "circlename": "Andhra Pradesh",
    "Taluk": "",
    "Districtname": "Mahabub Nagar",
    "statename": "ANDHRA PRADESH"
  },
  {
    "pincode": "509105",
    "officename": "Bollavaram B.O",
    "officeType": "B.O",
    "Deliverystatus": "Delivery",
    "divisionname": "Wanaparthy",
    "regionname": "Hyderabad",
    "circlename": "Andhra Pradesh",
    "Taluk": "Pangal",
    "Districtname": "Mahabub Nagar",
    "statename": "ANDHRA PRADESH"
  },
  {
    "pincode": "509105",
    "officename": "Chintalapally B.O",
    "officeType": "B.O",
    "Deliverystatus": "Delivery",
    "divisionname": "Wanaparthy",
    "regionname": "Hyderabad",
    "circlename": "Andhra Pradesh",
    "Taluk": "Kollapur",
    "Districtname": "Mahabub Nagar",
    "statename": "ANDHRA PRADESH"
  },
  {
    "pincode": "509105",
    "officename": "Gopalapuram B.O",
    "officeType": "B.O",
    "Deliverystatus": "Delivery",
    "divisionname": "Wanaparthy",
    "regionname": "Hyderabad",
    "circlename": "Andhra Pradesh",
    "Taluk": "Veepangandla",
    "Districtname": "Mahabub Nagar",
    "statename": "ANDHRA PRADESH"
  },
  {
    "pincode": "509105",
    "officename": "Jetaprole B.O",
    "officeType": "B.O",
    "Deliverystatus": "Delivery",
    "divisionname": "Wanaparthy",
    "regionname": "Hyderabad",
    "circlename": "Andhra Pradesh",
    "Taluk": "Veepangandla",
    "Districtname": "Mahabub Nagar",
    "statename": "ANDHRA PRADESH"
  },
  {
    "pincode": "509105",
    "officename": "Kondur B.O",
    "officeType": "B.O",
    "Deliverystatus": "Delivery",
    "divisionname": "Wanaparthy",
    "regionname": "Hyderabad",
    "circlename": "Andhra Pradesh",
    "Taluk": "Veepangandla",
    "Districtname": "Mahabub Nagar",
    "statename": "ANDHRA PRADESH"
  },
  {
    "pincode": "509105",
    "officename": "Koppunur B.O",
    "officeType": "B.O",
    "Deliverystatus": "Delivery",
    "divisionname": "Wanaparthy",
    "regionname": "Hyderabad",
    "circlename": "Andhra Pradesh",
    "Taluk": "Veepangandla",
    "Districtname": "Mahabub Nagar",
    "statename": "ANDHRA PRADESH"
  },
  {
    "pincode": "509105",
    "officename": "Malleswaram B.O",
    "officeType": "B.O",
    "Deliverystatus": "Delivery",
    "divisionname": "Wanaparthy",
    "regionname": "Hyderabad",
    "circlename": "Andhra Pradesh",
    "Taluk": "Kollapur",
    "Districtname": "Mahabub Nagar",
    "statename": "ANDHRA PRADESH"
  },
  {
    "pincode": "509105",
    "officename": "Pentlavally S.O",
    "officeType": "S.O",
    "Deliverystatus": "Delivery",
    "divisionname": "Wanaparthy",
    "regionname": "Hyderabad",
    "circlename": "Andhra Pradesh",
    "Taluk": "Kollapur",
    "Districtname": "Mahabub Nagar",
    "statename": "ANDHRA PRADESH"
  },
  {
    "pincode": "509105",
    "officename": "Sanginenipally B.O",
    "officeType": "B.O",
    "Deliverystatus": "Delivery",
    "divisionname": "Wanaparthy",
    "regionname": "Hyderabad",
    "circlename": "Andhra Pradesh",
    "Taluk": "Veepangandla",
    "Districtname": "Mahabub Nagar",
    "statename": "ANDHRA PRADESH"
  },
  {
    "pincode": "509105",
    "officename": "Tumkunta B.O",
    "officeType": "B.O",
    "Deliverystatus": "Delivery",
    "divisionname": "Wanaparthy",
    "regionname": "Hyderabad",
    "circlename": "Andhra Pradesh",
    "Taluk": "Veepangandla",
    "Districtname": "Mahabub Nagar",
    "statename": "ANDHRA PRADESH"
  },
  {
    "pincode": "509105",
    "officename": "Veepangandla B.O",
    "officeType": "B.O",
    "Deliverystatus": "Delivery",
    "divisionname": "Wanaparthy",
    "regionname": "Hyderabad",
    "circlename": "Andhra Pradesh",
    "Taluk": "Veepangandla",
    "Districtname": "Mahabub Nagar",
    "statename": "ANDHRA PRADESH"
  },
  {
    "pincode": "509105",
    "officename": "Velgonda B.O",
    "officeType": "B.O",
    "Deliverystatus": "Delivery",
    "divisionname": "Wanaparthy",
    "regionname": "Hyderabad",
    "circlename": "Andhra Pradesh",
    "Taluk": "Veepangandla",
    "Districtname": "Mahabub Nagar",
    "statename": "ANDHRA PRADESH"
  },
  {
    "pincode": "509105",
    "officename": "Venkatampally B.O",
    "officeType": "B.O",
    "Deliverystatus": "Delivery",
    "divisionname": "Wanaparthy",
    "regionname": "Hyderabad",
    "circlename": "Andhra Pradesh",
    "Taluk": "",
    "Districtname": "Mahabub Nagar",
    "statename": "ANDHRA PRADESH"
  }
]
