[
  {
    "pincode": "509360",
    "officename": "Ajilapuram B.O",
    "officeType": "B.O",
    "Deliverystatus": "Delivery",
    "divisionname": "Wanaparthy",
    "regionname": "Hyderabad",
    "circlename": "Andhra Pradesh",
    "Taluk": "Veldanda",
    "Districtname": "Mahabub Nagar",
    "statename": "ANDHRA PRADESH"
  },
  {
    "pincode": "509360",
    "officename": "Barkatpally B.O",
    "officeType": "B.O",
    "Deliverystatus": "Delivery",
    "divisionname": "Wanaparthy",
    "regionname": "Hyderabad",
    "circlename": "Andhra Pradesh",
    "Taluk": "Veldanda",
    "Districtname": "Mahabub Nagar",
    "statename": "ANDHRA PRADESH"
  },
  {
    "pincode": "509360",
    "officename": "Bhairampuram B.O",
    "officeType": "B.O",
    "Deliverystatus": "Delivery",
    "divisionname": "Wanaparthy",
    "regionname": "Hyderabad",
    "circlename": "Andhra Pradesh",
    "Taluk": "Veldanda",
    "Districtname": "Mahabub Nagar",
    "statename": "ANDHRA PRADESH"
  },
  {
    "pincode": "509360",
    "officename": "Bollampally B.O",
    "officeType": "B.O",
    "Deliverystatus": "Delivery",
    "divisionname": "Wanaparthy",
    "regionname": "Hyderabad",
    "circlename": "Andhra Pradesh",
    "Taluk": "Veldanda",
    "Districtname": "Mahabub Nagar",
    "statename": "ANDHRA PRADESH"
  },
  {
    "pincode": "509360",
    "officename": "Chedurpally B.O",
    "officeType": "B.O",
    "Deliverystatus": "Delivery",
    "divisionname": "Wanaparthy",
    "regionname": "Hyderabad",
    "circlename": "Andhra Pradesh",
    "Taluk": "Veldanda",
    "Districtname": "Mahabub Nagar",
    "statename": "ANDHRA PRADESH"
  },
  {
    "pincode": "509360",
    "officename": "Cherkur B.O",
    "officeType": "B.O",
    "Deliverystatus": "Delivery",
    "divisionname": "Wanaparthy",
    "regionname": "Hyderabad",
    "circlename": "Andhra Pradesh",
    "Taluk": "Veldanda",
    "Districtname": "Mahabub Nagar",
    "statename": "ANDHRA PRADESH"
  },
  {
    "pincode": "509360",
    "officename": "Kalakonda B.O",
    "officeType": "B.O",
    "Deliverystatus": "Delivery",
    "divisionname": "Wanaparthy",
    "regionname": "Hyderabad",
    "circlename": "Andhra Pradesh",
    "Taluk": "Madgul",
    "Districtname": "Mahabub Nagar",
    "statename": "ANDHRA PRADESH"
  },
  {
    "pincode": "509360",
    "officename": "Kotra B.O",
    "officeType": "B.O",
    "Deliverystatus": "Delivery",
    "divisionname": "Wanaparthy",
    "regionname": "Hyderabad",
    "circlename": "Andhra Pradesh",
    "Taluk": "Veldanda",
    "Districtname": "Mahabub Nagar",
    "statename": "ANDHRA PRADESH"
  },
  {
    "pincode": "509360",
    "officename": "Kuppugandla B.O",
    "officeType": "B.O",
    "Deliverystatus": "Delivery",
    "divisionname": "Wanaparthy",
    "regionname": "Hyderabad",
    "circlename": "Andhra Pradesh",
    "Taluk": "Veldanda",
    "Districtname": "Mahabub Nagar",
    "statename": "ANDHRA PRADESH"
  },
  {
    "pincode": "509360",
    "officename": "Peddapur B.O",
    "officeType": "B.O",
    "Deliverystatus": "Delivery",
    "divisionname": "Wanaparthy",
    "regionname": "Hyderabad",
    "circlename": "Andhra Pradesh",
    "Taluk": "Veldanda",
    "Districtname": "Mahabub Nagar",
    "statename": "ANDHRA PRADESH"
  },
  {
    "pincode": "509360",
    "officename": "Polepally B.O",
    "officeType": "B.O",
    "Deliverystatus": "Delivery",
    "divisionname": "Wanaparthy",
    "regionname": "Hyderabad",
    "circlename": "Andhra Pradesh",
    "Taluk": "Amangal",
    "Districtname": "Mahabub Nagar",
    "statename": "ANDHRA PRADESH"
  },
  {
    "pincode": "509360",
    "officename": "Pothepally B.O",
    "officeType": "B.O",
    "Deliverystatus": "Delivery",
    "divisionname": "Wanaparthy",
    "regionname": "Hyderabad",
    "circlename": "Andhra Pradesh",
    "Taluk": "Veldanda",
    "Districtname": "Mahabub Nagar",
    "statename": "ANDHRA PRADESH"
  },
  {
    "pincode": "509360",
    "officename": "Veldanda S.O",
    "officeType": "S.O",
    "Deliverystatus": "Delivery",
    "divisionname": "Wanaparthy",
    "regionname": "Hyderabad",
    "circlename": "Andhra Pradesh",
    "Taluk": "Veldanda",
    "Districtname": "Mahabub Nagar",
    "statename": "ANDHRA PRADESH"
  }
]
