[
  {
    "pincode": "509338",
    "officename": "Balajinagar B.O",
    "officeType": "B.O",
    "Deliverystatus": "Delivery",
    "divisionname": "Mahabubnagar",
    "regionname": "Hyderabad",
    "circlename": "Andhra Pradesh",
    "Taluk": "",
    "Districtname": "Mahabub Nagar",
    "statename": "ANDHRA PRADESH"
  },
  {
    "pincode": "509338",
    "officename": "Bomraspet B.O",
    "officeType": "B.O",
    "Deliverystatus": "Delivery",
    "divisionname": "Mahabubnagar",
    "regionname": "Hyderabad",
    "circlename": "Andhra Pradesh",
    "Taluk": "",
    "Districtname": "Mahabub Nagar",
    "statename": "ANDHRA PRADESH"
  },
  {
    "pincode": "509338",
    "officename": "Buranpur B.O",
    "officeType": "B.O",
    "Deliverystatus": "Delivery",
    "divisionname": "Mahabubnagar",
    "regionname": "Hyderabad",
    "circlename": "Andhra Pradesh",
    "Taluk": "",
    "Districtname": "Mahabub Nagar",
    "statename": "ANDHRA PRADESH"
  },
  {
    "pincode": "509338",
    "officename": "Chilmulmailwar B.O",
    "officeType": "B.O",
    "Deliverystatus": "Delivery",
    "divisionname": "Mahabubnagar",
    "regionname": "Hyderabad",
    "circlename": "Andhra Pradesh",
    "Taluk": "",
    "Districtname": "Mahabub Nagar",
    "statename": "ANDHRA PRADESH"
  },
  {
    "pincode": "509338",
    "officename": "Chitlapally B.O",
    "officeType": "B.O",
    "Deliverystatus": "Delivery",
    "divisionname": "Mahabubnagar",
    "regionname": "Hyderabad",
    "circlename": "Andhra Pradesh",
    "Taluk": "",
    "Districtname": "Mahabub Nagar",
    "statename": "ANDHRA PRADESH"
  },
  {
    "pincode": "509338",
    "officename": "Eranpally B.O",
    "officeType": "B.O",
    "Deliverystatus": "Delivery",
    "divisionname": "Mahabubnagar",
    "regionname": "Hyderabad",
    "circlename": "Andhra Pradesh",
    "Taluk": "",
    "Districtname": "Mahabub Nagar",
    "statename": "ANDHRA PRADESH"
  },
  {
    "pincode": "509338",
    "officename": "Erupmalla B.O",
    "officeType": "B.O",
    "Deliverystatus": "Delivery",
    "divisionname": "Mahabubnagar",
    "regionname": "Hyderabad",
    "circlename": "Andhra Pradesh",
    "Taluk": "",
    "Districtname": "Mahabub Nagar",
    "statename": "ANDHRA PRADESH"
  },
  {
    "pincode": "509338",
    "officename": "Kodangal S.O",
    "officeType": "S.O",
    "Deliverystatus": "Delivery",
    "divisionname": "Mahabubnagar",
    "regionname": "Hyderabad",
    "circlename": "Andhra Pradesh",
    "Taluk": "Kodangal",
    "Districtname": "Mahabub Nagar",
    "statename": "ANDHRA PRADESH"
  },
  {
    "pincode": "509338",
    "officename": "Kothur B.O",
    "officeType": "B.O",
    "Deliverystatus": "Delivery",
    "divisionname": "Mahabubnagar",
    "regionname": "Hyderabad",
    "circlename": "Andhra Pradesh",
    "Taluk": "",
    "Districtname": "Mahabub Nagar",
    "statename": "ANDHRA PRADESH"
  },
  {
    "pincode": "509338",
    "officename": "Metlakunta B.O",
    "officeType": "B.O",
    "Deliverystatus": "Delivery",
    "divisionname": "Mahabubnagar",
    "regionname": "Hyderabad",
    "circlename": "Andhra Pradesh",
    "Taluk": "",
    "Districtname": "Mahabub Nagar",
    "statename": "ANDHRA PRADESH"
  },
  {
    "pincode": "509338",
    "officename": "Parsapur B.O",
    "officeType": "B.O",
    "Deliverystatus": "Delivery",
    "divisionname": "Mahabubnagar",
    "regionname": "Hyderabad",
    "circlename": "Andhra Pradesh",
    "Taluk": "",
    "Districtname": "Mahabub Nagar",
    "statename": "ANDHRA PRADESH"
  },
  {
    "pincode": "509338",
    "officename": "Regadmailwar B.O",
    "officeType": "B.O",
    "Deliverystatus": "Delivery",
    "divisionname": "Mahabubnagar",
    "regionname": "Hyderabad",
    "circlename": "Andhra Pradesh",
    "Taluk": "",
    "Districtname": "Mahabub Nagar",
    "statename": "ANDHRA PRADESH"
  },
  {
    "pincode": "509338",
    "officename": "Tunkimetla B.O",
    "officeType": "B.O",
    "Deliverystatus": "Delivery",
    "divisionname": "Mahabubnagar",
    "regionname": "Hyderabad",
    "circlename": "Andhra Pradesh",
    "Taluk": "",
    "Districtname": "Mahabub Nagar",
    "statename": "ANDHRA PRADESH"
  },
  {
    "pincode": "509338",
    "officename": "Wadcherla B.O",
    "officeType": "B.O",
    "Deliverystatus": "Delivery",
    "divisionname": "Mahabubnagar",
    "regionname": "Hyderabad",
    "circlename": "Andhra Pradesh",
    "Taluk": "",
    "Districtname": "Mahabub Nagar",
    "statename": "ANDHRA PRADESH"
  },
  {
    "pincode": "509338",
    "officename": "Yenkipalli B.O",
    "officeType": "B.O",
    "Deliverystatus": "Delivery",
    "divisionname": "Mahabubnagar",
    "regionname": "Hyderabad",
    "circlename": "Andhra Pradesh",
    "Taluk": "",
    "Districtname": "Mahabub Nagar",
    "statename": "ANDHRA PRADESH"
  }
]
