[
  {
    "pincode": "509350",
    "officename": "Chowdarpalli B.O",
    "officeType": "B.O",
    "Deliverystatus": "Delivery",
    "divisionname": "Mahabubnagar",
    "regionname": "Hyderabad",
    "circlename": "Andhra Pradesh",
    "Taluk": "",
    "Districtname": "Mahabub Nagar",
    "statename": "ANDHRA PRADESH"
  },
  {
    "pincode": "509350",
    "officename": "Dudiyal B.O",
    "officeType": "B.O",
    "Deliverystatus": "Delivery",
    "divisionname": "Mahabubnagar",
    "regionname": "Hyderabad",
    "circlename": "Andhra Pradesh",
    "Taluk": "",
    "Districtname": "Mahabub Nagar",
    "statename": "ANDHRA PRADESH"
  },
  {
    "pincode": "509350",
    "officename": "Gouraram B.O",
    "officeType": "B.O",
    "Deliverystatus": "Delivery",
    "divisionname": "Mahabubnagar",
    "regionname": "Hyderabad",
    "circlename": "Andhra Pradesh",
    "Taluk": "",
    "Districtname": "Mahabub Nagar",
    "statename": "ANDHRA PRADESH"
  },
  {
    "pincode": "509350",
    "officename": "Hakeempet B.O",
    "officeType": "B.O",
    "Deliverystatus": "Delivery",
    "divisionname": "Mahabubnagar",
    "regionname": "Hyderabad",
    "circlename": "Andhra Pradesh",
    "Taluk": "",
    "Districtname": "Mahabub Nagar",
    "statename": "ANDHRA PRADESH"
  },
  {
    "pincode": "509350",
    "officename": "Husnabad S.O (Mahabub Nagar)",
    "officeType": "S.O",
    "Deliverystatus": "Delivery",
    "divisionname": "Mahabubnagar",
    "regionname": "Hyderabad",
    "circlename": "Andhra Pradesh",
    "Taluk": "",
    "Districtname": "Mahabub Nagar",
    "statename": "ANDHRA PRADESH"
  },
  {
    "pincode": "509350",
    "officename": "Kudirmalla B.O",
    "officeType": "B.O",
    "Deliverystatus": "Delivery",
    "divisionname": "Mahabubnagar",
    "regionname": "Hyderabad",
    "circlename": "Andhra Pradesh",
    "Taluk": "",
    "Districtname": "Mahabub Nagar",
    "statename": "ANDHRA PRADESH"
  },
  {
    "pincode": "509350",
    "officename": "Lakcherla B.O",
    "officeType": "B.O",
    "Deliverystatus": "Delivery",
    "divisionname": "Mahabubnagar",
    "regionname": "Hyderabad",
    "circlename": "Andhra Pradesh",
    "Taluk": "",
    "Districtname": "Mahabub Nagar",
    "statename": "ANDHRA PRADESH"
  },
  {
    "pincode": "509350",
    "officename": "Nandigam B.O",
    "officeType": "B.O",
    "Deliverystatus": "Delivery",
    "divisionname": "Mahabubnagar",
    "regionname": "Hyderabad",
    "circlename": "Andhra Pradesh",
    "Taluk": "",
    "Districtname": "Mahabub Nagar",
    "statename": "ANDHRA PRADESH"
  },
  {
    "pincode": "509350",
    "officename": "Neetur B.O",
    "officeType": "B.O",
    "Deliverystatus": "Delivery",
    "divisionname": "Mahabubnagar",
    "regionname": "Hyderabad",
    "circlename": "Andhra Pradesh",
    "Taluk": "",
    "Districtname": "Mahabub Nagar",
    "statename": "ANDHRA PRADESH"
  },
  {
    "pincode": "509350",
    "officename": "Polepally B.O",
    "officeType": "B.O",
    "Deliverystatus": "Delivery",
    "divisionname": "Mahabubnagar",
    "regionname": "Hyderabad",
    "circlename": "Andhra Pradesh",
    "Taluk": "",
    "Districtname": "Mahabub Nagar",
    "statename": "ANDHRA PRADESH"
  }
]
