[
  {
    "pincode": "509353",
    "officename": "Bhutpur B.O",
    "officeType": "B.O",
    "Deliverystatus": "Delivery",
    "divisionname": "Mahabubnagar",
    "regionname": "Hyderabad",
    "circlename": "Andhra Pradesh",
    "Taluk": "",
    "Districtname": "Mahabub Nagar",
    "statename": "ANDHRA PRADESH"
  },
  {
    "pincode": "509353",
    "officename": "Jaklair S.O",
    "officeType": "S.O",
    "Deliverystatus": "Delivery",
    "divisionname": "Mahabubnagar",
    "regionname": "Hyderabad",
    "circlename": "Andhra Pradesh",
    "Taluk": "",
    "Districtname": "Mahabub Nagar",
    "statename": "ANDHRA PRADESH"
  },
  {
    "pincode": "509353",
    "officename": "Kachwar B.O",
    "officeType": "B.O",
    "Deliverystatus": "Delivery",
    "divisionname": "Mahabubnagar",
    "regionname": "Hyderabad",
    "circlename": "Andhra Pradesh",
    "Taluk": "",
    "Districtname": "Mahabub Nagar",
    "statename": "ANDHRA PRADESH"
  },
  {
    "pincode": "509353",
    "officename": "Manthan Gode B.O",
    "officeType": "B.O",
    "Deliverystatus": "Delivery",
    "divisionname": "Mahabubnagar",
    "regionname": "Hyderabad",
    "circlename": "Andhra Pradesh",
    "Taluk": "",
    "Districtname": "Mahabub Nagar",
    "statename": "ANDHRA PRADESH"
  },
  {
    "pincode": "509353",
    "officename": "Patherched B.O",
    "officeType": "B.O",
    "Deliverystatus": "Delivery",
    "divisionname": "Mahabubnagar",
    "regionname": "Hyderabad",
    "circlename": "Andhra Pradesh",
    "Taluk": "",
    "Districtname": "Mahabub Nagar",
    "statename": "ANDHRA PRADESH"
  },
  {
    "pincode": "509353",
    "officename": "Pulimamidi B.O",
    "officeType": "B.O",
    "Deliverystatus": "Delivery",
    "divisionname": "Mahabubnagar",
    "regionname": "Hyderabad",
    "circlename": "Andhra Pradesh",
    "Taluk": "",
    "Districtname": "Mahabub Nagar",
    "statename": "ANDHRA PRADESH"
  },
  {
    "pincode": "509353",
    "officename": "Raikode B.O",
    "officeType": "B.O",
    "Deliverystatus": "Delivery",
    "divisionname": "Mahabubnagar",
    "regionname": "Hyderabad",
    "circlename": "Andhra Pradesh",
    "Taluk": "",
    "Districtname": "Mahabub Nagar",
    "statename": "ANDHRA PRADESH"
  },
  {
    "pincode": "509353",
    "officename": "Rampur B.O",
    "officeType": "B.O",
    "Deliverystatus": "Delivery",
    "divisionname": "Mahabubnagar",
    "regionname": "Hyderabad",
    "circlename": "Andhra Pradesh",
    "Taluk": "",
    "Districtname": "Mahabub Nagar",
    "statename": "ANDHRA PRADESH"
  },
  {
    "pincode": "509353",
    "officename": "Undekode B.O",
    "officeType": "B.O",
    "Deliverystatus": "Delivery",
    "divisionname": "Mahabubnagar",
    "regionname": "Hyderabad",
    "circlename": "Andhra Pradesh",
    "Taluk": "",
    "Districtname": "Mahabub Nagar",
    "statename": "ANDHRA PRADESH"
  }
]
